# SPACE DATA - HISTORICAL TLEs
# ----------------------------
# NORAD_ID    : 39132
# OBJECT_NAME : DOVE 2
# --------------------------------------------------------------------+-----------------------------------------------------------------------+----------------------------------------------------------------------------------------------------------------------------------------
#                  LINE 1                                             |                 LINE 2                                                |      DERIVED PARAMETERS
# --------------------------------------------------------------------+-----------------------------------------------------------------------+----------------------------------------------------------------------------------------------------------------------------------------
# NORAD  COSPAR     TLE_EPOCH      MEANMOT1 MEANMOT2   BSTAR  #  REV  |   NORAD    INC     RAAN     ECC    ARGPER  MEANANOM   MEANMOT     REV |  CAL_DATE              LONG     ARGLAT     PERIOD        SMA         PERIGEE        APOGEE      INC_X      INC_Y      ECC_X      ECC_Y
# ------ ------   -------------- ----------  -------  ------- -- ----     -----  ------- -------- ------- -------- -------- -----------  ----   ------------------- ---------  --------  --------  ------------  ------------   ----------- ---------- ----------  ---------  ---------   
1 39514U 98067DJ  14043.20645039  .00005423  00000-0  10000-3 0  9991 | 2 39514 051.6511 359.1404 0003766 159.8385 342.0305 15.50837505    40 | 2014/02/12-04:57:17   75.4820  141.8557  342.0172   92.8531     6792.4165     6789.8585     6794.9746  51.645287  -0.774885  -0.000352   0.000135
1 39514U 98067DJ  14044.56323527  .00005445  00000-0  10000-3 0  9990 | 2 39514 051.6518 352.4135 0004894 113.5639 048.5180 15.50946634   252 | 2014/02/13-13:31:03  191.7759  162.1239   48.5600   92.8465     6792.0979     6788.7739     6795.4220  51.199675  -6.819217  -0.000135   0.000470
1 39514U 98067DJ  14045.77401637  .00048641  00000-0  82254-3 0  9998 | 2 39514 051.6513 346.3975 0005087 171.1562 276.0845 15.51084019   449 | 2014/02/14-18:34:35  349.7077   87.1827  276.0265   92.8383     6791.6968     6788.2419     6795.1518  50.202519 -12.147586  -0.000470   0.000194
1 39514U 98067DJ  14047.20112903  .00045863  00000-0  77292-3 0  9992 | 2 39514 051.6518 339.3157 0004967 177.4081 324.2377 15.51206573   660 | 2014/02/16-04:49:37   97.5516  141.6125  324.2044   92.8310     6791.3391     6787.9659     6794.7124  48.322369 -18.244371  -0.000456   0.000196
1 39514U 98067DJ  14049.06117745  .00047393  00000-0  79314-3 0  9994 | 2 39514 051.6540 330.0856 0004943 188.9037 267.3876 15.51388010   951 | 2014/02/18-01:28:05  103.5870   96.2347  267.3310   92.8201     6790.8096     6787.4529     6794.1663  44.772212 -25.760139  -0.000461   0.000177
1 39514U 98067DJ  14050.60228001  .00049288  00000-0  81966-3 0  9995 | 2 39514 051.6532 322.4329 0005390 192.1311 237.3747 15.51545920  1197 | 2014/02/19-14:27:16  334.3411   69.4538  237.3227   92.8107     6790.3488     6786.6888     6794.0088  40.942386 -31.492446  -0.000487   0.000232
1 39514U 98067DJ  14051.74917218  .00097824  00000-0  16098-2 0  9998 | 2 39514 051.6492 316.7515 0004485 193.0053 167.1336 15.51699250  1372 | 2014/02/20-17:58:48  103.4010    0.1503  167.1450   92.8015     6789.9015     6786.8562     6792.9468  37.620704 -35.388168  -0.000387   0.000226
1 39514U 98067DJ  14052.79967419  .00062608  00000-0  10247-2 0  9994 | 2 39514 051.6501 311.5275 0006729 160.4802 313.3280 15.51879716  1530 | 2014/02/21-19:11:31   14.1718  113.7521  313.2719   92.7907     6789.3751     6784.8065     6793.9437  34.242955 -38.667207  -0.000252   0.000624
1 39514U 98067DJ  14054.34452815  .00064058  00000-0  10407-2 0  9995 | 2 39514 051.6496 303.8542 0006665 165.2055 305.6057 15.52078394  1772 | 2014/02/23-08:16:07  222.5122  110.7491  305.5436   92.7788     6788.7957     6784.2710     6793.3204  28.773034 -42.892816  -0.000218   0.000630
1 39514U 98067DJ  14055.49449422  .00063825  00000-0  10315-2 0  9991 | 2 39514 051.6477 298.1336 0006906 175.5207 245.2530 15.52222544  1952 | 2014/02/24-11:52:04  333.3916   60.7019  245.1812   92.7702     6788.3754     6783.6873     6793.0634  24.353394 -45.545550  -0.000277   0.000633
1 39514U 98067DJ  14056.65010569  .00061393  00000-0  98833-3 0  9996 | 2 39514 051.6479 292.3937 0006719 187.5041 215.2871 15.52350256  2136 | 2014/02/25-15:36:09   54.2731   42.7468  215.2427   92.7626     6788.0031     6783.4422     6792.5639  19.676234 -47.753025  -0.000335   0.000582
1 39514U 98067DJ  14058.57319922  .00172074  00000-0  26914-2 0  9993 | 2 39514 051.6464 282.8365 0007888 224.0273 136.0599 15.53082723  2433 | 2014/02/27-13:45:24   80.7435    0.1499  136.1226   92.7188     6785.8686     6780.5160     6791.2213  11.474263 -50.355654  -0.000661   0.000431
1 39514U 98067DJ  14059.88175066  .00095315  00000-0  14774-2 0  9990 | 2 39514 051.6484 276.3177 0005987 232.1018 249.0405 15.53212637  2631 | 2014/02/28-21:09:43   78.5755  121.0783  248.9765   92.7111     6785.4903     6781.4278     6789.5527   5.683460 -51.334740  -0.000510   0.000314
1 39514U 98067DJ  14061.53958574  .00203817  00000-0  30374-2 0  9990 | 2 39514 051.6469 268.0612 0004513 246.4434 152.5696 15.53852266  2896 | 2014/03/02-12:57:00   47.4160   39.0368  152.5934   92.6729     6783.6280     6780.5666     6786.6895  -1.747317 -51.617334  -0.000407   0.000194
1 39514U 98067DJ  14062.57081442  .00150305  00000-0  22353-2 0  9997 | 2 39514 051.6484 262.9281 0006246 244.1577 167.6155 15.54109119  3055 | 2014/03/03-13:41:58   52.0476   51.7885  167.6308   92.6576     6782.8805     6778.6440     6787.1171  -6.358682 -51.255482  -0.000524   0.000339
1 39514U 98067DJ  14063.78313642  .00172915  00000-0  25195-2 0  9999 | 2 39514 051.6453 256.8848 0006510 267.6139 092.4106 15.54578655  3236 | 2014/03/04-18:47:42  187.4705    0.0990   92.4851   92.6296     6781.5147     6777.0999     6785.9295 -11.718819 -50.298174  -0.000627   0.000174
1 39514U 98067DJ  14064.81154850  .00166622  00000-0  23997-2 0  9994 | 2 39514 051.6453 251.7531 0006853 271.9185 088.1021 15.54918910  3395 | 2014/03/05-19:28:37  203.8481    0.0991   88.1806   92.6093     6780.5254     6775.8787     6785.1721 -16.170785 -49.048371  -0.000658   0.000193
1 39514U 98067DJ  14066.30034834  .00167093  00000-0  23669-2 0  9998 | 2 39514 051.6462 244.3111 0005222 240.9018 179.6769 15.55378878  3633 | 2014/03/07-07:12:30  328.1673   60.5790  179.6772   92.5819     6779.1885     6775.6484     6782.7286 -22.387828 -46.541542  -0.000301   0.000427
1 39514U 98067DJ  14067.52867188  .00180424  00000-0  25048-2 0  9995 | 2 39514 051.6476 238.1819 0006785 285.5014 178.7658 15.55864329  3829 | 2014/03/08-12:41:17   14.0152  104.2689  178.7675   92.5531     6777.7783     6773.1796     6782.3770 -27.229867 -43.886318  -0.000651   0.000191
1 39514U 98067DJ  14068.53759601  .00213927  00000-0  29080-2 0  9992 | 2 39514 051.6442 233.1404 0007915 296.0960 063.9217 15.56301172  3986 | 2014/03/09-12:54:08  127.5133    0.0992   64.0032   92.5271     6776.5099     6771.1463     6781.8735 -30.979094 -41.320928  -0.000778   0.000148
1 39514U 98067DJ  14069.82160681  .00230382  00000-0  30645-2 0  9992 | 2 39514 051.6443 226.7173 0008373 304.0180 056.0016 15.56821914  4174 | 2014/03/10-19:43:06  237.4440    0.0992   56.0812   92.4961     6774.9987     6769.3260     6780.6714 -35.407259 -37.596007  -0.000826   0.000135
1 39514U 98067DJ  14071.29768563  .00209565  00000-0  27293-2 0  9993 | 2 39514 051.6452 219.3265 0008831 311.5182 048.5052 15.57459827  4401 | 2014/03/12-07:08:40   57.6743    0.0993   48.5811   92.4582     6773.1486     6767.1673     6779.1300 -39.949999 -32.729563  -0.000872   0.000141
1 39514U 98067DJ  14072.38835235  .00207736  00000-0  26622-2 0  9998 | 2 39514 051.6449 213.8608 0009196 317.2609 042.7668 15.57893512  4579 | 2014/03/13-09:19:13   96.8507    0.0993   42.8384   92.4325     6771.8916     6765.6641     6778.1190 -42.885599 -28.775356  -0.000909   0.000142
1 39514U 98067DJ  14073.41457899  .00207960  00000-0  26227-2 0  9999 | 2 39514 051.6451 208.7154 0009537 322.4974 037.5353 15.58315756  4734 | 2014/03/14-09:56:59  112.4442    0.0993   37.6019   92.4075     6770.6682     6764.2110     6777.1254 -45.293634 -24.813365  -0.000943   0.000146
1 39514U 98067DJ  14074.78833328  .00199444  00000-0  24723-2 0  9991 | 2 39514 051.6476 201.8161 0008966 326.9871 185.9948 15.58809155  4956 | 2014/03/15-18:55:11  102.2999  152.9712  185.9841   92.3782     6769.2394     6763.1701     6775.3087 -47.948673 -19.193732  -0.000880   0.000174
1 39514U 98067DJ  14075.97900481  .00178786  00000-0  21873-2 0  9997 | 2 39514 051.6451 195.8448 0010444 334.6901 025.3579 15.59215354  5134 | 2014/03/16-23:29:46  331.0204    0.0993   25.4092   92.3541     6768.0637     6760.9952     6775.1323 -49.682834 -14.100792  -0.001030   0.000172
1 39514U 98067DJ  14077.53334632  .00188319  00000-0  22502-2 0  9993 | 2 39514 051.6479 188.0327 0009962 341.0982 111.2606 15.59807242  5384 | 2014/03/18-12:48:01   87.6167   92.4651  111.3669   92.3191     6766.3515     6759.6108     6773.0921 -51.141156  -7.217187  -0.000978   0.000188
1 39514U 98067DJ  14078.54185179  .00216258  00000-0  25280-2 0  9995 | 2 39514 051.6438 182.9631 0011280 346.9658 013.1042 15.60266412  5531 | 2014/03/19-13:00:15  189.0311    0.0993   13.1335   92.2919     6765.0239     6757.3929     6772.6548 -51.574754  -2.669613  -0.001111   0.000197
1 39514U 98067DJ  14080.20673279  .00226983  00000-0  25738-2 0  9998 | 2 39514 051.6432 174.5828 0011606 354.1816 005.9041 15.61018641  5795 | 2014/03/21-04:57:41   78.3938    0.0994    5.9178   92.2475     6762.8504     6755.0015     6770.6994 -51.412544   4.875489  -0.001138   0.000226
1 39514U 98067DJ  14081.48682360  .00242222  00000-0  26756-2 0  9995 | 2 39514 051.6430 168.1325 0012020 359.9706 000.1285 15.61639894  5994 | 2014/03/22-11:41:01  186.9251    0.0994    0.1288   92.2108     6761.0567     6752.9299     6769.1835 -50.539172  10.620337  -0.001176   0.000248
1 39514U 98067DJ  14082.70244842  .00259482  00000-0  27944-2 0  9996 | 2 39514 051.6431 162.0022 0012242 004.9430 355.1683 15.62233753  6181 | 2014/03/23-16:51:31  271.8663    0.0995  355.1565   92.1757     6759.3432     6751.0684     6767.6180 -49.116120  15.956710  -0.001193   0.000277
1 39514U 98067DJ  14084.17339076  .00237916  00000-0  25035-2 0  9990 | 2 39514 051.6433 154.5765 0012449 011.4457 348.6819 15.62896756  6416 | 2014/03/25-04:09:40   90.2648    0.0996  348.6539   92.1366     6757.4314     6749.0191     6765.8438 -46.642126  22.170758  -0.001208   0.000301
1 39514U 98067DJ  14085.45196946  .00261057  00000-0  26742-2 0  9998 | 2 39514 051.6433 148.1159 0012584 017.7401 342.4030 15.63503652  6610 | 2014/03/26-10:50:50  198.2585    0.0994  342.3593   92.1008     6755.6827     6747.1813     6764.1840 -43.851271  27.278131  -0.001220   0.000308
1 39514U 98067DJ  14086.47448517  .00236345  00000-0  24433-2 0  9992 | 2 39514 051.6476 142.9429 0012211 015.2183 344.9694 15.63964985  6776 | 2014/03/27-11:23:15  212.5004    0.1514  344.9331   92.0737     6754.3541     6746.1063     6762.6018 -41.216611  31.123393  -0.001133   0.000454
1 39514U 98067DJ  14087.49667107  .00234859  00000-0  23257-2 0  9994 | 2 39514 051.6425 137.7727 0012927 027.3220 332.8452 15.64443155  6942 | 2014/03/28-11:55:12  226.6855    0.0995  332.7775   92.0455     6752.9777     6744.2481     6761.7073 -38.240468  34.707555  -0.001249   0.000333
1 39514U 98067DJ  14088.58242512  .00221665  00000-0  21564-2 0  9994 | 2 39514 051.6426 132.2730 0012832 032.9687 327.2106 15.64935552  7112 | 2014/03/29-13:58:41  264.1147    0.0996  327.1309   92.0166     6751.5611     6742.8975     6760.2247 -34.738113  38.212847  -0.001241   0.000327
1 39514U 98067DJ  14090.13381176  .00196081  00000-0  18662-2 0  9996 | 2 39514 051.6443 124.4051 0012830 039.0798 068.9160 15.65569966  7357 | 2014/03/31-03:12:41    4.1945  108.1331   69.0533   91.9793     6749.7370     6741.0771     6758.3970 -29.181118  42.609812  -0.001230   0.000365
1 39514U 98067DJ  14091.13585524  .00229117  00000-0  21322-2 0  9994 | 2 39514 051.6427 119.3265 0012814 045.6216 314.5827 15.66021241  7517 | 2014/04/01-03:15:37  118.7879    0.0996  314.4780   91.9528     6748.4403     6739.7928     6757.0877 -25.293858  45.024318  -0.001237   0.000333
1 39514U 98067DJ  14092.47569448  .00221304  00000-0  20208-2 0  9991 | 2 39514 051.6430 112.5253 0012792 050.8990 309.3141 15.66518349  7718 | 2014/04/02-11:25:00  249.2430    0.0996  309.2006   91.9236     6747.0125     6738.3818     6755.6433 -19.783987  47.703179  -0.001226   0.000365
1 39514U 98067DJ  14093.49624826  .00172675  00000-0  15635-2 0  9990 | 2 39514 051.6432 107.3420 0012711 053.5156 306.7010 15.66890069  7878 | 2014/04/03-11:54:35  262.8281    0.0997  306.5841   91.9018     6745.9454     6737.3706     6754.5202 -15.393530  49.295632  -0.001201   0.000417
1 39514U 98067DJ  14095.09042626  .00141139  00000-0  12548-2 0  9991 | 2 39514 051.6431 099.2399 0012593 059.5892 300.6347 15.67453610  8125 | 2014/04/05-02:10:12  126.3982    0.0996  300.5104   91.8687     6744.3284     6735.8353     6752.8216  -8.292259  50.973015  -0.001174   0.000455
1 39514U 98067DJ  14096.17417725  .00167996  00000-0  14702-2 0  9990 | 2 39514 051.6429 093.7284 0012606 064.2488 295.9808 15.67746361  8297 | 2014/04/06-04:10:48  163.1226    0.0997  295.8509   91.8516     6743.4888     6734.9880     6751.9896  -3.358180  51.533598  -0.001169   0.000473
1 39514U 98067DJ  14097.44888344  .00153607  00000-0  13254-2 0  9995 | 2 39514 051.6426 087.2420 0012497 069.6459 290.5879 15.68144049  8496 | 2014/04/07-10:46:23  269.7554    0.0997  290.4538   91.8283     6742.3486     6733.9227     6750.7745   2.484918  51.582781  -0.001149   0.000491
1 39514U 98067DJ  14098.78696923  .00148595  00000-0  12619-2 0  9997 | 2 39514 051.6423 080.4285 0012321 076.3261 283.9107 15.68553090  8703 | 2014/04/08-18:53:14   39.5957    0.0997  283.7736   91.8044     6741.1764     6732.8706     6749.4822   8.586992  50.923381  -0.001132   0.000486
1 39514U 98067DJ  14100.12472846  .00137179  00000-0  11499-2 0  9996 | 2 39514 051.6424 073.6123 0012222 082.4039 277.8346 15.68911813  8911 | 2014/04/10-02:59:36  169.3221    0.0997  277.6958   91.7834     6740.1488     6731.9110     6748.3866  14.570155  49.544405  -0.001117   0.000497
1 39514U 98067DJ  14101.14376944  .00123816  00000-0  10286-2 0  9997 | 2 39514 051.6424 068.4179 0012182 087.2517 272.9874 15.69180175  9073 | 2014/04/11-03:27:01  182.3751    0.0997  272.8480   91.7677     6739.3803     6731.1704     6747.5902  18.995834  48.021826  -0.001110   0.000502
1 39514U 98067DJ  14102.16262979  .00149474  00000-0  12215-2 0  9994 | 2 39514 051.6425 063.2226 0012093 092.9473 267.2908 15.69486123  9230 | 2014/04/12-03:54:11  195.3653    0.0997  267.1524   91.7498     6738.5045     6730.3556     6746.6534  23.266260  46.104544  -0.001106   0.000489
1 39514U 98067DJ  14103.81778515  .00155055  00000-0  12362-2 0  9990 | 2 39514 051.6430 054.7770 0011827 100.6747 259.5582 15.70066027  9499 | 2014/04/13-19:37:36   81.3034    0.0997  259.4250   91.7159     6736.8451     6728.8775     6744.8128  29.785632  42.187861  -0.001076   0.000491
1 39514U 98067DJ  14104.83606404  .00138837  00000-0  10963-2 0  9994 | 2 39514 051.6431 049.5777 0011739 105.3268 254.9028 15.70355266  9659 | 2014/04/14-20:03:55   94.0901    0.0998  254.7730   91.6990     6736.0179     6728.1105     6743.9253  33.486225  39.315169  -0.001063   0.000498
1 39514U 98067DJ  14106.06424458  .00189158  00000-0  14549-2 0  9994 | 2 39514 051.6447 043.2958 0012353 112.7028 356.4412 15.70804502  9856 | 2014/04/16-01:32:30   74.8132  109.1352  356.4324   91.6728     6734.7335     6726.4141     6743.0529  37.588202  35.416128  -0.001128   0.000502
1 39514U 98067DJ  14107.25361772  .00153856  00000-0  11719-2 0  9997 | 2 39514 051.6427 037.2243 0011557 118.8579 241.3580 15.71166334 10032 | 2014/04/17-06:05:12  259.1594    0.0998  241.2419   91.6517     6733.6995     6725.9174     6741.4816  41.121710  31.240574  -0.001056   0.000469
1 39514U 98067DJ  14108.86326438  .00168701  00000-0  12541-2 0  9994 | 2 39514 051.6423 028.9970 0011460 119.7154 352.6235 15.71696377 10290 | 2014/04/18-20:43:06   16.3230  112.3220  352.6066   91.6207     6732.1855     6724.4704     6739.9006  45.168684  25.034319  -0.000979   0.000595
1 39514U 98067DJ  14110.00329031  .00263749  00000-0  18839-2 0  9999 | 2 39514 051.6456 023.1600 0011894 128.9655 319.5643 15.72338897 10478 | 2014/04/20-00:04:44   97.5021   88.4413  319.4758   91.5833     6730.3513     6722.3463     6738.3564  47.483488  20.312222  -0.001051   0.000556
1 39514U 98067DJ  14111.00452222  .00194800  00000-0  13864-2 0  9993 | 2 39514 051.6425 018.0246 0011208 138.7752 221.4094 15.72643065 10634 | 2014/04/21-00:06:30  192.4131    0.0997  221.3245   91.5656     6729.4835     6721.9411     6737.0259  49.108080  15.979496  -0.001030   0.000442
1 39514U 98067DJ  14112.14806372  .00278873  00000-0  19039-2 0  9991 | 2 39514 051.6424 012.1621 0010853 146.4148 213.7541 15.73368825 10804 | 2014/04/22-03:33:12  251.0933    0.0999  213.6851   91.5234     6727.4139     6720.1126     6734.7152  50.483310  10.879928  -0.001010   0.000396
1 39514U 98067DJ  14113.22767127  .00222414  00000-0  15036-2 0  9998 | 2 39514 051.6426 006.6219 0010831 152.9224 207.2342 15.73765280 10971 | 2014/04/23-05:27:50  286.3687    0.0999  207.1775   91.5003     6726.2840     6718.9988     6733.5693  51.298080   5.955261  -0.001015   0.000379
1 39514U 98067DJ  14114.32597345  .01067794  00000-0  64511-2 0  9994 | 2 39514 051.6442 001.0009 0005643 133.2080 335.0665 15.74482037 11158 | 2014/04/24-07:49:24  220.3431  108.2472  335.0392   91.4586     6724.2425     6720.4480     6728.0370  51.636320   0.902127  -0.000393   0.000404
1 39514U 98067DJ  14115.83001890  .00160501  00000-0  10420-2 0  9995 | 2 39514 051.6424 353.2509 0010231 166.3012 193.8267 15.74902411 11393 | 2014/04/25-19:55:13  159.1785    0.0999  193.7987   91.4342     6723.0459     6716.1675     6729.9242  51.284534  -6.069108  -0.000959   0.000357
1 39514U 98067DJ  14117.03546499  .00166594  00000-0  10599-2 0  9993 | 2 39514 051.6415 347.0520 0009977 172.5643 187.5507 15.75350539 11588 | 2014/04/27-00:51:04  240.5391    0.1000  187.5357   91.4082     6721.7709     6715.0646     6728.4772  50.328454 -11.571138  -0.000935   0.000348
1 39514U 98067DJ  14118.11370065  .00216875  00000-0  13400-2 0  9999 | 2 39514 051.6410 341.5026 0009678 180.7512 179.3475 15.75869209 11758 | 2014/04/28-02:43:43  275.3324    0.1000  179.3488   91.3781     6720.2959     6713.7920     6726.7998  48.973125 -16.383707  -0.000922   0.000295
1 39514U 98067DJ  14119.19143289  .00347951  00000-0  20429-2 0  9993 | 2 39514 051.6405 335.9493 0009344 191.7099 168.3685 15.76661002 11910 | 2014/04/29-04:35:39  309.9518    0.1000  168.3901   91.3323     6718.0458     6711.7684     6724.3231  47.157340 -21.045821  -0.000913   0.000200
1 39514U 98067DJ  14120.83875159  .00410908  00000-0  22605-2 0  9995 | 2 39514 051.6402 327.4490 0009259 205.4798 154.5748 15.77956539 12173 | 2014/04/30-20:07:48  193.1343    0.1001  154.6203   91.2573     6714.3681     6708.1513     6720.5850  43.528188 -27.785015  -0.000919   0.000114
1 39514U 98067DJ  14122.16842089  .00304107  00000-0  16429-2 0  9999 | 2 39514 051.6406 320.5777 0009047 214.6217 145.4196 15.78651865 12386 | 2014/05/02-04:02:31  320.0105    0.1001  145.4784   91.2171     6712.3964     6706.3237     6718.4691  39.891665 -32.793393  -0.000902   0.000076
1 39514U 98067DJ  14123.43413090  .00362792  00000-0  18745-2 0  9993 | 2 39514 051.6407 314.0312 0009056 226.3229 133.7023 15.79480320 12581 | 2014/05/03-10:25:08   63.4762    0.1002  133.7773   91.1692     6710.0491     6703.9724     6716.1257  35.892867 -37.127671  -0.000906  -0.000006
1 39514U 98067DJ  14124.50944497  .00439011  00000-0  21596-2 0  9999 | 2 39514 051.6403 308.4609 0009068 237.5033 122.5092 15.80358554 12759 | 2014/05/04-12:13:36   97.2322    0.1001  122.5968   91.1186     6707.5629     6701.4805     6713.6453  32.119256 -40.436048  -0.000902  -0.000094
1 39514U 98067DJ  14125.71060314  .00384415  00000-0  18402-2 0  9999 | 2 39514 051.6399 302.2319 0009379 243.6015 116.4025 15.81089876 12944 | 2014/05/05-17:03:16  177.0705    0.1002  116.4987   91.0764     6705.4944     6699.2053     6711.7835  27.542002 -43.682003  -0.000933  -0.000095
1 39514U 98067DJ  14126.72166540  .00336287  00000-0  15722-2 0  9995 | 2 39514 051.6395 296.9835 0009571 251.5367 108.4596 15.81723103 13105 | 2014/05/06-17:19:11  187.3056    0.1003  108.5636   91.0400     6703.7046     6697.2885     6710.1207  23.430591 -46.017881  -0.000947  -0.000142
1 39514U 98067DJ  14128.48981164  .00413861  00000-0  18650-2 0  9994 | 2 39514 051.6366 287.7725 0006668 238.2979 121.7869 15.83263941 19977 | 2014/05/08-11:45:19  114.7035    0.1497  121.8518   90.9514     6699.3545     6694.8874     6703.8217  15.761467 -49.172295  -0.000647   0.000161
1 39514U 98067DJ  14130.44478599  .00702819  00000-0  25966-2 0  9998 | 2 39514 051.6370 277.5902 0011555 282.0476 077.9233 15.85771675 13696 | 2014/05/10-10:40:29  110.7174    0.1004   78.0528   90.8075     6692.2898     6684.5568     6700.0227   6.820569 -51.184564  -0.001088  -0.000388
1 39514U 98067DJ  14131.57866935  .00673618  00000-0  23480-2 0  9991 | 2 39514 051.6368 271.6603 0011896 288.7796 071.1917 15.87031890 13877 | 2014/05/11-13:53:17  165.9625    0.1004   71.3208   90.7354     6688.7465     6680.7896     6696.7035   1.496106 -51.615122  -0.001115  -0.000415
1 39514U 98067DJ  14133.59208722  .00680519  19168-3  22600-2 0  9998 | 2 39514 051.6362 261.1025 0012974 302.3756 057.5993 15.89583843 14190 | 2014/05/13-14:12:36  183.3317    0.1005   57.7249   90.5897     6681.5858     6672.9171     6690.2545  -7.986431 -51.014842  -0.001190  -0.000517
1 39514U 98067DJ  14134.78586431  .00856365  31463-3  26002-2 0  9992 | 2 39514 051.6358 254.8218 0013935 311.3896 048.5911 15.91321467 14387 | 2014/05/14-18:51:38  260.5430    0.1006   48.7110   90.4908     6676.7210     6667.4170     6686.0250 -13.519388 -49.834546  -0.001250  -0.000615
1 39514U 98067DJ  14135.79010374  .00813679  00000-0  22413-2 0  9995 | 2 39514 051.6193 249.5307 0011720 326.9515 033.1198 15.93034245 14546 | 2014/05/15-18:57:44  268.2595    0.1448   33.1933   90.3935     6671.9344     6664.1149     6679.7539 -18.051550 -48.360042  -0.000942  -0.000697
1 39514U 98067DJ  14136.85584451  .00991294  45261-3  24897-2 0  9994 | 2 39514 051.6340 243.8883 0014994 322.3914 037.6044 15.94906793 14721 | 2014/05/16-20:32:24  298.6945    0.1008   37.7094   90.2874     6666.7111     6656.7150     6676.7072 -22.725287 -46.364116  -0.001344  -0.000664
1 39514U 98067DJ  14138.10786276  .01098327  59161-3  23794-2 0  9998 | 2 39514 051.6322 237.2428 0015338 327.8478 032.1594 15.97618320 14911 | 2014/05/18-02:35:19   37.2892    0.1009   32.2531   90.1342     6659.1657     6648.9518     6669.3795 -27.937159 -43.421184  -0.001389  -0.000650
1 39514U 98067DJ  14139.10793343  .01276420  86826-3  24167-2 0  9997 | 2 39514 051.6313 231.9149 0015612 331.4365 028.5789 16.00050029 15077 | 2014/05/19-02:35:25   43.6201    0.1011   28.6646   89.9972     6652.4170     6642.0313     6662.8028 -31.847797 -40.638762  -0.001433  -0.000619
1 39514U 98067DJ  14140.60485070  .01537900  14732-2  23059-2 0  9997 | 2 39514 051.6340 223.9060 0012813 340.9410 018.4330 16.04231675 15326 | 2014/05/20-14:30:59  232.6360  359.4205   18.4795   89.7626     6640.8517     6632.3428     6649.3606 -37.201187 -35.807006  -0.001163  -0.000538
1 39514U 98067DJ  14141.66274850  .01918936  28916-2  23249-2 0  9998 | 2 39514 051.6321 218.2118 0013234 341.2284 018.8369 16.08003330 15490 | 2014/05/21-15:54:21  259.5248    0.1143   18.8859   89.5521     6630.4633     6621.6886     6639.2381 -40.568865 -31.938080  -0.001248  -0.000440
1 39514U 98067DJ  14143.21258571  .03089151  24033-1  27157-2 0  9990 | 2 39514 051.6258 209.7940 0012293 344.8712 014.0120 16.16514296 15744 | 2014/05/23-05:06:07  108.5937  358.9174   14.0462   89.0806     6607.1699     6599.0477     6615.2921 -44.801772 -25.651987  -0.001189  -0.000311
1 39514U 98067DJ  14144.44364119  .17202766  12348-4  20809-2 0  9992 | 2 39514 051.6180 203.0052 0006361 313.7068 045.7610 16.35508688 15943 | 2014/05/24-10:38:50  199.1913  359.5201   45.8133   88.0460     6555.9143     6551.7441     6560.0846 -47.512789 -20.173072  -0.000584   0.000251
