# SPACE DATA - HISTORICAL TLEs
# ----------------------------
# NORAD_ID    : 39132
# OBJECT_NAME : DOVE 2
# --------------------------------------------------------------------+-----------------------------------------------------------------------+----------------------------------------------------------------------------------------------------------------------------------------
#                  LINE 1                                             |                 LINE 2                                                |      DERIVED PARAMETERS
# --------------------------------------------------------------------+-----------------------------------------------------------------------+----------------------------------------------------------------------------------------------------------------------------------------
# NORAD  COSPAR     TLE_EPOCH      MEANMOT1 MEANMOT2   BSTAR  #  REV  |   NORAD    INC     RAAN     ECC    ARGPER  MEANANOM   MEANMOT     REV |  CAL_DATE              LONG     ARGLAT     PERIOD        SMA         PERIGEE        APOGEE      INC_X      INC_Y      ECC_X      ECC_Y
# ------ ------   -------------- ----------  -------  ------- -- ----     -----  ------- -------- ------- -------- -------- -----------  ----   ------------------- ---------  --------  --------  ------------  ------------   ----------- ---------- ----------  ---------  ---------   
1 39515U 98067DK  14043.27216791  .00005445  00000-0  10000-3 0  9992 | 2 39515 051.6468 358.8179 0006020 122.3985 026.4586 15.50942704    57 | 2014/02/12-06:31:55   92.5395  148.8879   26.4894   92.8468     6792.1094     6788.0205     6796.1982  51.635808  -1.065477  -0.000312   0.000515
1 39515U 98067DK  14044.85433201  .00050467  00000-0  85397-3 0  9999 | 2 39515 051.6502 350.9660 0006902 128.0186 220.5321 15.51038368   292 | 2014/02/13-20:30:14  111.8363  348.4993  220.4807   92.8410     6791.8301     6787.1424     6796.5178  51.009497  -8.110142  -0.000334   0.000604
1 39515U 98067DK  14046.10188722  .00049508  00000-0  83443-3 0  9998 | 2 39515 051.6509 344.7757 0006634 133.6791 345.7616 15.51159750   491 | 2014/02/15-02:26:43   77.4862  119.4220  345.7429   92.8338     6791.4758     6786.9703     6795.9813  49.838222 -13.563445  -0.000316   0.000583
1 39515U 98067DK  14047.13044762  .00047848  00000-0  80426-3 0  9990 | 2 39515 051.6520 339.6690 0006534 140.6033 326.4451 15.51252246   654 | 2014/02/16-03:07:50  106.2807  107.0070  326.4037   92.8282     6791.2058     6786.7684     6795.6432  48.434137 -17.946128  -0.000329   0.000564
1 39515U 98067DK  14048.79186685  .00047562  00000-0  79509-3 0  9997 | 2 39515 051.6521 331.4203 0006631 147.5606 244.2821 15.51408048   915 | 2014/02/17-19:00:17   69.4836   31.7743  244.2137   92.8189     6790.7511     6786.2482     6795.2541  45.358422 -24.709371  -0.000321   0.000580
1 39515U 98067DK  14049.94561592  .00044711  00000-0  74523-3 0  9993 | 2 39515 051.6478 325.7075 0006633 151.2662 208.8695 15.51517958  1080 | 2014/02/18-22:41:41  163.3903    0.0990  208.8328   92.8123     6790.4304     6785.9263     6794.9345  42.669969 -29.099295  -0.000301   0.000591
1 39515U 00000    14051.81333691  .00114764  00000-0  18780-2 0  9997 | 2 39515 051.6521 316.4192 0011029 178.6073 181.5464 15.51794768  1380 | 2014/02/20-19:31:12  126.8810    0.1503  181.5430   92.7958     6789.6229     6782.1346     6797.1112  37.416932 -35.607761  -0.000780   0.000780
1 39515U 98067DK  14053.12762646  .00063276  00000-0  10357-2 0  9992 | 2 39515 051.6495 309.9066 0004474 203.5858 302.3685 15.51886289  1582 | 2014/02/22-03:03:46  102.0327  145.9110  302.3252   92.7903     6789.3559     6786.3184     6792.3935  33.135117 -39.619880  -0.000400   0.000200
1 39515U 98067DK  14054.52972067  .00060377  00000-0  98314-3 0  9996 | 2 39515 051.6482 302.9403 0004741 206.3337 218.4149 15.52050869  1801 | 2014/02/23-12:42:47  336.3406   64.7149  218.3812   92.7805     6788.8760     6785.6574     6792.0946  28.084477 -43.345112  -0.000408   0.000242
1 39515U 98067DK  14055.82180976  .00061714  00000-0  99875-3 0  9999 | 2 39515 051.6494 296.5160 0005056 209.5277 239.7713 15.52211496  2001 | 2014/02/24-19:43:24   64.6401   89.2490  239.7213   92.7709     6788.4076     6784.9754     6791.8398  23.058756 -46.216385  -0.000419   0.000282
1 39515U 98067DK  14056.96466174  .00062443  00000-0  10053-2 0  9992 | 2 39515 051.6477 290.8412 0005180 220.8930 139.1672 15.52350886  2171 | 2014/02/25-23:09:06  212.1069    0.0990  139.2060   92.7625     6788.0012     6784.4850     6791.5174  18.375171 -48.268395  -0.000456   0.000245
1 39515U 98067DK  14058.08117969  .00063360  00000-0  10144-2 0  9992 | 2 39515 051.6492 285.2828 0004965 219.4674 264.6483 15.52499513  2351 | 2014/02/27-01:56:53  136.6567  124.0591  264.5917   92.7537     6787.5680     6784.1980     6790.9380  13.613876 -49.822708  -0.000405   0.000287
1 39515U 98067DK  14059.48819619  .00063892  00000-0  10162-2 0  9998 | 2 39515 051.6489 278.2851 0004910 224.9203 208.6694 15.52679173  2572 | 2014/02/28-11:43:00  342.0932   73.5627  208.6424   92.7429     6787.0444     6783.7120     6790.3768   7.442548 -51.109856  -0.000393   0.000294
1 39515U 98067DK  14060.77604328  .00075168  00000-0  11816-2 0  9997 | 2 39515 051.6489 271.8783 0007114 223.8405 213.9798 15.52921029  2772 | 2014/03/01-18:37:30   89.1637   77.7748  213.9343   92.7285     6786.3397     6781.5119     6791.1675   1.692878 -51.621149  -0.000509   0.000497
1 39515U 98067DK  14061.80715956  .00082317  00000-0  12835-2 0  9998 | 2 39515 051.6493 266.7477 0006361 243.3554 203.1608 15.53112199  2935 | 2014/03/02-19:22:18   97.8166   86.4876  203.1322   92.7171     6785.7828     6781.4664     6790.0992  -2.930213 -51.566113  -0.000551   0.000317
1 39515U 98067DK  14062.83858543  .00082109  00000-0  12726-2 0  9990 | 2 39515 051.6479 261.6115 0006832 236.6846 220.8530 15.53275569  3093 | 2014/03/03-20:07:33  104.2613   97.4864  220.8018   92.7073     6785.3070     6780.6713     6789.9427  -7.534626 -51.095352  -0.000510   0.000455
1 39515U 98067DK  14063.97919602  .00073910  00000-0  11413-2 0  9992 | 2 39515 051.6470 255.9429 0005652 258.5439 101.4916 15.53431997  3279 | 2014/03/04-23:30:02  259.1761    0.0990  101.5551   92.6980     6784.8515     6781.0167     6788.6863 -12.544476 -50.100387  -0.000510   0.000243
1 39515U 98067DK  14065.93005155  .00076551  00000-0  11690-2 0  9990 | 2 39515 051.6491 246.2220 0005441 255.6769 222.4797 15.53724098  3575 | 2014/03/06-22:19:16  135.0067  118.1145  222.4376   92.6805     6784.0011     6780.3099     6787.6922 -20.824605 -47.264843  -0.000428   0.000336
1 39515U 98067DK  14067.52404252  .00075794  00000-0  11480-2 0  9993 | 2 39515 051.6488 238.2832 0005194 268.3890 132.1721 15.53956315  3823 | 2014/03/08-12:34:37   75.9489   40.6052  132.2162   92.6667     6783.3252     6779.8019     6786.8484 -27.152864 -43.935413  -0.000434   0.000285
1 39515U 98067DK  14068.67423633  .00132019  00000-0  19529-2 0  9990 | 2 39515 051.6465 232.5541 0006361 287.2772 072.7523 15.54330071  3991 | 2014/03/09-16:10:54  177.4130    0.0991   72.8219   92.6444     6782.2377     6777.9235     6786.5519 -31.401695 -41.003592  -0.000597   0.000219
1 39515U 98067DK  14069.89574070  .00136372  00000-0  20016-2 0  9996 | 2 39515 051.6463 226.4629 0006533 293.4795 066.5509 15.54524658  4197 | 2014/03/10-21:29:51  264.4489    0.0991   66.6196   92.6328     6781.6717     6777.2413     6786.1022 -35.575217 -37.439875  -0.000614   0.000224
1 39515U 98067DK  14071.50277242  .00069031  00000-0  10171-2 0  9996 | 2 39515 051.6466 218.4465 0006655 299.5371 060.4956 15.54744100  4444 | 2014/03/12-12:03:59  132.5784    0.0991   60.5620   92.6197     6781.0336     6776.5208     6785.5464 -40.449054 -32.113009  -0.000617   0.000249
1 39515U 98067DK  14072.59541607  .00077820  00000-0  11365-2 0  9996 | 2 39515 051.6465 212.9940 0006733 304.3289 055.7065 15.54933344  4606 | 2014/03/13-14:17:23  172.4568    0.0992   55.7703   92.6085     6780.4834     6775.9181     6785.0487 -43.317345 -28.124164  -0.000621   0.000260
1 39515U 98067DK  14073.63697921  .00075039  00000-0  10913-2 0  9991 | 2 39515 051.6495 207.7888 0005531 298.0902 136.4875 15.55071549  4773 | 2014/03/14-15:17:15  119.1091   74.6213  136.5311   92.6002     6780.0817     6776.3316     6783.8317 -45.692873 -24.079705  -0.000458   0.000310
1 39515U 98067DK  14074.65182939  .00074528  00000-0  10778-2 0  9993 | 2 39515 051.6470 202.7299 0006868 313.6324 046.4097 15.55218440  4930 | 2014/03/15-15:38:38  205.0499    0.0991   46.4667   92.5915     6779.6547     6774.9985     6784.3110 -47.635917 -19.955751  -0.000629   0.000275
1 39515U 98067DK  14075.74413805  .00078231  00000-0  11242-2 0  9995 | 2 39515 051.6470 197.2763 0007020 318.6914 041.3545 15.55368920  5094 | 2014/03/16-17:51:33  244.8075    0.0991   41.4077   92.5825     6779.2174     6774.4584     6783.9764 -49.316880 -15.338122  -0.000641   0.000286
1 39515U 98067DK  14076.77208948  .00076833  00000-0  10973-2 0  9995 | 2 39515 051.6464 192.1431 0007165 322.9223 037.1272 15.55543867  5268 | 2014/03/17-18:31:48  261.0128    0.0991   37.1768   92.5721     6778.7091     6773.8522     6783.5661 -50.490826 -10.864028  -0.000650   0.000302
1 39515U 98067DK  14078.52270606  .00136776  00000-0  19027-2 0  9992 | 2 39515 051.6508 183.3954 0005510 321.0779 130.1468 15.55989236  5532 | 2014/03/19-12:32:41   90.5327   91.2729  130.1950   92.5456     6777.4156     6773.6812     6781.1499 -51.560131  -3.059082  -0.000448   0.000320
1 39515U 98067DK  14079.91914313  .00199604  00000-0  27521-2 0  9993 | 2 39515 051.6405 176.4203 0004745 033.6784 326.5022 15.56540994  5755 | 2014/03/20-22:03:33  332.6457    0.1506  326.4722   92.5128     6775.8138     6772.5987     6779.0290 -51.539745   3.224273  -0.000411  -0.000238
1 39515U 98067DK  14081.47583817  .00203797  00000-0  26856-2 0  9997 | 2 39515 051.6484 168.6151 0007436 344.0089 106.8193 15.57177098  5990 | 2014/03/22-11:25:12   91.7479   90.9097  106.9008   92.4750     6773.9684     6768.9313     6779.0056 -50.632126  10.195342  -0.000660   0.000342
1 39515U 98067DK  14082.48634857  .00207270  00000-0  26904-2 0  9994 | 2 39515 051.6449 163.5611 0008441 351.9178 008.1677 15.57561048  6151 | 2014/03/23-11:40:20  192.3243    0.0993    8.1815   92.4522     6772.8552     6767.1382     6778.5721 -49.533763  14.615130  -0.000768   0.000350
1 39515U 98067DK  14083.64105670  .00211503  00000-0  26986-2 0  9993 | 2 39515 051.6451 157.7731 0008668 357.0115 003.0824 15.58001987  6320 | 2014/03/24-15:23:07  254.9370    0.0992    3.0877   92.4261     6771.5772     6765.7076     6777.4468 -47.807512  19.536073  -0.000784   0.000369
1 39515U 98067DK  14084.73131324  .00220807  00000-0  27681-2 0  9999 | 2 39515 051.6451 152.3047 0008821 002.0777 358.0250 15.58435815  6498 | 2014/03/25-17:33:05  293.9635    0.0992  358.0215   92.4003     6770.3205     6764.3484     6776.2926 -45.728211  24.003063  -0.000795   0.000381
1 39515U 98067DK  14086.46228450  .00198122  00000-0  24284-2 0  9998 | 2 39515 051.6448 143.6166 0009076 011.0356 349.0834 15.59110699  6764 | 2014/03/27-11:05:41  207.4911    0.0993  349.0637   92.3603     6768.3666     6762.2236     6774.5096 -41.577457  30.634955  -0.000820   0.000389
1 39515U 98067DK  14087.61586215  .00186792  00000-0  22561-2 0  9998 | 2 39515 051.6451 137.8208 0009193 015.9277 344.2003 15.59537945  6958 | 2014/03/28-14:46:50  269.7029    0.0993  344.1716   92.3350     6767.1304     6760.9094     6773.3514 -38.271519  34.677186  -0.000824   0.000407
1 39515U 98067DK  14089.15349886  .00168153  00000-0  19958-2 0  9997 | 2 39515 051.6442 130.0908 0009265 023.0361 337.1045 15.60064055  7186 | 2014/03/30-03:41:02  112.4851    0.0993  337.0632   92.3039     6765.6089     6759.3405     6771.8772 -33.258906  39.509095  -0.000826   0.000419
1 39515U 98067DK  14090.37044994  .00157368  00000-0  18458-2 0  9995 | 2 39515 051.6446 123.9682 0009306 028.8792 331.2715 15.60413554  7379 | 2014/03/31-08:53:26  197.8994    0.0994  331.2202   92.2832     6764.5986     6758.3035     6770.8937 -28.855526  42.831336  -0.000828   0.000425
1 39515U 98067DK  14092.03523455  .00180254  00000-0  20629-2 0  9997 | 2 39515 051.6445 115.5876 0009172 036.9683 323.1941 15.60971385  7631 | 2014/04/02-00:50:44   87.2317    0.0994  323.1311   92.2502     6762.9869     6756.7839     6769.1899 -22.304772  46.579518  -0.000814   0.000423
1 39515U 98067DK  14093.20346478  .00198535  00000-0  22316-2 0  9991 | 2 39515 051.6481 109.6901 0009901 039.5752 050.5761 15.61365925  7820 | 2014/04/03-04:52:59   64.8546   90.2390   50.6638   92.2269     6761.8476     6755.1527     6768.5425 -17.401928  48.628172  -0.000851   0.000506
1 39515U 98067DK  14094.46728996  .00238040  00000-0  26010-2 0  9990 | 2 39515 051.6448 103.3326 0009005 050.6771 309.5020 15.61970141  8014 | 2014/04/04-11:12:53  257.4071    0.0994  309.4223   92.1913     6760.1037     6754.0162     6766.1911 -11.909467  50.252860  -0.000809   0.000395
1 39515U 98067DK  14096.07944631  .00162005  00000-0  17503-2 0  9999 | 2 39515 051.6491 095.1849 0010057 039.3678 033.8687 15.62515564  8278 | 2014/04/06-01:54:24   54.4627   73.3008   33.9330   92.1591     6758.5304     6751.7334     6765.3275  -4.667535  51.437765  -0.000706   0.000717
1 39515U 98067DK  14097.15363542  .00117442  00000-0  12651-2 0  9999 | 2 39515 051.6445 089.7756 0008739 063.1718 297.0169 15.62776873  8436 | 2014/04/07-03:41:14  160.6866    0.0994  296.9276   92.1437     6757.7770     6751.8714     6763.6826   0.202266  51.644104  -0.000778   0.000397
1 39515U 98067DK  14098.17669733  .00123402  00000-0  13165-2 0  9997 | 2 39515 051.6442 084.6091 0008617 068.2127 291.9784 15.63001610  8598 | 2014/04/08-04:14:26  175.1614    0.0995  291.8868   92.1304     6757.1292     6751.3066     6762.9518   4.851983  51.415772  -0.000767   0.000394
1 39515U 98067DK  14099.39140243  .00098680  00000-0  10475-2 0  9992 | 2 39515 051.6438 078.4716 0008556 073.6798 286.5137 15.63234995  8781 | 2014/04/09-09:23:37  259.7876    0.0995  286.4197   92.1167     6756.4567     6750.6758     6762.2375  10.321201  50.601926  -0.000757   0.000400
1 39515U 98067DK  14100.41413322  .00133813  00000-0  13931-2 0  9997 | 2 39515 051.6436 073.3026 0008405 080.6290 279.5655 15.63586212  8942 | 2014/04/10-09:56:21  274.1468    0.0995  279.4705   92.0960     6755.4449     6749.7669     6761.1228  14.838087  49.466075  -0.000755   0.000369
1 39515U 98067DK  14101.75619515  .00131575  00000-0  13561-2 0  9999 | 2 39515 051.6442 066.5158 0008333 087.5157 272.6792 15.63851098  9154 | 2014/04/11-18:08:55   45.3982    0.0995  272.5838   92.0804     6754.6820     6749.0533     6760.3107  20.580016  47.366511  -0.000749   0.000365
1 39515U 98067DK  14103.37909228  .00132204  00000-0  13409-2 0  9993 | 2 39515 051.6476 058.2986 0008522 093.3383 050.7800 15.64253168  9413 | 2014/04/13-09:05:53  135.5346  144.1940   50.8557   92.0567     6753.5245     6747.7691     6759.2798  27.140423  43.941689  -0.000750   0.000405
1 39515U 98067DK  14104.89378630  .00110475  00000-0  11101-2 0  9991 | 2 39515 051.6463 050.6326 0008394 100.3870 300.0154 15.64577105  9659 | 2014/04/14-21:27:03   73.6993   40.3191  299.9321   92.0377     6752.5923     6746.9241     6758.2604  32.758770  39.927475  -0.000734   0.000407
1 39515U 98067DK  14106.10013388  .00092190  00000-0  92048-3 0  9996 | 2 39515 051.6451 044.5299 0008146 106.6669 253.5221 15.64821753  9835 | 2014/04/16-02:24:11  195.4896    0.0995  253.4326   92.0233     6751.8884     6746.3884     6757.3885  36.816995  36.217747  -0.000714   0.000392
1 39515U 98067DK  14107.12184347  .00135110  00000-0  13220-2 0  9997 | 2 39515 051.6451 039.3545 0008069 113.2720 246.9125 15.65152566  9993 | 2014/04/17-02:55:27  209.4920    0.0995  246.8275   92.0038     6750.9370     6745.4897     6756.3843  39.933922  32.749019  -0.000717   0.000371
1 39515U 98067DK  14108.27088369  .00244338  00000-0  22976-2 0  9992 | 2 39515 051.6446 033.5296 0007888 123.9354 236.2392 15.65772228 10178 | 2014/04/18-06:30:04  270.1138    0.0995  236.1641   91.9674     6749.1558     6743.8320     6754.4795  43.050968  28.526810  -0.000729   0.000302
1 39515U 98067DK  14109.29198184  .00214335  00000-0  20029-2 0  9993 | 2 39515 051.6442 028.3494 0007750 128.3123 231.8571 15.66028432 10337 | 2014/04/19-07:00:27  283.9010    0.0996  231.7873   91.9524     6748.4196     6743.1896     6753.6496  45.450422  24.523102  -0.000712   0.000307
1 39515U 98067DK  14110.82326763  .00177640  00000-0  16387-2 0  9999 | 2 39515 051.6441 020.5766 0007725 137.0647 223.0953 15.66473775 10580 | 2014/04/20-19:45:30  124.4554    0.0996  223.0349   91.9262     6747.1405     6741.9284     6752.3527  48.349369  18.150801  -0.000714   0.000294
1 39515U 98067DK  14112.09900366  .00139452  00000-0  12737-2 0  9991 | 2 39515 051.6440 014.0979 0007564 142.7522 217.4000 15.66857478 10776 | 2014/04/22-02:22:33  231.4643    0.0996  217.3474   91.9037     6746.0390     6740.9363     6751.1417  50.088531  12.579418  -0.000695   0.000297
1 39515U 98067DK  14113.11938249  .00127159  00000-0  11516-2 0  9991 | 2 39515 051.6448 008.9128 0007477 147.6029 212.5427 15.67114617 10930 | 2014/04/23-02:51:54  244.9981    0.0995  212.4966   91.8886     6745.3010     6740.2575     6750.3445  51.021203   8.001385  -0.000686   0.000298
1 39515U 98067DK  14114.13960379  .00118591  00000-0  10657-2 0  9998 | 2 39515 051.6446 003.7267 0007427 151.9715 208.1683 15.67340128 11091 | 2014/04/24-03:21:01  258.4752    0.0997  208.1282   91.8754     6744.6540     6739.6447     6749.6632  51.535394   3.356761  -0.000677   0.000306
1 39515U 98067DK  14115.73339351  .00118068  00000-0  10437-2 0  9990 | 2 39515 051.6444 355.6219 0007307 160.5996 199.5280 15.67747814 11346 | 2014/04/25-17:36:05  121.9274    0.0996  199.5000   91.8515     6743.4846     6738.5572     6748.4121  51.493702  -3.942426  -0.000669   0.000295
1 39515U 98067DK  14117.07175099  .00152930  00000-0  13191-2 0  9992 | 2 39515 051.6438 348.8119 0007122 168.8101 191.3056 15.68220945 11563 | 2014/04/27-01:43:19  251.8772    0.0997  191.2896   91.8238     6742.1282     6737.3265     6746.9300  50.662334 -10.020478  -0.000659   0.000271
1 39515U 98067DK  14118.09124400  .00137367  00000-0  11714-2 0  9991 | 2 39515 051.6435 343.6203 0006964 175.4138 184.6924 15.68557591 11710 | 2014/04/28-02:11:23  265.1006    0.0997  184.6859   91.8041     6741.1635     6736.4690     6745.8581  49.547494 -14.563547  -0.000650   0.000249
1 39515U 98067DK  14119.17414122  .00200802  00000-0  16640-2 0  9992 | 2 39515 051.6431 338.1025 0006881 184.9631 175.1299 15.69037256 11888 | 2014/04/29-04:10:45  301.5420    0.0997  175.1366   91.7760     6739.7896     6735.1519     6744.4272  47.917181 -19.260155  -0.000658   0.000200
1 39515U 98067DK  14120.82968539  .00252347  00000-0  20069-2 0  9993 | 2 39515 051.6428 329.6592 0006828 199.0883 160.9859 15.69868804 12140 | 2014/04/30-19:54:44  187.6318    0.0997  161.0114   91.7274     6737.4094     6732.8090     6742.0097  44.569599 -26.086964  -0.000670   0.000133
1 39515U 98067DK  14122.16621503  .00191569  00000-0  15031-2 0  9990 | 2 39515 051.6425 322.8348 0006788 207.8848 152.1787 15.70387122 12352 | 2014/05/02-03:59:20  316.9349    0.0998  152.2150   91.6971     6735.9268     6731.3544     6740.4991  41.153753 -31.198020  -0.000670   0.000109
1 39515U 98067DK  14123.75696288  .00087894  00000-0  69283-3 0  9992 | 2 39515 051.6435 314.7101 0006767 218.3093 141.7425 15.70661450 12606 | 2014/05/03-18:10:01  179.3084    0.0998  141.7905   91.6811     6735.1424     6730.5848     6739.7001  36.332235 -36.701769  -0.000672   0.000082
1 39515U 98067DK  14124.77487459  .00112824  00000-0  87517-3 0  9995 | 2 39515 051.6432 309.5094 0006779 220.3519 139.6976 15.70938332 12765 | 2014/05/04-18:35:49  191.9629    0.0997  139.7478   91.6650     6734.3510     6729.7858     6738.9162  32.855652 -39.843773  -0.000667   0.000119
1 39515U 98067DK  14125.98341279  .00128206  00000-0  97911-3 0  9998 | 2 39515 051.6423 303.3298 0006640 227.2182 132.8258 15.71252072 12952 | 2014/05/05-23:36:06  274.4130    0.0998  132.8816   91.6467     6733.4545     6728.9835     6737.9256  28.375247 -43.148262  -0.000655   0.000109
1 39515U 98067DK  14127.95439084  .00277404  00000-0  19903-2 0  9998 | 2 39515 051.6415 293.2425 0006879 247.0980 112.9293 15.72249373 13266 | 2014/05/07-22:54:19  276.0118    0.0999  113.0019   91.5885     6730.6068     6725.9768     6735.2368  20.378954 -47.450424  -0.000688  -0.000004
1 39515U 98067DK  14128.97124023  .00268414  00000-0  18942-2 0  9998 | 2 39515 051.6413 288.0325 0006883 253.4303 106.5940 15.72666144 13425 | 2014/05/08-23:18:35  288.2928    0.0999  106.6696   91.5643     6729.4177     6724.7858     6734.0495  15.985896 -49.104735  -0.000688  -0.000018
1 39515U 98067DK  14130.43251064  .00203664  00000-0  14174-2 0  9997 | 2 39515 051.6409 280.5409 0006964 262.3664 097.6544 15.73189107 13665 | 2014/05/10-10:22:48  103.2856    0.0999   97.7335   91.5338     6727.9262     6723.2409     6732.6116   9.447050 -50.769438  -0.000696  -0.000035
1 39515U 98067DK  14131.76599669  .00375526  00000-0  24395-2 0  9993 | 2 39515 051.6400 273.6974 0007590 279.1077 080.9064 15.74282286 13863 | 2014/05/11-18:23:02  231.5051    0.1000   80.9923   91.4703     6724.8113     6719.7072     6729.9154   3.330110 -51.532514  -0.000740  -0.000168
1 39515U 98067DK  14132.92376338  .00226685  00000-0  14683-2 0  9998 | 2 39515 051.6411 267.7349 0006226 270.1305 176.9270 15.74792037 14052 | 2014/05/12-22:10:13  208.3613   87.0613  176.9308   91.4406     6723.3600     6719.1741     6727.5460  -2.041019 -51.600750  -0.000622   0.000023
1 39515U 98067DK  14134.74834099  .00234345  00000-0  14707-2 0  9992 | 2 39515 051.6400 258.3633 0008076 296.2374 063.7795 15.75479555 14336 | 2014/05/14-17:57:36  243.4199    0.1000   63.8626   91.4007     6721.4039     6715.9757     6726.8321 -10.416063 -50.578604  -0.000782  -0.000204
1 39515U 98067DK  14135.76295764  .00374704  00000-0  22316-2 0  9994 | 2 39515 051.6391 253.1391 0008763 305.0032 055.0145 15.76269285 14490 | 2014/05/15-18:18:39  254.9053    0.1000   55.0968   91.3549     6719.1587     6713.2707     6725.0467 -14.977878 -49.419225  -0.000833  -0.000273
1 39515U 98067DK  14136.84045067  .00437837  00000-0  24952-2 0  9998 | 2 39515 051.6384 247.5843 0009259 311.8989 048.1221 15.77090026 14661 | 2014/05/16-20:10:14  289.4163    0.1001   48.2012   91.3074     6716.8273     6710.6082     6723.0464 -19.690946 -47.736684  -0.000873  -0.000309
1 39515U 98067DK  14138.17064622  .00426736  00000-0  23193-2 0  9996 | 2 39515 051.6382 240.7173 0009739 319.3726 040.6547 15.78179617 14871 | 2014/05/18-04:05:43   56.4585    0.1001   40.7275   91.2444     6713.7354     6707.1969     6720.2739 -25.257231 -45.039716  -0.000915  -0.000335
1 39515U 98067DK  14139.50002519  .00282079  00000-0  15111-2 0  9992 | 2 39515 051.6382 233.8437 0009737 324.0123 036.0221 15.78890635 15081 | 2014/05/19-12:00:02  183.2118    0.1001   36.0878   91.2033     6711.7197     6705.1845     6718.2549 -30.466023 -41.693227  -0.000927  -0.000299
1 39515U 98067DK  14140.63916646  .00165243  00000-0  88513-3 0  9993 | 2 39515 051.6385 227.9500 0009590 328.0938 031.9481 15.79229010 15271 | 2014/05/20-15:20:23  240.3116    0.1001   32.0063   91.1837     6710.7609     6704.3253     6717.1965 -34.586376 -38.344716  -0.000922  -0.000265
1 39515U 98067DK  14141.65154189  .00134358  00000-0  71385-3 0  9994 | 2 39515 051.6384 222.7106 0010073 332.0716 027.9744 15.79500842 15432 | 2014/05/21-15:38:13  250.9999    0.1002   28.0286   91.1680     6709.9909     6703.2320     6716.7499 -37.943334 -35.026101  -0.000974  -0.000257
1 39515U 98067DK  14142.68762992  .00328297  00000-0  16661-2 0  9997 | 2 39515 051.6414 217.3424 0010326 337.4795 158.6265 15.79951172 15599 | 2014/05/22-16:30:11  134.3210  136.1491  158.6696   91.1421     6708.7159     6701.7884     6715.6433 -41.056195 -31.324480  -0.000998  -0.000264
1 39515U 98067DK  14144.43415660  .00305205  00000-0  14760-2 0  9991 | 2 39515 051.6390 208.2916 0009922 344.9779 015.0927 15.81068290 15866 | 2014/05/24-10:25:11  189.8783    0.1002   15.1223   91.0777     6705.5554     6698.9022     6712.2087 -45.470559 -24.474775  -0.000966  -0.000228
1 39515U 98067DK  14146.14011854  .00317175  00000-0  14560-2 0  9995 | 2 39515 051.6372 199.4311 0009554 350.8123 009.2703 15.82165548 16140 | 2014/05/26-03:21:46   94.5546    0.1003    9.2880   91.0145     6702.4548     6696.0513     6708.8583 -48.696060 -17.178305  -0.000940  -0.000170
1 39515U 98067DK  14147.15050207  .00320392  00000-0  14287-2 0  9993 | 2 39515 051.6367 194.1772 0009421 354.6305 005.4595 15.82779380 16292 | 2014/05/27-03:36:43  104.5350    0.1003    5.4698   90.9792     6700.7218     6694.4090     6707.0345 -50.063995 -12.646943  -0.000931  -0.000144
1 39515U 98067DK  14148.16053290  .00299775  00000-0  13065-2 0  9993 | 2 39515 051.6364 188.9209 0009318 359.5352 000.5641 15.83320262 16454 | 2014/05/28-03:51:10  114.3887    0.1004    0.5652   90.9481     6699.1957     6692.9533     6705.4380 -51.011773  -8.007296  -0.000922  -0.000137
1 39515U 98067DK  14149.48564533  .00335467  00000-0  14051-2 0  9991 | 2 39515 051.6358 182.0181 0008947 005.7372 354.3732 15.84073059 16664 | 2014/05/29-11:39:19  239.6269    0.1003  354.3631   90.9049     6697.0730     6691.0812     6703.0649 -51.603773  -1.818365  -0.000887  -0.000121
1 39515U 98067DK  14150.55784728  .00358381  00000-0  14459-2 0  9993 | 2 39515 051.6357 176.4265 0008392 010.6187 349.4992 15.84807102 16832 | 2014/05/30-13:23:18  272.2605    0.1004  349.4817   90.8628     6695.0049     6689.3865     6700.6234 -51.535303   3.218397  -0.000833  -0.000103
1 39515U 98067DK  14152.07063251  .00631030  00000-0  23371-2 0  9991 | 2 39515 051.6353 168.5254 0007406 018.2888 341.8381 15.85934946 17078 | 2014/06/01-01:41:42  106.2464    0.1004  341.8116   90.7982     6691.8304     6686.8745     6696.7864 -50.603265  10.271991  -0.000735  -0.000088
1 39515U 98067DK  14153.14153226  .00427842  00000-0  15593-2 0  9993 | 2 39515 051.6356 162.9255 0006906 023.2281 336.9034 15.86754135 17247 | 2014/06/02-03:23:48  138.4211    0.1004  336.8723   90.7513     6689.5271     6684.9073     6694.1469 -49.359698  15.160982  -0.000687  -0.000074
1 39515U 98067DK  14154.46364719  .00469093  00000-0  16180-2 0  9997 | 2 39515 051.6348 156.0020 0005981 031.1804 328.9555 15.87784918 17458 | 2014/06/03-11:07:39  262.6047    0.1005  328.9201   90.6924     6686.6315     6682.6323     6690.6308 -47.171470  21.000119  -0.000593  -0.000075
1 39515U 98067DK  14155.47036864  .00498252  00000-0  16385-2 0  9992 | 2 39515 051.6353 150.7240 0005641 037.4503 322.6895 15.88680789 17615 | 2014/06/04-11:17:19  271.2908    0.1006  322.6503   90.6412     6684.1175     6680.3470     6687.8881 -45.040139  25.250546  -0.000558  -0.000080
1 39515U 98067DK  14157.12113883  .00471507  95181-4  15258-2 0  9993 | 2 39515 051.6376 142.0411 0005162 045.9385 046.4629 15.90238986 17880 | 2014/06/06-02:54:26   63.6165   92.4443   46.5058   90.5524     6679.7505     6676.3025     6683.1986 -40.713778  31.762084  -0.000511  -0.000072
1 39515U 98067DK  14158.36135666  .00536605  12305-3  16294-2 0  9991 | 2 39515 051.6330 135.5211 0003360 066.4678 293.6681 15.91482381 18073 | 2014/06/07-08:40:21  250.1028    0.1006  293.6328   90.4817     6676.2709     6674.0277     6678.5141 -36.840585  36.176483  -0.000312  -0.000126
1 39515U 98067DK  14159.38863179  .00565319  13795-3  16148-2 0  9997 | 2 39515 051.6374 130.1013 0004796 082.5472 049.4138 15.92643958 18240 | 2014/06/08-09:19:37  134.5291  132.0028   49.4556   90.4157     6673.0243     6669.8240     6676.2247 -33.261766  39.497798  -0.000404  -0.000259
1 39515U 98067DK  14161.80950731  .00917657  39435-3  20875-2 0  9995 | 2 39515 051.6309 117.2827 0002391 158.4319 201.6791 15.96922916 18626 | 2014/06/10-19:25:41   73.0990    0.1009  201.6690   90.1734     6661.0988     6659.5061     6662.6914 -23.666635  45.887256   0.000024  -0.000238
1 39515U 98067DK  14163.06013056  .01125722  64433-3  22275-2 0  9992 | 2 39515 051.6334 110.6209 0001733 126.4440 233.7444 15.99471957 18835 | 2014/06/12-01:26:35  171.1405    0.1724  233.7284   90.0297     6654.0198     6652.8666     6655.1729 -18.184410  48.325306  -0.000094  -0.000145
1 39515U 98067DK  14164.12132103  .01389586  11034-2  23617-2 0  9994 | 2 39515 051.6291 104.9570 0005673 200.7328 159.3453 16.02183090 18995 | 2014/06/13-02:54:42  199.9892    0.1010  159.3682   89.8774     6646.5113     6642.7407     6650.2818 -13.325164  49.879896   0.000331  -0.000461
1 39515U 98067DK  14165.30511278  .01781888  22302-2  24799-2 0  9992 | 2 39515 051.6324 098.6017 0005667 205.3168 154.7617 16.05786770 19194 | 2014/06/14-07:19:21  273.6759    0.1062  154.7894   89.6757     6636.5636     6632.8026     6640.3245  -7.722383  51.051636   0.000316  -0.000470
1 39515U 98067DK  14166.36169156  .02290009  52789-2  25653-2 0  9996 | 2 39515 051.6239 092.8940 0009498 219.8295 140.2023 16.09913200 19350 | 2014/06/15-08:40:50  300.8401    0.1014  140.2719   89.4458     6625.2184     6618.9258     6631.5110  -2.606406  51.558061   0.000644  -0.000698
1 39515U 98067DK  14167.78563089  .03633251  11771-4  20437-2 0  9990 | 2 39515 051.6194 085.1512 0011893 223.6930 134.7814 16.18332767 19596 | 2014/06/16-18:51:18  104.1620  358.5710  134.8780   88.9805     6602.2195     6594.3674     6610.0715   4.363210  51.434666   0.000746  -0.000926
1 39515U 98067DK  14168.95444542  .31323801  12098-4  40562-2 0  9994 | 2 39515 051.6165 078.6844 0017876 240.8810 119.0425 16.34331797 19778 | 2014/06/17-22:54:24  171.1049    0.1024  119.2214   88.1094     6559.0613     6547.3363     6570.7862  10.127835  50.613141   0.001361  -0.001159
