# SPACE DATA - HISTORICAL TLEs
# ----------------------------
# NORAD_ID    : 39132
# OBJECT_NAME : DOVE 2
# --------------------------------------------------------------------+-----------------------------------------------------------------------+----------------------------------------------------------------------------------------------------------------------------------------
#                  LINE 1                                             |                 LINE 2                                                |      DERIVED PARAMETERS
# --------------------------------------------------------------------+-----------------------------------------------------------------------+----------------------------------------------------------------------------------------------------------------------------------------
# NORAD  COSPAR     TLE_EPOCH      MEANMOT1 MEANMOT2   BSTAR  #  REV  |   NORAD    INC     RAAN     ECC    ARGPER  MEANANOM   MEANMOT     REV |  CAL_DATE              LONG     ARGLAT     PERIOD        SMA         PERIGEE        APOGEE      INC_X      INC_Y      ECC_X      ECC_Y
# ------ ------   -------------- ----------  -------  ------- -- ----     -----  ------- -------- ------- -------- -------- -----------  ----   ------------------- ---------  --------  --------  ------------  ------------   ----------- ---------- ----------  ---------  ---------   
1 39555U 98067DY  14057.12221860 -.00000465  00000-0  00000+0 0  9991 | 2 39555 051.6396 290.1684 0005039 153.8507 313.5989 15.51366446    59 | 2014/02/26-02:55:59  162.2660  107.4078  313.5571   92.8214     6790.8725     6787.4506     6794.2945  17.804329 -48.473231   0.000053   0.000501
1 39555U 98067DY  14058.15983866 -.00000467  00000-0  00000+0 0  9998 | 2 39555 051.6464 285.0190 0005903 121.4128 025.2398 15.51457674   224 | 2014/02/27-03:50:10  142.7784  146.6815   25.2687   92.8159     6790.6063     6786.5978     6794.6148  13.383614 -49.882156   0.000407   0.000428
1 39555U 98067DY  14060.01727667  .00067925  00000-0  11146-2 0  9998 | 2 39555 051.6454 275.7850 0005165 154.0988 295.0435 15.51782812   514 | 2014/03/01-00:24:52  160.0311   89.0887  294.9899   92.7965     6789.6578     6786.1509     6793.1646   5.205641 -51.382377   0.000178   0.000485
1 39555U 98067DY  14061.49734013  .00077241  00000-0  12534-2 0  9998 | 2 39555 051.6471 268.4292 0005214 168.8622 274.8227 15.52037420   743 | 2014/03/02-11:56:10  347.1260   83.6254  274.7632   92.7813     6788.9152     6785.3754     6792.4549  -1.415761 -51.627692   0.000115   0.000509
1 39555U 98067DY  14062.58271288  .00077323  00000-0  12475-2 0  9994 | 2 39555 051.6474 263.0331 0004788 171.0228 221.3167 15.52201823   913 | 2014/03/03-13:59:06   75.6715   32.3033  221.2805   92.7714     6788.4358     6785.1855     6791.6861  -6.264619 -51.266056   0.000132   0.000460
1 39555U 98067DY  14063.80017687  .00074183  00000-0  11898-2 0  9990 | 2 39555 051.6462 256.9949 0004513 185.0170 175.0776 15.52384863  1090 | 2014/03/04-19:12:15  193.4416    0.0990  175.0820   92.7605     6787.9022     6784.8388     6790.9656 -11.622346 -50.321477   0.000063   0.000447
1 39555U 98067DY  14065.47382355  .00066091  00000-0  10527-2 0  9999 | 2 39555 051.6459 248.6711 0004935 188.7936 171.3483 15.52603877  1362 | 2014/03/06-11:22:18   85.8805    0.1504  171.3568   92.7474     6787.2638     6783.9143     6790.6133 -18.784705 -48.108563   0.000107   0.000482
1 39555U 98067DY  14067.67556486  .00249552  00000-0  36377-2 0  9997 | 2 39555 051.6483 237.6954 0003665 217.6340 228.2760 15.54291003  1700 | 2014/03/08-16:12:48   85.8852   85.8787  228.2447   92.6467     6782.3514     6779.8656     6784.8371 -27.601895 -43.654121  -0.000034   0.000365
1 39555U 98067DY  14069.34576507  .00171807  00000-0  24636-2 0  9991 | 2 39555 051.6487 229.3624 0003581 246.0895 193.9328 15.55034226  1963 | 2014/03/10-08:17:54  343.0242   80.0124  193.9229   92.6025     6780.1901     6777.7622     6782.6181 -33.637370 -39.193310  -0.000154   0.000323
1 39555U 98067DY  14070.63243353  .00187474  00000-0  26367-2 0  9995 | 2 39555 051.6496 222.9367 0003305 255.9466 192.8426 15.55501769  2164 | 2014/03/11-15:10:42   85.1518   88.7808  192.8342   92.5746     6778.8314     6776.5910     6781.0718 -37.813019 -35.183188  -0.000160   0.000289
1 39555U 98067DY  14071.79987786  .00186104  00000-0  25782-2 0  9997 | 2 39555 051.6492 217.1081 0003472 268.1638 243.2585 15.55916177  2341 | 2014/03/12-19:11:49   89.7780  151.3868  243.2230   92.5500     6777.6277     6775.2745     6779.9809 -41.190167 -31.161033  -0.000200   0.000283
1 39555U 98067DY  14072.87730622  .00240076  00000-0  32494-2 0  9999 | 2 39555 051.6514 211.7235 0004251 289.2731 141.9027 15.56343496  2514 | 2014/03/13-21:03:19  204.3452   71.2058  141.9327   92.5246     6776.3871     6773.5064     6779.2677 -43.934449 -27.159369  -0.000330   0.000268
1 39555U 98067DY  14074.46964749  .00165061  00000-0  22173-2 0  9998 | 2 39555 051.6463 203.7619 0004659 307.8573 052.1997 15.56823940  2759 | 2014/03/15-11:16:17  138.2380    0.0992   52.2419   92.4960     6774.9928     6771.8364     6778.1493 -47.268130 -20.810194  -0.000410   0.000221
1 39555U 98067DY  14075.56076041  .00164261  00000-0  21801-2 0  9997 | 2 39555 051.6466 198.3002 0004954 314.7972 045.2617 15.57149542  2937 | 2014/03/16-13:27:29  177.5739    0.0992   45.3020   92.4767     6774.0484     6770.6925     6777.4042 -49.034541 -16.216814  -0.000442   0.000224
1 39555U 98067DY  14076.77996704  .00172532  00000-0  22546-2 0  9995 | 2 39555 051.6464 192.1945 0005328 323.1907 036.8719 15.57531863  3112 | 2014/03/17-18:43:09  263.7920    0.0993   36.9086   92.4540     6772.9398     6769.3312     6776.5484 -50.481060 -10.909319  -0.000484   0.000222
1 39555U 98067DY  14078.12712782  .00191578  00000-0  24481-2 0  9999 | 2 39555 051.6460 185.4425 0005520 330.3071 029.7607 15.58056794  3328 | 2014/03/19-03:03:03   36.8445    0.0992   29.7921   92.4228     6771.4184     6767.6806     6775.1563 -51.413174  -4.898456  -0.000503   0.000227
1 39555U 98067DY  14079.29996670  .00272601  00000-0  33712-2 0  9992 | 2 39555 051.6468 179.5518 0004877 330.7921 133.2960 15.58640550  3518 | 2014/03/20-07:11:57    2.0929  104.1288  133.3367   92.3882     6769.7276     6766.4260     6773.0292 -51.645220   0.404006  -0.000424   0.000241
1 39555U 98067DY  14080.37117716  .00309884  00000-0  37163-2 0  9997 | 2 39555 051.6454 174.1824 0006601 345.5616 014.5187 15.59316058  3679 | 2014/03/21-08:54:29  138.1617    0.0993   14.5377   92.3482     6767.7723     6763.3049     6772.2397 -51.379407   5.234876  -0.000619   0.000229
1 39555U 98067DY  14081.47189905  .00335975  00000-0  39100-2 0  9991 | 2 39555 051.6444 168.6408 0005777 343.2790 081.2624 15.60021832  3857 | 2014/03/22-11:19:32  116.5870   64.6068   81.3278   92.3064     6765.7310     6761.8224     6769.6395 -50.632773  10.171842  -0.000510   0.000272
1 39555U 98067DY  14082.82401896  .00289641  00000-0  32882-2 0  9995 | 2 39555 051.6462 161.8488 0007104 356.9836 108.1953 15.60819736  4064 | 2014/03/23-19:46:35  210.8374  105.2562  108.2726   92.2592     6763.4250     6758.6202     6768.2297 -49.076168  16.089118  -0.000662   0.000257
1 39555U 98067DY  14084.08550770  .00315564  00000-0  34689-2 0  9992 | 2 39555 051.6458 155.4916 0007307 006.6621 353.4469 15.61568348  4259 | 2014/03/25-02:03:07   57.6438    0.0994  353.4373   92.2150     6761.2632     6756.3228     6766.2037 -46.992537  21.424054  -0.000696   0.000224
1 39555U 98067DY  14085.10923859  .00345971  00000-0  36903-2 0  9994 | 2 39555 051.6459 150.3301 0007516 012.6167 347.5014 15.62244511  4418 | 2014/03/26-02:37:18   72.3484    0.0994  347.4827   92.1751     6759.3122     6754.2319     6764.3925 -44.874693  25.564838  -0.000719   0.000220
1 39555U 98067DY  14086.45209761  .00416238  00000-0  42191-2 0  9993 | 2 39555 051.6453 143.5503 0007958 021.2970 338.8354 15.63321163  4621 | 2014/03/27-10:51:01  203.8667    0.0994  338.8024   92.1116     6756.2084     6750.8318     6761.5850 -41.542382  30.683343  -0.000768   0.000208
1 39555U 98067DY  14087.60250623  .00334965  00000-0  33540-2 0  9998 | 2 39555 051.6451 137.7331 0007761 026.2039 333.9347 15.63896534  4803 | 2014/03/28-14:27:36  264.9587    0.0995  333.8956   92.0777     6754.5512     6749.3090     6759.7934 -38.218395  34.735725  -0.000746   0.000215
1 39555U 98067DY  14088.75251950  .00233807  00000-0  23232-2 0  9999 | 2 39555 051.6451 131.9146 0007672 032.6961 327.4507 15.64422910  4988 | 2014/03/29-18:03:37  325.9073    0.0995  327.4034   92.0467     6753.0360     6747.8550     6758.2169 -34.500073  38.431254  -0.000740   0.000204
1 39555U 98067DY  14090.47684436  .00213688  00000-0  20703-2 0  9995 | 2 39555 051.6454 123.1806 0007771 042.6744 317.4854 15.65126288  5252 | 2014/03/31-11:26:39  237.0848    0.0996  317.4252   92.0054     6751.0126     6745.7664     6756.2588 -28.264488  43.224600  -0.000754   0.000190
1 39555U 98067DY  14091.51978906  .00216142  00000-0  20561-2 0  9999 | 2 39555 051.6490 117.8864 0007827 046.0092 075.3691 15.65576543  5423 | 2014/04/01-12:28:29  137.6486  121.4651   75.4559   91.9789     6749.7181     6744.4351     6755.0011 -24.157272  45.651346  -0.000752   0.000217
1 39555U 98067DY  14093.09376762  .00199162  00000-0  18513-2 0  9992 | 2 39555 051.6471 109.9088 0007659 059.0196 301.1551 15.66211673  5666 | 2014/04/03-02:15:01  115.0134    0.0996  301.0800   91.9416     6747.8933     6742.7250     6753.0615 -17.587075  48.560454  -0.000752   0.000147
1 39555U 98067DY  14094.11452783  .00211416  00000-0  19284-2 0  9997 | 2 39555 051.6477 104.7271 0007632 065.0567 295.1222 15.66640885  5825 | 2014/04/04-02:44:55  128.6707    0.0997  295.0430   91.9164     6746.6607     6741.5117     6751.8098 -13.129642  49.950950  -0.000751   0.000135
1 39555U 98067DY  14095.13503407  .00158484  00000-0  14347-2 0  9990 | 2 39555 051.6481 099.5435 0007572 070.4427 289.7387 15.67008988  5982 | 2014/04/05-03:14:26  142.2399    0.0997  289.6570   91.8948     6745.6041     6740.4963     6750.7119  -8.563067  50.933291  -0.000746   0.000132
1 39555U 98067DY  14096.15534003  .00152443  00000-0  13675-2 0  9991 | 2 39555 051.6481 094.3586 0007521 074.6386 285.5441 15.67255852  6144 | 2014/04/06-03:43:41  155.7393    0.0996  285.4610   91.8803     6744.8957     6739.8229     6749.9686  -3.925182  51.498730  -0.000738   0.000144
1 39555U 98067DY  14097.49420836  .00136040  00000-0  12048-2 0  9995 | 2 39555 051.6479 087.5516 0007488 080.6692 279.5151 15.67631823  6368 | 2014/04/07-11:51:39  285.8570    0.0997  279.4305   91.8583     6743.8173     6738.7675     6748.8670   2.206380  51.600751  -0.000733   0.000153
1 39555U 98067DY  14098.51406752  .00139105  00000-0  12159-2 0  9998 | 2 39555 051.6477 082.3638 0007466 085.2647 274.9202 15.67942620  6514 | 2014/04/08-12:20:15  299.1987    0.0997  274.8350   91.8401     6742.9261     6737.8918     6747.9603   6.863082  51.189677  -0.000729   0.000160
1 39555U 98067DY  14099.78860599  .00155207  00000-0  13317-2 0  9999 | 2 39555 051.6477 075.8762 0007386 091.7423 268.4420 15.68339609  6714 | 2014/04/09-18:55:35   45.7770    0.0997  268.3574   91.8168     6741.7881     6736.8087     6746.7676  12.602961  50.086428  -0.000721   0.000158
1 39555U 98067DY  14101.12654047  .00137431  00000-0  11637-2 0  9992 | 2 39555 051.6477 069.0624 0007400 097.4404 262.7434 15.68725730  6924 | 2014/04/11-03:02:13  175.5664    0.0997  262.6593   91.7942     6740.6818     6735.6937     6745.6699  18.456357  48.237411  -0.000720   0.000173
1 39555U 98067DY  14102.36016150  .00182546  00000-0  15095-2 0  9995 | 2 39555 051.6496 062.7760 0008166 099.2142 033.2660 15.69138591  7124 | 2014/04/12-08:38:37  134.8759  132.5316   33.3174   91.7701     6739.4994     6733.9959     6745.0029  23.628165  45.928107  -0.000777   0.000252
1 39555U 98067DY  14103.43501281  .00226372  00000-0  18228-2 0  9995 | 2 39555 051.6496 057.2882 0007765 093.8848 355.4379 15.69642794  7294 | 2014/04/13-10:26:25  211.5271   89.3156  355.4308   91.7406     6738.0561     6732.8240     6743.2882  27.912147  43.457948  -0.000680   0.000374
1 39555U 98067DY  14104.90163182  .00195603  00000-0  15432-2 0  9998 | 2 39555 051.6497 049.8053 0008008 103.4766 000.5192 15.70231070  7520 | 2014/04/14-21:38:20   13.7653  103.9966    0.5200   91.7062     6736.3731     6730.9786     6741.7675  33.334047  39.452919  -0.000715   0.000360
1 39555U 98067DY  14106.10926626  .00200694  00000-0  15506-2 0  9991 | 2 39555 051.6510 043.6380 0007758 106.6187 349.6040 15.70719546  7713 | 2014/04/16-02:37:20  103.6444   96.2066  349.5879   91.6777     6734.9764     6729.7514     6740.2014  37.380569  35.644339  -0.000674   0.000385
1 39555U 98067DY  14107.42796355  .00378056  00000-0  27318-2 0  9993 | 2 39555 051.6477 036.9013 0007408 128.5119 231.6544 15.71779408  7918 | 2014/04/17-10:16:16  322.4683    0.0998  231.5879   91.6159     6731.9484     6726.9614     6736.9354  41.301170  31.011261  -0.000717   0.000187
1 39555U 98067DY  14108.82638877  .00381645  00000-0  26631-2 0  9997 | 2 39555 051.6474 029.7422 0007420 137.9074 222.2496 15.72594398  8149 | 2014/04/18-19:49:59  114.4482    0.0999  222.1925   91.5684     6729.6223     6724.6289     6734.6157  44.843700  25.622188  -0.000725   0.000159
1 39555U 98067DY  14110.05073435  .00990002  00000-0  62032-2 0  9996 | 2 39555 051.6509 023.4503 0007543 151.0632 307.6553 15.73812219  8331 | 2014/04/20-01:13:03  104.1497   98.6500  307.5868   91.4976     6726.1503     6721.0767     6731.2238  47.384826  20.554653  -0.000751   0.000072
1 39555U 98067DY  14111.11252504  .00550317  00000-0  34351-2 0  9994 | 2 39555 051.6461 018.0102 0007639 162.0900 198.0370 15.74714809  8492 | 2014/04/21-02:42:02  231.4725    0.0999  198.0099   91.4451     6723.5798     6718.4437     6728.7160  49.115518  15.968267  -0.000764  -0.000001
1 39555U 98067DY  14112.15432258  .00569133  00000-0  33788-2 0  9994 | 2 39555 051.6489 012.6427 0006688 158.7849 353.3429 15.75822828  8661 | 2014/04/22-03:42:13  100.9132  152.1189  353.3340   91.3808     6720.4277     6715.9331     6724.9224  50.396617  11.304420  -0.000661   0.000100
1 39555U 98067DY  14113.52248674  .00296964  00000-0  17796-2 0  9993 | 2 39555 051.6458 005.6058 0007679 177.7481 182.3555 15.76356211  8875 | 2014/04/23-12:32:22   33.8619    0.1000  182.3519   91.3499     6718.9117     6713.7522     6724.0711  51.398805   5.044950  -0.000767  -0.000045
1 39555U 98067DY  14114.93471328  .00245084  00000-0  14349-2 0  9991 | 2 39555 051.6435 358.3182 0007479 174.7791 286.6588 15.77033391  9108 | 2014/04/24-22:25:59   89.6087  101.3558  286.5767   91.3107     6716.9881     6711.9645     6722.0118  51.621254  -1.515671  -0.000742   0.000090
1 39555U 98067DY  14116.19900645  .00512872  00000-0  27861-2 0  9995 | 2 39555 051.6489 351.7984 0007478 187.2151 258.8567 15.77982160  9309 | 2014/04/26-04:46:34  207.8863   85.9877  258.7726   91.2558     6714.2955     6709.2745     6719.3164  51.120648  -7.368055  -0.000748   0.000013
1 39555U 98067DY  14117.46082074  .00356988  00000-0  18911-2 0  9993 | 2 39555 051.6404 345.2760 0005810 210.8555 210.5065 15.78973044  9507 | 2014/04/27-11:03:34  334.6154   61.3282  210.4727   91.1985     6711.4861     6707.5868     6715.3855  49.944600 -13.125084  -0.000558  -0.000161
1 39555U 98067DY  14118.46250163  .00350119  00000-0  18000-2 0  9999 | 2 39555 051.6426 340.0966 0008176 216.3171 143.7277 15.79633548  9656 | 2014/04/28-11:06:00   42.7044    0.1002  143.7831   91.1604     6709.6151     6704.1293     6715.1009  48.557880 -17.580966  -0.000784  -0.000231
1 39555U 98067DY  14119.85404641  .00249822  00000-0  12710-2 0  9995 | 2 39555 051.6426 332.8884 0008085 223.9111 136.1249 15.80134967  9884 | 2014/04/29-20:29:49  192.2491    0.1002  136.1891   91.1315     6708.1956     6702.7720     6713.6192  45.968140 -23.534831  -0.000774  -0.000234
1 39555U 98067DY  14121.62433668  .00355686  00000-0  17725-2 0  9991 | 2 39555 051.6505 323.7078 0006613 216.7873 143.3180 15.81114911 10161 | 2014/05/01-14:59:02  120.4098    0.1505  143.3632   91.0750     6705.4236     6700.9893     6709.8579  41.630761 -30.572110  -0.000661  -0.000006
1 39555U 98067DY  14122.76160570  .00371795  00000-0  17017-2 0  9999 | 2 39555 051.6426 317.8047 0008946 245.0220 114.9854 15.82095883 10333 | 2014/05/02-18:16:42  176.9486    0.1003  115.0783   91.0185     6702.6515     6696.6553     6708.6477  38.259921 -34.686259  -0.000825  -0.000347
1 39555U 98067DY  14124.08758651  .00485953  00000-0  20828-2 0  9995 | 2 39555 051.6419 310.9085 0009685 256.6875 103.3049 15.83203129 10542 | 2014/05/04-02:06:07  302.5198    0.1004  103.4129   90.9548     6699.5261     6693.0376     6706.0146  33.817850 -39.028693  -0.000858  -0.000449
1 39555U 98067DY  14125.42567748  .00639102  00000-0  24994-2 0  9994 | 2 39555 051.6454 303.9372 0008578 259.1433 176.3257 15.84773336 10768 | 2014/05/05-10:12:58  357.0461   75.4753  176.3320   90.8647     6695.1000     6689.3570     6700.8431  28.832795 -42.847605  -0.000789  -0.000336
1 39555U 98067DY  14126.54704001  .00649253  00000-0  23773-2 0  9995 | 2 39555 051.6400 298.0808 0011709 276.9374 083.0299 15.86080362 10939 | 2014/05/06-13:07:44  123.2000    0.1005   83.1631   90.7899     6691.4214     6683.5864     6699.2564  24.307787 -45.561180  -0.000959  -0.000672
1 39555U 98067DY  14128.87608093  .00845898  29835-3  28590-2 0  9992 | 2 39555 051.6382 285.8792 0013589 293.5213 066.4365 15.89231668 11300 | 2014/05/08-21:01:33  256.1615    0.1006   66.5793   90.6098     6682.5728     6673.4919     6691.6538  14.128731 -49.667722  -0.001050  -0.000863
1 39555U 98067DY  14130.25782880  .01218051  69255-3  34414-2 0  9992 | 2 39555 051.6370 278.6022 0015834 303.6968 056.2528 15.92727028 11524 | 2014/05/10-06:11:16   42.2378    0.1006   56.4038   90.4110     6672.7923     6662.2266     6683.3580   7.723517 -51.056117  -0.001171  -0.001066
1 39555U 98067DY  14131.26114977  .00567822  14177-3  14847-2 0  9993 | 2 39555 051.6425 273.2969 0013469 301.6143 058.2672 15.94165745 11695 | 2014/05/11-06:16:03   49.7957    0.0129   58.3986   90.3294     6668.7770     6659.7948     6677.7591   2.969961 -51.557028  -0.001105  -0.000771
1 39555U 98067DY  14132.76415122  .01230064  76315-3  26985-2 0  9999 | 2 39555 051.6400 265.3343 0013606 311.2349 048.7101 15.97482181 11931 | 2014/05/12-18:20:22  240.2567    0.0623   48.8274   90.1419     6659.5440     6650.4830     6668.6050  -4.200494 -51.468878  -0.001093  -0.000811
1 39555U 98067DY  14133.82659818  .01047617  55483-3  19681-2 0  9997 | 2 39555 051.6376 259.6683 0012562 308.6728 051.1308 16.00200793 12106 | 2014/05/13-19:50:18  269.5922  359.9158   51.2430   89.9887     6651.9992     6643.6429     6660.3554  -9.261025 -50.800346  -0.001106  -0.000596
1 39555U 98067DY  14135.51074591  .01587571  16098-2  23108-2 0  9999 | 2 39555 051.6343 250.6536 0016234 320.9577 039.2964 16.04643694 12376 | 2014/05/15-12:15:28  166.1096    0.3721   39.4144   89.7395     6639.7149     6628.9360     6650.4938 -17.105339 -48.718665  -0.001383  -0.000851
1 39555U 98067DY  14136.56805871  .02097217  38409-2  24403-2 0  9991 | 2 39555 051.6307 244.9581 0014707 321.4533 038.7073 16.08820752 12543 | 2014/05/16-13:38:00  193.5734    0.2661   38.8128   89.5066     6628.2173     6618.4691     6637.9654 -21.854290 -46.777336  -0.001317  -0.000654
1 39555U 98067DY  14137.62204943  .04997144  11770-4  36196-2 0  9998 | 2 39555 051.6273 239.2009 0023849 322.2413 037.6929 16.14355491 12706 | 2014/05/17-14:55:45  220.0325    0.1017   37.8604   89.1997     6613.0589     6597.2874     6628.8304 -26.434694 -44.346196  -0.002220  -0.000872
1 39555U 98067DY  14138.73247519  .06573226  12128-4  19035-2 0  9991 | 2 39555 051.6224 233.1290 0012405 322.8363 037.7652 16.26404492 12896 | 2014/05/18-17:34:45  266.2848    0.6887   37.8524   88.5389     6580.3571     6572.1942     6588.5201 -30.974235 -41.297324  -0.001193  -0.000341
