# SPACE DATA - HISTORICAL TLEs
# ----------------------------
# NORAD_ID    : 39132
# OBJECT_NAME : DOVE 2
# --------------------------------------------------------------------+-----------------------------------------------------------------------+----------------------------------------------------------------------------------------------------------------------------------------
#                  LINE 1                                             |                 LINE 2                                                |      DERIVED PARAMETERS
# --------------------------------------------------------------------+-----------------------------------------------------------------------+----------------------------------------------------------------------------------------------------------------------------------------
# NORAD  COSPAR     TLE_EPOCH      MEANMOT1 MEANMOT2   BSTAR  #  REV  |   NORAD    INC     RAAN     ECC    ARGPER  MEANANOM   MEANMOT     REV |  CAL_DATE              LONG     ARGLAT     PERIOD        SMA         PERIGEE        APOGEE      INC_X      INC_Y      ECC_X      ECC_Y
# ------ ------   -------------- ----------  -------  ------- -- ----     -----  ------- -------- ------- -------- -------- -----------  ----   ------------------- ---------  --------  --------  ------------  ------------   ----------- ---------- ----------  ---------  ---------   
1 39559U 98067EC  14058.16027932 -.00000467  00000-0  00000+0 0  9996 | 2 39559 051.6484 285.0166 0006741 216.8840 290.3903 15.51340965   225 | 2014/02/27-03:50:48  142.3181  147.2019  290.3179   92.8229     6790.9469     6786.3691     6795.5247  13.382043 -49.884648  -0.000530   0.000416
1 39559U 98067EC  14059.49865656 -.00000466  00000-0  00000+0 0  9995 | 2 39559 051.6462 278.3650 0005321 230.7985 196.5937 15.51500103   431 | 2014/02/28-11:58:03  351.9868   67.3748  196.5763   92.8134     6790.4825     6786.8693     6794.0957   7.513421 -51.096756  -0.000457   0.000273
1 39559U 98067EC  14060.79290882  .00070471  00000-0  11578-2 0  9990 | 2 39559 051.6478 271.9364 0004509 231.0590 230.7275 15.51735924   631 | 2014/03/01-19:01:47   71.2276  101.7465  230.6875   92.7993     6789.7945     6786.7330     6792.8560   1.745185 -51.618307  -0.000360   0.000271
1 39559U 98067EC  14061.82571148  .00069655  00000-0  11388-2 0  9993 | 2 39559 051.6475 266.8065 0004880 232.1103 243.2423 15.51876575   792 | 2014/03/02-19:49:01   75.6183  115.3027  243.1924   92.7909     6789.3843     6786.0710     6792.6975  -2.877191 -51.567296  -0.000368   0.000321
1 39559U 98067EC  14063.54364748  .00065468  00000-0  10630-2 0  9997 | 2 39559 051.6467 258.2826 0004774 250.5638 109.4836 15.52095513  1059 | 2014/03/04-13:02:51   99.5977    0.0990  109.5352   92.7778     6788.7458     6785.5048     6791.9867 -10.488653 -50.570444  -0.000409   0.000247
1 39559U 98067EC  14064.76691320  .00064444  00000-0  10399-2 0  9996 | 2 39559 051.6464 252.2040 0004896 256.8605 103.1838 15.52274800  1248 | 2014/03/05-18:24:21  187.2608    0.0989  103.2384   92.7671     6788.2230     6784.8995     6791.5466 -15.784629 -49.175158  -0.000420   0.000252
1 39559U 98067EC  14065.79685924  .00114447  00000-0  18057-2 0  9991 | 2 39559 051.6471 247.0819 0005201 268.4099 091.6296 15.52634784  1407 | 2014/03/06-19:07:28  204.1834    0.0991   91.6892   92.7456     6787.1737     6783.6437     6790.7038 -20.112152 -47.570204  -0.000473   0.000216
1 39559U 98067EC  14067.67347550  .00060848  00000-0  96224-3 0  9998 | 2 39559 051.6490 237.7417 0004929 272.9813 144.0756 15.52860624  1709 | 2014/03/08-16:09:48  113.9377   57.0900  144.1087   92.7321     6786.5157     6783.1706     6789.8607 -27.566984 -43.677003  -0.000430   0.000241
1 39559U 98067EC  14068.82161349  .00064644  00000-0  10165-2 0  9993 | 2 39559 051.6463 232.0368 0005417 281.1793 078.8588 15.52988924  1873 | 2014/03/09-19:43:07  231.1228    0.0990   78.9197   92.7244     6786.1419     6782.4658     6789.8179 -31.770491 -40.718254  -0.000484   0.000244
1 39559U 98067EC  14070.43920084  .00223778  00000-0  33637-2 0  9996 | 2 39559 051.6481 223.9771 0004793 279.4654 131.4282 15.53538706  2139 | 2014/03/11-10:32:26   52.2528   50.9348  131.4694   92.6916     6784.5408     6781.2889     6787.7926 -37.166871 -35.862933  -0.000385   0.000285
1 39559U 98067EC  14071.45927418  .00175823  00000-0  26299-2 0  9990 | 2 39559 051.6459 218.9042 0006155 301.0815 058.9571 15.53850523  2288 | 2014/03/12-11:01:21  116.4125    0.0991   59.0176   92.6730     6783.6331     6779.4578     6787.8084 -40.190690 -32.434663  -0.000578   0.000211
1 39559U 98067EC  14072.55247674  .00169628  00000-0  25442-2 0  9996 | 2 39559 051.6449 213.4526 0005665 294.1909 065.8997 15.54252538  2456 | 2014/03/13-13:15:33  156.4425    0.1499   65.9590   92.6490     6782.4633     6778.6210     6786.3055 -43.089517 -28.469093  -0.000479   0.000303
1 39559U 98067EC  14073.70991273  .00080735  00000-0  12078-2 0  9997 | 2 39559 051.6468 207.6877 0006281 310.8571 049.1875 15.54261654  2647 | 2014/03/14-17:02:16  220.0712    0.0991   49.2420   92.6485     6782.4368     6778.1767     6786.6968 -45.732900 -23.997787  -0.000585   0.000230
1 39559U 98067EC  14074.73861386  .00066013  00000-0  98611-3 0  9993 | 2 39559 051.6468 202.5587 0006439 315.9636 044.0841 15.54387899  2807 | 2014/03/15-17:43:36  236.5435    0.0991   44.1355   92.6410     6782.0695     6777.7025     6786.4365 -47.695148 -19.813249  -0.000599   0.000236
1 39559U 98067EC  14075.76721385  .00094369  00000-0  13918-2 0  9992 | 2 39559 051.6470 197.4302 0006630 321.1430 038.9084 15.54579119  2956 | 2014/03/16-18:24:47  252.9781    0.0991   38.9561   92.6296     6781.5134     6777.0172     6786.0095 -49.275503 -15.470535  -0.000617   0.000242
1 39559U 98067EC  14076.79564987  .00125734  00000-0  18291-2 0  9999 | 2 39559 051.6464 192.2991 0007027 327.2076 032.8478 15.54809419  3118 | 2014/03/17-19:05:44  269.3558    0.0991   32.8915   92.6159     6780.8437     6776.0788     6785.6086 -50.461059 -11.001460  -0.000658   0.000246
1 39559U 98067EC  14078.14522059  .00143863  00000-0  20522-2 0  9997 | 2 39559 051.6459 185.5640 0007393 334.9166 025.1465 15.55265909  3324 | 2014/03/19-03:29:07   43.2589    0.0991   25.1825   92.5887     6779.5168     6774.5047     6784.5289 -51.402571  -5.007460  -0.000697   0.000247
1 39559U 98067EC  14080.26511565  .00182050  00000-0  25095-2 0  9994 | 2 39559 051.6451 174.9736 0007972 345.9397 014.1372 15.56041549  3659 | 2014/03/21-06:21:45   99.0872    0.0992   14.1595   92.5425     6777.2637     6771.8608     6782.6665 -51.446495   4.524872  -0.000753   0.000261
1 39559U 98067EC  14081.48512639  .00224360  00000-0  30091-2 0  9995 | 2 39559 051.6448 168.8721 0008404 352.6221 007.4646 15.56621561  3841 | 2014/03/22-11:38:34  185.5853    0.0992    7.4771   92.5080     6775.5800     6769.8858     6781.2742 -50.673816   9.967435  -0.000797   0.000267
1 39559U 98067EC  14082.76888692  .00223386  00000-0  29384-2 0  9992 | 2 39559 051.6449 162.4467 0008612 358.0683 002.0275 15.57145272  4045 | 2014/03/23-18:27:11  295.4207    0.0993    2.0310   92.4769     6774.0607     6768.2269     6779.8946 -49.240148  15.575734  -0.000812   0.000287
1 39559U 98067EC  14084.43714647  .00205130  00000-0  26423-2 0  9994 | 2 39559 051.6453 154.0898 0008893 005.7811 354.3282 15.57769315  4305 | 2014/03/25-10:29:29  185.9818    0.0992  354.3181   92.4399     6772.2515     6766.2289     6778.2741 -46.453915  22.567030  -0.000835   0.000306
1 39559U 98067EC  14085.46343928  .00216034  00000-0  27355-2 0  9998 | 2 39559 051.6452 148.9445 0009065 010.5966 349.5216 15.58184626  4468 | 2014/03/26-11:07:21  201.5952    0.0993  349.5027   92.4152     6771.0481     6764.9101     6777.1860 -44.242790  26.642113  -0.000849   0.000317
1 39559U 98067EC  14086.48946228  .00201807  00000-0  25217-2 0  9990 | 2 39559 051.6450 143.7969 0009262 015.3572 344.7700 15.58585791  4626 | 2014/03/27-11:44:49  217.1134    0.0993  344.7421   92.3914     6769.8862     6763.6159     6776.1564 -41.673815  30.504085  -0.000866   0.000330
1 39559U 98067EC  14087.77161544  .00196086  00000-0  24063-2 0  9993 | 2 39559 051.6446 137.3605 0009302 020.8756 339.2615 15.59084460  4821 | 2014/03/28-18:31:07  326.3788    0.0993  339.2237   92.3619     6768.4425     6762.1465     6774.7385 -37.991331  34.983188  -0.000864   0.000345
1 39559U 98067EC  14089.11745529  .00180121  00000-0  21736-2 0  9991 | 2 39559 051.6443 130.5990 0009362 027.3756 332.7729 15.59583851  5034 | 2014/03/30-02:49:08   98.9578    0.0994  332.7238   92.3323     6766.9976     6760.6623     6773.3329 -33.608095  39.212622  -0.000868   0.000351
1 39559U 98067EC  14090.14257519  .00166942  00000-0  19931-2 0  9992 | 2 39559 051.6442 125.4456 0009419 032.2606 327.8961 15.59912977  5190 | 2014/03/31-03:25:18  114.1565    0.0993  327.8387   92.3128     6766.0457     6759.6728     6772.4186 -29.950007  42.072800  -0.000871   0.000357
1 39559U 98067EC  14091.16748190  .00161098  00000-0  19020-2 0  9991 | 2 39559 051.6445 120.2908 0009391 037.1150 323.0491 15.60227075  5359 | 2014/04/01-04:01:10  129.2805    0.0993  322.9843   92.2943     6765.1376     6758.7845     6771.4907 -26.048917  44.593815  -0.000867   0.000361
1 39559U 98067EC  14092.44835366  .00138327  00000-0  16195-2 0  9994 | 2 39559 051.6450 113.8463 0009511 042.1691 318.0032 15.60531927  5550 | 2014/04/02-10:45:37  238.0932    0.0993  317.9302   92.2762     6764.2565     6757.8230     6770.6900 -20.879275  47.236235  -0.000869   0.000387
1 39559U 98067EC  14093.66497304  .00124536  00000-0  14571-2 0  9998 | 2 39559 051.6458 107.7215 0009146 038.4012 321.8154 15.60839298  5744 | 2014/04/03-15:57:33  323.3558    0.1518  321.7506   92.2581     6763.3685     6757.1827     6769.5542 -15.720492  49.195069  -0.000759   0.000510
1 39559U 98067EC  14094.81740598  .00084860  00000-0  98467-3 0  9994 | 2 39559 051.6452 101.9197 0009479 051.9123 308.2724 15.60997959  5926 | 2014/04/04-19:37:03   25.2012    0.0994  308.1871   92.2487     6762.9102     6756.4996     6769.3207 -10.666831  50.531628  -0.000851   0.000418
1 39559U 98067EC  14096.16170971  .00099354  00000-0  11393-2 0  9992 | 2 39559 051.6449 095.1490 0009442 058.2077 301.9835 15.61235784  6139 | 2014/04/06-03:52:51  157.2398    0.0994  301.8917   92.2346     6762.2233     6755.8384     6768.6082  -4.634928  51.436496  -0.000844   0.000423
1 39559U 98067EC  14097.44179642  .00088776  00000-0  10106-2 0  9995 | 2 39559 051.6447 088.6991 0009386 063.8078 296.3880 15.61475509  6330 | 2014/04/07-10:36:11  265.7780    0.0994  296.2916   92.2205     6761.5312     6755.1848     6767.8776   1.172492  51.631389  -0.000833   0.000433
1 39559U 98067EC  14098.46572321  .00083117  00000-0  94058-3 0  9992 | 2 39559 051.6444 083.5379 0009353 068.2088 291.9900 15.61657912  6496 | 2014/04/08-11:10:38  280.5591    0.0994  291.8906   92.2097     6761.0047     6754.6811     6767.3283   5.812369  51.316278  -0.000824   0.000443
1 39559U 98067EC  14099.48950631  .00136762  00000-0  15151-2 0  9990 | 2 39559 051.6441 078.3761 0009155 074.8859 285.3147 15.61975034  6655 | 2014/04/09-11:44:53  295.2901    0.0994  285.2135   92.1910     6760.0896     6753.9007     6766.2784  10.405590  50.584946  -0.000818   0.000412
1 39559U 98067EC  14101.15270968  .00148200  00000-0  16091-2 0  9990 | 2 39559 051.6442 069.9846 0009009 084.6102 275.5920 15.62450880  6911 | 2014/04/11-03:39:54  184.0726    0.0994  275.4892   92.1629     6758.7170     6752.6280     6764.8059  17.676400  48.524924  -0.000814   0.000387
1 39559U 98067EC  14102.75145783  .00125058  00000-0  13325-2 0  9996 | 2 39559 051.6444 061.9125 0008780 092.8720 267.3280 15.63025262  7166 | 2014/04/12-18:02:05   49.2720    0.0995  267.2275   92.1290     6757.0611     6751.1284     6762.9938  24.315186  45.562219  -0.000794   0.000374
1 39559U 98067EC  14104.11385253  .00194727  00000-0  20093-2 0  9995 | 2 39559 051.6446 055.0213 0008674 093.6143 019.1666 15.63589587  7380 | 2014/04/14-02:43:56   75.3872  112.8136   19.1993   92.0958     6755.4351     6749.5755     6761.2948  29.606397  42.315789  -0.000741   0.000451
1 39559U 98067EC  14105.11633199  .00155470  00000-0  15909-2 0  9993 | 2 39559 051.6450 049.9587 0008512 107.5491 252.6435 15.63941938  7530 | 2014/04/15-02:47:31  194.9188    0.0995  252.5504   92.0750     6754.4204     6748.6711     6760.1698  33.225275  39.538426  -0.000786   0.000326
1 39559U 98067EC  14106.13859444  .00137661  00000-0  13935-2 0  9998 | 2 39559 051.6450 044.7865 0008434 113.4009 246.7873 15.64283166  7696 | 2014/04/16-03:19:34  209.1175    0.0994  246.6985   92.0549     6753.4382     6747.7423     6759.1340  36.654354  36.382198  -0.000783   0.000313
1 39559U 98067EC  14107.16063063  .00171717  00000-0  17057-2 0  9995 | 2 39559 051.6448 039.6131 0008371 121.0694 239.1124 15.64636642  7851 | 2014/04/17-03:51:18  223.2377    0.0995  239.0301   92.0341     6752.4210     6746.7685     6758.0734  39.785475  32.928732  -0.000790   0.000277
1 39559U 98067EC  14108.18238204  .00231292  00000-0  22337-2 0  9991 | 2 39559 051.6443 034.4381 0008382 129.2382 230.9358 15.65142433  8021 | 2014/04/18-04:22:37  237.2581    0.0995  230.8613   92.0044     6750.9662     6745.3075     6756.6248  42.592998  29.205655  -0.000804   0.000236
1 39559U 98067EC  14109.33143844  .00304094  00000-0  28367-2 0  9994 | 2 39559 051.6440 028.6124 0008403 139.0235 221.1393 15.65775483  8194 | 2014/04/19-07:57:16  297.8878    0.0995  221.0760   91.9672     6749.1464     6743.4751     6754.8177  45.337201  24.731375  -0.000821   0.000180
1 39559U 98067EC  14110.79893048  .00454379  00000-0  39886-2 0  9994 | 2 39559 051.6434 021.1636 0008656 152.2438 207.9021 15.66817948  8425 | 2014/04/20-19:10:27  115.0971    0.0995  207.8557   91.9060     6746.1524     6740.3130     6751.9919  48.160226  18.644930  -0.000860   0.000099
1 39559U 98067EC  14112.13793526  .00325730  00000-0  28032-2 0  9993 | 2 39559 051.6437 014.3569 0008674 161.2960 198.8357 15.67703868  8647 | 2014/04/22-03:18:37  245.2795    0.0996  198.8036   91.8541     6743.6107     6737.7612     6749.4601  50.030865  12.805634  -0.000865   0.000066
1 39559U 98067EC  14113.15764668  .00288494  00000-0  24356-2 0  9991 | 2 39559 051.6436 009.1672 0008766 169.1183 191.0005 15.68288660  8799 | 2014/04/23-03:47:00  258.5833    0.0997  190.9814   91.8198     6741.9342     6736.0242     6747.8441  50.983989   8.227655  -0.000876   0.000026
1 39559U 98067EC  14114.30440782  .00287678  00000-0  23680-2 0  9999 | 2 39559 051.6435 003.3266 0008854 176.7862 183.3193 15.68907779  8970 | 2014/04/24-07:18:20  318.4015    0.0996  183.3134   91.7836     6740.1604     6734.1926     6746.1281  51.556480   2.996744  -0.000885  -0.000002
1 39559U 98067EC  14115.83267840  .00280763  00000-0  22309-2 0  9995 | 2 39559 051.6432 355.5347 0008860 187.5634 172.5231 15.69784547  9211 | 2014/04/25-19:59:03  157.8962    0.0997  172.5363   91.7323     6737.6504     6731.6809     6743.6200  51.486446  -4.020698  -0.000885  -0.000048
1 39559U 98067EC  14117.10557904  .00274963  00000-0  21187-2 0  9998 | 2 39559 051.6427 349.0359 0008953 196.4003 163.6706 15.70540286  9410 | 2014/04/27-02:32:02  263.9094    0.0997  163.6994   91.6882     6735.4888     6729.4586     6741.5191  50.700042  -9.822126  -0.000891  -0.000085
1 39559U 98067EC  14118.12347839  .00261140  00000-0  19718-2 0  9995 | 2 39559 051.6423 343.8334 0009114 203.9366 156.1209 15.71065428  9570 | 2014/04/28-02:57:48  276.5724    0.0997  156.1631   91.6575     6733.9878     6727.8505     6740.1252  49.600165 -14.378831  -0.000903  -0.000123
1 39559U 98067EC  14119.84042917  .00261408  00000-0  19072-2 0  9994 | 2 39559 051.6418 335.0500 0009346 215.9910 144.0460 15.71878084  9842 | 2014/04/29-20:10:13  185.1709    0.0998  144.1088   91.6102     6731.6667     6725.3752     6737.9581  46.822393 -21.783916  -0.000917  -0.000179
1 39559U 98067EC  14121.17517873  .00281523  00000-0  19838-2 0  9991 | 2 39559 051.6416 328.2125 0009412 224.7291 135.2949 15.72637376 10058 | 2014/05/01-04:12:15  313.8468    0.0998  135.3707   91.5659     6729.4997     6723.1659     6735.8335  43.895754 -27.203264  -0.000917  -0.000211
1 39559U 98067EC  14122.44578824  .00239655  00000-0  16518-2 0  9996 | 2 39559 051.6410 321.6993 0009790 232.9674 127.0429 15.73276317 10256 | 2014/05/02-10:41:56   59.0455    0.0998  127.1324   91.5287     6727.6776     6721.0912     6734.2640  40.526246 -32.006504  -0.000947  -0.000248
1 39559U 98067EC  14123.46191890  .00247791  00000-0  16695-2 0  9999 | 2 39559 051.6410 316.4855 0009955 239.9189 120.0823 15.73779829 10411 | 2014/05/03-11:05:09   71.0770    0.0998  120.1809   91.4995     6726.2426     6719.5466     6732.9385  37.450061 -35.556797  -0.000955  -0.000281
1 39559U 98067EC  14124.54118951  .00323344  00000-0  20947-2 0  9990 | 2 39559 051.6400 310.9423 0010382 247.3777 112.6124 15.74465484 10581 | 2014/05/04-12:59:18  106.2325    0.0999  112.7222   91.4596     6724.2896     6717.3085     6731.2708  33.839623 -39.007301  -0.000986  -0.000326
1 39559U 98067EC  14125.93718201  .00345667  00000-0  21526-2 0  9994 | 2 39559 051.6395 303.7647 0010677 257.6858 102.2946 15.75308249 10801 | 2014/05/05-22:29:32  257.3530    0.0999  102.4141   91.4107     6721.8912     6714.7142     6729.0681  28.700384 -42.929313  -0.000994  -0.000390
1 39559U 98067EC  14127.47645603  .00353250  00000-0  20971-2 0  9990 | 2 39559 051.6422 295.8260 0010213 265.9674 192.3923 15.76385023 11057 | 2014/05/07-11:26:05    2.5683   98.3346  192.3672   91.3482     6718.8298     6711.9679     6725.6918  22.497388 -46.484238  -0.000948  -0.000379
1 39559U 98067EC  14128.49208631  .00347477  00000-0  20069-2 0  9991 | 2 39559 051.6404 290.6059 0010516 268.4738 198.5479 15.77019338 11217 | 2014/05/08-11:48:36    5.7543  106.9834  198.5096   91.3115     6717.0281     6709.9644     6724.0917  18.174221 -48.336618  -0.000994  -0.000344
1 39559U 98067EC  14129.82861404  .00468175  00000-0  25208-2 0  9991 | 2 39559 051.6404 283.6963 0011807 282.4841 220.6193 15.78251736 11422 | 2014/05/09-19:53:12   99.0496  143.0154  220.5313   91.2402     6713.5309     6705.6042     6721.4575  12.227177 -50.171975  -0.001060  -0.000521
1 39559U 98067EC  14130.87959650  .00450095  00000-0  23402-2 0  9995 | 2 39559 051.6379 278.2689 0012954 291.1940 068.7677 15.79057967 11585 | 2014/05/10-21:06:37  267.0082    0.1001   68.9061   91.1936     6711.2455     6702.5518     6719.9392   7.426515 -51.101072  -0.001128  -0.000637
1 39559U 98067EC  14132.96679129  .00516289  00000-0  24372-2 0  9992 | 2 39559 051.6379 267.4564 0014028 303.1678 056.7978 15.80987020 11915 | 2014/05/12-23:12:10  311.2642    0.1002   56.9324   91.0823     6705.7852     6696.3783     6715.1921  -2.291670 -51.587023  -0.001207  -0.000715
1 39559U 98067EC  14133.97781486  .00566838  00000-0  25439-2 0  9994 | 2 39559 051.6374 262.2073 0014859 308.4075 051.5592 15.81937845 12073 | 2014/05/13-23:28:03  321.4772    0.1002   51.6927   91.0276     6703.0979     6693.1378     6713.0581  -7.001481 -51.160535  -0.001279  -0.000757
1 39559U 98067EC  14135.51000759  .00558920  00000-0  23431-2 0  9996 | 2 39559 051.6411 254.2342 0013495 311.9277 143.7663 15.83437286 12320 | 2014/05/15-12:14:24   66.8226   95.7853  143.8576   90.9414     6698.8656     6689.8255     6707.9057 -14.031189 -49.698380  -0.001211  -0.000595
1 39559U 98067EC  14136.81792748  .00688082  00000-0  26383-2 0  9998 | 2 39559 051.6354 247.4189 0016111 321.4240 038.5612 15.84953936 12526 | 2014/05/16-19:37:48  281.4870    0.1005   38.6765   90.8544     6694.5914     6683.8058     6705.3771 -19.827517 -47.676872  -0.001411  -0.000777
1 39559U 98067EC  14137.82635583  .00685511  00000-0  24843-2 0  9996 | 2 39559 051.6347 242.1512 0016506 326.3871 033.6085 15.86119571 12680 | 2014/05/17-19:49:57  290.7725    0.1005   33.7134   90.7876     6691.3112     6680.2665     6702.3558 -24.120628 -45.654546  -0.001450  -0.000789
1 39559U 98067EC  14138.83402915  .00616427  15335-3  22799-2 0  9997 | 2 39559 051.6341 236.8784 0016821 330.8731 029.1334 15.87337579 12846 | 2014/05/18-20:01:00  299.7900    0.1005   29.2274   90.7179     6687.8878     6676.6381     6699.1375 -28.213788 -43.244219  -0.001489  -0.000783
1 39559U 98067EC  14140.09254662  .00629253  16257-3  21558-2 0  9999 | 2 39559 051.6335 230.2799 0016979 336.5168 023.5061 15.88863091 13046 | 2014/05/20-02:13:16   40.6788    0.1007   23.5839   90.6308     6683.6063     6672.2582     6694.9544 -32.995753 -39.715219  -0.001516  -0.000765
1 39559U 98067EC  14141.22940569  .00646705  17458-3  20662-2 0  9993 | 2 39559 051.6375 224.3007 0015388 338.9087 051.1356 15.90281765 13235 | 2014/05/21-05:30:20   67.0264   30.1818   51.2731   90.5500     6679.6307     6669.3521     6689.9094 -36.956143 -36.064871  -0.001414  -0.000606
1 39559U 98067EC  14142.43591130  .00702100  21018-3  20637-2 0  9994 | 2 39559 051.6354 217.9480 0014946 345.8754 119.5921 15.91908670 13422 | 2014/05/22-10:27:42   73.4871  105.6163  119.7409   90.4575     6675.0790     6665.1024     6685.0556 -40.718085 -31.752985  -0.001367  -0.000604
1 39559U 98067EC  14144.42419691  .00940152  40726-3  22732-2 0  9992 | 2 39559 051.6310 207.4423 0016532 353.3133 006.7652 15.95551826 13736 | 2014/05/24-10:10:50  187.1244    0.1009    6.7876   90.2509     6664.9142     6653.8958     6675.9327 -45.821242 -23.794410  -0.001546  -0.000586
1 39559U 98067EC  14145.48834701  .00877973  36045-3  19323-2 0  9993 | 2 39559 051.6300 201.7940 0016009 358.6871 001.4093 15.97267150 13908 | 2014/05/25-11:43:13  216.8977    0.1009    1.4138   90.1540     6660.1417     6649.4795     6670.8039 -47.939731 -19.168701  -0.001500  -0.000560
1 39559U 98067EC  14146.48882732  .00908808  39866-3  18144-2 0  9997 | 2 39559 051.6296 196.4686 0015125 002.0901 358.0430 15.99033650 14074 | 2014/05/26-11:43:54  223.3454    0.1272  358.0371   90.0544     6655.2357     6645.1696     6665.3017 -49.511508 -14.636467  -0.001434  -0.000481
1 39559U 98067EC  14147.67514209  .01240031  83861-3  21126-2 0  9996 | 2 39559 051.6327 190.1278 0014276 004.3028 355.8248 16.01896621 14260 | 2014/05/27-16:12:12  297.9343    0.1157  355.8129   89.8934     6647.3036     6637.8140     6656.7933 -50.828158  -9.079321  -0.001383  -0.000356
1 39559U 98067EC  14149.41992656  .01061541  00000-0  14281-2 0  9998 | 2 39559 051.6291 180.7737 0012907 014.6536 345.5363 16.05534350 14538 | 2014/05/29-10:04:41  217.0683    0.1529  345.4993   89.6898     6637.2591     6628.6924     6645.8258 -51.624393  -0.697158  -0.001244  -0.000343
1 39559U 98067EC  14150.53918763  .02122507  41014-2  23545-2 0  9996 | 2 39559 051.6300 174.7341 0010746 016.0996 345.7266 16.09743947 14721 | 2014/05/30-12:56:25  265.5088    1.7958  345.6962   89.4552     6625.6828     6618.5628     6632.8028 -51.412095   4.738496  -0.001055  -0.000202
1 39559U 98067EC  14151.59287538  .02297705  63509-2  19682-2 0  9995 | 2 39559 051.6306 169.0200 0009332 017.9457 342.2020 16.14198679 14899 | 2014/05/31-14:13:44  293.2675    0.1150  342.1693   89.2083     6613.4872     6607.3155     6619.6589 -50.685436   9.833891  -0.000926  -0.000113
1 39559U 98067EC  14153.13497142  .06316823  12120-4  16614-2 0  9995 | 2 39559 051.6322 160.5549 0004764 018.0686 341.9599 16.27694583 15133 | 2014/06/02-03:14:21  138.5264    0.0116  341.9430   88.4687     6576.8797     6573.7464     6580.0129 -48.687146  17.188539  -0.000476   0.000011
