# SPACE DATA - HISTORICAL TLEs
# ----------------------------
# NORAD_ID    : 39132
# OBJECT_NAME : DOVE 2
# --------------------------------------------------------------------+-----------------------------------------------------------------------+----------------------------------------------------------------------------------------------------------------------------------------
#                  LINE 1                                             |                 LINE 2                                                |      DERIVED PARAMETERS
# --------------------------------------------------------------------+-----------------------------------------------------------------------+----------------------------------------------------------------------------------------------------------------------------------------
# NORAD  COSPAR     TLE_EPOCH      MEANMOT1 MEANMOT2   BSTAR  #  REV  |   NORAD    INC     RAAN     ECC    ARGPER  MEANANOM   MEANMOT     REV |  CAL_DATE              LONG     ARGLAT     PERIOD        SMA         PERIGEE        APOGEE      INC_X      INC_Y      ECC_X      ECC_Y
# ------ ------   -------------- ----------  -------  ------- -- ----     -----  ------- -------- ------- -------- -------- -----------  ----   ------------------- ---------  --------  --------  ------------  ------------   ----------- ---------- ----------  ---------  ---------   
1 39558U 98067EB  14058.16020417 -.00000467  00000-0  00000+0 0  9996 | 2 39558 051.6512 285.0177 0006796 202.4778 304.8535 15.51402563    77 | 2014/02/27-03:50:41  142.2329  147.2674  304.7896   92.8192     6790.7671     6786.1521     6795.3821  13.383726 -49.887096  -0.000414   0.000539
1 39558U 98067EB  14059.63424469  .00062783  00000-0  10370-2 0  9996 | 2 39558 051.6459 277.6930 0005927 213.0736 252.9488 15.51629139   304 | 2014/02/28-15:13:18    2.9740  105.9575  252.8839   92.8057     6790.1060     6786.0815     6794.1305   6.913584 -51.181064  -0.000387   0.000449
1 39558U 98067EB  14060.79435134  .00073880  00000-0  12094-2 0  9991 | 2 39558 051.6475 271.9298 0006089 213.4656 257.4443 15.51808722   488 | 2014/03/01-19:03:51   62.6315  110.8418  257.3762   92.7949     6789.5822     6785.4480     6793.7164   1.739229 -51.618207  -0.000353   0.000496
1 39558U 98067EB  14061.88841876  .00072378  00000-0  11788-2 0  9996 | 2 39558 051.6476 266.4925 0006154 218.1271 249.1200 15.51960107   657 | 2014/03/02-21:19:19  106.6743  107.1812  249.0541   92.7859     6789.1406     6784.9626     6793.3187  -3.159759 -51.550854  -0.000350   0.000506
1 39558U 98067EB  14063.80087343  .00063204  00000-0  10226-2 0  9995 | 2 39558 051.6463 257.0004 0005679 237.7827 122.2613 15.52204845   944 | 2014/03/04-19:13:15  193.7382    0.0990  122.3163   92.7713     6788.4270     6784.5718     6792.2821 -11.617538 -50.322690  -0.000400   0.000403
1 39558U 98067EB  14064.89531185  .00064135  00000-0  10317-2 0  9998 | 2 39558 051.6461 251.5613 0005732 243.6499 116.3902 15.52358806  1110 | 2014/03/05-21:29:14  234.2577    0.0989  116.4490   92.7621     6787.9781     6784.0873     6791.8690 -16.335139 -48.994723  -0.000407   0.000404
1 39558U 98067EB  14066.07199309  .00068387  00000-0  10927-2 0  9998 | 2 39558 051.6466 245.7078 0006671 226.4908 234.1167 15.52512011  1305 | 2014/03/07-01:43:40  204.3089  100.5456  234.0548   92.7529     6787.5316     6783.0036     6792.0595 -21.246909 -47.073773  -0.000252   0.000618
1 39558U 98067EB  14067.67904495  .00069452  00000-0  11007-2 0  9999 | 2 39558 051.6476 237.7100 0005891 252.5684 196.5165 15.52737703  1550 | 2014/03/08-16:17:49   83.9519   89.0657  196.4973   92.7394     6786.8738     6782.8757     6790.8720 -27.590397 -43.660561  -0.000381   0.000449
1 39558U 98067EB  14069.27201866  .00066051  00000-0  10404-2 0  9991 | 2 39558 051.6462 229.7946 0005977 268.0190 092.0116 15.52929102  1791 | 2014/03/10-06:31:42   35.9623    0.0990   92.0800   92.7280     6786.3162     6782.2600     6790.3723 -33.339154 -39.444020  -0.000443   0.000401
1 39558U 98067EB  14070.43609045  .00108614  00000-0  16823-2 0  9995 | 2 39558 051.6440 223.9899 0006329 272.5824 120.0322 15.53166271  1989 | 2014/03/11-10:27:58   69.3962   32.6774  120.0950   92.7138     6785.6253     6781.3307     6789.9199 -37.155908 -35.868388  -0.000460   0.000435
1 39558U 98067EB  14071.45968719  .00063037  00000-0  98002-3 0  9993 | 2 39558 051.6454 218.9052 0006015 279.9046 080.1265 15.53310978  2133 | 2014/03/12-11:01:56  116.5681    0.0990   80.1944   92.7052     6785.2039     6781.1226     6789.2852 -40.189735 -32.435051  -0.000453   0.000396
1 39558U 98067EB  14072.81065525  .00075559  00000-0  11618-2 0  9996 | 2 39558 051.6463 212.1803 0006209 288.3172 071.7142 15.53536740  2342 | 2014/03/13-19:27:20  250.9728    0.0990   71.7818   92.6917     6784.5465     6780.3340     6788.7590 -43.712206 -27.506060  -0.000479   0.000395
1 39558U 98067EB  14074.48302436  .00072759  00000-0  11100-2 0  9991 | 2 39558 051.6464 203.8504 0006321 296.7378 063.2965 15.53768663  2603 | 2014/03/15-11:35:33  143.0010    0.0990   63.3612   92.6779     6783.8713     6779.5833     6788.1594 -47.236021 -20.883221  -0.000488   0.000401
1 39558U 98067EB  14075.51204529  .00079028  00000-0  11974-2 0  9995 | 2 39558 051.6462 198.7238 0006607 303.0615 056.9740 15.53919537  2765 | 2014/03/16-12:17:20  159.5882    0.0990   57.0375   92.6689     6783.4322     6778.9504     6787.9140 -48.912929 -16.578762  -0.000519   0.000409
1 39558U 98067EB  14076.73384401  .00096049  00000-0  14387-2 0  9991 | 2 39558 051.6460 192.6350 0006832 310.0930 049.9461 15.54144835  2954 | 2014/03/17-17:36:44  246.7252    0.0991   50.0061   92.6555     6782.7766     6778.1426     6787.4106 -50.395306 -11.297013  -0.000544   0.000414
1 39558U 98067EB  14077.76254846  .00143632  00000-0  21067-2 0  9998 | 2 39558 051.6453 187.5064 0007074 317.4257 042.6185 15.54510016  3113 | 2014/03/18-18:18:04  263.1963    0.0991   42.6734   92.6337     6781.7143     6776.9169     6786.5117 -51.202714  -6.746784  -0.000579   0.000406
1 39558U 98067EB  14080.07624644  .00197913  00000-0  28517-2 0  9991 | 2 39558 051.6445 175.9570 0007072 321.0147 039.0840 15.55334052  3476 | 2014/03/21-01:49:47   29.9029    0.1498   39.1351   92.5846     6779.3188     6774.5244     6784.1131 -51.515978   3.641202  -0.000517   0.000483
1 39558U 98067EB  14081.16836279  .00191251  00000-0  26589-2 0  9997 | 2 39558 051.6445 170.5051 0007724 337.8323 022.2334 15.55778127  3642 | 2014/03/22-04:02:26   69.6262    0.0992   22.2669   92.5582     6778.0287     6772.7933     6783.2640 -50.936985   8.519267  -0.000657   0.000405
1 39558U 98067EB  14082.45284517  .00200388  00000-0  27348-2 0  9998 | 2 39558 051.6447 164.0841 0007980 344.0898 015.9842 15.56243195  3848 | 2014/03/23-10:52:05  179.7186    0.0992   16.0094   92.5305     6776.6782     6771.2704     6782.0860 -49.664913  14.162325  -0.000678   0.000421
1 39558U 98067EB  14083.60854136  .00202828  00000-0  27245-2 0  9993 | 2 39558 051.6447 158.3038 0008150 349.8553 010.2273 15.56660846  4026 | 2014/03/24-14:36:17  242.6800    0.0992   10.2439   92.5057     6775.4660     6769.9440     6780.9881 -47.986039  19.092278  -0.000692   0.000430
1 39558U 98067EB  14084.63556010  .00209294  00000-0  27685-2 0  9999 | 2 39558 051.6448 153.1633 0008180 354.6053 005.4850 15.57049793  4180 | 2014/03/25-15:15:12  258.5518    0.0993    5.4940   92.4826     6774.3377     6768.7963     6779.8791 -46.082491  23.315003  -0.000692   0.000436
1 39558U 98067EB  14085.66233603  .00206746  00000-0  26940-2 0  9995 | 2 39558 051.6447 148.0221 0008332 359.8672 000.2317 15.57460527  4349 | 2014/03/26-15:53:45  274.3358    0.0993    0.2321   92.4582     6773.1466     6767.5032     6778.7900 -43.807742  27.350626  -0.000706   0.000443
1 39558U 98067EB  14087.13786474  .00189912  00000-0  24273-2 0  9990 | 2 39558 051.6443 140.6266 0008299 006.9646 353.1460 15.58037796  4578 | 2014/03/28-03:18:31   94.3643    0.0992  353.1346   92.4239     6771.4735     6765.8538     6777.0931 -39.922499  32.761682  -0.000701   0.000445
1 39558U 98067EB  14088.42048316  .00186357  00000-0  23413-2 0  9994 | 2 39558 051.6438 134.1936 0008539 012.4957 347.6246 15.58505097  4774 | 2014/03/29-10:05:29  203.7944    0.0993  347.6036   92.3962     6770.1198     6764.3388     6775.9009 -36.000119  37.028010  -0.000714   0.000469
1 39558U 98067EB  14089.57449890  .00175279  00000-0  21690-2 0  9999 | 2 39558 051.6436 128.4006 0008479 017.8632 342.2658 15.58947841  4953 | 2014/03/30-13:47:16  266.1618    0.0994  342.2362   92.3700     6768.8380     6763.0987     6774.5773 -32.078731  40.472416  -0.000705   0.000471
1 39558U 98067EB  14091.11268214  .00206461  00000-0  24865-2 0  9996 | 2 39558 051.6437 120.6739 0008384 026.9583 333.1844 15.59550797  5196 | 2014/04/01-02:42:15  109.1369    0.0993  333.1410   92.3343     6767.0932     6761.4197     6772.7667 -26.346094  44.417959  -0.000708   0.000449
1 39558U 98067EB  14092.33006014  .00155864  00000-0  18717-2 0  9998 | 2 39558 051.6439 114.5556 0008540 031.6858 328.4648 15.59810699  5389 | 2014/04/02-07:55:17  194.7033    0.0994  328.4136   92.3189     6766.3415     6760.5630     6772.1199 -21.461969  46.973144  -0.000710   0.000475
1 39558U 98067EB  14093.61119197  .00190711  00000-0  22339-2 0  9992 | 2 39558 051.6440 108.1121 0008227 039.1662 320.9926 15.60336869  5588 | 2014/04/03-14:40:06  303.6088    0.0994  320.9332   92.2878     6764.8202     6759.2548     6770.3857 -16.054940  49.085045  -0.000692   0.000445
1 39558U 98067EB  14094.82793002  .00136400  00000-0  15903-2 0  9993 | 2 39558 051.6441 101.9892 0008157 044.2919 315.8726 15.60661900  5778 | 2014/04/04-19:52:13   28.9510    0.0994  315.8075   92.2685     6763.8810     6758.3637     6769.3983 -10.727890  50.517576  -0.000678   0.000453
1 39558U 98067EB  14096.17252176  .00110492  00000-0  12808-2 0  9999 | 2 39558 051.6440 095.2199 0008145 050.1468 310.0241 15.60918877  5984 | 2014/04/06-04:08:25  161.0922    0.0994  309.9526   92.2534     6763.1386     6757.6300     6768.6472  -4.698492  51.429825  -0.000670   0.000463
1 39558U 98067EB  14097.45286028  .00119434  00000-0  13651-2 0  9996 | 2 39558 051.6437 088.7714 0007981 056.5436 303.6320 15.61248405  6185 | 2014/04/07-10:52:07  269.7198    0.0994  303.5558   92.2339     6762.1869     6756.7900     6767.5838   1.107317  51.631827  -0.000656   0.000454
1 39558U 98067EB  14098.47682924  .00209697  00000-0  23246-2 0  9996 | 2 39558 051.6432 083.6105 0007684 065.0287 295.1504 15.61706965  6344 | 2014/04/08-11:26:38  284.5153    0.0994  295.0707   92.2068     6760.8631     6755.6681     6766.0582   5.747207  51.322409  -0.000656   0.000400
1 39558U 98067EB  14099.50059958  .00113260  00000-0  12637-2 0  9998 | 2 39558 051.6431 078.4483 0007671 067.9632 292.2176 15.61900879  6506 | 2014/04/09-12:00:51  299.2422    0.0994  292.1362   92.1954     6760.3035     6755.1177     6765.4893  10.341638  50.597038  -0.000639   0.000424
1 39558U 98067EB  14100.52424372  .00089680  00000-0  99730-3 0  9997 | 2 39558 051.6432 073.2850 0007591 072.4245 287.7578 15.62093048  6664 | 2014/04/10-12:34:54  313.9249    0.0994  287.6749   92.1840     6759.7491     6754.6177     6764.8804  14.853166  49.461132  -0.000627   0.000428
1 39558U 98067EB  14101.54776449  .00091031  00000-0  10044-2 0  9998 | 2 39558 051.6432 068.1207 0007568 076.8668 283.3170 15.62289295  6823 | 2014/04/11-13:08:46  328.5640    0.0994  283.2326   92.1724     6759.1830     6754.0676     6764.2983  19.244970  47.923389  -0.000620   0.000434
1 39558U 98067EB  14102.89671019  .00301551  00000-0  31580-2 0  9993 | 2 39558 051.6444 061.3068 0007839 081.4894 311.6369 15.62859829  7046 | 2014/04/12-21:31:15   69.3854   33.0591  311.5697   92.1388     6757.5379     6752.2406     6762.8351  24.795478  45.302630  -0.000624   0.000474
1 39558U 98067EB  14104.42507411  .00241844  00000-0  24747-2 0  9993 | 2 39558 051.6435 053.5886 0007078 097.8532 262.3266 15.63655515  7283 | 2014/04/14-10:12:06  301.7675    0.0994  262.2462   92.0919     6755.2452     6750.4639     6760.0266  30.654498  41.561434  -0.000622   0.000338
1 39558U 98067EB  14105.83091109  .00189667  00000-0  19154-2 0  9991 | 2 39558 051.6438 046.4783 0006875 105.9263 254.2490 15.64168988  7495 | 2014/04/15-19:56:30   96.3693    0.0995  254.1732   92.0617     6753.7668     6749.1236     6758.4100  35.563431  37.447622  -0.000609   0.000318
1 39558U 98067EB  14106.85304667  .00190191  00000-0  18975-2 0  9994 | 2 39558 051.6436 041.3058 0006829 110.5540 249.6188 15.64474843  7651 | 2014/04/16-20:28:23  110.5206    0.0995  249.5455   92.0437     6752.8865     6748.2750     6757.4981  38.794534  34.088789  -0.000602   0.000322
1 39558U 98067EB  14108.01912072  .00295086  00000-0  28278-2 0  9995 | 2 39558 051.6452 035.3917 0006742 109.7071 343.7260 15.65141831  7846 | 2014/04/18-00:27:32   84.1104   93.4114  343.7043   92.0044     6750.9679     6746.4164     6755.5194  42.101771  29.910993  -0.000553   0.000386
1 39558U 98067EB  14109.15172359  .00264078  00000-0  24963-2 0  9991 | 2 39558 051.6429 029.6585 0006638 129.5917 230.5666 15.65586177  8019 | 2014/04/19-03:38:28  231.9718    0.0996  230.5079   91.9783     6749.6904     6745.2100     6754.1709  44.877172  25.554424  -0.000621   0.000235
1 39558U 98067EB  14110.17288024  .00244321  00000-0  22813-2 0  9993 | 2 39558 051.6429 024.4791 0006467 135.2923 224.8595 15.65959283  8178 | 2014/04/20-04:08:56  245.7806    0.0996  224.8073   91.9564     6748.6183     6744.2540     6752.9826  47.000848  21.398818  -0.000607   0.000224
1 39558U 98067EB  14111.25754768  .00254434  00000-0  23196-2 0  9997 | 2 39558 051.6426 018.9729 0006475 143.8285 216.3150 15.66521647  8341 | 2014/04/21-06:10:52  282.8444    0.0996  216.2711   91.9234     6747.0031     6742.6344     6751.3718  48.836985  16.790089  -0.000619   0.000191
1 39558U 98067EB  14112.34180575  .00239738  00000-0  21418-2 0  9992 | 2 39558 051.6427 013.4645 0006555 152.8257 207.3084 15.67070523  8515 | 2014/04/22-08:12:12  319.7638    0.0997  207.2740   91.8912     6745.4275     6741.0059     6749.8492  50.223268  12.024633  -0.000637   0.000155
1 39558U 98067EB  14113.82891000  .00321084  00000-0  27303-2 0  9993 | 2 39558 051.6452 005.8997 0006546 157.1931 320.7178 15.68029523  8750 | 2014/04/23-19:53:37   26.3751  117.8634  320.6703   91.8350     6742.6769     6738.2632     6747.0907  51.371654   5.308472  -0.000626   0.000190
1 39558U 98067EB  14115.08234185  .00335388  00000-0  27502-2 0  9991 | 2 39558 051.6426 359.5184 0006537 179.0502 181.0508 15.68873105  8944 | 2014/04/25-01:58:34  243.0372    0.0996  181.0494   91.7856     6740.2597     6735.8536     6744.6658  51.640776  -0.434077  -0.000653   0.000016
1 39558U 98067EB  14116.10129994  .00289127  00000-0  23265-2 0  9997 | 2 39558 051.6419 354.3243 0006466 186.6889 173.4023 15.69474352  9106 | 2014/04/26-02:25:52  256.0704    0.0997  173.4108   91.7505     6738.5382     6734.1810     6742.8953  51.388731  -5.107266  -0.000646  -0.000011
1 39558U 98067EB  14117.43809445  .00265841  00000-0  20788-2 0  9994 | 2 39558 051.6416 347.5020 0006600 197.1696 162.9079 15.70235503  9315 | 2014/04/27-10:30:51   25.4700    0.0997  162.9301   91.7060     6736.3604     6731.9144     6740.8064  50.417878 -11.175528  -0.000658  -0.000054
1 39558U 98067EB  14118.45618728  .00269578  00000-0  20618-2 0  9992 | 2 39558 051.6410 342.3016 0006690 205.4588 154.6081 15.70755147  9478 | 2014/04/28-10:56:54   38.1979    0.0997  154.6409   91.6757     6734.8746     6730.3690     6739.3802  49.196830 -15.699197  -0.000663  -0.000090
1 39558U 98067EB  14119.79190793  .00278381  00000-0  20658-2 0  9993 | 2 39558 051.6406 335.4716 0006821 216.8815 143.1715 15.71447829  9684 | 2014/04/29-19:00:20  167.2178    0.0998  143.2183   91.6352     6732.8953     6728.3028     6737.4878  46.980325 -21.438297  -0.000666  -0.000146
1 39558U 98067EB  14121.14291935  .00288257  00000-0  20680-2 0  9993 | 2 39558 051.6428 328.5483 0006246 210.9057 239.1917 15.72223157  9908 | 2014/05/01-03:25:48  211.7924   90.0360  239.1303   91.5901     6730.6816     6726.4777     6734.8856  44.055457 -26.946160  -0.000625   0.000006
1 39558U 98067EB  14122.46145708  .00271293  00000-0  18883-2 0  9999 | 2 39558 051.6412 321.8007 0007383 237.1591 122.8697 15.72977283 10109 | 2014/05/02-11:04:29   64.5818    0.0998  122.9407   91.5461     6728.5302     6723.5626     6733.4979  40.582983 -31.934856  -0.000698  -0.000240
1 39558U 98067EB  14123.47778873  .00259383  00000-0  17711-2 0  9991 | 2 39558 051.6409 316.5872 0007558 245.1744 114.8469 15.73460060 10265 | 2014/05/03-11:28:00   76.6840    0.0999  114.9255   91.5181     6727.1538     6722.0695     6732.2382  37.513042 -35.490199  -0.000702  -0.000280
1 39558U 98067EB  14124.74774050  .00304722  00000-0  20030-2 0  9991 | 2 39558 051.6407 310.0686 0007846 254.9526 105.0605 15.74209795 10464 | 2014/05/04-17:56:44  181.6451    0.0999  105.1473   91.4745     6725.0177     6719.7413     6730.2942  33.241342 -39.519300  -0.000711  -0.000332
1 39558U 98067EB  14125.76323314  .00334049  00000-0  21289-2 0  9999 | 2 39558 051.6403 304.8502 0008092 262.0314 097.9767 15.74838533 10621 | 2014/05/05-18:19:03  193.4468    0.0999   98.0685   91.4379     6723.2277     6717.7873     6728.6681  29.508961 -42.378553  -0.000722  -0.000366
1 39558U 98067EB  14126.90512270  .00390420  00000-0  23875-2 0  9995 | 2 39558 051.6397 298.9753 0008724 269.4839 090.5161 15.75622687 10808 | 2014/05/06-21:43:22  251.5355    0.1000   90.6161   91.3924     6720.9968     6715.1334     6726.8602  25.015951 -45.175888  -0.000767  -0.000416
1 39558U 98067EB  14127.91966689  .00396093  00000-0  23417-2 0  9998 | 2 39558 051.6395 293.7510 0009230 278.2567 081.7386 15.76372643 10962 | 2014/05/07-22:04:19  263.0004    0.1000   81.8433   91.3490     6718.8650     6712.6635     6725.0665  20.798463 -47.265864  -0.000783  -0.000489
1 39558U 98067EB  14128.99706422  .00492601  00000-0  27590-2 0  9992 | 2 39558 051.6395 288.1967 0009692 286.4065 073.5870 15.77329150 11135 | 2014/05/08-23:55:46  297.4815    0.1001   73.6936   91.2936     6716.1485     6709.6392     6722.6578  16.125994 -49.057011  -0.000798  -0.000550
1 39558U 98067EB  14130.45361880  .00524178  00000-0  27570-2 0  9994 | 2 39558 051.6402 280.6733 0010543 296.9326 063.0598 15.78643217 11365 | 2014/05/10-10:53:12  110.8013    0.1002   63.1676   91.2176     6712.4209     6705.3440     6719.4978   9.564214 -50.746784  -0.000835  -0.000643
1 39558U 98067EB  14132.60455547  .00533616  00000-0  25520-2 0  9997 | 2 39558 051.6404 269.5357 0011790 309.5208 050.4751 15.80696889 11705 | 2014/05/12-14:30:33  178.3927    0.1002   50.5794   91.0991     6706.6057     6698.6986     6714.5128  -0.418467 -51.638704  -0.000916  -0.000743
1 39558U 98067EB  14133.74204757  .00640547  00000-0  28488-2 0  9996 | 2 39558 051.6399 263.6318 0012942 315.9575 044.0396 15.81984443 11888 | 2014/05/13-17:48:32  234.9137    0.1003   44.1428   91.0249     6702.9663     6694.2913     6711.6413  -5.727761 -51.321263  -0.000997  -0.000825
1 39558U 98067EB  14134.83961390  .00654562  00000-0  27384-2 0  9996 | 2 39558 051.6457 257.9184 0010546 314.3315 183.2790 15.83291888 12064 | 2014/05/14-20:09:02  139.2194  137.6036  183.2721   90.9497     6699.2757     6692.2106     6706.3407 -10.809680 -50.501774  -0.000892  -0.000563
1 39558U 98067EB  14136.51839887  .00850790  00000-0  31038-2 0  9990 | 2 39558 051.6386 249.1697 0014902 329.8154 030.1990 15.85634554 12323 | 2014/05/16-12:26:29  171.5815    0.1004   30.2850   90.8154     6692.6756     6682.7022     6702.6490 -18.362752 -48.263385  -0.001158  -0.000938
1 39558U 98067EB  14137.54561192  .00888110  00000-0  29938-2 0  9998 | 2 39558 051.6400 243.7930 0014118 334.4129 136.0848 15.87189048 12494 | 2014/05/17-13:05:40   77.2840  110.6098  136.1969   90.7264     6688.3050     6678.8624     6697.7475 -22.805023 -46.331636  -0.001109  -0.000873
1 39558U 98067EB  14138.72192592  .00741088  22563-3  25525-2 0  9994 | 2 39558 051.6372 237.6305 0016130 339.3930 020.6423 15.88782822 12688 | 2014/05/18-17:19:34  258.5414    0.1006   20.7076   90.6354     6683.8314     6673.0503     6694.6124 -27.645383 -43.613452  -0.001288  -0.000971
1 39558U 98067EB  14139.87230388  .00363581  60130-4  11760-2 0  9994 | 2 39558 051.6370 231.5622 0015687 343.9634 123.1678 15.90084185 12860 | 2014/05/19-20:56:07  212.7837  107.2815  123.3181   90.5612     6680.1841     6669.7049     6690.6633 -32.100899 -40.446410  -0.001277  -0.000912
1 39558U 98067EB  14141.25293587  .00650675  18056-3  19005-2 0  9991 | 2 39558 051.6366 224.3135 0015438 347.9298 112.8905 15.92014998 13088 | 2014/05/21-06:04:13    4.7317  100.9832  113.0534   90.4514     6674.7818     6664.4772     6685.0863 -36.947441 -36.072497  -0.001306  -0.000824
1 39558U 98067EB  14142.42742308  .00716116  22348-3  19295-2 0  9994 | 2 39558 051.6362 218.1149 0015734 352.8512 007.2269 15.93538971 13266 | 2014/05/22-10:15:29  175.6455    0.1008    7.2496   90.3649     6670.5255     6660.0301     6681.0209 -40.626047 -31.871954  -0.001349  -0.000810
1 39558U 98067EB  14143.49296434  .00782454  27451-3  19268-2 0  9994 | 2 39558 051.6356 212.4767 0015453 356.8878 003.2031 15.95227363 13433 | 2014/05/23-11:49:52  205.9160    0.1008    3.2130   90.2693     6665.8179     6655.5172     6676.1186 -43.560302 -27.726076  -0.001347  -0.000758
1 39558U 98067EB  14144.49469734  .00880365  36149-3  19642-2 0  9990 | 2 39558 051.6347 207.1619 0014536 359.9502 000.1503 15.97065947 13596 | 2014/05/24-11:52:21  212.8324    0.1009    0.1507   90.1653     6660.7010     6651.0191     6670.3830 -45.940432 -23.571571  -0.001294  -0.000662
1 39558U 98067EB  14146.18941961  .00983305  48285-3  18347-2 0  9998 | 2 39558 051.6382 198.1352 0013085 007.5858 032.6799 16.00290576 13877 | 2014/05/26-04:32:45   73.4643   40.3468   32.7610   89.9837     6651.7504     6643.0466     6660.4542 -49.073056 -16.072923  -0.001179  -0.000568
1 39558U 98067EB  14147.55515494  .01049225  58306-3  16791-2 0  9999 | 2 39558 051.6369 190.8274 0011842 008.3996 351.7214 16.02958709 14087 | 2014/05/27-13:19:25  253.9277    0.1014  351.7018   89.8339     6644.3671     6636.4988     6652.2353 -50.717636  -9.700046  -0.001118  -0.000390
1 39558U 98067EB  14149.17395043  .01404687  12453-2  17875-2 0  9998 | 2 39558 051.6299 182.1281 0008631 017.2021 342.9283 16.06932285 14343 | 2014/05/29-04:10:29  126.9795    0.1013  342.8992   89.6117     6633.4092     6627.6839     6639.1345 -51.594291  -1.917215  -0.000814  -0.000286
1 39558U 98067EB  14150.35438021  .01415524  13602-2  14772-2 0  9996 | 2 39558 051.6305 175.7471 0006162 026.7428 333.5082 16.10089961 14547 | 2014/05/30-08:30:18  199.3581    0.2195  333.4767   89.4360     6624.7335     6620.6514     6628.8157 -51.488332   3.828864  -0.000569  -0.000236
1 39558U 98067EB  14151.59425097  .01740438  25885-2  14386-2 0  9994 | 2 39558 051.6325 169.0132 0002915 017.5040 342.4490 16.13889863 14745 | 2014/05/31-14:15:43  293.9656  359.9429  342.4389   89.2254     6614.3308     6612.4027     6616.2589 -50.686134   9.840268  -0.000290  -0.000033
1 39558U 98067EB  14152.76943757  .01517487  19681-2  96365-3 0  9993 | 2 39558 051.6378 162.6000 0001408 325.6967 034.3643 16.17435715 14938 | 2014/06/01-18:27:59    4.4963    0.0701   34.3734   89.0298     6604.6604     6603.7304     6605.5903 -49.274871  15.441809  -0.000087   0.000111
1 39558U 98067EB  14154.06468018  .02410006  11950-4  93629-3 0  9993 | 2 39558 051.6363 155.4823 0000962 348.5410 011.4487 16.23220479 15137 | 2014/06/03-01:33:08  119.2493  359.9919   11.4509   88.7125     6588.9594     6588.3256     6589.5933 -46.980416  21.427739  -0.000078   0.000057
1 39558U 98067EB  14155.16928620  .06471077  12248-4  88041-3 0  9997 | 2 39558 051.6358 149.3524 0008930 273.3699 086.7344 16.34338512 15315 | 2014/06/04-04:03:46  164.0115    0.2065   86.8366   88.1090     6559.0433     6553.1861     6564.9005 -44.423251  26.321676   0.000409   0.000794
