# SPACE DATA - HISTORICAL TLEs
# ----------------------------
# NORAD_ID    : 39132
# OBJECT_NAME : DOVE 2
# --------------------------------------------------------------------+-----------------------------------------------------------------------+----------------------------------------------------------------------------------------------------------------------------------------
#                  LINE 1                                             |                 LINE 2                                                |      DERIVED PARAMETERS
# --------------------------------------------------------------------+-----------------------------------------------------------------------+----------------------------------------------------------------------------------------------------------------------------------------
# NORAD  COSPAR     TLE_EPOCH      MEANMOT1 MEANMOT2   BSTAR  #  REV  |   NORAD    INC     RAAN     ECC    ARGPER  MEANANOM   MEANMOT     REV |  CAL_DATE              LONG     ARGLAT     PERIOD        SMA         PERIGEE        APOGEE      INC_X      INC_Y      ECC_X      ECC_Y
# ------ ------   -------------- ----------  -------  ------- -- ----     -----  ------- -------- ------- -------- -------- -----------  ----   ------------------- ---------  --------  --------  ------------  ------------   ----------- ---------- ----------  ---------  ---------   
1 39561U 98067EE  14058.98632135 -.00000467  00000-0  00000+0 0  9996 | 2 39561 051.6571 280.9172 0007330 166.5815 275.3946 15.51265901    84 | 2014/02/27-23:40:18  149.9051   81.8925  275.3110   92.8274     6791.1660     6786.1880     6796.1439   9.783349 -50.722205   0.000032   0.000732
1 39561U 98067EE  14060.09132455  .00101756  00000-0  16662-2 0  9997 | 2 39561 051.6554 275.4182 0005009 163.8037 334.5156 15.51660209   252 | 2014/03/01-02:11:30  137.9512  138.2946  334.4909   92.8038     6790.0154     6786.6143     6793.4165   4.877538 -51.424605   0.000094   0.000492
1 39561U 98067EE  14061.49758950  .00102768  00000-0  16662-2 0  9990 | 2 39561 051.6479 268.4462 0005936 162.9788 276.6413 15.51926598   475 | 2014/03/02-11:56:31  351.2638   79.5525  276.5737   92.7879     6789.2384     6785.2083     6793.2685  -1.400464 -51.628909   0.000189   0.000563
1 39561U 98067EE  14062.53041626  .00103305  00000-0  16662-2 0  9999 | 2 39561 051.6460 263.3145 0005232 166.8612 287.0592 15.52073588   630 | 2014/03/03-12:43:47  354.9309   93.8631  287.0019   92.7791     6788.8097     6785.2578     6792.3616  -6.012596 -51.294815   0.000177   0.000492
1 39561U 98067EE  14063.93010779  .00066976  00000-0  10815-2 0  9995 | 2 39561 051.6469 256.3641 0004310 181.2052 178.8928 15.52241751   850 | 2014/03/04-22:19:21  240.9722    0.0990  178.8938   92.7691     6788.3194     6785.3936     6791.2452 -12.175812 -50.191153   0.000093   0.000421
1 39561U 98067EE  14065.73261530  .00064352  00000-0  10285-2 0  9995 | 2 39561 051.6452 247.4021 0004857 185.3608 174.7845 15.52508526  1123 | 2014/03/06-17:34:57  180.5663    0.1504  174.7896   92.7531     6787.5417     6784.2450     6790.8384 -19.845261 -47.680104   0.000144   0.000464
1 39561U 98067EE  14066.91847381  .00067865  00000-0  10799-2 0  9992 | 2 39561 051.6508 241.5027 0003418 214.4127 298.1486 15.52647594  1310 | 2014/03/07-22:02:36  102.1276  152.5268  298.1141   92.7448     6787.1364     6784.8166     6789.4563 -24.643493 -45.392768  -0.000035   0.000340
1 39561U 98067EE  14068.51900742  .00068469  00000-0  10799-2 0  9992 | 2 39561 051.6478 233.5363 0005879 186.6877 278.8254 15.52878080  1566 | 2014/03/09-12:27:22   14.9118  105.4465  278.7588   92.7310     6786.4648     6782.4750     6790.4546 -30.694979 -41.536894   0.000292   0.000510
1 39561U 98067EE  14069.65847222  .00072517  00000-0  11372-2 0  9998 | 2 39561 051.6463 227.8762 0003580 216.2309 143.8439 15.53023263  1737 | 2014/03/10-15:48:11  177.3407    0.0990  143.8681   92.7224     6786.0419     6783.6125     6788.4713 -34.640969 -38.305921   0.000037   0.000356
1 39561U 98067EE  14071.46005452  .00067647  00000-0  10519-2 0  9991 | 2 39561 051.6466 218.9093 0003386 228.3161 131.7540 15.53287961  2010 | 2014/03/12-11:02:28  116.6576    0.0990  131.7829   92.7066     6785.2709     6782.9734     6787.5684 -40.188348 -32.438680   0.000016   0.000338
1 39561U 98067EE  14072.51005535  .00067997  00000-0  10519-2 0  9998 | 2 39561 051.6473 213.6744 0003510 227.9622 247.6962 15.53427713  2183 | 2014/03/13-12:14:28   25.3394  115.6212  247.6590   92.6982     6784.8639     6782.4824     6787.2454 -42.980984 -28.637015   0.000051   0.000347
1 39561U 98067EE  14073.77593639  .00072489  00000-0  11125-2 0  9990 | 2 39561 051.6470 207.3777 0003166 244.7589 115.3074 15.53621080  2382 | 2014/03/14-18:37:20  244.1931    0.0991  115.3402   92.6867     6784.3009     6782.1530     6786.4489 -45.862248 -23.750090  -0.000012   0.000316
1 39561U 98067EE  14075.38390580  .00066754  00000-0  10184-2 0  9991 | 2 39561 051.6471 199.3682 0003118 255.3432 104.7213 15.53820834  2633 | 2014/03/16-09:12:49  112.6583    0.0991  104.7559   92.6748     6783.7195     6781.6043     6785.8347 -48.724229 -17.128119  -0.000026   0.000311
1 39561U 98067EE  14077.33168824  .00067425  00000-0  10184-2 0  9998 | 2 39561 051.6473 189.6482 0003680 243.7043 219.9642 15.54089938  2939 | 2014/03/18-07:57:37    1.8958  103.6414  219.9371   92.6587     6782.9364     6780.4402     6785.4325 -50.916769  -8.655992   0.000105   0.000353
1 39561U 98067EE  14078.72778816  .00091305  00000-0  13594-2 0  9992 | 2 39561 051.6466 182.7045 0002979 281.1668 078.8988 15.54353125  3140 | 2014/03/19-17:28:00  256.4144    0.0991   78.9323   92.6430     6782.1707     6780.1503     6784.1911 -51.589075  -2.436940  -0.000071   0.000289
1 39561U 98067EE  14079.82060760  .00156262  00000-0  23020-2 0  9995 | 2 39561 051.6455 177.2446 0003628 306.7940 053.3227 15.54754714  3324 | 2014/03/20-19:41:40  296.3154    0.1501   53.3561   92.6191     6781.0027     6778.5426     6783.4629 -51.585791   2.482716  -0.000203   0.000301
1 39561U 98067EE  14081.17010037  .00181115  00000-0  25654-2 0  9998 | 2 39561 051.6459 170.5183 0003120 311.2963 048.7759 15.55333333  3526 | 2014/03/22-04:04:56   70.2337    0.0991   48.8028   92.5847     6779.3208     6777.2057     6781.4360 -50.940327   8.507762  -0.000164   0.000265
1 39561U 98067EE  14082.51907608  .00261738  00000-0  35773-2 0  9999 | 2 39561 051.6460 163.7779 0003226 323.9560 036.1214 15.56003548  3736 | 2014/03/23-12:27:28  203.9298    0.0992   36.1432   92.5448     6777.3740     6775.1876     6779.5604 -49.589766  14.427903  -0.000197   0.000255
1 39561U 98067EE  14084.19581509  .00236097  00000-0  31353-2 0  9993 | 2 39561 051.6523 155.4105 0004927 337.3809 063.8623 15.56868120  4008 | 2014/03/25-04:41:58   56.4101   41.2939   63.9130   92.4934     6774.8647     6771.5267     6778.2026 -46.968076  21.493253  -0.000335   0.000362
1 39561U 98067EE  14085.35726044  .00242355  00000-0  31353-2 0  9991 | 2 39561 051.6463 149.5494 0007996 345.1131 091.6226 15.57528393  4183 | 2014/03/26-08:34:27   86.0438   76.8273   91.7142   92.4542     6772.9498     6767.5342     6778.3655 -44.522542  26.174101  -0.000562   0.000569
1 39561U 98067EE  14086.49818606  .00344617  00000-0  44491-2 0  9994 | 2 39561 051.6454 143.8541 0003729 338.5924 021.5412 15.58302057  4366 | 2014/03/27-11:57:23  220.1990    0.1493   21.5569   92.4083     6770.7079     6768.1831     6773.2327 -41.704570  30.462701  -0.000200   0.000315
1 39561U 98067EE  14087.78034291  .00234297  00000-0  28763-2 0  9993 | 2 39561 051.6450 137.4207 0003570 009.6520 350.4541 15.58974370  4553 | 2014/03/28-18:43:41  329.5001    0.0993  350.4473   92.3684     6768.7612     6766.3447     6771.1776 -38.028361  34.943523  -0.000300   0.000194
1 39561U 98067EE  14089.39658684  .00178368  00000-0  21602-2 0  9991 | 2 39561 051.6473 129.2964 0003961 012.1531 066.4694 15.59533359  4813 | 2014/03/30-09:31:05  122.5488   78.6641   66.5110   92.3353     6767.1436     6764.4632     6769.8241 -32.709901  39.968813  -0.000310   0.000247
1 39561U 98067EE  14090.47184134  .00166010  00000-0  19895-2 0  9998 | 2 39561 051.6450 123.8969 0003777 027.4360 332.6832 15.59856427  4981 | 2014/03/31-11:19:27  234.6031    0.0993  332.6633   92.3162     6766.2092     6763.6536     6768.7648 -28.802427  42.867543  -0.000331   0.000181
1 39561U 98067EE  14091.49677947  .00170886  00000-0  20219-2 0  9998 | 2 39561 051.6453 118.7420 0003775 034.2156 325.9080 15.60173692  5132 | 2014/04/01-11:55:21  249.7415    0.0993  325.8837   92.2974     6765.2919     6762.7380     6767.8458 -24.834487  45.282284  -0.000336   0.000172
1 39561U 98067EE  14092.52155233  .00123843  00000-0  14647-2 0  9991 | 2 39561 051.6458 113.5868 0003789 039.5378 320.5892 15.60367187  5298 | 2014/04/02-12:31:02  264.8216    0.0994  320.5616   92.2860     6764.7326     6762.1695     6767.2958 -20.665442  47.331048  -0.000338   0.000171
1 39561U 98067EE  14093.61020542  .00116299  00000-0  13628-2 0  9991 | 2 39561 051.6461 108.1082 0003801 045.8079 314.3227 15.60640543  5465 | 2014/04/03-14:38:41  303.2848    0.0994  314.2915   92.2698     6763.9427     6761.3717     6766.5136 -16.052251  49.088134  -0.000341   0.000167
1 39561U 98067EE  14094.82675504  .00088872  00000-0  10366-2 0  9990 | 2 39561 051.6462 101.9844 0003821 052.0947 308.0391 15.60885479  5651 | 2014/04/04-19:50:31   28.5623    0.0993  308.0046   92.2553     6763.2350     6760.6508     6765.8193 -10.724094  50.520528  -0.000344   0.000167
1 39561U 98067EE  14096.17114647  .00106334  00000-0  12243-2 0  9996 | 2 39561 051.6459 095.2144 0003865 060.9411 299.1970 15.61141411  5876 | 2014/04/06-04:06:27  160.6340    0.0994  299.1583   92.2402     6762.4959     6759.8822     6765.1096  -4.693728  51.432168  -0.000354   0.000156
1 39561U 98067EE  14097.21496632  .00107349  00000-0  12243-2 0  9996 | 2 39561 051.6488 089.9425 0004835 059.0130 051.9049 15.61379218  6033 | 2014/04/07-05:09:33   71.9301  110.9615   51.9485   92.2262     6761.8092     6758.5399     6765.0785   0.051833  51.648774  -0.000414   0.000249
1 39561U 98067EE  14098.47528304  .00086861  00000-0  98652-3 0  9991 | 2 39561 051.6452 083.6042 0003884 074.1138 286.0283 15.61586732  6233 | 2014/04/08-11:24:24  284.0005    0.0993  285.9855   92.2139     6761.2101     6758.5841     6763.8362   5.753073  51.323765  -0.000359   0.000147
1 39561U 98067EE  14099.49913512  .00093510  00000-0  10530-2 0  9990 | 2 39561 051.6451 078.4426 0003854 080.6023 279.5407 15.61775466  6387 | 2014/04/09-11:58:45  298.7571    0.0994  279.4971   92.2028     6760.6654     6758.0599     6763.2710  10.347072  50.597969  -0.000360   0.000138
1 39561U 98067EE  14100.77878318  .00085595  00000-0  95742-3 0  9991 | 2 39561 051.6454 071.9891 0003822 087.7625 272.3807 15.61987854  6588 | 2014/04/10-18:41:26   47.1450    0.0994  272.3369   92.1902     6760.0526     6757.4689     6762.6363  15.968650  49.114657  -0.000359   0.000132
1 39561U 98067EE  14101.80237908  .00081638  00000-0  90768-3 0  9997 | 2 39561 051.6454 066.8260 0003829 094.4307 265.7125 15.62163331  6744 | 2014/04/11-19:15:25   61.8115    0.0994  265.6687   92.1799     6759.5463     6756.9581     6762.1346  20.323745  47.478340  -0.000363   0.000123
1 39561U 98067EE  14103.41854458  .00073453  00000-0  80754-3 0  9991 | 2 39561 051.6490 058.6643 0003812 102.8762 353.3429 15.62497520  7000 | 2014/04/13-10:02:42  197.3098   96.2140  353.3378   92.1601     6758.5825     6756.0061     6761.1588  26.860135  44.115217  -0.000362   0.000121
1 39561U 98067EE  14104.42471809  .00087730  00000-0  95385-3 0  9997 | 2 39561 051.6462 053.5916 0003871 110.0286 250.1126 15.62707078  7160 | 2014/04/14-10:11:35  301.6746    0.0995  250.0709   92.1478     6757.9782     6755.3622     6760.5942  30.653925  41.565212  -0.000371   0.000109
1 39561U 98067EE  14106.42566208  .00082749  00000-0  88811-3 0  9998 | 2 39561 051.6487 043.4819 0004250 119.2236 346.5320 15.63062548  7472 | 2014/04/16-10:12:57  208.4820  105.7443  346.5207   92.1268     6756.9536     6754.0819     6759.8253  37.475873  35.540782  -0.000406   0.000126
1 39561U 98067EE  14107.81332925  .00106943  00000-0  11295-2 0  9993 | 2 39561 051.6461 036.4759 0003881 132.5645 227.5678 15.63360459  7689 | 2014/04/17-19:31:11  102.0392    0.0995  227.5350   92.1093     6756.0952     6753.4731     6758.7172  41.528990  30.702812  -0.000381   0.000074
1 39561U 98067EE  14108.83601071  .00114498  00000-0  11977-2 0  9998 | 2 39561 051.6460 031.3068 0003903 138.6638 221.4652 15.63573935  7847 | 2014/04/18-20:03:51  116.3849    0.0994  221.4356   92.0967     6755.4802     6752.8436     6758.1169  44.126196  26.836321  -0.000384   0.000068
1 39561U 98067EE  14110.17803894  .00161435  00000-0  16511-2 0  9997 | 2 39561 051.6457 024.5210 0003985 149.7936 210.3290 15.63964185  8050 | 2014/04/20-04:16:22  247.6301    0.0996  210.3060   92.0737     6754.3564     6751.6648     6757.0480  46.987734  21.434346  -0.000397   0.000039
1 39561U 98067EE  14111.83911508  .00139340  00000-0  14035-2 0  9992 | 2 39561 051.6458 016.1157 0004106 159.5383 200.5778 15.64433248  8312 | 2014/04/21-20:08:19  135.6665    0.0996  200.5613   92.0461     6753.0062     6750.2334     6755.7790  49.616282  14.335733  -0.000409   0.000031
1 39561U 98067EE  14112.94147711  .00163657  00000-0  16174-2 0  9996 | 2 39561 051.6468 010.5255 0004157 154.0147 299.5739 15.64822728  8493 | 2014/04/22-22:35:43   85.7211   93.5472  299.5325   92.0232     6751.8856     6749.0789     6754.6924  50.777776   9.434482  -0.000401   0.000111
1 39561U 98067EE  14114.13807739  .00203106  00000-0  19593-2 0  9994 | 2 39561 051.6456 004.4713 0004310 181.1753 178.9233 15.65292535  8673 | 2014/04/24-03:18:49  257.2208    0.0995  178.9242   91.9956     6750.5346     6747.6251     6753.4440  51.488417   4.026277  -0.000429  -0.000042
1 39561U 98067EE  14115.15939870  .00209935  00000-0  19850-2 0  9991 | 2 39561 051.6457 359.2925 0004466 190.2932 169.7973 15.65770672  8832 | 2014/04/25-03:49:32  271.0901    0.0996  169.8064   91.9675     6749.1602     6746.1461     6752.1744  51.641763  -0.637715  -0.000440  -0.000074
1 39561U 98067EE  14116.24422938  .00176581  00000-0  16478-2 0  9997 | 2 39561 051.6452 353.7891 0004589 197.9679 162.1155 15.66212588  9003 | 2014/04/26-05:51:41  308.2089    0.0995  162.1316   91.9415     6747.8906     6744.7940     6750.9872  51.342063  -5.587416  -0.000449  -0.000094
1 39561U 98067EE  14117.26505579  .00098591  00000-0  92409-3 0  9996 | 2 39561 051.6449 348.6074 0004544 201.7023 158.3781 15.66401494  9168 | 2014/04/27-06:21:40  321.8972    0.0996  158.3973   91.9305     6747.3481     6744.2821     6750.4141  50.627325 -10.201455  -0.000447  -0.000081
1 39561U 98067EE  14118.60472009  .00078115  00000-0  72879-3 0  9995 | 2 39561 051.6446 341.8051 0004636 208.5777 151.4965 15.66615025  9376 | 2014/04/28-14:30:47   92.3053    0.0995  151.5218   91.9179     6746.7350     6743.6072     6749.8627  49.062362 -16.126045  -0.000456  -0.000084
1 39561U 98067EE  14119.81663177  .00101016  00000-0  92947-3 0  9992 | 2 39561 051.6443 335.6494 0004675 217.2608 142.8064 15.66849128  9566 | 2014/04/29-19:35:56  175.9508    0.0996  142.8388   91.9042     6746.0629     6742.9091     6749.2167  47.049997 -21.293931  -0.000456  -0.000104
1 39561U 98067EE  14120.85466980  .00128977  00000-0  11606-2 0  9998 | 2 39561 051.6473 330.3701 0005187 215.1796 244.7572 15.67283165  9735 | 2014/04/30-20:30:43   96.0773   99.8831  244.7035   91.8787     6744.8174     6741.3188     6748.3159  44.893746 -25.534195  -0.000516  -0.000050
1 39561U 98067EE  14122.17579740  .00144486  00000-0  12766-2 0  9995 | 2 39561 051.6442 323.6561 0005067 236.6675 123.3836 15.67676082  9932 | 2014/05/02-04:13:08  319.5851    0.0996  123.4321   91.8557     6743.6903     6740.2733     6747.1074  41.598083 -30.605928  -0.000475  -0.000176
1 39561U 98067EE  14123.76924898  .00140156  00000-0  12169-2 0  9996 | 2 39561 051.6442 315.5487 0005380 246.9618 113.0811 15.68118687 10189 | 2014/05/03-18:27:43  182.9138    0.0996  113.1378   91.8298     6742.4213     6738.7939     6746.0488  36.866003 -36.166576  -0.000497  -0.000206
1 39561U 98067EE  14125.10739629  .00141059  00000-0  12080-2 0  9997 | 2 39561 051.6440 308.7364 0005583 255.2974 104.7405 15.68450754 10391 | 2014/05/05-02:34:39  312.7831    0.0998  104.8024   91.8103     6741.4696     6737.7059     6745.2334  32.315631 -40.284026  -0.000510  -0.000227
1 39561U 98067EE  14126.12666664  .00200819  00000-0  16718-2 0  9990 | 2 39561 051.6435 303.5443 0006077 264.3713 095.6591 15.68931580 10550 | 2014/05/06-03:02:23  325.9247    0.0997   95.7284   91.7822     6740.0922     6735.9963     6744.1882  28.537246 -43.042731  -0.000537  -0.000285
1 39561U 98067EE  14127.71881806  .00131259  00000-0  10872-2 0  9999 | 2 39561 051.6429 295.4274 0006358 270.9789 089.0480 15.69292807 10807 | 2014/05/07-17:15:05  188.7889    0.0997   89.1208   91.7611     6739.0579     6734.7732     6743.3426  22.173761 -46.640256  -0.000569  -0.000283
1 39561U 98067EE  14128.99229687  .00131459  00000-0  10737-2 0  9995 | 2 39561 051.6427 288.9325 0006523 278.2871 081.7386 15.69629879 11006 | 2014/05/08-23:48:54  294.9926    0.0997   81.8126   91.7414     6738.0930     6733.6978     6742.4883  16.755681 -48.848906  -0.000580  -0.000298
1 39561U 98067EE  14130.01085877  .00148651  00000-0  11957-2 0  9999 | 2 39561 051.6426 283.7357 0006751 283.8669 076.1577 15.69934767 11165 | 2014/05/10-00:15:38  307.8767    0.0997   76.2328   91.7236     6737.2206     6732.6723     6741.7689  12.262197 -50.165692  -0.000598  -0.000313
1 39561U 98067EE  14131.41099927  .00186829  00000-0  14626-2 0  9990 | 2 39561 051.6426 276.5865 0007190 292.4029 067.6206 15.70453424 11389 | 2014/05/11-09:51:50  100.4576    0.0997   67.6968   91.6933     6735.7372     6730.8942     6740.5802   5.923566 -51.301750  -0.000629  -0.000348
1 39561U 98067EE  14132.43608168  .00231733  00000-0  17640-2 0  9990 | 2 39561 051.6400 271.3294 0008438 293.7936 106.6161 15.70969439 11558 | 2014/05/12-10:27:57   75.3685   40.5023  106.7087   91.6631     6734.2621     6728.5798     6739.9445   1.198065 -51.626100  -0.000764  -0.000358
1 39561U 98067EE  14133.76451955  .00208591  00000-0  15607-2 0  9994 | 2 39561 051.6428 264.5549 0008059 306.1466 053.8786 15.71456308 11756 | 2014/05/13-18:20:54  242.0746    0.0998   53.9532   91.6347     6732.8711     6727.4451     6738.2971  -4.900485 -51.409766  -0.000693  -0.000411
1 39561U 98067EE  14134.78191508  .00138128  00000-0  10332-2 0  9990 | 2 39561 051.6425 259.3502 0008061 310.0892 049.9399 15.71696494 11910 | 2014/05/14-18:45:57  254.5405    0.0998   50.0106   91.6207     6732.1852     6726.7583     6737.6120  -9.543824 -50.752963  -0.000702  -0.000396
1 39561U 98067EE  14135.79913394  .00134071  00000-0  99932-3 0  9994 | 2 39561 051.6425 254.1407 0007664 311.8487 048.2459 15.72014108 12078 | 2014/05/15-19:10:45  266.8859    0.1602   48.3115   91.6022     6731.2783     6726.1195     6736.4372 -14.112655 -49.676763  -0.000689  -0.000336
1 39561U 98067EE  14137.53000190  .00216162  00000-0  15232-2 0  9991 | 2 39561 051.6432 245.2648 0009130 324.6481 120.0495 15.72837608 12358 | 2014/05/17-12:43:12   95.9773   84.7881  120.1400   91.5543     6728.9286     6722.7851     6735.0721 -21.608813 -46.905003  -0.000791  -0.000455
1 39561U 98067EE  14138.72200454  .00239082  00000-0  16397-2 0  9997 | 2 39561 051.6403 239.1643 0009565 329.6296 030.4148 15.73396575 12537 | 2014/05/18-17:19:41  257.0269    0.0999   30.4703   91.5217     6727.3348     6720.9001     6733.7695 -26.469680 -44.340463  -0.000838  -0.000461
1 39561U 98067EE  14140.11904742  .00208372  00000-0  13964-2 0  9999 | 2 39561 051.6402 231.9945 0009840 335.1201 024.9323 15.74024371 12755 | 2014/05/20-02:51:25   48.5011    0.1000   24.9799   91.4852     6725.5459     6718.9279     6732.1638 -31.796788 -40.689981  -0.000876  -0.000448
1 39561U 98067EE  14141.13479088  .00154747  00000-0  10345-2 0  9998 | 2 39561 051.6402 226.7774 0009858 338.2765 021.7814 15.74250392 12917 | 2014/05/21-03:14:05   60.3815    0.0999   21.8234   91.4721     6724.9021     6718.2727     6731.5315 -35.364995 -37.630139  -0.000893  -0.000417
1 39561U 98067EE  14142.40427973  .00106654  00000-0  71078-3 0  9990 | 2 39561 051.6402 220.2547 0009785 343.0352 017.0319 15.74496048 13121 | 2014/05/22-09:42:09  165.1623    0.1000   17.0648   91.4578     6724.2026     6717.6230     6730.7823 -39.410740 -33.369205  -0.000899  -0.000387
1 39561U 98067EE  14143.48318327  .00105161  00000-0  69384-3 0  9990 | 2 39561 051.6402 214.7101 0009949 347.6195 012.4559 15.74731076 13298 | 2014/05/23-11:35:47  200.1673    0.1000   12.4805   91.4442     6723.5335     6716.8443     6730.2228 -42.450500 -29.405192  -0.000920  -0.000378
1 39561U 98067EE  14144.49846807  .00101071  00000-0  66050-3 0  9994 | 2 39561 051.6399 209.4906 0009916 351.6232 008.4601 15.74968599 13440 | 2014/05/24-11:57:47  211.8821    0.1000    8.4768   91.4304     6722.8575     6716.1912     6729.5239 -44.949252 -25.421329  -0.000925  -0.000357
1 39561U 98067EE  14145.57705245  .00095970  00000-0  62190-3 0  9995 | 2 39561 051.6395 203.9436 0009857 355.3971 004.6936 15.75184524 13615 | 2014/05/25-13:50:57  246.7752    0.1000    4.7029   91.4179     6722.2431     6715.6170     6728.8693 -47.195683 -20.957229  -0.000930  -0.000326
1 39561U 98067EE  14147.16295556  .00086203  00000-0  55303-3 0  9998 | 2 39561 051.6386 195.7844 0009809 001.7893 358.3140 15.75458878 13867 | 2014/05/27-03:54:39  107.4100    0.1000  358.3107   91.4019     6721.4627     6714.8696     6728.0558 -49.691416 -14.046642  -0.000935  -0.000296
1 39561U 98067EE  14148.17779561  .00084135  00000-0  53606-3 0  9999 | 2 39561 051.6383 190.5613 0009762 005.8093 354.3018 15.75626694 14028 | 2014/05/28-04:16:01  118.9680    0.1000  354.2907   91.3922     6720.9854     6714.4244     6727.5465 -50.763515  -9.464649  -0.000937  -0.000275
1 39561U 98067EE  14149.57298019  .00113495  00000-0  70880-3 0  9993 | 2 39561 051.6379 183.3779 0009675 011.2801 348.8414 15.75961120 14245 | 2014/05/29-13:45:05  269.7827    0.1000  348.8199   91.3728     6720.0346     6713.5330     6726.5362 -51.548186  -3.042574  -0.000936  -0.000245
1 39561U 98067EE  14151.09471434  .00111655  00000-0  68916-3 0  9990 | 2 39561 051.6379 175.5396 0009486 017.6125 342.5202 15.76238018 14488 | 2014/05/31-02:16:23  106.9339    0.1000  342.4875   91.3568     6719.2476     6712.8737     6725.6214 -51.481505   4.015882  -0.000924  -0.000216
1 39561U 98067EE  14152.23583815  .00150761  00000-0  91858-3 0  9996 | 2 39561 051.6380 169.6604 0009508 021.3718 338.7677 15.76393680 14661 | 2014/06/01-05:39:36  164.7357    0.1000  338.7282   91.3477     6718.8052     6712.4170     6725.1935 -50.799462   9.268101  -0.000933  -0.000182
1 39561U 98067EE  14153.64861263  .00083672  00000-0  50978-3 0  9992 | 2 39561 051.6392 162.3673 0009664 031.9372 071.8255 15.76648511 14894 | 2014/06/02-15:34:00  218.3969  103.8680   71.9308   91.3330     6718.0812     6711.5889     6724.5736 -49.213084  15.642229  -0.000936  -0.000239
1 39561U 98067EE  14155.08808097  .00090898  00000-0  54765-3 0  9994 | 2 39561 051.6378 154.9566 0009045 033.1659 326.9907 15.76876322 15129 | 2014/06/04-02:06:50  129.0411    0.1001  326.9342   91.3198     6717.4342     6711.3583     6723.5101 -46.783196  21.858521  -0.000895  -0.000128
1 39561U 98067EE  14156.16536608  .00090496  00000-0  54065-3 0  9997 | 2 39561 051.6372 149.4003 0009052 037.9658 322.1979 15.77068241 15296 | 2014/06/05-03:58:07  163.4747    0.1001  322.1343   91.3087     6716.8892     6710.8091     6722.9693 -44.446446  26.285241  -0.000898  -0.000116
1 39561U 98067EE  14157.49594361  .00095030  00000-0  56110-3 0  9996 | 2 39561 051.6366 142.5349 0008719 044.0879 316.0815 15.77317634 15507 | 2014/06/06-11:54:09  290.6538    0.1000  316.0121   91.2942     6716.1812     6710.3253     6722.0370 -40.985209  31.409411  -0.000866  -0.000101
1 39561U 98067EE  14158.76295438  .00112283  00000-0  65318-3 0  9990 | 2 39561 051.6363 135.9954 0008515 049.8867 310.2878 15.77585285 15702 | 2014/06/07-18:18:39   34.5609    0.1000  310.2133   91.2787     6715.4215     6709.7033     6721.1397 -37.141166  35.872570  -0.000847  -0.000087
1 39561U 98067EE  14159.77639459  .00116760  00000-0  66968-3 0  9993 | 2 39561 051.6362 130.7619 0008340 054.5652 305.6126 15.77887646 15860 | 2014/06/08-18:38:00   45.6285    0.1001  305.5349   91.2613     6714.5636     6708.9636     6720.1635 -33.714157  39.110776  -0.000830  -0.000077
1 39561U 98067EE  14160.78964621  .00133401  00000-0  75523-3 0  9996 | 2 39561 051.6363 125.5274 0008023 060.0648 300.1149 15.78123005 16011 | 2014/06/09-18:57:05   56.6304    0.1001  300.0353   91.2476     6713.8960     6708.5094     6719.2825 -30.005452  42.023569  -0.000798  -0.000078
1 39561U 98067EE  14161.80273572  .00126052  00000-0  70561-3 0  9999 | 2 39561 051.6367 120.2925 0007794 064.3293 295.8512 15.78402898 16178 | 2014/06/10-19:15:56   67.5753    0.1001  295.7708   91.2315     6713.1022     6707.8700     6718.3344 -26.046305  44.586307  -0.000777  -0.000063
1 39561U 98067EE  14162.94225719  .00127649  00000-0  70509-3 0  9990 | 2 39561 051.6366 114.4008 0007551 071.7428 288.4394 15.78696030 16356 | 2014/06/11-22:36:51  124.8162    0.1001  288.3573   91.2145     6712.2712     6707.2028     6717.3397 -21.331965  47.024310  -0.000751  -0.000081
1 39561U 98067EE  14164.08155439  .00151091  00000-0  82060-3 0  9991 | 2 39561 051.6370 108.5084 0007283 077.2296 282.9519 15.78994837 16539 | 2014/06/13-01:57:26  181.9792    0.1001  282.8705   91.1973     6711.4244     6706.5365     6716.3123 -16.391840  48.966186  -0.000725  -0.000073
1 39561U 98067EE  14165.09405375  .00222586  00000-0  11739-2 0  9992 | 2 39561 051.6366 103.2695 0006826 085.6884 274.4897 15.79433566 16692 | 2014/06/14-02:15:26  192.7192    0.1001  274.4117   91.1719     6710.1815     6705.6011     6714.7618 -11.852234  50.257965  -0.000674  -0.000106
1 39561U 98067EE  14166.29585061  .00395135  00000-0  19619-2 0  9992 | 2 39561 051.6361 097.0434 0005971 101.1785 258.9888 15.80296466 16888 | 2014/06/15-07:06:01  272.7876    0.1001  258.9216   91.1221     6707.7386     6703.7334     6711.7438  -6.331677  51.246431  -0.000567  -0.000187
1 39561U 98067EE  14167.81979220  .00387463  00000-0  18327-2 0  9995 | 2 39561 051.6408 089.1267 0007085 091.8750 306.9167 15.81364738 17133 | 2014/06/16-19:40:30   72.2009   38.7268  306.8518   91.0606     6704.7174     6699.9671     6709.4676   0.787077  51.634802  -0.000708  -0.000012
1 39561U 98067EE  14169.02961314  .00375401  00000-0  17146-2 0  9992 | 2 39561 051.6388 082.8425 0005402 112.3983 340.1554 15.82161959 17326 | 2014/06/18-00:42:38  101.4511   92.5327  340.1344   91.0147     6702.4649     6698.8442     6706.0856   6.434054  51.236399  -0.000521  -0.000142
1 39561U 98067EE  14170.17017772  .00399425  00000-0  17455-2 0  9995 | 2 39561 051.6363 076.9106 0006615 122.4555 352.7436 15.83036803 17501 | 2014/06/19-04:05:03  136.4650  115.1895  352.7340   90.9644     6699.9953     6695.5633     6704.4274  11.694130  50.294680  -0.000624  -0.000219
1 39561U 98067EE  14171.18179080  .00415156  00000-0  17455-2 0  9998 | 2 39561 051.6426 071.6585 0006441 138.6416 346.9448 15.83817608 17661 | 2014/06/20-04:21:46  136.5076  125.5697  346.9281   90.9196     6697.7931     6693.4791     6702.1072  16.250896  49.019042  -0.000556  -0.000325
1 39561U 98067EE  14173.07654156  .00443359  00000-0  17455-2 0  9996 | 2 39561 051.6438 061.7750 0001822 253.0260 247.2619 15.85141493 17965 | 2014/06/22-01:50:13   95.6675  140.2686  247.2426   90.8436     6694.0634     6692.8437     6695.2830  24.424174  45.503206   0.000128  -0.000129
1 39561U 98067EE  14174.08627782  .00455792  00000-0  17455-2 0  9997 | 2 39561 051.6355 056.4836 0003619 175.3529 331.5214 15.85683876 18122 | 2014/06/23-02:04:14   98.8728  146.8545  331.5016   90.8126     6692.5368     6690.1148     6694.9588  28.511866  43.049952  -0.000224  -0.000285
1 39561U 98067EE  14175.14666785  .00471069  00000-0  17455-2 0  9996 | 2 39561 051.6324 050.9348 0004284 174.4299 270.7526 15.86325602 18297 | 2014/06/24-03:31:12  188.8989   85.1334  270.7035   90.7758     6690.7318     6687.8655     6693.5981  32.538963  40.088909  -0.000301  -0.000305
1 39561U 98067EE  14177.04767978  .00501082  00000-0  17455-2 0  9992 | 2 39561 051.6397 041.0049 0005523 214.6329 297.7735 15.87511914 18592 | 2014/06/26-01:08:39   97.8430  152.3504  297.7175   90.7080     6687.3981     6683.7047     6691.0916  38.970079  33.882024  -0.000137  -0.000535
1 39561U 98067EE  14178.86228734  .00540039  00000-0  17455-2 0  9990 | 2 39561 051.6298 031.4773 0007780 204.8700 249.1675 15.88914490 18883 | 2014/06/27-20:41:41  100.7868   93.9542  249.0842   90.6279     6683.4621     6678.2624     6688.6619  44.032326  26.959053  -0.000431  -0.000648
1 39561U 98067EE  14180.00438462  .00530797  11824-3  17455-2 0  9999 | 2 39561 051.6400 025.5174 0009804 233.7075 279.0437 15.89850710 19066 | 2014/06/29-00:06:18  100.3137  152.6402  278.9327   90.5745     6680.8381     6674.2882     6687.3879  46.602750  22.245747  -0.000183  -0.000963
1 39561U 98067EE  14181.43398767  .00570425  13811-3  17455-2 0  9990 | 2 39561 051.6397 017.9675 0006005 268.9051 154.9859 15.91307201 19295 | 2014/06/30-10:24:56  352.7900   63.9201  155.0150   90.4916     6676.7609     6672.7515     6680.7703  49.121317  15.929684   0.000174  -0.000575
1 39561U 98067EE  14182.56203816  .00611252  16065-3  17455-2 0  9993 | 2 39561 051.6305 012.0188 0007767 242.6599 170.4168 15.92611804 19475 | 2014/07/01-13:29:20   56.7630   53.0915  170.4316   90.4175     6673.1142     6667.9312     6678.2972  50.498725  10.751155  -0.000205  -0.000749
1 39561U 98067EE  14183.69573726  .00664111  19333-3  17455-2 0  9991 | 2 39561 051.6362 006.0298 0008800 271.8452 168.9171 15.94163593 19659 | 2014/07/02-16:41:51   84.3155   80.7817  168.9365   90.3295     6668.7830     6662.9144     6674.6515  51.350517   5.424161   0.000121  -0.000872
1 39561U 98067EE  14184.76358969  .00812824  30003-3  19477-2 0  9999 | 2 39561 051.6344 000.3648 0008759 274.0438 182.6959 15.95888721 19821 | 2014/07/03-18:19:34   99.4825   96.7350  182.6912   90.2319     6663.9762     6658.1392     6669.8132  51.633353   0.328752   0.000067  -0.000873
1 39561U 98067EE  14185.89924326  .01045728  53545-3  22071-2 0  9992 | 2 39561 051.6320 354.3406 0008528 274.8213 235.8588 15.98234373 20004 | 2014/07/04-21:34:54  101.5209  150.5993  235.7780   90.0994     6657.4543     6651.7769     6663.1318  51.380330  -5.091670  -0.000012  -0.000853
1 39561U 98067EE  14187.01482759  .01197982  75909-3  21912-2 0  9998 | 2 39561 051.6296 348.3903 0009783 286.3650 172.4281 16.00774656 20180 | 2014/07/06-00:21:21  202.0682   98.8079  172.4429   89.9564     6650.4093     6643.9032     6656.9154  50.573320 -10.390135   0.000081  -0.000975
1 39561U 98067EE  14188.14911109  .01505112  13889-2  22979-2 0  9999 | 2 39561 051.6299 342.3191 0010094 295.6893 230.6374 16.03979652 20361 | 2014/07/07-03:34:43  190.0658  166.2373  230.5480   89.7767     6641.5473     6634.8433     6648.2513  49.191047 -15.680799   0.000141  -0.001000
1 39561U 98067EE  14189.48870533  .02322039  54878-2  26496-2 0  9999 | 2 39561 051.6226 335.1078 0009754 301.3013 058.6997 16.09673415 20582 | 2014/07/08-11:43:44  127.1771    0.0966   58.7953   89.4591     6625.8764     6619.4135     6632.3392  46.826929 -21.728589   0.000109  -0.000969
1 39561U 98067EE  14190.54198531  .03073744  27917-1  28241-2 0  9999 | 2 39561 051.6210 329.3827 0008417 307.7979 052.2617 16.16743293 20756 | 2014/07/09-13:00:27  153.0626    0.1359   52.3380   89.0679     6606.5460     6600.9853     6612.1067  44.424428 -26.290642   0.000105  -0.000835
1 39561U 98067EE  14191.64919042  .18822373  00000-0  11823-1 0  9995 | 2 39561 050.6850 323.2926 0570171 338.9474 002.4910 16.43267056 20936 | 2014/07/10-15:34:50  217.4590  341.7441    2.7967   87.6303     6535.2631     6162.6413     6907.8848  40.634086 -30.295879   0.030417  -0.048226
