# SPACE DATA - HISTORICAL TLEs
# ----------------------------
# NORAD_ID    : 39132
# OBJECT_NAME : DOVE 2
# --------------------------------------------------------------------+-----------------------------------------------------------------------+----------------------------------------------------------------------------------------------------------------------------------------
#                  LINE 1                                             |                 LINE 2                                                |      DERIVED PARAMETERS
# --------------------------------------------------------------------+-----------------------------------------------------------------------+----------------------------------------------------------------------------------------------------------------------------------------
# NORAD  COSPAR     TLE_EPOCH      MEANMOT1 MEANMOT2   BSTAR  #  REV  |   NORAD    INC     RAAN     ECC    ARGPER  MEANANOM   MEANMOT     REV |  CAL_DATE              LONG     ARGLAT     PERIOD        SMA         PERIGEE        APOGEE      INC_X      INC_Y      ECC_X      ECC_Y
# ------ ------   -------------- ----------  -------  ------- -- ----     -----  ------- -------- ------- -------- -------- -----------  ----   ------------------- ---------  --------  --------  ------------  ------------   ----------- ---------- ----------  ---------  ---------   
1 39563U 98067EG  14058.79580792  .00144004  00000-0  23567-2 0  9999 | 2 39563 051.6513 281.8635 0004321 152.6945 304.4179 15.51490343    52 | 2014/02/27-19:05:57   65.0498   97.0715  304.3770   92.8140     6790.5110     6787.5768     6793.4452  10.618515 -50.548036   0.000115   0.000417
1 39563U 98067EG  14059.82053962  .00055969  00000-0  92900-3 0  9997 | 2 39563 051.6470 276.7629 0001959 144.1900 280.1562 15.51555897   200 | 2014/02/28-19:41:34  112.8301   64.3241  280.1341   92.8101     6790.3197     6788.9895     6791.6500   6.082001 -51.287639   0.000095   0.000171
1 39563U 98067EG  14061.05769838  .00056444  00000-0  92900-3 0  9990 | 2 39563 051.6464 270.6357 0004099 166.6964 333.1715 15.51782934   406 | 2014/03/02-01:23:05  130.0321  139.8467  333.1503   92.7965     6789.6574     6786.8743     6792.4405   0.573008 -51.643221   0.000090   0.000400
1 39563U 98067EG  14062.58394383  .00056795  00000-0  92900-3 0  9997 | 2 39563 051.6464 263.0496 0004409 173.8029 218.4100 15.51952424   645 | 2014/03/03-14:00:52   76.2259   32.1815  218.3786   92.7863     6789.1631     6786.1697     6792.1564  -6.249734 -51.266865   0.000100   0.000429
1 39563U 98067EG  14063.62128006  .00057038  00000-0  92900-3 0  9991 | 2 39563 051.6476 257.8951 0005294 180.5117 251.3471 15.52065636   807 | 2014/03/04-14:54:38   56.1980   71.8013  251.2896   92.7796     6788.8329     6785.2389     6792.4269 -10.830614 -50.499231   0.000106   0.000519
1 39563U 98067EG  14064.71811565  .00066264  00000-0  10693-2 0  9990 | 2 39563 051.6463 252.4393 0004323 189.0712 256.1220 15.52264636   975 | 2014/03/05-17:14:05   84.2613   85.1451  256.0739   92.7677     6788.2527     6785.3181     6791.1872 -15.582516 -49.239471   0.000064   0.000428
1 39563U 98067EG  14066.07275843  .00066755  00000-0  10693-2 0  9999 | 2 39563 051.6478 245.7117 0003356 189.7180 271.0166 15.52470376  1180 | 2014/03/07-01:44:46  204.4541  100.6961  270.9781   92.7554     6787.6529     6785.3750     6789.9309 -21.244199 -47.076313   0.000084   0.000325
1 39563U 98067EG  14067.68344325  .00067296  00000-0  10693-2 0  9990 | 2 39563 051.6489 237.7021 0003785 201.8010 267.5046 15.52690050  1439 | 2014/03/08-16:24:09   65.3268  109.2623  267.4613   92.7423     6787.0127     6784.4438     6789.5816 -27.597111 -43.657855   0.000069   0.000372
1 39563U 98067EG  14069.28428435  .00067837  00000-0  10693-2 0  9994 | 2 39563 051.6486 229.7356 0003451 204.9948 219.0893 15.52910112  1685 | 2014/03/10-06:49:22  336.3955   64.0592  219.0644   92.7291     6786.3715     6784.0295     6788.7135 -33.381305 -39.411500   0.000091   0.000333
1 39563U 98067EG  14070.43694331  .00067866  00000-0  10637-2 0  9993 | 2 39563 051.6487 224.0003 0003274 209.2064 183.3879 15.53067480  1862 | 2014/03/11-10:29:11   69.7139   32.5921  183.3857   92.7197     6785.9131     6783.6913     6788.1348 -37.152778 -35.878396   0.000095   0.000313
1 39563U 98067EG  14071.78230921  .00070991  00000-0  11044-2 0  9999 | 2 39563 051.6462 217.3113 0002989 234.1342 125.9371 15.53255517  2062 | 2014/03/12-18:46:31  234.5837    0.0990  125.9648   92.7085     6785.3654     6783.3372     6787.3935 -41.077009 -31.305100  -0.000008   0.000299
1 39563U 98067EG  14072.81167133  .00069621  00000-0  10770-2 0  9991 | 2 39563 051.6464 212.1862 0002910 242.0181 118.0515 15.53420033  2230 | 2014/03/13-19:28:48  251.2955    0.0990  118.0809   92.6987     6784.8863     6782.9119     6786.8607 -43.709458 -27.510614  -0.000021   0.000290
1 39563U 98067EG  14074.48416898  .00069343  00000-0  10640-2 0  9998 | 2 39563 051.6467 203.8573 0002821 254.9433 105.1246 15.53646756  2489 | 2014/03/15-11:37:12  143.3737    0.0991  105.1558   92.6852     6784.2262     6782.3124     6786.1400 -47.233781 -20.889031  -0.000043   0.000279
1 39563U 98067EG  14075.64190061  .00075666  00000-0  11532-2 0  9994 | 2 39563 051.6466 198.0905 0002790 261.2688 098.7986 15.53795319  2679 | 2014/03/16-15:24:20  207.0655    0.0990   98.8302   92.6763     6783.7938     6781.9011     6785.6864 -49.093566 -16.037241  -0.000045   0.000275
1 39563U 98067EG  14076.82506976  .00100863  00000-0  15139-2 0  9996 | 2 39563 051.6516 192.1986 0001743 232.6486 270.7880 15.54086948  2851 | 2014/03/17-19:48:06  136.6953  143.4166  270.7680   92.6589     6782.9451     6781.7628     6784.1273 -50.485362 -10.914030   0.000074   0.000158
1 39563U 98067EG  14078.14958423  .00174718  00000-0  25423-2 0  9998 | 2 39563 051.6458 185.5912 0002851 294.9224 065.1471 15.54624378  3053 | 2014/03/19-03:35:24   44.8005    0.0991   65.1767   92.6269     6781.3817     6779.4484     6783.3151 -51.400089  -5.031852  -0.000145   0.000246
1 39563U 98067EG  14079.51476118  .00197688  00000-0  28114-2 0  9997 | 2 39563 051.6505 178.7786 0002008 292.7897 154.1278 15.55162743  3277 | 2014/03/20-12:21:15   97.5744   86.9275  154.1378   92.5948     6779.8166     6778.4552     6781.1780 -51.638765   1.100974  -0.000074   0.000187
1 39563U 98067EG  14080.71998227  .00244771  00000-0  33804-2 0  9999 | 2 39563 051.6450 172.7601 0003141 321.0665 039.0100 15.55783306  3453 | 2014/03/21-17:16:46  265.5014    0.0992   39.0327   92.5579     6778.0136     6775.8846     6780.1426 -51.233244   6.508515  -0.000218   0.000227
1 39563U 98067EG  14081.87595105  .00299028  00000-0  40045-2 0  9995 | 2 39563 051.6449 166.9811 0003558 335.7344 024.3480 15.56420224  3633 | 2014/03/22-21:01:22  328.5627    0.0992   24.3648   92.5200     6776.1644     6773.7534     6778.5753 -50.317410  11.634173  -0.000283   0.000216
1 39563U 98067EG  14083.15992037  .00231091  00000-0  30686-2 0  9999 | 2 39563 051.6452 160.5570 0003592 341.0307 019.0551 15.56892425  3834 | 2014/03/24-03:50:17   78.4779    0.0992   19.0685   92.4919     6774.7942     6772.3607     6777.2277 -48.700035  17.191082  -0.000281   0.000223
1 39563U 98067EG  14084.18678917  .00204465  00000-0  26855-2 0  9999 | 2 39563 051.6454 155.4157 0003741 347.3338 012.7560 15.57283176  3994 | 2014/03/25-04:28:58   94.3001    0.0993   12.7655   92.4687     6773.6608     6771.1268     6776.1949 -46.963752  21.486120  -0.000298   0.000226
1 39563U 98067EG  14085.47002740  .00209884  00000-0  27052-2 0  9997 | 2 39563 051.6454 148.9871 0003993 356.4840 003.6123 15.57766647  4198 | 2014/03/26-11:16:50  203.9527    0.0992    3.6152   92.4400     6772.2592     6769.5551     6774.9634 -44.262758  26.609314  -0.000329   0.000226
1 39563U 98067EG  14086.62460074  .00192906  00000-0  24521-2 0  9997 | 2 39563 051.6453 143.1985 0004197 003.3848 356.7172 15.58198186  4377 | 2014/03/27-14:59:25  266.5200    0.0992  356.7144   92.4144     6771.0088     6768.1670     6773.8506 -41.353202  30.937836  -0.000350   0.000231
1 39563U 98067EG  14087.77886759  .00176135  00000-0  22109-2 0  9992 | 2 39563 051.6450 137.4077 0004407 009.0259 351.0812 15.58594086  4553 | 2014/03/28-18:41:34  328.9795    0.0993  351.0734   92.3910     6769.8621     6766.8787     6772.8456 -38.020432  34.952150  -0.000367   0.000244
1 39563U 98067EG  14089.12515888  .00155095  00000-0  19217-2 0  9993 | 2 39563 051.6450 130.6491 0004436 016.3573 343.7562 15.59017328  4763 | 2014/03/30-03:00:13  101.7235    0.0993  343.7420   92.3659     6768.6368     6765.6343     6771.6394 -33.642826  39.183751  -0.000372   0.000242
1 39563U 98067EG  14090.15067534  .00135712  00000-0  16694-2 0  9998 | 2 39563 051.6450 125.4984 0004558 021.7159 338.4027 15.59284091  4925 | 2014/03/31-03:36:58  117.0659    0.0994  338.3835   92.3501     6767.8648     6764.7800     6770.9496 -29.989230  42.045833  -0.000383   0.000247
1 39563U 98067EG  14091.24008903  .00141130  00000-0  17156-2 0  9999 | 2 39563 051.6453 120.0245 0004653 027.4784 332.6454 15.59574105  5099 | 2014/04/01-05:45:43  155.7973    0.0993  332.6209   92.3329     6767.0258     6763.8771     6770.1745 -25.841773  44.715096  -0.000392   0.000250
1 39563U 98067EG  14092.45743248  .00141393  00000-0  16995-2 0  9992 | 2 39563 051.6459 113.9058 0004675 033.4954 326.6334 15.59869761  5295 | 2014/04/02-10:58:42  241.3545    0.0993  326.6039   92.3154     6766.1707     6763.0075     6769.3339 -20.928682  47.215350  -0.000394   0.000252
1 39563U 98067EG  14093.54645591  .00107773  00000-0  12911-2 0  9993 | 2 39563 051.6462 108.4297 0004650 037.6710 322.4608 15.60096092  5459 | 2014/04/03-13:06:53  279.9494    0.0993  322.4283   92.3020     6765.5163     6762.3703     6768.6622 -16.327474  48.997383  -0.000386   0.000259
1 39563U 98067EG  14094.82747313  .00093046  00000-0  11063-2 0  9994 | 2 39563 051.6463 101.9867 0004582 043.6585 316.4771 15.60361521  5650 | 2014/04/04-19:51:33   28.8174    0.0994  316.4409   92.2863     6764.7490     6761.6494     6767.8486 -10.726143  50.520196  -0.000378   0.000259
1 39563U 98067EG  14096.17232272  .00103028  00000-0  12115-2 0  9998 | 2 39563 051.6460 095.2200 0004616 050.8897 309.2506 15.60603973  5866 | 2014/04/06-04:08:08  161.0508    0.0993  309.2096   92.2720     6764.0483     6760.9261     6767.1706  -4.698764  51.431809  -0.000383   0.000257
1 39563U 98067EG  14097.21607397  .00103987  00000-0  12115-2 0  9992 | 2 39563 051.6516 089.9558 0006081 055.5753 052.8929 15.60832949  6032 | 2014/04/07-05:11:08   74.7664  108.5238   52.9485   92.2584     6763.3868     6759.2740     6767.4996   0.039846  51.651585  -0.000501   0.000344
1 39563U 98067EG  14098.28520873  .00091268  00000-0  10589-2 0  9994 | 2 39563 051.6452 084.5829 0004548 061.7268 298.4184 15.61009048  6206 | 2014/04/08-06:50:42  214.4046    0.0994  298.3726   92.2480     6762.8781     6759.8024     6765.9539   4.875588  51.414544  -0.000378   0.000252
1 39563U 98067EG  14099.50147044  .00099522  00000-0  11423-2 0  9994 | 2 39563 051.6450 078.4564 0004446 069.0434 291.1035 15.61250415  6385 | 2014/04/09-12:02:07  299.5824    0.0994  291.0560   92.2338     6762.1811     6759.1746     6765.1876  10.334865  50.600362  -0.000375   0.000239
1 39563U 98067EG  14100.78145554  .00136191  00000-0  15332-2 0  9998 | 2 39563 051.6451 072.0056 0004310 079.5803 280.5676 15.61598903  6580 | 2014/04/10-18:45:17   48.0884    0.0993  280.5190   92.2132     6761.1750     6758.2609     6764.0891  15.954413  49.118968  -0.000379   0.000205
1 39563U 98067EG  14101.80530633  .00085193  00000-0  96063-3 0  9994 | 2 39563 051.6452 066.8442 0004306 084.4998 275.6487 15.61779599  6752 | 2014/04/11-19:19:38   62.8447    0.0994  275.5996   92.2025     6760.6535     6757.7424     6763.5646  20.308583  47.484609  -0.000378   0.000206
1 39563U 98067EG  14103.16755742  .00077195  00000-0  85726-3 0  9992 | 2 39563 051.6482 059.9691 0004539 103.2866 002.0610 15.62214706  6964 | 2014/04/13-04:01:16   96.2738  105.3495    2.0629   92.1768     6759.3981     6756.3300     6762.4662  25.848219  44.714720  -0.000435   0.000131
1 39563U 98067EG  14104.42811178  .00124974  00000-0  13584-2 0  9998 | 2 39563 051.6459 053.6126 0004232 102.1853 257.9615 15.62548676  7161 | 2014/04/14-10:16:28  302.8731    0.0994  257.9141   92.1571     6758.4349     6755.5748     6761.2951  30.638510  41.576203  -0.000386   0.000173
1 39563U 98067EG  14105.83495761  .00146479  00000-0  15586-2 0  9998 | 2 39563 051.6459 046.5096 0004114 115.7010 244.4410 15.63011073  7376 | 2014/04/15-20:02:20   97.8321    0.0995  244.3985   92.1299     6757.1019     6754.3221     6759.8818  35.544414  37.468568  -0.000392   0.000126
1 39563U 98067EG  14107.04966476  .00117820  00000-0  12481-2 0  9998 | 2 39563 051.6458 040.3733 0004094 120.9103 239.2294 15.63237638  7563 | 2014/04/17-01:11:31  182.4625    0.0994  239.1891   92.1165     6756.4490     6753.6830     6759.2151  39.345849  33.454339  -0.000388   0.000131
1 39563U 98067EG  14108.26417568  .00108449  00000-0  11383-2 0  9993 | 2 39563 051.6456 034.2357 0004121 128.5992 231.5372 15.63511709  7753 | 2014/04/18-06:20:24  267.0244    0.0994  231.5002   92.1004     6755.6595     6752.8755     6758.4435  42.696977  29.055743  -0.000394   0.000122
1 39563U 98067EG  14109.79799177  .00124895  00000-0  12905-2 0  9995 | 2 39563 051.6454 026.4803 0004104 138.3631 221.7677 15.63843155  7998 | 2014/04/19-19:09:06  108.4710    0.0995  221.7364   92.0808     6754.7049     6751.9327     6757.4770  46.227164  23.028172  -0.000396   0.000107
1 39563U 98067EG  14110.82034773  .00139467  00000-0  14240-2 0  9990 | 2 39563 051.6452 021.3087 0004136 144.8367 215.2901 15.64088497  8155 | 2014/04/20-19:41:18  122.7024    0.0994  215.2627   92.0664     6753.9985     6751.2050     6756.7920  48.114531  18.767489  -0.000402   0.000099
1 39563U 98067EG  14112.12321424  .00126314  00000-0  12756-2 0  9994 | 2 39563 051.6477 014.7079 0004455 141.6093 000.2807 15.64416663  8364 | 2014/04/22-02:57:25   97.8561  141.8903    0.2810   92.0471     6753.0539     6750.0455     6756.0624  49.955347  13.112902  -0.000408   0.000179
1 39563U 98067EG  14113.90159235  .00105385  00000-0  10520-2 0  9992 | 2 39563 051.6479 005.6990 0004016 154.4681 291.0268 15.64797103  8648 | 2014/04/23-21:38:17   85.2291   85.4519  290.9838   92.0247     6751.9594     6749.2478     6754.6709  51.392620   5.128760  -0.000378   0.000136
1 39563U 98067EG  14115.09975318  .00100116  00000-0  99067-3 0  9993 | 2 39563 051.6451 359.6424 0003966 169.4425 190.6654 15.65041377  8826 | 2014/04/25-02:23:38  249.1916    0.0995  190.6570   92.0103     6751.2568     6748.5792     6753.9343  51.644094  -0.322330  -0.000389   0.000075
1 39563U 98067EG  14116.71460814  .00097938  00000-0  95724-3 0  9996 | 2 39563 051.6487 351.4545 0003860 168.0153 297.4607 15.65361421  9083 | 2014/04/26-17:09:02   14.9508  105.4367  297.4214   91.9915     6750.3365     6747.7309     6752.9421  51.075305  -7.674727  -0.000361   0.000135
1 39563U 98067EG  14117.71730967  .00082092  00000-0  79915-3 0  9995 | 2 39563 051.6447 346.3761 0003814 184.1223 175.9742 15.65538098  9242 | 2014/04/27-17:12:55  127.3696    0.0996  175.9773   91.9812     6749.8286     6747.2543     6752.4030  50.191564 -12.164782  -0.000376   0.000063
1 39563U 98067EG  14118.80231976  .00197357  00000-0  18553-2 0  9993 | 2 39563 051.6440 340.8728 0003948 199.9420 160.1422 15.65959923  9401 | 2014/04/28-19:15:20  164.5583    0.0996  160.1576   91.9564     6748.6164     6745.9521     6751.2808  48.792914 -16.922007  -0.000395  -0.000006
1 39563U 98067EG  14119.82323761  .00207430  00000-0  19180-2 0  9991 | 2 39563 051.6438 335.6917 0004069 210.5664 149.5095 15.66337630  9565 | 2014/04/29-19:45:27  178.2844    0.0995  149.5331   91.9342     6747.5315     6744.7859     6750.2771  47.065249 -21.258983  -0.000404  -0.000044
1 39563U 98067EG  14120.84389208  .00223465  00000-0  20193-2 0  9995 | 2 39563 051.6439 330.5084 0004227 219.7367 140.3320 15.66854370  9725 | 2014/04/30-20:15:12  191.9165    0.0996  140.3629   91.9039     6746.0479     6743.1963     6748.8994  44.952290 -25.424083  -0.000416  -0.000075
1 39563U 98067EG  14122.43805431  .00188838  00000-0  16728-2 0  9996 | 2 39563 051.6438 322.4063 0004485 234.1682 125.8898 15.67460162  9987 | 2014/05/02-10:30:47   55.4990    0.0996  125.9314   91.8684     6744.3096     6741.2848     6747.3344  40.920312 -31.505716  -0.000430  -0.000128
1 39563U 98067EG  14123.45800671  .00183943  00000-0  16068-2 0  9999 | 2 39563 051.6438 317.2182 0004642 244.5380 115.5137 15.67820195 10133 | 2014/05/03-10:59:31   68.8815    0.0997  115.5617   91.8473     6743.2771     6740.1469     6746.4073  37.903742 -35.076892  -0.000431  -0.000172
1 39563U 98067EG  14124.73258881  .00224790  00000-0  19071-2 0  9994 | 2 39563 051.6434 310.7307 0005130 255.8420 104.2007 15.68397955 10336 | 2014/05/04-17:34:55  175.4839    0.0997  104.2577   91.8134     6741.6209     6738.1625     6745.0794  33.697552 -39.134585  -0.000459  -0.000229
1 39563U 98067EG  14125.75189602  .00246875  00000-0  20481-2 0  9996 | 2 39563 051.6430 305.5385 0005467 264.4015 095.6358 15.68871347 10490 | 2014/05/05-18:02:43  188.6368    0.0996   95.6981   91.7857     6740.2647     6736.5798     6743.9496  30.017487 -42.023207  -0.000474  -0.000273
1 39563U 98067EG  14127.02557441  .00241426  00000-0  19522-2 0  9999 | 2 39563 051.6425 299.0454 0005990 273.9797 086.0515 15.69507619 10691 | 2014/05/07-00:36:49  294.9156    0.0997   86.1200   91.7485     6738.4429     6734.4066     6742.4793  25.072563 -45.147695  -0.000502  -0.000326
1 39563U 98067EG  14128.68060188  .00311878  00000-0  24072-2 0  9994 | 2 39563 051.6420 290.5997 0006823 286.4278 073.5969 15.70406678 10951 | 2014/05/08-16:20:04  180.8089    0.0997   73.6719   91.6960     6735.8709     6731.2750     6740.4667  18.169553 -48.340082  -0.000545  -0.000411
1 39563U 98067EG  14129.88940790  .00255899  00000-0  19380-2 0  9999 | 2 39563 051.6418 284.4219 0007157 292.4383 067.5856 15.71028948 11143 | 2014/05/09-21:20:44  263.3492    0.0997   67.6614   91.6597     6734.0921     6729.2725     6738.9117  12.861911 -50.014465  -0.000573  -0.000429
1 39563U 98067EG  14130.90702106  .00238157  00000-0  17745-2 0  9992 | 2 39563 051.6417 279.2182 0007447 297.6817 062.3425 15.71468956 11304 | 2014/05/10-21:46:06  275.8963    0.0998   62.4181   91.6340     6732.8350     6727.8210     6737.8489   8.272729 -50.974770  -0.000596  -0.000447
1 39563U 98067EG  14131.98790439  .00240924  00000-0  17556-2 0  9992 | 2 39563 051.6417 273.6866 0007851 303.6599 056.3650 15.71984687 11470 | 2014/05/11-23:42:34  311.6106    0.0998   56.4399   91.6039     6731.3623     6726.0775     6736.6471   3.320506 -51.534837  -0.000624  -0.000476
1 39563U 98067EG  14133.38616913  .00241057  00000-0  17071-2 0  9992 | 2 39563 051.6416 266.5248 0008354 310.5560 049.4710 15.72653107 11693 | 2014/05/13-09:16:05  103.5238    0.0998   49.5438   91.5650     6729.4548     6723.8331     6735.0766  -3.130333 -51.546638  -0.000666  -0.000504
1 39563U 98067EG  14134.40270443  .00266779  00000-0  18422-2 0  9999 | 2 39563 051.6416 261.3143 0008923 316.2082 043.8208 15.73161780 11854 | 2014/05/14-09:39:53  115.6869    0.0999   43.8917   91.5354     6728.0041     6722.0007     6734.0075  -7.798610 -51.049354  -0.000708  -0.000543
1 39563U 98067EG  14135.73638807  .00300248  00000-0  20036-2 0  9992 | 2 39563 051.6416 254.4711 0009450 322.0107 038.0224 15.73855772 12066 | 2014/05/15-17:40:23  243.9667    0.0999   38.0892   91.4950     6726.0262     6719.6701     6732.3823 -13.825716 -49.756451  -0.000760  -0.000562
1 39563U 98067EG  14136.75211003  .00302448  00000-0  19674-2 0  9990 | 2 39563 051.6409 249.2545 0009739 326.1441 033.8936 15.74438179 12221 | 2014/05/16-18:03:02  255.8397    0.1000   33.9559   91.4612     6724.3674     6717.8185     6730.9162 -18.292115 -48.292661  -0.000794  -0.000564
1 39563U 98067EG  14137.83093944  .00274319  00000-0  17496-2 0  9997 | 2 39563 051.6402 243.7095 0010019 329.6569 030.3849 15.74970207 12391 | 2014/05/17-19:56:33  290.8226    0.0999   30.4430   91.4303     6722.8530     6716.1173     6729.5886 -22.872609 -46.298532  -0.000837  -0.000551
1 39563U 98067EG  14139.48016002  .00284643  00000-0  17418-2 0  9995 | 2 39563 051.6392 235.2226 0010283 336.2356 023.8167 15.75885835 12654 | 2014/05/19-11:31:25  174.6439    0.0999   23.8643   91.3772     6720.2486     6713.3382     6727.1590 -29.454464 -42.415110  -0.000877  -0.000537
1 39563U 98067EG  14140.68476398  .00270705  00000-0  16136-2 0  9997 | 2 39563 051.6390 229.0169 0010519 340.7864 019.2738 15.76518811 12847 | 2014/05/20-16:26:03  255.6865    0.1000   19.3136   91.3405     6718.4497     6711.3826     6725.5168 -33.866735 -38.982439  -0.000913  -0.000523
1 39563U 98067EG  14141.69880956  .00244968  00000-0  14334-2 0  9998 | 2 39563 051.6390 223.7887 0010708 344.1350 015.9314 15.77007881 13017 | 2014/05/21-16:46:17  266.9644    0.1001   15.9651   91.3122     6717.0606     6709.8680     6724.2532 -37.278025 -35.734230  -0.000946  -0.000501
1 39563U 98067EG  14143.40927628  .00276587  00000-0  15469-2 0  9999 | 2 39563 051.6386 214.9598 0010548 350.7390 009.3415 15.77936117 13272 | 2014/05/23-09:49:21  173.2331    0.1001    9.3611   91.2584     6714.4261     6707.3437     6721.5085 -42.320635 -29.588998  -0.000950  -0.000457
1 39563U 98067EG  14144.42237538  .00282295  00000-0  15339-2 0  9995 | 2 39563 051.6382 209.7252 0010567 354.4792 005.6091 15.78563583 13436 | 2014/05/24-10:08:13  184.1741    0.1002    5.6210   91.2222     6712.6467     6705.5534     6719.7399 -44.843311 -25.604319  -0.000964  -0.000433
1 39563U 98067EG  14145.43509113  .00274348  00000-0  14556-2 0  9998 | 2 39563 051.6378 204.4877 0010509 357.9799 002.1158 15.79114420 13593 | 2014/05/25-10:26:31  194.9801    0.1002    2.1203   91.1904     6711.0856     6704.0329     6718.1382 -46.992994 -21.403759  -0.000971  -0.000402
1 39563U 98067EG  14146.44744357  .00304331  00000-0  15674-2 0  9999 | 2 39563 051.6374 199.2479 0010494 001.8028 358.3010 15.79688537 13768 | 2014/05/26-10:44:19  205.6565    0.1002  358.2974   91.1572     6709.4594     6702.4185     6716.5003 -48.750926 -17.022581  -0.000979  -0.000377
1 39563U 98067EG  14147.58591265  .00292100  00000-0  14662-2 0  9999 | 2 39563 051.6369 193.3499 0010319 006.2509 353.8619 15.80287365 13938 | 2014/05/27-14:03:42  262.5165    0.1001  353.8492   91.1227     6707.7643     6700.8426     6714.6861 -50.241575 -11.922816  -0.000972  -0.000346
1 39563U 98067EG  14149.54566129  .00272822  00000-0  13163-2 0  9992 | 2 39563 051.6362 183.1852 0009825 014.6608 345.4677 15.81206204 14244 | 2014/05/29-13:05:45  260.1066    0.1002  345.4394   91.0697     6705.1655     6698.5777     6711.7533 -51.556430  -2.869093  -0.000935  -0.000301
1 39563U 98067EG  14151.06207632  .00337972  00000-0  15573-2 0  9998 | 2 39563 051.6362 175.3090 0009050 022.1069 338.0322 15.82037522 14494 | 2014/05/31-01:29:23   95.3763    0.1003  337.9934   91.0219     6702.8164     6696.7503     6708.8824 -51.463231   4.222909  -0.000864  -0.000271
1 39563U 98067EG  14152.07258217  .00433625  00000-0  19348-2 0  9991 | 2 39563 051.6362 170.0560 0008546 027.2152 332.9296 15.82488828 14645 | 2014/06/01-01:44:31  105.4017    0.1002  332.8850   90.9959     6701.5419     6695.8148     6707.2691 -50.860470   8.916826  -0.000816  -0.000254
1 39563U 98067EG  14153.14590988  .00263112  00000-0  11688-2 0  9995 | 2 39563 051.6361 164.4729 0008406 031.5602 328.5904 15.83021736 14819 | 2014/06/02-03:30:06  138.4349    0.1004  328.5402   90.9653     6700.0378     6694.4058     6705.6699 -49.751586  13.822681  -0.000808  -0.000232
1 39563U 98067EG  14154.47129171  .00297516  00000-0  12746-2 0  9995 | 2 39563 051.6358 157.5723 0007730 039.3284 320.8280 15.83707273 15026 | 2014/06/03-11:18:39  263.7735    0.1004  320.7720   90.9259     6698.1042     6692.9266     6703.2819 -47.730156  19.699951  -0.000740  -0.000225
1 39563U 98067EG  14155.48071519  .00306931  00000-0  12796-2 0  9996 | 2 39563 051.6355 152.3111 0007345 045.7348 314.4257 15.84260553 15187 | 2014/06/04-11:32:13  273.4180    0.1004  314.3656   90.8941     6696.5446     6691.6260     6701.4633 -45.722392  23.993494  -0.000698  -0.000228
1 39563U 98067EG  14157.12020731  .00348663  00000-0  13756-2 0  9994 | 2 39563 051.6349 143.7570 0006562 055.9901 304.1725 15.85314338 15448 | 2014/06/06-02:53:05  153.8031    0.1004  304.1103   90.8337     6693.5768     6689.1845     6697.9691 -41.644416  30.527127  -0.000618  -0.000222
1 39563U 98067EG  14158.38058983  .00389296  00000-0  14645-2 0  9998 | 2 39563 051.6341 137.1717 0006099 063.9504 296.2127 15.86202667 15655 | 2014/06/07-09:08:02  255.3679    0.1004  296.1500   90.7829     6691.0775     6686.9966     6695.1583 -37.868148  35.101049  -0.000569  -0.000220
1 39563U 98067EG  14159.38834500  .00451115  00000-0  16107-2 0  9991 | 2 39563 051.6333 131.8985 0005594 073.0324 287.1293 15.87127452 15804 | 2014/06/08-09:19:13  264.4277    0.1004  287.0680   90.7300     6688.4780     6684.7365     6692.2196 -34.481393  38.432164  -0.000507  -0.000236
1 39563U 98067EG  14160.39541570  .00538840  00000-0  18044-2 0  9999 | 2 39563 051.6333 126.6227 0005015 077.8261 282.3306 15.88224695 15962 | 2014/06/09-09:29:23  273.2465    0.1006  282.2745   90.6673     6685.3971     6682.0444     6688.7499 -30.801478  41.439916  -0.000457  -0.000208
1 39563U 98067EG  14161.79293743  .00567611  13432-3  18800-2 0  9994 | 2 39563 051.6350 119.2781 0006079 067.4275 012.4608 15.89758619 16197 | 2014/06/10-19:01:49  345.3448   79.9033   12.4758   90.5798     6681.0961     6677.0346     6685.1575 -25.252050  45.038952  -0.000604  -0.000071
1 39563U 98067EG  14163.09837953  .00650453  17908-3  19813-2 0  9990 | 2 39563 051.6326 112.4162 0003382 115.8004 244.3352 15.91414712 16390 | 2014/06/12-02:21:39  183.2053    0.1007  244.3003   90.4855     6676.4602     6674.2022     6678.7181 -19.689151  47.731150  -0.000225  -0.000252
1 39563U 98067EG  14164.72988753  .00836306  30867-3  22720-2 0  9999 | 2 39563 051.6314 103.8035 0003928 154.1903 205.9301 15.93610907 16652 | 2014/06/13-17:31:02   60.7842    0.1007  205.9104   90.3608     6670.3248     6667.7047     6672.9449 -12.318879  50.140270  -0.000082  -0.000384
1 39563U 98067EG  14165.79531830  .00897956  36753-3  22311-2 0  9991 | 2 39563 051.6316 098.1668 0004132 173.7693 186.3367 15.95289037 16824 | 2014/06/14-19:05:15   91.0405    0.1008  186.3315   90.2658     6665.6461     6662.8919     6668.4004  -7.334547  51.107989   0.000014  -0.000413
1 39563U 98067EG  14166.79704108  .00927388  40376-3  21008-2 0  9993 | 2 39563 051.6301 092.8501 0005374 188.5774 171.5144 15.96978005 16985 | 2014/06/15-19:07:44   97.9789    0.1009  171.5235   90.1703     6660.9456     6657.3660     6664.5252  -2.567210  51.566236   0.000106  -0.000527
1 39563U 98067EG  14167.81505477  .00953867  44166-3  19474-2 0  9991 | 2 39563 051.6363 087.4317 0004009 167.0366 293.2205 15.98862453 17152 | 2014/06/16-19:33:40   10.7204  100.2149  293.1783   90.0640     6655.7107     6653.0425     6658.3790   2.313837  51.584432  -0.000107  -0.000386
1 39563U 98067EG  14168.85959767  .00905665  00000-0  16384-2 0  9997 | 2 39563 051.6315 081.8618 0006223 195.4899 164.6394 16.00733495 17389 | 2014/06/17-20:37:49  133.4830    0.1482  164.6583   89.9588     6650.5233     6646.3847     6654.6619   7.309020  51.111545   0.000080  -0.000617
1 39563U 98067EG  14170.16929367  .01561277  15259-2  23791-2 0  9999 | 2 39563 051.6310 074.8413 0006631 218.5612 141.7458 16.04108999 17535 | 2014/06/19-04:03:46  253.1073    0.3540  141.7928   89.7695     6641.1903     6636.7865     6645.5941  13.501171  49.834511   0.000263  -0.000609
1 39563U 98067EG  14171.53810629  .01682837  20313-2  20013-2 0  9998 | 2 39563 051.6297 067.4743 0006188 238.3434 121.6948 16.08239263 17750 | 2014/06/20-12:54:52   34.8648    0.0985  121.7551   89.5389     6629.8149     6625.7123     6633.9174  19.779224  47.690756   0.000362  -0.000502
1 39563U 98067EG  14172.59308421  .02214151  51998-2  20823-2 0  9990 | 2 39563 051.6303 061.7629 0006788 240.4878 119.5668 16.12597748 17924 | 2014/06/21-14:14:02   61.3917    0.1222  119.6344   89.2969     6617.8636     6613.3713     6622.3558  24.427396  45.486154   0.000362  -0.000574
1 39563U 98067EG  14173.64478033  .02541712  17671-1  19885-2 0  9995 | 2 39563 051.6322 056.0309 0006216 247.3389 112.6302 16.18450970 18095 | 2014/06/22-15:28:29   86.8564    0.0348  112.6959   88.9740     6601.8980     6597.7943     6606.0017  28.849271  42.820599   0.000342  -0.000519
1 39563U 98067EG  14174.69163319  .05879534  12036-4  14044-2 0  9993 | 2 39563 051.6220 050.2642 0008373 237.1297 123.6236 16.28667565 18267 | 2014/06/23-16:35:57  109.7378    0.8331  123.7034   88.4158     6574.2600     6568.7554     6579.7646  32.999283  39.697333   0.000250  -0.000799
