# SPACE DATA - HISTORICAL TLEs
# ----------------------------
# NORAD_ID    : 39132
# OBJECT_NAME : DOVE 2
# --------------------------------------------------------------------+-----------------------------------------------------------------------+----------------------------------------------------------------------------------------------------------------------------------------
#                  LINE 1                                             |                 LINE 2                                                |      DERIVED PARAMETERS
# --------------------------------------------------------------------+-----------------------------------------------------------------------+----------------------------------------------------------------------------------------------------------------------------------------
# NORAD  COSPAR     TLE_EPOCH      MEANMOT1 MEANMOT2   BSTAR  #  REV  |   NORAD    INC     RAAN     ECC    ARGPER  MEANANOM   MEANMOT     REV |  CAL_DATE              LONG     ARGLAT     PERIOD        SMA         PERIGEE        APOGEE      INC_X      INC_Y      ECC_X      ECC_Y
# ------ ------   -------------- ----------  -------  ------- -- ----     -----  ------- -------- ------- -------- -------- -----------  ----   ------------------- ---------  --------  --------  ------------  ------------   ----------- ---------- ----------  ---------  ---------   
1 40126U 98067EY  14232.82422516 -.00142335  00000-0 -24675-2 0  9991 | 2 40126 051.6437 139.1854 0005160 077.1122 041.2381 15.50704146 35958 | 2014/08/20-19:46:53    8.2509  118.3893   41.2771   92.8610     6792.8060     6789.3009     6796.3111 -39.085425  33.755018  -0.000416  -0.000305
1 40126U 98067EY  14233.84932323  .00005412  00000-0  10000-3 0  9996 | 2 40126 051.6447 134.1039 0005383 075.8104 009.2473 15.50784783 36111 | 2014/08/21-20:23:01   56.6707   85.0676    9.2572   92.8562     6792.5705     6788.9141     6796.2269 -35.942732  37.084971  -0.000467  -0.000268
1 40126U 98067EY  14234.94602352  .00028384  00000-0  48795-3 0  9999 | 2 40126 051.6454 128.6698 0006193 070.7904 021.2279 15.50875118 36289 | 2014/08/22-22:42:16   91.0373   92.0440   21.2536   92.8508     6792.3067     6788.1002     6796.5132 -32.269658  40.322655  -0.000584  -0.000206
1 40126U 98067EY  14236.10994277  .00025364  00000-0  43630-3 0  9997 | 2 40126 051.6450 122.8953 0005610 079.8699 034.8637 15.50926678 36465 | 2014/08/24-02:38:19  134.2546  114.7704   34.9005   92.8477     6792.1562     6788.3458     6795.9666 -28.048687  43.364469  -0.000517  -0.000217
1 40126U 98067EY  14237.33398301  .00025390  00000-0  43576-3 0  9997 | 2 40126 051.6455 116.8213 0005590 085.6109 028.0059 15.50989489 36653 | 2014/08/25-08:00:56  223.3064  113.6469   28.0360   92.8440     6791.9728     6788.1761     6795.7695 -23.302932  46.089381  -0.000517  -0.000213
1 40126U 98067EY  14238.60230802  .00027368  00000-0  46074-3 0  9992 | 2 40126 051.6443 110.5382 0005333 088.7004 271.5116 15.51056913 36850 | 2014/08/26-14:27:19   80.8414    0.1509  271.4505   92.8399     6791.7760     6788.1539     6795.3980 -18.118463  48.361710  -0.000504  -0.000176
1 40126U 98067EY  14239.63305532  .00151828  00000-0  25125-2 0  9991 | 2 40126 051.6461 105.4104 0007630 130.0207 230.4989 15.51519829 37014 | 2014/08/27-15:11:35   97.7466    0.4522  230.4315   92.8122     6790.4250     6785.2439     6795.6061 -13.723975  49.789277  -0.000433  -0.000628
1 40126U 98067EY  14241.12899574  .00029643  00000-0  50305-3 0  9990 | 2 40126 051.6476 097.9944 0005796 111.7667 327.1048 15.51218068 37240 | 2014/08/29-03:05:45  206.8237   78.8354  327.0687   92.8303     6791.3056     6787.3693     6795.2418  -7.182958  51.145671  -0.000503  -0.000288
1 40126U 98067EY  14242.41429876  .00035611  00000-0  59996-3 0  9994 | 2 40126 051.6477 091.6146 0004879 089.9073 331.6796 15.51332918 37447 | 2014/08/30-09:56:35  334.4640   61.5604  331.6531   92.8234     6790.9704     6787.6571     6794.2837  -1.455244  51.627194  -0.000488  -0.000013
1 40126U 98067EY  14243.58035556  .00035258  00000-0  59243-3 0  9993 | 2 40126 051.6465 085.8250 0004896 106.3957 351.8529 15.51412823 37621 | 2014/08/31-13:55:42    4.5217   98.2406  351.8449   92.8186     6790.7372     6787.4125     6794.0619   3.760022  51.509448  -0.000479  -0.000104
1 40126U 98067EY  14244.87034155  .00031244  00000-0  52483-3 0  9990 | 2 40126 051.6456 079.4234 0005216 108.6897 359.0987 15.51480378 37827 | 2014/09/01-20:53:17  107.0499  107.7875  359.0978   92.8146     6790.5401     6786.9981     6794.0820   9.479545  50.768162  -0.000516  -0.000074
1 40126U 98067EY  14245.96776983  .00029879  00000-0  50123-3 0  9993 | 2 40126 051.6462 073.9714 0005245 108.8136 012.6272 15.51541634 37996 | 2014/09/02-23:13:35  135.0054  121.4539   12.6403   92.8109     6790.3613     6786.7998     6793.9229  14.260401  49.638402  -0.000524  -0.000025
1 40126U 98067EY  14247.00108958  .00029244  00000-0  48976-3 0  9990 | 2 40126 051.6465 068.8390 0005278 115.6705 021.3430 15.51599678 38159 | 2014/09/04-00:01:34  137.5787  137.0355   21.3650   92.8074     6790.1920     6786.6081     6793.7759  18.643864  48.163963  -0.000526  -0.000041
1 40126U 98067EY  14248.52926013  .00083883  00000-0  13659-2 0  9996 | 2 40126 051.6470 061.2567 0004615 117.0780 282.5490 15.51908402 38393 | 2014/09/05-12:42:08   74.1951   39.5754  282.4974   92.7890     6789.2914     6786.1582     6792.4247  24.836332  45.283211  -0.000461   0.000013
1 40126U 98067EY  14249.69751289  .00063976  00000-0  10414-2 0  9993 | 2 40126 051.6457 055.4456 0004099 115.8871 335.1665 15.52038920 38572 | 2014/09/06-16:44:25   90.3021   91.0339  335.1468   92.7812     6788.9108     6786.1280     6791.6936  29.292845  42.534781  -0.000405   0.000062
1 40126U 98067EY  14250.72983711  .00073520  00000-0  11872-2 0  9991 | 2 40126 051.6461 050.3089 0004375 113.7631 349.3673 15.52201253 38736 | 2014/09/07-17:30:57   96.0162  103.1211  349.3580   92.7715     6788.4375     6785.4675     6791.4074  32.983694  39.741610  -0.000421   0.000120
1 40126U 98067EY  14252.40314866  .00054456  00000-0  87905-3 0  9995 | 2 40126 051.6453 041.9961 0005406 156.2917 303.5907 15.52334352 38994 | 2014/09/09-09:40:32  351.6185   99.8308  303.5391   92.7635     6788.0494     6784.3798     6791.7190  38.382290  34.554838  -0.000513  -0.000170
1 40126U 98067EY  14253.42518005  .00051176  00000-0  82371-3 0  9997 | 2 40126 051.6477 036.9304 0008339 160.4537 254.7965 15.52420532 39154 | 2014/09/10-10:12:15   50.2551   55.1580  254.7043   92.7584     6787.7982     6782.1379     6793.4585  41.285414  31.032233  -0.000796  -0.000249
1 40126U 98067EY  14254.53104407  .00045715  00000-0  73574-3 0  9994 | 2 40126 051.6481 031.4226 0003570 137.6424 342.1009 15.52502162 39325 | 2014/09/11-12:44:42   30.4708  119.7307  342.0883   92.7535     6787.5603     6785.1371     6789.9834  44.073659  26.926544  -0.000351   0.000068
1 40126U 98067EY  14255.75128427  .00048199  00000-0  77157-3 0  9997 | 2 40126 051.6491 025.3476 0003141 126.6577 337.8427 15.52629115 39510 | 2014/09/12-18:01:50  132.2779  104.4868  337.8291   92.7459     6787.1903     6785.0584     6789.3221  46.676696  22.111435  -0.000277   0.000147
1 40126U 98067EY  14256.83973619  .00054776  00000-0  87068-3 0  9998 | 2 40126 051.6460 019.9307 0003698 157.0661 275.6952 15.52768530 39682 | 2014/09/13-20:09:13  202.3494   72.7191  275.6530   92.7376     6786.7840     6784.2743     6789.2938  48.552694  17.605260  -0.000369   0.000019
1 40126U 98067EY  14258.19014939  .00096764  00000-0  15056-2 0  9990 | 2 40126 051.6470 013.2124 0003452 126.5347 301.1269 15.53110352 39890 | 2014/09/15-04:33:48  341.6472   67.6277  301.0930   92.7172     6785.7882     6783.4457     6788.1306  50.279876  11.804519  -0.000263   0.000223
1 40126U 98067EY  14260.38859823  .00044889  00000-0  70381-3 0  9997 | 2 40126 051.6480 002.2719 0003032 156.9570 330.9721 15.53237642 40233 | 2014/09/17-09:19:34    5.9287  127.9122  330.9552   92.7096     6785.4174     6783.3601     6787.4748  51.607402   2.047417  -0.000283   0.000108
1 40126U 98067EY  14261.79527931  .00041262  00000-0  64488-3 0  9998 | 2 40126 051.6476 355.2720 0001765 128.9154 310.2341 15.53366205 40450 | 2014/09/18-19:05:12  209.4999   79.1341  310.2187   92.7019     6785.0430     6783.8455     6786.2406  51.471855  -4.257082  -0.000099   0.000146
1 40126U 98067EY  14263.14598907  .00046791  00000-0  72629-3 0  9998 | 2 40126 051.6468 348.5449 0002025 136.9139 300.9090 15.53499294 40661 | 2014/09/20-03:30:13  345.1404   77.8030  300.8891   92.6940     6784.6555     6783.2816     6786.0294  50.618029 -10.257052  -0.000117   0.000165
1 40126U 98067EY  14264.17669487  .00049081  00000-0  75817-3 0  9991 | 2 40126 051.6464 343.4132 0002386 145.4573 300.7697 15.53611171 40826 | 2014/09/21-04:14:26  353.9380   86.2035  300.7462   92.6873     6784.3298     6782.7110     6785.9485  49.497309 -14.743373  -0.000150   0.000186
1 40126U 98067EY  14265.46410435  .00051895  00000-0  79674-3 0  9992 | 2 40126 051.6473 336.9984 0002086 145.2871 306.5953 15.53756564 41022 | 2014/09/22-11:08:18   99.4337   91.8632  306.5761   92.6786     6783.9066     6782.4914     6785.3217  47.541027 -20.181535  -0.000111   0.000176
1 40126U 98067EY  14266.62706633  .00049323  00000-0  75495-3 0  9999 | 2 40126 051.6480 331.2054 0002894 155.7951 325.6307 15.53860826 41200 | 2014/09/23-15:02:58  135.4959  121.4071  325.6120   92.6724     6783.6031     6781.6399     6785.5663  45.261832 -24.877348  -0.000174   0.000231
1 40126U 98067EY  14267.78075500  .00047399  00000-0  72334-3 0  9999 | 2 40126 051.6484 325.4550 0002446 159.8535 299.6315 15.53961500 41385 | 2014/09/24-18:44:17  219.6522   99.4606  299.6071   92.6664     6783.3101     6781.6509     6784.9693  42.541810 -29.287397  -0.000141   0.000200
1 40126U 98067EY  14268.79191093  .00052055  00000-0  78610-3 0  9995 | 2 40126 051.6444 320.4289 0001750 168.8669 191.2877 15.54083767 41549 | 2014/09/25-19:00:21  329.0214    0.1507  191.2838   92.6591     6782.9543     6781.7673     6784.1413  39.809294 -32.899304  -0.000111   0.000135
1 40126U 98067EY  14270.15969236  .00053885  00000-0  81263-3 0  9990 | 2 40126 051.6467 313.5998 0002144 164.4345 293.5052 15.54232151 41752 | 2014/09/27-03:49:57   11.8149   97.9172  293.4827   92.6503     6782.5226     6781.0684     6783.9768  35.616443 -37.401211  -0.000101   0.000189
1 40126U 98067EY  14271.45225193  .00057203  00000-0  85685-3 0  9991 | 2 40126 051.6460 307.1549 0001979 174.1235 321.2229 15.54392613 41954 | 2014/09/28-10:51:14   87.4486  135.3322  321.2087   92.6407     6782.0558     6780.7136     6783.3980  31.192735 -41.162150  -0.000103   0.000169
1 40126U 98067EY  14272.54410049  .00060253  00000-0  89710-3 0  9990 | 2 40126 051.6475 301.7098 0001098 148.3950 341.1186 15.54536978 42125 | 2014/09/29-13:03:30  132.8681  129.5095  341.1145   92.6321     6781.6359     6780.8913     6782.3805  27.146813 -43.937624  -0.000000   0.000110
1 40126U 98067EY  14274.08172142  .00066371  00000-0  97867-3 0  9999 | 2 40126 051.6457 294.0335 0001378 136.3995 324.5689 15.54760274 42367 | 2014/10/01-01:57:40    4.1487  100.9592  324.5597   92.6188     6780.9866     6780.0522     6781.9210  21.033781 -47.168405   0.000046   0.000130
1 40126U 98067EY  14275.23440028  .00070796  00000-0  10360-2 0  9996 | 2 40126 051.6460 288.2808 0002086 162.0514 275.3580 15.54939022 42543 | 2014/10/02-05:37:32   89.5609   77.3856  275.3342   92.6081     6780.4669     6779.0525     6781.8813  16.200022 -49.039460  -0.000001   0.000209
1 40126U 98067EY  14276.46323714  .00077013  00000-0  11170-2 0  9993 | 2 40126 051.6451 282.1494 0001224 153.9190 327.3318 15.55145838 42732 | 2014/10/03-11:07:03  135.4434  121.2432  327.3242   92.5958     6779.8657     6779.0359     6780.6956  10.869306 -50.488360   0.000029   0.000119
1 40126U 98067EY  14277.49424514  .00078771  00000-0  11351-2 0  9990 | 2 40126 051.6450 277.0031 0001815 158.3397 339.2019 15.55312703 42899 | 2014/10/04-11:51:42  136.4780  137.5342  339.1945   92.5859     6779.3808     6778.1503     6780.6113   6.296716 -51.259705   0.000046   0.000176
1 40126U 98067EY  14278.57883255  .00079654  00000-0  11404-2 0  9991 | 2 40126 051.6452 271.5878 0001838 160.0081 294.6469 15.55485830 43069 | 2014/10/05-13:53:31  216.3004   94.6359  294.6278   92.5756     6778.8777     6777.6318     6780.1237   1.431026 -51.625370   0.000058   0.000174
1 40126U 98067EY  14279.85993659  .00079542  00000-0  11305-2 0  9999 | 2 40126 051.6444 265.1876 0001947 157.4756 276.2483 15.55685355 43265 | 2014/10/06-20:38:18  346.0919   73.7017  276.2261   92.5637     6778.2981     6776.9784     6779.6179  -4.332630 -51.462339   0.000089   0.000173
1 40126U 98067EY  14281.14683491  .00078173  00000-0  11035-2 0  9993 | 2 40126 051.6438 258.7546 0001845 165.5261 280.6179 15.55877089 43468 | 2014/10/08-03:31:26   84.6566   86.1232  280.5971   92.5523     6777.7412     6776.4907     6778.9917 -10.071139 -50.652288   0.000080   0.000166
1 40126U 98067EY  14282.24248031  .00076722  00000-0  10770-2 0  9995 | 2 40126 051.6438 253.2782 0001914 162.9572 304.4176 15.56036243 43634 | 2014/10/09-05:49:10  104.4144  107.3567  304.3995   92.5428     6777.2791     6775.9819     6778.5762 -14.859209 -49.459943   0.000106   0.000159
1 40126U 98067EY  14283.40402559  .00078481  00000-0  10937-2 0  9990 | 2 40126 051.6441 247.4697 0001737 171.3227 327.4605 15.56223533 43814 | 2014/10/10-09:41:47  138.1157  138.7725  327.4498   92.5317     6776.7353     6775.5582     6777.9124 -19.788571 -47.702469   0.000090   0.000149
1 40126U 98067EY  14284.42076455  .00082444  00000-0  11402-2 0  9997 | 2 40126 051.6437 242.3834 0001907 166.3899 272.7820 15.56406618 43979 | 2014/10/11-10:05:54  209.8415   79.1501  272.7602   92.5208     6776.2038     6774.9116     6777.4961 -23.939580 -45.759898   0.000126   0.000143
1 40126U 98067EY  14285.51797750  .00083643  00000-0  11487-2 0  9991 | 2 40126 051.6450 236.8954 0001830 173.4218 297.9376 15.56589332 44144 | 2014/10/12-12:25:53  219.2201  111.3409  297.9191   92.5099     6775.6736     6774.4336     6776.9135 -28.206909 -43.261719   0.000117   0.000141
1 40126U 98067EY  14286.86383561  .00076098  00000-0  10398-2 0  9997 | 2 40126 051.6433 230.1571 0003445 185.4572 273.0327 15.56762884 44356 | 2014/10/13-20:43:55    4.6634   98.4505  272.9933   92.4996     6775.1700     6772.8359     6777.5040 -33.087076 -39.651934   0.000195   0.000284
1 40126U 98067EY  14288.14900741  .00070807  00000-0  96307-3 0  9992 | 2 40126 051.6433 223.7265 0002033 186.6347 279.4339 15.56921925 44557 | 2014/10/15-03:34:34  107.4439  106.0456  279.4109   92.4902     6774.7086     6773.3313     6776.0859 -37.319903 -35.696712   0.000130   0.000157
1 40126U 98067EY  14289.24199015  .00070372  00000-0  95184-3 0  9997 | 2 40126 051.6432 218.2556 0002453 189.8157 286.7080 15.57073408 44726 | 2014/10/16-05:48:27  137.0107  116.4968  286.6811   92.4812     6774.2692     6772.6074     6775.9309 -40.553154 -31.975956   0.000164   0.000182
1 40126U 98067EY  14290.77844488  .00077025  00000-0  10304-2 0  9990 | 2 40126 051.6441 210.5543 0002131 183.4598 272.1508 15.57330047 44964 | 2014/10/17-18:40:57    0.2632   95.5862  272.1264   92.4659     6773.5249     6772.0815     6774.9684 -44.473202 -26.253522   0.000177   0.000119
1 40126U 98067EY  14291.79423459  .00079718  00000-0  10592-2 0  9994 | 2 40126 051.6439 205.4710 0002015 189.2802 205.3520 15.57497874 45126 | 2014/10/18-19:03:41   73.0104   34.6223  205.3421   92.4560     6773.0383     6771.6736     6774.4031 -46.624271 -22.209676   0.000166   0.000115
1 40126U 98067EY  14292.83426036  .00078107  00000-0  10322-2 0  9996 | 2 40126 051.6432 200.2594 0002778 194.7443 275.4325 15.57650195 45285 | 2014/10/19-20:01:20   18.1118  110.1451  275.4008   92.4469     6772.5968     6770.7153     6774.4782 -48.448270 -17.882541   0.000228   0.000159
1 40126U 98067EY  14294.18220868  .00079527  00000-0  10421-2 0  9998 | 2 40126 051.6423 193.5033 0003153 199.7005 274.7463 15.57868237 45490 | 2014/10/21-04:22:22  147.1879  114.4108  274.7103   92.4340     6771.9648     6769.8296     6774.1000 -50.214725 -12.058548   0.000264   0.000173
1 40126U 98067EY  14295.78518954  .00089354  00000-0  11549-2 0  9992 | 2 40126 051.6428 185.4681 0003799 206.2234 265.2792 15.58181273 45745 | 2014/10/22-18:50:40   16.8204  111.4592  265.2358   92.4154     6771.0578     6768.4855     6773.6301 -51.407795  -4.921122   0.000323   0.000200
1 40126U 98067EY  14296.79142648  .00072530  00000-0  93312-3 0  9994 | 2 40126 051.6400 180.4315 0003583 219.4335 140.6909 15.58395324 45901 | 2014/10/23-18:59:39  136.4723    0.1504  140.7169   92.4027     6770.4378     6768.0119     6772.8636 -51.638536  -0.388902   0.000275   0.000230
1 40126U 98067EY  14297.82616340  .00097130  00000-0  12345-2 0  9993 | 2 40126 051.6436 175.2276 0002719 232.6331 176.8215 15.58591165 46061 | 2014/10/24-19:49:40  105.8712   49.4563  176.8232   92.3911     6769.8706     6768.0299     6771.7113 -51.464554   4.296635   0.000182   0.000202
1 40126U 98067EY  14299.12380269  .00101960  00000-0  12811-2 0  9991 | 2 40126 051.6457 168.7220 0004070 211.6669 284.3341 15.58868591 46260 | 2014/10/26-02:58:16  134.2595  135.9558  284.2889   92.3747     6769.0674     6766.3124     6771.8224 -50.648412  10.100329   0.000382   0.000142
1 40126U 98067EY  14300.27281490  .00107681  00000-0  13385-2 0  9999 | 2 40126 051.6430 162.9471 0003754 227.9837 241.0893 15.59129520 46445 | 2014/10/27-06:32:51  221.7393  109.0354  241.0517   92.3592     6768.3121     6765.7713     6770.8530 -49.372485  15.144543   0.000322   0.000193
1 40126U 98067EY  14301.80218249  .00110505  00000-0  13555-2 0  9999 | 2 40126 051.6428 155.2629 0003614 234.1268 185.7567 15.59467876 46682 | 2014/10/28-19:15:08  110.6928   59.8793  185.7525   92.3392     6767.3331     6764.8874     6769.7788 -46.903923  21.610201   0.000315   0.000177
1 40126U 98067EY  14302.83256848  .00112420  00000-0  13663-2 0  9998 | 2 40126 051.6425 150.0901 0004085 232.6960 216.1625 15.59700217 46841 | 2014/10/29-19:58:53   98.8451   88.8309  216.1349   92.3254     6766.6610     6763.8968     6769.4252 -44.764267  25.750888   0.000377   0.000158
1 40126U 98067EY  14303.99866591  .00110692  00000-0  13333-2 0  9991 | 2 40126 051.6409 144.2215 0004164 235.2655 285.9663 15.59943565 47026 | 2014/10/30-23:58:04   93.2849  161.1859  285.9204   92.3110     6765.9573     6763.1399     6768.7746 -41.895398  30.192022   0.000393   0.000139
1 40126U 98067EY  14305.20731837  .00106208  00000-0  12687-2 0  9990 | 2 40126 051.6410 138.1451 0004475 251.2913 222.4428 15.60179420 47211 | 2014/11/01-04:58:32  223.1652  113.6995  222.4082   92.2971     6765.2754     6762.2479     6768.3028 -38.464127  34.457275   0.000390   0.000220
1 40126U 98067EY  14306.41699102  .00101333  00000-0  12014-2 0  9990 | 2 40126 051.6414 132.0582 0003446 268.9256 164.0223 15.60401450 47401 | 2014/11/02-10:00:28  346.7127   72.9588  164.0332   92.2839     6764.6336     6762.3025     6766.9647 -34.593806  38.341919   0.000260   0.000226
1 40126U 98067EY  14307.76522793  .00096974  00000-0  11400-2 0  9992 | 2 40126 051.6408 125.2653 0004503 264.3292 187.8163 15.60639854 47612 | 2014/11/03-18:21:55  101.0022   92.1385  187.8093   92.2698     6763.9447     6760.8989     6766.9905 -29.815500  42.164063   0.000392   0.000222
1 40126U 98067EY  14309.11226976  .00090551  00000-0  10567-2 0  9995 | 2 40126 051.6406 118.4901 0004873 275.4484 190.2645 15.60859482 47823 | 2014/11/05-02:41:40  220.4728  105.7030  190.2546   92.2569     6763.3101     6760.0144     6766.6059 -24.632923  45.386900   0.000404   0.000272
1 40126U 98067EY  14310.45299444  .00092171  00000-0  10650-2 0  9997 | 2 40126 051.6395 111.7337 0004500 283.5350 161.5206 15.61110564 48038 | 2014/11/06-10:52:18   11.8688   85.0719  161.5369   92.2420     6762.5849     6759.5418     6765.6281 -19.121755  47.968703   0.000367   0.000260
1 40126U 98067EY  14311.46860620  .00103207  00000-0  11786-2 0  9993 | 2 40126 051.6402 106.6182 0004391 290.5527 106.7558 15.61365620 48193 | 2014/11/07-11:14:47   71.3527   37.3567  106.8040   92.2270     6761.8485     6758.8793     6764.8176 -14.768724  49.483281   0.000350   0.000265
1 40126U 98067EY  14312.69483271  .00107174  00000-0  12103-2 0  9993 | 2 40126 051.6394 100.4358 0005249 304.0688 150.9656 15.61633850 48386 | 2014/11/08-16:40:33  102.4594   95.0636  150.9948   92.2111     6761.0741     6757.5253     6764.6230  -9.353634  50.785206   0.000374   0.000368
1 40126U 98067EY  14314.04100818  .00105895  00000-0  11835-2 0  9996 | 2 40126 051.6397 093.6473 0005082 313.9817 154.7731 15.61907770 48592 | 2014/11/10-00:59:03  221.4775  108.7796  154.7979   92.1949     6760.2836     6756.8481     6763.7192  -3.285029  51.535106   0.000342   0.000375
1 40126U 98067EY  14315.38197847  .00108136  00000-0  11947-2 0  9997 | 2 40126 051.6400 086.8836 0004752 316.9138 137.6901 15.62197566 48804 | 2014/11/11-09:10:02    6.4631   94.6405  137.7267   92.1778     6759.4476     6756.2355     6762.6597   2.807389  51.563632   0.000343   0.000329
1 40126U 98067EY  14316.53351478  .00112813  00000-0  12326-2 0  9996 | 2 40126 051.6438 081.0822 0003623 317.4134 138.2842 15.62468423 48988 | 2014/11/12-12:48:15   66.8589   95.7252  138.3118   92.1619     6758.6664     6756.2177     6761.1150   8.005683  51.019517   0.000284   0.000226
1 40126U 98067EY  14317.87656368  .00117982  00000-0  12714-2 0  9993 | 2 40126 051.6403 074.2932 0005530 332.9147 123.1176 15.62790589 49199 | 2014/11/13-21:02:15  198.1346   96.0854  123.1707   92.1429     6757.7375     6754.0004     6761.4745  13.979788  49.712032   0.000376   0.000406
1 40126U 98067EY  14318.89917977  .00122746  00000-0  13087-2 0  9990 | 2 40126 051.6414 069.1348 0003832 336.6396 117.0791 15.63052465 49353 | 2014/11/14-21:34:49  214.7563   93.7578  117.1182   92.1274     6756.9827     6754.3934     6759.5719  18.393144  48.254807   0.000267   0.000275
1 40126U 98067EY  14320.29419941  .00189845  00000-0  19529-2 0  9995 | 2 40126 051.6390 062.0725 0007799 347.0619 043.7000 15.63692663 49579 | 2014/11/16-07:03:38   68.3575   30.8237   43.7618   92.0897     6755.1383     6749.8699     6760.4066  24.185329  45.625171   0.000510   0.000590
1 40126U 98067EY  14321.77181866  .00149676  00000-0  15252-2 0  9998 | 2 40126 051.6376 054.6004 0007974 350.7123 084.4366 15.64074775 49808 | 2014/11/17-18:31:25  204.8419   75.2399   84.5276   92.0672     6754.0380     6748.6523     6759.4237  29.912396  42.091452   0.000561   0.000567
1 40126U 98067EY  14323.17884113  .00192483  00000-0  19092-2 0  9999 | 2 40126 051.6380 047.4815 0009982 358.9836 085.1132 15.64583587 50026 | 2014/11/19-04:17:31  350.9279   84.2108   85.2272   92.0373     6752.5736     6745.8332     6759.3140  34.898418  38.060261   0.000688   0.000724
1 40126U 98067EY  14324.20203356  .00175929  00000-0  17299-2 0  9991 | 2 40126 051.6407 042.2932 0005247 000.9938 090.6516 15.64901276 50189 | 2014/11/20-04:50:55  357.9253   91.7055   90.7117   92.0186     6751.6597     6748.1171     6755.2023  38.199192  34.750304   0.000382   0.000360
1 40126U 98067EY  14325.46292477  .00130967  00000-0  12939-2 0  9991 | 2 40126 051.6384 035.9111 0007992 006.2552 353.9063 15.65163264 50495 | 2014/11/21-11:06:36  190.9550    0.1518  353.8966   92.0032     6750.9063     6745.5109     6756.3016  41.823387  30.287433   0.000592   0.000536
1 40126U 98067EY  14327.13891847  .00135981  00000-0  13061-2 0  9991 | 2 40126 051.6403 027.4144 0008318 014.3924 076.9727 15.65611000 50647 | 2014/11/23-03:20:02  353.2577   91.4580   77.0656   91.9769     6749.6191     6744.0048     6755.2334  45.841079  23.776377   0.000620   0.000554
1 40126U 98067EY  14328.14902522  .00136808  00000-0  12999-2 0  9994 | 2 40126 051.6404 022.2890 0008176 016.8850 011.9304 15.65879692 50807 | 2014/11/24-03:34:35   65.5669   28.8348   11.9498   91.9611     6748.8470     6743.3291     6754.3648  47.781961  19.586095   0.000634   0.000516
1 40126U 98067EY  14329.43803509  .00131930  00000-0  12387-2 0  9994 | 2 40126 051.6401 015.7478 0008452 025.6093 075.0578 15.66192049 51009 | 2014/11/25-10:30:46  105.5704  100.7607   75.1514   91.9427     6747.9496     6742.2463     6753.6530  49.701823  14.015304   0.000634   0.000558
1 40126U 98067EY  14330.46571288  .00131246  00000-0  12197-2 0  9994 | 2 40126 051.6400 010.5271 0008338 027.6921 111.6668 15.66451480 51168 | 2014/11/26-11:10:37   83.0763  139.4477  111.7556   91.9275     6747.2045     6741.5787     6752.8304  50.770827   9.434657   0.000655   0.000516
1 40126U 98067EY  14331.54710853  .00131751  00000-0  12104-2 0  9996 | 2 40126 051.6392 005.0344 0008935 031.3997 090.7957 15.66728077 51332 | 2014/11/27-13:07:50  136.1008  122.2978   90.8981   91.9113     6746.4104     6740.3825     6752.4383  51.439986   4.531538   0.000719   0.000531
1 40126U 98067EY  14332.56989237  .00133560  00000-0  12132-2 0  9994 | 2 40126 051.6390 359.8362 0009281 035.4209 099.8723 15.66998479 51499 | 2014/11/28-13:40:38  137.4115  135.3980   99.9771   91.8954     6745.6343     6739.3736     6751.8949  51.638789  -0.147628   0.000758   0.000536
1 40126U 98067EY  14333.57993063  .00211785  00000-0  18601-2 0  9991 | 2 40126 051.6338 354.6984 0011149 031.4271 046.8018 15.67533728 51655 | 2014/11/29-13:55:06  204.2229   78.3221   46.8950   91.8641     6744.0986     6736.5796     6751.6176  51.412917  -4.770880   0.001001   0.000491
1 40126U 98067EY  14334.60118178  .00243287  00000-0  20769-2 0  9992 | 2 40126 051.6395 349.5093 0009359 047.3790 039.2047 15.68152638 51818 | 2014/11/30-14:25:42  209.7142   86.6516   39.2726   91.8278     6742.3240     6736.0139     6748.6342  50.776319  -9.402310   0.000749   0.000562
1 40126U 98067EY  14336.00399688  .00121277  00000-0  10402-2 0  9992 | 2 40126 051.6411 342.3259 0011335 044.7587 047.0590 15.68427453 52039 | 2014/12/02-00:05:45  358.0597   91.9129   47.1542   91.8117     6741.5364     6733.8949     6749.1779  49.203579 -15.678361   0.001009   0.000516
1 40126U 98067EY  14337.02490497  .00116186  00000-0  98867-3 0  9990 | 2 40126 051.6412 337.1430 0010586 051.8887 048.5651 15.68649998 52193 | 2014/12/03-00:35:51    3.1397  100.5448   48.6561   91.7987     6740.8988     6733.7629     6748.0347  47.586187 -20.059120   0.000926   0.000514
1 40126U 98067EY  14338.16786191  .00260282  00000-0  21240-2 0  9992 | 2 40126 051.6387 331.3402 0009050 063.3384 016.9754 15.69201296 52372 | 2014/12/04-04:01:43   81.6735   80.3441   17.0057   91.7664     6739.3199     6733.2208     6745.4189  45.312075 -24.766331   0.000744   0.000515
1 40126U 98067EY  14339.25332067  .00179211  00000-0  14570-2 0  9991 | 2 40126 051.6366 325.8005 0009226 069.4291 027.5097 15.69548565 52545 | 2014/12/05-06:04:46  102.4233   96.9877   27.5586   91.7461     6738.3258     6732.1090     6744.5425  42.707882 -29.023702   0.000754   0.000532
1 40126U 98067EY  14341.54588201  .00176291  00000-0  13888-2 0  9995 | 2 40126 051.6399 314.0970 0010686 068.7338 033.6351 15.70298900 52906 | 2014/12/07-13:06:04  216.2784  102.4368   33.7030   91.7023     6736.1791     6728.9808     6743.3774  35.934925 -37.085852   0.000985   0.000415
1 40126U 98067EY  14342.94627638  .00230569  00000-0  17522-2 0  9996 | 2 40126 051.6358 306.9364 0009191 084.9865 021.3429 15.71005070 53122 | 2014/12/08-22:42:38    5.0008  106.3678   21.3813   91.6611     6734.1603     6727.9709     6740.3497  31.029405 -41.272652   0.000780   0.000486
1 40126U 98067EY  14344.08720038  .00231252  00000-0  17209-2 0  9993 | 2 40126 051.6347 301.0995 0009027 093.0451 351.2457 15.71503667 53307 | 2014/12/10-02:05:34   84.7335   84.2750  351.2299   91.6320     6732.7358     6726.6582     6738.8135  26.670658 -44.213327   0.000747   0.000507
1 40126U 98067EY  14345.36842544  .00232859  00000-0  16917-2 0  9991 | 2 40126 051.6343 294.5439 0009072 098.9500 039.8996 15.72068566 53505 | 2014/12/11-08:50:31  139.2341  138.9163   39.9663   91.5991     6731.1229     6725.0164     6737.2294  21.448389 -46.968793   0.000757   0.000501
1 40126U 98067EY  14346.44140169  .00236644  00000-0  16830-2 0  9995 | 2 40126 051.6348 289.0468 0009432 105.9141 350.4029 15.72554755 53678 | 2014/12/12-10:35:37  214.5928   96.2990  350.3849   91.5707     6729.7354     6723.3879     6736.0829  16.850519 -48.807915   0.000773   0.000540
1 40126U 98067EY  14347.82734690  .00272631  00000-0  18671-2 0  9997 | 2 40126 051.6361 281.9542 0008681 131.1944 258.7166 15.73339854 53892 | 2014/12/13-19:51:22   68.3978   29.8135  258.6191   91.5250     6727.4965     6721.6563     6733.3366  10.695372 -50.516293   0.000521   0.000695
1 40126U 98067EY  14349.04450046  .00383136  00000-0  24762-2 0  9994 | 2 40126 051.6321 275.6974 0009707 123.3141 327.9636 15.74358804 54089 | 2014/12/15-01:04:04   92.6628   91.2186  327.9045   91.4658     6724.5934     6718.0658     6731.1210   5.125756 -51.377041   0.000754   0.000611
1 40126U 98067EY  14350.06035075  .00472911  00000-0  28996-2 0  9992 | 2 40126 051.6354 270.4642 0009197 128.2318 326.4021 15.75328426 54241 | 2014/12/16-01:26:54  101.2472   94.5755  326.3437   91.4095     6721.8338     6715.6517     6728.0158   0.418336 -51.633705   0.000718   0.000575
1 40126U 98067EY  14351.14839788  .00498132  00000-0  29124-2 0  9992 | 2 40126 051.6356 264.8640 0010098 135.2406 016.0715 15.76337111 54419 | 2014/12/17-03:33:41   82.9386  151.3442   16.1036   91.3510     6718.9660     6712.1812     6725.7508  -4.622425 -51.428284   0.000772   0.000650
1 40126U 98067EY  14352.27664476  .00507742  00000-0  28346-2 0  9990 | 2 40126 051.6320 259.0512 0010212 158.0911 282.0694 15.77355915 54599 | 2014/12/18-06:38:22  207.1839   80.0460  281.9549   91.2920     6716.0725     6709.2140     6722.9310  -9.806555 -50.692158   0.000554   0.000858
1 40126U 98067EY  14353.73680616  .00511690  00000-0  26940-2 0  9991 | 2 40126 051.6354 251.5005 0009900 151.9039 308.4926 15.78661614 54829 | 2014/12/19-17:41:00    1.5959  100.3076  308.4037   91.2165     6712.3688     6705.7235     6719.0140 -16.383726 -48.967214   0.000719   0.000680
1 40126U 98067EY  14354.81454111  .00518158  00000-0  25821-2 0  9993 | 2 40126 051.6292 245.9191 0010888 161.4964 310.3387 15.79848037 54991 | 2014/12/20-19:32:56   24.7856  111.7399  310.2435   91.1480     6709.0078     6701.7031     6716.3126 -21.066063 -47.135923   0.000737   0.000802
1 40126U 98067EY  14356.51285456  .00784155  00000-0  34031-2 0  9991 | 2 40126 051.6318 237.1145 0010923 172.3066 252.1470 15.82183587 55269 | 2014/12/22-12:18:30  334.0385   64.3345  252.0279   91.0135     6702.4038     6695.0828     6709.7249 -28.034103 -43.358181   0.000711   0.000830
1 40126U 98067EY  14357.65473398  .00767695  00000-0  31011-2 0  9996 | 2 40126 051.6311 231.1775 0012369 180.0517 275.9786 15.83735926 55442 | 2014/12/23-15:42:49    0.6009   95.8893  275.8376   90.9242     6698.0234     6689.7386     6706.3082 -32.368043 -40.225369   0.000775   0.000964
1 40126U 98067EY  14358.72948315  .00782252  00000-0  29469-2 0  9991 | 2 40126 051.6307 225.5537 0010863 188.1765 282.3511 15.85187957 55615 | 2014/12/24-17:30:27   19.6964  110.4060  282.2295   90.8410     6693.9325     6686.6609     6701.2042 -36.153906 -36.859521   0.000643   0.000876
1 40126U 98067EY  14359.85963727  .00720333  00000-0  25530-2 0  9997 | 2 40126 051.6286 219.6566 0010836 195.4384 251.6401 15.86597413 55794 | 2014/12/25-20:37:52   97.0120   86.9607  251.5223   90.7603     6689.9676     6682.7183     6697.2168 -39.747991 -32.948590   0.000620   0.000889
1 40126U 98067EY  14361.00363117  .00743837  00000-0  24456-2 0  9994 | 2 40126 051.6272 213.6609 0010226 203.2229 305.4710 15.88081094 55976 | 2014/12/27-00:05:13   94.3577  148.5984  305.3755   90.6755     6685.8002     6678.9633     6692.6371 -42.971000 -28.615746   0.000559   0.000856
1 40126U 98067EY  14362.07082925  .00706261  20648-3  23565-2 0  9990 | 2 40126 051.6256 208.0565 0010595 211.0377 285.8811 15.89541119 56140 | 2014/12/28-01:41:59  136.9804  136.8020  285.7643   90.5922     6681.7055     6674.6262     6688.7848 -45.558777 -24.281689   0.000544   0.000909
1 40126U 98067EY  14363.07813005  .00777915  25599-3  24208-2 0  9991 | 2 40126 051.6278 202.7656 0011246 211.1851 295.7275 15.90898861 56301 | 2014/12/29-01:52:30  135.8986  146.7964  295.6113   90.5149     6677.9033     6670.3934     6685.4133 -47.605770 -19.977999   0.000662   0.000909
1 40126U 98067EY  14364.38179362  .00960296  41271-3  26440-2 0  9998 | 2 40126 051.6276 195.8892 0010421 214.1103 209.8227 15.93287890 56513 | 2014/12/30-09:09:46  336.3584   63.8737  209.7634   90.3791     6671.2263     6664.2742     6678.1784 -49.655061 -14.134497   0.000670   0.000798
1 40126U 98067EY  14365.45127794  .00930901  39688-3  23073-2 0  9997 | 2 40126 051.6252 190.2226 0010545 230.3947 216.1057 15.95249338 56687 | 2014/12/31-10:49:50  345.5261   86.4293  216.0346   90.2680     6665.7567     6658.7277     6672.7858 -50.805685  -9.162076   0.000517   0.000919
1 40126U 98067EY  15001.50038473  .01177270  69247-3  25701-2 0  9993 | 2 40126 051.6321 184.6675 0008197 259.0892 101.0134 15.97670100 56850 | 2015/01/01-12:00:33   96.1915    0.1948  101.1056   90.1312     6659.0218     6653.5634     6664.4802 -51.460873  -4.201468   0.000089   0.000815
1 40126U 98067EY  15002.56286729  .01276370  87042-3  24180-2 0  9993 | 2 40126 051.6245 178.9926 0009416 263.8162 096.1854 16.00199181 57021 | 2015/01/02-13:30:31  125.5084    0.1089   96.2927   89.9888     6652.0036     6645.7401     6658.2672 -51.616521   0.907638   0.000118   0.000934
1 40126U 98067EY  15003.68591746  .01502219  13636-2  23899-2 0  9992 | 2 40126 051.6209 172.9873 0009101 263.6586 096.4059 16.03307851 57203 | 2015/01/03-16:27:43  176.8558    0.1681   96.5095   89.8143     6643.4024     6637.3563     6649.4486 -51.234730   6.302362   0.000210   0.000885
1 40126U 98067EY  15004.80640446  .01963384  30396-2  24892-2 0  9999 | 2 40126 051.6252 166.9634 0008785 286.1457 073.8624 16.07436455 57386 | 2015/01/04-19:21:13  227.4158    0.1048   73.9591   89.5836     6632.0221     6626.1959     6637.8483 -50.294621  11.645273  -0.000048   0.000877
1 40126U 98067EY  15005.86123378  .03148289  18678-1  30728-2 0  9990 | 2 40126 051.6208 161.2476 0009584 298.9240 061.0722 16.14041641 57552 | 2015/01/05-20:40:10  253.9217    0.0924   61.1684   89.2170     6613.9161     6607.5774     6620.2549 -48.880596  16.595010  -0.000169   0.000943
1 40126U 98067EY  15007.15550546  .10025304  00000-0  17428-2 0  9996 | 2 40126 051.6043 154.2203 0003467 116.5380 243.4959 16.32051036 57875 | 2015/01/07-03:43:55    8.1248  359.9984  243.4604   88.2325     6565.1706     6562.8945     6567.4468 -46.468275  22.443334   0.000005  -0.000347
