# SPACE DATA - HISTORICAL TLEs
# ----------------------------
# NORAD_ID    : 39132
# OBJECT_NAME : DOVE 2
# --------------------------------------------------------------------+-----------------------------------------------------------------------+----------------------------------------------------------------------------------------------------------------------------------------
#                  LINE 1                                             |                 LINE 2                                                |      DERIVED PARAMETERS
# --------------------------------------------------------------------+-----------------------------------------------------------------------+----------------------------------------------------------------------------------------------------------------------------------------
# NORAD  COSPAR     TLE_EPOCH      MEANMOT1 MEANMOT2   BSTAR  #  REV  |   NORAD    INC     RAAN     ECC    ARGPER  MEANANOM   MEANMOT     REV |  CAL_DATE              LONG     ARGLAT     PERIOD        SMA         PERIGEE        APOGEE      INC_X      INC_Y      ECC_X      ECC_Y
# ------ ------   -------------- ----------  -------  ------- -- ----     -----  ------- -------- ------- -------- -------- -----------  ----   ------------------- ---------  --------  --------  ------------  ------------   ----------- ---------- ----------  ---------  ---------   
1 40134U 98067FD  14236.44690377 -.00035979  00000-0 -60505-3 0  9992 | 2 40134 051.6542 121.2487 0008008 071.8126 117.3230 15.50883928 36682 | 2014/08/24-10:43:32  183.1373  189.2171  117.4045   92.8503     6792.2810     6786.8417     6797.7203 -26.795816  44.160397  -0.000780  -0.000181
1 40134U 98067FD  14237.64458948  .00028788  00000-0  49258-3 0  9991 | 2 40134 051.6497 115.3031 0007348 075.1092 325.6658 15.50991505 36875 | 2014/08/25-15:28:12   49.7908   40.7275  325.6183   92.8438     6791.9669     6786.9762     6796.9577 -22.075432  46.694398  -0.000723  -0.000133
1 40134U 98067FD  14239.76354659  .00024773  00000-0  41638-3 0  9994 | 2 40134 051.6443 104.7869 0007563 078.1170 282.1186 15.51085535 37205 | 2014/08/27-18:19:30  145.7596    0.1508  282.0338   92.8382     6791.6924     6786.5559     6796.8290 -13.180901  49.933932  -0.000755  -0.000038
1 40134U 98067FD  14241.50300124  .00042621  00000-0  71220-3 0  9999 | 2 40134 051.6433 096.1625 0006756 087.9683 272.2596 15.51254995 37470 | 2014/08/29-12:04:19   62.3098    0.1505  272.1822   92.8281     6791.1978     6786.6097     6795.7859  -5.543839  51.344876  -0.000674  -0.000049
1 40134U 98067FD  14242.74316382  .00038059  00000-0  64001-3 0  9998 | 2 40134 051.6463 089.9997 0007121 084.9056 005.7583 15.51339626 37664 | 2014/08/30-17:50:09   65.7175   90.6721    5.7665   92.8230     6790.9508     6786.1150     6795.7866   0.000270  51.646300  -0.000709   0.000063
1 40134U 98067FD  14243.77690416  .00038662  00000-0  64811-3 0  9994 | 2 40134 051.6463 084.8652 0007013 091.8770 016.0135 15.51420844 37825 | 2014/08/31-18:38:44   66.7908  107.9127   16.0357   92.8181     6790.7138     6785.9515     6795.4761   4.622305  51.439038  -0.000700   0.000040
1 40134U 98067FD  14244.80837691  .00033674  00000-0  56493-3 0  9992 | 2 40134 051.6465 079.7486 0006839 101.3794 011.1887 15.51467853 37981 | 2014/09/01-19:24:03   79.5767  112.5833   11.2039   92.8153     6790.5766     6785.9325     6795.2207   9.191403  50.822033  -0.000684  -0.000013
1 40134U 98067FD  14245.84219818  .00031933  00000-0  53510-3 0  9995 | 2 40134 051.6467 074.6160 0006840 102.9829 027.6754 15.51527951 38144 | 2014/09/02-20:12:45   79.8137  130.6947   27.7118   92.8117     6790.4013     6785.7566     6795.0459  13.701192  49.796174  -0.000683   0.000029
1 40134U 98067FD  14247.49343446  .00045001  00000-0  74039-3 0  9993 | 2 40134 051.6455 066.4222 0006994 106.3481 253.8800 15.51686986 38409 | 2014/09/04-11:50:32   94.5103    0.1511  253.8030   92.8022     6789.9373     6785.1884     6794.6862  20.657887  47.334019  -0.000694   0.000088
1 40134U 98067FD  14248.86387775  .00031480  00000-0  52128-3 0  9999 | 2 40134 051.6447 059.6134 0006313 107.3954 354.0710 15.51871664 38613 | 2014/09/05-20:43:59  134.7912  101.4589  354.0635   92.7912     6789.3986     6785.1124     6793.6847  26.123543  44.550371  -0.000615   0.000142
1 40134U 98067FD  14251.05265286  .00049272  00000-0  80359-3 0  9991 | 2 40134 051.6467 048.7321 0005815 115.3498 343.1962 15.52088410 38955 | 2014/09/08-01:15:49  218.7093   98.5267  343.1769   92.7782     6788.7665     6784.8188     6792.7142  34.065165  38.819404  -0.000559   0.000159
1 40134U 98067FD  14252.70905206  .00046781  00000-0  75526-3 0  9999 | 2 40134 051.6442 040.5069 0005589 122.7048 237.4998 15.52224038 39210 | 2014/09/09-17:01:02  203.2122    0.1506  237.4458   92.7701     6788.3710     6784.5770     6792.1651  39.266518  33.544954  -0.000535   0.000161
1 40134U 98067FD  14266.63136976  .00046360  00000-0  71911-3 0  9993 | 2 40134 051.6501 331.2397 0003724 148.7349 333.7736 15.53518379 41376 | 2014/09/23-15:09:10  135.9324  122.4896  333.7547   92.6928     6784.5999     6782.0734     6787.1265  45.278558 -24.851258  -0.000186   0.000323
1 40134U 98067FD  14268.60355900  .00048889  00000-0  74867-3 0  9993 | 2 40134 051.6446 321.4158 0003410 164.7602 195.4009 15.53695851 41953 | 2014/09/25-14:29:07  260.0357    0.1507  195.3905   92.6822     6784.0833     6781.7699     6786.3967  40.370196 -32.208881  -0.000201   0.000275
1 40134U 98067FD  14270.56068546  .00048887  00000-0  74745-3 0  9991 | 2 40134 051.6470 311.6608 0004417 171.1941 343.7363 15.53889423 41981 | 2014/09/27-13:27:23  101.5160  154.9162  343.7221   92.6707     6783.5199     6780.5236     6786.5161  34.330761 -38.585119  -0.000240   0.000371
1 40134U 98067FD  14271.96084464  .00053943  00000-0  81845-3 0  9991 | 2 40134 051.6476 304.6798 0002992 175.5562 257.6190 15.54063236 42206 | 2014/09/28-23:03:36  335.6895   73.1417  257.5855   92.6603     6783.0141     6780.9846     6785.0435  29.386949 -42.472130  -0.000151   0.000258
1 40134U 98067FD  14273.24731508  .00058361  00000-0  87879-3 0  9994 | 2 40134 051.6473 298.2668 0004748 177.0556 258.7149 15.54231025 42409 | 2014/09/30-05:56:08   83.9046   75.7172  258.6616   92.6503     6782.5259     6779.3055     6785.7462  24.459022 -45.488458  -0.000203   0.000429
1 40134U 98067FD  14274.47583394  .00063840  00000-0  95391-3 0  9994 | 2 40134 051.6454 292.1401 0003284 172.7955 301.8753 15.54410346 42591 | 2014/10/01-11:25:12  134.6087  114.6388  301.8433   92.6396     6782.0042     6779.7770     6784.2314  19.463738 -47.837331  -0.000085   0.000317
1 40134U 98067FD  14276.08097927  .00069717  00000-0  10311-2 0  9992 | 2 40134 051.6463 284.1417 0004386 178.4838 285.1214 15.54650508 42846 | 2014/10/03-01:56:36   13.1071  103.5567  285.0729   92.6253     6781.3057     6778.3315     6784.2800  12.618266 -50.081131  -0.000096   0.000428
1 40134U 98067FD  14277.23584404  .00070855  00000-0  10414-2 0  9990 | 2 40134 051.6460 278.3769 0003968 182.1340 269.5832 15.54815375 43021 | 2014/10/04-05:39:36   87.6495   91.6717  269.5377   92.6155     6780.8264     6778.1357     6783.5170   7.524005 -51.094997  -0.000072   0.000390
1 40134U 98067FD  14278.46442527  .00070468  00000-0  10295-2 0  9992 | 2 40134 051.6459 272.2445 0003399 188.5376 304.8705 15.54984068 43219 | 2014/10/05-11:08:46  135.5912  133.3761  304.8385   92.6055     6780.3359     6778.0313     6782.6406   2.022655 -51.606277  -0.000064   0.000334
1 40134U 98067FD  14279.80130962  .00070369  00000-0  10211-2 0  9996 | 2 40134 051.6455 265.5711 0003280 189.6363 232.9742 15.55169257 43424 | 2014/10/06-19:13:53  335.6583   62.5805  232.9442   92.5944     6779.7977     6777.5739     6782.0214  -3.988165 -51.491283  -0.000030   0.000327
1 40134U 98067FD  14281.15516640  .00069096  00000-0  99636-3 0  9992 | 2 40134 051.6456 258.8083 0003322 192.2829 255.4740 15.55348258 43637 | 2014/10/08-03:43:26   85.9975   87.7201  255.4372   92.5838     6779.2775     6777.0254     6781.5296 -10.024010 -50.663470  -0.000006   0.000332
1 40134U 98067FD  14282.18360869  .00067836  00000-0  97376-3 0  9995 | 2 40134 051.6450 253.6711 0003091 195.6843 254.6135 15.55480612 43795 | 2014/10/09-04:24:23   99.8467   90.2637  254.5794   92.5759     6778.8929     6776.7976     6780.9883 -14.520033 -49.561827   0.000003   0.000309
1 40134U 98067FD  14283.40117138  .00069571  00000-0  99182-3 0  9995 | 2 40134 051.6455 247.5889 0003344 198.1998 235.0716 15.55655978 43986 | 2014/10/10-09:37:41  202.4780   73.2400  235.0402   92.5655     6778.3835     6776.1168     6780.6501 -19.689820 -47.744829   0.000025   0.000333
1 40134U 98067FD  14284.74906443  .00074482  00000-0  10522-2 0  9995 | 2 40134 051.6439 240.8534 0003090 215.7453 211.8476 15.55874170 44197 | 2014/10/11-17:58:39  341.4620   67.5742  211.8289   92.5525     6777.7497     6775.6554     6779.8440 -25.152949 -45.104563  -0.000036   0.000307
1 40134U 98067FD  14286.10132880  .00074419  00000-0  10438-2 0  9999 | 2 40134 051.6446 234.0944 0002734 210.0356 237.2726 15.56070881 44401 | 2014/10/13-02:25:54   96.6538   87.2818  237.2462   92.5408     6777.1785     6775.3256     6779.0314 -30.287054 -41.831316   0.000028   0.000272
1 40134U 98067FD  14287.77063205  .00065869  00000-0  91912-3 0  9993 | 2 40134 051.6444 225.7455 0004338 206.7971 238.3164 15.56256290 44666 | 2014/10/14-18:29:42  349.7919   85.0712  238.2741   92.5297     6776.6402     6773.7005     6779.5799 -36.039875 -36.990154   0.000130   0.000414
1 40134U 98067FD  14289.05660006  .00062636  00000-0  87009-3 0  9999 | 2 40134 051.6438 219.3155 0003890 215.0603 239.7326 15.56400568 44868 | 2014/10/16-01:21:30   90.7585   94.7544  239.6941   92.5212     6776.2214     6773.5855     6778.8574 -39.955199 -32.721005   0.000105   0.000375
1 40134U 98067FD  14290.33891472  .00065553  00000-0  90404-3 0  9999 | 2 40134 051.6447 212.8993 0003065 220.4940 224.4013 15.56579597 45060 | 2014/10/17-08:08:02  209.9695   84.8707  224.3767   92.5105     6775.7018     6773.6251     6777.7786 -43.362259 -28.051552   0.000088   0.000294
1 40134U 98067FD  14291.80761177  .00072419  00000-0  98845-3 0  9996 | 2 40134 051.6457 205.5545 0002391 232.8057 168.4419 15.56817397 45295 | 2014/10/18-19:22:57   71.1405   41.2531  168.4474   92.4964     6775.0118     6773.3919     6776.6317 -46.593479 -22.278377   0.000048   0.000234
1 40134U 98067FD  14292.97192916  .00070729  00000-0  96010-3 0  9998 | 2 40134 051.6463 199.7262 0003552 226.7645 224.5743 15.56972052 45471 | 2014/10/19-23:19:34   87.1795   91.3102  224.5457   92.4872     6774.5632     6772.1568     6776.9695 -48.615504 -17.431955   0.000142   0.000326
1 40134U 98067FD  14294.19870797  .00071571  00000-0  96490-3 0  9992 | 2 40134 051.6468 193.5862 0003831 226.4689 266.0741 15.57150023 45666 | 2014/10/21-04:46:08  134.9648  132.4992  266.0303   92.4766     6774.0470     6771.4518     6776.6421 -50.201599 -12.132247   0.000191   0.000332
1 40134U 98067FD  14295.79866837  .00077094  00000-0  10280-2 0  9997 | 2 40134 051.6444 185.5712 0004398 234.3057 233.9842 15.57410174 45910 | 2014/10/22-19:10:04   24.7957  108.2491  233.9434   92.4612     6773.2926     6770.3137     6776.2715 -51.400449  -5.013774   0.000221   0.000380
1 40134U 98067FD  14296.88521478  .00080475  00000-0  10650-2 0  9995 | 2 40134 051.6451 180.1266 0003928 242.7721 201.9038 15.57596624 46088 | 2014/10/23-21:14:42   86.0819   84.6591  201.8870   92.4501     6772.7521     6770.0917     6775.4124 -51.644974  -0.114114   0.000179   0.000350
1 40134U 98067FD  14298.11098897  .00082645  00000-0  10847-2 0  9996 | 2 40134 051.6449 173.9871 0004485 240.7154 242.3588 15.57803208 46273 | 2014/10/25-02:39:49  136.3100  123.0287  242.3133   92.4379     6772.1533     6769.1160     6775.1906 -51.360767   5.409926   0.000259   0.000366
1 40134U 98067FD  14299.13995856  .00105071  00000-0  13609-2 0  9998 | 2 40134 051.6423 168.8327 0004502 252.8283 245.1511 15.58046327 46438 | 2014/10/26-03:21:32  138.0025  137.9326  245.1043   92.4234     6771.4488     6768.4003     6774.4973 -50.664497  10.001795   0.000214   0.000396
1 40134U 98067FD  14300.22288433  .00122728  00000-0  15693-2 0  9990 | 2 40134 051.6455 163.4090 0004128 250.8930 205.7519 15.58314564 46602 | 2014/10/27-05:20:57  215.6813   96.6244  205.7314   92.4075     6770.6717     6767.8767     6773.4666 -49.495366  14.746744   0.000241   0.000335
1 40134U 98067FD  14301.25070870  .00103387  00000-0  13181-2 0  9998 | 2 40134 051.6411 158.2421 0004534 246.4207 220.2221 15.58475053 46763 | 2014/10/28-06:01:01  221.8802  106.6093  220.1886   92.3980     6770.2069     6767.1372     6773.2765 -47.962108  19.142607   0.000322   0.000319
1 40134U 98067FD  14302.58330149  .00107765  00000-0  13575-2 0  9994 | 2 40134 051.6439 151.5471 0004657 272.7451 116.1780 15.58772791 46978 | 2014/10/29-13:59:57   67.3417   28.9710  116.2259   92.3804     6769.3447     6766.1922     6772.4972 -45.405785  24.605022   0.000202   0.000420
1 40134U 98067FD  14303.74118972  .00104117  00000-0  13017-2 0  9990 | 2 40134 051.6439 145.7348 0003816 300.8791 110.3325 15.58992921 47153 | 2014/10/30-17:47:18  108.8466   51.2526  110.3735   92.3673     6768.7075     6766.1245     6771.2904 -42.680606  29.076765   0.000023   0.000381
1 40134U 98067FD  14304.97689910  .00076123  00000-0  95097-3 0  9995 | 2 40134 051.6421 139.5326 0004903 274.0167 237.3237 15.59147398 47342 | 2014/10/31-23:26:44  100.9933  151.2931  237.2764   92.3582     6768.2604     6764.9419     6771.5789 -39.288037  33.516512   0.000291   0.000394
1 40134U 98067FD  14306.18789476  .00082895  00000-0  10261-2 0  9990 | 2 40134 051.6420 133.4486 0005151 276.8670 196.6776 15.59351500 47534 | 2014/11/02-04:30:34  222.0252  113.5277  196.6607   92.3461     6767.6698     6764.1838     6771.1558 -35.514388  37.491658   0.000329   0.000396
1 40134U 98067FD  14307.46500435  .00077007  00000-0  94813-3 0  9993 | 2 40134 051.6438 127.0283 0005104 297.1420 150.7333 15.59524690 47738 | 2014/11/03-11:09:36  355.1330   87.9039  150.7619   92.3358     6767.1687     6763.7148     6770.6227 -31.100383  41.229216   0.000222   0.000459
1 40134U 98067FD  14308.47985382  .00074889  00000-0  91745-3 0  9999 | 2 40134 051.6425 121.9256 0005286 282.8500 106.7232 15.59667295 47893 | 2014/11/04-11:30:59   64.8839   29.6312  106.7812   92.3274     6766.7562     6763.1793     6770.3331 -27.309463  43.830823   0.000375   0.000372
1 40134U 98067FD  14309.70917363  .00072312  00000-0  88089-3 0  9996 | 2 40134 051.6407 115.7493 0005312 292.9095 163.9231 15.59830523 48080 | 2014/11/05-17:01:12   87.5676   96.8494  163.9399   92.3177     6766.2841     6762.6899     6769.8784 -22.434489  46.512962   0.000351   0.000399
1 40134U 98067FD  14310.73402957  .00076870  00000-0  92931-3 0  9993 | 2 40134 051.6419 110.5905 0005219 295.3484 160.6894 15.60005160 48249 | 2014/11/06-17:37:00  103.4795   96.0576  160.7092   92.3074     6765.7792     6762.2481     6769.3102 -18.161756  48.342905   0.000363   0.000375
1 40134U 98067FD  14312.08188781  .00083261  00000-0  99561-3 0  9997 | 2 40134 051.6415 103.8186 0007003 318.0184 153.2793 15.60245616 48455 | 2014/11/08-01:57:55  221.5490  111.3338  153.3154   92.2932     6765.0840     6760.3464     6769.8216 -12.334505  50.146829   0.000331   0.000617
1 40134U 98067FD  14313.41258606  .00084983  00000-0  10072-2 0  9990 | 2 40134 051.6421 097.1205 0006228 318.7645 072.4709 15.60474049 48662 | 2014/11/09-09:54:07   68.6723   31.3035   72.5390   92.2797     6764.4238     6760.2109     6768.6367  -6.401375  51.243818   0.000349   0.000516
1 40134U 98067FD  14314.43846978  .00086503  00000-0  10179-2 0  9996 | 2 40134 051.6423 091.9567 0006333 323.3743 075.1655 15.60654127 48820 | 2014/11/10-10:31:23   76.8610   38.6100   75.2357   92.2690     6763.9034     6759.6198     6768.1870  -1.763286  51.612188   0.000360   0.000521
1 40134U 98067FD  14315.80378212  .00093222  00000-0  10841-2 0  9991 | 2 40134 051.6387 085.0813 0006376 321.8369 193.4178 15.60927986 49035 | 2014/11/11-19:17:26   99.8797  155.2378  193.4009   92.2528     6763.1123     6758.8001     6767.4244   4.427611  51.448534   0.000436   0.000466
1 40134U 98067FD  14316.87854435  .00101293  00000-0  11654-2 0  9996 | 2 40134 051.6424 079.6724 0006296 334.4915 104.8117 15.61169748 49208 | 2014/11/12-21:05:06  209.2138   79.3729  104.8814   92.2385     6762.4140     6758.1564     6766.6716   9.258250  50.805731   0.000369   0.000510
1 40134U 98067FD  14317.97161235  .00102984  00000-0  11743-2 0  9994 | 2 40134 051.6414 074.1662 0006322 335.0540 132.0543 15.61393185 49377 | 2014/11/13-23:19:07  221.4968  107.1621  132.1081   92.2253     6761.7689     6757.4941     6766.0437  14.090244  49.681981   0.000413   0.000479
1 40134U 98067FD  14319.18073928  .00098472  00000-0  11144-2 0  9991 | 2 40134 051.6461 068.0651 0006651 347.6474 080.8721 15.61607984 49563 | 2014/11/15-04:20:15  342.6642   68.5948   80.9474   92.2126     6761.1488     6756.6520     6765.6456  19.292549  47.907381   0.000375   0.000550
1 40134U 98067FD  14320.20669644  .00099931  00000-0  11218-2 0  9995 | 2 40134 051.6458 062.8978 0006181 351.7308 088.7543 15.61814549 49727 | 2014/11/16-04:57:38  346.2217   80.5559   88.8251   92.2004     6760.5526     6756.3739     6764.7313  23.528746  45.974849   0.000358   0.000504
1 40134U 98067FD  14321.48787778  .00114804  00000-0  12675-2 0  9990 | 2 40134 051.6443 056.4256 0009055 358.2059 091.5293 15.62151623 49921 | 2014/11/17-11:42:32   85.9319   89.8389   91.6330   92.1806     6759.5801     6753.4593     6765.7009  28.560297  43.028400   0.000524   0.000738
1 40134U 98067FD  14322.57520390  .00111426  00000-0  12194-2 0  9999 | 2 40134 051.6440 050.9485 0007376 358.8166 090.4481 15.62409851 50096 | 2014/11/18-13:48:17  124.3886   89.3492   90.5326   92.1653     6758.8353     6753.8500     6763.8206  32.536684  40.105697   0.000476   0.000563
1 40134U 98067FD  14324.22749494  .00104925  00000-0  11347-2 0  9996 | 2 40134 051.6433 042.6053 0007627 002.8023 027.2116 15.62740754 50356 | 2014/11/20-05:27:35   68.4359   30.0539   27.2516   92.1458     6757.8811     6752.7269     6763.0354  38.011249  34.959625   0.000535   0.000543
1 40134U 98067FD  14325.45462340  .00101641  00000-0  10897-2 0  9995 | 2 40134 051.6446 036.4083 0007966 008.8232 089.9103 15.62973571 50545 | 2014/11/21-10:54:39   88.8891   98.8248   90.0016   92.1321     6757.2100     6751.8272     6762.5928  41.563978  30.652902   0.000561   0.000566
1 40134U 98067FD  14326.79759382  .00096365  00000-0  10245-2 0  9991 | 2 40134 051.6442 029.6137 0008247 013.4294 087.3374 15.63209688 50755 | 2014/11/22-19:08:32  218.4434  100.8612   87.4318   92.1182     6756.5296     6750.9575     6762.1017  44.898269  25.519969   0.000603   0.000563
1 40134U 98067FD  14328.19319692  .00078357  00000-0  83088-3 0  9990 | 2 40134 051.6436 022.5791 0007183 019.2973 020.7735 15.63374595 50978 | 2014/11/24-04:38:12   69.9667   40.1000   20.8027   92.1084     6756.0545     6751.2016     6760.9073  47.685135  19.829001   0.000535   0.000479
1 40134U 98067FD  14329.41759814  .00077445  00000-0  81503-3 0  9997 | 2 40134 051.6428 016.3794 0007957 022.6614 073.5518 15.63564957 51162 | 2014/11/25-10:01:20  102.0153   96.3007   73.6393   92.0972     6755.5061     6750.1307     6760.8814  49.546899  14.563090   0.000618   0.000501
1 40134U 98067FD  14330.76195726  .00077927  00000-0  81337-3 0  9993 | 2 40134 051.6438 009.5815 0007887 028.6755 080.2695 15.63772654 51374 | 2014/11/26-18:17:13  221.3757  109.0341   80.3586   92.0850     6754.9079     6749.5803     6760.2355  50.923360   8.596130   0.000619   0.000488
1 40134U 98067FD  14333.11347645  .00240663  00000-0  23568-2 0  9994 | 2 40134 051.6397 357.6898 0005317 032.8672 006.9392 15.64782844 51740 | 2014/11/29-02:43:24   71.2707   39.8138    6.9466   92.0255     6752.0004     6748.4103     6755.5904  51.597729  -2.081579   0.000458   0.000270
1 40134U 98067FD  14334.14759306  .00257055  00000-0  24582-2 0  9999 | 2 40134 051.6418 352.4506 0007005 043.6769 066.4779 15.65315759 51902 | 2014/11/30-03:32:32   19.4628  110.2284   66.5515   91.9942     6750.4678     6745.7391     6755.1965  51.194167  -6.784749   0.000566   0.000413
1 40134U 98067FD  14335.49229161  .00269975  00000-0  25069-2 0  9994 | 2 40134 051.6436 345.6285 0008333 056.9172 077.4672 15.66000110 52111 | 2014/12/01-11:48:53  127.4721  134.4776   77.5604   91.9540     6748.5010     6742.8775     6754.1245  50.027504 -12.818358   0.000614   0.000563
1 40134U 98067FD  14337.96377444  .00095481  00000-0  89053-3 0  9999 | 2 40134 051.6420 333.0687 0008900 064.0080 335.3845 15.66503012 52509 | 2014/12/03-23:07:50   47.1937   39.3500  335.3420   91.9245     6747.0566     6741.0517     6753.0615  46.041437 -23.389789   0.000710   0.000537
1 40134U 98067FD  14339.12672166  .00091071  00000-0  84356-3 0  9990 | 2 40134 051.6412 327.1721 0008522 072.1469 050.3264 15.66698487 52683 | 2014/12/05-03:02:28   29.8167  122.5485   50.4016   91.9130     6746.4953     6740.7460     6752.2447  43.394241 -27.995596   0.000659   0.000540
1 40134U 98067FD  14340.20510245  .00252291  00000-0  22334-2 0  9990 | 2 40134 051.6395 321.6910 0008457 077.5008 012.3201 15.67240672 52855 | 2014/12/06-04:55:20   97.2302   89.8416   12.3408   91.8812     6744.9393     6739.2351     6750.6435  40.520432 -32.011445   0.000655   0.000534
1 40134U 98067FD  14341.86212819  .00104254  00000-0  93119-3 0  9994 | 2 40134 051.6394 313.2693 0009424 076.1696 009.6396 15.67527423 53118 | 2014/12/07-20:41:27  347.8261   85.8273    9.6577   91.8644     6744.1167     6737.7610     6750.4724  35.395106 -37.600719   0.000821   0.000463
1 40134U 98067FD  14342.94946891  .00101207  00000-0  89691-3 0  9993 | 2 40134 051.6403 307.7339 0009004 085.3118 020.9906 15.67738233 53283 | 2014/12/08-22:47:14    5.3827  106.3394   21.0276   91.8521     6743.5121     6737.4402     6749.5840  31.603609 -40.840329   0.000755   0.000491
1 40134U 98067FD  14344.09315146  .00099761  00000-0  87655-3 0  9993 | 2 40134 051.6411 301.9122 0008892 090.7339 355.0977 15.67956275 53465 | 2014/12/10-02:14:08   84.5282   85.8229  355.0890   91.8393     6742.8869     6736.8911     6748.8827  27.298472 -43.836020   0.000749   0.000480
1 40134U 98067FD  14345.11312005  .00095233  00000-0  83145-3 0  9998 | 2 40134 051.6401 296.7250 0008861 096.1674 351.1418 15.68132553 53626 | 2014/12/11-02:42:53   96.4318   87.2935  351.1261   91.8290     6742.3816     6736.4072     6748.3560  23.223005 -46.123659   0.000744   0.000481
1 40134U 98067FD  14346.13535030  .00092820  00000-0  80496-3 0  9991 | 2 40134 051.6413 291.5178 0008578 098.8621 003.3866 15.68310911 53783 | 2014/12/12-03:14:54   95.7100  102.2545    3.3924   91.8185     6741.8704     6736.0872     6747.6536  18.941526 -48.042091   0.000740   0.000434
1 40134U 98067FD  14347.28588103  .00092601  00000-0  79634-3 0  9996 | 2 40134 051.6415 285.6600 0008360 103.6221 019.2106 15.68519585 53960 | 2014/12/13-06:51:40  136.3089  122.8643   19.2422   91.8063     6741.2724     6735.6367     6746.9081  13.939502 -49.724590   0.000729   0.000409
1 40134U 98067FD  14349.06345193  .00287325  00000-0  23093-2 0  9990 | 2 40134 051.6416 276.6016 0007255 110.9616 339.0687 15.69502557 54244 | 2014/12/15-01:31:22   99.8472   90.0006  339.0390   91.7488     6738.4574     6733.5687     6743.3462   5.936971 -51.299193   0.000643   0.000336
1 40134U 98067FD  14350.28124176  .00306921  00000-0  23884-2 0  9994 | 2 40134 051.6410 270.3830 0007849 122.4379 014.5615 15.70217360 54430 | 2014/12/16-06:44:59  138.7014  137.0220   14.5841   91.7070     6736.4123     6731.1249     6741.6997   0.345197 -51.639846   0.000660   0.000425
1 40134U 98067FD  14351.35502178  .00317470  00000-0  24006-2 0  9993 | 2 40134 051.6398 264.8973 0008181 128.2814 323.9193 15.70870628 54608 | 2014/12/17-08:31:13  216.6050   92.1454  323.8640   91.6689     6734.5445     6729.0350     6740.0541  -4.592908 -51.435145   0.000685   0.000448
1 40134U 98067FD  14352.73790560  .00320478  00000-0  24110-2 0  9998 | 2 40134 051.6373 257.8198 0008757 137.2403 222.9793 15.71781522 55098 | 2014/12/18-17:42:35   94.8648    0.1512  222.9109   91.6158     6731.9424     6726.0472     6737.8375 -10.894800 -50.474886   0.000717   0.000503
1 40134U 98067FD  14353.76180253  .00367293  00000-0  25696-2 0  9990 | 2 40134 051.6387 252.5920 0010936 156.7566 242.5749 15.72537931 54986 | 2014/12/19-18:16:59   70.5928   39.2203  242.4637   91.5717     6729.7834     6722.4237     6737.1431 -15.448958 -49.273573   0.000712   0.000830
1 40134U 98067FD  14354.79052226  .00399994  00000-0  26941-2 0  9999 | 2 40134 051.6404 247.3037 0008633 142.2095 326.4252 15.73361734 55142 | 2014/12/20-18:58:21   17.9309  108.5799  326.3704   91.5238     6727.4341     6721.6263     6733.2419 -19.925266 -47.641523   0.000751   0.000425
1 40134U 98067FD  14356.18124005  .00450867  00000-0  28635-2 0  9998 | 2 40134 051.6376 240.1602 0007810 168.7177 265.7351 15.74591004 55364 | 2014/12/22-04:20:59  201.2855   74.3636  265.6459   91.4523     6723.9323     6718.6809     6729.1837 -25.693663 -44.791488   0.000514   0.000588
1 40134U 98067FD  14357.19757183  .00563402  00000-0  33449-2 0  9998 | 2 40134 051.6390 234.9418 0011712 163.5047 278.6190 15.75790458 55528 | 2014/12/23-04:44:30  205.7142   81.9910  278.4863   91.3827     6720.5198     6712.6487     6728.3909 -29.661866 -42.270084   0.000917   0.000728
1 40134U 98067FD  14358.77553265  .00472622  00000-0  26818-2 0  9993 | 2 40134 051.6358 226.7972 0009556 175.1466 227.9708 15.77090845 55777 | 2014/12/24-18:36:46  102.4863   43.0361  227.8895   91.3074     6716.8250     6710.4064     6723.2436 -35.348977 -37.639151   0.000711   0.000639
1 40134U 98067FD  14360.49043487  .00491365  00000-0  25975-2 0  9993 | 2 40134 051.6381 217.9437 0011278 176.2456 254.4212 15.78607273 56042 | 2014/12/26-11:46:13  342.8455   70.5424  254.2968   91.2196     6712.5228     6704.9524     6720.0932 -40.722598 -31.751589   0.000933   0.000634
1 40134U 98067FD  14361.82202297  .00486792  00000-0  24517-2 0  9996 | 2 40134 051.6360 211.0526 0008748 192.0455 253.4038 15.79720990 56257 | 2014/12/27-19:43:42   95.6383   85.3533  253.3078   91.1553     6709.3675     6703.4982     6715.2369 -44.236257 -26.635128   0.000639   0.000598
1 40134U 98067FD  14362.83516813  .00443975  00000-0  21811-2 0  9990 | 2 40134 051.6335 205.8157 0009317 196.6822 255.2252 15.80371721 56413 | 2014/12/28-20:02:38  100.1479   91.8042  255.1220   91.1178     6707.5256     6701.2762     6713.7750 -46.480450 -22.485242   0.000687   0.000629
1 40134U 98067FD  14364.16437565  .00274704  00000-0  13233-2 0  9995 | 2 40134 051.6357 198.9135 0008995 204.1565 257.4436 15.81245406 56627 | 2014/12/30-03:56:42  217.1823  101.4995  257.3430   91.0675     6705.0547     6699.0235     6711.0859 -48.847838 -16.737213   0.000657   0.000614
1 40134U 98067FD  14365.42498229  .00146795  00000-0  70955-3 0  9992 | 2 40134 051.6332 192.3622 0008821 208.9190 234.0145 15.81537758 56827 | 2014/12/31-10:11:58  337.4611   82.8518  233.9328   91.0506     6704.2283     6698.3145     6710.1421 -50.436019 -11.054200   0.000663   0.000582
1 40134U 98067FD  15001.43587972  .00130395  00000-0  62492-3 0  9991 | 2 40134 051.6330 187.1094 0008447 215.0955 227.7239 15.81779864 56988 | 2015/01/01-10:27:40  347.7474   82.7478  227.6523   91.0367     6703.5442     6697.8818     6709.2067 -51.236027  -6.390321   0.000626   0.000567
1 40134U 98067FD  15002.50078331  .00127634  00000-0  60462-3 0  9991 | 2 40134 051.6335 181.5794 0008478 219.2329 172.1621 15.82038328 57155 | 2015/01/02-12:01:07   69.1167   31.4082  172.1753   91.0218     6702.8141     6697.1314     6708.4967 -51.613884  -1.423135   0.000642   0.000554
1 40134U 98067FD  15003.51278008  .00127267  00000-0  59583-3 0  9990 | 2 40134 051.6324 176.3198 0008865 223.8789 175.5278 15.82286793 57318 | 2015/01/03-12:18:24   71.6810   39.4146  175.5357   91.0075     6702.1124     6696.1710     6708.0538 -51.525927   3.314152   0.000677   0.000572
1 40134U 98067FD  15005.46279997  .00507629  00000-0  22160-2 0  9998 | 2 40134 051.6297 166.1786 0008469 233.9229 126.1469 15.83909787 57891 | 2015/01/05-11:06:25  105.0882    0.1481  126.2252   90.9143     6697.5333     6691.8611     6703.2054 -50.134768  12.334137   0.000648   0.000546
1 40134U 98067FD  15006.54182373  .00492561  00000-0  19462-2 0  9998 | 2 40134 051.6277 160.5398 0008058 245.9730 152.9573 15.84917818 57797 | 2015/01/06-13:00:13  101.3786   38.9722  152.9992   90.8564     6694.6932     6689.2986     6700.0877 -48.678372  17.199871   0.000555   0.000585
1 40134U 98067FD  15007.55147248  .00551527  00000-0  20460-2 0  9990 | 2 40134 051.6262 155.2794 0008158 250.5401 155.2828 15.86083449 57953 | 2015/01/07-13:14:07  104.2151   45.8620  155.3219   90.7897     6691.4127     6685.9539     6696.8716 -46.895066  21.589751   0.000569   0.000585
1 40134U 98067FD  15008.89078308  .00800833  00000-0  26205-2 0  9998 | 2 40134 051.6262 148.2453 0006735 286.2128 217.1784 15.88076138 58160 | 2015/01/08-21:22:43  137.1529  143.3446  217.1318   90.6758     6685.8141     6681.3112     6690.3170 -43.898225  27.170026   0.000180   0.000649
1 40134U 98067FD  15010.19736222  .00793767  26404-3  25877-2 0  9990 | 2 40134 051.6298 141.3846 0007792 301.0626 121.7430 15.90049727 58370 | 2015/01/10-04:44:12  336.2555   62.8815  121.8189   90.5632     6680.2806     6675.0753     6685.4859 -40.341087  32.221623   0.000102   0.000772
1 40134U 98067FD  15011.20447300  .00816332  28552-3  24602-2 0  9994 | 2 40134 051.6301 136.0838 0007866 291.4970 142.7209 15.91582276 58530 | 2015/01/11-04:54:26  333.6965   74.2725  142.7755   90.4760     6675.9916     6670.7402     6681.2429 -37.192002  35.810923   0.000300   0.000727
1 40134U 98067FD  15012.20810711  .00965887  41924-3  26365-2 0  9991 | 2 40134 051.6271 130.7910 0007076 293.4874 138.7790 15.93507963 58695 | 2015/01/12-04:59:40  343.2383   72.3198  138.8324   90.3667     6670.6120     6665.8919     6675.3322 -33.728072  39.086758   0.000307   0.000637
1 40134U 98067FD  15013.52599880  .01101823  58252-3  26072-2 0  9998 | 2 40134 051.6309 123.8068 0008861 315.0279 128.5975 15.96172388 58905 | 2015/01/13-12:37:26   94.6035   83.7047  128.6768   90.2158     6663.1866     6657.2824     6669.0909 -28.727135  42.901067   0.000172   0.000869
1 40134U 98067FD  15014.76245257  .01264738  83675-3  25465-2 0  9998 | 2 40134 051.6305 117.2422 0007944 318.8735 041.1795 15.99149354 59104 | 2015/01/14-18:17:55  271.0826    0.1130   41.2395   90.0479     6654.9147     6649.6280     6660.2013 -23.634010  45.903617   0.000191   0.000771
1 40134U 98067FD  15015.82370565  .01546381  14355-2  26148-2 0  9991 | 2 40134 051.6260 111.5715 0009546 331.1339 028.8308 16.02289763 59278 | 2015/01/15-19:46:08  299.9387    0.0175   28.8836   89.8714     6646.2163     6639.8718     6652.5607 -18.980919  48.010088   0.000121   0.000947
1 40134U 98067FD  15017.13169966  .01795971  23290-2  23571-2 0  9994 | 2 40134 051.6229 104.5485 0008821 337.0066 023.0651 16.06706203 59484 | 2015/01/17-03:09:38   59.0218    0.1113   23.1047   89.6244     6634.0315     6628.1796     6639.8834 -12.967643  49.967630   0.000130   0.000873
1 40134U 98067FD  15018.24942924  .02448794  73843-2  24581-2 0  9990 | 2 40134 051.6203 098.4927 0010793 351.0560 008.9680 16.12069315 59661 | 2015/01/18-05:59:10  108.6096    0.0433    8.9873   89.3262     6619.3097     6612.1655     6626.4539  -7.623461  51.054267   0.000009   0.001079
1 40134U 98067FD  15019.42447649  .04685154  11905-4  22218-2 0  9998 | 2 40134 051.6233 092.0778 0006120 353.0082 007.3061 16.20683279 59855 | 2015/01/19-10:11:14  178.9094    0.3232    7.3150   88.8514     6595.8344     6591.7977     6599.8710  -1.871680  51.589359   0.000052   0.000610
