# SPACE DATA - HISTORICAL TLEs
# ----------------------------
# NORAD_ID    : 39132
# OBJECT_NAME : DOVE 2
# --------------------------------------------------------------------+-----------------------------------------------------------------------+----------------------------------------------------------------------------------------------------------------------------------------
#                  LINE 1                                             |                 LINE 2                                                |      DERIVED PARAMETERS
# --------------------------------------------------------------------+-----------------------------------------------------------------------+----------------------------------------------------------------------------------------------------------------------------------------
# NORAD  COSPAR     TLE_EPOCH      MEANMOT1 MEANMOT2   BSTAR  #  REV  |   NORAD    INC     RAAN     ECC    ARGPER  MEANANOM   MEANMOT     REV |  CAL_DATE              LONG     ARGLAT     PERIOD        SMA         PERIGEE        APOGEE      INC_X      INC_Y      ECC_X      ECC_Y
# ------ ------   -------------- ----------  -------  ------- -- ----     -----  ------- -------- ------- -------- -------- -----------  ----   ------------------- ---------  --------  --------  ------------  ------------   ----------- ---------- ----------  ---------  ---------   
1 40428U 98067FR  15061.57068380 -.00109183  00000-0 -15740-2 0  9991 | 2 40428 051.6420 256.5364 0005203 046.5169 051.0833 15.55635140  9420 | 2015/03/02-13:41:47   11.3408   97.6466   51.1297   92.5667     6778.4440     6774.9172     6781.9708 -12.023681 -50.222776   0.000284  -0.000436
1 40428U 98067FR  15063.48042058  .00246586  00000-0  34212-2 0  9999 | 2 40428 051.6221 247.0833 0016763 067.5796 292.7495 15.56211162  9723 | 2015/03/04-11:31:48   87.4526    0.1518  292.5722   92.5324     6776.7712     6765.4113     6788.1311 -20.101255 -47.547668   0.001178  -0.001192
1 40428U 98067FR  15064.52548035  .00056856  00000-0  80190-3 0  9997 | 2 40428 051.6459 241.7700 0005539 059.4530 039.1810 15.56022423  9886 | 2015/03/05-12:36:41   11.7126   98.6741   39.2211   92.5437     6777.3192     6773.5652     6781.0732 -24.429138 -45.502925   0.000287  -0.000474
1 40428U 98067FR  15065.68192818  .00053211  00000-0  74810-3 0  9993 | 2 40428 051.6456 235.9866 0005294 058.6367 042.5710 15.56138824 10060 | 2015/03/06-16:21:58   72.3833  101.2488   42.6121   92.5367     6776.9812     6773.3935     6780.5690 -28.889866 -42.809387   0.000221  -0.000481
1 40428U 98067FR  15066.84505317  .00056203  00000-0  78539-3 0  9990 | 2 40428 051.6471 230.1733 0005595 063.4042 078.3899 15.56277739 10250 | 2015/03/07-20:16:52   97.4817  141.8569   78.4527   92.5285     6776.5779     6772.7864     6780.3694 -33.078297 -39.664206   0.000224  -0.000513
1 40428U 98067FR  15067.99305646  .00059151  00000-0  82159-3 0  9998 | 2 40428 051.6455 224.4307 0005187 063.4099 034.7877 15.56421870 10433 | 2015/03/08-23:50:00  201.2335   98.2315   34.8216   92.5199     6776.1596     6772.6448     6779.6744 -36.879932 -36.154229   0.000159  -0.000494
1 40428U 98067FR  15069.45946808  .00060971  00000-0  84067-3 0  9994 | 2 40428 051.6449 217.0956 0005510 064.4315 336.2084 15.56605425 10661 | 2015/03/10-11:01:38   75.4798   40.6144  336.1829   92.5090     6775.6269     6771.8935     6779.3602 -41.193534 -31.149453   0.000110  -0.000540
1 40428U 98067FR  15070.76191358  .00057168  00000-0  78507-3 0  9998 | 2 40428 051.6470 210.5787 0005670 073.5282 070.8341 15.56740319 10867 | 2015/03/11-18:17:09   88.4384  144.4237   70.8955   92.5010     6775.2355     6771.3939     6779.0770 -44.464514 -26.273934   0.000138  -0.000550
1 40428U 98067FR  15071.76329697  .00056786  00000-0  77428-3 0  9994 | 2 40428 051.6426 205.5756 0005604 066.2035 294.0063 15.56834796 10987 | 2015/03/12-18:19:08  239.0791    0.1511  293.9476   92.4954     6774.9613     6771.1647     6778.7580 -46.582475 -22.294196   0.000017  -0.000560
1 40428U 98067FR  15072.80727072  .00053980  00000-0  73628-3 0  9990 | 2 40428 051.6461 200.3403 0005437 072.3545 023.0335 15.56948390 11187 | 2015/03/13-19:22:28  165.9957   95.4124   23.0579   92.4886     6774.6318     6770.9484     6778.3152 -48.425691 -17.951939   0.000026  -0.000543
1 40428U 98067FR  15073.84270449  .00053910  00000-0  73231-3 0  9999 | 2 40428 051.6461 195.1572 0005574 074.9718 068.0864 15.57058341 11340 | 2015/03/14-20:13:29  137.2854  143.1175   68.1457   92.4821     6774.3129     6770.5369     6778.0889 -49.849440 -13.503815   0.000001  -0.000557
1 40428U 98067FR  15075.17707078  .00052103  00000-0  70471-3 0  9996 | 2 40428 051.6467 188.4772 0005547 073.6070 354.3629 15.57189735 11555 | 2015/03/16-04:14:58  340.7407   67.9637  354.3567   92.4743     6773.9318     6770.1743     6777.6893 -51.082439  -7.613541  -0.000076  -0.000549
1 40428U 98067FR  15076.46168480  .00049751  00000-0  67041-3 0  9991 | 2 40428 051.6457 182.0437 0005681 079.0343 355.3448 15.57308149 11758 | 2015/03/17-11:04:49   84.4923   74.3738  355.3395   92.4672     6773.5884     6769.7403     6777.4365 -51.612849  -1.841775  -0.000088  -0.000561
1 40428U 98067FR  15077.49468603  .00054964  00000-0  73574-3 0  9995 | 2 40428 051.6454 176.8656 0005978 080.4426 029.4459 15.57441990 11917 | 2015/03/18-11:52:20   67.0596  109.9222   29.4796   92.4593     6773.2003     6769.1513     6777.2494 -51.568140   2.823884  -0.000131  -0.000583
1 40428U 98067FR  15078.83914503  .00062633  00000-0  82897-3 0  9999 | 2 40428 051.6471 170.1358 0005568 084.5862 009.2908 15.57692131 12120 | 2015/03/19-20:08:22  215.1313   93.8873    9.3011   92.4445     6772.4752     6768.7043     6776.2461 -50.883578   8.847848  -0.000147  -0.000537
1 40428U 98067FR  15080.11824012  .00053922  00000-0  71207-3 0  9992 | 2 40428 051.6469 163.7250 0005800 089.7424 341.9026 15.57814179 12323 | 2015/03/21-02:50:15  345.5090   71.6243  341.8819   92.4372     6772.1215     6768.1936     6776.0493 -49.577288  14.473935  -0.000165  -0.000556
1 40428U 98067FR  15081.40577882  .00050982  00000-0  67081-3 0  9993 | 2 40428 051.6456 157.2675 0005713 091.4257 005.9367 15.57935076 12522 | 2015/03/22-09:44:19   71.0321   97.3692    5.9435   92.4300     6771.7711     6767.9024     6775.6398 -47.633720  19.957372  -0.000208  -0.000532
1 40428U 98067FR  15082.43379506  .00050012  00000-0  65578-3 0  9993 | 2 40428 051.6459 152.1150 0005873 095.5975 011.4706 15.58034886 12682 | 2015/03/23-10:24:39   77.5780  107.0815   11.4840   92.4241     6771.4819     6767.5050     6775.4588 -45.649197  24.154706  -0.000223  -0.000543
1 40428U 98067FR  15083.52987476  .00051656  00000-0  67398-3 0  9992 | 2 40428 051.6457 146.6152 0005791 092.1842 047.0568 15.58153901 12855 | 2015/03/24-12:43:01   86.5740  139.2896   47.1054   92.4171     6771.1371     6767.2159     6775.0583 -43.123843  28.418524  -0.000300  -0.000495
1 40428U 98067FR  15084.74033745  .00054741  00000-0  70968-3 0  9993 | 2 40428 051.6461 140.5499 0006150 105.6544 348.3796 15.58296687 13047 | 2015/03/25-17:46:05  214.8059   94.0198  348.3654   92.4086     6770.7235     6766.5595     6774.8875 -39.879996  32.816240  -0.000248  -0.000563
1 40428U 98067FR  15085.76828885  .00057031  00000-0  73548-3 0  9995 | 2 40428 051.6454 135.3918 0005914 106.7455 358.0538 15.58421269 13203 | 2015/03/26-18:26:20  220.2744  104.7970  358.0515   92.4012     6770.3626     6766.3586     6774.3666 -36.767680  36.268238  -0.000276  -0.000523
1 40428U 98067FR  15086.97996442  .00055503  00000-0  71271-3 0  9997 | 2 40428 051.6460 129.3147 0005755 112.5954 314.8417 15.58547853 13393 | 2015/03/27-23:31:08  341.1112   67.3903  314.7949   92.3937     6769.9960     6766.0999     6773.8922 -32.721841  39.957358  -0.000271  -0.000508
1 40428U 98067FR  15088.13984840  .00047721  00000-0  61249-3 0  9993 | 2 40428 051.6434 123.4901 0006080 096.7950 002.7655 15.58623376 13570 | 2015/03/29-03:21:22   13.5139   99.5639    2.7689   92.3892     6769.7773     6765.6613     6773.8934 -28.496461  43.069624  -0.000464  -0.000393
1 40428U 98067FR  15090.19402684  .00162410  00000-0  19898-2 0  9998 | 2 40428 051.6433 113.1739 0006516 122.5694 352.9957 15.59274729 13896 | 2015/03/31-04:39:23   29.3544  115.5560  352.9866   92.3506     6767.8919     6763.4820     6772.3019 -20.322835  47.476445  -0.000367  -0.000539
1 40428U 98067FR  15091.48265836  .00122838  00000-0  14947-2 0  9997 | 2 40428 051.6440 106.7038 0005037 121.3475 033.4824 15.59620585 14097 | 2015/04/01-11:35:01  101.7372  154.8618   33.5143   92.3301     6766.8913     6763.4828     6770.2998 -14.843727  49.464801  -0.000337  -0.000375
1 40428U 98067FR  15092.56112417  .00080555  00000-0  98326-3 0  9996 | 2 40428 051.6448 101.2801 0005233 123.4005 330.7032 15.59732915 14267 | 2015/04/02-13:28:01  197.1978   94.0743  330.6738   92.3235     6766.5664     6763.0255     6770.1074 -10.102009  50.647160  -0.000372  -0.000368
1 40428U 98067FR  15093.83692727  .00062276  00000-0  75985-3 0  9990 | 2 40428 051.6467 094.8635 0005912 108.6775 313.9628 15.59847272 14462 | 2015/04/03-20:05:10  335.6244   62.5915  313.9140   92.3167     6766.2357     6762.2355     6770.2359  -4.378720  51.460746  -0.000542  -0.000236
1 40428U 98067FR  15095.12865091  .00058667  00000-0  71259-3 0  9999 | 2 40428 051.6442 088.3743 0006666 132.4925 348.8671 15.59985703 14661 | 2015/04/05-03:05:15   29.6880  121.3448  348.8523   92.3085     6765.8354     6761.3253     6770.3455   1.465147  51.623413  -0.000504  -0.000436
1 40428U 98067FR  15096.14886303  .00059644  00000-0  72081-3 0  9991 | 2 40428 051.6452 083.2420 0006557 137.9623 316.9339 15.60111819 14828 | 2015/04/06-03:34:21   69.5656   94.8449  316.8826   92.3011     6765.4708     6761.0347     6769.9069   6.077403  51.286371  -0.000493  -0.000432
1 40428U 98067FR  15097.54116563  .00045889  00000-0  54958-3 0  9999 | 2 40428 051.6416 076.2483 0006028 145.6152 214.5753 15.60262203 15047 | 2015/04/07-12:59:16  313.8663    0.1513  214.5361   92.2922     6765.0361     6760.9581     6769.1140  12.275968  50.161294  -0.000449  -0.000402
1 40428U 98067FR  15098.75805566  .00039446  00000-0  47015-3 0  9999 | 2 40428 051.6419 070.1253 0006169 151.3329 208.8526 15.60386949 15233 | 2015/04/08-18:11:36   39.2741    0.1514  208.8185   92.2848     6764.6755     6760.5024     6768.8486  17.556403  48.566023  -0.000462  -0.000408
1 40428U 98067FR  15099.92936938  .00051242  00000-0  61186-3 0  9990 | 2 40428 051.6449 064.2233 0006258 151.8277 312.6349 15.60493693 15416 | 2015/04/09-22:18:17    3.7265  104.4098  312.5821   92.2785     6764.3670     6760.1339     6768.6002  22.458556  46.506010  -0.000506  -0.000368
1 40428U 98067FR  15101.21515583  .00057884  00000-0  68507-3 0  9997 | 2 40428 051.6452 057.7535 0006899 155.0524 338.0255 15.60668806 15614 | 2015/04/11-05:09:49   85.7314  133.0483  337.9959   92.2681     6763.8610     6759.1946     6768.5274  27.555960  43.679466  -0.000580  -0.000374
1 40428U 98067FR  15102.42571965  .00071715  00000-0  83915-3 0  9996 | 2 40428 051.6452 051.6544 0005328 158.9302 300.7736 15.60886858 15809 | 2015/04/12-10:13:02  202.2008   99.6513  300.7211   92.2552     6763.2311     6759.6276     6766.8345  32.040858  40.504445  -0.000459  -0.000271
1 40428U 98067FR  15103.44997981  .00075144  00000-0  87304-3 0  9995 | 2 40428 051.6450 046.4936 0005882 167.3851 292.0027 15.61048797 15968 | 2015/04/13-10:47:58  217.4208   99.3253  291.9402   92.2457     6762.7633     6758.7855     6766.7412  35.554256  37.457988  -0.000488  -0.000328
1 40428U 98067FR  15104.84719126  .00070164  00000-0  81056-3 0  9998 | 2 40428 051.6441 039.4596 0006032 174.4823 222.4981 15.61224133 16189 | 2015/04/14-20:19:57   71.2355   36.9337  222.4514   92.2353     6762.2570     6758.1780     6766.3360  39.873010  32.821580  -0.000500  -0.000337
1 40428U 98067FR  15106.14505006  .00166541  00000-0  18649-2 0  9995 | 2 40428 051.6460 032.9256 0006366 175.3318 321.8436 15.61610195 16388 | 2015/04/16-03:28:52   86.0829  137.1303  321.7985   92.2125     6761.1424     6756.8383     6765.4466  43.350469  28.072160  -0.000561  -0.000301
1 40428U 98067FR  15107.52983796  .00064532  00000-0  72247-3 0  9996 | 2 40428 051.6443 025.9368 0007244 183.6061 185.3036 15.62062030 16602 | 2015/04/17-12:42:57    1.2259    8.9020  185.2959   92.1858     6759.8386     6754.9417     6764.7354  46.442533  22.588156  -0.000630  -0.000357
1 40428U 98067FR  15108.89280380  .00085864  00000-0  94759-3 0  9999 | 2 40428 051.6465 019.0596 0006839 191.0325 288.2155 15.62315015 16810 | 2015/04/18-21:25:38   29.7759  119.1735  288.1410   92.1709     6759.1088     6754.4862     6763.7313  48.815208  16.865243  -0.000592  -0.000343
1 40428U 98067FR  15110.11193049  .00084327  00000-0  92380-3 0  9993 | 2 40428 051.6461 012.9097 0006475 197.2186 303.8042 15.62515023 17005 | 2015/04/20-02:41:10   94.2383  140.9611  303.7425   92.1591     6758.5320     6754.1558     6762.9081  50.340661  11.538521  -0.000560  -0.000325
1 40428U 98067FR  15111.19851780  .00081762  00000-0  89027-3 0  9999 | 2 40428 051.6453 007.4196 0007001 202.4718 295.0283 15.62680222 17172 | 2015/04/21-04:45:51  135.4935  137.4274  294.9556   92.1494     6758.0557     6753.3243     6762.7870  51.212876   6.669207  -0.000607  -0.000349
1 40428U 98067FR  15112.52818602  .00079838  00000-0  86290-3 0  9993 | 2 40428 051.6449 000.7068 0006605 207.9476 215.2441 15.62883564 17388 | 2015/04/22-12:40:35  336.5058   63.1481  215.2005   92.1374     6757.4695     6753.0062     6761.9328  51.640970   0.637075  -0.000580  -0.000317
1 40428U 98067FR  15113.53998140  .00113010  00000-0  12142-2 0  9996 | 2 40428 051.6429 355.6084 0007046 219.0527 141.0475 15.63053858 17544 | 2015/04/23-12:57:34   49.9394    0.1509  141.0982   92.1273     6756.9786     6752.2177     6761.7396  51.491276  -3.954444  -0.000580  -0.000401
1 40428U 98067FR  15114.90227566  .00094483  00000-0  99989-3 0  9992 | 2 40428 051.6473 348.7067 0004938 219.9683 251.9007 15.63360534 17753 | 2015/04/24-21:39:16   76.8409  111.8152  251.8469   92.1093     6756.0950     6752.7588     6759.4311  50.647283 -10.114167  -0.000433  -0.000237
1 40428U 98067FR  15116.12122536  .00089857  00000-0  94430-3 0  9994 | 2 40428 051.6465 342.5436 0005505 221.4062 275.7620 15.63557881 17945 | 2015/04/26-02:54:33  137.7282  137.1054  275.6992   92.0976     6755.5265     6751.8075     6759.2454  49.267946 -15.492915  -0.000503  -0.000223
1 40428U 98067FR  15117.14537546  .00070731  00000-0  74304-3 0  9997 | 2 40428 051.6448 337.3763 0007082 233.1079 272.6839 15.63656161 18109 | 2015/04/27-03:29:20  143.9754  145.7107  272.6028   92.0919     6755.2434     6750.4593     6760.0275  47.670793 -19.866575  -0.000610  -0.000359
1 40428U 98067FR  15118.15783774  .00065862  00000-0  68930-3 0  9992 | 2 40428 051.6444 332.2549 0007189 235.8609 213.2591 15.63780379 18269 | 2015/04/28-03:47:17  211.2529   89.0749  213.2140   92.0845     6754.8857     6750.0296     6759.7417  45.706712 -24.042474  -0.000634  -0.000339
1 40428U 98067FR  15119.43353889  .00067714  00000-0  70345-3 0  9995 | 2 40428 051.6447 325.7997 0007237 239.8743 196.1693 15.63956649 18462 | 2015/04/29-10:24:17  331.2943   76.0205  196.1462   92.0742     6754.3781     6749.4899     6759.2662  42.714176 -29.028851  -0.000652  -0.000314
1 40428U 98067FR  15120.71370694  .00068362  00000-0  70508-3 0  9992 | 2 40428 051.6453 319.3209 0007565 243.5125 205.4317 15.64132746 18668 | 2015/04/30-17:07:44   66.9948   88.9070  205.3945   92.0638     6753.8711     6748.7618     6758.9804  39.166357 -33.663533  -0.000697  -0.000294
1 40428U 98067FR  15121.80461628  .00061751  00000-0  63509-3 0  9999 | 2 40428 051.6463 313.8065 0008294 238.1303 237.7842 15.64239527 18831 | 2015/05/01-19:18:38   79.3415  115.8341  237.7038   92.0575     6753.5638     6747.9623     6759.1652  35.750863 -37.272190  -0.000811  -0.000172
1 40428U 98067FR  15122.88804203  .00054671  00000-0  56150-3 0  9995 | 2 40428 051.6434 308.3174 0007246 260.9338 200.1977 15.64335152 19000 | 2015/05/02-21:18:46  130.7148  101.1029  200.1691   92.0519     6753.2885     6748.3951     6758.1820  32.019803 -40.518798  -0.000632  -0.000354
1 40428U 98067FR  15124.10290601  .00053179  00000-0  54372-3 0  9999 | 2 40428 051.6436 302.1670 0007516 264.2685 203.3247 15.64458889 19195 | 2015/05/04-02:28:11  208.9519  107.5591  203.2906   92.0446     6752.9324     6747.8569     6758.0079  27.494475 -43.716304  -0.000673  -0.000335
1 40428U 98067FR  15125.50644984  .00052983  00000-0  53857-3 0  9990 | 2 40428 051.6434 295.0635 0007620 269.4933 188.5824 15.64606290 19414 | 2015/05/05-12:09:17   12.2321   98.0627  188.5694   92.0359     6752.5083     6747.3629     6757.6537  21.877304 -46.780598  -0.000693  -0.000317
1 40428U 98067FR  15126.53011328  .00055330  00000-0  55929-3 0  9995 | 2 40428 051.6436 289.8760 0007712 279.8884 188.1751 15.64728687 19575 | 2015/05/06-12:43:21   16.9596  108.0509  188.1625   92.0287     6752.1562     6746.9489     6757.3634  17.558083 -48.567223  -0.000669  -0.000383
1 40428U 98067FR  15127.66045211  .00057037  00000-0  56895-3 0  9997 | 2 40428 051.6374 284.1628 0008430 284.6048 075.4526 15.64917100 19715 | 2015/05/07-15:51:03  178.7150    0.1509   75.5461   92.0177     6751.6142     6745.9226     6757.3058  12.634531 -50.067851  -0.000739  -0.000406
1 40428U 98067FR  15128.76312689  .00072691  00000-0  72102-3 0  9997 | 2 40428 051.6419 278.5668 0008101 283.4576 173.2787 15.65088165 19924 | 2015/05/08-18:18:54  125.6819   96.7472  173.2896   92.0076     6751.1222     6745.6531     6756.5913   7.692701 -51.065724  -0.000751  -0.000304
1 40428U 98067FR  15129.97548792  .00071986  00000-0  70916-3 0  9994 | 2 40428 051.6423 272.4191 0008730 296.0374 156.4327 15.65257211 20113 | 2015/05/09-23:24:42  213.7407   92.5101  156.4727   91.9977     6750.6361     6744.7428     6756.5294   2.179755 -51.596277  -0.000768  -0.000416
1 40428U 98067FR  15130.99970203  .00070353  00000-0  68958-3 0  9994 | 2 40428 051.6426 267.2275 0008626 297.6528 170.2828 15.65394460 20278 | 2015/05/10-23:59:34  213.1934  107.9523  170.2995   91.9896     6750.2415     6744.4188     6756.0643  -2.497972 -51.582151  -0.000783  -0.000363
1 40428U 98067FR  15132.46295976  .00155010  00000-0  14673-2 0  9993 | 2 40428 051.6393 259.8141 0008909 304.0313 137.0389 15.65898822 20509 | 2015/05/12-11:06:39   55.6872   81.1397  137.1084   91.9600     6748.7920     6742.7795     6754.8045  -9.132025 -50.825421  -0.000815  -0.000360
1 40428U 98067FR  15133.47756113  .00092784  00000-0  88005-3 0  9999 | 2 40428 051.6429 254.6660 0008931 308.7051 096.1256 15.66096579 20668 | 2015/05/13-11:27:41  103.3314   44.9324   96.2273   91.9484     6748.2239     6742.1970     6754.2507 -13.656726 -49.804447  -0.000820  -0.000354
1 40428U 98067FR  15134.55431819  .00086085  00000-0  81061-3 0  9994 | 2 40428 051.6431 249.2054 0011087 317.9113 042.1550 15.66319118 20794 | 2015/05/14-13:18:13  182.2502    0.1517   42.2404   91.9353     6747.5847     6740.1036     6755.0657 -18.334274 -48.279024  -0.000987  -0.000505
1 40428U 98067FR  15135.78097369  .00083351  00000-0  77799-3 0  9994 | 2 40428 051.6427 242.9668 0009994 320.8974 121.1023 15.66528524 21025 | 2015/05/15-18:44:36  189.3605   82.0977  121.2003   91.9230     6746.9833     6740.2404     6753.7263 -23.471954 -46.000390  -0.000914  -0.000404
1 40428U 98067FR  15136.86760510  .00081827  00000-0  75885-3 0  9999 | 2 40428 051.6435 237.4482 0009576 324.5545 129.9409 15.66701497 21192 | 2015/05/16-20:49:21  214.6417   94.5795  130.0250   91.9129     6746.4867     6740.0263     6752.9471 -27.787399 -43.530582  -0.000888  -0.000359
1 40428U 98067FR  15138.07320664  .00079399  00000-0  73145-3 0  9994 | 2 40428 051.6439 231.3221 0009201 330.1058 089.0518 15.66883221 21381 | 2015/05/18-01:45:25  331.3105   59.2630   89.1572   91.9022     6745.9651     6739.7581     6752.1720 -32.274421 -40.316922  -0.000857  -0.000336
1 40428U 98067FR  15139.09539490  .00075387  00000-0  69127-3 0  9994 | 2 40428 051.6438 226.1287 0009212 332.7176 096.4102 15.67019208 21541 | 2015/05/19-02:17:22  335.5289   69.2327   96.5151   91.8942     6745.5748     6739.3608     6751.7888 -35.791261 -37.229930  -0.000872  -0.000298
1 40428U 98067FR  15140.24939307  .00070757  00000-0  64538-3 0  9991 | 2 40428 051.6421 220.2622 0010301 340.1876 123.5158 15.67163166 21728 | 2015/05/20-05:59:07    3.3966  103.8017  123.6141   91.8858     6745.1617     6738.2135     6752.1099 -39.407822 -33.375591  -0.000965  -0.000360
1 40428U 98067FR  15141.45849598  .00071265  00000-0  64546-3 0  9991 | 2 40428 051.6417 214.1152 0010266 345.3950 104.7532 15.67334339 21913 | 2015/05/21-11:00:14   99.5676   90.2619  104.8669   91.8757     6744.6706     6737.7465     6751.5946 -42.754761 -28.963694  -0.000968  -0.000343
1 40428U 98067FR  15142.54364831  .00066945  00000-0  60371-3 0  9995 | 2 40428 051.6422 208.5880 0010542 352.1023 105.2015 15.67462749 22086 | 2015/05/22-13:02:51  129.6636   97.4203  105.3180   91.8682     6744.3022     6737.1924     6751.4120 -45.346149 -24.711204  -0.000986  -0.000372
1 40428U 98067FR  15143.63353784  .00051673  00000-0  46685-3 0  9995 | 2 40428 051.6420 203.0613 0010118 354.1593 137.3476 15.67530718 22259 | 2015/05/23-15:12:17  134.4217  131.5854  137.4261   91.8642     6744.1072     6737.2836     6750.9309 -47.515096 -20.228984  -0.000966  -0.000300
1 40428U 98067FR  15144.65641479  .00047210  00000-0  42565-3 0  9994 | 2 40428 051.6404 197.8556 0010076 356.4005 151.3383 15.67620973 22417 | 2015/05/24-15:45:14  132.6394  147.7941  151.3936   91.8589     6743.8484     6737.0533     6750.6435 -49.153001 -15.833933  -0.000977  -0.000248
1 40428U 98067FR  15145.73121679  .00042872  00000-0  38597-3 0  9998 | 2 40428 051.6401 192.3861 0010045 358.9861 098.5049 15.67700909 22583 | 2015/05/25-17:32:57  216.3448   97.6048   98.6187   91.8543     6743.6191     6736.8452     6750.3931 -50.438143 -11.076718  -0.000985  -0.000198
1 40428U 98067FR  15147.19277256  .00034760  00000-0  31314-3 0  9990 | 2 40428 051.6414 184.9496 0010409 006.7224 065.0271 15.67781228 22818 | 2015/05/27-04:37:35   57.1235   71.8577   65.1353   91.8495     6743.3888     6736.3696     6750.4080 -51.448828  -4.455590  -0.001019  -0.000211
1 40428U 98067FR  15148.21508071  .00033719  00000-0  30320-3 0  9995 | 2 40428 051.6409 179.7490 0010046 010.4165 075.2343 15.67847288 22970 | 2015/05/28-05:09:42   57.4613   85.7622   75.3457   91.8457     6743.1994     6736.4252     6749.9736 -51.640404   0.226227  -0.000989  -0.000177
1 40428U 98067FR  15149.50154977  .00035427  00000-0  31687-3 0  9995 | 2 40428 051.6413 173.2043 0010669 014.6943 137.2261 15.67945059 23175 | 2015/05/29-12:02:13  102.1333  152.0033  137.3090   91.8400     6742.9191     6735.7251     6750.1131 -51.278488   6.110686  -0.001057  -0.000147
1 40428U 98067FR  15150.88810718  .00036930  00000-0  32861-3 0  9995 | 2 40428 051.6408 166.1449 0010530 019.8280 044.1983 15.68052735 23390 | 2015/05/30-21:18:52  337.6141   64.1105   44.2825   91.8336     6742.6104     6735.5104     6749.7104 -50.138282  12.366281  -0.001047  -0.000110
1 40428U 98067FR  15152.23027083  .00034923  00000-0  31004-3 0  9999 | 2 40428 051.6407 159.3145 0010276 026.0321 059.7611 15.68140697 23608 | 2015/06/01-05:31:35   87.1794   85.8950   59.8629   91.8285     6742.3582     6735.4298     6749.2867 -48.311603  18.241463  -0.001023  -0.000096
1 40428U 98067FR  15153.56935453  .00038095  00000-0  33611-3 0  9995 | 2 40428 051.6404 152.4977 0009965 031.1267 059.5958 15.68253767 23819 | 2015/06/02-13:39:52  212.4569   90.8210   59.6943   91.8219     6742.0342     6735.3157     6748.7526 -45.804637  23.846722  -0.000995  -0.000063
1 40428U 98067FR  15154.84052810  .00049447  00000-0  43070-3 0  9997 | 2 40428 051.6390 146.0185 0011887 030.6186 042.1723 15.68421187 24017 | 2015/06/03-20:10:21  335.7431   72.8825   42.2639   91.8121     6741.5544     6733.5407     6749.5681 -42.819993  28.862338  -0.001187   0.000070
1 40428U 98067FR  15156.11020722  .00065651  00000-0  56435-3 0  9990 | 2 40428 051.6387 139.5572 0010467 039.9204 007.5105 15.68645330 24215 | 2015/06/05-02:38:41  105.9004   47.4466    7.5262   91.7990     6740.9122     6733.8564     6747.9679 -39.299837  33.497435  -0.001047   0.000010
1 40428U 98067FR  15157.13612558  .00067027  00000-0  57265-3 0  9998 | 2 40428 051.6385 134.3292 0010518 043.0087 042.0703 15.68786003 24375 | 2015/06/06-03:16:01   83.8221   85.1598   42.1511   91.7907     6740.5092     6733.4195     6747.5988 -36.083948  36.938914  -0.001051   0.000049
1 40428U 98067FR  15158.15929007  .00072204  00000-0  61232-3 0  9993 | 2 40428 051.6384 129.1153 0009735 048.2580 059.5014 15.68946337 24530 | 2015/06/07-03:49:22   75.7033  107.8556   59.5976   91.7813     6740.0499     6733.4885     6746.6114 -32.577790  40.065097  -0.000972   0.000045
1 40428U 98067FR  15159.24687630  .00077271  00000-0  64963-3 0  9990 | 2 40428 051.6383 123.5741 0009818 054.5444 080.6671 15.69128319 24707 | 2015/06/08-05:55:30   86.3954  135.3225   80.7781   91.7707     6739.5288     6732.9119     6746.1457 -28.556753  43.023550  -0.000981   0.000032
1 40428U 98067FR  15160.39430529  .00126038  00000-0  10376-2 0  9995 | 2 40428 051.6396 117.7250 0009565 057.8492 083.9933 15.69427639 24882 | 2015/06/09-09:27:47  139.8189  141.9515   84.1023   91.7532     6738.6719     6732.2263     6745.1174 -24.024205  45.710894  -0.000954   0.000074
1 40428U 98067FR  15161.47024455  .00082206  00000-0  67794-3 0  9997 | 2 40428 051.6395 112.2356 0009509 063.7108 041.4196 15.69573480 25052 | 2015/06/10-11:17:09  210.4190  105.2026   41.4918   91.7447     6738.2544     6731.8470     6744.6619 -19.541213  47.799362  -0.000949   0.000067
1 40428U 98067FR  15162.48953797  .00079447  00000-0  65134-3 0  9998 | 2 40428 051.6404 107.0319 0009607 066.4249 042.3214 15.69728516 25210 | 2015/06/11-11:44:56  219.9571  108.8205   42.3956   91.7356     6737.8108     6731.3378     6744.2838 -15.125684  49.375546  -0.000954   0.000109
1 40428U 98067FR  15163.88950334  .00080274  00000-0  65200-3 0  9991 | 2 40428 051.6399 099.8848 0009357 072.7878 033.0838 15.69952476 25435 | 2015/06/12-21:20:53   15.3463  105.9302   33.1424   91.7225     6737.1700     6730.8660     6743.4739  -8.864906  50.873301  -0.000928   0.000119
1 40428U 98067FR  15165.09421138  .00074849  00000-0  60459-3 0  9993 | 2 40428 051.6413 093.7287 0009483 077.5742 001.9445 15.70112449 25624 | 2015/06/14-02:15:39  122.7376   79.5224    1.9482   91.7132     6736.7123     6730.3239     6743.1008  -3.358346  51.531984  -0.000937   0.000143
1 40428U 98067FR  15166.18735575  .00069871  00000-0  56193-3 0  9996 | 2 40428 051.6424 088.1476 0009118 081.7049 061.0741 15.70249135 25793 | 2015/06/15-04:29:47   99.6679  142.8705   61.1656   91.7052     6736.3214     6730.1792     6742.4636   1.669333  51.615412  -0.000898   0.000161
1 40428U 98067FR  15167.20765277  .00070043  00000-0  56000-3 0  9992 | 2 40428 051.6412 082.9400 0008927 086.8219 067.7378 15.70392116 25956 | 2015/06/16-04:59:01  101.4073  154.6544   67.8325   91.6968     6735.9125     6729.8994     6741.9257   6.347151  51.249656  -0.000878   0.000159
1 40428U 98067FR  15168.27647287  .00073488  00000-0  58303-3 0  9994 | 2 40428 051.6399 077.4800 0008917 090.4824 350.9767 15.70558240 26126 | 2015/06/17-06:38:07  205.7967   81.4431  350.9607   91.6871     6735.4375     6729.4315     6741.4435  11.194518  50.411924  -0.000872   0.000186
1 40428U 98067FR  15169.29585916  .00077032  00000-0  60642-3 0  9995 | 2 40428 051.6399 072.2747 0008809 099.3852 349.9324 15.70725972 26280 | 2015/06/18-07:06:02  211.1273   89.2999  349.9147   91.6774     6734.9580     6729.0252     6740.8908  15.721958  49.188406  -0.000872   0.000128
1 40428U 98067FR  15170.31526888  .00085216  00000-0  66390-3 0  9992 | 2 40428 051.6370 067.0627 0009274 097.1736 000.8927 15.70928251 26447 | 2015/06/19-07:33:59  215.5829   98.0680    0.8944   91.6655     6734.3798     6728.1344     6740.6253  20.124156  47.554160  -0.000893   0.000252
1 40428U 98067FR  15171.51722524  .00102153  00000-0  78404-3 0  9999 | 2 40428 051.6418 060.9267 0007447 112.0719 308.9660 15.71228785 26633 | 2015/06/20-12:24:48  332.6363   60.9715  308.8996   91.6480     6733.5211     6728.5066     6738.5355  25.094204  45.134869  -0.000739   0.000091
1 40428U 98067FR  15172.53700657  .00104054  00000-0  79136-3 0  9990 | 2 40428 051.6422 055.7098 0007362 115.9739 317.6281 15.71439269 26796 | 2015/06/21-12:53:17  333.4155   73.5451  317.5712   91.6357     6732.9198     6727.9630     6737.8766  29.094428  42.666510  -0.000728   0.000106
1 40428U 98067FR  15173.87486711  .00083156  00000-0  63054-3 0  9991 | 2 40428 051.6397 048.8580 0008222 111.8662 335.4442 15.71595422 27008 | 2015/06/22-20:59:48   89.5073   87.2712  335.4050   91.6266     6732.4738     6726.9383     6738.0092  33.975177  38.888893  -0.000776   0.000271
1 40428U 98067FR  15175.15642216  .00140723  00000-0  10384-2 0  9999 | 2 40428 051.6319 042.3071 0008739 125.4569 018.5167 15.72001888 27200 | 2015/06/24-03:45:14  142.0180  144.0054   18.5485   91.6029     6731.3132     6725.4307     6737.1957  38.184252  34.753647  -0.000854   0.000185
1 40428U 98067FR  15176.16333514  .00051380  00000-0  38489-3 0  9996 | 2 40428 051.6369 037.1386 0007861 132.6717 313.5968 15.72083818 27363 | 2015/06/25-03:55:12  208.3727   86.2032  313.5315   91.5982     6731.0793     6725.7880     6736.3706  41.163768  31.175530  -0.000774   0.000139
1 40428U 98067FR  15177.43045362  .00057209  00000-0  42505-3 0  9998 | 2 40428 051.6388 030.6548 0007396 135.9518 286.7788 15.72238049 27561 | 2015/06/26-10:19:51  335.8060   62.6494  286.6976   91.5892     6730.6391     6725.6612     6735.6171  44.422524  26.328787  -0.000719   0.000171
1 40428U 98067FR  15178.71145495  .00057302  00000-0  42311-3 0  9997 | 2 40428 051.6373 024.0909 0007132 143.0914 335.4174 15.72385645 27769 | 2015/06/27-17:04:29   29.0148  118.4748  335.3834   91.5806     6730.2179     6725.4179     6735.0179  47.139641  21.077596  -0.000695   0.000158
1 40428U 98067FR  15179.78968693  .00051002  00000-0  37618-3 0  9993 | 2 40428 051.6346 018.5626 0005381 140.3661 325.7549 15.72474659 27937 | 2015/06/28-18:57:08   76.1572  106.0863  325.7202   91.5754     6729.9639     6726.3426     6733.5853  48.948383  16.437389  -0.000502   0.000193
1 40428U 98067FR  15181.05613578  .00046619  00000-0  34272-3 0  9996 | 2 40428 051.6388 012.0747 0006610 146.3911 294.0319 15.72582253 28132 | 2015/06/30-01:20:50  205.5130   80.3538  293.9627   91.5691     6729.6570     6725.2087     6734.1053  50.496328  10.802155  -0.000615   0.000243
1 40428U 98067FR  15182.07442513  .00046099  00000-0  33763-3 0  9994 | 2 40428 051.6386 006.8611 0006713 150.3721 298.9955 15.72674398 28297 | 2015/07/01-01:47:10  209.3698   89.3003  298.9282   91.5638     6729.3941     6724.8767     6733.9115  51.268799   6.168892  -0.000619   0.000260
1 40428U 98067FR  15183.09376249  .00045149  00000-0  32957-3 0  9998 | 2 40428 051.6386 001.6365 0006498 153.8461 310.6697 15.72763957 28458 | 2015/07/02-02:15:01  207.4124  104.4593  310.6132   91.5586     6729.1386     6724.7660     6733.5112  51.617538   1.474717  -0.000591   0.000270
1 40428U 98067FR  15184.11118148  .00044524  00000-0  32388-3 0  9998 | 2 40428 051.6385 356.4205 0006379 157.5230 311.6050 15.72852974 28614 | 2015/07/03-02:40:06  215.2898  109.0733  311.5503   91.5534     6728.8847     6724.5924     6733.1771  51.537760  -3.223969  -0.000573   0.000280
1 40428U 98067FR  15185.49667433  .00045552  00000-0  32943-3 0  9995 | 2 40428 051.6386 349.3172 0006072 160.9682 238.8110 15.72982313 28830 | 2015/07/04-11:55:12   71.8849   39.7197  238.7515   91.5458     6728.5159     6724.4303     6732.6014  50.743625  -9.572331  -0.000527   0.000301
1 40428U 98067FR  15186.85102917  .00262046  00000-0  17968-2 0  9995 | 2 40428 051.6352 342.3716 0005310 168.6985 346.2718 15.73369975 29041 | 2015/07/05-20:25:28   92.5421  154.9559  346.2574   91.5233     6727.4106     6723.8384     6730.9829  49.210446 -15.637324  -0.000465   0.000257
1 40428U 98067FR  15188.04926193  .00078743  00000-0  55130-3 0  9991 | 2 40428 051.6374 336.2223 0005348 173.3903 293.3493 15.73520623 29236 | 2015/07/07-01:10:56  219.4669  106.6833  293.2930   91.5145     6726.9812     6723.3836     6730.5788  47.254245 -20.819640  -0.000461   0.000271
1 40428U 98067FR  15189.43854191  .00112595  00000-0  77137-3 0  9998 | 2 40428 051.6388 329.0927 0005842 186.3178 236.5736 15.73873984 29453 | 2015/07/08-10:31:30   51.9549   62.8356  236.5178   91.4940     6725.9743     6722.0450     6729.9036  44.306063 -26.524299  -0.000531   0.000243
1 40428U 98067FR  15190.45579567  .00120285  00000-0  81388-3 0  9991 | 2 40428 051.6391 323.8702 0005458 188.3532 242.6869 15.74135781 29619 | 2015/07/09-10:56:20   56.2427   70.9845  242.6313   91.4788     6725.2285     6721.5579     6728.8992  41.708040 -30.447266  -0.000483   0.000254
1 40428U 98067FR  15191.47942039  .00137164  00000-0  91306-3 0  9997 | 2 40428 051.6401 318.6092 0004690 193.4259 283.0545 15.74457753 29778 | 2015/07/10-11:30:21   25.5772  116.4280  283.0021   91.4601     6724.3117     6721.1579     6727.4654  38.741294 -34.143991  -0.000414   0.000220
1 40428U 98067FR  15192.48228867  .00143417  00000-0  94166-3 0  9990 | 2 40428 051.6386 313.4540 0004693 196.8685 208.3291 15.74752975 29934 | 2015/07/11-11:34:29  104.0363   45.1721  208.3036   91.4429     6723.4712     6720.3159     6726.6265  35.515582 -37.485843  -0.000408   0.000232
1 40428U 98067FR  15193.50365455  .00152978  00000-0  98849-3 0  9993 | 2 40428 051.6398 308.2016 0005734 198.7282 241.3152 15.75082810 30095 | 2015/07/12-12:05:15   83.1413   79.9858  241.2576   91.4238     6722.5325     6718.6778     6726.3872  31.935619 -40.580601  -0.000481   0.000313
1 40428U 98067FR  15194.52425352  .00154761  00000-0  98665-3 0  9997 | 2 40428 051.6406 302.9497 0004508 208.5330 263.0914 15.75393212 30257 | 2015/07/13-12:34:55   65.2338  111.5731  263.0401   91.4058     6721.6495     6718.6194     6724.6796  28.087454 -43.334126  -0.000396   0.000215
1 40428U 98067FR  15195.53507065  .00155383  00000-0  97787-3 0  9996 | 2 40428 051.6405 297.7489 0003206 227.7227 221.0314 15.75693164 30415 | 2015/07/14-12:50:30   98.1953   88.7300  221.0073   91.3884     6720.7964     6718.6417     6722.9511  24.043689 -45.701666  -0.000310   0.000080
1 40428U 98067FR  15196.86899505  .00106805  00000-0  67133-3 0  9993 | 2 40428 051.6376 290.8845 0003368 235.4830 225.4531 15.75894566 30628 | 2015/07/15-20:51:21  214.4053  100.9086  225.4256   91.3767     6720.2238     6717.9604     6722.4872  18.408043 -48.245059  -0.000327   0.000079
1 40428U 98067FR  15198.06668039  .00085917  00000-0  53857-3 0  9991 | 2 40428 051.6388 284.7155 0003201 238.8477 181.6386 15.76047164 30814 | 2015/07/17-01:36:01  333.3713   60.4853  181.6376   91.3678     6719.7900     6717.6390     6721.9410  13.117268 -49.944999  -0.000307   0.000091
1 40428U 98067FR  15199.08313912  .00069018  00000-0  43201-3 0  9997 | 2 40428 051.6381 279.4717 0003160 247.0373 184.6601 15.76167309 30977 | 2015/07/18-01:59:43  334.3310   71.6945  184.6572   91.3609     6719.4485     6717.3252     6721.5719   8.497588 -50.934118  -0.000307   0.000074
1 40428U 98067FR  15200.23008286  .00063103  00000-0  39347-3 0  9997 | 2 40428 051.6385 273.5669 0002985 258.2514 206.0037 15.76292052 31154 | 2015/07/19-05:31:19    1.7084  104.2401  205.9887   91.3536     6719.0940     6717.0884     6721.0997   3.212635 -51.538468  -0.000295   0.000042
1 40428U 98067FR  15201.23325289  .00055838  00000-0  34758-3 0  9990 | 2 40428 051.6375 268.3977 0002490 267.5765 133.2392 15.76381496 31313 | 2015/07/20-05:35:53   72.4469   40.8365  133.2600   91.3484     6718.8398     6717.1669     6720.5128  -1.443876 -51.617309  -0.000248   0.000017
1 40428U 98067FR  15202.57225981  .00049153  00000-0  30513-3 0  9994 | 2 40428 051.6375 261.4941 0003124 268.6874 176.3026 15.76495531 31527 | 2015/07/21-13:44:03  158.5385   84.9923  176.3049   91.3418     6718.5158     6716.4170     6720.6147  -7.637767 -51.069520  -0.000308   0.000053
1 40428U 98067FR  15203.59291291  .00045849  00000-0  28397-3 0  9999 | 2 40428 051.6384 256.2354 0002810 272.8990 208.7174 15.76579054 31688 | 2015/07/22-14:13:47  135.6119  121.6009  208.7019   91.3370     6718.2786     6716.3907     6720.1664 -12.286500 -50.155421  -0.000276   0.000053
1 40428U 98067FR  15204.73081169  .00046542  00000-0  28680-3 0  9993 | 2 40428 051.6382 250.3683 0002761 280.9678 183.6015 15.76687733 31863 | 2015/07/23-17:32:22  209.2913  104.5673  183.5995   91.3307     6717.9698     6716.1150     6719.8247 -17.349027 -48.636560  -0.000273   0.000042
1 40428U 98067FR  15206.11603303  .00054403  00000-0  33172-3 0  9994 | 2 40428 051.6391 243.2251 0003068 286.7158 126.3120 15.76860163 32089 | 2015/07/25-02:47:05   48.0210   53.0561  126.3403   91.3207     6717.4801     6715.4192     6719.5410 -23.262716 -46.102524  -0.000302   0.000054
1 40428U 98067FR  15207.13059877  .00055246  00000-0  33509-3 0  9998 | 2 40428 051.6399 237.9933 0002812 294.3032 122.2069 15.76973620 32244 | 2015/07/26-03:08:03   56.0142   56.5374  122.2342   91.3141     6717.1579     6715.2690     6719.0467 -27.370099 -43.789919  -0.000279   0.000038
1 40428U 98067FR  15208.21271818  .00052073  00000-0  31476-3 0  9995 | 2 40428 051.6395 232.4091 0002770 297.6738 146.4545 15.77076091 32410 | 2015/07/27-05:06:18   64.6097   84.1458  146.4720   91.3082     6716.8669     6715.0063     6718.7275 -31.501093 -40.918445  -0.000273   0.000048
1 40428U 98067FR  15209.49260325  .00052129  00000-0  31324-3 0  9991 | 2 40428 051.6389 225.8054 0002668 298.4641 217.4014 15.77209506 32617 | 2015/07/28-11:49:20  101.4964  155.8469  217.3828   91.3005     6716.4881     6714.6962     6718.2801 -35.997350 -37.023868  -0.000257   0.000072
1 40428U 98067FR  15210.62378622  .00057030  00000-0  33996-3 0  9991 | 2 40428 051.6386 219.9669 0002815 310.2374 153.1171 15.77352241 32794 | 2015/07/29-14:58:15  208.1867  103.3691  153.1317   91.2922     6716.0829     6714.1923     6717.9735 -39.576632 -33.169794  -0.000277   0.000048
1 40428U 98067FR  15212.08166855  .00059837  00000-0  35356-3 0  9995 | 2 40428 051.6378 212.4439 0002666 313.5878 154.3944 15.77532055 33028 | 2015/07/31-01:57:36   17.3566  107.9954  154.4076   91.2818     6715.5726     6713.7822     6717.3629 -43.578024 -27.702314  -0.000259   0.000064
1 40428U 98067FR  15213.09582865  .00062700  00000-0  36795-3 0  9991 | 2 40428 051.6381 207.2093 0002573 309.8585 161.8333 15.77667446 33185 | 2015/08/01-02:17:59   24.9788  111.7010  161.8425   91.2740     6715.1884     6713.4605     6716.9162 -45.923940 -23.611123  -0.000237   0.000100
1 40428U 98067FR  15214.10496071  .00068183  00000-0  39682-3 0  9996 | 2 40428 051.6381 201.9995 0002532 311.5382 135.8336 15.77820348 33341 | 2015/08/02-02:31:08   58.7908   87.3920  135.8538   91.2651     6714.7545     6713.0543     6716.4547 -47.878181 -19.343555  -0.000227   0.000113
1 40428U 98067FR  15215.11914288  .00071868  00000-0  41498-3 0  9995 | 2 40428 051.6377 196.7588 0002527 319.6312 132.6696 15.77975674 33506 | 2015/08/03-02:51:33   65.2077   92.3221  132.6909   91.2562     6714.3139     6712.6172     6716.0106 -49.444496 -14.889387  -0.000232   0.000101
1 40428U 98067FR  15216.13354819  .00072413  00000-0  41535-3 0  9995 | 2 40428 051.6378 191.5186 0002506 321.4470 137.5649 15.78122155 33665 | 2015/08/04-03:12:18   69.9226   99.0313  137.5843   91.2477     6713.8984     6712.2159     6715.5809 -50.597811 -10.311348  -0.000223   0.000114
1 40428U 98067FR  15217.14859818  .00072116  00000-0  41101-3 0  9995 | 2 40428 051.6372 186.2735 0002637 325.9076 144.0068 15.78266250 33827 | 2015/08/05-03:33:58   70.6837  109.9322  144.0246   91.2394     6713.4897     6711.7194     6715.2601 -51.327976  -5.642633  -0.000233   0.000123
1 40428U 98067FR  15218.16210005  .00072261  00000-0  40915-3 0  9990 | 2 40428 051.6367 181.0341 0002481 327.8168 144.7371 15.78411883 33982 | 2015/08/06-03:53:25   79.1432  112.5703  144.7535   91.2309     6713.0768     6711.4113     6714.7423 -51.628290  -0.931912  -0.000212   0.000128
1 40428U 98067FR  15219.42363635  .00075293  00000-0  42229-3 0  9996 | 2 40428 051.6369 174.5136 0002427 328.8868 117.3950 15.78607384 34186 | 2015/08/07-10:10:02  207.3323   86.3065  117.4197   91.2196     6712.5225     6710.8934     6714.1516 -51.400347   4.936977  -0.000195   0.000145
1 40428U 98067FR  15220.43884436  .00094728  00000-0  52389-3 0  9998 | 2 40428 051.6363 169.2646 0002705 338.1144 121.9678 15.78826911 34342 | 2015/08/08-10:31:56  205.2564  100.1085  121.9941   91.2070     6711.9003     6710.0847     6713.7158 -50.732556   9.618484  -0.000228   0.000146
1 40428U 98067FR  15221.45235103  .00095356  00000-0  52277-3 0  9996 | 2 40428 051.6367 164.0192 0002686 339.7954 125.0839 15.79018268 34500 | 2015/08/09-10:51:23  211.5661  104.9045  125.1091   91.1959     6711.3580     6709.5553     6713.1607 -49.641149  14.216369  -0.000217   0.000159
1 40428U 98067FR  15222.46539561  .00096990  00000-0  52686-3 0  9992 | 2 40428 051.6366 158.7799 0002539 339.3295 128.4383 15.79215571 34667 | 2015/08/10-11:10:10  219.6114  107.7906  128.4611   91.1845     6710.7990     6709.0951     6712.5028 -48.135478  18.689951  -0.000189   0.000170
1 40428U 98067FR  15223.84830135  .00089424  00000-0  48156-3 0  9997 | 2 40428 051.6378 151.6201 0003237 355.8697 059.7401 15.79437762 34884 | 2015/08/11-20:21:33   58.1383   55.6418   59.7721   91.1717     6710.1696     6707.9975     6712.3417 -45.431730  24.544251  -0.000273   0.000174
1 40428U 98067FR  15225.12012932  .00247156  00000-0  12737-2 0  9990 | 2 40428 051.6369 145.0374 0002211 334.1073 118.9170 15.79896557 35086 | 2015/08/13-02:52:59  126.4182   93.0465  118.9392   91.1452     6708.8705     6707.3871     6710.3538 -42.317796  29.590092  -0.000108   0.000193
1 40428U 98067FR  15226.95530943  .00166526  00000-0  84284-3 0  9997 | 2 40428 051.6437 135.5235 0004297 333.8493 126.2305 15.80518817 35376 | 2015/08/14-22:55:38   71.3503  100.1195  126.2702   91.1093     6707.1095     6704.2274     6709.9915 -36.849736  36.182437  -0.000143   0.000405
1 40428U 98067FR  15227.96879881  .00155484  00000-0  77808-3 0  9991 | 2 40428 051.6378 130.2656 0003692 336.4140 134.6448 15.80803025 35532 | 2015/08/15-23:15:04   71.4843  111.0889  134.6749   91.0929     6706.3055     6703.8296     6708.7815 -33.375150  39.402560  -0.000106   0.000354
1 40428U 98067FR  15229.11451909  .00190852  00000-0  93049-3 0  9990 | 2 40428 051.6382 124.3325 0000633 278.1975 238.5320 15.81266955 35713 | 2015/08/17-02:44:54   85.3353  156.7233  238.5258   91.0662     6704.9938     6704.5693     6705.4182 -29.123663  42.641716   0.000047   0.000043
1 40428U 98067FR  15230.12420440  .00217855  00000-0  10356-2 0  9991 | 2 40428 051.6326 119.0777 0002691 311.1874 198.0934 15.81734047 35875 | 2015/08/18-02:58:51  102.5207  149.2712  198.0838   91.0393     6703.6737     6701.8697     6705.4776 -25.093199  45.124902   0.000091   0.000253
1 40428U 98067FR  15231.19751325  .00152070  00000-0  72033-3 0  9996 | 2 40428 051.6360 113.4980 0002075 306.0706 199.4669 15.82006141 36048 | 2015/08/19-04:44:25  139.2928  145.5296  199.4590   91.0237     6702.9050     6701.5142     6704.2959 -20.588154  47.354033   0.000105   0.000179
1 40428U 98067FR  15232.19912213  .00152660  00000-0  71310-3 0  9994 | 2 40428 051.6354 108.2904 0002036 306.4807 147.8489 15.82303775 36200 | 2015/08/20-04:46:44  197.2747   94.3420  147.8613   91.0065     6702.0644     6700.6999     6703.4290 -16.204912  49.026680   0.000117   0.000166
1 40428U 98067FR  15233.21047775  .00146515  00000-0  67651-3 0  9995 | 2 40428 051.6341 103.0329 0001910 297.1343 162.4874 15.82571369 36365 | 2015/08/21-05:03:05  202.3250   99.6283  162.4940   90.9912     6701.3089     6700.0290     6702.5889 -11.644032  50.304043   0.000146   0.000123
1 40428U 98067FR  15234.22156399  .00074646  00000-0  34819-3 0  9995 | 2 40428 051.6354 097.7823 0002137 289.6726 174.1458 15.82631230 36520 | 2015/08/22-05:19:03  208.3665  103.8209  174.1483   90.9877     6701.1399     6699.7079     6702.5720  -6.991924  51.159823   0.000190   0.000099
1 40428U 98067FR  15235.47828544  .00075916  00000-0  35087-3 0  9990 | 2 40428 051.6346 091.2400 0002002 297.6170 131.6324 15.82821272 36723 | 2015/08/23-11:28:43  343.1362   69.2665  131.6495   90.9768     6700.6035     6699.2621     6701.9450  -1.117393  51.622508   0.000175   0.000097
1 40428U 98067FR  15236.73707994  .00086342  00000-0  39358-3 0  9995 | 2 40428 051.6301 084.6955 0002401 256.1229 151.4886 15.83064762 36922 | 2015/08/24-17:41:23  105.7253   47.6246  151.5017   90.9628     6699.9164     6698.3078     6701.5251   4.773140  51.408991   0.000227  -0.000079
1 40428U 98067FR  15237.88020402  .00094426  00000-0  42506-3 0  9995 | 2 40428 051.6340 078.7373 0002456 306.1489 141.1209 15.83296949 37107 | 2015/08/25-21:07:29  124.6766   87.2875  141.1386   90.9495     6699.2614     6697.6161     6700.9068  10.084519  50.639633   0.000223   0.000103
1 40428U 98067FR  15239.89880479 +.00175085 +00000-0 +75310-3 0  9996 | 2 40428 051.6314 068.2321 0002741 298.8190 144.5592 15.83986347037423 | 2015/08/27-21:34:16  147.7593   83.3964  144.5774   90.9099     6697.3175     6695.4817     6699.1532  19.147380  47.949758   0.000272   0.000034
1 40428U 98067FR  15240.91955696 +.00181077 +00000-0 +76483-3 0  9995 | 2 40428 051.6338 062.9028 0002946 307.5258 201.1827 15.84350802037584 | 2015/08/28-22:04:09   96.2352  148.6963  201.1705   90.8890     6696.2903     6694.3176     6698.2631  23.519268  45.966219   0.000290   0.000053
1 40428U 98067FR  15242.04582469  .00168844  00000-0  70234-3 0  9990 | 2 40428 051.6309 057.0261 0003574 311.9403 145.6630 15.84703987 37765 | 2015/08/30-01:05:59  199.7836   97.6264  145.6861   90.8687     6695.2954     6692.9025     6697.6883  28.100476  43.314121   0.000353   0.000056
1 40428U 98067FR  15243.05552231  .00124171  00000-0  51567-3 0  9999 | 2 40428 051.6339 051.7579 0004411 328.4581 133.3981 15.84873194 37921 | 2015/08/31-01:19:57  205.2852  101.8929  133.4348   90.8590     6694.8188     6691.8657     6697.7719  31.960644  40.553383   0.000414   0.000152
1 40428U 98067FR  15244.06507036  .00108301  00000-0  44732-3 0  9997 | 2 40428  51.6288  46.4932 0002235 332.5179 133.5019 15.85051784 38085 | 2015/09/01-01:33:42  210.8187  106.0384  133.5205   90.8488     6694.3159     6692.8197     6695.8121  35.543365  37.445990   0.000211   0.000073
1 40428U 98067FR  15245.51560648  .00103064  00000-0  42041-3 0  9998 | 2 40428  51.6315  38.9161 0002899 323.5485 145.7827 15.85329458 38316 | 2015/09/02-12:22:28   18.7071  109.3499  145.8014   90.8329     6693.5342     6691.5938     6695.4747  40.172749  32.433964   0.000290   0.000012
1 40428U 98067FR  15246.64965381  .00109077  00000-0  43891-3 0  9990 | 2 40428  51.6329  32.9948 0004207 337.8710 128.6125 15.85583483 38492 | 2015/09/03-15:35:30   76.8509  106.5212  128.6502   90.8183     6692.8193     6690.0036     6695.6350  43.305546  28.117363   0.000413   0.000079
1 40428U 98067FR  15247.77996383  .00111531  00000-0  44318-3 0  9994 | 2 40428  51.6337  27.0917 0004002 341.9108 101.4148 15.85835777 38672 | 2015/09/04-18:43:08  153.9376   83.3705  101.4597   90.8039     6692.1094     6689.4312     6694.7876  45.968388  23.514810   0.000395   0.000063
1 40428U 98067FR  15248.86020802  .00131078  00000-0  51085-3 0  9996 | 2 40428  51.6315  21.4426 0005639 348.6861 146.7219 15.86157751 38848 | 2015/09/05-20:38:41  137.4570  135.4434  146.7573   90.7854     6691.2038     6687.4306     6694.9769  48.057788  18.874872   0.000555   0.000099
1 40428U 98067FR  15249.86936957  .00165865  00000-0  63083-3 0  9996 | 2 40428  51.6358  16.1683 0003911 359.4368 143.3887 15.86564694 39005 | 2015/09/06-20:51:53  139.6066  142.8522  143.4154   90.7621     6690.0596     6687.4431     6692.6760  49.593495  14.378493   0.000377   0.000105
1 40428U 98067FR  15251.17820536  .00221474  00000-0  80978-3 0  9999 | 2 40428  51.6339   9.3112 0004495 352.5466  72.8009 15.87214126 39214 | 2015/09/08-04:16:36  336.4126   65.3967   72.8501   90.7250     6688.2345     6685.2282     6691.2409  50.953577   8.354196   0.000449   0.000015
1 40428U 98067FR  15252.43987318  .00412749  00000-0  13901-2 0  9999 | 2 40428  51.6312   2.6942 0005671 346.4828  96.3225 15.88400513 39414 | 2015/09/09-10:33:25   61.0158   82.8699   96.3871   90.6572     6684.9038     6681.1128     6688.6948  51.574129   2.426942   0.000557  -0.000106
1 40428U 98067FR  15253.44691881  .00404119  00000-0  13143-2 0  9998 | 2 40428  51.6331 357.4042 0005872 353.4433  92.9841 15.89120050 39579 | 2015/09/10-10:43:33   66.2127   86.4946   93.0513   90.6162     6682.8857     6678.9616     6686.8099  51.580119  -2.338451   0.000580  -0.000093
1 40428U 98067FR  15254.45464008  .00358688  58597-4  11900-2 0  9995 | 2 40428  51.6316 352.1177 0006592 349.8829 106.4619 15.89769554 39731 | 2015/09/11-10:54:40   65.3547   96.4172  106.5343   90.5792     6681.0654     6676.6613     6685.4696  51.143778  -7.080683   0.000627  -0.000204
1 40428U 98067FR  15255.46062506  .00349132  56413-4  11207-2 0  9993 | 2 40428  51.6342 346.8189 0005995 351.7074 107.0907 15.90428613 39897 | 2015/09/12-11:03:18   71.3464   98.8637  107.1563   90.5416     6679.2196     6675.2154     6683.2238  50.273854 -11.774131   0.000558  -0.000219
1 40428U 98067FR  15256.46642021  .00348642  56671-4  10812-2 0  9992 | 2 40428  51.6343 341.5179 0006220   0.8667 101.7299 15.91099164 40052 | 2015/09/13-11:11:38   75.9265  102.6664  101.7997   90.5035     6677.3429     6673.1896     6681.4962  48.971144 -16.368505   0.000593  -0.000188
1 40428U 98067FR  15257.78455125  .00314879  48448-4  94136-3 0  9995 | 2 40428  51.6310 334.5865 0006698 359.3721  99.9299 15.91820142 40261 | 2015/09/14-18:49:45  201.9789   99.3776  100.0055   90.4625     6675.3265     6670.8553     6679.7976  46.634885 -22.157339   0.000602  -0.000294
1 40428U 98067FR  15258.78922603  .00277459  40171-4  80812-3 0  9999 | 2 40428  51.6318 329.2849 0007179   2.2143  99.2267 15.92341252 40426 | 2015/09/15-18:56:29  207.8147  101.5222   99.3079   90.4329     6673.8700     6669.0788     6678.6612  44.388772 -26.371949   0.000631  -0.000343
1 40428U 98067FR  15260.22165024  .00288603  42933-4  80427-3 0  9990 | 2 40428  51.6290 321.7245 0008010  10.7185  29.7142 15.93161789 40658 | 2015/09/17-05:19:10   73.4679   40.4782   29.7597   90.3863     6671.5783     6666.2344     6676.9222  40.530898 -31.981243   0.000710  -0.000371
1 40428U 98067FR  15261.54670325  .00277666  40816-4  74526-3 0  9999 | 2 40428  51.6301 314.7203 0007961  14.5719  72.4311 15.93879899 40860 | 2015/09/18-13:07:15  152.2270   87.0900   72.5181   90.3456     6669.5743     6664.2646     6674.8839  36.329339 -36.685779   0.000684  -0.000407
1 40428U 98067FR  15262.55426204  .00363216  63034-4  93188-3 0  9995 | 2 40428  51.6291 309.3809 0008365  16.5905  97.2822 15.94667676 41028 | 2015/09/19-13:18:08  134.4109  113.9678   97.3773   90.3009     6667.3775     6661.8003     6672.9548  32.757264 -39.906461   0.000693  -0.000468
1 40428U 98067FR  15263.62369245  .00329575  54062-4  81494-3 0  9993 | 2 40428  51.6305 303.7201 0008400  21.3126 117.5163 15.95366680 41191 | 2015/09/20-14:58:07  141.1646  138.9142  117.6016   90.2614     6665.4299     6659.8309     6671.0288  28.661962 -42.944155   0.000688  -0.000481
1 40428U 98067FR  15264.68150554  .00574338  14967-3  13201-2 0  9999 | 2 40428  51.6263 298.1113 0007076  25.3608  75.7224 15.96667342 41362 | 2015/09/21-16:21:22  206.3744  101.1618   75.8010   90.1879     6661.8096     6657.0957     6666.5235  24.325582 -45.536150   0.000569  -0.000421
1 40428U 98067FR  15266.24425569  .00460761  99966-4  98520-3 0  9999 | 2 40428  51.6272 289.8062 0007907  34.0423  59.2194 15.97971393 41613 | 2015/09/23-05:51:43   66.6314   93.3396   59.2973   90.1143     6658.1847     6652.9201     6663.4494  17.493347 -48.573147   0.000638  -0.000466
1 40428U 98067FR  15267.44045027  .00567513  15148-3  11242-2 0  9996 | 2 40428  51.6265 283.4340 0006549  60.3449  82.0421 15.99333393 41807 | 2015/09/24-10:34:14   95.6873  142.4613   82.1164   90.0375     6654.4041     6650.0461     6658.7621  11.994133 -50.213905   0.000629  -0.000183
1 40428U 98067FR  15268.86305213  .00727777  25800-3  12776-2 0  9998 | 2 40428  51.6267 275.8339 0008228  40.6972  23.6336 16.01408675 42032 | 2015/09/25-20:42:47  334.8825   64.3686   23.6714   89.9208     6648.6539     6643.1833     6654.1244   5.247592 -51.359312   0.000597  -0.000566
1 40428U 98067FR  15270.23898536  .00900573  42133-3  13780-2 0  9998 | 2 40428  51.6200 268.4510 0008499  40.4378  47.3520 16.03744914 42259 | 2015/09/27-05:44:08   95.4985   87.8615   47.4237   89.7898     6642.1954     6636.5502     6647.8406  -1.395384 -51.601137   0.000534  -0.000662
1 40428U 98067FR  15271.54857845  .01123894  72778-3  14545-2 0  9993 | 2 40428  51.6224 261.4175 0006154  59.7981  40.9292 16.06578164 42467 | 2015/09/28-13:09:57  202.3389  100.7735   40.9754   89.6315     6634.3839     6630.3011     6638.4667  -7.703783 -51.044333   0.000480  -0.000385
1 40428U 98067FR  15272.96597959  .01739682  23602-2  17785-2 0  9995 | 2 40428  51.6250 253.7589 0007645  74.1231 319.4014 16.10627848 42694 | 2015/09/29-23:11:00   68.8617   33.4674  319.3443   89.4061     6623.2585     6618.1950     6628.3220 -14.438474 -49.564817   0.000647  -0.000406
1 40428U 98067FR  15274.13733832  .02442057  90305-2  19536-2 0  9996 | 2 40428  51.6179 247.3876 0005558 106.0154 254.0946 16.15919009 42889 | 2015/10/01-03:17:46  171.4912    0.0488  254.0334   89.1134     6608.7925     6605.1193     6612.4656 -19.846830 -47.649879   0.000552  -0.000064
1 40428U 98067FR  15275.30904295  .05846868  11999-4  16981-2 0  9995 | 2 40428  51.6207 240.9574 0004647 125.4415 234.9109 16.26587018 43071 | 2015/10/02-07:25:01  240.6476    0.3088  234.8673   88.5289     6579.8649     6576.8072     6582.9225 -25.059773 -45.129862   0.000462   0.000052
