# SPACE DATA - HISTORICAL TLEs
# ----------------------------
# NORAD_ID    : 39132
# OBJECT_NAME : DOVE 2
# --------------------------------------------------------------------+-----------------------------------------------------------------------+----------------------------------------------------------------------------------------------------------------------------------------
#                  LINE 1                                             |                 LINE 2                                                |      DERIVED PARAMETERS
# --------------------------------------------------------------------+-----------------------------------------------------------------------+----------------------------------------------------------------------------------------------------------------------------------------
# NORAD  COSPAR     TLE_EPOCH      MEANMOT1 MEANMOT2   BSTAR  #  REV  |   NORAD    INC     RAAN     ECC    ARGPER  MEANANOM   MEANMOT     REV |  CAL_DATE              LONG     ARGLAT     PERIOD        SMA         PERIGEE        APOGEE      INC_X      INC_Y      ECC_X      ECC_Y
# ------ ------   -------------- ----------  -------  ------- -- ----     -----  ------- -------- ------- -------- -------- -----------  ----   ------------------- ---------  --------  --------  ------------  ------------   ----------- ---------- ----------  ---------  ---------   
1 40429U 98067FS  15061.63317322  .00747548  00000-0  98008-2 0  9991 | 2 40429 051.6200 256.1853 0009428 092.5537 354.5658 15.55795145  9416 | 2015/03/02-15:11:46   44.7304   87.1093  354.5556   92.5572     6777.9792     6771.5889     6784.3695 -12.325958 -50.126791   0.000925  -0.000184
1 40429U 98067FS  15063.89016782  .00612924  00000-0  73728-2 0  9998 | 2 40429 051.6408 244.9238 0008690 041.6646 104.2534 15.58197271  9764 | 2015/03/04-21:21:50   91.9361  146.0145  104.3499   92.4145     6771.0115     6765.1274     6776.8955 -21.886570 -46.773393   0.000248  -0.000833
1 40429U 98067FS  15065.47674359  .00049408  00000-0  69609-3 0  9999 | 2 40429 051.6429 237.0127 0008719 096.8531 293.2643 15.56087839 10010 | 2015/03/06-11:26:30   68.3788   30.0256  293.1725   92.5398     6777.1293     6771.2203     6783.0382 -28.117138 -43.317614   0.000783  -0.000384
1 40429U 98067FS  15066.77466458  .00055922  00000-0  78200-3 0  9997 | 2 40429 051.6429 230.5205 0008689 101.7146 004.1129 15.56236321 10211 | 2015/03/07-18:35:31  107.6918  105.8346    4.1200   92.5309     6776.6982     6770.8099     6782.5864 -32.834664 -39.860682   0.000769  -0.000405
1 40429U 98067FS  15068.44319725  .00064660  00000-0  89402-3 0  9992 | 2 40429 051.6425 222.1807 0008511 110.6068 350.2082 15.56482091 10476 | 2015/03/09-10:38:12    3.3604  100.7984  350.1916   92.5163     6775.9848     6770.2178     6781.7518 -38.268684 -34.676442   0.000757  -0.000389
1 40429U 98067FS  15069.45972014  .00067023  00000-0  92132-3 0  9990 | 2 40429 051.6453 217.0954 0008513 101.5874 299.1848 15.56623698 10638 | 2015/03/10-11:01:59   75.4387   40.6870  299.0996   92.5079     6775.5738     6769.8058     6781.3419 -41.193962 -31.149550   0.000639  -0.000562
1 40429U 98067FS  15070.82837638  .00063970  00000-0  87480-3 0  9992 | 2 40429 051.6478 210.2430 0008576 105.5916 050.3209 15.56782725 10847 | 2015/03/11-19:52:51  101.2161  155.9882   50.3966   92.4985     6775.1124     6769.3021     6780.9228 -44.618382 -26.013367   0.000615  -0.000598
1 40429U 98067FS  15072.41267170  .00056259  00000-0  76682-3 0  9991 | 2 40429 051.6454 202.3147 0007986 112.3856 288.7485 15.56931096 11099 | 2015/03/13-09:54:14   75.8306   41.0474  288.6618   92.4896     6774.6820     6769.2717     6780.0922 -47.777797 -19.609424   0.000562  -0.000568
1 40429U 98067FS  15073.57593483  .00059786  00000-0  80968-3 0  9998 | 2 40429 051.6465 196.4959 0007777 111.9020 333.9327 15.57079596 11278 | 2015/03/14-13:49:20   96.8701   85.7955  333.8935   92.4808     6774.2512     6768.9829     6779.5196 -49.520733 -14.664855   0.000483  -0.000609
1 40429U 98067FS  15074.74326542  .00065859  00000-0  88501-3 0  9997 | 2 40429 051.6455 190.6444 0007142 105.2654 048.8078 15.57252843 11450 | 2015/03/15-17:50:18   95.8727  154.1348   48.8694   92.4705     6773.7488     6768.9110     6778.5866 -50.756810  -9.539595   0.000312  -0.000642
1 40429U 98067FS  15076.13896050  .00072057  00000-0  95883-3 0  9997 | 2 40429 051.6454 183.6556 0007847 124.2636 300.0844 15.57471895 11676 | 2015/03/17-03:20:06  336.4126   64.2702  300.0066   92.4575     6773.1136     6767.7988     6778.4285 -51.540318  -3.292858   0.000482  -0.000619
1 40429U 98067FS  15077.16725855  .00074481  00000-0  98471-3 0  9994 | 2 40429 051.6461 178.5048 0007747 125.9107 308.1497 15.57631352 11830 | 2015/03/18-04:00:51  343.0518   73.9905  308.0798   92.4481     6772.6514     6767.4046     6777.8982 -51.628515   1.347612   0.000438  -0.000639
1 40429U 98067FS  15078.65643550  .00086422  00000-0  11245-2 0  9991 | 2 40429 051.6475 171.0446 0007421 127.4073 024.0751 15.57994282 12060 | 2015/03/19-15:45:16   90.6616  151.5171   24.1098   92.4265     6771.5996     6766.5744     6776.6248 -51.017907   8.039738   0.000354  -0.000652
1 40429U 98067FS  15080.11759647  .00100461  00000-0  12896-2 0  9993 | 2 40429 051.6475 163.7176 0008077 132.4492 300.5021 15.58281230 12297 | 2015/03/21-02:49:20  343.9778   72.8715  300.4223   92.4095     6770.7682     6765.2995     6776.2370 -49.575994  14.480506   0.000356  -0.000725
1 40429U 98067FS  15081.14621686  .00073046  00000-0  94078-3 0  9999 | 2 40429 051.6460 158.5571 0007217 136.9272 309.9642 15.58341718 12450 | 2015/03/22-03:30:33  346.5154   86.8280  309.9008   92.4059     6770.5930     6765.7067     6775.4794 -48.071185  18.880425   0.000311  -0.000651
1 40429U 98067FS  15082.17353171  .00071932  00000-0  92148-3 0  9992 | 2 40429 051.6466 153.4053 0007980 142.2788 311.9648 15.58484212 12618 | 2015/03/23-04:09:53  355.1609   94.1756  311.8968   92.3975     6770.1803     6764.7777     6775.5829 -46.182165  23.120963   0.000346  -0.000719
1 40429U 98067FS  15083.45615049  .00062376  00000-0  79675-3 0  9991 | 2 40429 051.6473 146.9763 0009275 148.9521 306.4085 15.58608151 12814 | 2015/03/24-10:56:51  103.4799   95.2750  306.3229   92.3901     6769.8214     6763.5424     6776.1004 -43.303431  28.147050   0.000406  -0.000834
1 40429U 98067FS  15084.55679438  .00052922  00000-0  67653-3 0  9994 | 2 40429 051.6457 141.4431 0005647 132.2086 022.9164 15.58687596 12985 | 2015/03/25-13:21:47   86.5653  155.1502   22.9416   92.3854     6769.5914     6765.7686     6773.4142 -40.386398  32.190327   0.000036  -0.000564
1 40429U 98067FS  15085.76581287  .00044456  00000-0  56797-3 0  9992 | 2 40429 051.6468 135.3762 0006995 148.9494 314.9343 15.58769824 13170 | 2015/03/26-18:22:46  220.3118  103.8269  314.8775   92.3805     6769.3533     6764.6181     6774.0885 -36.758800  36.279231   0.000173  -0.000678
1 40429U 98067FS  15086.97831424  .00046968  00000-0  59677-3 0  9997 | 2 40429 051.6465 129.2860 0006748 150.4059 282.3594 15.58893456 13365 | 2015/03/27-23:28:46  335.2160   72.6898  282.2839   92.3732     6768.9954     6764.4277     6773.5631 -32.702139  39.974130   0.000114  -0.000665
1 40429U 98067FS  15088.12574683  .00052481  00000-0  66178-3 0  9998 | 2 40429 051.6475 123.5293 0007676 159.4042 237.4928 15.59037845 13540 | 2015/03/29-03:01:04   71.0477   36.8229  237.4187   92.3647     6768.5775     6763.3819     6773.7730 -28.528186  43.053535   0.000172  -0.000748
1 40429U 98067FS  15089.49316281  .00055002  00000-0  68900-3 0  9994 | 2 40429 051.6462 116.6601 0007247 162.5780 354.5173 15.59196168 13750 | 2015/03/30-11:50:09   91.3362  157.0874  354.5094   92.3553     6768.1193     6763.2144     6773.0241 -23.173483  46.155386   0.000116  -0.000715
1 40429U 98067FS  15090.63524458  .00055681  00000-0  69402-3 0  9990 | 2 40429 051.6456 110.9241 0006975 164.3078 287.9560 15.59325614 13936 | 2015/03/31-15:14:45  214.1788   92.1877  287.8799   92.3476     6767.7447     6763.0242     6772.4652 -18.444240  48.239797   0.000064  -0.000695
1 40429U 98067FS  15092.11211108  .00061381  00000-0  75833-3 0  9999 | 2 40429 051.6443 103.5025 0005974 169.7880 299.0983 15.59525128 14169 | 2015/04/02-02:41:26   18.1055  108.8265  299.0385   92.3358     6767.1675     6763.1248     6771.2102 -12.058314  50.216838   0.000034  -0.000596
1 40429U 98067FS  15093.19581209  .00063492  00000-0  77965-3 0  9993 | 2 40429 051.6441 098.0574 0006296 171.3367 266.1170 15.59668597 14331 | 2015/04/03-04:41:58   86.1837   77.3817  266.0450   92.3273     6766.7525     6762.4921     6771.0128  -7.238700  51.134277  -0.000007  -0.000630
1 40429U 98067FS  15094.28884749  .00061999  00000-0  75798-3 0  9991 | 2 40429 051.6445 092.5617 0006088 172.8031 286.1279 15.59795738 14504 | 2015/04/04-06:55:56  104.7722   98.8640  286.0609   92.3198     6766.3847     6762.2654     6770.5041  -2.308262  51.592890  -0.000049  -0.000607
1 40429U 98067FS  15095.44808010  .00057404  00000-0  69953-3 0  9999 | 2 40429 051.6424 086.7330 0006598 182.4441 310.3846 15.59909626 14688 | 2015/04/05-10:45:14  135.1696  132.7711  310.3270   92.3130     6766.0554     6761.5912     6770.5196   2.943049  51.558471  -0.000009  -0.000660
1 40429U 98067FS  15096.78066525  .00054991  00000-0  66713-3 0  9993 | 2 40429 051.6446 080.0337 0006312 183.9483 237.5166 15.60047251 14899 | 2015/04/06-18:44:09  334.2768   61.4039  237.4556   92.3049     6765.6575     6761.3870     6769.9279   8.938074  50.865268  -0.000066  -0.000628
1 40429U 98067FS  15098.17897850  .00031028  00000-0  37284-3 0  9998 | 2 40429 051.6410 073.0075 0006333 191.6522 168.4848 15.60173027 15110 | 2015/04/08-04:17:43  187.4019    0.1515  168.4993   92.2975     6765.2938     6761.0094     6769.5783  15.091903  49.386510  -0.000059  -0.000631
1 40429U 98067FS  15099.79306340  .00048981  00000-0  58900-3 0  9990 | 2 40429 051.6447 064.8781 0006092 194.5670 237.7601 15.60329657 15366 | 2015/04/09-19:02:00  346.0027   72.2681  237.7011   92.2882     6764.8411     6760.7199     6768.9622  21.925526  46.759452  -0.000112  -0.000599
1 40429U 98067FS  15100.81996949  .00094934  00000-0  11212-2 0  9999 | 2 40429 051.6444 059.7188 0006627 197.5365 247.2586 15.60514125 15527 | 2015/04/10-19:40:45  349.3923   84.7251  247.1886   92.2773     6764.3080     6759.8253     6768.7907  26.041394  44.598092  -0.000146  -0.000646
1 40429U 98067FS  15102.03503022  .00091707  00000-0  10751-2 0  9993 | 2 40429 051.6445 053.5969 0006384 202.0876 233.7201 15.60725754 15713 | 2015/04/12-00:50:26   83.1211   75.7488  233.6612   92.2648     6763.6965     6759.3785     6768.0144  30.649071  41.566680  -0.000158  -0.000619
1 40429U 98067FS  15103.12700188  .00087206  00000-0  10164-2 0  9993 | 2 40429 051.6443 048.0921 0005901 207.8889 247.6751 15.60902099 15880 | 2015/04/13-03:02:52  103.0557   95.5015  247.6126   92.2543     6763.1870     6759.1961     6767.1780  34.495045  38.434693  -0.000143  -0.000573
1 40429U 98067FS  15104.22663035  .00082331  00000-0  95462-3 0  9993 | 2 40429 051.6444 042.5552 0005886 224.2528 294.7386 15.61062066 16054 | 2015/04/14-05:26:20   82.1153  158.9301  294.6773   92.2449     6762.7250     6758.7445     6766.7055  38.042614  34.927118  -0.000033  -0.000588
1 40429U 98067FS  15105.36613722  .00075493  00000-0  87172-3 0  9997 | 2 40429 051.6450 036.8161 0005479 216.8089 230.4900 15.61209215 16238 | 2015/04/15-08:47:14  210.8925   87.2505  230.4416   92.2362     6762.3001     6758.5950     6766.0051  41.345077  30.948193  -0.000154  -0.000526
1 40429U 98067FS  15106.77561659  .00107468  00000-0  12194-2 0  9993 | 2 40429 051.6438 029.7178 0005800 226.8309 228.2574 15.61504534 16455 | 2015/04/16-18:36:53  359.0032   95.0387  228.2078   92.2188     6761.4474     6757.5258     6765.3691  44.851481  25.601304  -0.000135  -0.000564
1 40429U 98067FS  15107.98602541  .00101821  00000-0  11460-2 0  9995 | 2 40429 051.6441 023.6165 0005608 232.1113 192.2187 15.61740342 16647 | 2015/04/17-23:39:52  112.8031   64.3164  192.2051   92.2048     6760.7668     6756.9754     6764.5582  47.318772  20.689293  -0.000138  -0.000543
1 40429U 98067FS  15109.15299440  .00091645  00000-0  10261-2 0  9996 | 2 40429 051.6451 017.7340 0005421 244.0958 265.8956 15.61924481 16828 | 2015/04/19-03:40:18   94.2832  149.9294  265.8336   92.1940     6760.2354     6756.5707     6763.9001  49.190971  15.731011  -0.000077  -0.000537
1 40429U 98067FS  15110.36104376  .00085970  00000-0  95681-3 0  9998 | 2 40429 051.6452 011.6415 0005083 245.2823 222.3315 15.62109021 17018 | 2015/04/20-08:39:54  218.8418  107.5746  222.2923   92.1831     6759.7030     6756.2670     6763.1390  50.582825  10.421350  -0.000115  -0.000495
1 40429U 98067FS  15111.70244696  .00079350  00000-0  87773-3 0  9995 | 2 40429 051.6446 004.8703 0006057 245.9686 210.5282 15.62295199 17228 | 2015/04/21-16:51:31    0.9573   96.4616  210.4930   92.1721     6759.1659     6755.0719     6763.2600  51.458134   4.384649  -0.000199  -0.000572
1 40429U 98067FS  15112.78642319  .00080135  00000-0  88031-3 0  9999 | 2 40429 051.6445 359.4007 0005902 249.7638 187.7195 15.62469492 17395 | 2015/04/22-18:52:26   56.7403   77.4742  187.7104   92.1618     6758.6633     6754.6743     6762.6522  51.641675  -0.540179  -0.000210  -0.000552
1 40429U 98067FS  15113.87541450  .00089888  00000-0  97647-3 0  9991 | 2 40429 051.6421 353.8957 0006735 268.6960 178.9721 15.62701616 17567 | 2015/04/23-21:00:35   85.1707   87.6695  178.9735   92.1481     6757.9940     6753.4425     6762.5455  51.349288  -5.491554  -0.000087  -0.000668
1 40429U 98067FS  15114.89882009  .00090173  00000-0  97281-3 0  9995 | 2 40429 051.6435 348.7323 0006322 266.9824 182.2309 15.62880535 17720 | 2015/04/24-21:34:18   98.2236   89.2105  182.2281   92.1376     6757.4782     6753.2061     6761.7503  50.648070 -10.090794  -0.000156  -0.000613
1 40429U 98067FS  15116.12213157  .00079068  00000-0  84983-3 0  9990 | 2 40429 051.6466 342.5446 0005759 274.2199 222.5913 15.63036246 17915 | 2015/04/26-02:55:52  138.4113  136.7666  222.5467   92.1284     6757.0294     6753.1380     6760.9208  49.268312 -15.492086  -0.000132  -0.000561
1 40429U 98067FS  15117.13504810  .00072413  00000-0  77557-3 0  9997 | 2 40429 051.6440 337.4288 0006606 274.5290 165.8235 15.63156887 18079 | 2015/04/27-03:14:28  205.6341   80.3710  165.8420   92.1213     6756.6817     6752.2183     6761.1452  47.688238 -19.822579  -0.000205  -0.000628
1 40429U 98067FS  15118.40997693  .00072011  00000-0  76575-3 0  9996 | 2 40429 051.6432 330.9936 0007121 276.1874 143.8628 15.63337910 18279 | 2015/04/28-09:50:22  332.6026   60.0983  143.9109   92.1106     6756.1601     6751.3491     6760.9712  45.165364 -25.042165  -0.000276  -0.000656
1 40429U 98067FS  15119.43493281  .00072213  00000-0  76343-3 0  9991 | 2 40429 051.6431 325.8126 0007281 281.2328 151.4022 15.63484171 18433 | 2015/04/29-10:26:18  335.1932   72.6749  151.4421   92.1020     6755.7388     6750.8199     6760.6576  42.719387 -29.018334  -0.000284  -0.000670
1 40429U 98067FS  15120.57252506  .00049413  00000-0  51963-3 0  9998 | 2 40429 051.6397 320.0721 0007519 280.1205 079.9458 15.63594502 18615 | 2015/04/30-13:44:26  104.1569    0.1512   80.0307   92.0955     6755.4210     6750.3416     6760.5004  39.600044 -33.143554  -0.000374  -0.000652
1 40429U 98067FS  15121.73331355  .00062159  00000-0  65208-3 0  9996 | 2 40429 051.6439 314.1940 0007388 279.6186 139.1290 15.63742242 18792 | 2015/05/01-17:35:58  110.3817   58.8030  139.1844   92.0868     6754.9955     6750.0049     6759.9861  36.000448 -37.027830  -0.000436  -0.000596
1 40429U 98067FS  15122.76093100  .00053201  00000-0  55786-3 0  9991 | 2 40429 051.6406 308.9957 0007369 296.4057 151.1503 15.63819238 18957 | 2015/05/02-18:15:44   97.7267   87.5967  151.1910   92.0823     6754.7738     6749.7962     6759.7513  32.495471 -40.134723  -0.000307  -0.000670
1 40429U 98067FS  15123.78630813  .00050275  00000-0  52577-3 0  9995 | 2 40429 051.6448 303.8145 0007250 296.8593 167.3048 15.63912291 19119 | 2015/05/03-18:52:17   96.4462  104.1823  167.3230   92.0768     6754.5058     6749.6088     6759.4028  28.740636 -42.908755  -0.000355  -0.000632
1 40429U 98067FS  15124.88143586  .00048032  00000-0  50074-3 0  9991 | 2 40429 051.6435 298.2721 0007437 299.8932 214.2174 15.64009813 19287 | 2015/05/04-21:09:16   87.3675  154.0627  214.1695   92.0710     6754.2250     6749.2019     6759.2481  24.461430 -45.482849  -0.000392  -0.000632
1 40429U 98067FS  15125.90355240  .00000276  00000-0  85598-5 0  9996 | 2 40429 051.6460 293.1065 0006844 302.4408 210.8534 15.64142987 19440 | 2015/05/05-21:41:06  102.3189  153.2540  210.8132   92.0632     6753.8416     6749.2193     6758.4640  20.268032 -47.502802  -0.000387  -0.000564
1 40429U 98067FS  15127.47343122  .00081807  00000-0  83133-3 0  9996 | 2 40429 051.6382 285.1547 0008440 312.1404 047.9383 15.64450568 19906 | 2015/05/07-11:21:44  110.1900    0.1506   48.0102   92.0451     6752.9564     6747.2569     6758.6559  13.499574 -49.842404  -0.000456  -0.000710
1 40429U 98067FS  15128.84130726  .00118420  00000-0  11767-2 0  9997 | 2 40429 051.6404 278.2261 0008693 316.8575 193.3347 15.64823737 19905 | 2015/05/08-20:11:28  100.7887  150.1692  193.3117   92.0231     6751.8827     6746.0133     6757.7521   7.388698 -51.109080  -0.000498  -0.000713
1 40429U 98067FS  15129.91426078  .00096002  00000-0  95120-3 0  9991 | 2 40429 051.6392 272.7909 0008918 319.2320 119.5497 15.64989394 20072 | 2015/05/09-21:56:32  204.9552   78.8706  119.6386   92.0134     6751.4063     6745.3854     6757.4272   2.514371 -51.577950  -0.000549  -0.000703
1 40429U 98067FS  15131.18774528  .00095877  00000-0  94087-3 0  9999 | 2 40429 051.6391 266.3356 0009237 327.4437 091.4275 15.65227780 20270 | 2015/05/11-04:30:21  331.0306   58.9770   91.5333   91.9994     6750.7207     6744.4851     6756.9564  -3.300371 -51.533525  -0.000546  -0.000745
1 40429U 98067FS  15132.40852762  .00116272  00000-0  11207-2 0  9997 | 2 40429 051.6370 260.1422 0010598 333.2116 130.2101 15.65574256 20468 | 2015/05/12-09:48:16   13.3584  103.5144  130.3028   91.9790     6749.7247     6742.5714     6756.8781  -8.840435 -50.874615  -0.000633  -0.000850
1 40429U 98067FS  15133.61986069  .00241424  00000-0  22254-2 0  9991 | 2 40429 051.6419 254.0016 0010038 336.4378 120.5191 15.66256635 20658 | 2015/05/13-14:52:35  103.2377   97.0559  120.6181   91.9390     6747.7641     6740.9907     6754.5375 -14.233051 -49.641778  -0.000639  -0.000774
1 40429U 98067FS  15134.71398752  .00143723  00000-0  13263-2 0  9992 | 2 40429 051.6402 248.4454 0011508 339.3391 171.5124 15.66540623 20827 | 2015/05/14-17:08:08   89.8634  150.8709  171.5318   91.9223     6746.9486     6739.1842     6754.7130 -18.971974 -48.028892  -0.000773  -0.000852
1 40429U 98067FS  15135.85072075  .00143998  00000-0  13121-2 0  9992 | 2 40429 051.6406 242.6687 0011129 343.8817 102.5688 15.66858700 21005 | 2015/05/15-20:25:02  210.3854   86.5749  102.6932   91.9036     6746.0355     6738.5278     6753.5431 -23.710003 -45.875781  -0.000765  -0.000808
1 40429U 98067FS  15137.12237375  .00131260  00000-0  11808-2 0  9999 | 2 40429 051.6348 236.1948 0015515 346.6170 078.1094 15.67146517 21202 | 2015/05/17-02:56:13  337.6319   64.9004   78.2834   91.8867     6745.2095     6734.7443     6755.6746 -28.728107 -42.905110  -0.001138  -0.001054
1 40429U 98067FS  15138.53210801  .00134442  00000-0  12099-2 0  9998 | 2 40429 051.6429 229.0468 0010215 355.1448 107.7733 15.67212859 21421 | 2015/05/18-12:46:14   95.4821  103.0295  107.8847   91.8829     6745.0191     6738.1291     6751.9091 -33.848944 -39.003053  -0.000732  -0.000712
1 40429U 98067FS  15140.05501978  .00080801  00000-0  72669-3 0  9995 | 2 40429 051.6421 221.3015 0011608 001.1303 060.3070 15.67436998 21667 | 2015/05/20-01:19:13  334.4575   61.5529   60.4226   91.8697     6744.3761     6736.5472     6752.2049 -38.795965 -34.084888  -0.000857  -0.000783
1 40429U 98067FS  15141.07627652  .00077608  00000-0  69421-3 0  9999 | 2 40429 051.6416 216.1057 0011564 004.9918 063.2860 15.67587431 21829 | 2015/05/21-01:49:50  341.4718   68.3962   63.4044   91.8609     6743.9446     6736.1459     6751.7433 -41.722863 -30.431194  -0.000871  -0.000760
1 40429U 98067FS  15142.41879545  .00082021  00000-0  72541-3 0  9990 | 2 40429 051.6372 209.2723 0013398 003.9912 086.1613 15.67813077 22035 | 2015/05/22-10:03:03   91.0605   90.3057   86.3145   91.8477     6743.2975     6734.2628     6752.3322 -45.043427 -25.248566  -0.001120  -0.000735
1 40429U 98067FS  15143.43910644  .00093864  00000-0  82132-3 0  9993 | 2 40429 051.6413 204.0847 0011519 013.8182 079.5633 15.68049461 22197 | 2015/05/23-10:32:18  101.3368   93.5113   79.6931   91.8338     6742.6198     6734.8529     6750.3866 -47.145573 -21.074127  -0.000909  -0.000708
1 40429U 98067FS  15144.53120461  .00088357  00000-0  77116-3 0  9992 | 2 40429 051.6385 198.5301 0011681 017.4325 125.0450 15.68134813 22365 | 2015/05/24-12:44:56   92.0271  142.5870  125.1545   91.8288     6742.3751     6734.4993     6750.2509 -48.961396 -16.410860  -0.000945  -0.000686
1 40429U 98067FS  15145.55176887  .00040035  00000-0  35325-3 0  9995 | 2 40429 051.6399 193.3313 0011966 021.4855 126.3215 15.68199897 22529 | 2015/05/25-13:14:32  100.3055  147.9174  126.4319   91.8250     6742.1886     6734.1209     6750.2563 -50.248362 -11.907197  -0.000982  -0.000683
1 40429U 98067FS  15146.56705079  .00035979  00000-0  31729-3 0  9993 | 2 40429 051.6401 188.1628 0011839 025.7319 097.8229 15.68267332 22689 | 2015/05/26-13:36:33  136.2284  123.6892   97.9573   91.8211     6741.9953     6734.0134     6749.9771 -51.116915  -7.332186  -0.000983  -0.000660
1 40429U 98067FS  15148.14508626  .00035785  00000-0  31417-3 0  9997 | 2 40429 051.6406 180.1250 0011753 032.0317 007.0338 15.68380387 22939 | 2015/05/28-03:28:55   78.4036   39.0820    7.0503   91.8145     6741.6713     6733.7478     6749.5948 -51.640477  -0.112662  -0.000995  -0.000626
1 40429U 98067FS  15149.50330520  .00037803  00000-0  33000-3 0  9997 | 2 40429 051.6406 173.2077 0011879 037.0432 116.2083 15.68490940 23142 | 2015/05/29-12:04:45  101.4325  153.3735  116.3303   91.8080     6741.3545     6733.3464     6749.3625 -51.278156   6.107561  -0.001026  -0.000598
1 40429U 98067FS  15150.51887968  .00038389  00000-0  33393-3 0  9998 | 2 40429 051.6400 168.0331 0011880 040.3466 091.4135 15.68570824 23307 | 2015/05/30-12:27:11  134.7063  131.8962   91.5496   91.8033     6741.1256     6733.1172     6749.1341 -50.517736  10.707377  -0.001045  -0.000565
1 40429U 98067FS  15151.84397735  .00036567  00000-0  31722-3 0  9993 | 2 40429 051.6394 161.2861 0011751 046.0308 013.5830 15.68662880 23511 | 2015/05/31-20:15:19  331.9408   59.6455   13.6147   91.7979     6740.8619     6732.9407     6748.7831 -48.909352  16.568128  -0.001044  -0.000539
1 40429U 98067FS  15152.86499170  .00038006  00000-0  32831-3 0  9994 | 2 40429 051.6398 156.0849 0011732 052.4003 017.1349 15.68747652 23678 | 2015/06/01-20:45:35  335.7922   69.5749   17.1746   91.7930     6740.6190     6732.7109     6748.5271 -47.206376  20.933872  -0.001031  -0.000560
1 40429U 98067FS  15154.13487022  .00049663  00000-0  42401-3 0  9994 | 2 40429 051.6377 149.6107 0011542 054.4250 352.1143 15.68912708 23877 | 2015/06/03-03:14:12  103.6702   46.5211  352.0961   91.7833     6740.1463     6732.3668     6747.9257 -44.543101  26.122102  -0.001054  -0.000470
1 40429U 98067FS  15155.15518623  .00059409  00000-0  50231-3 0  9998 | 2 40429 051.6396 144.4112 0011819 057.3177 356.3676 15.69069232 24036 | 2015/06/04-03:43:28  110.0431   53.6767  356.3590   91.7742     6739.6980     6731.7324     6747.6637 -41.994073  30.052389  -0.001098  -0.000438
1 40429U 98067FS  15156.44351878  .00066840  00000-0  55963-3 0  9992 | 2 40429 051.6361 137.8412 0011512 064.1357 072.3238 15.69263061 24230 | 2015/06/05-10:38:40  138.9085  136.5852   72.4495   91.7628     6739.1430     6731.3849     6746.9011 -38.277191  34.657516  -0.001068  -0.000431
1 40429U 98067FS  15157.76775640  .00092246  00000-0  75897-3 0  9992 | 2 40429 051.6397 131.0864 0011887 069.8120 353.5963 15.69548423 24441 | 2015/06/06-18:25:34  336.7452   63.3931  353.5811   91.7461     6738.3262     6730.3163     6746.3360 -33.937423  38.921844  -0.001111  -0.000424
1 40429U 98067FS  15158.78755809  .00101485  00000-0  82592-3 0  9996 | 2 40429 051.6395 125.8781 0012060 071.7531 358.2383 15.69768491 24605 | 2015/06/07-18:54:05  343.5042   69.9871  358.2340   91.7333     6737.6964     6729.5707     6745.8220 -30.263984  41.841716  -0.001149  -0.000365
1 40429U 98067FS  15159.87243428  .00168874  00000-0  13392-2 0  9992 | 2 40429 051.6392 120.3494 0011195 080.8055 004.9713 15.70157621 24772 | 2015/06/08-20:56:18    4.8723   85.7879    4.9824   91.7105     6736.5831     6729.0415     6744.1247 -26.091834  44.562576  -0.001044  -0.000404
1 40429U 98067FS  15161.46554492  .00178394  00000-0  13837-2 0  9998 | 2 40429 051.6381 112.2130 0010874 085.8331 012.5946 15.70661647 25022 | 2015/06/10-11:10:23  215.4478   98.4549   12.6218   91.6811     6735.1419     6727.8181     6742.4657 -19.521828  47.805770  -0.001034  -0.000337
1 40429U 98067FS  15163.11931682  .00080236  00000-0  62605-3 0  9997 | 2 40429 051.6384 103.7577 0010571 092.8611 003.4914 15.70899350 25284 | 2015/06/12-02:51:48  102.9662   96.3599    3.4988   91.6672     6734.4624     6727.3434     6741.5814 -12.280460  50.156900  -0.001013  -0.000302
1 40429U 98067FS  15164.33636627  .00097286  00000-0  75043-3 0  9996 | 2 40429 051.6382 097.5339 0010516 094.5655 049.5230 15.71094220 25471 | 2015/06/13-08:04:22  140.7914  144.1802   49.6147   91.6559     6733.9056     6726.8242     6740.9869  -6.770428  51.192431  -0.001028  -0.000220
1 40429U 98067FS  15165.34368236  .00080211  00000-0  61670-3 0  9997 | 2 40429 051.6391 092.3773 0011023 092.3752 353.0913 15.71244265 25639 | 2015/06/14-08:14:54  208.1967   85.4513  353.0761   91.6471     6733.4768     6726.0545     6740.8992  -2.141980  51.594656  -0.001099  -0.000091
1 40429U 98067FS  15166.61156641  .00075062  00000-0  57374-3 0  9997 | 2 40429 051.6391 085.8937 0010624 106.1167 316.2694 15.71416535 25838 | 2015/06/15-14:40:39  335.4486   62.3019  316.1852   91.6371     6732.9847     6725.8316     6740.1378   3.697727  51.506538  -0.001039  -0.000221
1 40429U 98067FS  15167.69659880  .00076792  00000-0  58261-3 0  9996 | 2 40429 051.6390 080.3415 0010475 109.2356 335.7646 15.71586425 26005 | 2015/06/16-16:43:06  350.0678   84.9509  335.7153   91.6272     6732.4995     6725.4472     6739.5518   8.663753  50.907030  -0.001033  -0.000174
1 40429U 98067FS  15168.76893204  .00100392  00000-0  74911-3 0  9999 | 2 40429 051.6414 074.8493 0010008 127.9493 269.0151 15.71876003 26179 | 2015/06/17-18:27:15   70.6928   36.8497  268.9004   91.6103     6731.6726     6724.9355     6738.4097  13.496931  49.846435  -0.000923  -0.000388
1 40429U 98067FS  15169.92149899  .00106341  00000-0  78438-3 0  9990 | 2 40429 051.6398 068.9542 0009515 132.0196 311.9975 15.72131155 26351 | 2015/06/18-22:06:57   85.5953   83.9360  311.9164   91.5954     6730.9442     6724.5397     6737.3487  18.544580  48.195098  -0.000888  -0.000341
1 40429U 98067FS  15171.14154346  .00083982  00000-0  61870-3 0  9997 | 2 40429 051.6346 062.7008 0008657 121.5073 032.2462 15.72268786 26542 | 2015/06/20-03:23:49  102.5308  153.8065   32.2992   91.5874     6730.5514     6724.7248     6736.3781  23.681546  45.883726  -0.000863  -0.000064
1 40429U 98067FS  15172.52403377  .00071722  00000-0  52573-3 0  9990 | 2 40429 051.6391 055.6316 0010091 135.7358 288.7030 15.72432864 26766 | 2015/06/21-12:34:36  337.9739   64.3292  288.5934   91.5778     6730.0832     6723.2919     6736.8745  29.150884  42.624202  -0.000989  -0.000199
1 40429U 98067FS  15173.79152948  .00054741  00000-0  40158-3 0  9993 | 2 40429 051.6373 049.1307 0009528 136.3242 267.9971 15.72531884 26963 | 2015/06/22-18:59:48  102.1400   44.2122  267.8880   91.5721     6729.8007     6723.3885     6736.2128  33.788130  39.048342  -0.000948  -0.000091
1 40429U 98067FS  15175.01744663  .00279617  00000-0  19276-2 0  9998 | 2 40429 051.6365 042.8451 0008256 141.3584 009.0406 15.73169906 27159 | 2015/06/24-00:25:07   84.8864  150.4139    9.0555   91.5349     6727.9810     6722.4264     6733.5356  37.859614  35.113783  -0.000823  -0.000061
1 40429U 98067FS  15176.03307737  .00188273  00000-0  13014-2 0  9999 | 2 40429 051.6418 037.6201 0004053 150.4044 355.8998 15.73414935 27317 | 2015/06/25-00:47:37  100.8344  146.3009  355.8965   91.5207     6727.2825     6724.5559     6730.0090  40.904207  31.523346  -0.000401  -0.000057
1 40429U 98067FS  15177.23282675  .00144642  00000-0  99396-3 0  9995 | 2 40429 051.6370 031.4785 0009039 153.7136 313.1781 15.73655191 27509 | 2015/06/26-05:35:16  219.4808  106.8161  313.1025   91.5067     6726.5977     6720.5175     6732.6779  44.037901  26.963735  -0.000900  -0.000082
1 40429U 98067FS  15178.43312282  .00146648  00000-0  99232-3 0  9993 | 2 40429 051.6273 025.3284 0008903 168.3983 263.7576 15.74008179 27699 | 2015/06/27-10:23:41  333.6563   72.0545  263.6562   91.4862     6725.5920     6719.6042     6731.5798  46.664399  22.086466  -0.000865  -0.000211
1 40429U 98067FS  15179.56866380  .00138989  00000-0  93068-3 0  9991 | 2 40429 051.6358 019.4863 0007121 163.6530 227.7905 15.74296566 27872 | 2015/06/28-13:38:52   70.1248   31.3831  227.7301   91.4694     6724.7706     6719.9819     6729.5593  48.678168  17.224745  -0.000711  -0.000039
1 40429U 98067FS  15180.66285229  .00147674  00000-0  97291-3 0  9994 | 2 40429 051.6329 013.8603 0008015 175.6239 302.0344 15.74633261 28043 | 2015/06/29-15:54:30   24.5224  117.5804  301.9565   91.4499     6723.8120     6718.4228     6729.2011  50.129489  12.368939  -0.000791  -0.000132
1 40429U 98067FS  15181.99873688  .00161491  00000-0  10416-2 0  9999 | 2 40429 051.6369 006.9888 0007565 178.3950 318.2366 15.75079904 28259 | 2015/06/30-23:58:10  134.6557  136.5738  318.1788   91.4239     6722.5408     6717.4552     6727.6264  51.253236   6.282936  -0.000753  -0.000071
1 40429U 98067FS  15183.13569538  .00087839  00000-0  56813-3 0  9998 | 2 40429 051.6370 001.1458 0007393 187.2464 281.0839 15.75293286 28432 | 2015/07/02-03:15:24  219.2257  108.2471  281.0007   91.4115     6721.9337     6716.9642     6726.9033  51.626675   1.032567  -0.000731  -0.000108
1 40429U 98067FS  15184.51934741  .00050430  00000-0  32788-3 0  9995 | 2 40429 051.6377 354.0257 0006998 193.6207 206.9576 15.75402906 28651 | 2015/07/03-12:27:51   73.5763   40.5420  206.9213   91.4052     6721.6219     6716.9181     6726.3257  51.357239  -5.374574  -0.000694  -0.000093
1 40429U 98067FS  15185.87059706  .00054918  00000-0  35400-3 0  9993 | 2 40429 051.6370 347.0670 0007495 196.7719 312.9369 15.75559537 28864 | 2015/07/04-20:53:39   99.1863  149.6459  312.8740   91.3961     6721.1764     6716.1389     6726.2139  50.327096 -11.556954  -0.000748  -0.000050
1 40429U 98067FS  15187.00183051  .00246078  00000-0  14956-2 0  9993 | 2 40429 051.6345 341.2455 0007425 211.3795 240.5441 15.76182955 29049 | 2015/07/06-00:02:38  211.1520   91.8495  240.4700   91.3600     6719.4041     6714.4149     6724.3932  48.892960 -16.601206  -0.000725  -0.000162
1 40429U 98067FS  15188.45090686  .00200955  00000-0  12008-2 0  9994 | 2 40429 051.6374 333.7813 0007672 215.0395 186.1053 15.76700036 29271 | 2015/07/07-10:49:18   72.4908   41.1355  186.0960   91.3300     6717.9349     6712.7809     6723.0889  46.324646 -22.813335  -0.000758  -0.000118
1 40429U 98067FS  15189.80067582  .00218445  00000-0  12687-2 0  9999 | 2 40429 051.6358 326.8177 0007020 228.9962 280.3012 15.77295992 29485 | 2015/07/08-19:12:58   98.5490  149.2182  280.2220   91.2955     6716.2426     6711.5278     6720.9574  43.215727 -28.260516  -0.000675  -0.000191
1 40429U 98067FS  15191.17849285  .00243239  00000-0  13660-2 0  9991 | 2 40429 051.6407 319.7000 0006878 233.8918 186.1549 15.77979884 29704 | 2015/07/10-04:17:01  332.2896   60.0383  186.1465   91.2559     6714.3019     6709.6838     6718.9200  39.384726 -33.400677  -0.000669  -0.000162
1 40429U 98067FS  15192.19283372  .00249431  00000-0  13694-2 0  9990 | 2 40429 051.6394 314.4565 0006511 244.7989 182.2390 15.78469966 29864 | 2015/07/11-04:37:40  336.7044   67.0350  182.2361   91.2276     6712.9121     6708.5413     6717.2829  36.166560 -36.859294  -0.000615  -0.000215
1 40429U 98067FS  15193.20635472  .00248009  00000-0  13340-2 0  9993 | 2 40429 051.6345 309.2097 0006390 267.9806 162.9853 15.78929856 30020 | 2015/07/12-04:57:09  343.8897   70.9873  163.0067   91.2010     6711.6085     6707.3198     6715.8972  32.641291 -40.008346  -0.000509  -0.000386
1 40429U 98067FS  15194.22057980  .00283971  00000-0  14734-2 0  9993 | 2 40429 051.6394 303.9625 0006763 267.1505 174.4649 15.79623107 30183 | 2015/07/13-05:17:38  344.6081   81.6229  174.4724   91.1610     6709.6447     6705.1070     6714.1824  28.848360 -42.829893  -0.000579  -0.000349
1 40429U 98067FS  15195.48617678  .00337135  00000-0  16686-2 0  9998 | 2 40429 051.6388 297.4122 0007059 270.6840 174.9466 15.80510943 30384 | 2015/07/14-11:40:05   84.0055   85.6377  174.9537   91.1098     6707.1317     6702.3972     6711.8663  23.773926 -45.840660  -0.000623  -0.000332
1 40429U 98067FS  15196.49755230  .00349789  00000-0  16797-2 0  9998 | 2 40429 051.6461 292.1594 0003871 259.9882 185.1776 15.81153762 30544 | 2015/07/15-11:56:28   94.8152   85.1618  185.1736   91.0727     6705.3138     6702.7181     6707.9094  19.480114 -47.831420  -0.000378  -0.000081
1 40429U 98067FS  15198.45807451  .00269889  00000-0  12553-2 0  9997 | 2 40429 051.6350 281.9848 0008292 294.8314 159.9289 15.82022216 30851 | 2015/07/17-10:59:37   83.1157   94.7929  159.9615   91.0227     6702.8596     6697.3016     6708.4176  10.722121 -50.509498  -0.000664  -0.000497
1 40429U 98067FS  15199.46904854  .00273168  00000-0  12399-2 0  9997 | 2 40429 051.6388 276.7367 0007849 304.4685 152.8793 15.82542393 31010 | 2015/07/18-11:15:25   90.7234   97.3888  152.9203   90.9928     6701.3907     6696.1308     6706.6506   6.057586 -51.282271  -0.000591  -0.000517
1 40429U 98067FS  15201.22680366  .00205260  00000-0  91309-3 0  9991 | 2 40429 051.6348 267.5865 0008237 312.3427 087.5687 15.83149765 31294 | 2015/07/20-05:26:35   71.8344   40.0057   87.6630   90.9579     6699.6766     6694.1581     6705.1951  -2.174396 -51.588997  -0.000632  -0.000529
1 40429U 98067FS  15202.43529013  .00214722  00000-0  93164-3 0  9990 | 2 40429 051.6354 261.2887 0007329 316.1620 137.1538 15.83661800 31481 | 2015/07/21-10:26:49  100.9740   93.3729  137.2109   90.9285     6698.2324     6693.3233     6703.1416  -7.820479 -51.039736  -0.000582  -0.000446
1 40429U 98067FS  15203.44588292  .00218941  00000-0  93024-3 0  9998 | 2 40429 051.6352 256.0226 0007668 320.6157 138.9526 15.84088555 31644 | 2015/07/22-10:42:04  104.7971   99.6260  139.0103   90.9040     6697.0294     6691.8941     6702.1647 -12.471922 -50.106337  -0.000615  -0.000458
1 40429U 98067FS  15205.53634663  .00086285  00000-0  36890-3 0  9996 | 2 40429 051.6356 245.1240 0008009 328.4730 181.3428 15.84377394 31977 | 2015/07/24-12:52:20  100.0756  149.8137  181.3407   90.8874     6696.2154     6690.8524     6701.5784 -21.720816 -46.844864  -0.000667  -0.000443
1 40429U 98067FS  15206.54057637  .00084945  00000-0  36042-3 0  9998 | 2 40429 051.6349 239.8867 0007985 332.9160 148.9711 15.84543549 32133 | 2015/07/25-12:58:25  135.7541  121.9342  149.0182   90.8779     6695.7473     6690.4007     6701.0939 -25.905826 -44.665995  -0.000671  -0.000433
1 40429U 98067FS  15207.55114914  .00082700  00000-0  34835-3 0  9997 | 2 40429 051.6349 234.6125 0008162 336.7218 154.0278 15.84703673 32296 | 2015/07/26-13:13:39  136.9681  130.7905  154.0687   90.8687     6695.2963     6689.8316     6700.7610 -29.901942 -42.095567  -0.000697  -0.000424
1 40429U 98067FS  15208.56133332  .00083943  00000-0  35063-3 0  9998 | 2 40429 051.6355 229.3416 0008024 340.0429 157.9833 15.84874601 32453 | 2015/07/27-13:28:19  139.6244  138.0606  158.0177   90.8589     6694.8149     6689.4429     6700.1868 -33.642996 -39.171083  -0.000699  -0.000394
1 40429U 98067FS  15209.87208034  .00087587  00000-0  36150-3 0  9991 | 2 40429 051.6356 222.4987 0007836 346.7044 075.5265 15.85109744 32664 | 2015/07/28-20:55:47  335.4235   62.3179   75.6135   90.8454     6694.1527     6688.9072     6699.3983 -38.070549 -34.883642  -0.000684  -0.000382
1 40429U 98067FS  15211.07723766  .00094946  00000-0  38689-3 0  9996 | 2 40429 051.6336 216.2068 0007322 344.5853 120.0066 15.85350523 32856 | 2015/07/30-01:51:13   14.3989  104.6645  120.0792   90.8316     6693.4749     6688.5740     6698.3759 -41.662646 -30.500042  -0.000685  -0.000260
1 40429U 98067FS  15212.20875865  .00226408  00000-0  88025-3 0  9999 | 2 40429 051.6327 210.2987 0007608 356.3284 091.8665 15.85917557 33033 | 2015/07/31-05:00:36   85.1668   88.2820   91.9536   90.7992     6691.8794     6686.7882     6696.9705 -44.580034 -26.049112  -0.000680  -0.000341
1 40429U 98067FS  15213.47748784  .00257493  00000-0  96572-3 0  9992 | 2 40429 051.6332 203.6604 0007803 359.7346 138.5347 15.86574737 33232 | 2015/08/01-11:27:34  139.7237  138.3285  138.5939   90.7616     6690.0313     6684.8111     6695.2516 -47.292923 -20.721168  -0.000716  -0.000310
1 40429U 98067FS  15214.78658764  .00270647  00000-0  98033-3 0  9995 | 2 40429 051.6336 196.8060 0007108 002.9568 059.1891 15.87259223 33442 | 2015/08/02-18:52:41  335.2678   62.2159   59.2591   90.7224     6688.1079     6683.3540     6692.8618 -49.428289 -14.928928  -0.000669  -0.000240
1 40429U 98067FS  15215.79551861  .00280985  00000-0  98903-3 0  9999 | 2 40429 051.6334 191.5164 0007541 005.2531 067.0138 15.87810089 33607 | 2015/08/03-19:05:32  334.6460   72.3465   67.0934   90.6909     6686.5609     6681.5185     6691.6032 -50.593896 -10.308526  -0.000722  -0.000218
1 40429U 98067FS  15216.80191343  .00245559  00000-0  84194-3 0  9992 | 2 40429 051.6270 186.2606 0005889 019.3596 051.2239 15.88441982 33765 | 2015/08/04-19:14:45  344.8792   70.6361   51.2765   90.6549     6684.7875     6680.8508     6688.7241 -51.319106  -5.629965  -0.000531  -0.000255
1 40429U 98067FS  15218.19053817  .00332500  51584-4  11228-2 0  9996 | 2 40429 051.6292 178.9337 0007755 012.9512 086.2802 15.89417928 33981 | 2015/08/06-04:34:22  104.8318   99.3201   86.3689   90.5992     6682.0507     6676.8688     6687.2327 -51.620259   0.960787  -0.000759  -0.000160
1 40429U 98067FS  15219.19492155  .00200336  00000-0  64916-3 0  9996 | 2 40429 051.6341 173.6888 0005129 034.4250 055.9754 15.89689062 34148 | 2015/08/07-04:40:41  121.4757   90.4491   56.0241   90.5838     6681.2909     6677.8641     6684.7178 -51.321171   5.676065  -0.000452  -0.000242
1 40429U 98067FS  15220.20119405  .00195474  25025-4  64353-3 0  9993 | 2 40429 051.6296 168.3836 0005910 026.6978 067.1007 15.90077971 34305 | 2015/08/08-04:49:43  126.6328   93.8609   67.1631   90.5616     6680.2015     6676.2535     6684.1495 -50.572105  10.396049  -0.000571  -0.000154
1 40429U 98067FS  15221.27959626  .00205536  26594-4  66075-3 0  9994 | 2 40429 051.6291 162.7076 0006110 029.7396 122.2282 15.90525452 34473 | 2015/08/09-06:42:37  103.4272  152.0270  122.2874   90.5361     6678.9485     6674.8676     6683.0293 -49.295477  15.346658  -0.000597  -0.000132
1 40429U 98067FS  15222.40128620  .00506076  11058-3  15073-2 0  9994 | 2 40429 051.6288 156.7969 0005434 035.3527 066.8721 15.91842029 34654 | 2015/08/10-09:37:51  203.9948  102.2821   66.9294   90.4612     6675.2653     6671.6379     6678.8926 -47.452754  20.341316  -0.000531  -0.000114
1 40429U 98067FS  15223.40581168  .00500393  10951-3  14172-2 0  9991 | 2 40429 051.6284 151.4939 0004253 040.3540 064.1249 15.92818431 34813 | 2015/08/11-09:44:22  209.6630  104.5228   64.1688   90.4058     6672.5370     6669.6992     6675.3749 -45.369298  24.639774  -0.000416  -0.000087
1 40429U 98067FS  15224.78415756  .00564424  14042-3  14754-2 0  9998 | 2 40429 051.6301 144.2153 0003413 048.7206 048.5437 15.94331672 35038 | 2015/08/12-18:49:11    1.7193   97.2936   48.5730   90.3200     6668.3143     6666.0384     6670.5902 -41.883369  30.190240  -0.000333  -0.000076
1 40429U 98067FS  15225.85162012  .00674307  20364-3  16317-2 0  9994 | 2 40429 051.6295 138.5590 0003112 042.0168 069.0249 15.95763604 35204 | 2015/08/13-20:26:19   18.9369  111.0750   69.0582   90.2389     6664.3245     6662.2506     6666.3985 -38.703417  34.170905  -0.000311  -0.000003
1 40429U 98067FS  15226.85344487  .00721678  23849-3  16173-2 0  9998 | 2 40429 051.6298 133.2348 0001792 126.7032 346.0981 15.97173178 35363 | 2015/08/14-20:28:57   24.1458  112.7964  346.0932   90.1593     6660.4029     6659.2094     6661.5965 -35.365883  37.615031  -0.000031  -0.000176
1 40429U 98067FS  15227.91098890  .00696713  22607-3  14486-2 0  9997 | 2 40429 051.6252 127.6115 0000375 149.8526 290.1567 15.98520534 35533 | 2015/08/15-21:51:49   84.3193   80.0053  290.1527   90.0833     6656.6598     6656.4102     6656.9094 -31.507075  40.895788   0.000005  -0.000037
1 40429U 98067FS  15229.16843064  .01170034  72990-3  20454-2 0  9993 | 2 40429 051.6277 120.9013 0002212 283.2823 205.8184 16.01640916 35730 | 2015/08/17-04:02:32  135.8566  129.0897  205.8074   89.9078     6648.0111     6646.5406     6649.4817 -26.513959  44.299316   0.000159   0.000154
1 40429U 98067FS  15230.76638204  .00949661  48487-3  13374-2 0  9995 | 2 40429 051.6218 112.3367 0006467 244.4209 115.1120 16.05156063 35995 | 2015/08/18-18:23:35  130.8265  359.6000  115.1791   89.7109     6638.3019     6634.0089     6642.5949 -19.618799  47.748434   0.000646  -0.000037
1 40429U 98067FS  15232.07237593  .01831855  26256-2  20536-2 0  9990 | 2 40429 051.6259 105.2884 0008048 244.7927 115.6935 16.09275897 36207 | 2015/08/20-01:44:13  248.3665    0.5693  115.7766   89.4812     6626.9674     6621.6341     6632.3008 -13.612602  49.798902   0.000793  -0.000139
1 40429U 98067FS  15233.37465420  .01934101  35071-2  16321-2 0  9996 | 2 40429 051.6200 098.2281 0007796 265.9834 094.0626 16.13750912 36417 | 2015/08/21-08:59:30    5.9708    0.1351   94.1517   89.2331     6614.7105     6609.5537     6619.8673  -7.387562  51.088632   0.000777   0.000057
1 40429U 98067FS  15234.48697684  .03680270  11874-4  16873-2 0  9994 | 2 40429 051.6254 092.1325 0011029 273.9529 086.3936 16.20991035 36590 | 2015/08/22-11:41:14   53.2984    0.4726   86.5197   88.8345     6594.9995     6587.7259     6602.2731  -1.921010  51.589647   0.001097   0.000117
1 40429U 98067FS  15235.53056087  .23361188  12377-4  12600-2 0  9996 | 2 40429 051.6200 086.3429 0010089 244.8506 117.2578 16.41777694 36769 | 2015/08/23-12:44:00   74.0450    2.2111  117.3605   87.7098     6539.2149     6532.6174     6545.8123   3.292587  51.514884   0.000884  -0.000486
