# SPACE DATA - HISTORICAL TLEs
# ----------------------------
# NORAD_ID    : 39132
# OBJECT_NAME : DOVE 2
# --------------------------------------------------------------------+-----------------------------------------------------------------------+----------------------------------------------------------------------------------------------------------------------------------------
#                  LINE 1                                             |                 LINE 2                                                |      DERIVED PARAMETERS
# --------------------------------------------------------------------+-----------------------------------------------------------------------+----------------------------------------------------------------------------------------------------------------------------------------
# NORAD  COSPAR     TLE_EPOCH      MEANMOT1 MEANMOT2   BSTAR  #  REV  |   NORAD    INC     RAAN     ECC    ARGPER  MEANANOM   MEANMOT     REV |  CAL_DATE              LONG     ARGLAT     PERIOD        SMA         PERIGEE        APOGEE      INC_X      INC_Y      ECC_X      ECC_Y
# ------ ------   -------------- ----------  -------  ------- -- ----     -----  ------- -------- ------- -------- -------- -----------  ----   ------------------- ---------  --------  --------  ------------  ------------   ----------- ---------- ----------  ---------  ---------   
1 40453U 98067FW  15062.44792331 -.00000493  00000-0  00000+0 0  9999 | 2 40453 051.6425 252.1668 0007867 079.3808 250.8508 15.55268533  9543 | 2015/03/03-10:45:00   99.7499  330.1465  250.7657   92.5885     6779.5091     6774.1757     6784.8426 -15.815359 -49.161186   0.000692  -0.000375
1 40453U 98067FW  15063.69180633 -.00000495  00000-0  00000+0 0  9995 | 2 40453 051.6409 245.9492 0008977 077.3966 022.6036 15.55423813  9732 | 2015/03/04-16:36:12   65.2228  100.0398   22.6432   92.5793     6779.0579     6772.9724     6785.1435 -21.046066 -47.157668   0.000720  -0.000536
1 40453U 98067FW  15064.97205013  .00135988  00000-0  18936-2 0  9992 | 2 40453 051.6430 239.5482 0013350 098.9803 335.8328 15.55884236  9939 | 2015/03/05-23:19:45  198.9605   74.7504  335.7701   92.5519     6777.7205     6768.6722     6786.7687 -26.173361 -44.519149   0.001242  -0.000489
1 40453U 98067FW  15067.54182760  .00138576  00000-0  18936-2 0  9997 | 2 40453 051.6511 226.7013 0009456 072.2088 007.2583 15.56433427 10331 | 2015/03/08-13:00:13   54.8062   79.4808    7.2720   92.5192     6776.1260     6769.7185     6782.5335 -35.422419 -37.591067   0.000457  -0.000828
1 40453U 98067FW  15068.83951845  .00059840  00000-0  84028-3 0  9990 | 2 40453 051.6415 220.2342 0009065 106.9336 043.7047 15.56091659 10534 | 2015/03/09-20:08:54   98.5499  150.7101   43.7765   92.5395     6777.1182     6770.9747     6783.2616 -39.423669 -33.355941   0.000762  -0.000491
1 40453U 98067FW  15070.42479157  .00060278  00000-0  84028-3 0  9996 | 2 40453 051.6470 212.2940 0009703 098.8015 298.8050 15.56279032 10789 | 2015/03/11-10:11:41   71.7827   37.5090  298.7075   92.5284     6776.5742     6769.9989     6783.1495 -43.658128 -27.593124   0.000638  -0.000731
1 40453U 98067FW  15071.44551155 -.00000488  00000-0  00000+0 0  9990 | 2 40453 051.6441 207.2046 0008160 106.4345 253.8082 15.56324656 10943 | 2015/03/12-10:41:32  122.7012    0.1529  253.7184   92.5257     6776.4417     6770.9122     6781.9713 -45.931213 -23.610099   0.000563  -0.000591
1 40453U 98067FW  15072.60131359  .00051722  00000-0  71557-3 0  9994 | 2 40453 051.6442 201.4253 0008236 109.1643 251.0760 15.56421010 11121 | 2015/03/13-14:25:53  185.7109    0.1511  250.9868   92.5200     6776.1621     6770.5812     6781.7429 -48.075307 -18.865000   0.000536  -0.000625
1 40453U 98067FW  15073.84642022  .00061011  00000-0  84028-3 0  9994 | 2 40453 051.6460 195.1921 0009275 121.9395 019.9472 15.56604360 11315 | 2015/03/14-20:18:50  139.7633  141.9230   19.9835   92.5091     6775.6300     6769.3456     6781.9144 -49.841108 -13.534150   0.000680  -0.000631
1 40453U 98067FW  15075.57077757  .00061406  00000-0  84028-3 0  9991 | 2 40453 051.6455 186.5587 0009859 117.7912 333.7454 15.56769066 11588 | 2015/03/16-13:41:55  101.2150   91.4866  333.6954   92.4993     6775.1520     6768.4724     6781.8317 -51.307499  -5.899005   0.000556  -0.000814
1 40453U 98067FW  15077.49621242  .00061793  00000-0  84028-3 0  9997 | 2 40453 051.6424 176.9248 0007577 128.6338 321.2767 15.56957819 11886 | 2015/03/18-11:54:32   87.5294   89.8561  321.2223   92.4881     6774.6045     6769.4713     6779.7376 -51.568034   2.770439   0.000441  -0.000616
1 40453U 98067FW  15078.52350279  .00062098  00000-0  84028-3 0  9990 | 2 40453 051.6520 171.7784 0006417 105.1583 346.8919 15.57097240 12040 | 2015/03/19-12:33:50  101.3732   92.0335  346.8752   92.4798     6774.2001     6769.8531     6778.5471 -51.121141   7.386342   0.000077  -0.000637
1 40453U 98067FW  15079.55318481  .00062448  00000-0  84028-3 0  9992 | 2 40453 051.6486 166.6306 0009007 125.8683 342.1857 15.57223100 12206 | 2015/03/20-13:16:35  102.2176  108.0224  342.1541   92.4723     6773.8350     6767.7338     6779.9362 -50.248898  11.942620   0.000345  -0.000832
1 40453U 98067FW  15080.76855418  .00062671  00000-0  84028-3 0  9991 | 2 40453 051.6437 160.5364 0009351 136.4917 309.4789 15.57313330 12394 | 2015/03/21-18:26:43  209.1261   85.8878  309.3961   92.4669     6773.5734     6767.2394     6779.9074 -48.692436  17.208090   0.000425  -0.000833
1 40453U 98067FW  15082.43375779  .00062981  00000-0  84028-3 0  9998 | 2 40453 051.6478 152.2054 0010047 144.3599 283.6457 15.57435474 12659 | 2015/03/23-10:24:36  116.5367   67.8937  283.5338   92.4597     6773.2192     6766.4142     6780.0243 -45.688931  24.083538   0.000449  -0.000899
1 40453U 98067FW  15083.46570074  .00063180  00000-0  84028-3 0  9999 | 2 40453 051.6446 147.0260 0008806 145.1660 312.6538 15.57532262 12817 | 2015/03/24-11:10:36  104.4185   97.7455  312.5795   92.4539     6772.9386     6766.9744     6778.9029 -43.325565  28.108007   0.000333  -0.000815
1 40453U 98067FW  15084.74849632  .00045095  00000-0  60102-3 0  9992 | 2 40453 051.6448 140.5992 0008221 148.8716 306.6609 15.57626258 13016 | 2015/03/25-17:57:50  216.2034   95.4569  306.5853   92.4484     6772.6661     6767.0983     6778.2340 -39.907213  32.781088   0.000274  -0.000775
1 40453U 98067FW  15085.77695870  .00047568  00000-0  63096-3 0  9991 | 2 40453 051.6448 135.4449 0008190 152.2433 314.3973 15.57730957 13175 | 2015/03/26-18:38:49  221.5097  106.5735  314.3302   92.4422     6772.3627     6766.8161     6777.9092 -36.800849  36.233726   0.000249  -0.000780
1 40453U 98067FW  15086.98913942  .00048641  00000-0  64209-3 0  9998 | 2 40453 051.6448 129.3672 0007903 156.2305 272.9149 15.57852453 13369 | 2015/03/27-23:44:21  342.6625   69.0550  272.8245   92.4349     6772.0106     6766.6586     6777.3625 -32.757679  39.926430   0.000212  -0.000761
1 40453U 98067FW  15088.13842769  .00056686  00000-0  74156-3 0  9995 | 2 40453 051.6465 123.6093 0008804 165.6246 233.8828 15.58019162 13544 | 2015/03/29-03:19:20   72.9349   39.4260  233.8014   92.4251     6771.5275     6765.5658     6777.4891 -28.587719  43.012827   0.000290  -0.000831
1 40453U 98067FW  15089.30186660  .00062511  00000-0  81138-3 0  9998 | 2 40453 051.6444 117.7735 0008827 169.2680 280.6012 15.58185767 13725 | 2015/03/30-07:14:41   88.3937   89.7698  280.5018   92.4152     6771.0448     6765.0680     6777.0216 -24.065126  45.694789   0.000259  -0.000844
1 40453U 98067FW  15090.32847272  .00065006  00000-0  83896-3 0  9990 | 2 40453 051.6448 112.6215 0008249 169.3999 283.2994 15.58326941 13884 | 2015/03/31-07:53:00  101.3057   92.6073  283.2074   92.4068     6770.6358     6765.0507     6776.2209 -19.864745  47.671556   0.000172  -0.000807
1 40453U 98067FW  15091.49454212  .00059405  00000-0  76475-3 0  9998 | 2 40453 051.6459 106.7752 0006709 170.2494 348.5654 15.58445046 14063 | 2015/04/01-11:52:08  101.9708  158.7995  348.5501   92.3998     6770.2938     6765.7516     6774.8359 -14.905905  49.448084   0.000082  -0.000666
1 40453U 98067FW  15093.02261758  .00054318  00000-0  69624-3 0  9996 | 2 40453 051.6449 099.1047 0007353 177.0158 280.9501 15.58592514 14302 | 2015/04/03-00:32:34    2.1035   97.8832  280.8674   92.3911     6769.8667     6764.8888     6774.8446  -8.172241  50.994217   0.000078  -0.000731
1 40453U 98067FW  15094.23908212  .00053814  00000-0  68654-3 0  9995 | 2 40453 051.6444 093.0017 0007379 181.2690 267.0149 15.58721385 14497 | 2015/04/04-05:44:16   97.0147   88.1995  266.9305   92.3834     6769.4936     6764.4983     6774.4888  -2.704389  51.573543   0.000055  -0.000736
1 40453U 98067FW  15095.46570836  .00054802  00000-0  69534-3 0  9994 | 2 40453 051.6444 086.8425 0007318 184.6660 311.5986 15.58858481 14680 | 2015/04/05-11:10:37  137.9877  136.2019  311.5359   92.3753     6769.0966     6764.1430     6774.0503   2.844619  51.565998   0.000019  -0.000732
1 40453U 98067FW  15096.49322990  .00054526  00000-0  68903-3 0  9996 | 2 40453 051.6448 081.6839 0007326 188.5977 318.0351 15.58968365 14848 | 2015/04/06-11:50:15  143.6986  146.5766  317.9789   92.3688     6768.7786     6763.8198     6773.7374   7.469607  51.101765   0.000004  -0.000733
1 40453U 98067FW  15098.47135622  .00048934  00000-0  61522-3 0  9996 | 2 40453 051.6456 071.7513 0007714 193.7053 262.6920 15.59146600 15152 | 2015/04/08-11:18:45  197.9419   96.3096  262.6043   92.3582     6768.2627     6763.0417     6773.4837  16.172420  49.048148  -0.000061  -0.000769
1 40453U 98067FW  15099.49809177  .00046036  00000-0  57752-3 0  9993 | 2 40453 051.6454 066.5953 0007661 197.6805 265.6598 15.59231258 15315 | 2015/04/09-11:57:15  206.7917  103.2528  265.5723   92.3532     6768.0177     6762.8327     6773.2027  20.514750  47.396122  -0.000076  -0.000762
1 40453U 98067FW  15100.52381065  .00044663  00000-0  55878-3 0  9992 | 2 40453 051.6452 061.4421 0007549 199.9100 264.9954 15.59317454 15473 | 2015/04/10-12:34:17  220.6496  104.8192  264.9092   92.3481     6767.7683     6762.6593     6772.8773  24.688812  45.361760  -0.000114  -0.000746
1 40453U 98067FW  15101.80181492  .00063147  00000-0  77966-3 0  9996 | 2 40453 051.6435 055.0330 0007769 205.5473 238.7882 15.59515352 15671 | 2015/04/11-19:14:36  348.9698   84.2594  238.7121   92.3364     6767.1957     6761.9383     6772.4532  29.597124  42.320932  -0.000127  -0.000766
1 40453U 98067FW  15102.89408799  .00057295  00000-0  70562-3 0  9990 | 2 40453 051.6472 049.5278 0008066 205.4220 255.4773 15.59620341 15840 | 2015/04/12-21:27:29   12.2061  100.8098  255.3878   92.3302     6766.8920     6761.4339     6772.3502  33.523114  39.289109  -0.000209  -0.000779
1 40453U 98067FW  15104.11180698  .00062310  00000-0  76155-3 0  9990 | 2 40453 051.6456 043.4099 0007737 209.9939 252.9355 15.59788459 16031 | 2015/04/14-02:41:00   95.8730  102.8447  252.8508   92.3202     6766.4058     6761.1706     6771.6410  37.518253  35.491530  -0.000221  -0.000741
1 40453U 98067FW  15105.20966748  .00061553  00000-0  74875-3 0  9994 | 2 40453 051.6459 037.8908 0007521 216.9301 295.0926 15.59919590 16205 | 2015/04/15-05:01:55   88.6107  151.9446  295.0145   92.3125     6766.0266     6760.9379     6771.1153  40.758051  31.718768  -0.000197  -0.000726
1 40453U 98067FW  15106.29688485  .00063700  00000-0  77006-3 0  9998 | 2 40453 051.6439 032.4205 0007955 223.9412 277.9650 15.60064641 16377 | 2015/04/16-07:07:30  136.6674  141.8159  277.8747   92.3039     6765.6072     6760.2251     6770.9892  43.594483  27.687785  -0.000188  -0.000773
1 40453U 98067FW  15107.37781546  .00073996  00000-0  88519-3 0  9999 | 2 40453 051.6435 026.9869 0008824 231.9595 225.3684 15.60267986 16544 | 2015/04/17-09:04:03  216.8797   97.2560  225.2965   92.2918     6765.0193     6759.0499     6770.9888  46.020055  23.435137  -0.000169  -0.000866
1 40453U 98067FW  15108.40444539  .00084090  00000-0  99575-3 0  9993 | 2 40453 051.6481 021.8234 0007809 227.8371 240.5062 15.60489870 16708 | 2015/04/18-09:42:24  221.6265  108.2654  240.4283   92.2787     6764.3781     6759.0958     6769.6604  47.946691  19.200026  -0.000271  -0.000732
1 40453U 98067FW  15109.74727166  .00078585  00000-0  92472-3 0  9992 | 2 40453 051.6472 015.0621 0007515 236.5828 220.8815 15.60685625 16917 | 2015/04/19-17:56:04    4.0078   97.4080  220.8252   92.2671     6763.8124     6758.7294     6768.8954  49.872847  13.421342  -0.000237  -0.000713
1 40453U 98067FW  15110.76141742  .00077360  00000-0  90539-3 0  9998 | 2 40453 051.6464 009.9569 0007061 244.3439 155.1187 15.60837108 17077 | 2015/04/20-18:16:26   73.2067   39.4966  155.1527   92.2582     6763.3748     6758.5992     6768.1504  50.868507   8.930041  -0.000191  -0.000680
1 40453U 98067FW  15111.85080965  .00075143  00000-0  87453-3 0  9996 | 2 40453 051.6458 004.4716 0007726 246.7808 158.3273 15.60989464 17241 | 2015/04/21-20:25:09  106.3015   45.1408  158.3600   92.2492     6762.9347     6757.7096     6768.1597  51.488595   4.026562  -0.000248  -0.000732
1 40453U 98067FW  15112.88235479  .00074723  00000-0  86464-3 0  9996 | 2 40453 051.6445 359.2720 0007929 251.6205 194.4555 15.61139947 17400 | 2015/04/22-21:10:35   82.9062   86.0533  194.4328   92.2403     6762.5001     6757.1381     6767.8621  51.640331  -0.656177  -0.000260  -0.000749
1 40453U 98067FW  15113.90790436  .00075878  00000-0  87244-3 0  9998 | 2 40453 051.6448 354.1076 0007981 254.2055 199.7199 15.61298131 17561 | 2015/04/23-21:47:22   90.4299   93.8946  199.6891   92.2309     6762.0433     6756.6465     6767.4401  51.371932  -5.301886  -0.000295  -0.000742
1 40453U 98067FW  15115.18641529  .00076085  00000-0  86832-3 0  9991 | 2 40453 051.6449 347.6637 0008101 260.5275 184.7065 15.61489277 17762 | 2015/04/25-04:28:26  207.0893   85.2264  184.6989   92.2197     6761.4915     6756.0140     6766.9689  50.452441 -11.033900  -0.000301  -0.000752
1 40453U 98067FW  15116.46238396  .00070985  00000-0  80602-3 0  9999 | 2 40453 051.6459 341.2353 0008139 269.8234 153.1427 15.61649393 17967 | 2015/04/26-11:05:49  336.3919   63.0082  153.1848   92.2102     6761.0293     6755.5265     6766.5321  48.900798 -16.613577  -0.000264  -0.000770
1 40453U 98067FW  15117.73876868  .00065250  00000-0  73780-3 0  9990 | 2 40453 051.6456 334.7962 0008140 271.2545 132.4840 15.61792952 18163 | 2015/04/27-17:43:49  102.8152   43.8072  132.5527   92.2017     6760.6150     6755.1118     6766.1181  46.728878 -21.992726  -0.000330  -0.000744
1 40453U 98067FW  15118.83465468  .00059580  00000-0  67193-3 0  9992 | 2 40453 051.6452 329.2746 0008321 273.2880 176.1859 15.61896665 18333 | 2015/04/28-20:01:54   98.2005   89.4802  176.1922   92.1956     6760.3157     6754.6904     6765.9409  44.395549 -26.386775  -0.000383  -0.000739
1 40453U 98067FW  15119.99094873  .00059475  00000-0  66720-3 0  9996 | 2 40453 051.6444 323.4398 0008418 279.6725 196.0614 15.62032758 18514 | 2015/04/29-23:46:57  135.1809  115.7072  196.0347   92.1876     6759.9230     6754.2325     6765.6135  41.482406 -30.762868  -0.000381  -0.000751
1 40453U 98067FW  15121.01744360  .00057922  00000-0  64716-3 0  9993 | 2 40453 051.6435 318.2598 0008940 286.9700 205.0748 15.62142616 18673 | 2015/05/01-00:25:07  134.5999  132.0014  205.0314   92.1811     6759.6061     6753.5630     6765.6492  38.534895 -34.381869  -0.000375  -0.000812
1 40453U 98067FW  15122.04276193  .00051793  00000-0  57789-3 0  9993 | 2 40453 051.6451 313.0947 0008591 287.7016 214.3755 15.62229260 18833 | 2015/05/02-01:01:34  139.8579  142.0216  214.3200   92.1760     6759.3561     6753.5492     6765.1631  35.284254 -37.712568  -0.000419  -0.000750
1 40453U 98067FW  15123.55997938  .00046606  00000-0  51842-3 0  9998 | 2 40453 051.6432 305.4336 0008794 292.9682 107.9232 15.62351996 19077 | 2015/05/03-13:26:22   76.3984   40.9872  108.0190   92.1687     6759.0021     6753.0583     6764.9460  29.940615 -42.078257  -0.000461  -0.000749
1 40453U 98067FW  15124.59606068  .00044137  00000-0  48978-3 0  9997 | 2 40453 051.6441 300.2042 0009077 298.8954 173.4048 15.62434663 19230 | 2015/05/04-14:18:19   24.2295  112.3121  173.4167   92.1639     6758.7637     6752.6288     6764.8987  25.981284 -44.632790  -0.000466  -0.000779
1 40453U 98067FW  15125.88268250  .00044062  00000-0  48680-3 0  9994 | 2 40453 051.6438 293.7069 0009209 305.0147 209.3171 15.62547432 19430 | 2015/05/05-21:11:03   93.1472  154.2802  209.2655   92.1572     6758.4385     6752.2147     6764.6624  20.763805 -47.285796  -0.000478  -0.000787
1 40453U 98067FW  15127.27318028  .00044658  00000-0  49091-3 0  9996 | 2 40453 051.6447 286.6901 0008967 309.0844 112.5786 15.62673498 19657 | 2015/05/07-06:33:22  334.7825   61.7578  112.6734   92.1498     6758.0750     6752.0151     6764.1350  14.832100 -49.469019  -0.000504  -0.000741
1 40453U 98067FW  15128.49625745  .00052430  00000-0  57042-3 0  9990 | 2 40453 051.6425 280.5098 0011649 324.6897 142.6356 15.62834630 19840 | 2015/05/08-11:54:36   16.8138  107.4062  142.7165   92.1403     6757.6105     6749.7386     6765.4825   9.419783 -50.776131  -0.000489  -0.001057
1 40453U 98067FW  15129.77394441  .00056592  00000-0  61164-3 0  9991 | 2 40453 051.6434 274.0614 0010274 323.8938 137.1720 15.62990366 20049 | 2015/05/09-18:34:28  130.7484  101.1458  137.2520   92.1311     6757.1616     6750.2193     6764.1039   3.657667 -51.513709  -0.000545  -0.000871
1 40453U 98067FW  15130.86705286  .00054853  00000-0  59059-3 0  9994 | 2 40453 051.6445 268.5397 0009943 325.7595 170.2904 15.63104938 20212 | 2015/05/10-20:48:33  135.8825  136.0691  170.3096   92.1243     6756.8314     6750.1131     6763.5498  -1.316123 -51.627727  -0.000580  -0.000807
1 40453U 98067FW  15132.01297635  .00057923  00000-0  61980-3 0  9994 | 2 40453 051.6454 262.7499 0009184 327.9821 141.0499 15.63248896 20390 | 2015/05/12-00:18:41  222.3521  109.0981  141.1160   92.1158     6756.4166     6750.2115     6762.6217  -6.517686 -51.232481  -0.000581  -0.000711
1 40453U 98067FW  15133.15523698  .00239563  00000-0  24405-2 0  9993 | 2 40453 051.6404 256.9764 0010151 333.1344 089.6162 15.63747299 20575 | 2015/05/13-03:43:32  326.7467   62.8669   89.7325   92.0865     6754.9809     6748.1239     6761.8379 -11.637287 -50.312071  -0.000651  -0.000779
1 40453U 98067FW  15134.17843439  .00116258  00000-0  11959-2 0  9999 | 2 40453 051.6421 251.8088 0011382 337.2455 089.6414 15.63925279 20736 | 2015/05/14-04:16:56  337.1376   67.0173   89.7718   92.0760     6754.4684     6746.7805     6762.1563 -16.122096 -49.061028  -0.000746  -0.000860
1 40453U 98067FW  15135.52800698  .00088008  00000-0  90218-3 0  9996 | 2 40453 051.6427 244.9720 0011507 342.9730 127.7073 15.64135471 20942 | 2015/05/15-12:40:19   67.3573  110.7845  127.8115   92.0636     6753.8633     6746.0916     6761.6349 -21.848018 -46.793510  -0.000771  -0.000854
1 40453U 98067FW  15136.74517698  .00083106  00000-0  84592-3 0  9998 | 2 40453 051.6448 238.8133 0012496 348.5619 140.8067 15.64323916 21135 | 2015/05/16-17:53:03  134.2086  129.4590  140.8971   92.0525     6753.3209     6744.8819     6761.7598 -26.743146 -44.181325  -0.000846  -0.000919
1 40453U 98067FW  15138.13998547  .00078771  00000-0  79720-3 0  9998 | 2 40453 051.6473 231.7517 0010214 357.3484 072.6642 15.64523967 21358 | 2015/05/18-03:21:34  344.1321   70.1244   72.7760   92.0408     6752.7452     6745.8479     6759.6424 -31.973327 -40.560448  -0.000669  -0.000772
1 40453U 98067FW  15139.16418080  .00072300  00000-0  72910-3 0  9997 | 2 40453 051.6448 226.5660 0010702 357.4095 085.1072 15.64643496 21516 | 2015/05/19-03:56:25  346.5335   82.6389   85.2294   92.0337     6752.4013     6745.1748     6759.6277 -35.506758 -37.502740  -0.000770  -0.000743
1 40453U 98067FW  15140.44318888  .00069867  00000-0  69984-3 0  9996 | 2 40453 051.6438 220.0895 0011945 003.0888 088.8399 15.64809379 21716 | 2015/05/20-10:38:11   85.3015   92.0656   88.9768   92.0240     6751.9240     6743.8589     6759.9892 -39.509543 -33.257752  -0.000871  -0.000817
1 40453U 98067FW  15141.46476317  .00068724  00000-0  68500-3 0  9995 | 2 40453 051.6425 214.9144 0011790 006.9941 083.8467 15.64942587 21878 | 2015/05/21-11:09:15  100.3382   90.9751   83.9810   92.0162     6751.5409     6743.5808     6759.5010 -42.347266 -29.557687  -0.000877  -0.000788
1 40453U 98067FW  15142.80799920  .00061818  00000-0  61380-3 0  9998 | 2 40453 051.6447 208.1067 0011682 015.1109 088.5559 15.65085020 22088 | 2015/05/22-19:23:31  219.2088  103.8006   88.6897   92.0078     6751.1313     6743.2446     6759.0179 -45.554333 -24.330594  -0.000851  -0.000800
1 40453U 98067FW  15144.20136419  .00057041  00000-0  56420-3 0  9994 | 2 40453 051.6427 201.0470 0010907 016.6443 023.1862 15.65225564 22308 | 2015/05/24-04:49:57   73.0896   39.8798   23.2355   91.9995     6750.7271     6743.3641     6758.0901 -48.197416 -18.546631  -0.000863  -0.000667
1 40453U 98067FW  15145.42591839  .00063001  00000-0  61760-3 0  9996 | 2 40453 051.6413 194.8390 0011807 021.5368 083.4751 15.65396101 22496 | 2015/05/25-10:13:19   96.1627  105.1463   83.6095   91.9895     6750.2368     6742.2668     6758.2068 -49.919026 -13.225533  -0.000951  -0.000700
1 40453U 98067FW  15146.57880142  .00065780  00000-0  64030-3 0  9990 | 2 40453 051.6403 188.9891 0011861 024.5438 102.1620 15.65554670 22677 | 2015/05/26-13:53:28  136.4929  126.8386  102.2948   91.9802     6749.7810     6741.7751     6757.7869 -51.006058  -8.068619  -0.000989  -0.000655
1 40453U 98067FW  15147.60203036  .00071716  00000-0  69280-3 0  9994 | 2 40453 051.6374 183.8013 0010958 028.1746 109.7153 15.65721798 22831 | 2015/05/27-14:26:55  139.8676  138.0081  109.8335   91.9704     6749.3007     6741.9048     6756.6966 -51.523796  -3.423381  -0.000930  -0.000580
1 40453U 98067FW  15148.92996889  .00110767  00000-0  10462-2 0  9992 | 2 40453 051.6424 177.0683 0011361 035.5884 033.5922 15.66093057 23042 | 2015/05/28-22:19:09  334.6766   69.2527   33.6643   91.9486     6748.2340     6740.5673     6755.9006 -51.574811   2.641276  -0.000957  -0.000613
1 40453U 98067FW  15150.20183731  .00108579  00000-0  10150-2 0  9992 | 2 40453 051.6409 170.6121 0011405 039.3806 005.8963 15.66358705 23249 | 2015/05/30-04:50:38  104.1627   45.2903    5.9097   91.9330     6747.4710     6739.7755     6755.1665 -50.949254   8.423540  -0.000988  -0.000570
1 40453U 98067FW  15151.43126080  .00106768  00000-0  98787-3 0  9993 | 2 40453 051.6417 164.3655 0012122 040.5987 102.4217 15.66609183 23437 | 2015/05/31-10:21:00   96.4701  143.1560  102.5573   91.9183     6746.7517     6738.5733     6754.9301 -49.730981  13.917424  -0.001099  -0.000512
1 40453U 98067FW  15152.51455913  .00103140  00000-0  94697-3 0  9990 | 2 40453 051.6425 158.8617 0011973 048.0732 088.9914 15.66817907 23602 | 2015/06/01-12:20:57  138.9848  137.2018   89.1286   91.9060     6746.1525     6738.0754     6754.2297 -48.167615  18.623337  -0.001067  -0.000542
1 40453U 98067FW  15154.10489269  .00103291  00000-0  93555-3 0  9997 | 2 40453 051.6426 150.7787 0012688 054.4568 059.8986 15.67141703 23852 | 2015/06/03-02:31:02   23.8646  114.4813   60.0245   91.8870     6745.2233     6736.6649     6753.7816 -45.070596  25.211098  -0.001148  -0.000541
1 40453U 98067FW  15155.81863538  .00084428  00000-0  76221-3 0  9992 | 2 40453 051.6398 142.0790 0008264 075.7978 353.9225 15.67367588 24120 | 2015/06/04-19:38:50  335.8359   69.7103  353.9125   91.8738     6744.5752     6739.0015     6750.1489 -40.736515  31.736498  -0.000652  -0.000507
1 40453U 98067FW  15157.16123000  .00081218  00000-0  72727-3 0  9996 | 2 40453 051.6354 135.2458 0009542 072.9175 017.9197 15.67570171 24337 | 2015/06/06-03:52:10   86.2096   90.8709   17.9534   91.8619     6743.9941     6737.5590     6750.4292 -36.668041  36.354770  -0.000841  -0.000450
1 40453U 98067FW  15158.18104898  .00092181  00000-0  81577-3 0  9997 | 2 40453 051.6418 130.0531 0010823 071.7073 018.6070 15.67790044 24499 | 2015/06/07-04:20:42  100.0652   90.3539   18.6466   91.8490     6743.3635     6736.0652     6750.6619 -33.231358  39.529133  -0.001005  -0.000401
1 40453U 98067FW  15159.20236115  .00154232  00000-0  13326-2 0  9991 | 2 40453 051.6392 124.8546 0010451 072.9771 026.2645 15.68138518 24656 | 2015/06/08-04:51:24  105.0155   99.2947   26.3176   91.8286     6742.3645     6735.3180     6749.4109 -29.511587  42.375384  -0.000995  -0.000320
1 40453U 98067FW  15160.35472139  .00195522  00000-0  16472-2 0  9999 | 2 40453 051.6375 118.9888 0010480 082.5635 047.5547 15.68615735 24836 | 2015/06/09-08:30:47  135.9902  130.2069   47.6434   91.8007     6740.9969     6733.9324     6748.0615 -25.025528  45.168068  -0.000975  -0.000385
1 40453U 98067FW  15161.74590016  .00195441  00000-0  16120-2 0  9998 | 2 40453 051.6377 111.8953 0010205 091.3308 341.3419 15.69133756 25050 | 2015/06/10-17:54:05  342.7247   72.6352  341.3044   91.7704     6739.5132     6732.6356     6746.3909 -19.256301  47.912910  -0.000938  -0.000402
1 40453U 98067FW  15162.88636611 +.00189075 +00000-0 +15361-2 0  9998 | 2 40453 051.6356 106.0835 0010527 099.7546 300.2058 15.69516123025231 | 2015/06/11-21:16:22   72.9407   39.8561  300.1015   91.7480     6738.4186     6731.3251     6745.5121 -14.305021  49.614530  -0.000947  -0.000459
1 40453U 98067FW  15163.91749295 +.00184999 +00000-0 +14828-2 0  9993 | 2 40453 051.6394 100.8194 0009503 095.9055 014.6936 15.69869609025396 | 2015/06/12-22:01:11   19.7881  110.6268   14.7213   91.7274     6737.4070     6731.0045     6743.8096  -9.693433  50.721445  -0.000910  -0.000273
1 40453U 98067FW  15165.82499331 +.00188447 +00000-0 +14674-2 0  9999 | 2 40453 051.6409 091.0801 0008799 102.2220 358.2506 15.70559905025691 | 2015/06/14-19:47:59    8.2341  100.4695  358.2475   91.6870     6735.4327     6729.5062     6741.3593  -0.973441  51.631724  -0.000856  -0.000202
1 40453U 98067FW  15166.84408840 +.00188949 +00000-0 +14491-2 0  9991 | 2 40453 051.6401 085.8704 0008268 107.4270 359.5553 15.70928116025857 | 2015/06/15-20:15:29   14.8128  106.9816  359.5546   91.6656     6734.3802     6728.8122     6739.9482   3.718745  51.506027  -0.000805  -0.000190
1 40453U 98067FW  15168.18773177  .00187943  00000-0  14131-2 0  9992 | 2 40453 051.6403 079.0001 0008211 112.1802 039.7581 15.71403903 26061 | 2015/06/17-04:30:20  101.7631  151.9985   39.8183   91.6378     6733.0208     6727.4923     6738.5493   9.853345  50.691539  -0.000806  -0.000159
1 40453U 98067FW  15169.83374848  .00192081  00000-0  14071-2 0  9999 | 2 40453 051.6439 070.5729 0007767 124.7423 346.8520 15.72012606 26327 | 2015/06/18-20:00:35   24.7227  111.5740  346.8317   91.6023     6731.2826     6726.0544     6736.5108  17.177134  48.703578  -0.000749  -0.000205
1 40453U 98067FW  15170.97473818  .00125359  00000-0  91755-3 0  9992 | 2 40453 051.6408 064.7374 0005967 131.4217 322.1665 15.72275076 26509 | 2015/06/19-23:23:37  100.4452   93.5462  322.1245   91.5870     6730.5335     6726.5174     6734.5496  22.038622  46.701942  -0.000573  -0.000166
1 40453U 98067FW  15172.55960560  .00136758  00000-0  98079-3 0  9994 | 2 40453 051.6390 056.6151 0006537 140.0762 291.4711 15.72708983 26752 | 2015/06/21-13:25:49  342.7228   71.4776  291.4014   91.5618     6729.2954     6724.8965     6733.6944  28.414912  43.118199  -0.000626  -0.000188
1 40453U 98067FW  15173.83115884  .00116880  00000-0  83184-3 0  9992 | 2 40453 051.6370 050.0960 0006365 139.1740 296.8831 15.72963319 26950 | 2015/06/22-19:56:52   83.7446   75.9920  296.8180   91.5470     6728.5700     6724.2873     6732.8528  33.125300  39.611794  -0.000628  -0.000103
1 40453U 98067FW  15174.84950780  .00240737  00000-0  16500-2 0  9992 | 2 40453 051.6382 044.8757 0006152 149.8838 297.4946 15.73439641 27118 | 2015/06/23-20:23:17   85.2529   87.3158  297.4320   91.5192     6727.2120     6723.0735     6731.3506  36.592850  36.434421  -0.000595  -0.000157
1 40453U 98067FW  15176.00213087  .00195877  00000-0  13280-2 0  9990 | 2 40453 051.6395 038.9580 0006527 158.8413 342.5300 15.73826702 27298 | 2015/06/25-00:03:04   93.2581  141.3488  342.5075   91.4967     6726.1090     6721.7189     6730.4991  40.155240  32.468364  -0.000621  -0.000200
1 40453U 98067FW  15177.02037321  .00138431  00000-0  93970-3 0  9996 | 2 40453 051.6392 033.7335 0005804 159.7383 354.6183 15.73992506 27456 | 2015/06/26-00:29:20   93.0682  154.3504  354.6121   91.4871     6725.6367     6721.7331     6729.5402  42.944686  28.676836  -0.000564  -0.000135
1 40453U 98067FW  15178.15183022  .00145121  00000-0  97044-3 0  9991 | 2 40453 051.6393 027.9202 0004983 161.4884 289.1412 15.74322882 27630 | 2015/06/27-03:38:38  211.0482   90.5756  289.0872   91.4679     6724.6957     6721.3448     6728.0466  45.628517  24.179656  -0.000492  -0.000081
1 40453U 98067FW  15179.16871679  .00137942  00000-0  91354-3 0  9995 | 2 40453 051.6397 022.6914 0004696 169.0512 289.1048 15.74573455 27795 | 2015/06/28-04:02:57  215.8321   98.1051  289.0539   91.4533     6723.9822     6720.8247     6727.1398  47.642581  19.920921  -0.000460  -0.000096
1 40453U 98067FW  15180.55315522  .00114437  00000-0  75285-3 0  9999 | 2 40453 051.6426 015.5752 0003804 151.9538 239.4137 15.74817450 28016 | 2015/06/29-13:16:32   69.4992   31.3300  239.3762   91.4392     6723.2877     6720.7302     6725.8452  49.746226  13.866188  -0.000371   0.000082
1 40453U 98067FW  15181.64673240  .00110737  00000-0  72182-3 0  9996 | 2 40453 051.6422 009.9566 0004077 169.1104 306.7053 15.75043095 28185 | 2015/06/30-15:31:17   25.4353  115.7782  306.6678   91.4261     6722.6456     6719.9047     6725.3864  50.864417   8.929048  -0.000408   0.000007
1 40453U 98067FW  15182.71499648  .00108720  00000-0  70224-3 0  9997 | 2 40453 051.6398 004.4598 0003848 178.5930 238.9764 15.75261348 28355 | 2015/07/01-17:09:35  114.8064   57.5316  238.9386   91.4134     6722.0246     6719.4380     6724.6112  51.483442   4.015491  -0.000384  -0.000020
1 40453U 98067FW  15183.87150509  .00106430  00000-0  68077-3 0  9994 | 2 40453 051.6383 358.5064 0003515 185.8100 315.1363 15.75495929 28538 | 2015/07/02-20:54:58   94.8659  140.9179  315.1079   91.3998     6721.3573     6718.9948     6723.7199  51.620756  -1.345967  -0.000351  -0.000026
1 40453U 98067FW  15184.94885894  .00113557  00000-0  71747-3 0  9991 | 2 40453 051.6404 352.9615 0002893 187.1533 308.9758 15.75751890 28704 | 2015/07/03-22:46:21  134.1372  136.1033  308.9500   91.3849     6720.6294     6718.6852     6722.5737  51.251240  -6.327821  -0.000289  -0.000001
1 40453U 98067FW  15185.96455443  .00124935  00000-0  77876-3 0  9998 | 2 40453 051.6394 347.7297 0002398 195.5917 306.7050 15.76019330 28864 | 2015/07/04-23:08:57  139.8529  142.2747  306.6830   91.3694     6719.8691     6718.2577     6721.4805  50.459743 -10.974606  -0.000239  -0.000014
1 40453U 98067FW  15186.96859064  .00160584  00000-0  97949-3 0  9999 | 2 40453 051.6399 342.5579 0002769 199.8329 243.7056 15.76389858 29021 | 2015/07/05-23:14:46  206.2256   83.5101  243.6772   91.3480     6718.8161     6716.9556     6720.6765  49.265515 -15.478640  -0.000277  -0.000012
1 40453U 98067FW  15188.41720169  .00205577  00000-0  12112-2 0  9994 | 2 40453 051.6404 335.0893 0002218 208.6860 183.2268 15.77035745 29254 | 2015/07/07-10:00:46   68.2477   31.9114  183.2254   91.3105     6716.9815     6715.4916     6718.4713  46.836054 -21.751205  -0.000221  -0.000015
1 40453U 98067FW  15189.43223859  .00205593  00000-0  11904-2 0  9997 | 2 40453 051.6411 329.8508 0001589 225.8999 173.2723 15.77429145 29414 | 2015/07/08-10:22:25   72.6406   39.1743  173.2744   91.2878     6715.8646     6714.7975     6716.9318  44.655115 -25.936921  -0.000153  -0.000043
1 40453U 98067FW  15190.45823207  .00203404  00000-0  11578-2 0  9990 | 2 40453 051.6389 324.5547 0001937 238.0289 232.1027 15.77818214 29576 | 2015/07/09-10:59:51   17.3462  110.1141  232.0852   91.2653     6714.7606     6713.4599     6716.0612  42.068639 -29.946713  -0.000179  -0.000074
1 40453U 98067FW  15191.52422642  .00203891  00000-0  11392-2 0  9991 | 2 40453 051.6402 319.0465 0001621 252.0550 157.9387 15.78231921 29744 | 2015/07/10-12:34:53  107.8009   50.0007  157.9457   91.2413     6713.5871     6712.4988     6714.6753  39.000836 -33.847378  -0.000139  -0.000084
1 40453U 98067FW  15192.74377887  .00206946  00000-0  11309-2 0  9998 | 2 40453 051.6402 312.7420 0001666 258.3268 246.4561 15.78717028 29935 | 2015/07/11-17:51:02   99.5572  144.7654  246.4386   91.2133     6712.2117     6711.0935     6713.3300  35.048111 -37.925455  -0.000143  -0.000086
1 40453U 98067FW  15193.87295348  .00228189  00000-0  12136-2 0  9996 | 2 40453 051.6383 306.9084 0002133 250.6168 197.2928 15.79256284 30113 | 2015/07/12-20:57:03  209.8799   87.9023  197.2855   91.1822     6710.6836     6709.2523     6712.1150  31.010733 -41.289810  -0.000203  -0.000064
1 40453U 98067FW  15195.13393159  .00245884  00000-0  12685-2 0  9996 | 2 40453 051.6407 300.3790 0001508 240.1053 183.2162 15.79876634 30318 | 2015/07/14-03:12:51  336.1924   63.3205  183.2152   91.1464     6708.9269     6707.9152     6709.9386  26.115611 -44.550385  -0.000151  -0.000001
1 40453U 98067FW  15196.14666201  .00259024  00000-0  13023-2 0  9997 | 2 40453 051.6385 295.1286 0001703 260.0305 168.2162 15.80404493 30474 | 2015/07/15-03:31:11  342.0987   68.2507  168.2202   91.1159     6707.4329     6706.2906     6708.5752  21.928361 -46.751274  -0.000164  -0.000045
1 40453U 98067FW  15197.47783412  .00239363  00000-0  11769-2 0  9997 | 2 40453 051.6387 288.2216 0001768 331.9427 116.1764 15.80944703 30682 | 2015/07/16-11:28:04   89.6674   88.1373  116.1946   91.0848     6705.9049     6704.7193     6707.0905  16.147061 -49.049238  -0.000030  -0.000174
1 40453U 98067FW  15198.48964256  .00257397  00000-0  12329-2 0  9996 | 2 40453 051.6385 282.9681 0001111 325.9504 125.6712 15.81461640 30849 | 2015/07/17-11:45:05   96.6667   91.6319  125.6815   91.0550     6704.4435     6703.6986     6705.1883  11.588120 -50.321468  -0.000040  -0.000104
1 40453U 98067FW  15199.69798859  .00253812  00000-0  11847-2 0  9996 | 2 40453 051.6401 276.6870 0001615 327.3340 169.5436 15.82028847 31032 | 2015/07/18-16:45:06  133.8874  136.8810  169.5470   91.0224     6702.8409     6701.7584     6703.9234   6.013252 -51.288797  -0.000071  -0.000145
1 40453U 98067FW  15200.70975733  .00240747  00000-0  11034-2 0  9990 | 2 40453 051.6368 271.4336 0002475 343.7430 159.9845 15.82454816 31194 | 2015/07/19-17:02:03  137.5249  143.7372  159.9942   90.9979     6701.6380     6699.9793     6703.2966   1.291872 -51.620637  -0.000063  -0.000239
1 40453U 98067FW  15201.77497953  .00229225  00000-0  10309-2 0  9993 | 2 40453 051.6387 265.8915 0003516 347.5086 109.4277 15.82887325 31364 | 2015/07/20-18:35:58  214.3881   96.9743  109.4657   90.9730     6700.4171     6698.0613     6702.7730  -3.699676 -51.505997  -0.000100  -0.000337
1 40453U 98067FW  15203.09843190  .00215395  00000-0  94784-3 0  9991 | 2 40453 051.6380 259.0030 0003504 006.2501 078.3418 15.83388390 31571 | 2015/07/22-02:21:44  351.3683   84.6312   78.3811   90.9442     6699.0035     6696.6562     6701.3508  -9.850341 -50.689780  -0.000029  -0.000349
1 40453U 98067FW  15204.17398873  .00224947  00000-0  96650-3 0  9991 | 2 40453 051.6375 253.4002 0003298 001.3242 099.2942 15.83868113 31749 | 2015/07/23-04:10:32    9.2052  100.6557   99.3315   90.9167     6697.6508     6695.4419     6699.8596 -14.752060 -49.485433  -0.000087  -0.000318
1 40453U 98067FW  15205.18427432  .00284175  00000-0  11779-2 0  9994 | 2 40453 051.6352 248.1399 0003361 008.9564 097.3273 15.84465939 31909 | 2015/07/24-04:25:21   13.4988  106.3219   97.3655   90.8824     6695.9659     6693.7154     6698.2165 -19.225931 -47.922411  -0.000075  -0.000328
1 40453U 98067FW  15206.38150883  .00283868  00000-0  11415-2 0  9995 | 2 40453 051.6368 241.8877 0002509 023.8587 077.5396 15.85102307 32096 | 2015/07/25-09:09:22   96.8208  101.4264   77.5677   90.8459     6694.1737     6692.4941     6695.8532 -24.331324 -45.544986  -0.000019  -0.000250
1 40453U 98067FW  15207.51939795  .00279925  00000-0  10950-2 0  9990 | 2 40453 051.6360 235.9425 0003310 028.5338 091.5764 15.85683624 32279 | 2015/07/26-12:27:55  134.8158  120.1481   91.6143   90.8126     6692.5375     6690.3223     6694.7527 -28.917431 -42.779185  -0.000032  -0.000329
1 40453U 98067FW  15209.20778367  .00289654  00000-0  10824-2 0  9994 | 2 40453 051.6367 227.1181 0003437 025.6067 021.8641 15.86600741 32545 | 2015/07/28-04:59:12  105.7626   47.4855   21.8788   90.7601     6689.9582     6687.6589     6692.2576 -35.138228 -37.837200  -0.000102  -0.000328
1 40453U 98067FW  15210.48034544  .00315096  00000-0  11294-2 0  9990 | 2 40453 051.6365 220.4607 0002948 042.8319 080.0524 15.87388562 32743 | 2015/07/29-11:31:41  136.3830  122.9176   80.0857   90.7150     6687.7446     6685.7730     6689.7161 -39.287696 -33.508284  -0.000034  -0.000293
1 40453U 98067FW  15212.16662766  .00353075  00000-0  11905-2 0  9998 | 2 40453 051.6346 211.6161 0002302 041.5647 007.8688 15.88531166 33013 | 2015/07/31-03:59:56  107.4021   49.4371    7.8724   90.6498     6684.5373     6682.9985     6686.0760 -43.970975 -27.068159  -0.000067  -0.000220
1 40453U 98067FW  15213.17863889  .00579981  00000-0  18126-2 0  9997 | 2 40453 051.6324 206.3089 0001437 050.3108 032.4097 15.89516500 33178 | 2015/08/01-04:17:14   84.7438   82.7293   32.4185   90.5936     6681.7745     6680.8143     6682.7347 -46.284192 -22.884019  -0.000033  -0.000140
1 40453U 98067FW  15214.24971127  .00491933  00000-0  14796-2 0  9990 | 2 40453 051.6325 200.6708 0001429 071.9032 025.8033 15.90476951 33342 | 2015/08/02-05:59:35  102.0377   97.7136   25.8104   90.5389     6679.0842     6678.1298     6680.0387 -48.308609 -18.226172   0.000006  -0.000143
1 40453U 98067FW  15215.39026031  .00483936  10138-3  14649-2 0  9999 | 2 40453 051.6344 194.6627 0001443 110.2915 044.5605 15.91558476 33525 | 2015/08/03-09:21:58  102.6221  154.8636   44.5721   90.4774     6676.0581     6675.0948     6677.0215 -49.952809 -13.070122   0.000083  -0.000118
1 40453U 98067FW  15216.75486839  .00506176  11200-3  14291-2 0  9992 | 2 40453 051.6350 187.4646 0001715 132.1487 289.9340 15.92890993 33741 | 2015/08/04-18:07:00  335.1935   62.0642  289.9155   90.4017     6672.3344     6671.1901     6673.4787 -51.197410  -6.708089   0.000131  -0.000111
1 40453U 98067FW  15217.76005095  .00542780  12959-3  14478-2 0  9995 | 2 40453 051.6337 182.1560 0002515 157.1171 274.9546 15.93959172 33905 | 2015/08/05-18:14:28  333.3695   72.0430  274.9259   90.3411     6669.3531     6667.6758     6671.0305 -51.597149  -1.942481   0.000235  -0.000089
1 40453U 98067FW  15219.21203317  .00934378  40446-3  22357-2 0  9999 | 2 40453 051.6306 174.4546 0003646 191.6846 302.8993 15.95994998 34137 | 2015/08/07-05:05:19   82.7035  134.5488  302.8642   90.2258     6663.6804     6661.2508     6666.1099 -51.388966   4.989295   0.000363   0.000039
1 40453U 98067FW  15220.33837405  .00863659  35074-3  18697-2 0  9991 | 2 40453 051.6320 168.4810 0003719 198.3746 295.6181 15.97801703 34315 | 2015/08/08-08:07:15  135.8612  133.9543  295.5797   90.1238     6658.6561     6656.1798     6661.1325 -50.592056  10.310543   0.000369   0.000044
1 40453U 98067FW  15221.70184561  .01015318  51910-3  19008-2 0  9997 | 2 40453 051.6303 161.2218 0004635 206.1754 222.2127 16.00393393 34530 | 2015/08/09-16:50:39  340.9186   68.3524  222.1770   89.9779     6651.4655     6648.3825     6654.5484 -48.882112  16.620077   0.000460   0.000060
1 40453U 98067FW  15222.95308196  .01051620  58472-3  17068-2 0  9997 | 2 40453 051.6325 154.5231 0006439 216.2481 231.2858 16.02828692 34737 | 2015/08/10-22:52:26   60.1499   87.4764  231.2283   89.8412     6644.7264     6640.4478     6649.0049 -46.611693  22.209574   0.000633   0.000120
1 40453U 98067FW  15224.18389410  .01145871  74486-3  15901-2 0  9991 | 2 40453 051.6299 147.9171 0007697 228.4060 131.5911 16.05435217 34935 | 2015/08/12-04:24:48  238.5982    0.0630  131.6570   89.6953     6637.5324     6632.4234     6642.6413 -43.745006  27.423001   0.000739   0.000216
1 40453U 98067FW  15225.24128671  .01376922  00000-0  15937-2 0  9999 | 2 40453 051.6257 142.2340 0008613 232.8307 127.2321 16.08021056 35176 | 2015/08/13-05:47:27  265.9192    0.1413  127.3106   89.5511     6630.4146     6624.7038     6636.1254 -40.811075  31.617543   0.000832   0.000224
1 40453U 98067FW  15226.42064685  .01820310  27807-2  17085-2 0  9991 | 2 40453 051.6351 135.8441 0009062 239.9604 120.1212 16.11984885 35294 | 2015/08/14-10:05:43  338.0224    0.1714  120.2110   89.3309     6619.5408     6613.5422     6625.5394 -37.045447  35.969687   0.000872   0.000247
1 40453U 98067FW  15227.72066264  .02459398  10010-1  18521-2 0  9998 | 2 40453 051.6256 128.7611 0012533 254.1074 105.9070 16.16845219 35504 | 2015/08/15-17:17:45   94.4596    0.1525  106.0451   89.0623     6606.2683     6597.9887     6614.5480 -32.321474  40.255743   0.001155   0.000487
1 40453U 98067FW  15228.76912214  .04043766  11961-4  13633-2 0  9996 | 2 40453 051.6235 122.9928 0012632 262.8253 098.0533 16.24656014 35679 | 2015/08/16-18:27:32  117.8425    1.0219   98.1966   88.6341     6585.0775     6576.7593     6593.3958 -28.110732  43.298643   0.001137   0.000550
