# SPACE DATA - HISTORICAL TLEs
# ----------------------------
# NORAD_ID    : 39132
# OBJECT_NAME : DOVE 2
# --------------------------------------------------------------------+-----------------------------------------------------------------------+----------------------------------------------------------------------------------------------------------------------------------------
#                  LINE 1                                             |                 LINE 2                                                |      DERIVED PARAMETERS
# --------------------------------------------------------------------+-----------------------------------------------------------------------+----------------------------------------------------------------------------------------------------------------------------------------
# NORAD  COSPAR     TLE_EPOCH      MEANMOT1 MEANMOT2   BSTAR  #  REV  |   NORAD    INC     RAAN     ECC    ARGPER  MEANANOM   MEANMOT     REV |  CAL_DATE              LONG     ARGLAT     PERIOD        SMA         PERIGEE        APOGEE      INC_X      INC_Y      ECC_X      ECC_Y
# ------ ------   -------------- ----------  -------  ------- -- ----     -----  ------- -------- ------- -------- -------- -----------  ----   ------------------- ---------  --------  --------  ------------  ------------   ----------- ---------- ----------  ---------  ---------   
1 40727U 98067GK  15198.54539185  .00021278  00000-0  30787-3 0  9992 | 2 40727 051.6464 292.4072 0004292 297.3876 158.5022 15.55842391   368 | 2015/07/17-13:05:21  103.0841   95.9078  158.5202   92.5544     6777.8420     6774.9330     6780.7511  19.686913 -47.747001  -0.000277  -0.000328
1 40727U 98067GK  15199.64805178  .00021260  00000-0  30708-3 0  9996 | 2 40727 051.6470 286.8990 0004326 300.1026 216.0134 15.55890057   534 | 2015/07/18-15:33:11   86.4105  156.0869  215.9843   92.5515     6777.7036     6774.7715     6780.6356  15.013034 -49.416813  -0.000295  -0.000316
1 40727U 98067GK  15201.23165336  .00019270  00000-0  27851-3 0  9993 | 2 40727 051.6463 278.9861 0003849 303.5045 088.6974 15.55944939   783 | 2015/07/20-05:33:34   69.8949   32.2460   88.7415   92.5483     6777.5442     6774.9355     6780.1529   8.066886 -51.012407  -0.000284  -0.000260
1 40727U 98067GK  15202.39684920  .00017067  00000-0  24723-3 0  9993 | 2 40727 051.6466 273.1617 0004384 314.8115 128.4667 15.55976191   967 | 2015/07/21-09:31:27   85.2620   83.3175  128.5060   92.5464     6777.4534     6774.4822     6780.4247   2.848520 -51.567986  -0.000293  -0.000326
1 40727U 98067GK  15203.56317610  .00015826  00000-0  22952-3 0  9995 | 2 40727 051.6457 267.3325 0004167 322.8035 178.0515 15.56009298  1147 | 2015/07/22-13:30:58   94.5417  140.8566  178.0531   92.5444     6777.3573     6774.5332     6780.1814  -2.403583 -51.589739  -0.000267  -0.000320
1 40727U 98067GK  15204.77618208  .00015217  00000-0  22070-3 0  9991 | 2 40727 051.6454 261.2686 0003717 316.5377 143.7175 15.56044723  1330 | 2015/07/23-18:37:42  219.0831  100.2804  143.7427   92.5423     6777.2544     6774.7353     6779.7736  -7.839902 -51.046873  -0.000294  -0.000228
1 40727U 98067GK  15206.17824318  .00015980  00000-0  23099-3 0  9997 | 2 40727 051.6447 254.2619 0003648 325.6417 073.9834 15.56094312  1558 | 2015/07/25-04:16:40   72.8439   39.6653   74.0236   92.5394     6777.1105     6774.6382     6779.5828 -14.008137 -49.708622  -0.000280  -0.000234
1 40727U 98067GK  15207.34298220  .00016230  00000-0  23413-3 0  9993 | 2 40727 051.6446 248.4352 0004013 336.2268 112.6110 15.56133813  1733 | 2015/07/26-08:13:53   89.9119   88.8802  112.6534   92.5370     6776.9958     6774.2762     6779.7154 -18.982142 -48.029606  -0.000285  -0.000282
1 40727U 98067GK  15208.37127400  .00016560  00000-0  23841-3 0  9999 | 2 40727 051.6454 243.2926 0004293 341.8593 111.4551 15.56170762  1892 | 2015/07/27-08:54:38  101.7765   93.3602  111.5009   92.5348     6776.8885     6773.9792     6779.7978 -23.211218 -46.135525  -0.000303  -0.000304
1 40727U 98067GK  15209.47122494  .00019188  00000-0  27450-3 0  9998 | 2 40727 051.6440 237.7911 0004130 354.8665 144.8823 15.56226331  2069 | 2015/07/28-11:18:33   97.9101  139.7760  144.9095   92.5315     6776.7272     6773.9284     6779.5260 -27.526650 -43.696525  -0.000251  -0.000328
1 40727U 98067GK  15210.50213044  .00037886  00000-0  53181-3 0  9991 | 2 40727 051.6413 232.6405 0004093 350.9776 168.4595 15.56339155  2224 | 2015/07/29-12:03:04   95.5145  159.4465  168.4689   92.5248     6776.3997     6773.6261     6779.1732 -31.336672 -41.046765  -0.000296  -0.000282
1 40727U 98067GK  15212.08611367  .00027676  00000-0  38973-3 0  9994 | 2 40727 051.6426 224.7188 0004003 350.5169 049.7827 15.56416630  2471 | 2015/07/31-02:04:00   74.3689   40.3346   49.8177   92.5202     6776.1748     6773.4623     6778.8873 -36.695612 -36.337174  -0.000327  -0.000231
1 40727U 98067GK  15213.45498259  .00026352  00000-0  37050-3 0  9994 | 2 40727 051.6438 217.8694 0004361 357.2120 158.2498 15.56486066  2680 | 2015/08/01-10:55:10  100.1981  155.4803  158.2683   92.5161     6775.9733     6773.0183     6778.9283 -40.768238 -31.702253  -0.000357  -0.000251
1 40727U 98067GK  15215.03954212  .00023764  00000-0  33406-3 0  9991 | 2 40727 051.6437 209.9444 0004042 010.5972 029.7633 15.56554967  2931 | 2015/08/03-00:56:56   75.2277   40.3835   29.7863   92.5120     6775.7733     6773.0345     6778.5121 -44.749793 -25.778437  -0.000307  -0.000263
1 40727U 98067GK  15216.20411615  .00022278  00000-0  31314-3 0  9991 | 2 40727 051.6447 204.1169 0003423 014.7301 075.8489 15.56602054  3110 | 2015/08/04-04:53:55   91.2312   90.6170   75.8869   92.5092     6775.6367     6773.3174     6777.9560 -47.136825 -21.102009  -0.000267  -0.000215
1 40727U 98067GK  15217.37043749  .00020288  00000-0  28540-3 0  9995 | 2 40727 051.6451 198.2788 0004220 015.1650 135.5867 15.56641344  3291 | 2015/08/05-08:53:25   97.9219  150.7855  135.6205   92.5069     6775.5226     6772.6634     6778.3819 -49.039171 -16.198028  -0.000352  -0.000233
1 40727U 98067GK  15218.49911503 -.00000005  00000-0  00000+0 0  9994 | 2 40727 051.6421 192.6364 0004595 019.3358 340.8344 15.56694095  3474 | 2015/08/06-11:58:43  301.5822    0.1529  340.8171   92.5037     6775.3696     6772.2563     6778.4829 -50.391224 -11.297391  -0.000390  -0.000243
1 40727U 98067GK  15219.54479319  .00022510  00000-0  31460-3 0  9997 | 2 40727 051.6443 187.3985 0004338 025.7740 078.3851 15.56745344  3637 | 2015/08/07-13:04:30  220.3060  104.2078   78.4338   92.5007     6775.2209     6772.2818     6778.1600 -51.214337  -6.650218  -0.000363  -0.000237
1 40727U 98067GK  15220.87885682  .00026572  00000-0  36878-3 0  9999 | 2 40727 051.6433 180.7224 0004285 035.7752 350.1118 15.56832517  3843 | 2015/08/08-21:05:33   66.8320   25.8786  350.1034   92.4955     6774.9680     6772.0649     6777.8710 -51.639195  -0.651115  -0.000344  -0.000255
1 40727U 98067GK  15221.90848721  .00034192  00000-0  47023-3 0  9998 | 2 40727 051.6430 175.5670 0004548 039.8760 000.9259 15.56940401  4000 | 2015/08/09-21:48:13   68.7543   40.8027    0.9267   92.4891     6774.6550     6771.5739     6777.7361 -51.488505   3.991657  -0.000371  -0.000264
1 40727U 98067GK  15223.13957519  .00036211  00000-0  49570-3 0  9994 | 2 40727 051.6433 169.4040 0004224 044.8587 061.0039 15.57037292  4190 | 2015/08/11-03:20:59   94.2617  105.9049   61.0462   92.4833     6774.3739     6771.5124     6777.2354 -50.762688   9.496311  -0.000349  -0.000238
1 40727U 98067GK  15224.42102005  .00034397  00000-0  46990-3 0  9995 | 2 40727 051.6417 162.9882 0004273 043.6595 050.0449 15.57118175  4399 | 2015/08/12-10:06:16  215.4189   93.7419   50.0824   92.4785     6774.1393     6771.2447     6777.0339 -49.382093  15.108742  -0.000382  -0.000192
1 40727U 98067GK  15225.82192620  .00030649  00000-0  41851-3 0  9999 | 2 40727 051.6430 155.9746 0004142 050.3555 341.6435 15.57190663  4612 | 2015/08/13-19:43:34   69.8449   31.9840  341.6285   92.4742     6773.9291     6771.1233     6776.7349 -47.168912  21.026013  -0.000371  -0.000184
1 40727U 98067GK  15227.05183706  .00029797  00000-0  40605-3 0  9999 | 2 40727 051.6435 149.8178 0003991 056.6966 034.7692 15.57261714  4806 | 2015/08/15-01:14:38  100.5151   91.4919   34.7953   92.4700     6773.7231     6771.0197     6776.4265 -44.642244  25.963843  -0.000357  -0.000178
1 40727U 98067GK  15228.21845719  .00024621  00000-0  33625-3 0  9992 | 2 40727 051.6431 143.9769 0004821 054.6272 101.4896 15.57310034  4981 | 2015/08/16-05:14:34  102.8381  156.1709  101.5437   92.4671     6773.5829     6770.3174     6776.8485 -41.767904  30.371895  -0.000457  -0.000154
1 40727U 98067GK  15229.73607635  .00036083  00000-0  48668-3 0  9991 | 2 40727 051.6436 136.3747 0004447 064.6508 325.7829 15.57436613  5222 | 2015/08/17-17:39:56   63.9621   30.4050  325.7542   92.4596     6773.2159     6770.2039     6776.2280 -37.383112  35.630947  -0.000415  -0.000160
1 40727U 98067GK  15230.76437288  .00029746  00000-0  40199-3 0  9990 | 2 40727 051.6427 131.2224 0004819 069.0133 330.7057 15.57482507  5381 | 2015/08/18-18:20:41   71.0294   39.6920  330.6787   92.4569     6773.0829     6769.8189     6776.3468 -34.031691  38.843436  -0.000452  -0.000167
1 40727U 98067GK  15231.92786394 +.00029361 +00000-0 +39598-3 0  9998 | 2 40727 051.6432 125.3942 0004451 085.5036 002.2719 15.57545685005568 | 2015/08/19-22:16:07   88.8047   87.7775    2.2739   92.4531     6772.8997     6769.8851     6775.9143 -29.911672  42.098836  -0.000382  -0.000229
1 40727U 98067GK  15233.71577781  .00021662  00000-0  29365-3 0  9992 | 2 40727 051.6410 116.4361 0004030 079.0324 320.5365 15.57596270  5841 | 2015/08/21-17:10:43   71.3806   39.5395  320.5071   92.4501     6772.7531     6770.0237     6775.4825 -22.990545  46.240975  -0.000388  -0.000107
1 40727U 98067GK  15235.08299366  .00021961  00000-0  29691-3 0  9998 | 2 40727 051.6413 109.5825 0004103 081.2164 070.0587 15.57658255  6059 | 2015/08/23-01:59:30  100.0733  151.3193   70.1029   92.4465     6772.5734     6769.7946     6775.3522 -17.308295  48.654360  -0.000403  -0.000077
1 40727U 98067GK  15236.86973670  .00024008  00000-0  32277-3 0  9991 | 2 40727 051.6408 100.6301 0003595 089.6921 007.8699 15.57752394  6333 | 2015/08/24-20:52:25   87.7274   97.5676    7.8755   92.4409     6772.3005     6769.8659     6774.7352  -9.526060  50.754570  -0.000354  -0.000064
1 40727U 98067GK  15237.89607068  .00025855  00000-0  34621-3 0  9996 | 2 40727 051.6417 095.4837 0004037 088.4705 008.6379 15.57812306  6498 | 2015/08/25-21:30:20  103.8193   97.1154    8.6449   92.4373     6772.1269     6769.3930     6774.8608  -4.935014  51.405358  -0.000403  -0.000028
1 40727U 98067GK  15238.99609203  .00025447  00000-0  34019-3 0  9999 | 2 40727 051.6435 089.9687 0003763 084.6384 065.7190 15.57866882  6667 | 2015/08/26-23:54:22   93.1772  150.3967   65.7583   92.4341     6771.9687     6769.4204     6774.5170   0.028212  51.643492  -0.000375   0.000035
1 40727U 98067GK  15240.78101883  .00033873  00000-0  44801-3 0  9992 | 2 40727 051.6458 081.0179 0003463 090.0027 357.8928 15.57996445  6947 | 2015/08/28-18:44:40   88.9228   87.8940  357.8913   92.4264     6771.5933     6769.2483     6773.9383   8.063246  51.012476  -0.000342   0.000054
1 40727U 98067GK  15242.56832624  .00026874  00000-0  35560-3 0  9999 | 2 40727 051.6420 072.0625 0004399 099.4022 300.1742 15.58106260  7225 | 2015/08/30-13:38:23   71.3897   39.5328  300.1306   92.4199     6771.2751     6768.2964     6774.2538  15.904671  49.131839  -0.000435   0.000065
1 40727U 98067GK  15243.79882912  .00020310  00000-0  27020-3 0  9991 | 2 40727  51.6445  65.8932 0003888 103.2336   3.1042 15.58145695  7416 | 2015/08/31-19:10:18   94.9914  106.3402    3.1066   92.4175     6771.1609     6768.5282     6773.7935  21.093617  47.140362  -0.000382   0.000073
1 40727U 98067GK  15245.14673880  .00021284  00000-0  28216-3 0  9993 | 2 40727  51.6456  59.1324 0003650 110.0565   2.3340 15.58206945  7627 | 2015/09/02-03:31:18  222.2756  112.3922    2.3357   92.4139     6770.9834     6768.5120     6773.4548  26.497082  44.330268  -0.000359   0.000068
1 40727U 98067GK  15246.68238632 +.00021225 +00000-0 +28071-3 0  9999 | 2 40727 051.6435 051.4273 0003765 118.1023 334.4812 15.58272591007866 | 2015/09/03-16:22:38   84.1344   92.5649  334.4626   92.4100     6770.7933     6768.2441     6773.3425  32.200092  40.375800  -0.000370   0.000068
1 40727U 98067GK  15247.70824597  .00022534  00000-0  29696-3 0  9992 | 2 40727  51.6443  46.2787 0004065 115.9118 335.4731 15.58325778  8027 | 2015/09/04-16:59:52  100.8022   91.3656  335.4538   92.4069     6770.6392     6767.8869     6773.3915  35.694016  37.323865  -0.000387   0.000124
1 40727U 98067GK  15248.87370166  .00024773  00000-0  32491-3 0  9993 | 2 40727  51.6424  40.4372 0003916 122.1601  31.9221 15.58392835  8203 | 2015/09/05-20:58:07  104.6592  154.1059   31.9458   92.4029     6770.4450     6767.7937     6773.0963  39.305926  33.495994  -0.000374   0.000117
1 40727U 98067GK  15250.45664476  .00027888  00000-0  36349-3 0  9996 | 2 40727  51.6424  32.4928 0003366 121.8656 279.0944 15.58491922  8457 | 2015/09/07-10:57:34   77.1455   40.9219  279.0563   92.3970     6770.1580     6767.8792     6772.4368  43.558245  27.741968  -0.000303   0.000146
1 40727U 98067GK  15251.55291986  .00029631  00000-0  38470-3 0  9995 | 2 40727  51.6431  26.9940 0003347 121.5041 314.4225 15.58561200  8623 | 2015/09/08-13:16:12   83.4173   75.8992  314.3951   92.3929     6769.9574     6767.6915     6772.2233  46.016794  23.440658  -0.000285   0.000175
1 40727U 98067GK  15252.78446913  .00033618  00000-0  43393-3 0  9993 | 2 40727  51.6435  20.8116 0003355 121.5213  29.2195 15.58650349  8816 | 2015/09/09-18:49:38   99.3571  150.7596   29.2383   92.3876     6769.6992     6767.4280     6771.9705  48.273956  18.348740  -0.000266   0.000205
1 40727U 98067GK  15253.92848475  .00037001  00000-0  47513-3 0  9997 | 2 40727  51.6458  15.0716 0002654 111.8566 342.5888 15.58742231  8998 | 2015/09/10-22:17:01  214.3657   94.4363  342.5797   92.3822     6769.4332     6767.6366     6771.2298  49.869269  13.429247  -0.000159   0.000212
1 40727U 98067GK  15254.95603162  .00019344  00000-0  25199-3 0  9999 | 2 40727  51.6458   9.8980 0003182  52.0758  52.1301 15.58745846  9156 | 2015/09/11-22:56:41  220.7085  104.2347   52.1589   92.3820     6769.4227     6767.2687     6771.5768  50.877069   8.877640   0.000150   0.000281
1 40727U 98067GK  15256.48984981  .00029534  00000-0  37926-3 0  9993 | 2 40727  51.6478   2.2173 0003282 123.2762 314.0593 15.58855615  9391 | 2015/09/13-11:45:23   88.9459   77.3085  314.0323   92.3755     6769.1049     6766.8833     6771.3266  51.609130   1.998229  -0.000191   0.000267
1 40727U 98067GK  15257.90504897  .00025365  00000-0  32602-3 0  9999 | 2 40727  51.6430 355.1066 0003209 130.8194 333.8668 15.58919290  9619 | 2015/09/14-21:43:16  219.5725  104.6700  333.8506   92.3717     6768.9206     6766.7485     6771.0928  51.454768  -4.405259  -0.000188   0.000260
1 40727U 98067GK  15259.23700745  .00025964  00000-0  33261-3 0  9994 | 2 40727  51.6454 348.4205 0003407 138.1082 246.8487 15.58992944  9824 | 2015/09/16-05:41:17   66.8058   24.9210  246.8128   92.3673     6768.7074     6766.4013     6771.0135  50.594268 -10.366648  -0.000203   0.000274
1 40727U 98067GK  15260.26469403  .00032008  00000-0  40680-3 0  9992 | 2 40727  51.6451 343.2595 0003095 143.7196 253.1724 15.59087656  9985 | 2015/09/17-06:21:09   71.0118   36.8581  253.1385   92.3617     6768.4333     6766.3385     6770.5281  49.456336 -14.875725  -0.000186   0.000247
1 40727U 98067GK  15261.42742973  .00034038  00000-0  43066-3 0  9993 | 2 40727  51.6464 337.4191 0003111 141.4347 306.1101 15.59174567 10166 | 2015/09/18-10:15:29   85.9303   87.5160  306.0813   92.3566     6768.1818     6766.0762     6770.2873  47.687098 -19.831574  -0.000150   0.000272
1 40727U 98067GK  15262.45340450  .00031031  00000-0  39262-3 0  9994 | 2 40727  51.6454 332.2677 0002244 127.8986 322.3088 15.59224298 10329 | 2015/09/19-10:52:54   98.7813   90.1917  322.2931   92.3536     6768.0378     6766.5191     6769.5566  45.712967 -24.032727  -0.000040   0.000221
1 40727U 98067GK  15263.61832304  .00025770  00000-0  32681-3 0  9998 | 2 40727  51.6443 326.4150 0003013 141.1423  12.3679 15.59266674 10504 | 2015/09/20-14:50:23  101.8501  153.5176   12.3753   92.3511     6767.9152     6765.8761     6769.9544  43.023115 -28.568257  -0.000091   0.000287
1 40727U 98067GK  15264.76203885  .00028286  00000-0  35692-3 0  9991 | 2 40727  51.6447 320.6692 0002748 143.1823 314.9259 15.59345215 10688 | 2015/09/21-18:17:20  215.8629   98.0859  314.9036   92.3465     6767.6880     6765.8282     6769.5477  39.947156 -32.732244  -0.000066   0.000267
1 40727U 98067GK  15266.17323771  .00035428  00000-0  44295-3 0  9990 | 2 40727  51.6458 313.5735 0002492 136.4130 329.3710 15.59470734 10903 | 2015/09/23-04:09:27    4.7053  105.7694  329.3564   92.3390     6767.3248     6765.6384     6769.0112  35.598651 -37.416904   0.000000   0.000249
1 40727U 98067GK  15267.32394296  .00036311  00000-0  45233-3 0  9993 | 2 40727  51.6462 307.7901 0001889 136.1567 314.2685 15.59556640 11083 | 2015/09/24-07:46:28   81.2356   90.4097  314.2530   92.3339     6767.0763     6765.7980     6768.3546  31.647269 -40.813973   0.000020   0.000188
1 40727U 98067GK  15268.41647248  .00020032  00000-0  25304-3 0  9992 | 2 40727  51.6431 302.3024 0002347 148.8794 319.1987 15.59539198 11255 | 2015/09/25-09:59:43  103.4579  108.0605  319.1811   92.3350     6767.1268     6765.5385     6768.7150  27.597440 -43.650785  -0.000005   0.000235
1 40727U 98067GK  15270.06828434  .00020926  00000-0  26329-3 0  9994 | 2 40727  51.6431 294.0013 0002412 157.9720 230.3487 15.59612439 11511 | 2015/09/27-01:38:19   67.7967   28.2994  230.3274   92.3306     6766.9149     6765.2827     6768.5471  21.006212 -47.177843  -0.000008   0.000241
1 40727U 98067GK  15271.09546455  .00021294  00000-0  26733-3 0  9996 | 2 40727  51.6424 288.8408 0002252 155.4497 244.0100 15.59658385 11679 | 2015/09/28-02:17:28   72.6155   39.4365  243.9868   92.3279     6766.7820     6765.2581     6768.3059  16.677382 -48.875376   0.000022   0.000224
1 40727U 98067GK  15272.46090459  .00021221  00000-0  26584-3 0  9990 | 2 40727  51.6421 281.9782 0002286 156.6565 354.6887 15.59717635 11888 | 2015/09/29-11:03:42  100.4969  151.3428  354.6863   92.3244     6766.6106     6765.0638     6768.1575  10.717776 -50.517678   0.000045   0.000224
1 40727U 98067GK  15273.60412131  .00021854  00000-0  27301-3 0  9992 | 2 40727  51.6428 276.2311 0002097 160.4978 294.3878 15.59771167 12062 | 2015/09/30-14:29:56  215.3884   94.8637  294.3659   92.3212     6766.4558     6765.0369     6767.8747   5.605256 -51.337704   0.000048   0.000204
1 40727U 98067GK  15275.20451588  .00023557  00000-0  29282-3 0  9991 | 2 40727  51.6423 268.1858 0002523 167.5213 280.1012 15.59852652 12317 | 2015/10/02-04:54:30   88.4163   87.5940  280.0727   92.3164     6766.2202     6764.5130     6767.9273  -1.634916 -51.616414   0.000062   0.000244
1 40727U 98067GK  15276.36895706  .00027621  00000-0  34103-3 0  9997 | 2 40727  51.6435 262.3333 0002513 174.6338 336.4735 15.59934100 12495 | 2015/10/03-08:51:17   91.1305  151.0958  336.4620   92.3116     6765.9846     6764.2843     6767.6849  -6.889770 -51.181854   0.000057   0.000245
1 40727U 98067GK  15277.45661564  .00031367  00000-0  38509-3 0  9997 | 2 40727  51.6433 256.8609 0002404 175.9125 327.4888 15.60013596 12661 | 2015/10/04-10:57:31  136.9381  143.3865  327.4740   92.3069     6765.7548     6764.1283     6767.3813 -11.739344 -50.291334   0.000071   0.000230
1 40727U 98067GK  15278.53780418  .00030954  00000-0  37917-3 0  9990 | 2 40727  51.6436 251.4214 0002486 179.2850 280.2845 15.60078867 12839 | 2015/10/05-12:54:26  216.5029   99.5415  280.2565   92.3030     6765.5661     6763.8841     6767.2480 -16.453924 -48.952322   0.000082   0.000235
1 40727U 98067GK  15279.93521483 +.00028461 +00000-0 +34832-3 0  9993 | 2 40727 051.6434 244.3952 0001870 178.3048 214.8764 15.60150012013053 | 2015/10/06-22:26:42   74.3626   33.1689  214.8641   92.2988     6765.3604     6764.0953     6766.6255 -22.318279 -46.571828   0.000086   0.000166
1 40727U 98067GK  15281.09758039  .00024567  00000-0  30114-3 0  9994 | 2 40727  51.6404 238.5441 0002164 167.3902 278.6565 15.60194852 13239 | 2015/10/08-02:20:30   86.9455   86.0222  278.6320   92.2962     6765.2308     6763.7668     6766.6947 -26.948137 -44.051434   0.000151   0.000155
1 40727U 98067GK  15282.88195366  .00029969  00000-0  36402-3 0  9997 | 2 40727  51.6423 229.5667 0002546 187.9568 207.5331 15.60317718 13511 | 2015/10/09-21:10:00   70.6128   35.4764  207.5196   92.2889     6764.8756     6763.1533     6766.5979 -33.493254 -39.308130   0.000137   0.000215
1 40727U 98067GK  15284.10920200  .00027990  00000-0  33969-3 0  9994 | 2 40727  51.6432 223.3916 0002952 180.5793 273.2278 15.60378107 13700 | 2015/10/11-02:37:15  101.4898   93.7733  273.1940   92.2853     6764.7011     6762.7041     6766.6980 -37.527843 -35.477896   0.000212   0.000205
1 40727U 98067GK  15285.38970088  .00023140  00000-0  28161-3 0  9995 | 2 40727  51.6439 216.9558 0002306 197.1180 254.5393 15.60422389 13908 | 2015/10/12-09:21:10  212.3171   91.6318  254.5138   92.2827     6764.5731     6763.0132     6766.1330 -41.268616 -31.048248   0.000135   0.000187
1 40727U 98067GK  15286.41588174  .00022747  00000-0  27646-3 0  9990 | 2 40727  51.6434 211.7886 0002306 196.4045 263.7710 15.60468755 14062 | 2015/10/13-09:58:52  219.4027  100.1492  263.7447   92.2800     6764.4391     6762.8792     6765.9990 -43.896762 -27.205055   0.000154   0.000172
1 40727U 98067GK  15287.94853506 +.00025644 +00000-0 +30970-3 0  9996 | 2 40727 051.6436 204.0697 0001405 197.8536 238.3291 15.60559172014301 | 2015/10/14-22:45:53   84.3802   76.1690  238.3154   92.2746     6764.1778     6763.2274     6765.1282 -47.153188 -21.062722   0.000105   0.000094
1 40727U 98067GK  15289.04079715  .00028547  00000-0  34295-3 0  9990 | 2 40727  51.6427 198.5708 0001917 206.4933 250.3354 15.60634551 14474 | 2015/10/16-00:58:44  103.5240   96.8080  250.3147   92.2702     6763.9600     6762.6633     6765.2566 -48.953708 -16.446973   0.000135   0.000136
1 40727U 98067GK  15290.75922413  .00031508  00000-0  37601-3 0  9997 | 2 40727  51.6428 189.9225 0002546 215.0604 183.2433 15.60754499 14749 | 2015/10/17-18:13:16   71.0248   38.3020  183.2416   92.2631     6763.6134     6761.8914     6765.3354 -50.870313  -8.898878   0.000180   0.000180
1 40727U 98067GK  15292.12379931  .00033835  00000-0  40165-3 0  9995 | 2 40727  51.6428 183.0517 0001808 219.0392 291.8211 15.60856380 14951 | 2015/10/19-02:58:16   97.9311  150.8411  291.8019   92.2570     6763.3191     6762.0963     6764.5419 -51.569566  -2.749309   0.000134   0.000121
1 40727U 98067GK  15293.51659317  .00039492  00000-0  46515-3 0  9998 | 2 40727  51.6419 176.0399 0002362 235.0802 187.6240 15.60984625 15174 | 2015/10/20-12:23:53  335.8776   62.7006  187.6204   92.2495     6762.9487     6761.3513     6764.5461 -51.518599   3.566481   0.000148   0.000184
1 40727U 98067GK  15294.86597155  .00043634  00000-0  51040-3 0  9990 | 2 40727  51.6427 169.2450 0002684 228.9631 222.0908 15.61118289 15387 | 2015/10/21-20:46:59   81.4290   91.0333  222.0702   92.2416     6762.5626     6760.7476     6764.3777 -50.735550   9.637032   0.000211   0.000166
1 40727U 98067GK  15295.89087774  .00045592  00000-0  53083-3 0  9999 | 2 40727  51.6431 164.0802 0002829 227.7919 227.3216 15.61219354 15546 | 2015/10/22-21:22:51   92.5106   95.0897  227.2978   92.2356     6762.2708     6760.3577     6764.1838 -49.662410  14.165266   0.000240   0.000149
1 40727U 98067GK  15297.16936494  .00047680  00000-0  55200-3 0  9996 | 2 40727  51.6432 157.6346 0002444 250.1598 195.6553 15.61347631 15747 | 2015/10/24-04:03:53  209.7702   85.8075  195.6477   92.2280     6761.9004     6760.2478     6763.5530 -47.758391  19.650857   0.000164   0.000181
1 40727U 98067GK  15298.44562914  .00048479  00000-0  55833-3 0  9999 | 2 40727  51.6438 151.2047 0002861 255.9084 168.6972 15.61474837 15943 | 2015/10/25-10:41:42  338.1226   64.6120  168.7036   92.2205     6761.5331     6759.5987     6763.4676 -45.257848  24.875878   0.000195   0.000210
1 40727U 98067GK  15299.79363623  .00046035  00000-0  52833-3 0  9997 | 2 40727  51.6437 144.4119 0002666 266.7432 180.7066 15.61589008 16156 | 2015/10/26-19:02:50   88.6824   87.4494  180.7062   92.2138     6761.2036     6759.4010     6763.0061 -41.997775  30.054262   0.000167   0.000208
1 40727U 98067GK  15300.82264693  .00043638  00000-0  49973-3 0  9998 | 2 40727  51.6421 139.2234 0002929 264.3072 211.9204 15.61668890 16311 | 2015/10/27-19:44:36   76.5512  116.2099  211.9027   92.2090     6760.9730     6758.9927     6762.9533 -39.106592  33.728044   0.000212   0.000202
1 40727U 98067GK  15302.03083602  .00040716  00000-0  46522-3 0  9993 | 2 40727  51.6432 133.1317 0002790 278.7137 154.6549 15.61758842 16508 | 2015/10/29-00:44:24  201.6408   73.3823  154.6686   92.2037     6760.7134     6758.8272     6762.5996 -35.307301  37.688388   0.000172   0.000219
1 40727U 98067GK  15303.05697980  .00038861  00000-0  44317-3 0  9994 | 2 40727  51.6429 127.9589 0002604 269.6651 176.9750 15.61831174 16668 | 2015/10/30-01:22:03  203.9653   86.6417  176.9766   92.1995     6760.5047     6758.7442     6762.2651 -31.765344  40.717957   0.000206   0.000159
1 40727U 98067GK  15304.51947854  .00038183  00000-0  43373-3 0  9992 | 2 40727  51.6429 120.5818 0002861 287.0295 108.4010 15.61940695 16898 | 2015/10/31-12:28:02   70.4931   35.4616  108.4321   92.1930     6760.1886     6758.2545     6762.1227 -26.274254  44.459563   0.000193   0.000211
1 40727U 98067GK  15305.74543296  .00039157  00000-0  44287-3 0  9997 | 2 40727  51.6427 114.3981 0002898 289.3553 164.4391 15.62040939 17089 | 2015/11/01-17:53:25  100.8648   93.8033  164.4480   92.1871     6759.8994     6757.9404     6761.8584 -21.332269  47.030871   0.000209   0.000200
1 40727U 98067GK  15306.84145284  .00047593  00000-0  53363-3 0  9992 | 2 40727  51.6391 108.8596 0003052 253.6833 247.9484 15.62175801 17253 | 2015/11/02-20:11:41   94.2135  141.5993  247.9160   92.1791     6759.5103     6757.4473     6761.5734 -16.692352  48.866779   0.000305   0.000014
1 40727U 98067GK  15307.86002604 +.00066679 +00000-0 +73824-3 0  9993 | 2 40727 051.6420 103.7244 0003578 308.8195 165.3601 15.62357559017411 | 2015/11/03-20:38:26  134.4911  114.1900  165.3705   92.1684     6758.9861     6756.5677     6761.4045 -12.252161  50.167526   0.000218   0.000284
1 40727U 98067GK  15309.00763028  .00076405  00000-0  83760-3 0  9993 | 2 40727  51.6435  97.9353 0002866 320.6820 133.0024 15.62557674 17598 | 2015/11/05-00:10:59  215.0440   93.7084  133.0264   92.1566     6758.4090     6756.4720     6760.3460  -7.129632  51.148993   0.000149   0.000245
1 40727U 98067GK  15310.41565672  .00088101  00000-0  95272-3 0  9992 | 2 40727  51.6429  90.8169 0003504 337.4881 122.8548 15.62845118 17816 | 2015/11/06-09:58:32    3.7813  100.3766  122.8885   92.1396     6757.5803     6755.2124     6759.9481  -0.736279  51.637651   0.000130   0.000326
1 40727U 98067GK  15311.76620854  .00095986  00000-0  10253-2 0  9999 | 2 40727  51.6437  84.0023 0003514 325.5816 179.1130 15.63121803 18021 | 2015/11/07-18:23:20   93.7740  144.6952  179.1136   92.1233     6756.7828     6754.4085     6759.1572   5.396175  51.361007   0.000228   0.000268
1 40727U 98067GK  15312.79036105  .00100252  00000-0  10608-2 0  9990 | 2 40727  51.6423  78.8269 0003942 326.7768 185.4052 15.63341106 18183 | 2015/11/08-18:58:07  101.1663  152.1777  185.4009   92.1104     6756.1509     6753.4877     6758.8142  10.006924  50.663484   0.000276   0.000282
1 40727U 98067GK  15313.80952419  .00105803  00000-0  11143-2 0  9990 | 2 40727  51.6401  73.6817 0005134 340.7637 151.1566 15.63432351 18348 | 2015/11/09-19:25:42  134.4765  131.9487  151.1850   92.1050     6755.8881     6752.4196     6759.3565  14.509487  49.559810   0.000299   0.000418
1 40727U 98067GK  15315.13997892  .00060841  00000-0  64336-3 0  9997 | 2 40727  51.6424  66.9549 0004978 352.9840  72.4542 15.63565950 18550 | 2015/11/11-03:21:34  327.9605   65.4926   72.5086   92.0972     6755.5032     6752.1403     6758.8661  20.215705  47.521182   0.000249   0.000431
1 40727U 98067GK  15316.36151876  .00061186  00000-0  64309-3 0  9990 | 2 40727  51.6435  60.7763 0005259 357.4511 108.7715 15.63716665 18747 | 2015/11/12-08:40:35   14.3130  106.2796  108.8285   92.0883     6755.0691     6751.5166     6758.6216  25.213425  45.070326   0.000277   0.000447
1 40727U 98067GK  15317.43769729  .00056913  00000-0  59623-3 0  9996 | 2 40727  51.6449  55.3285 0006114   5.9457  42.6869 15.63824311 18919 | 2015/11/13-10:30:17  105.8358   48.6801   42.7344   92.0820     6754.7591     6750.6293     6758.8890  29.379260  42.474166   0.000294   0.000536
1 40727U 98067GK  15318.46660852  .00051940  00000-0  54330-3 0  9992 | 2 40727  51.6446  50.1287 0004582   8.7289  76.3951 15.63911475 19074 | 2015/11/14-11:11:54   85.9664   85.1750   76.4461   92.0768     6754.5082     6751.4132     6757.6031  33.107559  39.636526   0.000237   0.000392
1 40727U 98067GK  15319.48939244  .00048787  00000-0  50900-3 0  9993 | 2 40727  51.6426  44.9529 0005328   4.9537  82.4930 15.64000212 19237 | 2015/11/15-11:44:43   98.0298   87.5072   82.5535   92.0716     6754.2527     6750.6540     6757.8513  36.546839  36.486802   0.000343   0.000408
1 40727U 98067GK  15320.51459909  .00050020  00000-0  51942-3 0  9994 | 2 40727  51.6427  39.7645 0005657  10.2301  93.6053 15.64106417 19394 | 2015/11/16-12:21:01   96.9144  103.9001   93.6700   92.0653     6753.9469     6750.1262     6757.7676  39.696710  33.032404   0.000364   0.000433
1 40727U 98067GK  15321.66885573  .00052232  00000-0  53921-3 0  9997 | 2 40727  51.6443  33.9267 0006007  15.3289 112.5172 15.64234955 19571 | 2015/11/17-16:03:09  135.4116  127.9097  112.5808   92.0578     6753.5769     6749.5200     6757.6338  42.851976  28.824328   0.000392   0.000455
1 40727U 98067GK  15323.18433002  .00052373  00000-0  53727-3 0  9992 | 2 40727  51.6444  26.2565 0005931  22.2930   5.6992 15.64393510 19815 | 2015/11/19-04:25:26   70.0002   27.9990    5.7060   92.0485     6753.1206     6749.1153     6757.1259  46.315863  22.846989   0.000393   0.000445
1 40727U 98067GK  15324.40862769  .00051790  00000-0  52875-3 0  9999 | 2 40727  51.6443  20.0585 0006292  26.7713  61.1030 15.64517193 20005 | 2015/11/20-09:48:25   98.2700   87.9374   61.1661   92.0412     6752.7647     6748.5158     6757.0135  48.511708  17.712931   0.000430   0.000459
1 40727U 98067GK  15325.57049589  .00052579  00000-0  53406-3 0  9992 | 2 40727  51.6443  14.1752 0006089  32.8740 123.5976 15.64641808 20189 | 2015/11/21-13:41:30   94.9737  156.5297  123.6557   92.0338     6752.4061     6748.2946     6756.5177  50.071805  12.647056   0.000415   0.000446
1 40727U 98067GK  15326.77586987  .00053386  00000-0  53935-3 0  9997 | 2 40727  51.6446   8.0710 0005925  36.8844  73.9397 15.64772283 20373 | 2015/11/22-18:37:15  221.8481  110.8894   74.0050   92.0262     6752.0307     6748.0302     6756.0313  51.133052   7.250908   0.000419   0.000419
1 40727U 98067GK  15327.91620942 +.00052253 +00000-0 +52560-3 0  9999 | 2 40727 051.6441 002.2906 0006612 040.8876 018.1783 15.64886378020556 | 2015/11/23-21:59:20  331.0329   59.0896   18.2020   92.0195     6751.7026     6747.2383     6756.1668  51.602835   2.064104   0.000482   0.000452
1 40727U 98067GK  15329.12645457  .00054832  00000-0  54800-3 0  9996 | 2 40727  51.6433 356.1611 0006544  48.3432 353.6726 15.65028902 20743 | 2015/11/25-03:02:05   71.0936   42.0075  353.6643   92.0111     6751.2926     6746.8746     6755.7107  51.527425  -3.457587   0.000467   0.000459
1 40727U 98067GK  15330.34943154  .00053594  00000-0  53317-3 0  9993 | 2 40727  51.6424 349.9622 0006595  55.1406  42.1144 15.65154080 20930 | 2015/11/26-08:23:10  103.5305   97.3057   42.1651   92.0037     6750.9327     6746.4804     6755.3849  50.851909  -9.001159   0.000465   0.000467
1 40727U 98067GK  15331.44537084  .00045480  00000-0  45248-3 0  9995 | 2 40727  51.6403 344.4107 0006270  50.6934 105.8473 15.65225772 21100 | 2015/11/27-10:41:20   85.4146  156.6098  105.9164   91.9995     6750.7265     6746.4938     6754.9592  49.740596 -13.877811   0.000513   0.000361
1 40727U 98067GK  15332.46688337  .00039538  00000-0  39333-3 0  9991 | 2 40727  51.6412 339.2327 0006926  59.0350  97.4257 15.65287175 21267 | 2015/11/28-11:12:18   99.4240  156.5394   97.5044   91.9959     6750.5500     6745.8745     6755.2254  48.285978 -18.310595   0.000544   0.000429
1 40727U 98067GK  15333.85593005  .00036213  00000-0  35960-3 0  9991 | 2 40727  51.6424 332.1918 0006638  67.0542   2.1503 15.65377325 21488 | 2015/11/29-20:32:32  335.1470   69.2074    2.1532   91.9906     6750.2908     6745.8100     6754.7716  45.678437 -24.091863   0.000514   0.000420
1 40727U 98067GK  15335.20352072  .00040528  00000-0  39954-3 0  9990 | 2 40727  51.6416 325.3598 0006950  70.0786  38.7481 15.65503013 21696 | 2015/12/01-04:53:04   68.8177  108.8766   38.7980   91.9832     6749.9295     6745.2383     6754.6207  42.487494 -29.354177   0.000566   0.000403
1 40727U 98067GK  15336.54117292  .00041910  00000-0  41099-3 0  9990 | 2 40727  51.6427 318.5778 0007012  73.6294  19.2902 15.65619467 21902 | 2015/12/02-12:59:17  214.3800   92.9462   19.3168   91.9764     6749.5948     6744.8620     6754.3276  38.724525 -34.166937   0.000593   0.000374
1 40727U 98067GK  15337.93618226 +.00038832 +00000-0 +37980-3 0  9990 | 2 40727 051.6434 311.5003 0007401 079.0638 321.9123 15.65718153022123 | 2015/12/03-22:28:06   56.9794   40.9237  321.8599   91.9706     6749.3112     6744.3160     6754.3063  34.220155 -38.678441   0.000637   0.000376
1 40727U 98067GK  15339.16144631  .00034552  00000-0  33782-3 0  9992 | 2 40727  51.6410 305.2879 0007216  87.8485  24.1256 15.65786475 22311 | 2015/12/05-03:52:28   74.4965  112.0079   24.1594   91.9666     6749.1148     6744.2447     6753.9850  29.832244 -42.152462   0.000604   0.000394
1 40727U 98067GK  15340.43290777  .00033436  00000-0  32605-3 0  9990 | 2 40727  51.6415 298.8371 0007178  89.6019 354.3607 15.65869020 22518 | 2015/12/06-10:23:23  207.9382   83.9545  354.3526   91.9617     6748.8776     6744.0333     6753.7220  24.907780 -45.237673   0.000631   0.000342
1 40727U 98067GK  15341.45562709  .00035842  00000-0  34781-3 0  9990 | 2 40727  51.6418 293.6485 0007531 100.1128 353.1187 15.65952773 22678 | 2015/12/07-10:56:06  213.0449   93.2212  353.1084   91.9568     6748.6370     6743.5546     6753.7194  20.714795 -47.305103   0.000626   0.000419
1 40727U 98067GK  15342.86035550  .00042259  00000-0  40663-3 0  9991 | 2 40727  51.6410 286.5151 0006722  99.1530 358.8745 15.66091982 22899 | 2015/12/08-20:38:54    2.4691   98.0260  358.8730   91.9486     6748.2371     6743.7009     6752.7732  14.679885 -49.510543   0.000606   0.000291
1 40727U 98067GK  15343.87051178  .00043628  00000-0  41796-3 0  9996 | 2 40727  51.6414 281.3873 0007113 103.1791 294.0373 15.66184590 23052 | 2015/12/09-20:53:32   73.0599   37.1419  293.9628   91.9432     6747.9710     6743.1712     6752.7709  10.196081 -50.624837   0.000647   0.000296
1 40727U 98067GK  15345.09308288  .00042799  00000-0  40847-3 0  9993 | 2 40727  51.6417 275.1812 0007182 108.5960 346.6261 15.66286526 23245 | 2015/12/11-02:14:02  102.5909   95.2030  346.6070   91.9372     6747.6783     6742.8321     6752.5244   4.663545 -51.430696   0.000657   0.000290
1 40727U 98067GK  15346.87554130  .00047349  00000-0  44780-3 0  9995 | 2 40727  51.6403 266.1346 0007207 120.4742 312.7518 15.66467894 23520 | 2015/12/12-21:00:46   57.0755   73.1653  312.6911   91.9266     6747.1574     6742.2947     6752.0201  -3.481217 -51.522827   0.000644   0.000323
1 40727U 98067GK  15348.16395103  .00049913  00000-0  46908-3 0  9995 | 2 40727  51.6410 259.5909 0006926 122.0723  22.0720 15.66604265 23726 | 2015/12/14-03:56:05   97.7983  144.1741   22.1018   91.9186     6746.7659     6742.0930     6751.4387  -9.330256 -50.791133   0.000644   0.000256
1 40727U 98067GK  15349.18003905  .00048194  00000-0  45152-3 0  9994 | 2 40727  51.6413 254.4303 0007026 126.1023 352.5307 15.66695821 23888 | 2015/12/15-04:19:15  135.2634  118.6225  352.5202   91.9132     6746.5030     6741.7629     6751.2431 -13.861063 -49.746304   0.000658   0.000246
1 40727U 98067GK  15350.76077610  .00053355  00000-0  49526-3 0  9998 | 2 40727  51.6408 246.4012 0007315 138.8292 261.9045 15.66879772 24139 | 2015/12/16-18:15:31   71.8152   40.6507  261.8215   91.9024     6745.9750     6741.0403     6750.9096 -20.673353 -47.322137   0.000662   0.000312
1 40727U 98067GK  15351.85395635  .00059150  00000-0  54494-3 0  9998 | 2 40727  51.6415 240.8453 0007117 139.1846 312.3872 15.67024563 24302 | 2015/12/17-20:29:41   61.1554   91.5115  312.3269   91.8939     6745.5594     6740.7586     6750.3602 -25.158156 -45.098910   0.000669   0.000244
1 40727U 98067GK  15352.94293991 +.00055906 +00000-0 +51329-3 0  9990 | 2 40727 051.6391 235.3069 0006754 145.2741 333.8633 15.67135726024470 | 2015/12/18-22:37:50   72.2356  119.1033  333.8292   91.8874     6745.2404     6740.6847     6749.7962 -29.391969 -42.458318   0.000632   0.000237
1 40727U 98067GK  15354.09649221  .00053523  00000-0  48941-3 0  9998 | 2 40727  51.6395 229.4454 0007139 148.5747   3.1288 15.67251794 24653 | 2015/12/20-02:18:56  101.9468  151.7080    3.1333   91.8806     6744.9074     6740.0922     6749.7226 -33.574577 -39.235007   0.000679   0.000221
1 40727U 98067GK  15355.48408193  .00055345  00000-0  50250-3 0  9993 | 2 40727  51.6398 222.3899 0007878 157.5874 268.6826 15.67405516 24875 | 2015/12/21-11:37:04  335.3358   66.1798  268.5924   91.8716     6744.4664     6739.1531     6749.7797 -38.139824 -34.814118   0.000740   0.000269
1 40727U 98067GK  15356.82655696  .00096650  00000-0  85781-3 0  9995 | 2 40727  51.6413 215.5610 0006811 161.1470 286.4532 15.67743112 25080 | 2015/12/22-19:50:14   85.4487   87.5253  286.3783   91.8518     6743.4981     6738.9051     6748.0911 -42.010033 -30.032999   0.000652   0.000196
1 40727U 98067GK  15357.91379789  .00084554  00000-0  74802-3 0  9994 | 2 40727  51.6377 210.0270 0006523 165.6110 302.4248 15.67881554 25256 | 2015/12/23-21:55:52  103.0255  107.9727  302.3617   91.8437     6743.1011     6738.7026     6747.4997 -44.707388 -25.839921   0.000628   0.000176
1 40727U 98067GK  15359.75764443  .00058393  00000-0  51661-3 0  9993 | 2 40727  51.6407 200.6480 0006339 173.8219 268.8064 15.68034406 25544 | 2015/12/25-18:11:00   83.4141   82.5557  268.7338   91.8347     6742.6629     6738.3888     6746.9371 -48.323531 -18.209839   0.000614   0.000158
1 40727U 98067GK  15360.77873356  .00054666  00000-0  48214-3 0  9990 | 2 40727  51.6425 195.4494 0006876 175.7125 274.8896 15.68133198 25709 | 2015/12/26-18:41:22   89.2375   90.5236  274.8111   91.8289     6742.3797     6737.7437     6747.0158 -49.776454 -13.756904   0.000675   0.000133
1 40727U 98067GK  15361.87027131  .00046643  00000-0  41122-3 0  9991 | 2 40727  51.6375 189.8886 0007390 184.0316 312.7712 15.68206287 25879 | 2015/12/27-20:53:11   82.6270  136.7406  312.7090   91.8247     6742.1702     6737.1878     6747.1527 -50.870348  -8.867868   0.000717   0.000178
1 40727U 98067GK  15362.95063281  .00043015  00000-0  37864-3 0  9995 | 2 40727  51.6386 184.3906 0006391 186.6892 293.5512 15.68289478 26048 | 2015/12/28-22:48:54  134.6824  120.1732  293.4840   91.8198     6741.9318     6737.6230     6746.2406 -51.487058  -3.953216   0.000627   0.000123
1 40727U 98067GK  15364.40937106  .00041393  00000-0  36287-3 0  9998 | 2 40727  51.6390 176.9610 0006785 194.0962 247.7562 15.68404791 26278 | 2015/12/30-09:49:29  347.0836   81.7805  247.6843   91.8130     6741.6013     6737.0272     6746.1755 -51.566379   2.737677   0.000666   0.000130
1 40727U 98067GK  15365.49605712  .00039757  00000-0  34771-3 0  9990 | 2 40727  51.6389 171.4289 0006229 198.5877 263.2083 15.68485125 26445 | 2015/12/31-11:54:19    4.9502  101.7251  263.1374   91.8083     6741.3712     6737.1720     6745.5704 -51.062180   7.696086   0.000613   0.000108
1 40727U 98067GK  16001.50460409  .00049635  00000-0  43014-3 0  9998 | 2 40727  51.6379 166.2893 0006771 205.0241 195.6843 15.68605323 26602 | 2016/01/01-12:06:37   75.2483   40.6874  195.6633   91.8013     6741.0268     6736.4624     6745.5911 -50.166472  12.239193   0.000664   0.000133
1 40727U 98067GK  16002.79605821  .00072630  00000-0  61986-3 0  9998 | 2 40727  51.6383 159.7106 0005515 215.8111 283.2345 15.68830085 26809 | 2016/01/02-19:06:19   89.6862  138.9841  283.1730   91.7881     6740.3829     6736.6656     6744.1002 -48.434304  17.906207   0.000531   0.000148
1 40727U 98067GK  16003.81600425  .00066733  00000-0  56754-3 0  9991 | 2 40727  51.6380 154.5121 0005780 213.1467 290.3612 15.68947649 26963 | 2016/01/03-19:35:02   98.6083  143.4458  290.2991   91.7813     6740.0462     6736.1504     6743.9419 -46.612393  22.220889   0.000573   0.000077
1 40727U 98067GK  16004.83706894  .00061364  00000-0  52062-3 0  9994 | 2 40727  51.6364 149.3019 0003794 227.5691 287.0958 15.69052346 27121 | 2016/01/04-20:05:22  101.2512  154.6233  287.0542   91.7751     6739.7464     6737.1893     6742.3034 -44.400550  26.361126   0.000363   0.000110
1 40727U 98067GK  16005.85243878  .00051822  00000-0  43950-3 0  9999 | 2 40727  51.6402 144.1278 0005216 225.1462 268.7802 15.69124053 27281 | 2016/01/05-20:27:30  133.6978  133.8666  268.7204   91.7709     6739.5410     6736.0257     6743.0564 -41.845399  30.260086   0.000515   0.000084
1 40727U 98067GK  16007.17674359  .00050095  00000-0  42290-3 0  9995 | 2 40727  51.6396 137.3773 0005215 229.3391 190.6790 15.69250699 27491 | 2016/01/07-04:14:30  332.4116   60.0070  190.6679   91.7635     6739.1784     6735.6639     6742.6929 -37.997908  34.968661   0.000518   0.000061
1 40727U 98067GK  16008.19785727  .00050454  00000-0  42406-3 0  9998 | 2 40727  51.6393 132.1693 0005152 233.3927 199.2805 15.69355230 27659 | 2016/01/08-04:44:54  333.5719   72.6537  199.2610   91.7574     6738.8792     6735.4073     6742.3510 -34.666679  38.273211   0.000513   0.000050
1 40727U 98067GK  16009.53787589  .00055075  00000-0  45916-3 0  9998 | 2 40727  51.6405 125.3351 0004914 242.1822 206.6919 15.69515973 27869 | 2016/01/09-12:54:32   87.9327   88.8488  206.6666   91.7480     6738.4190     6735.1078     6741.7303 -29.866670  42.127464   0.000487   0.000064
1 40727U 98067GK  16010.69351355  .00054979  00000-0  45601-3 0  9998 | 2 40727  51.6402 119.4425 0004819 251.2211 251.9410 15.69641889 28045 | 2016/01/10-16:38:39   96.7059  143.1096  251.8885   91.7407     6738.0587     6734.8116     6741.3057 -25.383733  44.970839   0.000474   0.000089
1 40727U 98067GK  16011.77472025  .00053529  00000-0  44218-3 0  9999 | 2 40727  51.6406 113.9231 0004679 255.3011 241.7467 15.69752235 28216 | 2016/01/11-18:35:35  138.6397  137.0006  241.6995   91.7342     6737.7429     6734.5903     6740.8955 -20.940788  47.204184   0.000462   0.000075
1 40727U 98067GK  16012.78317223  .00052097  00000-0  42878-3 0  9998 | 2 40727  51.6411 108.7767 0004582 260.1522 179.7572 15.69852361 28377 | 2016/01/12-18:47:46  204.9612   79.9096  179.7574   91.7284     6737.4564     6734.3693     6740.5435 -16.622274  48.892773   0.000453   0.000071
1 40727U 98067GK  16014.24181817  .00053729  00000-0  43906-3 0  9995 | 2 40727  51.6402 101.3311 0004505 268.1821 141.1929 15.70012675 28609 | 2016/01/14-05:48:13   49.4914   49.4073  141.2252   91.7190     6736.9977     6733.9627     6740.0328 -10.146183  50.633637   0.000444   0.000074
1 40727U 98067GK  16015.45778391  .00052231  00000-0  42489-3 0  9990 | 2 40727  51.6406  95.1283 0004212 276.3637 170.5724 15.70135170 28797 | 2016/01/15-10:59:12   97.0793   86.9440  170.5803   91.7118     6736.6474     6733.8099     6739.4848  -4.615960  51.433885   0.000413   0.000084
1 40727U 98067GK  16016.48208753  .00044887  00000-0  36506-3 0  9995 | 2 40727  51.6398  89.8995 0004255 270.2356 210.5293 15.70206582 28955 | 2016/01/16-11:34:12   78.2382  120.7401  210.5045   91.7077     6736.4431     6733.5767     6739.3095   0.090579  51.639721   0.000425   0.000001
1 40727U 98067GK  16017.74970117  .00041211  00000-0  33438-3 0  9994 | 2 40727  51.6397  83.4242 0004379 283.3710 167.8767 15.70301295 29155 | 2016/01/17-17:59:34  211.8210   91.2582  167.8872   91.7021     6736.1722     6733.2225     6739.1220   5.913653  51.299974   0.000435   0.000052
1 40727U 98067GK  16018.76933138  .00039592  00000-0  32050-3 0  9997 | 2 40727  51.6398  78.2152 0004229 289.4666 169.8244 15.70376644 29319 | 2016/01/18-18:27:50  217.0586   99.2996  169.8330   91.6977     6735.9567     6733.1081     6738.8054  10.546725  50.551316   0.000419   0.000057
1 40727U 98067GK  16020.17027903  .00042142  00000-0  33895-3 0  9992 | 2 40727  51.6399  71.0582 0004457 302.3500 162.6541 15.70501653 29538 | 2016/01/20-04:05:12    4.2245  105.0193  162.6693   91.6904     6735.5993     6732.5972     6738.6014  16.762701  48.843537   0.000434   0.000103
1 40727U 98067GK  16021.48781958  .00141702  00000-0  11084-2 0  9991 | 2 40727  51.6389  64.3299 0005220 310.0564  50.0496 15.70892617 29578 | 2016/01/21-11:42:27  231.4641    0.1519   50.0955   91.6676     6734.4817     6730.9663     6737.9971  22.369393  46.542306   0.000506   0.000130
1 40727U 98067GK  16022.53366758  .00061294  00000-0  47997-3 0  9995 | 2 40727  51.6368  58.9810 0004784 315.7776 202.8935 15.70980669 29901 | 2016/01/22-12:48:28   95.7840  158.6498  202.8722   91.6625     6734.2300     6731.0084     6737.4517  26.609594  44.252555   0.000463   0.000122
1 40727U 98067GK  16024.10639316 -.00117752  00000-0 -92529-3 0  9997 | 2 40727  51.6367  50.9440 0003868 321.9210  97.6685 15.71051602 30153 | 2016/01/24-02:33:12   50.6340   59.6334   97.7124   91.6584     6734.0273     6731.4226     6736.6321  32.535234  40.097473   0.000377   0.000086
1 40727U 98067GK  16025.45721756  .00042329  00000-0  33042-3 0  9996 | 2 40727  51.6397  44.0318 0004216 331.4548 173.7797 15.71217992 30361 | 2016/01/25-10:58:23   99.5294  145.2397  173.7849   91.6486     6733.5519     6730.7130     6736.3908  37.126576  35.892561   0.000406   0.000113
1 40727U 98067GK  16026.47676731  .00038264  00000-0  29837-3 0  9991 | 2 40727  51.6390  38.8168 0004214 334.6653 181.5338 15.71290496 30524 | 2016/01/26-11:26:32  101.8227  156.1978  181.5325   91.6444     6733.3448     6730.5073     6736.1822  40.234744  32.368993   0.000410   0.000098
1 40727U 98067GK  16027.86061876  .00038274  00000-0  29712-3 0  9996 | 2 40727  51.6393  31.7364 0004156 339.2940  90.3949 15.71396954 30747 | 2016/01/27-20:39:17  334.9638   69.7365   90.4425   91.6382     6733.0407     6730.2424     6735.8389  43.918042  27.162895   0.000408   0.000080
1 40727U 98067GK  16029.07602856  .00040565  00000-0  31311-3 0  9994 | 2 40727  51.6388  25.5205 0004662 348.3153 121.8620 15.71503141 30930 | 2016/01/29-01:49:28   19.4368  110.2227  121.9074   91.6320     6732.7373     6729.5985     6735.8761  46.600464  22.247751   0.000453   0.000111
1 40727U 98067GK  16030.15184093  .00042552  00000-0  32682-3 0  9993 | 2 40727  51.6393  20.0164 0004421 352.9641  87.8313 15.71600641 31109 | 2016/01/30-03:38:39   82.6756   80.8460   87.8819   91.6263     6732.4589     6729.4825     6735.4353  48.520012  17.675570   0.000431   0.000099
1 40727U 98067GK  16031.37202576  .00042538  00000-0  32530-3 0  9991 | 2 40727  51.6392  13.7702 0004394 358.5810 150.6017 15.71704355 31291 | 2016/01/31-08:55:43  101.0037  149.2074  150.6264   91.6203     6732.1627     6729.2046     6735.1208  50.154997  12.291593   0.000429   0.000094
1 40727U 98067GK  16032.50652958  .00043180  00000-0  32875-3 0  9996 | 2 40727  51.6391   7.9641 0004008   6.8886  86.0106 15.71805089 31472 | 2016/02/01-12:09:24  212.6329   92.9450   86.0564   91.6144     6731.8751     6729.1769     6734.5732  51.141045   7.154731   0.000387   0.000103
1 40727U 98067GK  16033.77357304  .00051514  00000-0  38838-3 0  9998 | 2 40727  51.6400   1.4794 0003969  10.1668  57.5726 15.71959861 31673 | 2016/02/02-18:33:56  341.6619   67.7778   57.6110   91.6054     6731.4332     6728.7615     6734.1049  51.622787   1.333217   0.000389   0.000080
1 40727U 98067GK  16034.91215131 +.00053440 +00000-0 +40049-3 0  9993 | 2 40727 051.6385 355.6496 0004273 011.9460 023.6712 15.72085205031858 | 2016/02/03-21:53:29   70.6243   35.6369   23.6909   91.5981     6731.0754     6728.1992     6733.9516  51.489719  -3.917083   0.000424   0.000056
1 40727U 98067GK  16036.06471531  .00053355  00000-0  39779-3 0  9992 | 2 40727  51.6385 349.7441 0004288  16.7423  66.4686 15.72208222 32032 | 2016/02/05-01:33:11   84.9952   83.2560   66.5137   91.5909     6730.7243     6727.8381     6733.6104  50.813439  -9.193970   0.000426   0.000048
1 40727U 98067GK  16037.08196309  .00059569  00000-0  44068-3 0  9992 | 2 40727  51.6378 344.5317 0003535  20.0837  64.9259 15.72349437 32190 | 2016/02/06-01:58:01   95.6207   85.0463   64.9626   91.5827     6730.3213     6727.9421     6732.7004  49.767384 -13.772069   0.000352   0.000028
1 40727U 98067GK  16038.10153307  .00069568  00000-0  50949-3 0  9992 | 2 40727  51.6341 339.3106 0003811  20.9006  79.6686 15.72522777 32357 | 2016/02/07-02:26:12   93.3323  100.6122   79.7116   91.5726     6729.8267     6727.2619     6732.3914  48.304186 -18.242419   0.000381   0.000001
1 40727U 98067GK  16039.43654116  .00074275  00000-0  53858-3 0  9996 | 2 40727  51.6364 332.4683 0003615  27.9418  75.8536 15.72731515 32569 | 2016/02/08-10:28:37  218.8672  103.8356   75.8938   91.5604     6729.2312     6726.7986     6731.6638  45.788848 -23.868373   0.000361   0.000003
1 40727U 98067GK  16040.76886672  .00073153  00000-0  52634-3 0  9993 | 2 40727  51.6369 325.6383 0003298  35.6339  57.0965 15.72921800 32779 | 2016/02/09-18:27:10  357.7126   92.7621   57.1282   91.5494     6728.6885     6726.4693     6730.9076  42.625795 -29.144657   0.000330   0.000007
1 40727U 98067GK  16041.78677045  .00077835  00000-0  55543-3 0  9991 | 2 40727  51.6379 320.4202 0002890  46.1048  54.7595 15.73091208 32936 | 2016/02/10-18:52:56    2.2454  100.8914   54.7866   91.5395     6728.2054     6726.2609     6730.1498  39.799288 -32.901207   0.000287   0.000033
1 40727U 98067GK  16042.86925428  .00078052  00000-0  55301-3 0  9996 | 2 40727  51.6360 314.8672 0002894  42.3331  73.2226 15.73257582 33107 | 2016/02/11-20:51:43   23.8682  115.5875   73.2544   91.5298     6727.7310     6725.7840     6729.6780  36.427440 -36.596695   0.000289  -0.000014
1 40727U 98067GK  16044.14502726  .00079040  00000-0  55509-3 0  9999 | 2 40727  51.6371 308.3242 0003144  56.2124  90.2941 15.73458138 33308 | 2016/02/13-03:28:50   99.9961  146.5425   90.3301   91.5182     6727.1593     6725.0443     6729.2743  32.020705 -40.510055   0.000313   0.000025
1 40727U 98067GK  16045.27817281  .00083978  00000-0  58411-3 0  9999 | 2 40727  51.6363 302.5111 0002286  75.8213  14.1389 15.73661077 33480 | 2016/02/14-06:40:34  211.4048   89.9666   14.1453   91.5064     6726.5809     6725.0432     6728.1186  27.752600 -43.544238   0.000217   0.000072
1 40727U 98067GK  16046.74104591  .00082307  00000-0  56693-3 0  9990 | 2 40727  51.6372 294.9988 0002431  61.1844  42.4019 15.73896132 33718 | 2016/02/15-17:47:06   13.3672  103.6051   42.4207   91.4927     6725.9112     6724.2761     6727.5463  21.821844 -46.799654   0.000243  -0.000016
1 40727U 98067GK  16047.81024573  .00081911  00000-0  56009-3 0  9991 | 2 40727  51.6382 289.5071 0002400  67.5163 338.5974 15.74068251 33883 | 2016/02/16-19:26:45  102.2973   46.1037  338.5874   91.4827     6725.4209     6723.8068     6727.0350  17.243217 -48.674173   0.000240  -0.000012
1 40727U 98067GK  16048.89677117  .00109415  00000-0  73531-3 0  9997 | 2 40727  51.6413 283.9397 0001384  79.0567   8.8348 15.74351204 34058 | 2016/02/17-21:31:21   98.3070   87.8939    8.8372   91.4662     6724.6150     6723.6844     6725.5457  12.440420 -50.120453   0.000138   0.000007
1 40727U 98067GK  16049.91371086  .00148648  00000-0  97853-3 0  9991 | 2 40727  51.6369 278.7074 0002246  82.3065  13.8359 15.74684853 34215 | 2016/02/18-21:55:44  102.3890   96.1486   13.8421   91.4469     6723.6651     6722.1550     6725.1753   7.817232 -51.041751   0.000225   0.000004
1 40727U 98067GK  16051.12756844  .00136520  00000-0  88890-3 0  9993 | 2 40727  51.6404 272.4625 0000999  76.8229  65.7136 15.74980840 34406 | 2016/02/20-03:03:41  140.4250  142.5469   65.7240   91.4297     6722.8227     6722.1511     6723.4943   2.218756 -51.592713   0.000098  -0.000019
1 40727U 98067GK  16052.44783162  .00067797  00000-0  44542-3 0  9997 | 2 40727  51.6362 265.6818 0001254 144.0382 289.2814 15.75069952 34612 | 2016/02/21-10:44:52  333.0186   73.3060  289.2678   91.4245     6722.5691     6721.7261     6723.4121  -3.887972 -51.489619   0.000081   0.000096
1 40727U 98067GK  16053.78251253  .00061617  00000-0  40272-3 0  9997 | 2 40727  51.6360 258.8059 0001278  84.0509   2.7081 15.75227829 34827 | 2016/02/22-18:46:49   88.2558   86.7597    2.7088   91.4153     6722.1199     6721.2609     6722.9790 -10.024269 -50.653633   0.000122  -0.000038
1 40727U 98067GK  16055.49496929  .00061829  00000-0  40040-3 0  9996 | 2 40727  51.6362 249.9909 0001230  89.3135 355.6863 15.75438584 35095 | 2016/02/24-11:52:45  357.0023   84.9987  355.6852   91.4031     6721.5204     6720.6937     6722.3472 -17.668327 -48.519351   0.000115  -0.000043
1 40727U 98067GK  16056.49902934  .00061438  00000-0  39581-3 0  9999 | 2 40727  51.6369 244.8222 0001170  81.2188 302.4399 15.75559565 35251 | 2016/02/25-11:58:36   65.9633   23.6474  302.4286   91.3961     6721.1763     6720.3900     6721.9627 -21.967818 -46.730979   0.000097  -0.000065
1 40727U 98067GK  16057.51518791  .00066000  00000-0  42190-3 0  9997 | 2 40727  51.6396 239.6048 0001294  19.6318  11.9117 15.75709528 35410 | 2016/02/26-12:21:52   70.1146   31.5466   11.9148   91.3874     6720.7499     6719.8802     6721.6196 -26.127650 -44.542050  -0.000024  -0.000127
1 40727U 98067GK  16058.53142704  .00068126  00000-0  43257-3 0  9993 | 2 40727  51.6378 234.3654 0000916  23.4758  16.9037 15.75850914 35575 | 2016/02/27-12:45:15   73.3657   40.3826   16.9068   91.3792     6720.3479     6719.7323     6720.9635 -30.084899 -41.968574  -0.000019  -0.000090
1 40727U 98067GK  16059.55211381  .00066880  00000-0  42237-3 0  9996 | 2 40727  51.6378 229.1040 0001432  25.8446  49.0791 15.75981191 35734 | 2016/02/28-13:15:02   52.5362   74.9361   49.0915   91.3716     6719.9775     6719.0152     6720.9398 -33.806650 -39.032971  -0.000037  -0.000138
1 40727U 98067GK  16060.83187900  .00065221  00000-0  40917-3 0  9999 | 2 40727  51.6378 222.5110 0001482  35.0277 105.9441 15.76142785 35934 | 2016/02/29-19:57:54   95.0580  140.9881  105.9604   91.3623     6719.5182     6718.5224     6720.5141 -38.064681 -34.893301  -0.000032  -0.000145
1 40727U 98067GK  16062.02920233  .00066081  00000-0  41157-3 0  9998 | 2 40727  51.6377 216.3404 0001585  32.8744  66.7886 15.76302405 36124 | 2016/03/02-00:42:03  214.7539   99.6797   66.8053   91.3530     6719.0646     6717.9996     6720.1296 -41.594717 -30.599536  -0.000056  -0.000148
1 40727U 98067GK  16063.42400284  .00074910  00000-0  46084-3 0  9996 | 2 40727  51.6379 209.1519 0001567  50.2095  50.5329 15.76532801 36348 | 2016/03/03-10:10:33    4.3660  100.7563   50.5468   91.3397     6718.4100     6717.3572     6719.4627 -45.096996 -25.154198  -0.000029  -0.000154
1 40727U 98067GK  16064.43870167  .00082873  00000-0  50470-3 0  9990 | 2 40727  51.6381 203.9193 0001693  50.9530  53.0451 15.76721871 36501 | 2016/03/04-10:31:43   12.6346  104.0136   53.0606   91.3287     6717.8729     6716.7355     6719.0102 -47.203287 -20.936643  -0.000044  -0.000163
1 40727U 98067GK  16065.57703162  .00091526  00000-0  55079-3 0  9991 | 2 40727  51.6369 198.0512 0001087  24.7247  65.5947 15.76952137 36685 | 2016/03/05-13:50:55   83.1022   90.3307   65.6060   91.3154     6717.2189     6716.4887     6717.9490 -49.095332 -16.000558  -0.000080  -0.000074
1 40727U 98067GK  16066.59049544  .00094370  00000-0  56266-3 0  9990 | 2 40727  51.6367 192.8211 0002393  21.2183  66.8125 15.77147306 36848 | 2016/03/06-14:10:18   96.4668   88.0560   66.8377   91.3041     6716.6647     6715.0574     6718.2720 -50.349278 -11.458576  -0.000198  -0.000134
1 40727U 98067GK  16067.60203146  .00094208  00000-0  55707-3 0  9992 | 2 40727  51.6356 187.6030 0002394  21.9785  53.4998 15.77334213 37007 | 2016/03/07-14:26:55  119.3874   75.5004   53.5219   91.2933     6716.1341     6714.5263     6717.7419 -51.181652  -6.831818  -0.000208  -0.000118
1 40727U 98067GK  16069.18477053  .00112187  00000-0  64998-3 0  9996 | 2 40727  51.6396 179.4420 0001519  56.3150  13.9455 15.77721976 37251 | 2016/03/09-04:26:04  344.1122   70.2647   13.9497   91.2708     6715.0336     6714.0136     6716.0536 -51.637151   0.502907  -0.000085  -0.000126
1 40727U 98067GK  16070.33139166  .00107334  00000-0  61618-3 0  9999 | 2 40727  51.6407 173.5155 0002772  27.1592  80.4320 15.77943860 37430 | 2016/03/10-07:57:12    6.6218  107.6225   80.4633   91.2580     6714.4041     6712.5429     6716.2653 -51.310326   5.832013  -0.000259  -0.000098
1 40727U 98067GK  16071.53197664  .00093018  00000-0  53093-3 0  9990 | 2 40727  51.6387 167.3010 0004134  25.2757  67.2232 15.78125713 37620 | 2016/03/11-12:46:02  101.3226   92.5426   67.2669   91.2475     6713.8883     6711.1128     6716.6638 -50.375534  11.351693  -0.000403  -0.000090
1 40727U 98067GK  16072.74364640  .00100446  00000-0  56613-3 0  9999 | 2 40727  51.6402 161.0448 0003151  33.8026 107.7693 15.78380742 37813 | 2016/03/12-17:50:51  135.9012  141.6063  107.8037   91.2327     6713.1651     6711.0497     6715.2804 -48.839899  16.774221  -0.000305  -0.000081
1 40727U 98067GK  16074.12511936  .00101399  00000-0  56439-3 0  9999 | 2 40727  51.6404 153.9014 0003636  29.0629  48.2335 15.78653876 38036 | 2016/03/14-03:00:10  346.0120   77.3275   48.2646   91.2170     6712.3907     6709.9501     6714.8313 -46.375058  22.717502  -0.000363  -0.000019
1 40727U 98067GK  16075.13909667  .00084873  00000-0  47145-3 0  9994 | 2 40727  51.6395 148.6596 0003754  40.5662  43.2104 15.78769798 38194 | 2016/03/15-03:20:17  350.8048   83.8061   43.2399   91.2103     6712.0621     6709.5424     6714.5818 -44.104899  26.858813  -0.000371  -0.000060
1 40727U 98067GK  16076.20652873  .00080395  00000-0  44388-3 0  9998 | 2 40727  51.6385 143.1378 0003603  43.6202 351.3387 15.78926239 38368 | 2016/03/16-04:57:24   70.4720   34.9527  351.3325   91.2012     6711.6188     6709.2006     6714.0370 -41.314962  30.977550  -0.000358  -0.000042
1 40727U 98067GK  16077.41442700  .00096491  00000-0  52435-3 0  9994 | 2 40727  51.6419 136.8907 0002873  64.1530   2.1668 15.79208241 38554 | 2016/03/17-09:56:46  121.3921   66.3210    2.1680   91.1849     6710.8197     6708.8917     6712.7478 -37.701239  35.291676  -0.000268  -0.000103
1 40727U 98067GK  16078.62873278  .00107430  00000-0  57500-3 0  9990 | 2 40727  51.6385 130.6014 0004276  42.3503  92.8637 15.79493026 38744 | 2016/03/18-15:05:22  137.1342  135.2629   92.9126   91.1685     6710.0131     6707.1439     6712.8823 -33.605962  39.206810  -0.000424   0.000052
1 40727U 98067GK  16079.76278054  .00095493  00000-0  50802-3 0  9990 | 2 40727  51.6375 124.7408 0004256  45.5636  62.6559 15.79674733 38928 | 2016/03/19-18:18:24  219.3642  108.2628   62.6992   91.1580     6709.4985     6706.6429     6712.3541 -29.426395  42.432519  -0.000420   0.000072
1 40727U 98067GK  16081.14241291  .00085424  00000-0  45107-3 0  9993 | 2 40727  51.6395 117.5897 0004745  54.1997 345.4676 15.79880564 39149 | 2016/03/21-03:25:04   73.0950   39.6536  345.4539   91.1461     6708.9157     6705.7324     6712.0991 -23.916148  45.767410  -0.000470   0.000068
1 40727U 98067GK  16082.16663978  .00083597  00000-0  43840-3 0  9997 | 2 40727  51.6367 112.2840 0004212  58.0029  51.2503 15.80043045 39302 | 2016/03/22-03:59:57   18.5460  109.2909   51.2880   91.1368     6708.4558     6705.6302     6711.2814 -19.580522  47.780246  -0.000415   0.000071
1 40727U 98067GK  16083.68384353  .00085520  00000-0  44296-3 0  9996 | 2 40727  51.6375 104.4212 0004496  67.6291  38.2942 15.80303681 39541 | 2016/03/23-16:24:44  217.4275  105.9552   38.3261   91.1217     6707.7182     6704.7024     6710.7340 -12.860229  50.010458  -0.000445   0.000062
1 40727U 98067GK  16084.87787096 +.00073374 +00000-0 +37881-3 0  9995 | 2 40727 051.6346 098.2261 0003672 060.8524 002.7391 15.80439686039732 | 2016/03/24-21:04:08  336.9812   63.5935    2.7411   91.1139     6707.3333     6704.8704     6709.7963  -7.387868  51.103340  -0.000343   0.000131
1 40727U 98067GK  16085.89043100  .00064549  00000-0  33231-3 0  9998 | 2 40727  51.6364  92.9752 0004949  68.8254 359.8082 15.80544573 39896 | 2016/03/25-21:22:13  342.7096   68.6334  359.8080   91.1078     6707.0366     6703.7173     6710.3559  -2.680120  51.566799  -0.000470   0.000155
1 40727U 98067GK  16086.90300890 +.00065915 +00000-0 +33710-3 0  9993 | 2 40727 051.6376 087.7274 0004873 077.7668 356.5662 15.80681199040058 | 2016/03/26-21:40:19  347.7841   74.3297  356.5629   91.1000     6706.6501     6703.3820     6709.9183   2.047635  51.596986  -0.000472   0.000122
1 40727U 98067GK  16088.23336450  .00062357  00000-0  31696-3 0  9990 | 2 40727  51.6372  80.8278 0004997  88.1552   1.9657 15.80836302 40263 | 2016/03/28-05:36:02   99.1351   90.1229    1.9677   91.0910     6706.2114     6702.8603     6709.5625   8.231084  50.976952  -0.000490   0.000095
1 40727U 98067GK  16089.44257344  .00073966  00000-0  37129-3 0  9993 | 2 40727  51.6365  74.5545 0005180  94.4951  42.4412 15.81039373 40454 | 2016/03/29-10:37:18  135.1000  136.9764   42.4813   91.0793     6705.6372     6702.1637     6709.1107  13.751918  49.771607  -0.000509   0.000098
1 40727U 98067GK  16090.45476932  .00084406  00000-0  41898-3 0  9991 | 2 40727  51.6369  69.2996 0004883  93.8591  48.5691 15.81232962 40614 | 2016/03/30-10:54:52  140.2512  142.4702   48.6111   91.0682     6705.0899     6701.8158     6708.3639  18.252682  48.303302  -0.000467   0.000141
1 40727U 98067GK  16091.83432201  .00088153  00000-0  43224-3 0  9993 | 2 40727  51.6376  62.1382 0004783  96.0625 345.3606 15.81481949 40834 | 2016/03/31-20:01:25  346.4164   81.4092  345.3467   91.0538     6704.3861     6701.1794     6707.5928  24.132341  45.651636  -0.000444   0.000178
1 40727U 98067GK  16093.09845729  .00084857  00000-0  41252-3 0  9992 | 2 40727  51.6380  55.5746 0004750 108.1205 335.7378 15.81682716 41039 | 2016/04/02-02:21:46   86.8795   83.8359  335.7154   91.0423     6703.8187     6700.6344     6707.0030  29.192652  42.594274  -0.000456   0.000133
1 40727U 98067GK  16094.10955242  .00076628  00000-0  37105-3 0  9996 | 2 40727  51.6366  50.3194 0004826 111.4316 333.6593 15.81806763 41190 | 2016/04/03-02:37:45   95.8930   85.0663  333.6347   91.0351     6703.4682     6700.2331     6706.7033  32.970344  39.740343  -0.000458   0.000151
1 40727U 98067GK  16095.12207876  .00247466  00000-0  11517-2 0  9990 | 2 40727  51.6390  45.0632 0003270 102.1428 353.2774 15.82107150 41350 | 2016/04/04-02:55:47   96.3273   95.4158  353.2730   91.0179     6702.6197     6700.4280     6704.8115  36.473988  36.554542  -0.000275   0.000177
1 40727U 98067GK  16096.13321387  .00107078  00000-0  50384-3 0  9996 | 2 40727  51.6348  39.8055 0006279 131.7157 326.8864 15.82279688 41512 | 2016/04/05-03:11:49  103.4084   98.5628  326.8471   91.0079     6702.1324     6697.9242     6706.3407  39.666993  33.055744  -0.000621   0.000093
1 40727U 98067GK  16097.27430734  .00093274  00000-0  43659-3 0  9998 | 2 40727  51.6372  33.8709 0003973 127.1889 356.0103 15.82463861 41696 | 2016/04/06-06:35:00  136.6643  123.1960  356.0071   90.9973     6701.6124     6698.9499     6704.2750  42.874132  28.778624  -0.000376   0.000129
1 40727U 98067GK  16099.23771458  .00098203  00000-0  45109-3 0  9996 | 2 40727  51.6383  23.6550 0004260 139.5653  17.8455 15.82843729 42008 | 2016/04/08-05:42:18  101.4304  157.4258   17.8605   90.9755     6700.5402     6697.6857     6703.3946  47.299547  20.718757  -0.000408   0.000123
1 40727U 98067GK  16100.24313632  .00113370  00000-0  51269-3 0  9993 | 2 40727  51.6361  18.4338 0005937 147.7021 343.3535 15.83106230 42165 | 2016/04/09-05:50:06  135.9496  131.0361  343.3340   90.9604     6699.7994     6695.8218     6703.7771  48.986633  16.327786  -0.000576   0.000142
1 40727U 98067GK  16101.25422109  .00125646  00000-0  55987-3 0  9995 | 2 40727  51.6382  13.1688 0005678 161.9697 335.9133 15.83379104 42328 | 2016/04/10-06:06:04  139.3743  137.8564  335.8867   90.9447     6699.0297     6695.2260     6702.8334  50.280276  11.764250  -0.000566   0.000048
1 40727U 98067GK  16102.94953668 +.00092435 +00000-0 +40935-3 0  9997 | 2 40727 051.6381 004.3357 0004714 168.3685 280.2703 15.83641006042597 | 2016/04/11-22:47:19   89.4362   88.5856  280.2171   90.9297     6698.2911     6695.1335     6701.4486  51.490323   3.903842  -0.000468   0.000060
1 40727U 98067GK  16104.09455315  .00106552  00000-0  46446-3 0  9990 | 2 40727  51.6423 358.3610 0004099 188.8717 312.8305 15.83922460 42773 | 2016/04/13-02:16:09   95.6820  141.6677  312.7960   90.9135     6697.4975     6694.7522     6700.2429  51.621172  -1.477075  -0.000407  -0.000052
1 40727U 98067GK  16105.70979762  .00120103  00000-0  51124-3 0  9993 | 2 40727  51.6426 349.9219 0008569 190.9325 169.2017 15.84436620 43035 | 2016/04/14-17:02:06  108.7692    0.1526  169.2201   90.8840     6696.0485     6690.3107     6701.7864  50.845762  -9.036960  -0.000857  -0.000013
1 40727U 98067GK  16106.85993619  .00148479  00000-0  61670-3 0  9990 | 2 40727  51.6447 343.9583 0005352 211.3549 234.2930 15.84786219 43218 | 2016/04/15-20:38:18   84.4026   85.5981  234.2432   90.8640     6695.0638     6691.4806     6698.6470  49.633698 -14.271336  -0.000516  -0.000141
1 40727U 98067GK  16107.87021490  .00119228  00000-0  49418-3 0  9998 | 2 40727  51.6377 338.6735 0005053 185.8664 267.4316 15.84926558 43376 | 2016/04/16-20:53:06   86.7334   93.2402  267.3738   90.8559     6694.6685     6691.2857     6698.0514  48.101711 -18.779708  -0.000487   0.000135
1 40727U 98067GK  16108.87998929  .00114553  00000-0  47034-3 0  9997 | 2 40727  51.6363 333.4020 0004739 203.7147 255.3561 15.85141784 43534 | 2016/04/17-21:07:11   90.7462   99.0183  255.3036   90.8436     6694.0625     6690.8902     6697.2349  46.171623 -23.119011  -0.000473   0.000024
1 40727U 98067GK  16110.02344206  .00124539  00000-0  50311-3 0  9997 | 2 40727  51.6371 327.4338 0005386 214.2494 295.0643 15.85439632 43713 | 2016/04/19-00:33:45   99.2415  149.2578  295.0084   90.8265     6693.2241     6689.6192     6696.8291  43.518203 -27.794893  -0.000538  -0.000016
1 40727U 98067GK  16111.02694778  .00112831  00000-0  45232-3 0  9998 | 2 40727  51.6367 322.2023 0006251 221.6536 259.3972 15.85632260 43870 | 2016/04/20-00:38:48  134.9871  120.9804  259.3268   90.8155     6692.6820     6688.4984     6696.8656  40.802268 -31.646860  -0.000624  -0.000042
1 40727U 98067GK  16112.03727324  .00100413  00000-0  40036-3 0  9994 | 2 40727  51.6378 316.9119 0004430 243.7862 248.6246 15.85804520 44036 | 2016/04/21-00:53:40  133.6305  132.3635  248.5773   90.8056     6692.1974     6689.2327     6695.1620  37.711301 -35.274923  -0.000414  -0.000157
1 40727U 98067GK  16113.47781723  .00092162  00000-0  36355-3 0  9996 | 2 40727  51.6362 309.3894 0005592 231.6867 210.8348 15.86050015 44268 | 2016/04/22-11:28:03  351.0580   82.4887  210.8020   90.7916     6691.5068     6687.7649     6695.2487  32.767689 -39.907088  -0.000559  -0.000011
1 40727U 98067GK  16114.73868779  .00092274  00000-0  35999-3 0  9990 | 2 40727  51.6358 302.7915 0005572 246.2807 200.9358 15.86277661 44469 | 2016/04/23-17:43:42   88.1171   87.1937  200.9130   90.7786     6690.8666     6687.1384     6694.5947  27.965097 -43.407478  -0.000550  -0.000088
1 40727U 98067GK  16115.74654810  .00098483  00000-0  37988-3 0  9999 | 2 40727  51.6354 297.5185 0005411 257.0498 189.9848 15.86486420 44626 | 2016/04/24-17:55:01   97.3951   87.0239  189.9741   90.7666     6690.2796     6686.6595     6693.8997  23.857362 -45.793458  -0.000524  -0.000136
1 40727U 98067GK  16116.75534560  .00104708  00000-0  39900-3 0  9994 | 2 40727  51.6335 292.2401 0006019 254.0324 198.9733 15.86707081 44787 | 2016/04/25-18:07:41  100.8638   92.9833  198.9509   90.7540     6689.6593     6685.6328     6693.6858  19.542696 -47.792273  -0.000598  -0.000066
1 40727U 98067GK  16117.76402203  .00115274  00000-0  43317-3 0  9991 | 2 40727  51.6352 286.9586 0005450 262.5710 196.5904 15.86958988 44947 | 2016/04/26-18:20:11  104.1073   99.1436  196.5726   90.7396     6688.9514     6685.3059     6692.5969  15.060988 -49.389883  -0.000537  -0.000090
1 40727U 98067GK  16118.84207005  .00119100  00000-0  44152-3 0  9994 | 2 40727  51.6355 281.3185 0006183 271.6245 231.1749 15.87215657 45115 | 2016/04/27-20:12:34   95.2693  142.7442  231.1197   90.7249     6688.2302     6684.0949     6692.3656  10.134126 -50.631259  -0.000603  -0.000138
1 40727U 98067GK  16119.85009818  .00122741  00000-0  44904-3 0  9998 | 2 40727  51.6356 276.0385 0006683 281.2758 225.7811 15.87467319 45270 | 2016/04/28-20:24:08  100.1754  147.0020  225.7262   90.7105     6687.5234     6683.0541     6691.9926   5.431895 -51.349096  -0.000638  -0.000199
1 40727U 98067GK  16121.47979574  .00122359  00000-0  43901-3 0  9995 | 2 40727  51.6348 267.4989 0006883 284.9925 183.1169 15.87860676 45538 | 2016/04/30-11:30:54   15.9600  108.1051  183.1126   90.6881     6686.4189     6681.8166     6691.0211  -2.253269 -51.585612  -0.000672  -0.000149
1 40727U 98067GK  16122.67367760  .00130714  00000-0  46073-3 0  9993 | 2 40727  51.6358 261.2364 0008145 293.9650 164.0765 15.88176732 45721 | 2016/05/01-16:10:05  103.2646   98.0671  164.1021   90.6700     6685.5317     6680.0864     6690.9771  -7.867126 -51.032971  -0.000786  -0.000214
1 40727U 98067GK  16124.43779190  .00185621  00000-0  62802-3 0  9998 | 2 40727  51.6373 251.9838 0006559 304.3774 169.0521 15.88856972 46009 | 2016/05/03-10:30:25   13.9491  113.4438  169.0664   90.6312     6683.6234     6679.2396     6688.0072 -15.970688 -49.105477  -0.000629  -0.000185
1 40727U 98067GK  16125.56496942  .00164306  20814-4  56559-3 0  9992 | 2 40727  51.6325 246.0610 0007969 307.9651 137.9945 15.89236467 46183 | 2016/05/04-13:33:33   94.2367   86.0207  138.0556   90.6095     6682.5594     6677.2341     6687.8847 -20.950600 -47.190968  -0.000773  -0.000193
1 40727U 98067GK  16126.57202388  .00133092  17504-4  45459-3 0  9990 | 2 40727  51.6340 240.7759 0008742 315.6722 136.1837 15.89475042 46343 | 2016/05/05-13:43:42   97.1577   91.9252  136.2530   90.5959     6681.8907     6676.0494     6687.7320 -25.209102 -45.061859  -0.000838  -0.000248
1 40727U 98067GK  16127.71355748  .00129551  17199-4  43602-3 0  9999 | 2 40727  51.6345 234.7787 0008859 318.3332 190.5905 15.89777588 46528 | 2016/05/06-17:07:31   98.1644  148.9051  190.5719   90.5787     6681.0429     6675.1242     6686.9616 -29.779478 -42.181800  -0.000863  -0.000201
1 40727U 98067GK  16128.72018466  .00148975  19191-4  49167-3 0  9991 | 2 40727  51.6336 229.4824 0009131 325.1304 189.4449 15.90091594 46685 | 2016/05/07-17:17:03  101.1871  154.5581  189.4277   90.5608     6680.1633     6674.0637     6686.2630 -33.545400 -39.252195  -0.000884  -0.000230
1 40727U 98067GK  16130.34606063  .00277297  39648-4  86201-3 0  9997 | 2 40727  51.6364 220.9283 0009619 329.3196 141.6619 15.91048502 46947 | 2016/05/09-08:18:19   20.2528  111.0498  141.7302   90.5064     6677.4846     6671.0615     6683.9077 -39.012848 -33.827732  -0.000947  -0.000171
1 40727U 98067GK  16131.47238333 +.00183498 +23589-4 +56338-3 0  9997 | 2 40727 051.6344 214.9935 0010731 337.2036 110.0270 15.91387523047123 | 2016/05/10-11:20:13   96.5249   87.3461  110.1425   90.4871     6676.5362     6669.3716     6683.7008 -42.299784 -29.611477  -0.001049  -0.000227
1 40727U 98067GK  16132.47815447  .00156337  20217-4  47425-3 0  9999 | 2 40727  51.6333 209.6876 0011074 343.7539 109.9287 15.91674636 47283 | 2016/05/11-11:28:32   98.4477   93.8018  110.0479   90.4708     6675.7333     6668.3406     6683.1260 -44.855847 -25.572459  -0.001077  -0.000257
1 40727U 98067GK  16133.48315287  .00132601  17709-4  39859-3 0  9990 | 2 40727  51.6309 204.3821 0011444 345.2606 111.4147 15.91917542 47448 | 2016/05/12-11:35:44  103.5505   96.7973  111.5367   90.4569     6675.0542     6667.4153     6682.6931 -47.026078 -21.314263  -0.001128  -0.000192
1 40727U 98067GK  16135.17814895  .00132176  17715-4  38846-3 0  9996 | 2 40727  51.6311 195.4499 0010637 351.2830 107.2569 15.92367438 47716 | 2016/05/14-04:16:32    2.4874   98.6563  107.3733   90.4314     6673.7968     6666.6979     6680.8958 -49.765346 -13.754301  -0.001056  -0.000125
1 40727U 98067GK  16136.43284399  .00147933  19407-4  42528-3 0  9995 | 2 40727  51.6330 188.8277 0009840 357.9416  98.9854 15.92751159 47916 | 2016/05/15-10:23:17  103.6494   97.0384   99.0968   90.4096     6672.7249     6666.1590     6679.2909 -51.021371  -7.923785  -0.000977  -0.000116
1 40727U 98067GK  16138.12693983  .00177102  23071-4  49057-3 0  9993 | 2 40727  51.6315 179.8758 0010551   1.8497  97.4486 15.93370245 48187 | 2016/05/17-03:02:47    1.7743   99.4182   97.5685   90.3745     6670.9964     6663.9578     6678.0350 -51.631379   0.111921  -0.001055  -0.000032
1 40727U 98067GK  16139.38171159  .00155196  20372-4  42171-3 0  9998 | 2 40727  51.6322 173.2414 0011231   4.5160  98.1597 15.93769511 48386 | 2016/05/18-09:09:39   97.9859  102.8031   98.2871   90.3518     6669.8822     6662.3913     6677.3732 -51.273398   6.076411  -0.001122   0.000044
1 40727U 98067GK  16140.45598354  .00151602  19999-4  40499-3 0  9990 | 2 40727  51.6327 167.5652 0011158  10.6788 140.5778 15.94100271 48558 | 2016/05/19-10:56:36   82.8779  151.3377  140.6589   90.3331     6668.9596     6661.5183     6676.4008 -50.421483  11.117992  -0.001115   0.000034
1 40727U 98067GK  16141.88271676  .00222766  30381-4  57213-3 0  9993 | 2 40727  51.6230 160.0050 0010287  14.9187  51.1391 15.94718115 48788 | 2016/05/20-21:11:06  330.6671   66.1497   51.2310   90.2981     6667.2369     6660.3784     6674.0955 -48.511293  17.651873  -0.001025   0.000091
1 40727U 98067GK  16142.88641884 +.00147465 +19639-4 +37662-3 0  9997 | 2 40727 051.6263 154.6871 0010851 017.1162 055.4419 15.94955310048945 | 2016/05/21-21:16:26  331.8068   72.6606   55.5444   90.2847     6666.5759     6659.3420     6673.8098 -46.669468  22.073413  -0.001074   0.000155
1 40727U 98067GK  16143.88817356 +.00172799 +22830-4 +43128-3 0  9996 | 2 40727 051.6279 149.3848 0010762 022.2041 046.8918 15.95320307049101 | 2016/05/22-21:18:58  342.1904   69.1860   46.9819   90.2640     6665.5590     6658.3856     6672.7325 -44.431330  26.292527  -0.001065   0.000157
1 40727U 98067GK  16144.89087693 +.00163170 +21627-4 +40049-3 0  9996 | 2 40727 051.6318 144.0698 0011099 025.4698 046.8179 15.95642509049264 | 2016/05/23-21:22:51  346.2751   72.3805   46.9107   90.2458     6664.6617     6657.2646     6672.0588 -41.807944  30.297501  -0.001091   0.000202
1 40727U 98067GK  16145.89422475 +.00148166 +19849-4 +35928-3 0  9999 | 2 40727 051.6268 138.7513 0009988 027.6594 052.6151 15.95926798049425 | 2016/05/24-21:27:41  345.8009   80.3655   52.7061   90.2297     6663.8702     6657.2143     6670.5261 -38.815856  34.039034  -0.000971   0.000235
1 40727U 98067GK  16146.89598744  .00157046  20954-4  37410-3 0  9997 | 2 40727  51.6318 133.4419 0008961  41.1074  39.1654 15.96247170 49588 | 2016/05/25-21:30:13  352.7340   80.3377   39.2303   90.2116     6662.9785     6657.0078     6668.9492 -35.502989  37.488405  -0.000892   0.000085
1 40727U 98067GK  16148.15222507  .00157078  21016-4  36631-3 0  9998 | 2 40727  51.6325 126.7725 0009160  42.7170  62.2748 15.96630860 49782 | 2016/05/27-03:39:12   68.1681  105.0848   62.3678   90.1899     6661.9110     6655.8087     6668.0133 -30.909239  41.358603  -0.000901   0.000167
1 40727U 98067GK  16149.15382381  .00153551  20630-4  35234-3 0  9997 | 2 40727  51.6324 121.4449 0008726  45.9604  60.6141 15.96940827 49944 | 2016/05/28-03:41:30   73.4758  106.6617   60.7013   90.1724     6661.0490     6655.2365     6666.8614 -26.935506  44.049782  -0.000852   0.000190
1 40727U 98067GK  16150.15590381  .00185716  25035-4  41519-3 0  9995 | 2 40727  51.6309 116.1283 0008539  51.2415  61.0248 15.97344533 50102 | 2016/05/29-03:44:30   74.8371  112.3519   61.1104   90.1496     6659.9266     6654.2397     6665.6135 -22.737354  46.354747  -0.000833   0.000187
1 40727U 98067GK  16151.15734066  .00209401  28896-4  45596-3 0  9991 | 2 40727  51.6308 110.8033 0008260  52.1749  63.5909 15.97785313 50269 | 2016/05/30-03:46:34   78.1669  115.8506   63.6757   90.1247     6658.7017     6653.2016     6664.2018 -18.337236  48.264741  -0.000790   0.000242
1 40727U 98067GK  16152.34866043  .00224491  31704-4  47413-3 0  9992 | 2 40727  51.6304 104.4619 0007302  63.9089  70.2608 15.98325498 50454 | 2016/05/31-08:22:04  136.1538  134.2485   70.3396   90.0943     6657.2013     6652.3402     6662.0624 -12.893978  49.994435  -0.000715   0.000147
1 40727U 98067GK  16153.34947557  .00229751  32824-4  47270-3 0  9992 | 2 40727  51.6302  99.1303 0007045  67.9277  69.7060 15.98788065 50615 | 2016/06/01-08:23:14  139.3013  137.7094   69.7817   90.0682     6655.9172     6651.2281     6660.6063  -8.192692  50.976047  -0.000687   0.000158
1 40727U 98067GK  16154.35041134  .00254120  37893-4  50715-3 0  9997 | 2 40727  51.6321  93.7970 0006228  72.8858  70.7216 15.99311834 50777 | 2016/06/02-08:24:35  139.9843  143.6748   70.7890   90.0387     6654.4639     6650.3195     6658.6083  -3.419163  51.518764  -0.000606   0.000143
1 40727U 98067GK  16155.64914571  .00226863  32618-4  43922-3 0  9999 | 2 40727  51.6321  86.8714 0005831  77.5319 349.9624 15.99876137 50988 | 2016/06/03-15:34:46  331.8475   67.4826  349.9507   90.0070     6652.8991     6649.0198     6656.7784   2.817938  51.555145  -0.000562   0.000157
1 40727U 98067GK  16156.64936297  .00202962  28441-4  38520-3 0  9990 | 2 40727  51.6313  81.5353 0005277  88.5836 344.3251 16.00260030 51146 | 2016/06/04-15:35:04  332.8333   72.8924  344.3088   89.9854     6651.8350     6648.3248     6655.3452   7.600130  51.068867  -0.000520   0.000091
1 40727U 98067GK  16158.02600853  .00343102  61733-4  61195-3 0  9997 | 2 40727  51.6351  74.1710 0005806 113.4453 338.0412 16.01212516 51364 | 2016/06/06-00:37:27   98.5691   91.4616  338.0163   89.9318     6649.1969     6645.3363     6653.0574  14.084363  49.677100  -0.000575  -0.000077
1 40727U 98067GK  16159.76280791  .00375588  73365-4  61618-3 0  9991 | 2 40727  51.6277  64.8686 0003656 123.5763 271.3137 16.02642658 51645 | 2016/06/07-18:18:26   71.4276   34.8481  271.2718   89.8516     6645.2406     6642.8111     6647.6701  21.926059  46.740425  -0.000362  -0.000054
1 40727U 98067GK  16160.83667902  .00346968  64571-4  54629-3 0  9997 | 2 40727  51.6290  59.1348 0003028 142.6600 333.5088 16.03347595 51815 | 2016/06/08-20:04:49   23.5347  116.1533  333.4933   89.8121     6643.2927     6641.2811     6645.3042  26.486709  44.317129  -0.000281  -0.000112
1 40727U 98067GK  16162.08729411  .00426759  94409-4  62929-3 0  9992 | 2 40727  51.6233  52.4240 0001766 171.8385 330.3632 16.04415877 52013 | 2016/06/10-02:05:42   95.6667  142.1917  330.3532   89.7523     6640.3434     6639.1707     6641.5161  31.480572  40.913796  -0.000126  -0.000123
1 40727U 98067GK  16163.68726289  .00428757  97009-4  58176-3 0  9997 | 2 40727  51.6230  43.8187 0003267 207.3902 186.3739 16.05763314 52270 | 2016/06/11-16:29:39   70.2753   33.7599  186.3697   89.6770     6636.6282     6634.4600     6638.7964  37.247765  35.742666  -0.000105  -0.000309
1 40727U 98067GK  16164.75859515  .00444607  10514-3  56883-3 0  9995 | 2 40727  51.6297  38.0451 0004803 222.5690 250.3517 16.06689350 52446 | 2016/06/12-18:12:22   23.6279  112.8689  250.2999   89.6253     6634.0779     6630.8915     6637.2642  40.659726  31.818432  -0.000078  -0.000474
1 40727U 98067GK  16166.68459126  .00489083  12943-3  55671-3 0  9992 | 2 40727  51.6294  27.6586 0006009 245.5072 221.5223 16.08505736 52750 | 2016/06/14-16:25:48   15.1626  106.9839  221.4767   89.5241     6629.0826     6625.0992     6633.0660  45.729671  23.966479   0.000033  -0.000600
1 40727U 98067GK  16168.05451690  .00577695  18410-3  59389-3 0  9995 | 2 40727  51.6213  20.2513 0008682 260.0617 228.7960 16.10017306 52971 | 2016/06/16-01:18:30  135.2651  128.7829  228.7212   89.4400     6624.9328     6619.1811     6630.6846  48.430251  17.868111   0.000155  -0.000854
1 40727U 98067GK  16169.47287934  .01467141  15993-2  12539-2 0  9992 | 2 40727  51.6289  12.5419 0009173 263.3811 178.3599 16.13062562 53203 | 2016/06/17-11:20:56  342.0997   81.7440  178.3629   89.2712     6616.5922     6610.5228     6622.6616  50.396904  11.211397   0.000095  -0.000912
1 40727U 98067GK  16170.57299717  .01157617  94519-3  81321-3 0  9999 | 2 40727  51.6441   6.5422 0010245 230.0574 130.0604 16.15657462 53381 | 2016/06/18-13:45:06  106.8494    0.2076  130.1502   89.1278     6609.5057     6602.7343     6616.2771  51.307804   5.884069  -0.000564  -0.000855
1 40727U 98067GK  16171.80917269  .01105138  11792-4  63490-3 0  9996 | 2 40727  51.6194 359.7959 0013492 280.2527  79.7416 16.18029746 53589 | 2016/06/19-19:25:12  199.9608    0.1465   79.8938   88.9971     6603.0437     6594.1349     6611.9526  51.619072  -0.183879   0.000235  -0.001329
1 40727U 98067GK  16172.92012242  .00984416  11853-4  47827-3 0  9994 | 2 40727  51.6204 353.6976 0013735 290.7111  69.2698 16.20197299 53766 | 2016/06/20-22:04:58  247.1094    0.1282   69.4171   88.8781     6597.1532     6588.0921     6606.2144  51.308425  -5.666678   0.000342  -0.001330
1 40727U 98067GK  16174.33401405  .06965364  12345-4  96008-3 0  9993 | 2 40727  51.6265 345.8803 0015322 306.9751  54.5115 16.33916320 53993 | 2016/06/22-08:00:58   43.8156    1.6297   54.6546   88.1318     6560.1731     6550.1216     6570.2246  50.066770 -12.594206   0.000595  -0.001412
