# SPACE DATA - HISTORICAL TLEs
# ----------------------------
# NORAD_ID    : 39132
# OBJECT_NAME : DOVE 2
# --------------------------------------------------------------------+-----------------------------------------------------------------------+----------------------------------------------------------------------------------------------------------------------------------------
#                  LINE 1                                             |                 LINE 2                                                |      DERIVED PARAMETERS
# --------------------------------------------------------------------+-----------------------------------------------------------------------+----------------------------------------------------------------------------------------------------------------------------------------
# NORAD  COSPAR     TLE_EPOCH      MEANMOT1 MEANMOT2   BSTAR  #  REV  |   NORAD    INC     RAAN     ECC    ARGPER  MEANANOM   MEANMOT     REV |  CAL_DATE              LONG     ARGLAT     PERIOD        SMA         PERIGEE        APOGEE      INC_X      INC_Y      ECC_X      ECC_Y
# ------ ------   -------------- ----------  -------  ------- -- ----     -----  ------- -------- ------- -------- -------- -----------  ----   ------------------- ---------  --------  --------  ------------  ------------   ----------- ---------- ----------  ---------  ---------   
1 40726U 98067GJ  15198.48035789  .00019017  00000-0  27569-3 0  9997 | 2 40726 051.6447 292.7342 0004492 292.5058 159.2181 15.55870201   367 | 2015/07/17-11:31:42   83.4467   91.7422  159.2364   92.5527     6777.7612     6774.7167     6780.8058  19.958437 -47.632298  -0.000316  -0.000319
1 40726U 98067GJ  15199.82955255  .00019232  00000-0  27818-3 0  9991 | 2 40726 051.6446 285.9897 0004424 295.7217 158.1742 15.55923955   571 | 2015/07/18-19:54:33  215.0591   93.9147  158.1930   92.5495     6777.6051     6774.6067     6780.6035  14.226256 -49.646534  -0.000330  -0.000294
1 40726U 98067GJ  15201.24297535  .00017430  00000-0  25241-3 0  9997 | 2 40726 051.6449 278.9287 0004354 307.2109 149.0478 15.55967075   790 | 2015/07/20-05:49:53    9.9826   96.2843  149.0734   92.5469     6777.4799     6774.5290     6780.4308   8.015559 -51.019080  -0.000302  -0.000314
1 40726U 98067GJ  15202.39689604  .00015649  00000-0  22713-3 0  9997 | 2 40726 051.6448 273.1631 0004547 312.2381 132.0029 15.55996675   973 | 2015/07/21-09:31:31   84.3147   84.2797  132.0416   92.5452     6777.3940     6774.3123     6780.4756   2.849681 -51.566120  -0.000319  -0.000324
1 40726U 98067GJ  15203.56303067  .00014919  00000-0  21662-3 0  9994 | 2 40726 051.6443 267.3346 0004420 318.1855 182.6561 15.56030033  1158 | 2015/07/22-13:30:45   94.5005  140.8393  182.6538   92.5432     6777.2971     6774.3015     6780.2927  -2.401627 -51.588428  -0.000310  -0.000315
1 40726U 98067GJ  15204.64420403  .00014774  00000-0  21433-3 0  9993 | 2 40726 051.6440 261.9275 0004380 322.2692 119.0741 15.56062447  1323 | 2015/07/23-15:27:39  189.6939   81.3872  119.1180   92.5413     6777.2030     6774.2346     6780.1714  -7.252162 -51.132268  -0.000314  -0.000305
1 40726U 98067GJ  15205.73848531  .00015653  00000-0  22631-3 0  9998 | 2 40726 051.6443 256.4560 0004432 328.4820 127.0161 15.56102871  1490 | 2015/07/24-17:43:25  216.0305   95.5386  127.0566   92.5389     6777.0856     6774.0820     6780.0892 -12.094683 -50.208091  -0.000314  -0.000313
1 40726U 98067GJ  15207.14044284  .00017102  00000-0  24609-3 0  9996 | 2 40726 051.6434 249.4461 0004297 338.3497 056.2443 15.56157187  1712 | 2015/07/26-03:22:14   70.0310   34.6350   56.2853   92.5356     6776.9279     6774.0159     6779.8400 -18.131398 -48.355901  -0.000289  -0.000318
1 40726U 98067GJ  15208.37103100  .00016848  00000-0  24217-3 0  9996 | 2 40726 051.6439 243.2920 0004246 341.6867 111.5332 15.56198782  1900 | 2015/07/27-08:54:17  101.7839   93.2652  111.5785   92.5332     6776.8072     6773.9297     6779.6846 -23.211027 -46.133942  -0.000300  -0.000300
1 40726U 98067GJ  15209.47135279  .00016716  00000-0  24001-3 0  9995 | 2 40726 051.6439 237.7931 0004217 347.4219 154.3123 15.56236205  2078 | 2015/07/28-11:18:44   95.9689  141.7551  154.3332   92.5309     6776.6985     6773.8408     6779.5562 -27.525072 -43.697401  -0.000297  -0.000299
1 40726U 98067GJ  15210.50145691  .00017055  00000-0  24439-3 0  9992 | 2 40726 051.6438 232.6399 0004280 351.8319 164.9157 15.56273459  2233 | 2015/07/29-12:02:05   97.9615  156.7604  164.9285   92.5287     6776.5904     6773.6900     6779.4907 -31.338618 -41.048424  -0.000305  -0.000300
1 40726U 98067GJ  15211.56521549  .00434343  00000-0  60396-2 0  9993 | 2 40726 051.6412 227.3283 0005243 352.9294 007.2120 15.56310066  2406 | 2015/07/30-13:33:54  283.8808    0.1489    7.2195   92.5265     6776.4841     6772.9312     6780.0370 -35.002229 -37.969165  -0.000400  -0.000339
1 40726U 98067GJ  15213.25100091  .00018843  00000-0  26814-3 0  9997 | 2 40726 051.6438 218.8883 0004112 007.7776 084.3349 15.56384070  2662 | 2015/08/01-06:01:26   88.8941   92.1594   84.3818   92.5221     6776.2693     6773.4829     6779.0557 -40.198055 -32.422191  -0.000282  -0.000299
1 40726U 98067GJ  15215.37884186  .00029034  00000-0  40633-3 0  9995 | 2 40726 051.6437 208.2401 0003686 014.6091 128.7011 15.56558017  2991 | 2015/08/03-09:05:31   96.4646  143.3432  128.7341   92.5118     6775.7644     6773.2669     6778.2620 -45.496680 -24.436118  -0.000270  -0.000251
1 40726U 98067GJ  15216.40851765  .00042683  00000-0  59091-3 0  9990 | 2 40726 051.6415 203.0985 0003680 018.2921 138.9889 15.56659161  3150 | 2015/08/04-09:48:15   99.3336  157.3087  139.0166   92.5058     6775.4709     6772.9776     6777.9643 -47.501492 -20.259634  -0.000276  -0.000243
1 40726U 98067GJ  15218.19529147  .00033679  00000-0  46628-3 0  9991 | 2 40726 051.6441 194.1527 0004289 018.5820 078.6853 15.56768950  3437 | 2015/08/06-04:41:13   93.2928   97.3155   78.7335   92.4993     6775.1524     6772.2465     6778.0582 -50.076574 -12.627343  -0.000361  -0.000232
1 40726U 98067GJ  15219.54445870  .00033381  00000-0  46066-3 0  9997 | 2 40726 051.6432 187.3993 0004449 026.8757 076.8705 15.56859738  3641 | 2015/08/07-13:04:01  220.5973  103.7959   76.9202   92.4939     6774.8890     6771.8748     6777.9031 -51.213153  -6.650791  -0.000368  -0.000251
1 40726U 98067GJ  15221.14700220  .00035596  00000-0  48839-3 0  9999 | 2 40726 051.6427 179.3747 0004659 033.4923 058.3956 15.56983278  3892 | 2015/08/09-03:31:40   98.9754   91.9334   58.4411   92.4865     6774.5306     6771.3744     6777.6869 -51.639625   0.563594  -0.000391  -0.000253
1 40726U 98067GJ  15222.31359387  .00035925  00000-0  49125-3 0  9998 | 2 40726 051.6428 173.5338 0004774 037.2912 118.0319 15.57068489  4070 | 2015/08/10-07:31:34  102.5040  155.3714  118.0802   92.4815     6774.2834     6771.0494     6777.5175 -51.314272   5.815861  -0.000410  -0.000245
1 40726U 98067GJ  15223.83118115  .00033605  00000-0  45851-3 0  9993 | 2 40726 051.6429 165.9376 0004420 040.0582 347.8781 15.57162292  4310 | 2015/08/11-19:56:54   65.3142   27.9257  347.8675   92.4759     6774.0114     6771.0173     6777.0055 -50.095249  12.548114  -0.000397  -0.000194
1 40726U 98067GJ  15224.86011041  .00032029  00000-0  43650-3 0  9991 | 2 40726 051.6412 160.7909 0003946 043.2275 356.5603 15.57220717  4477 | 2015/08/12-20:38:33   70.0381   39.7851  356.5576   92.4724     6773.8420     6771.1690     6776.5149 -48.766031  16.990814  -0.000360  -0.000161
1 40726U 98067GJ  15226.08942734  .00037500  00000-0  50731-3 0  9996 | 2 40726 051.6417 154.6282 0004110 035.2233 061.0903 15.57339388  4664 | 2015/08/14-02:08:46  103.4408   96.3548   61.1315   92.4654     6773.4978     6770.7139     6776.2817 -46.660667  22.127977  -0.000405  -0.000070
1 40726U 98067GJ  15227.18920497  .00038537  00000-0  51930-3 0  9993 | 2 40726 051.6428 149.1167 0005088 021.0355 125.3500 15.57426200  4836 | 2015/08/15-04:32:27   95.8843  146.4330  125.3975   92.4602     6773.2461     6769.7999     6776.6924 -44.320602  26.507791  -0.000501   0.000087
1 40726U 98067GJ  15228.33391299  .00029693  00000-0  40130-3 0  9996 | 2 40726 051.6432 143.3857 0005224 024.6859 064.1042 15.57479463  5014 | 2015/08/16-08:00:50  212.4339   88.8440   64.1581   92.4571     6773.0917     6769.5534     6776.6300 -41.452377  30.801307  -0.000511   0.000108
1 40726U 98067GJ  15229.36227005  .00033474  00000-0  44998-3 0  9991 | 2 40726 051.6439 138.2301 0005242 027.0885 071.6526 15.57560200  5171 | 2015/08/17-08:41:40  218.8606   98.7981   71.7096   92.4523     6772.8576     6769.3073     6776.4080 -38.517366  34.402106  -0.000507   0.000133
1 40726U 98067GJ  15230.39123012  .00034092  00000-0  45687-3 0  9992 | 2 40726 051.6453 133.0772 0004924 027.8793 084.4597 15.57636279  5332 | 2015/08/18-09:23:22  221.8554  112.3952   84.5159   92.4478     6772.6371     6769.3023     6775.9719 -35.272870  37.723489  -0.000465   0.000161
1 40726U 98067GJ  15231.92661863 +.00031339 +00000-0 +41935-3 0  9996 | 2 40726 051.6455 125.3807 0004966 049.2157 038.6832 15.57719156005570 | 2015/08/19-22:14:19   88.2452   87.9345   38.7188   92.4429     6772.3969     6769.0337     6775.7601 -29.903084  42.107758  -0.000494   0.000047
1 40726U 98067GJ  15233.71407046  .00022090  00000-0  29737-3 0  9996 | 2 40726 051.6412 116.4222 0004901 041.4945 356.6844 15.57766418  5853 | 2015/08/21-17:08:15   72.1682   38.1756  356.6811   92.4400     6772.2599     6768.9408     6775.5790 -22.979415  46.246730  -0.000454   0.000184
1 40726U 98067GJ  15235.19776830  .00020123  00000-0  27102-3 0  9999 | 2 40726 051.6426 108.9860 0004712 047.4836 036.8601 15.57819956  6087 | 2015/08/23-04:44:47  209.0332   84.3761   36.8925   92.4369     6772.1047     6768.9137     6775.2957 -16.801254  48.833144  -0.000432   0.000188
1 40726U 98067GJ  15236.22586958  .00020014  00000-0  26915-3 0  9994 | 2 40726 051.6421 103.8357 0005008 047.4221 046.5751 15.57861491  6247 | 2015/08/24-05:25:15  215.6598   94.0389   46.6168   92.4344     6771.9844     6768.5930     6775.3758 -12.349615  50.143729  -0.000439   0.000241
1 40726U 98067GJ  15237.25423764  .00021135  00000-0  28332-3 0  9993 | 2 40726 051.6408 098.6808 0004596 054.7590 050.5871 15.57910385  6408 | 2015/08/25-06:06:06  220.6919  105.3868   50.6278   92.4315     6771.8427     6768.7303     6774.9550  -7.794123  51.049230  -0.000411   0.000206
1 40726U 98067GJ  15238.65391856  .00022521  00000-0  30062-3 0  9997 | 2 40726 051.6413 091.6609 0004907 060.7952 340.0536 15.57979808  6625 | 2015/08/26-15:41:38   77.4739   40.8296  340.0344   92.4274     6771.6415     6768.3187     6774.9643  -1.496777  51.619604  -0.000435   0.000227
1 40726U 98067GJ  15240.07106546  .00027576  00000-0  36521-3 0  9997 | 2 40726 051.6424 084.5587 0005113 059.3192 015.4307 15.58064436  6849 | 2015/08/28-01:42:20  202.2447   74.7655   15.4463   92.4224     6771.3963     6767.9341     6774.8585   4.897038  51.409693  -0.000413   0.000301
1 40726U 98067GJ  15242.06007125  .00031761  00000-0  41706-3 0  9993 | 2 40726 051.6454 074.5838 0003791 046.3179 033.0350 15.58220875  7151 | 2015/08/30-01:26:30  205.6191   79.3766   33.0587   92.4131     6770.9431     6768.3762     6773.5099  13.728829  49.787213  -0.000195   0.000325
1 40726U 98067GJ  15243.72897262  .00034045  00000-0  44443-3 0  9995 | 2 40726  51.6507  66.2087 0003802  79.4737   8.3537 15.58342730  7410 | 2015/08/31-17:29:43   87.9691   87.8337    8.3600   92.4059     6770.5901     6768.0159     6773.1643  20.836221  47.261472  -0.000314   0.000214
1 40726U 98067GJ  15244.75674271  .00022600  00000-0  29750-3 0  9990 | 2 40726  51.6425  61.0519 0004569  74.9929  22.3488 15.58351607  7577 | 2015/09/01-18:09:42   94.6219   97.3616   22.3687   92.4053     6770.5644     6767.4709     6773.6579  24.995857  45.190209  -0.000329   0.000317
1 40726U 98067GJ  15246.67896870  .00020396  00000-0  26845-3 0  9996 | 2 40726  51.6428  51.4098 0004675  89.2590 359.3142 15.58426233  7877 | 2015/09/03-16:17:42   86.9285   88.5726  359.3136   92.4009     6770.3482     6767.1831     6773.5134  32.211986  40.365416  -0.000362   0.000296
1 40726U 98067GJ  15247.70551831  .00020445  00000-0  26864-3 0  9992 | 2 40726  51.6438  46.2612 0004622  82.7084   9.0586 15.58469831  8031 | 2015/09/04-16:55:56   99.4530   91.7753    9.0669   92.3983     6770.2220     6767.0928     6773.3512  35.705069  37.312600  -0.000291   0.000359
1 40726U 98067GJ  15248.87100602  .00023683  00000-0  30924-3 0  9996 | 2 40726  51.6441  40.4072 0004318  70.3568  84.9173 15.58538758  8212 | 2015/09/05-20:54:14  102.5242  155.3234   84.9666   92.3942     6770.0224     6767.0991     6772.9457  39.324754  33.476511  -0.000153   0.000404
1 40726U 98067GJ  15249.89353611  .00024921  00000-0  32430-3 0  9999 | 2 40726  51.6439  35.2831 0004602  89.0051  47.3687 15.58595740  8378 | 2015/09/06-21:26:41  135.6673  136.4126   47.4075   92.3909     6769.8574     6766.7419     6772.9728  42.157329  29.830388  -0.000259   0.000380
1 40726U 98067GJ  15250.97615892  .00024619  00000-0  31980-3 0  9995 | 2 40726  51.6432  29.8498 0004959  92.8178   2.2410 15.58649687  8549 | 2015/09/07-23:25:40  213.2269   95.0610    2.2432   92.3877     6769.7011     6766.3441     6773.0582  44.791860  25.704267  -0.000268   0.000417
1 40726U 98067GJ  15252.00369365  .00029382  00000-0  37921-3 0  9995 | 2 40726  51.6435  24.6955 0004872  96.3705   8.3095 15.58718059  8706 | 2015/09/09-00:05:19  219.6853  104.6881    8.3176   92.3836     6769.5032     6766.2051     6772.8013  46.920237  21.576433  -0.000251   0.000417
1 40726U 98067GJ  15253.53882258  .00032578  00000-0  41793-3 0  9998 | 2 40726  51.6457  16.9875 0004289  93.1832 351.7548 15.58826340  8940 | 2015/09/10-12:55:54   81.2948   84.9309  351.7477   92.3772     6769.1897     6766.2864     6772.0930  49.392322  15.088966  -0.000148   0.000403
1 40726U 98067GJ  15254.83404388  .00036416  00000-0  46504-3 0  9996 | 2 40726  51.6451  10.5147 0003027 128.2802  16.0796 15.58895753  9145 | 2015/09/11-20:01:01  135.9021  144.3694   16.0892   92.3731     6768.9887     6766.9398     6771.0377  50.777882   9.424600  -0.000228   0.000199
1 40726U 98067GJ  15256.48876269  .00033239  00000-0  42344-3 0  9998 | 2 40726  51.6458   2.2090 0003480 131.1247 306.0623 15.59004432  9403 | 2015/09/13-11:43:49   88.7103   77.1548  306.0301   92.3666     6768.6742     6766.3187     6771.0297  51.607421   1.990676  -0.000239   0.000253
1 40726U 98067GJ  15257.72055260 +.00032761 +00000-0 +41622-3 0  9993 | 2 40726 051.6452 356.0195 0003731 140.6167 014.6503 15.59082424009594 | 2015/09/14-17:17:35  101.4783  155.2778   14.6611   92.3620     6768.4484     6765.9231     6770.9737  51.520618  -3.585053  -0.000271   0.000256
1 40726U 98067GJ  15258.79727148  .00030198  00000-0  38353-3 0  9991 | 2 40726  51.6441 350.6072 0003122 127.8047 314.8187 15.59136040  9760 | 2015/09/15-19:08:04  208.2143   82.5980  314.7933   92.3588     6768.2933     6766.1802     6770.4063  50.951691  -8.428420  -0.000149   0.000275
1 40726U 98067GJ  15260.26257813  .00028181  00000-0  35739-3 0  9997 | 2 40726  51.6457 343.2502 0003259 139.8766 252.9972 15.59212676  9994 | 2015/09/17-06:18:06   74.2755   32.8381  252.9615   92.3543     6768.0715     6765.8658     6770.2772  49.454495 -14.883925  -0.000178   0.000273
1 40726U 98067GJ  15261.42573494  .00026664  00000-0  33784-3 0  9994 | 2 40726  51.6455 337.4059 0003398 150.8246 295.4742 15.59268546 10170 | 2015/09/18-10:13:03   86.5777   86.2636  295.4390   92.3510     6767.9098     6765.6101     6770.2095  47.681697 -19.842214  -0.000210   0.000267
1 40726U 98067GJ  15262.45282198  .00024751  00000-0  31365-3 0  9994 | 2 40726  51.6442 332.2485 0003042 146.0707 309.4984 15.59310365 10336 | 2015/09/19-10:52:03   93.2285   95.5422  309.4715   92.3485     6767.7888     6765.7300     6769.8476  45.703849 -24.047486  -0.000144   0.000268
1 40726U 98067GJ  15264.43923124  .00020934  00000-0  26566-3 0  9991 | 2 40726  51.6448 322.2684 0003346 156.6387 297.2956 15.59382516 10644 | 2015/09/21-10:32:29  101.9087   93.9002  297.2615   92.3442     6767.5800     6765.3156     6769.8445  40.845157 -31.604724  -0.000162   0.000293
1 40726U 98067GJ  15266.56585248  .00020897  00000-0  26431-3 0  9997 | 2 40726  51.6450 311.5836 0003140 161.3472 359.2533 15.59472661 10974 | 2015/09/23-13:34:49   93.6070  160.6000  359.2528   92.3389     6767.3192     6765.1943     6769.4442  34.277413 -38.629845  -0.000122   0.000289
1 40726U 98067GJ  15267.77532502  .00020433  00000-0  25813-3 0  9995 | 2 40726  51.6444 305.5040 0003177 163.7230 311.5893 15.59520530 11166 | 2015/09/24-18:36:28  221.5770  115.2851  311.5621   92.3361     6767.1808     6765.0308     6769.3307  29.992991 -42.042414  -0.000105   0.000300
1 40726U 98067GJ  15269.10652264  .00020276  00000-0  25567-3 0  9993 | 2 40726  51.6429 298.8210 0003282 178.3579 215.7637 15.59574671 11376 | 2015/09/26-02:33:23   69.9940   34.0996  215.7417   92.3329     6767.0241     6764.8032     6769.2451  24.895742 -45.245897  -0.000150   0.000292
1 40726U 98067GJ  15270.33463963  .00021796  00000-0  27371-3 0  9999 | 2 40726  51.6431 292.6501 0003031 176.9171 277.1655 15.59633686 11563 | 2015/09/27-08:01:52   99.5365   94.0481  277.1310   92.3294     6766.8534     6764.8024     6768.9045  19.887884 -47.660066  -0.000102   0.000286
1 40726U 98067GJ  15271.43315071  .00021138  00000-0  26522-3 0  9994 | 2 40726  51.6424 287.1266 0002508 177.0382 329.0149 15.59678323 11737 | 2015/09/28-10:23:44   89.6362  146.0383  329.0001   92.3267     6766.7243     6765.0272     6768.4214  15.207862 -49.352390  -0.000061   0.000243
1 40726U 98067GJ  15272.45922541  .00020606  00000-0  25831-3 0  9994 | 2 40726  51.6421 281.9668 0002544 178.7164 332.4942 15.59719796 11894 | 2015/09/29-11:01:17  100.0367  151.1971  332.4807   92.3243     6766.6044     6764.8829     6768.3258  10.707724 -50.519809  -0.000047   0.000250
1 40726U 98067GJ  15273.60229435  .00020777  00000-0  25992-3 0  9991 | 2 40726  51.6426 276.2200 0002484 180.7836 273.1282 15.59768897 12075 | 2015/09/30-14:27:18  215.7138   93.8834  273.0998   92.3214     6766.4624     6764.7816     6768.1432   5.595288 -51.338591  -0.000030   0.000247
1 40726U 98067GJ  15275.20352727  .00022086  00000-0  27505-3 0  9997 | 2 40726  51.6421 268.1703 0002799 188.4421 262.8915 15.59845052 12327 | 2015/10/02-04:53:04   84.3638   91.3018  262.8597   92.3169     6766.2421     6764.3483     6768.1360  -1.648873 -51.615770  -0.000032   0.000278
1 40726U 98067GJ  15276.36637574  .00024791  00000-0  30708-3 0  9995 | 2 40726  51.6432 262.3206 0001872 179.7094 326.0755 15.59914638 12505 | 2015/10/03-08:47:34   95.5338  145.7729  326.0635   92.3127     6766.0409     6764.7743     6767.3075  -6.901075 -51.180028   0.000026   0.000185
1 40726U 98067GJ  15277.39359377  .00027592  00000-0  34006-3 0  9998 | 2 40726  51.6458 257.1589 0002385 201.5017 316.8284 15.59981981 12664 | 2015/10/04-09:26:46   98.9613  158.3114  316.8097   92.3088     6765.8462     6764.2325     6767.4598 -11.478173 -50.354148  -0.000036   0.000236
1 40726U 98067GJ  15279.10958081  .00029199  00000-0  35799-3 0  9991 | 2 40726  51.6450 248.5284 0002603 198.7096 243.2630 15.60088008 12937 | 2015/10/06-02:37:47   83.3960   81.9460  243.2364   92.3025     6765.5396     6763.7786     6767.3007 -18.904136 -48.060791   0.000013   0.000260
1 40726U 98067GJ  15280.34061926  .00026462  00000-0  32444-3 0  9996 | 2 40726  51.6428 242.3307 0002567 199.6216 320.9318 15.60143093 13127 | 2015/10/07-08:10:29   95.4001  160.5349  320.9133   92.2992     6765.3804     6763.6437     6767.1171 -23.981242 -45.737062   0.000036   0.000254
1 40726U 98067GJ  15281.36149811  .00027602  00000-0  33743-3 0  9999 | 2 40726  51.6430 237.1970 0002131 197.4997 300.7326 15.60196316 13285 | 2015/10/08-08:40:33  131.3775  138.2113  300.7116   92.2961     6765.2265     6763.7848     6766.6682 -27.977710 -43.407916   0.000056   0.000206
1 40726U 98067GJ  15282.88051315  .00027988  00000-0  34089-3 0  9999 | 2 40726  51.6417 229.5589 0001873 214.6099 181.4300 15.60285947 13520 | 2015/10/09-21:07:56   69.5506   36.0394  181.4295   92.2908     6764.9674     6763.7004     6766.2345 -33.498215 -39.303114   0.000019   0.000186
1 40726U 98067GJ  15284.10755662  .00025992  00000-0  31642-3 0  9997 | 2 40726  51.6410 223.3804 0002813 214.1014 238.9479 15.60340437 13714 | 2015/10/11-02:34:52  101.6648   93.0217  238.9203   92.2876     6764.8099     6762.9070     6766.7129 -37.533178 -35.469049   0.000061   0.000275
1 40726U 98067GJ  15285.20482108  .00022984  00000-0  28022-3 0  9997 | 2 40726  51.6425 217.8620 0001718 229.5855 271.1666 15.60379813 13885 | 2015/10/12-04:54:56   95.5771  140.7324  271.1469   92.2852     6764.6961     6763.5340     6765.8583 -40.771306 -31.696190   0.000008   0.000172
1 40726U 98067GJ  15286.23139630  .00020545  00000-0  25088-3 0  9990 | 2 40726  51.6421 212.6948 0001976 222.1649 289.1203 15.60414167 14040 | 2015/10/13-05:33:12  100.7902  151.2638  289.0989   92.2832     6764.5968     6763.2602     6765.9335 -43.459916 -27.895200   0.000052   0.000191
1 40726U 98067GJ  15287.25257400  .00021590  00000-0  26278-3 0  9992 | 2 40726  51.6430 207.5578 0002209 221.4992 270.1885 15.60464474 14205 | 2015/10/14-06:03:42  134.1552  131.6624  270.1632   92.2802     6764.4515     6762.9572     6765.9457 -45.783821 -23.892283   0.000079   0.000206
1 40726U 98067GJ  15288.63364426  .00018469  00000-0  21725-3 0  9995 | 2 40726  51.6404 200.5597 0004174 201.5530 158.5811 15.60742458 14423 | 2015/10/15-15:12:26   51.2534    0.1516  158.5986   92.2638     6763.6482     6760.8251     6766.4714 -48.351257 -18.135239   0.000310   0.000280
1 40726U 98067GJ  15289.74412466  .00030969  00000-0  37128-3 0  9999 | 2 40726  51.6419 195.0145 0002443 236.8407 221.8278 15.60643765 14597 | 2015/10/16-17:51:32  359.1317   98.6498  221.8091   92.2696     6763.9334     6762.2809     6765.5858 -49.878861 -13.378531   0.000076   0.000232
1 40726U 98067GJ  15290.75772979  .00031639  00000-0  37819-3 0  9992 | 2 40726  51.6420 189.9126 0002040 254.5622 142.7687 15.60709615 14759 | 2015/10/17-18:11:07   71.4681   37.3450  142.7828   92.2657     6763.7431     6762.3633     6765.1229 -50.871062  -8.889950   0.000020   0.000203
1 40726U 98067GJ  15292.12244060  .00031872  00000-0  37964-3 0  9990 | 2 40726  51.6420 183.0430 0001850 252.7649 257.6043 15.60798516 14962 | 2015/10/19-02:56:18   97.9404  150.3485  257.5836   92.2605     6763.4863     6762.2350     6764.7375 -51.569184  -2.741436   0.000045   0.000179
1 40726U 98067GJ  15293.33204955  .00035394  00000-0  41913-3 0  9995 | 2 40726  51.6420 176.9543 0001942 270.4557 201.3571 15.60897440 15155 | 2015/10/20-07:58:09  219.2370  111.8047  201.3490   92.2546     6763.2005     6761.8871     6764.5139 -51.569054   2.743867   0.000009   0.000194
1 40726U 98067GJ  15294.47498505  .00037822  00000-0  44571-3 0  9998 | 2 40726  51.6424 171.1972 0002202 254.2528 164.4943 15.60992597 15331 | 2015/10/21-11:23:58  330.6431   58.7538  164.5010   92.2490     6762.9256     6761.4364     6764.4148 -51.034099   7.903050   0.000091   0.000200
1 40726U 98067GJ  15295.48362669  .00053629  00000-0  61623-3 0  9991 | 2 40726  51.6391 166.0608 0007890 143.6093 216.5957 15.61320568 15494 | 2015/10/22-11:36:25   38.4267    0.1511  216.5418   92.2296     6761.9785     6756.6433     6767.3137 -50.118427  12.439452   0.000504  -0.000607
1 40726U 98067GJ  15296.77704726  .00041465  00000-0  48408-3 0  9999 | 2 40726  51.6425 159.6013 0002788 254.0623 150.7973 15.61192403 15691 | 2015/10/23-18:38:56  107.1379   44.8752  150.8129   92.2372     6762.3486     6760.4633     6764.2339 -48.403994  18.000034   0.000165   0.000225
1 40726U 98067GJ  15297.87553429  .00043856  00000-0  50940-3 0  9993 | 2 40726  51.6444 154.0644 0002358 275.7718 187.2782 15.61299350 15860 | 2015/10/24-21:00:46   91.0225  103.0466  187.2748   92.2309     6762.0398     6760.4453     6763.6343 -46.443096  22.587227   0.000081   0.000221
1 40726U 98067GJ  15299.22002497  .00044576  00000-0  51521-3 0  9994 | 2 40726  51.6439 147.2910 0002484 283.4503 181.8825 15.61420878 16075 | 2015/10/26-05:16:50  220.8549  105.3319  181.8816   92.2237     6761.6889     6760.0093     6763.3685 -43.454516  27.906943   0.000082   0.000234
1 40726U 98067GJ  15300.42927156  .00043119  00000-0  49676-3 0  9997 | 2 40726  51.6428 141.1930 0002597 287.9110 139.4597 15.61519569 16268 | 2015/10/27-10:18:09  341.4357   67.3900  139.4790   92.2179     6761.4040     6759.6481     6763.1600 -40.243241  32.364492   0.000093   0.000243
1 40726U 98067GJ  15301.77735524  .00039211  00000-0  45092-3 0  9998 | 2 40726  51.6426 134.4055 0002957 276.9782 173.7923 15.61609340 16476 | 2015/10/28-18:39:23   91.4622   90.7742  173.7960   92.2126     6761.1449     6759.1456     6763.1442 -36.135976  36.893758   0.000185   0.000231
1 40726U 98067GJ  15302.80333661  .00032642  00000-0  37612-3 0  9999 | 2 40726  51.6417 129.2287 0002420 288.7666 173.6500 15.61649731 16638 | 2015/10/29-19:16:48   95.3575  102.4197  173.6531   92.2102     6761.0283     6759.3921     6762.6645 -32.659110  40.003097   0.000128   0.000205
1 40726U 98067GJ  15303.89810297  .00034019  00000-0  39044-3 0  9995 | 2 40726  51.6421 123.7094 0002562 300.4579 200.9699 15.61731293 16807 | 2015/10/30-21:33:16   97.0605  141.4173  200.9594   92.2054     6760.7929     6759.0608     6762.5250 -28.660380  42.959156   0.000112   0.000231
1 40726U 98067GJ  15304.97349632  .00035754  00000-0  40863-3 0  9993 | 2 40726  51.6406 118.2860 0002698 302.5932 129.1660 15.61814832 16975 | 2015/10/31-23:21:50  200.3541   71.7832  129.1900   92.2004     6760.5518     6758.7278     6762.3758 -24.471089  45.474360   0.000131   0.000236
1 40726U 98067GJ  15305.99886726  .00036295  00000-0  41347-3 0  9995 | 2 40726  51.6418 113.1147 0002750 304.3647 136.5708 15.61891486 17136 | 2015/11/01-23:58:22  206.4933   80.9572  136.5925   92.1959     6760.3306     6758.4715     6762.1897 -20.273181  47.496038   0.000148   0.000232
1 40726U 98067GJ  15307.72926736  .00035700  00000-0  40487-3 0  9998 | 2 40726  51.6420 104.3864 0002990 316.6992 140.8128 15.62014243 17405 | 2015/11/03-17:30:08  103.2947   97.5336  140.8344   92.1887     6759.9764     6757.9552     6761.9977 -12.830970  50.022619   0.000145   0.000262
1 40726U 98067GJ  15308.82630098  .00037006  00000-0  41798-3 0  9990 | 2 40726  51.6423  98.8533 0003147 322.8952 187.8274 15.62101505 17577 | 2015/11/04-19:49:52   91.6306  150.7177  187.8225   92.1835     6759.7247     6757.5974     6761.8520  -7.948012  51.027015   0.000149   0.000277
1 40726U 98067GJ  15310.40435966  .00039688  00000-0  44540-3 0  9990 | 2 40726  51.6418  90.8942 0002805 321.0618  70.3211 15.62235871 17826 | 2015/11/06-09:42:16   68.5859   31.4132   70.3514   92.1756     6759.3371     6757.4411     6761.2331  -0.805927  51.635511   0.000173   0.000221
1 40726U 98067GJ  15311.44096617  .00040386  00000-0  45160-3 0  9997 | 2 40726  51.6419  85.6612 0002713 323.0582 142.3015 15.62321043 17989 | 2015/11/07-10:34:59   14.0422  105.3787  142.3205   92.1706     6759.0914     6757.2577     6760.9251   3.906916  51.493901   0.000179   0.000204
1 40726U 98067GJ  15312.79336098  .00042540  00000-0  47295-3 0  9991 | 2 40726  51.6425  78.8386 0003162 327.9270 189.1895 15.62444323 18190 | 2015/11/08-19:02:26   97.3031  157.1107  189.1837   92.1633     6758.7359     6756.5988     6760.8730   9.996616  50.665723   0.000217   0.000230
1 40726U 98067GJ  15313.93382096 +.00048622 +00000-0 +53649-3 0  9994 | 2 40726 051.6447 073.0727 0004531 351.5970 104.9863 15.62574396018375 | 2015/11/09-22:24:42  215.2919   96.6334  105.0364   92.1556     6758.3608     6755.2986     6761.4230  15.036771  49.407191   0.000194   0.000410
1 40726U 98067GJ  15315.20854368  .00049888  00000-0  54744-3 0  9994 | 2 40726  51.6434  66.6406 0004684 352.7693  79.5590 15.62704067 18573 | 2015/11/11-05:00:18  346.1356   72.3811   79.6118   92.1480     6757.9869     6754.8215     6761.1524  20.476477  47.410491   0.000238   0.000403
1 40726U 98067GJ  15316.29994248  .00048744  00000-0  53300-3 0  9993 | 2 40726  51.6430  61.1271 0004620 357.7429  98.7809 15.62805344 18746 | 2015/11/12-07:11:55    1.4329   96.5761   98.8332   92.1420     6757.6949     6754.5729     6760.8170  24.936765  45.223414   0.000239   0.000395
1 40726U 98067GJ  15317.38968506  .00046798  00000-0  51016-3 0  9991 | 2 40726  51.6433  55.6270 0004921   4.8211 106.9403 15.62899509 18916 | 2015/11/13-09:21:08   25.0768  111.8153  106.9942   92.1364     6757.4235     6754.0982     6760.7488  29.156677  42.625328   0.000243   0.000428
1 40726U 98067GJ  15318.53751306  .00046546  00000-0  50537-3 0  9995 | 2 40726  51.6434  49.8297 0004674   5.5680  88.9232 15.63006770 19094 | 2015/11/14-12:54:01  102.4937   94.5448   88.9768   92.1301     6757.1144     6753.9561     6760.2726  33.313178  39.462297   0.000265   0.000385
1 40726U 98067GJ  15319.74911176  .00048722  00000-0  52601-3 0  9994 | 2 40726  51.6432  43.7066 0004722  12.0432  64.7500 15.63131443 19288 | 2015/11/15-17:58:43  203.6846   76.8422   64.7990   92.1228     6756.7551     6753.5645     6759.9456  37.332227  35.683679   0.000266   0.000390
1 40726U 98067GJ  15320.77369422  .00049070  00000-0  52761-3 0  9994 | 2 40726  51.6440  38.5263 0004942  19.2870  67.1382 15.63231590 19444 | 2015/11/16-18:34:07  209.0924   86.4774   67.1904   92.1169     6756.4665     6753.1274     6759.8055  40.402254  32.167695   0.000263   0.000418
1 40726U 98067GJ  15322.04832147  .00048212  00000-0  51607-3 0  9990 | 2 40726  51.6437  32.0821 0005155  20.4551  44.1666 15.63352307 19648 | 2015/11/18-01:09:34  337.4623   64.6629   44.2078   92.1098     6756.1187     6752.6359     6759.6014  43.757082  27.429720   0.000314   0.000409
1 40726U 98067GJ  15323.07295038  .00049455  00000-0  52699-3 0  9998 | 2 40726  51.6429  26.9062 0004869  26.0798  49.2970 15.63458531 19802 | 2015/11/19-01:45:02  341.7594   75.4191   49.3393   92.1035     6755.8126     6752.5232     6759.1020  46.052482  23.370024   0.000293   0.000389
1 40726U 98067GJ  15324.15055313  .00050136  00000-0  53182-3 0  9994 | 2 40726  51.6429  21.4579 0005059  28.1941 356.6798 15.63567896 19976 | 2015/11/20-03:36:47   66.7097   24.8705  356.6764   92.0971     6755.4976     6752.0800     6758.9152  48.063356  18.891875   0.000328   0.000386
1 40726U 98067GJ  15325.17510924  .00048354  00000-0  51131-3 0  9992 | 2 40726  51.6430  16.2823 0005677  28.7662   7.1517 15.63659400 20134 | 2015/11/21-04:12:09   70.6914   35.9260    7.1598   92.0917     6755.2341     6751.3991     6759.0690  49.571700  14.479158   0.000401   0.000402
1 40726U 98067GJ  15326.53905509  .00042644  00000-0  45020-3 0  9996 | 2 40726  51.6422   9.3844 0005511  33.3234 125.7747 15.63757630 20344 | 2015/11/22-12:56:14   86.7740  159.1493  125.8259   92.0859     6754.9512     6751.2285     6758.6738  50.951051   8.420640   0.000405   0.000374
1 40726U 98067GJ  15327.61060338  .00038864  00000-0  40979-3 0  9995 | 2 40726  51.6435   3.9666 0006026  40.6951  34.8306 15.63828972 20517 | 2015/11/23-14:39:16  202.5777   75.5652   34.8701   92.0817     6754.7457     6750.6753     6758.8161  51.519790   3.572436   0.000429   0.000424
1 40726U 98067GJ  15329.13823117  .00035109  00000-0  36953-3 0  9992 | 2 40726  51.6412 356.2350 0006120  42.1070 359.5817 15.63923789 20752 | 2015/11/25-03:19:03   75.5980   41.6882  359.5812   92.0761     6754.4727     6750.3390     6758.6064  51.529746  -3.390987   0.000480   0.000380
1 40726U 98067GJ  15331.06561762  .00030362  00000-0  31922-3 0  9999 | 2 40726  51.6423 346.4884 0006047  55.8603  44.8026 15.64027981 21058 | 2015/11/27-01:34:29    2.1293  100.7118   44.8515   92.0700     6754.1727     6750.0885     6758.2570  50.212977 -12.065822   0.000447   0.000407
1 40726U 98067GJ  15332.08843774  .00029858  00000-0  31331-3 0  9990 | 2 40726  51.6415 341.3135 0005938  58.2277  45.3799 15.64088082 21214 | 2015/11/28-02:07:21   13.5829  103.6561   45.4284   92.0664     6753.9997     6749.9892     6758.0102  48.919259 -16.545410   0.000458   0.000378
1 40726U 98067GJ  15333.23585289  .00031715  00000-0  33130-3 0  9996 | 2 40726  51.6420 335.5062 0006250  60.0830  28.7992 15.64167765 21393 | 2015/11/29-05:39:37   88.3160   88.9167   28.8337   92.0617     6753.7703     6749.5492     6757.9914  46.994537 -21.410503   0.000508   0.000364
1 40726U 98067GJ  15334.39543461  .00032706  00000-0  34035-3 0  9996 | 2 40726  51.6420 329.6359 0006280  64.7489  78.2875 15.64247426 21573 | 2015/11/30-09:29:25   98.6244  143.1069   78.3580   92.0570     6753.5410     6749.2998     6757.7822  44.558296 -26.104682   0.000518   0.000355
1 40726U 98067GJ  15335.53559122  .00032758  00000-0  33988-3 0  9997 | 2 40726  51.6422 323.8656 0006226  70.6991  17.3411 15.64322989 21753 | 2015/12/01-12:51:15  210.9711   88.0615   17.3624   92.0526     6753.3235     6749.1189     6757.5282  41.708099 -30.452443   0.000513   0.000353
1 40726U 98067GJ  15336.55933052  .00032835  00000-0  33975-3 0  9990 | 2 40726  51.6423 318.6827 0006270  74.1197  23.1535 15.64390988 21916 | 2015/12/02-13:25:26  216.4762   97.3015   23.1818   92.0486     6753.1278     6748.8936     6757.3620  38.786715 -34.095717   0.000527   0.000340
1 40726U 98067GJ  15338.15467890  .00031977  00000-0  32978-3 0  9998 | 2 40726  51.6424 310.6093 0006007  80.1059   8.1391 15.64490740 22164 | 2015/12/04-03:42:44   89.4756   88.2548    8.1489   92.0427     6752.8408     6748.7843     6756.8972  33.613906 -39.205137   0.000516   0.000307
1 40726U 98067GJ  15339.17729808  .00030657  00000-0  31571-3 0  9993 | 2 40726  51.6419 305.4320 0006147  83.3320   8.4104 15.64548520 22327 | 2015/12/05-04:15:18  100.3064   91.7527    8.4207   92.0393     6752.6745     6748.5237     6756.8254  29.938686 -42.078034   0.000539   0.000296
1 40726U 98067GJ  15340.45413462  .00029188  00000-0  30005-3 0  9990 | 2 40726  51.6418 298.9684 0006393  90.0810 358.2410 15.64619664 22523 | 2015/12/06-10:53:57  211.1101   88.3197  358.2387   92.0351     6752.4698     6748.1530     6756.7867  25.011527 -45.180737   0.000559   0.000310
1 40726U 98067GJ  15341.61843398  .00032891  00000-0  33596-3 0  9997 | 2 40726  51.6407 293.0745 0007108  98.6919  72.3323 15.64710217 22707 | 2015/12/07-14:50:32  194.5971  171.1018   72.4099   92.0298     6752.2093     6747.4098     6757.0088  20.239421 -47.509238   0.000604   0.000374
1 40726U 98067GJ  15343.19060948  .00039757  00000-0  40244-3 0  9990 | 2 40726  51.6408 285.1069 0006278 102.5776 290.8325 15.64851860 22958 | 2015/12/09-04:34:28  187.7116   33.3428  290.7652   92.0215     6751.8018     6747.5631     6756.0406  13.458665 -49.856159   0.000556   0.000292
1 40726U 98067GJ  15344.41470175  .00039296  00000-0  39640-3 0  9999 | 2 40726  51.6422 278.9037 0006048 109.4512 344.6500 15.64946017 23142 | 2015/12/10-09:57:10  215.1034   94.0828  344.6316   92.0160     6751.5310     6747.4477     6755.6143   7.992879 -51.019905   0.000532   0.000287
1 40726U 98067GJ  15345.51073799  .00038305  00000-0  38534-3 0  9993 | 2 40726  51.6423 273.3518 0006169 111.0595  42.1694 15.65026829 23314 | 2015/12/11-12:15:27  197.1810  153.2764   42.2169   92.0112     6751.2986     6747.1337     6755.4635   3.019349 -51.553959   0.000562   0.000255
1 40726U 98067GJ  15347.03307385  .00040705  00000-0  40682-3 0  9997 | 2 40726  51.6410 265.6362 0006556 113.9924 342.3622 15.65159128 23559 | 2015/12/13-00:47:37   91.3123   96.3318  342.3394   92.0034     6750.9181     6746.4922     6755.3441  -3.929315 -51.491294   0.000618   0.000220
1 40726U 98067GJ  15348.05489545  .00044371  00000-0  44098-3 0  9997 | 2 40726  51.6406 260.4592 0006441 121.8410 336.1369 15.65262208 23714 | 2015/12/14-01:19:02  103.7289   97.9480  336.1070   91.9974     6750.6218     6746.2737     6754.9698  -8.559424 -50.926298   0.000596   0.000244
1 40726U 98067GJ  15349.76707860  .00044077  00000-0  43550-3 0  9994 | 2 40726  51.6398 251.7837 0006481 137.7706 255.1812 15.65411868 23987 | 2015/12/15-18:24:35   75.5041   32.8800  255.1094   91.9886     6750.1915     6745.8167     6754.5663 -16.142868 -49.051776   0.000564   0.000320
1 40726U 98067GJ  15350.92546021 +.00047713 +00000-0 +46819-3 0  9995 | 2 40726 051.6333 245.8961 0007736 128.5399 317.1718 15.65538420024167 | 2015/12/16-22:12:39   86.7909   85.6514  317.1115   91.9811     6749.8277     6744.6060     6755.0494 -21.086657 -47.131206   0.000749   0.000193
1 40726U 98067GJ  15352.40542073  .00052436  00000-0  51041-3 0  9994 | 2 40726  51.6374 238.3967 0006791 138.7397  14.0335 15.65707740 24392 | 2015/12/18-09:43:48  201.4733  152.7921   14.0524   91.9712     6749.3411     6744.7576     6753.9246 -27.059803 -43.979406   0.000649   0.000200
1 40726U 98067GJ  15353.65939808  .00049273  00000-0  47804-3 0  9995 | 2 40726  51.6375 232.0387 0006572 138.7105 247.0845 15.65819279 24591 | 2015/12/19-15:49:31   67.4773   25.7257  247.0152   91.9646     6749.0206     6744.5851     6753.4560 -31.763728 -40.712369   0.000646   0.000123
1 40726U 98067GJ  15354.88412534  .00046532  00000-0  45013-3 0  9998 | 2 40726  51.6398 225.8250 0005941 149.6441 304.6760 15.65921916 24787 | 2015/12/20-21:13:08   87.2749   94.2641  304.6200   91.9586     6748.7256     6744.7162     6752.7351 -35.985310 -37.036825   0.000573   0.000158
1 40726U 98067GJ  15355.90502083  .00066039  00000-0  63055-3 0  9991 | 2 40726  51.6437 220.6284 0005418 140.8889 312.9039 15.66104008 24944 | 2015/12/21-21:43:13  101.5274   93.7473  312.8584   91.9479     6748.2025     6744.5463     6751.8587 -39.194916 -33.627820   0.000542   0.000014
1 40726U 98067GJ  15357.06075705  .00078866  00000-0  74441-3 0  9998 | 2 40726  51.6423 214.7792 0006257 161.9823 332.6811 15.66311100 25122 | 2015/12/23-01:27:29  123.7102  134.6305  332.6482   91.9358     6747.6077     6743.3857     6751.8297 -42.416731 -29.457565   0.000599   0.000180
1 40726U 98067GJ  15358.57251308  .00070507  00000-0  66210-3 0  9999 | 2 40726  51.6395 207.0908 0005387 152.9108 232.1806 15.66491312 25361 | 2015/12/24-13:44:25   66.6928   25.0427  232.1319   91.9252     6747.0902     6743.4555     6750.7248 -45.973921 -23.516729   0.000539   0.000000
1 40726U 98067GJ  15359.79616043  .00047288  00000-0  44632-3 0  9999 | 2 40726  51.6412 200.8841 0005274 173.3230 276.7488 15.66533326 25559 | 2015/12/25-19:06:28   89.6383   90.0118  276.6888   91.9227     6746.9695     6743.4112     6750.5279 -48.248551 -18.408990   0.000511   0.000129
1 40726U 98067GJ  15360.81850292 +.00043827 +00000-0 +41283-3 0  9994 | 2 40726 051.6389 195.6908 0006004 178.5995 280.9648 15.66611756025711 | 2015/12/26-19:38:38   94.3900   99.4967  280.8972   91.9181     6746.7443     6742.6936     6750.7951 -49.714586 -13.965527   0.000582   0.000148
1 40726U 98067GJ  15362.52866869  .00041852  00000-0  39242-3 0  9999 | 2 40726  51.6398 187.0106 0005615 186.2983 205.1182 15.66749725 25985 | 2015/12/28-12:41:16   68.5633   31.3892  205.0909   91.9100     6746.3483     6742.5602     6750.1363 -51.253720  -6.302791   0.000546   0.000129
1 40726U 98067GJ  15363.75072289  .00039132  00000-0  36611-3 0  9995 | 2 40726  51.6395 180.7968 0005458 194.2001 254.7402 15.66836590 26177 | 2015/12/29-18:01:02   98.3974   88.8800  254.6799   91.9049     6746.0989     6742.4169     6749.7809 -51.634507  -0.718116   0.000527   0.000141
1 40726U 98067GJ  15365.16698029  .00036811  00000-0  34344-3 0  9990 | 2 40726  51.6392 173.6026 0005466 201.7538 321.3243 15.66934903 26393 | 2015/12/31-04:00:27  182.7024  163.0389  321.2851   91.8992     6745.8167     6742.1295     6749.5040 -51.317641   5.753838   0.000527   0.000145
1 40726U 98067GJ  16001.48318951  .00042690  00000-0  39528-3 0  9997 | 2 40726  51.6383 166.9221 0006177 201.5906 191.3943 15.67048049 26606 | 2016/01/01-11:35:47   74.6087   32.9709  191.3803   91.8925     6745.4920     6741.3253     6749.6587 -50.298974  11.684488   0.000611   0.000091
1 40726U 98067GJ  16002.75542255  .00055252  00000-0  50612-3 0  9999 | 2 40726  51.6389 160.4502 0005431 208.8539 166.5082 15.67207120 26804 | 2016/01/02-18:07:48  197.9613   15.3766  166.5227   91.8832     6745.0356     6741.3723     6748.6988 -48.661969  17.279721   0.000536   0.000088
1 40726U 98067GJ  16004.41626291  .00046097  00000-0  42135-3 0  9995 | 2 40726  51.6365 151.9986 0005023 201.4859 190.8686 15.67340638 27061 | 2016/01/04-09:59:25   68.9600   32.3437  190.8578   91.8754     6744.6525     6741.2647     6748.0403 -45.591731  24.242982   0.000499  -0.000057
1 40726U 98067GJ  16006.16286096  .00038159  00000-0  34842-3 0  9990 | 2 40726  51.6396 143.1237 0005454 225.9034 308.3193 15.67451031 27330 | 2016/01/06-03:54:31  206.4635  174.1736  308.2702   91.8689     6744.3358     6740.6575     6748.0142 -41.308218  30.988376   0.000539   0.000086
1 40726U 98067GJ  16008.77324749  .00039951  00000-0  36146-3 0  9997 | 2 40726  51.6373 129.8485 0005013 232.9193 282.0836 15.67658398 27748 | 2016/01/08-18:33:28  101.2706  154.9467  282.0274   91.8567     6743.7411     6740.3604     6747.1217 -33.087107  39.644093   0.000501   0.000024
1 40726U 98067GJ  16009.78972755  .00040749  00000-0  36731-3 0  9992 | 2 40726  51.6403 124.6769 0004424 242.5012 253.0806 15.67743725 27904 | 2016/01/09-18:57:12  132.7980  135.5333  253.0321   91.8517     6743.4964     6740.5130     6746.4797 -29.380646  42.467614   0.000439   0.000055
1 40726U 98067GJ  16010.79927378  .00040498  00000-0  36391-3 0  9999 | 2 40726  51.6401 119.5407 0004176 248.9402 188.3600 15.67824731 28068 | 2016/01/10-19:10:57  200.6475   77.2932  188.3530   91.8470     6743.2641     6740.4481     6746.0801 -25.460722  44.927181   0.000413   0.000062
1 40726U 98067GJ  16012.45709434  .00043620  00000-0  38902-3 0  9995 | 2 40726  51.6408 111.1035 0003976 261.8592 179.2226 15.67977114 28327 | 2016/01/12-10:58:12   83.7525   81.0824  179.2232   91.8381     6742.8272     6740.1462     6745.5081 -18.593466  48.177331   0.000387   0.000089
1 40726U 98067GJ  16013.74155738  .00044611  00000-0  39579-3 0  9992 | 2 40726  51.6408 104.5630 0003908 267.6166 229.0468 15.68094994 28521 | 2016/01/13-17:47:50  138.3842  136.6296  229.0130   91.8312     6742.4892     6739.8543     6745.1242 -12.984789  49.981671   0.000382   0.000082
1 40726U 98067GJ  16014.75104262  .00043681  00000-0  38636-3 0  9999 | 2 40726  51.6405  99.4226 0003971 273.5766 165.7305 15.68179268 28684 | 2016/01/14-18:01:30  205.2905   79.3183  165.7417   91.8262     6742.2477     6739.5703     6744.9250  -8.454329  50.943749   0.000387   0.000089
1 40726U 98067GJ  16015.77215429  .00041238  00000-0  36405-3 0  9998 | 2 40726  51.6395  94.2230 0003725 288.0158 159.8769 15.68253915 28841 | 2016/01/15-18:31:54  210.5112   87.9074  159.8916   91.8219     6742.0337     6739.5223     6744.5451  -3.802657  51.499299   0.000345   0.000141
1 40726U 98067GJ  16017.22913682  .00036015  00000-0  31765-3 0  9997 | 2 40726  51.6399  86.8028 0003655 291.2041 108.0637 15.68341489 29076 | 2016/01/17-05:29:57   72.5061   39.3076  108.1035   91.8167     6741.7828     6739.3186     6744.2469   2.880097  51.559522   0.000348   0.000113
1 40726U 98067GJ  16018.45439253  .00034707  00000-0  30532-3 0  9997 | 2 40726  51.6391  80.5642 0003738 292.5997 189.3015 15.68422721 29269 | 2016/01/18-10:54:19   78.4110  121.8943  189.2946   91.8120     6741.5500     6739.0300     6744.0700   8.465836  50.940419   0.000364   0.000085
1 40726U 98067GJ  16019.72346245  .00036251  00000-0  31735-3 0  9998 | 2 40726  51.6408  74.1021 0003761 302.2397 150.2929 15.68520896 29462 | 2016/01/19-17:21:47  212.3577   92.5539  150.3142   91.8062     6741.2687     6738.7333     6743.8041  14.145653  49.665609   0.000361   0.000106
1 40726U 98067GJ  16021.37966084  .00041285  00000-0  35830-3 0  9994 | 2 40726  51.6398  65.6603 0003839 309.7155 141.5989 15.68670219 29724 | 2016/01/21-09:06:42   99.8816   91.3417  141.6262   91.7975     6740.8408     6738.2530     6743.4287  21.283125  47.049947   0.000370   0.000102
1 40726U 98067GJ  16022.53726981  .00046771  00000-0  40289-3 0  9992 | 2 40726  51.6418  59.7624 0004147 322.1593 191.1260 15.68795121 29905 | 2016/01/22-12:53:40  101.6888  153.2761  191.1168   91.7902     6740.4831     6737.6878     6743.2783  26.006140  44.615650   0.000385   0.000155
1 40726U 98067GJ  16023.60754723  .00047706  00000-0  40906-3 0  9991 | 2 40726  51.6400  54.3099 0004202 325.2125 116.8901 15.68898326 30077 | 2016/01/23-14:34:52  204.6788   82.1455  116.9330   91.7842     6740.1875     6737.3552     6743.0197  30.126822  41.941199   0.000396   0.000140
1 40726U 98067GJ  16024.87747883 +.00041994 +00000-0 +35965-3 0  9992 | 2 40726 051.6371 047.8405 0004083 337.1646 082.4707 15.68984913030271 | 2016/01/24-21:03:34  332.0426   59.6817   82.5171   91.7791     6739.9395     6737.1876     6742.6914  34.658655  38.277509   0.000370   0.000173
1 40726U 98067GJ  16026.16174303  .00035238  00000-0  30202-3 0  9990 | 2 40726  51.6393  41.2926 0003885 332.9073 145.6096 15.69051095 30479 | 2016/01/26-03:52:54   23.3098  118.5420  145.6347   91.7752     6739.7499     6737.1316     6742.3683  38.799155  34.077013   0.000377   0.000095
1 40726U 98067GJ  16027.44118490  .00033225  00000-0  28419-3 0  9998 | 2 40726  51.6396  34.7691 0004035 341.8549 168.7018 15.69130381 30671 | 2016/01/27-10:35:18   99.6537  150.5658  168.7109   91.7706     6739.5229     6736.8035     6742.2423  42.419705  29.448547   0.000387   0.000115
1 40726U 98067GJ  16028.57737362  .00032745  00000-0  27934-3 0  9995 | 2 40726  51.6403  28.9779 0003931 346.6507 106.5384 15.69203625 30851 | 2016/01/28-13:51:25  212.9603   93.2323  106.5816   91.7663     6739.3132     6736.6640     6741.9624  45.175277  25.018291   0.000379   0.000106
1 40726U 98067GJ  16029.84665281  .00034541  00000-0  29315-3 0  9997 | 2 40726  51.6394  22.5052 0004468 350.8515  77.7190 15.69297969 31057 | 2016/01/29-20:19:10  342.2432   68.6205   77.7690   91.7608     6739.0431     6736.0321     6742.0541  47.706791  19.765873   0.000435   0.000103
1 40726U 98067GJ  16031.18857434  .00037718  00000-0  31804-3 0  9995 | 2 40726  51.6399  15.6600 0004523   0.2873  94.8648 15.69411945 31262 | 2016/01/31-04:31:32   86.9212   95.2037   94.9164   91.7541     6738.7168     6735.6689     6741.7647  49.723049  13.939070   0.000435   0.000124
1 40726U 98067GJ  16032.45956199  .00036278  00000-0  30506-3 0  9992 | 2 40726  51.6403   9.1768 0004146   4.5564  76.5351 15.69500008 31465 | 2016/02/01-11:01:46  206.2733   81.1377   76.5813   91.7490     6738.4647     6735.6710     6741.2585  50.979352   8.235671   0.000403   0.000098
1 40726U 98067GJ  16033.47968903  .00038394  00000-0  32135-3 0  9992 | 2 40726  51.6408   3.9765 0003656  10.5778  78.5089 15.69587340 31620 | 2016/02/02-11:30:45  211.7296   89.1278   78.5500   91.7439     6738.2148     6735.7513     6740.6783  51.516479   3.581151   0.000354   0.000092
1 40726U 98067GJ  16034.74992664  .00042339  00000-0  35191-3 0  9993 | 2 40726  51.6404 357.4897 0004241  11.7218  60.0115 15.69708012 31821 | 2016/02/03-17:59:53  334.1073   71.7754   60.0536   91.7368     6737.8694     6735.0119     6740.7270  51.590844  -2.261797   0.000419   0.000068
1 40726U 98067GJ  16035.88890042  .00044957  00000-0  37153-3 0  9994 | 2 40726  51.6405 351.6834 0004025  17.4282  15.1846 15.69820351 32007 | 2016/02/04-21:20:00   70.1873   32.6249   15.1967   91.7302     6737.5480     6734.8361     6740.2598  51.097445  -7.469431   0.000397   0.000064
1 40726U 98067GJ  16036.90867784 +.00047466 +00000-0 +39014-3 0  9991 | 2 40726 051.6405 346.4750 0004507 018.1920 021.6345 15.69925238032161 | 2016/02/05-21:48:29   76.3070   39.8456   21.6536   91.7241     6737.2479     6734.2114     6740.2844  50.208404 -12.077144   0.000449   0.000037
1 40726U 98067GJ  16038.06313782  .00051495  00000-0  42043-3 0  9997 | 2 40726  51.6384 340.5835 0003489  25.4731  63.7666 15.70056438 32347 | 2016/02/07-01:30:55   89.5288   89.2756   63.8025   91.7164     6736.8726     6734.5221     6739.2231  48.701567 -17.166295   0.000347   0.000037
1 40726U 98067GJ  16039.21950925  .00056267  00000-0  45591-3 0  9994 | 2 40726  51.6396 334.6787 0003776  35.9317 114.1103 15.70201818 32526 | 2016/02/08-05:16:05   92.0648  150.0815  114.1498   91.7080     6736.4567     6733.9130     6739.0004  46.678254 -22.085944   0.000371   0.000070
1 40726U 98067GJ  16040.23940852  .00061834  00000-0  49719-3 0  9998 | 2 40726  51.6394 329.4624 0003906  30.5560 128.9206 15.70346708 32684 | 2016/02/09-05:44:44   96.0155  159.5114  128.9554   91.6995     6736.0424     6733.4113     6738.6734  44.476804 -26.238170   0.000391   0.000000
1 40726U 98067GJ  16041.80868718  .00077515  00000-0  61341-3 0  9990 | 2 40726  51.6356 321.4514 0003786  27.3685  10.6751 15.70638462 32931 | 2016/02/10-19:24:30   71.9466   38.0516   10.6831   91.6825     6735.2082     6732.6582     6737.7581  40.383162 -32.178183   0.000371  -0.000073
1 40726U 98067GJ  16043.02756034  .00077796  00000-0  61079-3 0  9992 | 2 40726  51.6384 315.2241 0003409  43.9655  51.0074 15.70827478 33129 | 2016/02/12-00:39:41  101.2403   95.0033   51.0378   91.6714     6734.6679     6732.3720     6736.9637  36.656399 -36.370768   0.000341  -0.000005
1 40726U 98067GJ  16044.11713932  .00080927  00000-0  63009-3 0  9998 | 2 40726  51.6391 309.6559 0002919  78.0764  63.0112 15.71012941 33297 | 2016/02/13-02:48:40   94.0162  141.1174   63.0410   91.6606     6734.1378     6732.1721     6736.1035  32.954805 -39.756477   0.000258   0.000136
1 40726U 98067GJ  16045.13730170  .00087465  00000-0  67456-3 0  9998 | 2 40726  51.6389 304.4430 0002256  68.0515  87.0221 15.71209046 33451 | 2016/02/14-03:17:42   93.5070  155.0994   87.0479   91.6492     6733.5775     6732.0584     6735.0966  29.206243 -42.586046   0.000220   0.000049
1 40726U 98067GJ  16046.27121911  .00085214  00000-0  65256-3 0  9997 | 2 40726  51.6405 298.6444 0002543  69.2383  24.2850 15.71388280 33633 | 2016/02/15-06:30:33  210.1839   93.5353   24.2970   91.6387     6733.0654     6731.3532     6734.7776  24.755014 -45.320310   0.000252   0.000035
1 40726U 98067GJ  16047.85892453  .00072854  00000-0  55480-3 0  9992 | 2 40726  51.6381 290.5146 0002897  65.8570  15.7623 15.71583646 33881 | 2016/02/16-20:36:51   83.3565   81.6283   15.7713   91.6273     6732.5074     6730.5570     6734.4578  18.096368 -48.363362   0.000289  -0.000018
1 40726U 98067GJ  16048.87731884  .00078170  00000-0  59020-3 0  9996 | 2 40726  51.6382 285.3006 0002256  78.6618   9.0295 15.71760736 34040 | 2016/02/17-21:03:20   90.1242   87.6954    9.0336   91.6170     6732.0017     6730.4830     6733.5205  13.626451 -49.807866   0.000225   0.000016
1 40726U 98067GJ  16049.89497470  .00083925  00000-0  62791-3 0  9992 | 2 40726  51.6388 280.0900 0002513  66.1389  24.0620 15.71947105 34208 | 2016/02/18-21:28:45  100.1844   90.2126   24.0737   91.6061     6731.4696     6729.7780     6733.1612   9.046854 -50.840143   0.000244  -0.000060
1 40726U 98067GJ  16051.11103787  .00083876  00000-0  62235-3 0  9993 | 2 40726  51.6415 273.8642 0001739  96.1530  40.8161 15.72145528 34398 | 2016/02/20-02:39:53  138.6234  136.9821   40.8291   91.5946     6730.9032     6729.7327     6732.0737   3.480219 -51.524097   0.000171   0.000030
1 40726U 98067GJ  16052.49890667  .00059536  00000-0  44252-3 0  9990 | 2 40726  51.6352 266.7630 0002185  71.5532   5.5776 15.72242096 34614 | 2016/02/21-11:58:25  346.5636   77.1332    5.5800   91.5889     6730.6276     6729.1569     6732.0982  -2.915647 -51.552816   0.000203  -0.000081
1 40726U 98067GJ  16053.77130203  .00051652  00000-0  38314-3 0  9998 | 2 40726  51.6380 260.2388 0001790  91.8774 352.1143 15.72350135 34813 | 2016/02/22-18:30:40   85.5433   83.9889  352.1115   91.5827     6730.3193     6729.1145     6731.5240  -8.754818 -50.890433   0.000177  -0.000025
1 40726U 98067GJ  16054.78848013  .00048359  00000-0  35786-3 0  9995 | 2 40726  51.6361 255.0287 0001503  91.1614 354.4916 15.72434967 34976 | 2016/02/23-18:55:24   96.2788   85.6513  354.4899   91.5777     6730.0772     6729.0657     6731.0887 -13.339421 -49.883331   0.000146  -0.000036
1 40726U 98067GJ  16055.80691243  .00048703  00000-0  35883-3 0  9991 | 2 40726  51.6352 249.8098 0001390 105.8277 349.0068 15.72535234 35135 | 2016/02/24-19:21:57   99.9557   94.8315  349.0038   91.5719     6729.7911     6728.8557     6730.7266 -17.821253 -48.462324   0.000139  -0.000011
1 40726U 98067GJ  16057.39124968  .00051434  00000-0  37588-3 0  9991 | 2 40726  51.6359 241.6928 0000929  61.6191   8.8810 15.72703593 35382 | 2016/02/26-09:23:23  344.3301   70.5017    8.8826   91.5621     6729.3108     6728.6857     6729.9360 -24.485684 -45.461164   0.000051  -0.000078
1 40726U 98067GJ  16058.54041589  .00056453  00000-0  40933-3 0  9990 | 2 40726  51.6347 235.8047 0001089 103.7905 357.7502 15.72849599 35566 | 2016/02/27-12:58:11   14.0101  101.5402  357.7497   91.5536     6728.8944     6728.1616     6729.6271 -29.019503 -42.708438   0.000102  -0.000038
1 40726U 98067GJ  16059.55161755  .00053178  00000-0  38444-3 0  9995 | 2 40726  51.6352 230.6175 0001157  88.9743 342.2306 15.72944581 35723 | 2016/02/28-13:14:19   54.5624   71.2009  342.2266   91.5480     6728.6235     6727.8450     6729.4020 -32.762249 -39.910261   0.000088  -0.000075
1 40726U 98067GJ  16060.83450469  .00049750  00000-0  35826-3 0  9993 | 2 40726  51.6366 224.0375 0001457  64.8533  75.9669 15.73064537 35929 | 2016/02/29-20:01:41   94.6309  140.8364   75.9831   91.5411     6728.2814     6727.3011     6729.2617 -37.120777 -35.894100   0.000047  -0.000138
1 40726U 98067GJ  16062.46835939  .00058599  00000-0  41696-3 0  9996 | 2 40726  51.6359 215.6576 0001338  63.1813 337.1549 15.73276369 36188 | 2016/03/02-11:14:26   73.2929   40.3302  337.1489   91.5287     6727.6775     6726.7773     6728.5776 -41.954950 -30.100636   0.000021  -0.000132
1 40726U 98067GJ  16063.68517003  .00063847  00000-0  45036-3 0  9994 | 2 40726  51.6349 209.4117 0001602  50.9024  46.2589 15.73444817 36379 | 2016/03/03-16:26:38  101.9649   97.1746   46.2722   91.5189     6727.1973     6726.1196     6728.2750 -44.979861 -25.356952  -0.000027  -0.000158
1 40726U 98067GJ  16064.83287065  .00065725  00000-0  46030-3 0  9996 | 2 40726  51.6357 203.5212 0001893  39.7351  83.1790 15.73599974 36558 | 2016/03/04-19:59:20  136.4060  122.9356   83.2005   91.5099     6726.7551     6725.4817     6728.0284 -47.345417 -20.607207  -0.000085  -0.000169
1 40726U 98067GJ  16066.40549088  .00068168  00000-0  47266-3 0  9993 | 2 40726  51.6354 195.4470 0002156  37.1108   1.2740 15.73818067 36806 | 2016/03/06-09:43:54   76.7029   38.3853    1.2745   91.4972     6726.1336     6724.6835     6727.5838 -49.770187 -13.752928  -0.000131  -0.000171
1 40726U 98067GJ  16067.87405186  .00070671  00000-0  48528-3 0  9999 | 2 40726  51.6354 187.9067 0002285  40.4089  44.6498 15.74029421 37038 | 2016/03/07-20:58:38  207.6987   85.0771   44.6682   91.4849     6725.5315     6723.9947     6727.0683 -51.144522  -7.102985  -0.000152  -0.000171
1 40726U 98067GJ  16069.13955190  .00081888  00000-0  55509-3 0  9994 | 2 40726  51.6363 181.4002 0002505  23.7697  37.7954 15.74269733 37234 | 2016/03/09-03:20:57  334.5262   61.5827   37.8130   91.4710     6724.8470     6723.1625     6726.5316 -51.620882  -1.261767  -0.000227  -0.000107
1 40726U 98067GJ  16070.15613549  .00088438  00000-0  59359-3 0  9992 | 2 40726  51.6371 176.1788 0002859  30.2149  37.0204 15.74466641 37397 | 2016/03/10-03:44:50  341.0495   67.2550   37.0401   91.4595     6724.2863     6722.3639     6726.2088 -51.522304   3.441256  -0.000256  -0.000127
1 40726U 98067GJ  16071.17273970  .00077958  00000-0  52165-3 0  9998 | 2 40726  51.6341 170.9557 0003275  19.6505  53.7164 15.74586914 37554 | 2016/03/11-04:08:44  347.1205   73.3972   53.7467   91.4526     6723.9439     6721.7418     6726.1460 -50.992138   8.116781  -0.000322  -0.000060
1 40726U 98067GJ  16072.44347534  .00077181  00000-0  51232-3 0  9999 | 2 40726  51.6320 164.4118 0003203  15.7981  66.0225 15.74776668 37752 | 2016/03/12-10:38:36   83.9280   81.8541   66.0560   91.4415     6723.4038     6721.2503     6725.5573 -49.732868  13.874626  -0.000320  -0.000001
1 40726U 98067GJ  16073.77658745  .00090083  00000-0  58952-3 0  9997 | 2 40726  51.6341 157.5627 0003343  29.5626  55.7561 15.75041243 37963 | 2016/03/13-18:38:17  208.5133   85.3504   55.7878   91.4262     6722.6508     6720.4034     6724.8982 -47.725283  19.707300  -0.000332  -0.000041
1 40726U 98067GJ  16074.79307009  .00101504  00000-0  65962-3 0  9994 | 2 40726  51.6365 152.3458 0003153  38.8661  54.0154 15.75153884 38129 | 2016/03/14-19:02:01  213.1031   92.9107   54.0446   91.4196     6722.3303     6720.2108     6724.4499 -45.737800  23.966263  -0.000309  -0.000061
1 40726U 98067GJ  16075.80959692  .00063791  00000-0  41609-3 0  9995 | 2 40726  51.6352 147.1019 0003006  43.7877  57.3819 15.75256557 38283 | 2016/03/15-19:25:49  217.0105  101.1986   57.4109   91.4137     6722.0382     6720.0176     6724.0589 -43.354870  28.045484  -0.000295  -0.000057
1 40726U 98067GJ  16077.07344884  .00065098  00000-0  42137-3 0  9996 | 2 40726  51.6347 140.6071 0003020  40.8181  32.7996 15.75424969 38484 | 2016/03/17-01:45:45  347.2896   73.6365   32.8184   91.4039     6721.5592     6719.5292     6723.5891 -39.903927  32.769175  -0.000302  -0.000008
1 40726U 98067GJ  16078.20935172  .00077033  00000-0  49248-3 0  9990 | 2 40726  51.6371 134.7705 0003774  45.7322 355.1492 15.75638761 38666 | 2016/03/18-05:01:27   75.9071   40.8777  355.1455   91.3915     6720.9511     6718.4146     6723.4876 -36.366397  36.658904  -0.000377  -0.000003
1 40726U 98067GJ  16079.56047498  .00079725  00000-0  50453-3 0  9995 | 2 40726  51.6355 127.8117 0003849  33.0317 117.5414 15.75857468 38879 | 2016/03/19-13:27:05  100.9103  150.6122  117.5805   91.3788     6720.3293     6717.7426     6722.9159 -31.656093  40.793586  -0.000364   0.000126
1 40726U 98067GJ  16081.12516272  .00060376  00000-0  38016-3 0  9994 | 2 40726  51.6373 119.7462 0003764  49.7293 344.2813 15.76084020 39123 | 2016/03/21-03:00:14   70.3682   33.9989  344.2696   91.3657     6719.6852     6717.1560     6722.2145 -25.620307  44.833142  -0.000370   0.000069
1 40726U 98067GJ  16082.47549050  .00043989  00000-0  27709-3 0  9991 | 2 40726  51.6357 112.7926 0004963  68.9009  72.2263 15.76203680 39338 | 2016/03/22-11:24:42   97.6541  141.1814   72.2805   91.3588     6719.3452     6716.0103     6722.6800 -20.003491  47.603633  -0.000496  -0.000015
1 40726U 98067GJ  16083.49147701  .00053746  00000-0  33550-3 0  9994 | 2 40726  51.6363 107.5545 0003809  72.3872  77.9481 15.76329181 39495 | 2016/03/23-11:47:43  100.4406  150.3780   77.9908   91.3515     6718.9885     6716.4292     6721.5478 -15.574171  49.231623  -0.000381   0.000000
1 40726U 98067GJ  16085.06785649  .00050284  00000-0  31221-3 0  9995 | 2 40726  51.6338  99.4306 0003926  65.8670  36.5042 15.76478200 39743 | 2016/03/25-01:37:42    5.5790  102.3980   36.5310   91.3428     6718.5651     6715.9274     6721.2028  -8.460345  50.935959  -0.000380   0.000100
1 40726U 98067GJ  16086.08250113  .00050211  00000-0  31038-3 0  9997 | 2 40726  51.6343  94.1990 0003850  72.3596  32.5252 15.76579870 39908 | 2016/03/26-01:58:48   14.5692  104.9085   32.5489   91.3370     6718.2762     6715.6897     6720.8628  -3.780704  51.495701  -0.000374   0.000089
1 40726U 98067GJ  16087.42142970  .00049234  00000-0  30273-3 0  9990 | 2 40726  51.6349  87.2951 0003768  78.7108  70.9537 15.76709213 40114 | 2016/03/27-10:06:51  100.0274  149.7053   70.9945   91.3295     6717.9088     6715.3775     6720.4401   2.436748  51.577371  -0.000366   0.000091
1 40726U 98067GJ  16088.55205013  .00049538  00000-0  30304-3 0  9995 | 2 40726  51.6342  81.4640 0003895  82.4554   9.3584 15.76822436 40296 | 2016/03/28-13:14:57  211.8469   91.8211    9.3657   91.3229     6717.5872     6714.9707     6720.2037   7.664106  51.062237  -0.000374   0.000108
1 40726U 98067GJ  16089.56739677  .00055861  00000-0  33898-3 0  9992 | 2 40726  51.6350  76.2296 0003862  85.4282  14.2642 15.76953844 40455 | 2016/03/29-13:37:03  215.7283   99.7033   14.2751   91.3153     6717.2140     6714.6198     6719.8082  12.290768  50.150875  -0.000367   0.000122
1 40726U 98067GJ  16090.76501677  .00060873  00000-0  36626-3 0  9994 | 2 40726  51.6355  70.0498 0003830  91.3463 332.2631 15.77112077 40646 | 2016/03/30-18:21:37  330.3147   63.5890  332.2427   91.3061     6716.7647     6714.1922     6719.3373  17.618201  48.536830  -0.000363   0.000122
1 40726U 98067GJ  16091.78021839  .00061455  00000-0  36765-3 0  9995 | 2 40726  51.6353  64.8102 0003804  94.4058 337.2475 15.77237703 40805 | 2016/03/31-18:43:30  333.9836   71.6364  337.2306   91.2989     6716.4081     6713.8531     6718.9630  21.976924  46.724929  -0.000356   0.000135
1 40726U 98067GJ  16093.04255806  .00059312  00000-0  35282-3 0  9991 | 2 40726  51.6359  58.2965 0003790  96.7386 307.6927 15.77380221 41008 | 2016/04/02-01:01:17  103.4058   44.3969  307.6583   91.2906     6716.0035     6713.4581     6718.5489  27.135885  43.930740  -0.000344   0.000160
1 40726U 98067GJ  16094.12735422  .00052759  00000-0  31322-3 0  9997 | 2 40726  51.6355  52.6954 0003621 105.4876 343.2971 15.77473561 41178 | 2016/04/03-03:03:23   96.2494   88.7728  343.2852   91.2852     6715.7386     6713.3068     6718.1703  31.293812  41.072159  -0.000336   0.000135
1 40726U 98067GJ  16095.14190177  .00054462  00000-0  32142-3 0  9996 | 2 40726  51.6363  47.4570 0003802  93.3065   1.1492 15.77592482 41339 | 2016/04/04-03:24:20  102.0539   94.4566    1.1501   91.2783     6715.4011     6712.8479     6717.9543  34.913540  38.044082  -0.000294   0.000240
1 40726U 98067GJ  16096.15359470  .00063193  00000-0  36942-3 0  9994 | 2 40726  51.6385  42.2355 0003490 118.5404 325.9284 15.77747212 41493 | 2016/04/05-03:41:10  122.4689   84.4464  325.9060   91.2694     6714.9620     6712.6185     6717.3055  38.232539  34.710339  -0.000330   0.000115
1 40726U 98067GJ  16097.35653103  .00066359  00000-0  38470-3 0  9992 | 2 40726  51.6378  36.0244 0004134 134.1530 307.8617 15.77912288 41680 | 2016/04/06-08:33:24  205.3768   81.9773  307.8243   91.2598     6714.4937     6711.7179     6717.2694  41.762928  30.369725  -0.000407   0.000071
1 40726U 98067GJ  16098.67186802  .00434385  00000-0  24408-2 0  9998 | 2 40726  51.6304  29.2274 0006036 152.4910 207.6923 15.78492536 41894 | 2016/04/07-16:07:29   48.8230    0.1512  207.6602   91.2263     6712.8481     6708.7962     6716.9000  45.057265  25.209940  -0.000603  -0.000018
1 40726U 98067GJ  16100.27879911  .00103336  00000-0  57380-3 0  9993 | 2 40726  51.6364  20.9347 0003626 139.8487 358.6409 15.78698881 42145 | 2016/04/09-06:41:28  138.8885  138.4886  358.6399   91.2144     6712.2631     6709.8293     6714.6970  48.227791  18.449878  -0.000342   0.000119
1 40726U 98067GJ  16101.34732733  .00085127  00000-0  47072-3 0  9996 | 2 40726  51.6364  15.3935 0004064 150.5559 305.1423 15.78867527 42310 | 2016/04/10-08:20:09  212.9444   95.6601  305.1042   91.2046     6711.7852     6709.0575     6714.5128  49.783971  13.706714  -0.000394   0.000099
1 40726U 98067GJ  16102.87025797  .00085417  00000-0  46687-3 0  9993 | 2 40726  51.6353   7.5114 0004085 157.5654 320.9130 15.79123723 42556 | 2016/04/11-20:53:10   27.8024  118.4489  320.8835   91.1898     6711.0592     6708.3177     6713.8007  51.192211   6.749945  -0.000395   0.000105
1 40726U 98067GJ  16103.94085138 +.00087636 +00000-0 +47464-3 0  9996 | 2 40726 051.6344 001.9711 0003959 161.7144 287.4467 15.79316048042720 | 2016/04/12-22:34:49   89.1289   89.1178  287.4034   91.1787     6710.5143     6707.8577     6713.1710  51.603848   1.775986  -0.000380   0.000111
1 40726U 98067GJ  16104.95360870 +.00107004 +00000-0 +57038-3 0  9997 | 2 40726 051.6347 356.7186 0002559 109.4723 342.3836 15.79591878042881 | 2016/04/13-22:53:11   97.2774   91.8470  342.3747   91.1628     6709.7331     6708.0161     6711.4501  51.550042  -2.955567  -0.000071   0.000246
1 40726U 98067GJ  16106.10219905  .00126291  00000-0  66059-3 0  9990 | 2 40726  51.6305 350.7745 0004793 176.2583 332.4396 15.79926393 43064 | 2016/04/15-02:27:09  101.0042  148.6725  332.4142   91.1435     6708.7860     6705.5705     6712.0015  50.962660  -8.277428  -0.000467   0.000108
1 40726U 98067GJ  16107.86232917  .00114624  00000-0  59085-3 0  9990 | 2 40726  51.6412 341.6502 0002714 216.8132 230.8771 15.80298643 43346 | 2016/04/16-20:41:45   86.5178   87.6662  230.8530   91.1220     6707.7324     6705.9119     6709.5529  49.015359 -16.257556  -0.000257  -0.000086
1 40726U 98067GJ  16108.87426666  .00127255  00000-0  64705-3 0  9997 | 2 40726  51.6289 336.4364 0003181 213.8153 234.8624 15.80550309 43504 | 2016/04/17-20:58:56   96.0391   88.6479  234.8326   91.1075     6707.0204     6704.8869     6709.1539  47.323922 -20.639519  -0.000313  -0.000057
1 40726U 98067GJ  16111.09565186  .00097640  00000-0  48978-3 0  9994 | 2 40726  51.6334 324.8856 0005742 234.2550 264.1065 15.80941046 43850 | 2016/04/20-02:17:44  139.7943  138.2961  264.0411   91.0850     6705.9152     6702.0647     6709.7657  42.236389 -29.700092  -0.000542  -0.000188
1 40726U 98067GJ  16112.40983278  .00072234  00000-0  36233-3 0  9999 | 2 40726  51.6336 318.0694 0004034 216.2447 206.8313 15.81071525 44065 | 2016/04/21-09:50:09  336.2964   63.0551  206.8104   91.0775     6705.5463     6702.8412     6708.2513  38.413063 -34.503119  -0.000401   0.000040
1 40726U 98067GJ  16113.42208786  .00071709  00000-0  35739-3 0  9992 | 2 40726  51.6334 312.8125 0004068 221.9702 206.8824 15.81213935 44226 | 2016/04/22-10:07:48  341.1863   68.8315  206.8613   91.0693     6705.1436     6702.4160     6707.8713  35.090129 -37.877313  -0.000405   0.000037
1 40726U 98067GJ  16114.75266825  .00065713  00000-0  32569-3 0  9993 | 2 40726  51.6318 305.9079 0003881 235.0896 213.3463 15.81369992 44431 | 2016/04/23-18:03:50   88.8280   88.4115  213.3219   91.0603     6704.7025     6702.1004     6707.3046  30.281227 -41.819733  -0.000388  -0.000007
1 40726U 98067GJ  16115.76532168  .00065220  00000-0  32129-3 0  9996 | 2 40726  51.6322 300.6442 0004652 237.2349 220.3251 15.81500015 44599 | 2016/04/24-18:22:03   90.5210   97.5255  220.2906   91.0528     6704.3350     6701.2162     6707.4539  26.317205 -44.421716  -0.000465   0.000017
1 40726U 98067GJ  16116.77590819  .00075010  00000-0  36572-3 0  9999 | 2 40726  51.6321 295.3944 0003511 251.8955 203.6255 15.81674295 44751 | 2016/04/25-18:37:18  102.6170   95.5049  203.6094   91.0428     6703.8425     6701.4888     6706.1962  22.142263 -46.643263  -0.000348  -0.000045
1 40726U 98067GJ  16117.98478500  .00078667  00000-0  37973-3 0  9992 | 2 40726  51.6343 289.1139 0003928 277.6814 226.3188 15.81869757 44941 | 2016/04/26-23:38:05  136.8055  143.9677  226.2863   91.0315     6703.2903     6700.6572     6705.9233  16.907504 -48.787675  -0.000351  -0.000177
1 40726U 98067GJ  16119.68124617  .00078054  00000-0  37229-3 0  9992 | 2 40726  51.6320 280.3002 0004114 271.3013 180.9340 15.82128821 45215 | 2016/04/28-16:20:59   89.7822   92.2345  180.9332   91.0166     6702.5585     6699.8011     6705.3159   9.232093 -50.799920  -0.000403  -0.000083
1 40726U 98067GJ  16120.69166679  .00085580  00000-0  40371-3 0  9993 | 2 40726  51.6355 275.0458 0004946 280.9157 170.6995 15.82324408 45375 | 2016/04/29-16:36:00  100.4040   91.6244  170.7087   91.0054     6702.0062     6698.6914     6705.3210   4.541447 -51.435398  -0.000476  -0.000136
1 40726U 98067GJ  16121.83885513  .00093771  00000-0  43689-3 0  9991 | 2 40726  51.6333 269.0737 0004963 287.1957 224.1899 15.82554365 45555 | 2016/04/30-20:07:57  100.7243  151.3460  224.1503   90.9921     6701.3569     6698.0310     6704.6828  -0.834718 -51.626552  -0.000476  -0.000139
1 40726U 98067GJ  16123.40864723  .00105291  00000-0  48165-3 0  9991 | 2 40726  51.6313 260.9162 0005925 302.2652 159.5738 15.82892224 45805 | 2016/05/02-09:48:27    5.1008  101.8627  159.5975   90.9727     6700.4033     6696.4333     6704.3733  -8.151492 -50.983765  -0.000545  -0.000233
1 40726U 98067GJ  16124.60544815  .00121648  00000-0  54691-3 0  9996 | 2 40726  51.6340 254.6822 0005032 292.0867 155.0435 15.83208058 45993 | 2016/05/03-14:31:50   98.0715   87.1545  155.0678   90.9546     6699.5122     6696.1410     6702.8834 -13.640293 -49.799723  -0.000500  -0.000059
1 40726U 98067GJ  16125.61665020  .00124492  00000-0  55283-3 0  9998 | 2 40726  51.6333 249.4143 0005453 300.2267 154.6637 15.83457215 46155 | 2016/05/04-14:47:58  100.6087   94.9171  154.6904   90.9403     6698.8094     6695.1565     6702.4622 -18.154682 -48.336375  -0.000538  -0.000091
1 40726U 98067GJ  16127.18970512  .00105407  00000-0  46328-3 0  9992 | 2 40726  51.6319 241.2198 0006028 317.1428 111.5643 15.83738725 46409 | 2016/05/06-04:33:10  342.8367   68.7713  111.6285   90.9241     6698.0155     6693.9780     6702.0531 -24.858220 -45.253972  -0.000572  -0.000190
1 40726U 98067GJ  16128.20015071  .00099939  00000-0  43576-3 0  9990 | 2 40726  51.6312 235.9527 0006621 323.0551 110.8604 15.83922224 46565 | 2016/05/07-04:48:13  347.6518   73.9864  110.9313   90.9136     6697.4982     6693.0638     6701.9326 -28.907127 -42.780355  -0.000626  -0.000216
1 40726U 98067GJ  16129.34114366  .00181973  00000-0  76627-3 0  9996 | 2 40726  51.6310 230.0101 0007260 323.3266 142.3012 15.84382966 46740 | 2016/05/08-08:11:14   13.7641  105.6786  142.3520   90.8871     6696.1997     6691.3383     6701.0612 -33.180794 -39.557490  -0.000706  -0.000167
1 40726U 98067GJ  16130.47303160  .00170201  00000-0  70517-3 0  9998 | 2 40726  51.6321 224.1081 0007025 323.1415 123.7124 15.84758130 46923 | 2016/05/09-11:21:09   87.0353   86.9208  123.7793   90.8656     6695.1429     6690.4395     6699.8462 -37.073289 -35.936681  -0.000697  -0.000089
1 40726U 98067GJ  16131.48577067  .00154066  00000-0  63165-3 0  9991 | 2 40726  51.6289 218.8206 0007522 320.5247 148.4057 15.85019246 47087 | 2016/05/10-11:39:30   75.8306  108.9755  148.4508   90.8506     6694.4075     6689.3720     6699.4431 -40.224728 -32.365330  -0.000752   0.000009
1 40726U 98067GJ  16132.49166946  .00111222  00000-0  45645-3 0  9993 | 2 40726  51.6353 213.5737 0006063 330.2692 122.3117 15.85153015 47240 | 2016/05/11-11:48:00  100.5420   92.6396  122.3704   90.8430     6694.0309     6689.9723     6698.0895 -43.021250 -28.554794  -0.000605  -0.000041
1 40726U 98067GJ  16133.50145470  .00090044  00000-0  36831-3 0  9990 | 2 40726  51.6327 208.2923 0007919 343.3929 115.5757 15.85285165 47402 | 2016/05/12-12:02:05  103.9537   99.0504  115.6575   90.8354     6693.6589     6688.3582     6698.9596 -45.464712 -24.472344  -0.000775  -0.000160
1 40726U 98067GJ  16134.58019355  .00087924  00000-0  35678-3 0  9992 | 2 40726  51.6319 202.6615 0007205 346.3789 153.5253 15.85468328 47579 | 2016/05/13-13:55:28   98.0582  139.9410  153.5621   90.8249     6693.1434     6688.3210     6697.9658 -47.645772 -19.893051  -0.000712  -0.000113
1 40726U 98067GJ  16135.65057531  .00091235  00000-0  36638-3 0  9996 | 2 40726  51.6321 197.0710 0007554 348.2281 145.6252 15.85665868 47748 | 2016/05/14-15:36:49  136.0920  133.9021  145.6740   90.8136     6692.5875     6687.5319     6697.6431 -49.357278 -15.156939  -0.000752  -0.000070
1 40726U 98067GJ  16137.15679942  .00105594  00000-0  41598-3 0  9994 | 2 40726  51.6320 189.1986 0008428 354.3077 104.3711 15.85994364 47980 | 2016/05/16-03:45:47    2.8642   98.7723  104.4646   90.7948     6691.6633     6686.0236     6697.3030 -50.968021  -8.253740  -0.000841  -0.000052
1 40726U 98067GJ  16138.48700696  .00336037  00000-0  12453-2 0  9997 | 2 40726  51.6289 182.2378 0008433 357.2765 142.7128 15.86617936 48195 | 2016/05/17-11:41:17   88.7003  140.0478  142.7713   90.7591     6689.9099     6684.2683     6695.5515 -51.589526  -2.015956  -0.000843   0.000007
1 40726U 98067GJ  16139.55472255  .00179892  00000-0  67170-3 0  9994 | 2 40726  51.6362 176.6549 0007615   1.7617 121.3147 15.86871167 48363 | 2016/05/18-13:18:48  136.6261  123.1509  121.3892   90.7446     6689.1982     6684.1043     6694.2920 -51.548222   3.012964  -0.000761   0.000021
1 40726U 98067GJ  16141.11400045  .00155496  00000-0  56838-3 0  9990 | 2 40726  51.6323 168.4809 0009692   9.0177  29.2210 15.87345442 48615 | 2016/05/20-02:44:09   72.5148   38.2930   29.2753   90.7175     6687.8657     6681.3838     6694.3476 -50.592332  10.310691  -0.000968   0.000042
1 40726U 98067GJ  16142.45536311  .00092155  00000-0  33804-3 0  9994 | 2 40726  51.6320 161.4632 0008244  17.7734 131.0043 15.87507666 48823 | 2016/05/21-10:55:43   93.2061  148.8489  131.0755   90.7082     6687.4101     6681.8970     6692.9232 -48.953314  16.414519  -0.000824   0.000011
1 40726U 98067GJ  16143.46326189  .00093922  00000-0  34121-3 0  9992 | 2 40726  51.6321 156.1794 0007971  20.4594 132.7802 15.87699187 48983 | 2016/05/22-11:07:05   97.8650  153.3066  132.8472   90.6973     6686.8723     6681.5421     6692.2024 -47.233795  20.852875  -0.000796   0.000047
1 40726U 98067GJ  16144.47109957  .00111050  00000-0  39734-3 0  9994 | 2 40726  51.6309 150.8974 0005978  24.2438 134.0927 15.87963795 49145 | 2016/05/23-11:18:23  101.8651  158.3857  134.1419   90.6822     6686.1294     6682.1324     6690.1264 -45.112507  25.111981  -0.000596   0.000051
1 40726U 98067GJ  16145.47296446  .00135988  00000-0  47637-3 0  9992 | 2 40726  51.6329 145.6411 0007531  24.1933 106.1873 15.88291840 49305 | 2016/05/24-11:21:04  136.7361  130.4635  106.2702   90.6634     6685.2087     6680.1741     6690.2434 -42.623917  29.140317  -0.000741   0.000133
1 40726U 98067GJ  16146.48079069  .00096572  00000-0  33866-3 0  9998 | 2 40726  51.6329 140.3611 0007500  40.1354  96.8115 15.88406392 49461 | 2016/05/25-11:32:20  139.2606  137.0322   96.8968   90.6569     6684.8873     6679.8736     6689.9010 -39.761479  32.939052  -0.000750  -0.000006
1 40726U 98067GJ  16147.48852420  .00090635  00000-0  31554-3 0  9995 | 2 40726  51.6310 135.0698 0007106  38.1348 105.5410 15.88581083 49624 | 2016/05/26-11:43:28  141.6004  143.7542  105.6194   90.6469     6684.3972     6679.6473     6689.1472 -36.553079  36.464127  -0.000706   0.000084
1 40726U 98067GJ  16149.10768596  .00076556  00000-0  26442-3 0  9992 | 2 40726  51.6294 126.5699 0006925  45.2458   5.1441 15.88805766 49884 | 2016/05/28-02:35:04  107.8803   50.3970    5.1512   90.6341     6683.7670     6679.1385     6688.3955 -30.760953  41.465150  -0.000685   0.000099
1 40726U 98067GJ  16150.37904060  .00140013  00000-0  46704-3 0  9994 | 2 40726  51.6314 119.8935 0006426  46.7591  81.6353 15.89269614 50087 | 2016/05/29-09:05:49  135.4930  128.4673   81.7082   90.6077     6682.4665     6678.1723     6686.7606 -25.732542  44.762012  -0.000625   0.000148
1 40726U 98067GJ  16151.38627326  .00131486  00000-0  43430-3 0  9990 | 2 40726  51.6307 114.6047 0005677  64.5635  70.8763 15.89498663 50241 | 2016/05/30-09:16:14  137.3329  135.5013   70.9378   90.5946     6681.8245     6678.0312     6685.6178 -21.496720  46.942734  -0.000568   0.000008
1 40726U 98067GJ  16152.39361100  .00134061  17634-4  45200-3 0  9991 | 2 40726  51.6308 109.3130 0006821  63.7315  80.2219 15.89754173 50404 | 2016/05/31-09:26:47  137.7455  144.0304   80.2989   90.5800     6681.1085     6676.5513     6685.6657 -17.075778  48.725325  -0.000677   0.000083
1 40726U 98067GJ  16153.82993760  .00115622  16002-4  38494-3 0  9990 | 2 40726  51.6302 101.7554 0006205  65.3721  25.3241 15.90089640 50631 | 2016/06/01-19:55:06  357.0536   90.7266   25.3545   90.5609     6680.1688     6676.0237     6684.3138 -10.518828  50.547322  -0.000605   0.000138
1 40726U 98067GJ  16154.90077760 +.00108980 +15480-4 +35921-3 0  9993 | 2 40726 051.6303 096.1176 0005990 070.6994 034.4652 15.90323228050809 | 2016/06/02-21:37:07   14.7808  105.2035   34.5041   90.5476     6679.5146     6675.5136     6683.5157  -5.502216  51.336279  -0.000583   0.000137
1 40726U 98067GJ  16156.09268852  .00110354  15611-4  35871-3 0  9997 | 2 40726  51.6303  89.8509 0005305  82.7809  11.5423 15.90595250 50995 | 2016/06/04-02:13:28  102.1517   94.3354   11.5545   90.5321     6678.7531     6675.2100     6682.2962   0.134357  51.630125  -0.000526   0.000068
1 40726U 98067GJ  16157.23357443  .00120337  16474-4  38450-3 0  9995 | 2 40726  51.6295  83.8475 0005204  91.3799  60.8967 15.90881623 51176 | 2016/06/05-05:36:20  102.0451  152.3287   60.9488   90.5158     6677.9516     6674.4764     6681.4268   5.533399  51.332122  -0.000519   0.000043
1 40726U 98067GJ  16158.78292075  .00166549  21396-4  51521-3 0  9993 | 2 40726  51.6331  75.6829 0005261  85.6125 307.2554 15.91357909 51425 | 2016/06/06-18:47:24   68.9102   32.8199  307.2074   90.4888     6676.6190     6673.1065     6680.1316  12.768257  50.029478  -0.000498   0.000169
1 40726U 98067GJ  16159.86431910  .00187111  24161-4  56526-3 0  9997 | 2 40726  51.6312  69.9795 0004439 105.6050   7.5806 15.91780082 51598 | 2016/06/07-20:44:37   24.6652  113.1923    7.5873   90.4648     6675.4385     6672.4752     6678.4017  17.676268  48.511136  -0.000443   0.000034
1 40726U 98067GJ  16161.12487845  .00188166  24398-4  55427-3 0  9999 | 2 40726  51.6300  63.3340 0004188 101.6938  41.0819 15.92265672 51794 | 2016/06/09-02:59:49   96.7644  142.8072   41.1134   90.4372     6674.0812     6671.2861     6676.8763  23.170965  46.138523  -0.000405   0.000108
1 40726U 98067GJ  16162.12996272  .00192286  25061-4  55476-3 0  9999 | 2 40726  51.6270  58.0289 0004146 104.1128  44.6173 15.92655958 51956 | 2016/06/10-03:07:08   98.9361  148.7635   44.6507   90.4150     6672.9908     6670.2242     6675.7574  27.336055  43.795973  -0.000395   0.000127
1 40726U 98067GJ  16163.13570692  .00169063  21958-4  48047-3 0  9999 | 2 40726  51.6278  52.7193 0003325 120.0934  39.6972 15.92994947 52113 | 2016/06/11-03:15:25   96.2444  159.8149   39.7215   90.3958     6672.0441     6669.8257     6674.2626  31.272012  41.079082  -0.000330   0.000042
1 40726U 98067GJ  16164.75780022  .00197616  26047-4  54120-3 0  9996 | 2 40726  51.6288  44.1454 0003051 147.5700 322.8590 15.93643113 52378 | 2016/06/12-18:11:13   19.7323  110.4079  322.8379   90.3590     6670.2349     6668.1998     6672.2700  37.047518  35.958510  -0.000299  -0.000062
1 40726U 98067GJ  16165.82063507  .00208158  27784-4  55626-3 0  9992 | 2 40726  51.6260  38.5236 0002747 164.1370 288.9356 15.94089896 52546 | 2016/06/13-19:41:42   66.3787   93.0428  288.9058   90.3337     6668.9885     6667.1565     6670.8205  40.389688  32.154580  -0.000253  -0.000106
1 40726U 98067GJ  16166.82522477  .00270011  39478-4  69669-3 0  9991 | 2 40726  51.6243  33.2074 0002924 196.8068 266.4341 15.94675957 52704 | 2016/06/14-19:48:19   64.1690  103.2075  266.4007   90.3005     6667.3545     6665.4049     6669.3040  43.193721  28.273147  -0.000188  -0.000224
1 40726U 98067GJ  16168.08283858  .00495982  11186-3  11887-2 0  9997 | 2 40726  51.6294  26.5436 0002900 220.4259 270.5728 15.95951098 52908 | 2016/06/16-01:59:17  137.0556  130.9655  270.5396   90.2283     6663.8026     6661.8701     6665.7351  46.187380  23.072079  -0.000113  -0.000267
1 40726U 98067GJ  16169.08555611  .00428668  86304-4  98298-3 0  9991 | 2 40726  51.6294  21.2090 0003013 248.6253 248.8037 15.96770429 53065 | 2016/06/17-02:03:12  137.9265  137.3968  248.7715   90.1820     6661.5228     6659.5157     6663.5299  48.132385  18.678020  -0.000001  -0.000301
1 40726U 98067GJ  16170.08746174  .00463780  10081-3  10103-2 0  9999 | 2 40726  51.6287  15.8880 0003563 244.2013 258.1695 15.97687091 53224 | 2016/06/18-02:05:56  139.9793  142.3308  258.1295   90.1303     6658.9746     6656.6020     6661.3472  49.656415  14.133759  -0.000061  -0.000351
1 40726U 98067GJ  16171.76549198  .00250015  36707-4  52410-3 0  9999 | 2 40726  51.6238   6.9656 0004606 255.0328 187.6288 15.98463428 53490 | 2016/06/19-18:22:18   94.3557   82.6546  187.6218   90.0865     6656.8183     6653.7522     6659.8845  51.242772   6.260594  -0.000064  -0.000456
1 40726U 98067GJ  16173.02532764  .00216264  30410-4  43977-3 0  9992 | 2 40726  51.6276   0.2541 0005597 266.3824 232.2790 15.99029528 53695 | 2016/06/21-00:36:28  139.8500  138.6107  232.2283   90.0546     6655.2471     6651.5222     6658.9721  51.627092   0.228962  -0.000033  -0.000559
1 40726U 98067GJ  16174.50681464  .00199340  27666-4  39222-3 0  9990 | 2 40726  51.6260 352.3514 0006329 278.1828 116.1349 15.99623294 53935 | 2016/06/22-12:09:48   66.8919   34.3828  116.2000   90.0212     6653.6001     6649.3890     6657.8112  51.166683  -6.871272   0.000006  -0.000633
1 40726U 98067GJ  16175.76716698  .00198073  27579-4  37865-3 0  9993 | 2 40726  51.6259 345.6247 0007088 287.6641 170.6694 16.00117936 54137 | 2016/06/23-18:24:43  104.5719   98.3467  170.6826   89.9934     6652.2288     6647.5137     6656.9439  50.009508 -12.817282   0.000041  -0.000708
1 40726U 98067GJ  16176.90131145  .00239041  35265-4  44074-3 0  9990 | 2 40726  51.6245 339.5713 0007602 297.4632 219.7368 16.00686201 54312 | 2016/06/24-21:37:53  101.1687  157.1444  219.6812   89.9614     6650.6543     6645.5985     6655.7101  48.377694 -18.019093   0.000093  -0.000754
1 40726U 98067GJ  16178.44012304  .00242288  36215-4  42623-3 0  9997 | 2 40726  51.6269 331.3466 0008701 297.8454  95.1539 16.01470901 54562 | 2016/06/26-10:33:46   69.0830   33.0986   95.2532   89.9173     6648.4816     6642.6968     6654.2665  45.304487 -24.755611  -0.000012  -0.000870
1 40726U 98067GJ  16179.69919277  .00271365  42963-4  45751-3 0  9990 | 2 40726  51.6253 324.6071 0009661 306.2983 152.1382 16.02150259 54764 | 2016/06/27-16:46:50  104.8914   98.4882  152.1899   89.8792     6646.6021     6640.1808     6653.0234  42.084923 -29.900349   0.000015  -0.000966
1 40726U 98067GJ  16180.83171878  .00331188  59401-4  53118-3 0  9996 | 2 40726  51.6210 318.5393 0010957 311.5965 205.1135 16.02926004 54949 | 2016/06/28-19:57:40  101.5113  156.6568  205.0603   89.8357     6644.4575     6637.1771     6651.7378  38.685296 -34.178583   0.000003  -0.001096
1 40726U 98067GJ  16182.56497255  .00224385  33370-4  34538-3 0  9990 | 2 40726  51.6243 309.2499 0011811 320.3371 127.2959 16.03667721 55227 | 2016/06/30-13:33:33   85.5575   87.7406  127.4035   89.7942     6642.4085     6634.5632     6650.2539  32.662900 -39.977535  -0.000009  -0.001181
1 40726U 98067GJ  16183.75951279  .00277972  45682-4  40810-3 0  9992 | 2 40726  51.6255 302.8301 0013198 325.4923 184.8003 16.04361402 55418 | 2016/07/01-18:13:41  100.5296  150.2800  184.7877   89.7553     6640.4937     6631.7296     6649.2579  27.988750 -43.379973  -0.000039  -0.001319
1 40726U 98067GJ  16185.55520060  .00416298  91926-4  55841-3 0  9990 | 2 40726  51.6262 293.1829 0012779 331.9099 121.3676 16.05780710 55705 | 2016/07/03-13:19:29   95.4094   93.4024  121.4925   89.6760     6636.5803     6628.0994     6645.0611  20.323561 -47.457533  -0.000109  -0.001273
1 40726U 98067GJ  16186.74353837  .00316438  57612-4  40419-3 0  9992 | 2 40726  51.6247 286.7846 0015257 335.8594 153.4261 16.06517916 55895 | 2016/07/04-17:50:41  134.7726  129.3636  153.5042   89.6349     6634.5498     6624.4275     6644.6721  14.907896 -49.425341  -0.000195  -0.001513
1 40726U 98067GJ  16188.16530322  .00289160  50317-4  35250-3 0  9999 | 2 40726  51.6233 279.1228 0014208 340.7818  98.8599 16.07303814 56123 | 2016/07/06-03:58:02  345.3149   79.8025   99.0207   89.5910     6632.3870     6622.9637     6641.8103   8.184925 -50.970306  -0.000249  -0.001399
1 40726U 98067GJ  16189.35250222  .00256804  42258-4  30160-3 0  9998 | 2 40726  51.6239 272.7167 0015138 346.8867 128.1355 16.07877137 56316 | 2016/07/07-08:27:36   24.9023  115.1585  128.2718   89.5591     6630.8103     6620.7725     6640.8480   2.446849 -51.565880  -0.000273  -0.001489
1 40726U 98067GJ  16190.46646786  .00440702  10694-3  47483-3 0  9992 | 2 40726  51.6179 266.6914 0019321 350.8510  99.0740 16.08963268 56494 | 2016/07/08-11:11:42   98.1504   90.1435   99.2925   89.4986     6627.8258     6615.0202     6640.6315  -2.979069 -51.531861  -0.000417  -0.001887
1 40726U 98067GJ  16191.59368963  .00704798  28079-3  68645-3 0  9992 | 2 40726  51.6176 260.5794 0012890 348.1574 159.6455 16.10729602 56675 | 2016/07/09-14:14:54   93.2954  147.8542  159.6968   89.4005     6622.9796     6614.4425     6631.5166  -8.448803 -50.921453  -0.000467  -0.001201
1 40726U 98067GJ  16193.06936196  .00788080  37085-3  66047-3 0  9992 | 2 40726  51.6222 252.5803 0015303 352.5781  83.3938 16.12866231 56918 | 2016/07/11-01:39:52  345.8220   76.1461   83.5680   89.2820     6617.1291     6607.0029     6627.2553 -15.454080 -49.254674  -0.000643  -0.001389
1 40726U 98067GJ  16194.17718726  .00896742  51200-3  66099-3 0  9999 | 2 40726  51.6245 246.5493 0014639 355.3968  41.0732 16.14743267 57098 | 2016/07/12-04:15:08   71.2639   36.5804   41.1836   89.1783     6612.0001     6602.3208     6621.6794 -20.544478 -47.360463  -0.000688  -0.001292
1 40726U 98067GJ  16195.48649030  .01438807  11822-4  81223-3 0  9993 | 2 40726  51.6154 239.3856 0015094 346.3992 114.3192 16.18187883 57301 | 2016/07/13-11:40:32  126.8188  100.8759  114.4767   88.9884     6602.6135     6592.6476     6612.5795 -26.285541 -44.420939  -0.001053  -0.001082
1 40726U 98067GJ  16196.76446435  .02902411  00000-0  11347-2 0  9998 | 2 40726  51.6160 232.3796 0012211 350.8342   9.2658 16.22874036 57511 | 2016/07/14-18:20:49  335.7735    0.1226    9.2884   88.7315     6589.8971     6581.8502     6597.9440 -31.507811 -40.883607  -0.000890  -0.000836
1 40726U 98067GJ  16198.11648892  .04603818  12211-4  84587-3 0  9999 | 2 40726  51.6123 224.8732 0009275 324.3632  36.8926 16.31387741 57730 | 2016/07/16-02:47:44  110.1856    1.3197   36.9565   88.2684     6566.9500     6560.8592     6573.0409 -36.576085 -36.414551  -0.000915  -0.000149
