# SPACE DATA - HISTORICAL TLEs
# ----------------------------
# NORAD_ID    : 39132
# OBJECT_NAME : DOVE 2
# --------------------------------------------------------------------+-----------------------------------------------------------------------+----------------------------------------------------------------------------------------------------------------------------------------
#                  LINE 1                                             |                 LINE 2                                                |      DERIVED PARAMETERS
# --------------------------------------------------------------------+-----------------------------------------------------------------------+----------------------------------------------------------------------------------------------------------------------------------------
# NORAD  COSPAR     TLE_EPOCH      MEANMOT1 MEANMOT2   BSTAR  #  REV  |   NORAD    INC     RAAN     ECC    ARGPER  MEANANOM   MEANMOT     REV |  CAL_DATE              LONG     ARGLAT     PERIOD        SMA         PERIGEE        APOGEE      INC_X      INC_Y      ECC_X      ECC_Y
# ------ ------   -------------- ----------  -------  ------- -- ----     -----  ------- -------- ------- -------- -------- -----------  ----   ------------------- ---------  --------  --------  ------------  ------------   ----------- ---------- ----------  ---------  ---------   
1 40729U 98067GM  15198.55038066  .00020493  00000-0  29635-3 0  9995 | 2 40729 051.6452 292.3812 0005235 262.1859 222.8383 15.55880647   380 | 2015/07/17-13:12:32   75.7766  124.9834  222.7975   92.5521     6777.7309     6774.1828     6781.2790  19.664787 -47.754820  -0.000507  -0.000132
1 40729U 98067GM  15199.64556333  .00020136  00000-0  29083-3 0  9999 | 2 40729 051.6454 286.9110 0005310 264.8302 238.6554 15.55924828   552 | 2015/07/18-15:29:36   98.1306  143.4337  238.6035   92.5495     6777.6026     6774.0037     6781.2015  15.022918 -49.412137  -0.000520  -0.000108
1 40729U 98067GM  15200.79207329  .00018601  00000-0  26889-3 0  9991 | 2 40729 051.6459 281.1804 0005052 266.7116 183.0684 15.55962404   730 | 2015/07/19-19:00:35  211.4404   89.7769  183.0653   92.5472     6777.4935     6774.0695     6780.9175  10.014076 -50.665740  -0.000500  -0.000069
1 40729U 98067GM  15202.39672441  .00016220  00000-0  23505-3 0  9997 | 2 40729 051.6448 273.1566 0004902 285.3023 158.9237 15.56007498   987 | 2015/07/21-09:31:16   84.2743   84.2462  158.9439   92.5445     6777.3625     6774.0403     6780.6848   2.843831 -51.566442  -0.000465  -0.000155
1 40729U 98067GM  15203.56286912  .00015357  00000-0  22266-3 0  9994 | 2 40729 051.6445 267.3310 0004658 287.3290 213.6012 15.56041483  1165 | 2015/07/22-13:30:31   94.3572  140.9007  213.5717   92.5425     6777.2639     6774.1070     6780.4207  -2.404877 -51.588477  -0.000451  -0.000118
1 40729U 98067GM  15204.77581287  .00015542  00000-0  22493-3 0  9999 | 2 40729 051.6441 261.2652 0004605 293.2720 166.8660 15.56080960  1351 | 2015/07/23-18:37:10  219.0704  100.1500  166.8780   92.5402     6777.1492     6774.0284     6780.2701  -7.842734 -51.045123  -0.000446  -0.000116
1 40729U 98067GM  15206.17784332  .00016785  00000-0  24186-3 0  9992 | 2 40729 051.6437 254.2585 0004467 293.6840 105.8626 15.56134767  1570 | 2015/07/25-04:16:05   72.7814   39.5958  105.9118   92.5370     6776.9930     6773.9657     6780.0203 -14.010815 -49.706829  -0.000442  -0.000062
1 40729U 98067GM  15207.34323352  .00018265  00000-0  26205-3 0  9992 | 2 40729 051.6430 248.4294 0004475 306.0310 146.5865 15.56183942  1751 | 2015/07/26-08:14:15   86.2288   92.6457  146.6147   92.5340     6776.8502     6773.8176     6779.8829 -18.986415 -48.026196  -0.000433  -0.000112
1 40729U 98067GM  15208.37093962  .00018072  00000-0  25900-3 0  9994 | 2 40729 051.6432 243.2895 0004602 309.9327 144.0503 15.56220948  1913 | 2015/07/27-08:54:09  100.9903   94.0139  144.0812   92.5318     6776.7428     6773.6241     6779.8615 -23.212725 -46.132304  -0.000448  -0.000105
1 40729U 98067GM  15209.47108964  .00017882  00000-0  25599-3 0  9997 | 2 40729 051.6428 237.7909 0004485 316.1188 185.5088 15.56260811  2086 | 2015/07/28-11:18:22   95.9827  141.6227  185.5039   92.5295     6776.6271     6773.5878     6779.6664 -27.526163 -43.695413  -0.000435  -0.000108
1 40729U 98067GM  15210.50131456  .00018090  00000-0  25851-3 0  9998 | 2 40729 051.6428 232.6366 0004497 320.5169 196.8949 15.56299730  2249 | 2015/07/29-12:01:53   97.2492  157.3968  196.8799   92.5272     6776.5141     6773.4667     6779.5615 -31.340376 -41.045824  -0.000438  -0.000102
1 40729U 98067GM  15211.57938954  .00019216  00000-0  27365-3 0  9997 | 2 40729 051.6438 227.2449 0004538 324.2231 117.4322 15.56347876  2417 | 2015/07/30-13:54:19  207.5670   81.7014  117.4783   92.5243     6776.3743     6773.2992     6779.4495 -35.059225 -37.920084  -0.000445  -0.000090
1 40729U 98067GM  15213.25100407  .00020100  00000-0  28515-3 0  9990 | 2 40729 051.6431 218.8848 0004492 334.7262 119.1758 15.56418561  2678 | 2015/08/01-06:01:26   87.1092   93.9469  119.2207   92.5201     6776.1692     6773.1253     6779.2130 -40.199491 -32.419296  -0.000437  -0.000106
1 40729U 98067GM  15214.53295436  .00023204  00000-0  32710-3 0  9999 | 2 40729 051.6431 212.4707 0004170 340.3965 101.4414 15.56494320  2870 | 2015/08/02-12:47:27  208.3531   81.8847  101.4882   92.5156     6775.9493     6773.1237     6778.7749 -43.569533 -27.725540  -0.000407  -0.000093
1 40729U 98067GM  15216.20275149  .00025613  00000-0  35897-3 0  9999 | 2 40729 051.6425 204.1164 0004522 346.5557 098.3164 15.56588073  3139 | 2015/08/04-04:51:57   96.4460   84.9234   98.3677   92.5100     6775.6772     6772.6133     6778.7412 -47.135001 -21.100698  -0.000444  -0.000084
1 40729U 98067GM  15217.37005253  .00024525  00000-0  34338-3 0  9995 | 2 40729 051.6433 198.2740 0004740 347.8509 162.6763 15.56640993  3314 | 2015/08/05-08:52:52   98.0122  150.5434  162.6925   92.5069     6775.5237     6772.3121     6778.7353 -49.038818 -16.193355  -0.000471  -0.000051
1 40729U 98067GM  15218.95524272  .00024414  00000-0  34086-3 0  9994 | 2 40729 051.6433 190.3464 0004842 357.1833 042.7253 15.56719458  3569 | 2015/08/06-22:55:32   68.7893   39.9463   42.7630   92.5022     6775.2960     6772.0154     6778.5766 -50.803576  -9.275082  -0.000480  -0.000063
1 40729U 98067GM  15220.11920196  .00031964  00000-0  44197-3 0  9992 | 2 40729 051.6410 184.5197 0004850 006.7269 080.9401 15.56827685  3742 | 2015/08/08-02:51:39   87.0302   87.7219   80.9950   92.4958     6774.9820     6771.6961     6778.2678 -51.480412  -4.069407  -0.000476  -0.000095
1 40729U 98067GM  15221.21386319  .00038985  00000-0  53477-3 0  9998 | 2 40729 051.6361 179.0319 0006118 013.4283 093.7277 15.56936184  3919 | 2015/08/09-05:07:57  108.1860  107.2260   93.7977   92.4893     6774.6672     6770.5225     6778.8120 -51.628729   0.872430  -0.000597  -0.000132
1 40729U 98067GM  15222.49713144  .00045520  00000-0  61962-3 0  9990 | 2 40729 051.6436 172.6111 0005941 007.1245 097.8834 15.57074339  4115 | 2015/08/10-11:55:52  219.9963  105.0753   97.9508   92.4811     6774.2665     6770.2419     6778.2911 -51.214756   6.641546  -0.000594   0.000003
1 40729U 98067GM  15223.83109836  .00047281  00000-0  64009-3 0  9997 | 2 40729 051.6402 165.9325 0004881 014.7523 013.1385 15.57210279  4325 | 2015/08/11-19:56:46   65.3349   27.9035   13.1512   92.4731     6773.8722     6770.5659     6777.1785 -50.091513  12.551916  -0.000488  -0.000006
1 40729U 98067GM  15225.06197766  .00042161  00000-0  57024-3 0  9994 | 2 40729 051.6425 159.7731 0004454 011.4500 081.3044 15.57289028  4515 | 2015/08/13-01:29:14   90.9605   92.8049   81.3549   92.4684     6773.6439     6770.6269     6776.6608 -48.457749  17.854815  -0.000440   0.000068
1 40729U 98067GM  15226.08935196  .00040370  00000-0  54483-3 0  9990 | 2 40729 051.6428 154.6252 0004809 017.0406 079.3682 15.57365497  4678 | 2015/08/14-02:08:40  103.3214   96.4630   79.4224   92.4638     6773.4221     6770.1648     6776.6795 -46.660502  22.130891  -0.000476   0.000070
1 40729U 98067GM  15227.30542976  .00038261  00000-0  51521-3 0  9992 | 2 40729 051.6412 148.5343 0004925 016.9634 062.0785 15.57450353  4864 | 2015/08/15-07:19:49  205.7658   79.0918   62.1284   92.4588     6773.1761     6769.8403     6776.5119 -44.047506  26.956089  -0.000477   0.000123
1 40729U 98067GM  15228.33385713  .00025069  00000-0  34011-3 0  9997 | 2 40729 051.6428 143.3853 0005003 025.5164 063.5330 15.57475305  5027 | 2015/08/16-08:00:45  212.1548   89.1007   63.5843   92.4573     6773.1038     6769.7152     6776.4923 -41.451841  30.801358  -0.000491   0.000096
1 40729U 98067GM  15229.73450860  .00037504  00000-0  50229-3 0  9994 | 2 40729 051.6434 136.3656 0005122 032.7942 355.2230 15.57604376  5249 | 2015/08/17-17:37:41   65.8218   28.0123  355.2181   92.4497     6772.7296     6769.2606     6776.1986 -37.377308  35.636745  -0.000503   0.000096
1 40729U 98067GM  15230.76313819  .00029307  00000-0  39369-3 0  9995 | 2 40729 051.6430 131.2114 0005557 033.5217 006.2738 15.57648194  5404 | 2015/08/18-18:18:55   70.5182   39.8025    6.2808   92.4471     6772.6026     6768.8390     6776.3661 -34.024430  38.850194  -0.000536   0.000146
1 40729U 98067GM  15231.92683824 +.00029857 +00000-0 +39985-3 0  9994 | 2 40729 051.6459 125.3763 0006266 037.3382 052.3934 15.57715132005588 | 2015/08/19-22:14:38   86.4962   89.7885   52.4503   92.4431     6772.4085     6768.1650     6776.6521 -29.900081  42.110380  -0.000598   0.000186
1 40729U 98067GM  15234.67525797 +.00020403 +00000-0 +27491-3 0  9990 | 2 40729 051.6424 111.6071 0004676 047.9756 344.7098 15.57798183006010 | 2015/08/22-16:12:22   69.4517   32.6713  344.6957   92.4382     6772.1678     6769.0012     6775.3345 -19.016785  48.013533  -0.000438   0.000163
1 40729U 98067GM  15235.90607595 +.00020421 +00000-0 +27462-3 0  9992 | 2 40729 051.6443 105.4377 0004790 049.3163 050.5881 15.57849625006207 | 2015/08/23-21:44:44   92.7097   99.9468   50.6305   92.4351     6772.0188     6768.7750     6775.2625 -13.747218  49.780998  -0.000433   0.000204
1 40729U 98067GM  15237.39363002  .00021533  00000-0  28841-3 0  9996 | 2 40729 051.6470 097.9834 0005186 053.1036 115.1342 15.57918512  6439 | 2015/08/25-09:26:49  208.8163  168.2916  115.1880   92.4310     6771.8191     6768.3073     6775.3310  -7.173055  51.146455  -0.000454   0.000251
1 40729U 98067GM  15238.85540382  .00023978  00000-0  31934-3 0  9998 | 2 40729 051.6478 090.6548 0005102 058.5188 033.7983 15.57999831  6668 | 2015/08/26-20:31:46   99.7449   92.3496   33.8308   92.4262     6771.5835     6768.1286     6775.0383  -0.590240  51.644427  -0.000438   0.000261
1 40729U 98067GM  15240.13774486  .00033732  00000-0  44434-3 0  9994 | 2 40729 051.6424 084.2263 0004666 059.7524 030.0158 15.58102037  6864 | 2015/08/28-03:18:21  211.6291   89.7950   30.0426   92.4201     6771.2874     6768.1279     6774.4468   5.195206  51.380418  -0.000377   0.000274
1 40729U 98067GM  15241.94301003  .00042332  00000-0  55193-3 0  9995 | 2 40729 051.6426 075.1689 0004960 069.3235 073.7785 15.58265405  7141 | 2015/08/29-22:37:56   99.0275  143.1566   73.8331   92.4104     6770.8141     6767.4558     6774.1724  13.218983  49.922106  -0.000404   0.000288
1 40729U 98067GM  15243.79446976  .00026077  00000-0  34219-3 0  9993 | 2 40729  51.6419  65.8814 0004532  73.3606  23.1048 15.58346339  7430 | 2015/08/31-19:04:02  103.3020   96.4858   23.1252   92.4056     6770.5796     6767.5112     6773.6481  21.102263  47.133643  -0.000343   0.000296
1 40729U 98067GM  15245.71639649 +.00025254 +00000-0 +33044-3 0  9999 | 2 40729 051.6423 056.2350 0004667 075.3445 010.7073 15.58441880007736 | 2015/09/02-17:11:36   97.1499   86.0617   10.7172   92.4000     6770.3029     6767.1432     6773.4626  28.702165  42.931490  -0.000310   0.000349
1 40729U 98067GM  15246.74558869 +.00025086 +00000-0 +32765-3 0  9999 | 2 40729 051.6419 051.0706 0004583 083.6588 020.5066 15.58493950007899 | 2015/09/03-17:53:38   95.7243  104.1838   20.5250   92.3969     6770.1521     6767.0494     6773.2549  32.449824  40.173309  -0.000323   0.000326
1 40729U 98067GM  15248.02772082  .00026734  00000-0  34771-3 0  9997 | 2 40729  51.6446  44.6406 0004224  69.6096  33.0338 15.58569691  8094 | 2015/09/05-00:39:55  206.5076  102.6698   33.0602   92.3924     6769.9328     6767.0732     6772.7924  36.746595  36.288461  -0.000173   0.000385
1 40729U 98067GM  15249.42562939  .00035548  00000-0  45738-3 0  9998 | 2 40729  51.6439  37.6372 0004601 113.9324 277.8973 15.58702859  8319 | 2015/09/06-10:12:54   68.9497   31.7775  277.8451   92.3845     6769.5472     6766.4325     6772.6619  40.896460  31.536835  -0.000405   0.000219
1 40729U 98067GM  15250.45304690  .00039927  00000-0  51077-3 0  9999 | 2 40729  51.6414  32.4707 0004380  98.3189 302.7638 15.58800681  8471 | 2015/09/07-10:52:23   75.7461   41.0405  302.7216   92.3787     6769.2640     6766.2990     6772.2289  43.568099  27.724628  -0.000286   0.000332
1 40729U 98067GM  15251.61490036  .00042402  00000-0  53987-3 0  9992 | 2 40729  51.6420  26.6349 0004409  82.6080   2.9490 15.58897948  8650 | 2015/09/08-14:45:27   96.5201   85.5596    2.9516   92.3729     6768.9824     6765.9979     6771.9668  46.161820  23.151297  -0.000145   0.000416
1 40729U 98067GM  15252.77983931  .00048896  00000-0  61815-3 0  9993 | 2 40729  51.6428  20.7829 0004563  87.2584  60.6177 15.59022237  8832 | 2015/09/09-18:42:58  100.5792  147.9217   60.6633   92.3656     6768.6226     6765.5341     6771.7112  48.282487  18.324309  -0.000141   0.000434
1 40729U 98067GM  15253.92382096  .00050882  00000-0  63994-3 0  9994 | 2 40729  51.6438  15.0405 0004375  96.0510 356.9343 15.59142785  9016 | 2015/09/10-22:10:18  214.1734   92.9826  356.9316   92.3584     6768.2737     6765.3126     6771.2349  49.874620  13.401657  -0.000157   0.000408
1 40729U 98067GM  15255.52546520  .00028451  00000-0  36092-3 0  9992 | 2 40729  51.6457   6.9964 0004196  90.4334 358.4235 15.59197356  9267 | 2015/09/12-12:36:40   84.5164   88.8556  358.4222   92.3552     6768.1158     6765.2759     6770.9557  51.261136   6.290807  -0.000054   0.000416
1 40729U 98067GM  15256.75615751  .00029117  00000-0  36812-3 0  9991 | 2 40729  51.6456   0.8162 0004322  99.7185  61.9324 15.59273075  9455 | 2015/09/13-18:08:52  102.1649  161.6946   61.9761   92.3507     6767.8967     6764.9716     6770.8218  51.640360   0.735686  -0.000079   0.000425
1 40729U 98067GM  15258.47301288  .00028121  00000-0  35453-3 0  9993 | 2 40729  51.6459 352.1876 0004508 107.8334 337.8672 15.59366080  9726 | 2015/09/15-11:21:08   86.5040   85.6811  337.8477   92.3452     6767.6276     6764.5767     6770.6784  51.166546  -7.020227  -0.000078   0.000444
1 40729U 98067GM  15259.70401088  .00026857  00000-0  33814-3 0  9992 | 2 40729  51.6450 346.0024 0004297 107.3607  53.5358 15.59428975  9913 | 2015/09/16-16:53:46  101.8659  160.9361   53.5754   92.3415     6767.4456     6764.5377     6770.3536  50.111446 -12.491957  -0.000025   0.000429
1 40729U 98067GM  15260.78026888  .00026865  00000-0  33750-3 0  9991 | 2 40729  51.6446 340.5927 0004330 108.6405 338.4432 15.59487386 10086 | 2015/09/17-18:43:35  209.6021   87.0655  338.4250   92.3380     6767.2766     6764.3464     6770.2069  48.710171 -17.160535   0.000006   0.000433
1 40729U 98067GM  15262.24573083  .00025531  00000-0  32025-3 0  9991 | 2 40729  51.6439 333.2297 0004445 102.1172 297.9275 15.59558186 10311 | 2015/09/19-05:53:51   73.0148   39.9997  297.8825   92.3338     6767.0718     6764.0639     6770.0798  46.108677 -23.261177   0.000112   0.000430
1 40729U 98067GM  15263.40785054  .00025129  00000-0  31464-3 0  9992 | 2 40729  51.6432 327.3928 0004151 120.3022 328.8212 15.59615865 10491 | 2015/09/20-09:47:18   89.2815   89.0988  328.7966   92.3304     6766.9050     6764.0960     6769.7139  43.503441 -27.829314   0.000017   0.000415
1 40729U 98067GM  15264.43388473  .00028101  00000-0  35000-3 0  9993 | 2 40729  51.6441 322.2357 0004442 115.8192 338.1226 15.59687911 10659 | 2015/09/21-10:24:47  100.0038   93.9228  338.1036   92.3262     6766.6966     6763.6908     6769.7024  40.826559 -31.627601   0.000092   0.000435
1 40729U 98067GM  15265.78210858  .00030324  00000-0  37588-3 0  9996 | 2 40729  51.6450 315.4587 0003818 117.0105 352.2890 15.59774357 10860 | 2015/09/22-18:46:14  218.1126  109.2936  352.2831   92.3210     6766.4466     6763.8631     6769.0300  36.809717 -36.225002   0.000115   0.000364
1 40729U 98067GM  15267.11301118  .00024830  00000-0  30862-3 0  9998 | 2 40729  51.6442 308.7649 0003433 120.0059 267.5459 15.59819884 11078 | 2015/09/24-02:42:44   66.9908   27.5125  267.5066   92.3184     6766.3149     6763.9920     6768.6378  32.335790 -40.268103   0.000124   0.000320
1 40729U 98067GM  15268.14027848  .00021397  00000-0  26662-3 0  9995 | 2 40729  51.6437 303.6004 0003740 122.3971 277.4448 15.59849655 11235 | 2015/09/25-03:22:00   70.6940   39.7994  277.4023   92.3166     6766.2288     6763.6982     6768.7594  28.579487 -43.014935   0.000152   0.000342
1 40729U 98067GM  15269.17839728  .00020525  00000-0  25564-3 0  9999 | 2 40729  51.6429 298.3800 0003906 123.2628 350.0444 15.59890443 11395 | 2015/09/26-04:16:53   17.1951  113.2995  350.0367   92.3142     6766.1109     6763.4680     6768.7537  24.546755 -45.436174   0.000186   0.000344
1 40729U 98067GM  15270.46767340  .00021343  00000-0  26495-3 0  9996 | 2 40729  51.6430 291.8999 0004047 126.1395  32.2114 15.59950107 11593 | 2015/09/27-11:13:26   84.0416  158.3756   32.2361   92.3106     6765.9383     6763.2002     6768.6765  19.262124 -47.916281   0.000214   0.000343
1 40729U 98067GM  15271.49217363  .00021329  00000-0  26433-3 0  9991 | 2 40729  51.6427 286.7465 0004130 130.5721  25.1006 15.59994159 11759 | 2015/09/28-11:48:43  101.7031  155.6928   25.1207   92.3080     6765.8110     6763.0167     6768.6052  14.880213 -49.452480   0.000223   0.000348
1 40729U 98067GM  15272.63499111  .00020880  00000-0  25846-3 0  9999 | 2 40729  51.6438 280.9991 0004139 136.6767 321.4020 15.60041350 11933 | 2015/09/29-15:14:23  217.5852   98.0491  321.3724   92.3052     6765.6745     6762.8742     6768.4748   9.853305 -50.695113   0.000221   0.000350
1 40729U 98067GM  15274.16361395  .00021746  00000-0  26816-3 0  9991 | 2 40729  51.6434 273.3111 0004050 142.0458 266.9381 15.60112423 12179 | 2015/10/01-03:55:36  106.1789   48.9376  266.8918   92.3010     6765.4690     6762.7290     6768.2091   2.982790 -51.557189   0.000230   0.000333
1 40729U 98067GM  15275.39857561  .00023961  00000-0  29397-3 0  9990 | 2 40729  51.6428 267.0969 0004359 142.7998   7.0422 15.60181241 12366 | 2015/10/02-09:33:56   97.3385  149.8481    7.0483   92.2970     6765.2701     6762.3211     6768.2191  -2.615552 -51.576523   0.000281   0.000333
1 40729U 98067GM  15276.41880483  .00027290  00000-0  33287-3 0  9995 | 2 40729  51.6414 261.9614 0005038 147.1660 336.9766 15.60252332 12524 | 2015/10/03-10:03:04  136.4615  124.1200  336.9540   92.2928     6765.0646     6761.6564     6768.4728  -7.221544 -51.133976   0.000330   0.000381
1 40729U 98067GM  15278.14150986  .00033211  00000-0  40142-3 0  9993 | 2 40729  51.6433 253.2944 0004451 154.9414 292.4270 15.60386946 12790 | 2015/10/05-03:23:46   83.7745   87.3212  292.3798   92.2848     6764.6755     6761.6646     6767.6865 -14.845080 -49.463664   0.000296   0.000332
1 40729U 98067GM  15279.16635697  .00033718  00000-0  40634-3 0  9991 | 2 40729  51.6434 248.1404 0004224 159.0825 289.2199 15.60457761 12951 | 2015/10/06-03:59:33   97.9496   88.2567  289.1742   92.2806     6764.4709     6761.6135     6767.3282 -19.228566 -47.930189   0.000287   0.000310
1 40729U 98067GM  15280.32984166  .00030577  00000-0  36836-3 0  9998 | 2 40729  51.6435 242.2812 0004248 161.1937 347.5970 15.60517863 13130 | 2015/10/07-07:54:58  103.3217  148.7802  347.5865   92.2771     6764.2972     6761.4237     6767.1706 -24.021072 -45.716946   0.000308   0.000292
1 40729U 98067GM  15281.47293093  .00032453  00000-0  38945-3 0  9995 | 2 40729  51.6414 236.5327 0004301 160.4565 294.4416 15.60587272 13319 | 2015/10/08-11:21:01  215.6017   94.8532  294.3967   92.2730     6764.0966     6761.1874     6767.0058 -28.478217 -43.079291   0.000344   0.000259
1 40729U 98067GM  15282.87110295  .00038380  00000-0  45703-3 0  9997 | 2 40729  51.6408 229.4958 0004466 171.6143 223.9449 15.60705329 13533 | 2015/10/09-20:54:23   66.6975   35.5237  223.9094   92.2660     6763.7555     6760.7348     6766.7762 -33.540895 -39.265514   0.000336   0.000294
1 40729U 98067GM  15284.09754260  .00031858  00000-0  37996-3 0  9997 | 2 40729  51.6412 223.3176 0004656 176.6780 274.2571 15.60757333 13724 | 2015/10/11-02:20:27  100.2269   90.8819  274.2039   92.2629     6763.6052     6760.4561     6766.7544 -37.572178 -35.428026   0.000357   0.000299
1 40729U 98067GM  15285.26193670  .00010610  00000-0  13093-3 0  9994 | 2 40729  51.6443 217.4582 0005336 185.9175 331.7635 15.60766822 13903 | 2015/10/12-06:17:11   99.6700  157.6521  331.7346   92.2623     6763.5778     6759.9688     6767.1869 -40.995103 -31.409158   0.000388   0.000366
1 40729U 98067GM  15286.77558829  .00021022  00000-0  25229-3 0  9995 | 2 40729  51.6425 209.8345 0004842 185.6577 202.7939 15.60845698 14149 | 2015/10/13-18:36:50   62.9296   28.4301  202.7724   92.2577     6763.3500     6760.0751     6766.6248 -44.798115 -25.691957   0.000394   0.000281
1 40729U 98067GM  15288.20635017  .00024084  00000-0  28712-3 0  9991 | 2 40729  51.6428 202.6285 0004741 183.6133 329.9996 15.60928773 14365 | 2015/10/15-04:57:08  101.4588  153.5857  329.9724   92.2528     6763.1100     6759.9036     6766.3164 -47.667283 -19.869800   0.000425   0.000210
1 40729U 98067GM  15289.73306546  .00029813  00000-0  35229-3 0  9998 | 2 40729  51.6445 194.9404 0004116 201.6997 257.1257 15.61037660 14601 | 2015/10/16-17:35:36  355.0567   98.7794  257.0797   92.2463     6762.7955     6760.0119     6765.5791 -49.898633 -13.314682   0.000330   0.000246
1 40729U 98067GM  15290.74558525  .00031281  00000-0  36829-3 0  9996 | 2 40729  51.6442 189.8425 0003921 205.1271 187.7262 15.61106517 14760 | 2015/10/17-17:53:38   71.6318   32.8473  187.7202   92.2423     6762.5966     6759.9450     6765.2482 -50.884068  -8.828080   0.000321   0.000225
1 40729U 98067GM  15291.90725900 +.00033834 +00000-0 +39642-3 0  9990 | 2 40729 051.6431 183.9838 0003427 202.9745 243.0424 15.61195045014943 | 2015/10/18-21:46:27   83.6744   85.9819  243.0074   92.2370     6762.3410     6760.0235     6764.6584 -51.518317  -3.587874   0.000305   0.000155
1 40729U 98067GM  15293.50337466  .00040052  00000-0  46516-3 0  9992 | 2 40729  51.6413 175.9464 0003962 214.4914 208.6450 15.61339182 15195 | 2015/10/20-12:04:51  330.7672   63.1146  208.6232   92.2285     6761.9248     6759.2457     6764.6039 -51.512112   3.650506   0.000342   0.000201
1 40729U 98067GM  15294.72710052  .00039881  00000-0  46149-3 0  9993 | 2 40729  51.6412 169.7769 0004176 219.8036 246.4693 15.61435584 15388 | 2015/10/21-17:27:01   15.5477  106.2290  246.4254   92.2228     6761.6465     6758.8228     6764.4701 -50.821351   9.165359   0.000363   0.000206
1 40729U 98067GM  15295.87544464  .00044853  00000-0  51543-3 0  9991 | 2 40729  51.6421 163.9943 0005349 225.0765 220.8663 15.61556026 15567 | 2015/10/22-21:00:38   96.1961   85.9027  220.8262   92.2157     6761.2988     6757.6822     6764.9154 -49.640156  14.239430   0.000468   0.000260
1 40729U 98067GM  15297.08841529  .00049158  00000-0  56129-3 0  9996 | 2 40729  51.6424 157.8748 0004270 230.8275 198.8277 15.61687893 15750 | 2015/10/24-02:07:19  196.4682   69.6394  198.8119   92.2079     6760.9182     6758.0313     6763.8051 -47.839612  19.450167   0.000375   0.000205
1 40729U 98067GM  15298.43083493  .00048495  00000-0  55107-3 0  9992 | 2 40729  51.6439 151.1114 0004982 230.2433 191.9102 15.61813610 15962 | 2015/10/25-10:20:24  335.3275   62.1417  191.8984   92.2005     6760.5553     6757.1872     6763.9235 -45.217368  24.949591   0.000464   0.000181
1 40729U 98067GM  15299.57685637  .00043660  00000-0  49561-3 0  9992 | 2 40729  51.6444 145.3229 0003780 238.4194 151.6287 15.61893358 16144 | 2015/10/26-13:50:40   66.9187   30.0687  151.6493   92.1958     6760.3252     6757.7698     6762.8806 -42.470883  29.383127   0.000346   0.000152
1 40729U 98067GM  15300.87032573  .00041039  00000-0  46460-3 0  9996 | 2 40729  51.6430 138.8097 0004355 242.3289 225.6801 15.61989043 16340 | 2015/10/27-20:53:16  102.3949  107.9733  225.6444   92.1901     6760.0491     6757.1051     6762.9931 -38.862722  34.010121   0.000406   0.000157
1 40729U 98067GM  15301.96594970  .00039722  00000-0  44851-3 0  9999 | 2 40729  51.6425 133.2812 0004507 244.3461 268.7926 15.62071632 16513 | 2015/10/28-23:10:58   98.2982  153.0871  268.7410   92.1853     6759.8109     6756.7642     6762.8575 -35.405040  37.595624   0.000430   0.000136
1 40729U 98067GM  15302.98557316  .00038118  00000-0  42954-3 0  9995 | 2 40729  51.6421 128.1355 0004339 250.2386 240.6355 15.62143252 16679 | 2015/10/29-23:39:13  133.7779  130.8308  240.5922   92.1810     6759.6042     6756.6713     6762.5372 -31.890202  40.619226   0.000412   0.000137
1 40729U 98067GM  15304.51546361  .00042797  00000-0  47856-3 0  9998 | 2 40729  51.6432 120.4149 0004451 259.6430 201.0846 15.62287874 16917 | 2015/10/31-12:22:16    3.9135  100.7093  201.0663   92.1725     6759.1871     6756.1786     6762.1956 -26.144786  44.536168   0.000418   0.000153
1 40729U 98067GM  15305.72973002  .00051587  00000-0  57139-3 0  9990 | 2 40729  51.6423 114.2950 0004738 242.0796 213.0681 15.62449469 17109 | 2015/11/01-17:30:48   93.9461   95.1181  213.0385   92.1630     6758.7210     6755.5187     6761.9233 -21.247441  47.068816   0.000473  -0.000030
1 40729U 98067GM  15306.75375471  .00057110  00000-0  62841-3 0  9994 | 2 40729  51.6417 109.1132 0003945 255.6638 203.5438 15.62579259 17263 | 2015/11/02-18:05:24  104.7262   99.1896  203.5258   92.1553     6758.3468     6755.6806     6761.0129 -16.909331  48.794874   0.000393   0.000033
1 40729U 98067GM  15308.47024255  .00040248  00000-0  44381-3 0  9999 | 2 40729  51.6411 100.4516 0005082 292.1529 109.2972 15.62672493 17535 | 2015/11/04-11:17:08   70.7728   41.5051  109.3522   92.1498     6758.0779     6754.6435     6761.5124  -9.367947  50.784297   0.000428   0.000274
1 40729U 98067GM  15309.69510235  .00044627  00000-0  48879-3 0  9993 | 2 40729  51.6416  94.2664 0005594 303.4902 153.4785 15.62796072 17727 | 2015/11/05-16:40:56  103.5962   96.9973  153.5071   92.1425     6757.7217     6753.9414     6761.5019  -3.841822  51.498498   0.000442   0.000343
1 40729U 98067GM  15310.79300763  .00046310  00000-0  50484-3 0  9995 | 2 40729  51.6415  88.7185 0005484 304.9849 213.2131 15.62900968 17895 | 2015/11/06-19:01:55   84.2428  158.1636  213.1787   92.1364     6757.4193     6753.7135     6761.1251   1.154938  51.628584   0.000456   0.000304
1 40729U 98067GM  15311.81534876  .00044254  00000-0  48129-3 0  9991 | 2 40729  51.6424  83.5542 0005048 308.3246 205.9810 15.62984012 18053 | 2015/11/07-19:34:06  102.3500  154.2803  205.9557   92.1315     6757.1799     6753.7689     6760.5910   5.797545  51.315942   0.000429   0.000267
1 40729U 98067GM  15313.20725243  .00047307  00000-0  51095-3 0  9994 | 2 40729  51.6431  76.5169 0005439 321.9164 109.9397 15.63129297 18276 | 2015/11/09-04:58:26  334.2941   71.9147  109.9983   92.1229     6756.7612     6753.0862     6760.4362  12.041030  50.219751   0.000426   0.000338
1 40729U 98067GM  15314.42843403  .00052245  00000-0  56020-3 0  9998 | 2 40729  51.6423  70.3493 0004772 318.6194 150.1682 15.63276152 18463 | 2015/11/10-10:16:56   24.3592  108.8148  150.1954   92.1142     6756.3381     6753.1140     6759.5622  17.366533  48.634665   0.000417   0.000231
1 40729U 98067GM  15315.45308258  .00052561  00000-0  56115-3 0  9992 | 2 40729  51.6419  65.1694 0004656 320.5191 158.8392 15.63384808 18622 | 2015/11/11-10:52:26   28.8518  119.3775  158.8584   92.1078     6756.0250     6752.8794     6759.1706  21.686336  46.867778   0.000420   0.000202
1 40729U 98067GM  15316.73760574  .00052147  00000-0  55383-3 0  9993 | 2 40729  51.6414  58.6777 0005558 330.0028 184.0038 15.63516348 18829 | 2015/11/12-17:42:09  104.3896  154.0022  183.9994   92.1001     6755.6461     6751.8913     6759.4009  26.845866  44.115005   0.000488   0.000267
1 40729U 98067GM  15318.26149757  .00045687  00000-0  48408-3 0  9998 | 2 40729  51.6432  50.9785 0005367 331.9054 125.5420 15.63635129 19061 | 2015/11/14-06:16:33  358.7511   97.4974  125.5920   92.0931     6755.3040     6751.6784     6758.9295  32.515177  40.122106   0.000494   0.000209
1 40729U 98067GM  15319.47474466  .00046849  00000-0  49380-3 0  9991 | 2 40729  51.6415  44.8396 0005616 336.2880 115.4979 15.63756030 19257 | 2015/11/15-11:23:37   88.5163   91.8440  115.5560   92.0860     6754.9558     6751.1622     6758.7494  36.618139  36.413685   0.000524   0.000202
1 40729U 98067GM  15320.49739524  .00050526  00000-0  52926-3 0  9991 | 2 40729  51.6431  39.6599 0006821 344.0058 108.9186 15.63872316 19416 | 2015/11/16-11:56:14  101.7197   92.9983  108.9925   92.0791     6754.6209     6750.0136     6759.2282  39.757256  32.960133   0.000625   0.000274
1 40729U 98067GM  15321.70841529  .00053054  00000-0  55250-3 0  9997 | 2 40729  51.6431  33.5402 0005673 348.1056  87.6766 15.64008133 19606 | 2015/11/17-17:00:07  202.1424   75.8472   87.7416   92.0711     6754.2299     6750.3982     6758.0615  43.044439  28.533945   0.000527   0.000209
1 40729U 98067GM  15323.04879745  .00052880  00000-0  54769-3 0  9997 | 2 40729  51.6426  26.7582 0005626 354.4674  73.6194 15.64148506 19819 | 2015/11/19-01:10:16  340.4786   68.1487   73.6813   92.0629     6753.8258     6750.0261     6757.6255  46.112427  23.250853   0.000524   0.000204
1 40729U 98067GM  15324.07270256  .00051557  00000-0  53213-3 0  9996 | 2 40729  51.6419  21.5780 0005808 355.5699  82.0490 15.64246612 19972 | 2015/11/20-01:44:41  345.7417   77.6848   82.1149   92.0571     6753.5434     6749.6209     6757.4658  48.022720  18.992213   0.000555   0.000171
1 40729U 98067GM  15325.16255306  .00047580  00000-0  49000-3 0  9996 | 2 40729  51.6434  16.0626 0006212   5.7592  93.3230 15.64334520 20147 | 2015/11/21-03:54:04    3.2142   99.1533   93.3941   92.0519     6753.2903     6749.0952     6757.4855  49.627240  14.289080   0.000577   0.000231
1 40729U 98067GM  15326.51315762  .00041790  00000-0  42980-3 0  9996 | 2 40729  51.6419   9.2328 0005561   5.1544 145.2614 15.64431033 20353 | 2015/11/22-12:18:56   86.2593  150.4521  145.2977   92.0462     6753.0126     6749.2572     6756.7679  50.972857   8.285750   0.000539   0.000138
1 40729U 98067GM  15327.71779087  .00039192  00000-0  40204-3 0  9993 | 2 40729  51.6417   3.1231 0006672  14.7035  84.8417 15.64518418 20545 | 2015/11/23-17:13:37  218.0949   99.6214   84.9179   92.0411     6752.7611     6748.2557     6757.2666  51.565001   2.813512   0.000635   0.000204
1 40729U 98067GM  15329.12428329  .00035535  00000-0  36396-3 0  9994 | 2 40729  51.6405 356.0011 0006314  18.0121  88.7495 15.64607565 20769 | 2015/11/25-02:58:58    5.7240  106.8339   88.8218   92.0359     6752.5046     6748.2411     6756.7682  51.514775  -3.601270   0.000613   0.000153
1 40729U 98067GM  15330.47329740  .00032598  00000-0  33336-3 0  9998 | 2 40729  51.6415 349.1675 0006833  25.3717 125.0637 15.64687274 20978 | 2015/11/26-11:21:32   95.8586  150.4995  125.1278   92.0312     6752.2753     6747.6615     6756.8891  50.721290  -9.705424   0.000661   0.000172
1 40729U 98067GM  15331.86267559  .00031926  00000-0  32554-3 0  9996 | 2 40729  51.6410 342.1327 0006515  31.8519  30.2215 15.64774419 21191 | 2015/11/27-20:42:15  332.8010   62.1110   30.2591   92.0260     6752.0246     6747.6257     6756.4235  49.150337 -15.844154   0.000632   0.000157
1 40729U 98067GM  15332.88546995 +.00032849 +00000-0 +33377-3 0  9992 | 2 40729 051.6413 336.9543 0006799 034.4258 033.2439 15.64846310021357 | 2015/11/28-21:15:04  341.5971   67.7124   33.2866   92.0218     6751.8178     6747.2272     6756.4084  47.519958 -20.215773   0.000667   0.000134
1 40729U 98067GM  15333.90887693 +.00035403 +00000-0 +35794-3 0  9993 | 2 40729 051.6412 331.7702 0007117 041.5572 035.4964 15.64931136021515 | 2015/11/29-21:48:46  346.8326   77.1010   35.5438   92.0168     6751.5738     6746.7687     6756.3789  45.498869 -24.426756   0.000693   0.000164
1 40729U 98067GM  15335.13027109  .00036801  00000-0  37040-3 0  9997 | 2 40729  51.6417 325.5798 0007068  46.7597  76.1576 15.65026234 21702 | 2015/12/01-03:07:35   28.0650  122.9960   76.2363   92.0112     6751.3003     6746.5285     6756.0721  42.599975 -29.190877   0.000690   0.000151
1 40729U 98067GM  15336.52928537  .00037053  00000-0  37132-3 0  9998 | 2 40729  51.6414 318.4901 0007249  51.6598  38.9739 15.65130981 21929 | 2015/12/02-12:42:10  212.4624   90.6860   39.0262   92.0051     6750.9991     6746.1053     6755.8929  38.671209 -34.225309   0.000714   0.000128
1 40729U 98067GM  15338.12400178  .00037435  00000-0  37327-3 0  9992 | 2 40729  51.6407 310.4061 0007241  58.5696  23.8193 15.65252336 22171 | 2015/12/04-02:58:33   84.4609   82.4224   23.8528   91.9979     6750.6501     6745.7620     6755.5383  33.473552 -39.322808   0.000715   0.000113
1 40729U 98067GM  15339.46565083  .00037244  00000-0  36986-3 0  9995 | 2 40729  51.6419 303.6086 0007787  57.8901  29.8497 15.65351834 22380 | 2015/12/05-11:10:32  210.2236   87.7843   29.8942   91.9921     6750.3641     6745.1076     6755.6206  28.584647 -43.009345   0.000778   0.000020
1 40729U 98067GM  15340.87111538  .00034895  00000-0  34585-3 0  9996 | 2 40729  51.6418 296.4823 0007184  69.1732  24.1983 15.65439697 22603 | 2015/12/06-20:54:24  359.0707   93.4053   24.2321   91.9869     6750.1115     6745.2622     6754.9608  23.028180 -46.223137   0.000715   0.000071
1 40729U 98067GM  15342.14975634  .00040978  00000-0  40286-3 0  9997 | 2 40729  51.6406 289.9987 0007655  71.6436  32.7730 15.65561445 22804 | 2015/12/08-03:35:38   96.0803  104.4641   32.8205   91.9798     6749.7615     6744.5946     6754.9285  17.661024 -48.526691   0.000765   0.000022
1 40729U 98067GM  15343.24312778  .00046589  00000-0  45478-3 0  9995 | 2 40729  51.6422 284.4521 0007714  77.2079  73.9036 15.65680146 22971 | 2015/12/09-05:50:06   89.6234  151.1965   73.9886   91.9728     6749.4204     6744.2139     6754.6269  12.888371 -50.008066   0.000771   0.000022
1 40729U 98067GM  15344.38070782  .00045498  00000-0  44258-3 0  9990 | 2 40729  51.6438 278.6813 0007774  83.7356   3.7478 15.65778129 23154 | 2015/12/10-09:08:13  209.6723   87.4892    3.7536   91.9671     6749.1388     6743.8920     6754.3856   7.795022 -51.052127   0.000777   0.000033
1 40729U 98067GM  15345.83772377  .00040507  00000-0  39341-3 0  9993 | 2 40729  51.6415 271.2873 0007028  90.5530 295.5093 15.65877578 23383 | 2015/12/11-20:06:19   84.4493   25.9896  295.4366   91.9612     6748.8530     6744.1099     6753.5961   1.160164 -51.628466   0.000702   0.000023
1 40729U 98067GM  15346.87371076  .00042891  00000-0  41453-3 0  9994 | 2 40729  51.6414 266.0322 0006786  93.7550  16.4555 15.65975012 23543 | 2015/12/12-20:58:08   19.5326  110.2325   16.4775   91.9555     6748.5731     6743.9935     6753.1527  -3.573370 -51.517621   0.000679  -0.000003
1 40729U 98067GM  15348.15664552  .00046835  00000-0  44952-3 0  9990 | 2 40729  51.6410 259.5253 0007101  99.3204  48.6334 15.66106496 23746 | 2015/12/14-03:45:34   91.4172  148.0149   48.6945   91.9478     6748.1954     6743.4035     6752.9873  -9.388403 -50.780417   0.000710  -0.000014
1 40729U 98067GM  15349.73051116  .00047218  00000-0  45042-3 0  9998 | 2 40729  51.6406 251.5341 0007077 105.0962 282.6546 15.66255819 23995 | 2015/12/15-17:31:56   67.7544   27.6717  282.5755   91.9390     6747.7665     6742.9911     6752.5419 -16.356654 -48.981746   0.000706  -0.000042
1 40729U 98067GM  15350.75316531  .00052442  00000-0  49664-3 0  9996 | 2 40729  51.6411 246.3419 0007705 118.5289 279.7058 15.66385464 24152 | 2015/12/16-18:04:33   71.6261   38.1477  279.6188   91.9314     6747.3941     6742.1953     6752.5930 -20.722440 -47.300990   0.000768   0.000065
1 40729U 98067GM  15351.91274880  .00056626  00000-0  53269-3 0  9999 | 2 40729  51.6386 240.4466 0006687 109.3520 352.4658 15.66528329 24338 | 2015/12/17-21:54:21   72.5313  101.8077  352.4557   91.9230     6746.9839     6742.4722     6751.4956 -25.469940 -44.920231   0.000658  -0.000118
1 40729U 98067GM  15353.06814622  .00055585  00000-0  52032-3 0  9991 | 2 40729  51.6393 234.5878 0007399 121.0295  21.2705 15.66652820 24516 | 2015/12/19-01:38:07   94.9898  142.3308   21.3013   91.9157     6746.6265     6741.6346     6751.6183 -29.922636 -42.086258   0.000738  -0.000057
1 40729U 98067GM  15354.09021616  .00056666  00000-0  52780-3 0  9999 | 2 40729  51.6392 229.3948 0006945 122.9693  27.8541 15.66772677 24673 | 2015/12/20-02:09:54  100.6120  150.8606   27.8913   91.9087     6746.2824     6741.5971     6750.9677 -33.609018 -39.205113   0.000688  -0.000092
1 40729U 98067GM  15355.10066292  .00056656  00000-0  52513-3 0  9994 | 2 40729  51.6377 224.2651 0007399 129.8719 324.3035 15.66889859 24832 | 2015/12/21-02:24:57  167.1465   94.1259  324.2540   91.9018     6745.9460     6740.9547     6750.9373 -36.978687 -36.042041   0.000736  -0.000076
1 40729U 98067GM  15356.49934953  .00086147  00000-0  78392-3 0  9996 | 2 40729  51.6394 217.1577 0007189 136.3059 293.7400 15.67173788 25054 | 2015/12/22-11:59:03  343.2892   69.9705  293.6646   91.8852     6745.1312     6740.2821     6749.9803 -41.155366 -31.190760   0.000714  -0.000082
1 40729U 98067GM  15357.84162878  .00034695  00000-0  31976-3 0  9993 | 2 40729  51.6386 210.3334 0006121 136.3041 311.8868 15.67263407 25268 | 2015/12/23-20:11:56   96.5120   88.1387  311.8346   91.8799     6744.8741     6740.7455     6749.0026 -44.569343 -26.079086   0.000596  -0.000141
1 40729U 98067GM  15358.86453295  .00059245  00000-0  53754-3 0  9998 | 2 40729  51.6416 205.1268 0006094 143.7064 320.0433 15.67409261 25424 | 2015/12/24-20:44:55   95.4135  103.7048  319.9984   91.8713     6744.4556     6740.3456     6748.5657 -46.754770 -21.928209   0.000598  -0.000118
1 40729U 98067GM  15360.07134527  .00052023  00000-0  47103-3 0  9996 | 2 40729  51.6395 198.9928 0006434 150.2808 287.8199 15.67512615 25617 | 2015/12/26-01:42:44  202.8384   78.0305  287.7497   91.8653     6744.1592     6739.8200     6748.4984 -48.828219 -16.806041   0.000632  -0.000120
1 40729U 98067GM  15361.79512354  .00049100  00000-0  44202-3 0  9993 | 2 40729  51.6391 190.2241 0007155 159.5553 292.8932 15.67672881 25888 | 2015/12/27-19:04:58   99.5186   92.3729  292.8176   91.8559     6743.6995     6738.8744     6748.5246 -50.819125  -9.165873   0.000704  -0.000127
1 40729U 98067GM  15363.01439955  .00046014  00000-0  41308-3 0  9990 | 2 40729  51.6377 184.0181 0006374 160.5822 337.8053 15.67776476 26070 | 2015/12/29-00:20:44  139.9267  138.3599  337.7777   91.8498     6743.4024     6739.1042     6747.7007 -51.510773  -3.618337   0.000615  -0.000169
1 40729U 98067GM  15364.40658065  .00042661  00000-0  38182-3 0  9999 | 2 40729  51.6382 176.9321 0006544 170.0079 271.3268 15.67883396 26295 | 2015/12/30-09:45:28  346.6229   81.2597  271.2518   91.8436     6743.0959     6738.6832     6747.5085 -51.564193   2.763644   0.000637  -0.000148
1 40729U 98067GM  15365.49362666  .00039994  00000-0  35732-3 0  9991 | 2 40729  51.6380 171.4020 0005984 172.2177 289.0361 15.67961081 26466 | 2015/12/31-11:50:49    4.6419  101.1890  288.9713   91.8390     6742.8731     6738.8382     6746.9081 -51.057672   7.719924   0.000574  -0.000169
1 40729U 98067GM  16001.50257111  .00049343  00000-0  43690-3 0  9990 | 2 40729  51.6399 166.2706 0007091 176.6128 223.8795 15.68079040 26625 | 2016/01/01-12:03:42   74.7493   40.4360  223.8232   91.8321     6742.5350     6737.7538     6747.3161 -50.164417  12.256040   0.000678  -0.000209
1 40729U 98067GM  16002.86044093  .00063329  00000-0  55424-3 0  9991 | 2 40729  51.6374 159.3549 0005131 183.7184 327.7516 15.68274657 26839 | 2016/01/02-20:39:02  100.8588  151.4386  327.7202   91.8207     6741.9743     6738.5150     6745.4336 -48.321365  18.206229   0.000491  -0.000149
1 40729U 98067GM  16004.06420348  .00057127  00000-0  49855-3 0  9996 | 2 40729  51.6370 153.2242 0004853 195.8383 276.5067 15.68388025 27022 | 2016/01/04-01:32:27  220.6555  112.2897  276.4514   91.8140     6741.6494     6738.3777     6744.9211 -46.100283  23.262494   0.000476  -0.000092
1 40729U 98067GM  16005.51695674  .00042088  00000-0  36811-3 0  9991 | 2 40729  51.6386 145.8248 0004868 191.0061 209.4064 15.68467314 27255 | 2016/01/05-12:24:25  104.4105   40.3851  209.3790   91.8094     6741.4222     6738.1405     6744.7039 -42.721842  29.006710   0.000448  -0.000192
1 40729U 98067GM  16006.80550456  .00041358  00000-0  36031-3 0  9995 | 2 40729  51.6392 139.2603 0004736 196.8819 284.4004 15.68571395 27456 | 2016/01/06-19:19:55  135.2524  121.2297  284.3478   91.8033     6741.1240     6737.9314     6744.3166 -39.126109  33.700958   0.000433  -0.000192
1 40729U 98067GM  16008.19833390  .00044497  00000-0  38492-3 0  9990 | 2 40729  51.6370 132.1644 0005442 204.2701 227.8026 15.68706957 27671 | 2016/01/08-04:45:36  334.3493   72.0265  227.7564   91.7953     6740.7356     6737.0673     6744.4039 -34.661861  38.274471   0.000499  -0.000218
1 40729U 98067GM  16009.53874773  .00057682  00000-0  49273-3 0  9998 | 2 40729  51.6409 125.3323 0004324 202.0254 245.6330 15.68909150 27888 | 2016/01/09-12:55:47   89.4659   87.6133  245.5879   91.7835     6740.1565     6737.2420     6743.0709 -29.864843  42.129250   0.000364  -0.000233
1 40729U 98067GM  16010.69665777  .00049205  00000-0  41995-3 0  9994 | 2 40729  51.6361 119.4402 0004005 215.3983 296.7107 15.68999198 28060 | 2016/01/10-16:43:11   88.8963  152.0680  296.6697   91.7782     6739.8986     6737.1992     6742.5979 -25.379912  44.968287   0.000362  -0.000170
1 40729U 98067GM  16011.77679830  .00045823  00000-0  39013-3 0  9999 | 2 40729  51.6381 113.9292 0003851 222.3950 275.0308 15.69090940 28238 | 2016/01/11-18:38:35  139.0057  137.3818  274.9868   91.7729     6739.6358     6737.0404     6742.2313 -20.944799  47.199669   0.000353  -0.000155
1 40729U 98067GM  16012.78566297  .00046698  00000-0  39585-3 0  9998 | 2 40729  51.6389 108.7859 0003820 224.7716 215.4731 15.69188417 28391 | 2016/01/12-18:51:21  205.5158   80.2193  215.4477   91.7672     6739.3567     6736.7823     6741.9312 -16.629416  48.888020   0.000342  -0.000170
1 40729U 98067GM  16014.12123566  .00048420  00000-0  40792-3 0  9993 | 2 40729  51.6395 101.9731 0003726 231.9355 198.4765 15.69323152 28604 | 2016/01/14-02:54:34  344.2839   70.3985  198.4630   91.7593     6738.9710     6736.4600     6741.4819 -10.712740  50.516088   0.000335  -0.000164
1 40729U 98067GM  16015.39637541  .00048314  00000-0  40504-3 0  9999 | 2 40729  51.6393  95.4720 0002964 244.4409 195.0597 15.69445572 28808 | 2016/01/15-09:30:46   82.0035   79.4918  195.0509   91.7521     6738.6205     6736.6232     6740.6179  -4.924287  51.403976   0.000278  -0.000102
1 40729U 98067GM  16016.41698481  .00046648  00000-0  38987-3 0  9993 | 2 40729  51.6389  90.2651 0003128 247.4987 202.4712 15.69535557 28968 | 2016/01/16-10:00:27   85.1665   89.9562  202.4575   91.7469     6738.3630     6736.2552     6740.4707  -0.238926  51.638347   0.000290  -0.000118
1 40729U 98067GM  16017.43564897  .00047671  00000-0  39660-3 0  9995 | 2 40729  51.6389  85.0646 0003095 263.5010 186.3212 15.69636661 29125 | 2016/01/17-10:27:20   98.2378   89.8183  186.3173   91.7410     6738.0736     6735.9882     6740.1591   4.442623  51.447440   0.000303  -0.000061
1 40729U 98067GM  16018.45563100  .00049438  00000-0  40924-3 0  9992 | 2 40729  51.6385  79.8627 0003096 263.0915 194.4156 15.69742188 29287 | 2016/01/18-10:56:06  103.9537   97.4983  194.4068   91.7348     6737.7716     6735.6856     6739.8577   9.088769  50.832361   0.000296  -0.000091
1 40729U 98067GM  16019.54801106  .00045792  00000-0  37823-3 0  9997 | 2 40729  51.6384  74.2876 0003218 290.4988 224.3762 15.69828706 29457 | 2016/01/19-13:09:08   86.4944  154.8492  224.3504   91.7298     6737.5241     6735.3559     6739.6922  13.984132  49.708836   0.000321   0.000027
1 40729U 98067GM  16020.56603971  .00041650  00000-0  34360-3 0  9993 | 2 40729  51.6386  69.0879 0002974 287.9381 224.1685 15.69901008 29617 | 2016/01/20-13:35:05  101.9562  152.0829  224.1448   91.7255     6737.3172     6735.3135     6739.3209  18.431638  48.237120   0.000297  -0.000015
1 40729U 98067GM  16022.13634137  .00045557  00000-0  37287-3 0  9997 | 2 40729  51.6391  61.0756 0002366 264.6840 128.6549 15.70053646 29868 | 2016/01/22-03:16:19   75.5926   33.3601  128.6761   91.7166     6736.8805     6735.2866     6738.4745  24.975517  45.197568   0.000196  -0.000133
1 40729U 98067GM  16023.49345694  .00055778  00000-0  45136-3 0  9992 | 2 40729  51.6383  54.1436 0002674 291.4081 218.3975 15.70240514 30071 | 2016/01/23-11:50:34   95.9571  149.7866  218.3785   91.7057     6736.3460     6734.5448     6738.1473  30.247432  41.852203   0.000259  -0.000067
1 40729U 98067GM  16024.87777336 +.00053275 +00000-0 +42897-3 0  9998 | 2 40729 051.6388 047.0789 0002922 300.5964 120.1131 15.70378478030295 | 2016/01/24-21:03:59  331.8363   60.7385  120.1421   91.6976     6735.9515     6733.9833     6737.9197  35.165537  37.814689   0.000285  -0.000062
1 40729U 98067GM  16025.89802682 +.00046005 +00000-0 +37042-3 0  9993 | 2 40729 051.6366 041.8630 0002888 287.7152 144.7192 15.70442331030451 | 2016/01/25-21:33:09  333.6241   72.4535  144.7383   91.6939     6735.7689     6733.8236     6737.7142  38.455979  34.459776   0.000249  -0.000146
1 40729U 98067GM  16027.23707838  .00038808  00000-0  31245-3 0  9991 | 2 40729  51.6381  35.0233 0002606 313.0481 134.9995 15.70522677 30665 | 2016/01/27-05:41:23   88.2290   88.0687  135.0206   91.6892     6735.5392     6733.7839     6737.2945  42.287407  29.635596   0.000255  -0.000054
1 40729U 98067GM  16028.39182639  .00039034  00000-0  31304-3 0  9993 | 2 40729  51.6383  29.1247 0002592 321.1941 180.2469 15.70614502 30840 | 2016/01/28-09:24:13   97.5817  141.4409  180.2468   91.6839     6735.2767     6733.5309     6737.0224  45.109282  25.132981   0.000256  -0.000044
1 40729U 98067GM  16029.52727148  .00041004  00000-0  32715-3 0  9996 | 2 40729  51.6380  23.3219 0002675 327.1850 118.8488 15.70714383 31026 | 2016/01/29-12:39:16  208.6711   86.0606  118.8756   91.6780     6734.9911     6733.1895     6736.7927  47.418924  20.443305   0.000264  -0.000044
1 40729U 98067GM  16030.54664532  .00042996  00000-0  34139-3 0  9990 | 2 40729  51.6382  18.1135 0002508 330.3827 123.8539 15.70809355 31186 | 2016/01/30-13:07:10  213.6560   94.2605  123.8778   91.6725     6734.7197     6733.0306     6736.4087  49.079140  16.054336   0.000246  -0.000050
1 40729U 98067GM  16031.93463076 +.00042973 +00000-0 +33952-3 0  9991 | 2 40729 051.6382 011.0167 0002449 337.8784 050.8719 15.70928703031404 | 2016/01/31-22:25:52   67.2819   28.7721   50.8937   91.6655     6734.3785     6732.7293     6736.0278  50.686587   9.867807   0.000240  -0.000047
1 40729U 98067GM  16033.15331661  .00051749  00000-0  40484-3 0  9990 | 2 40729  51.6398   4.7853 0001875 328.4055 117.5529 15.71084538 31591 | 2016/02/02-03:40:46   96.2333   85.9774  117.5719   91.6564     6733.9332     6732.6706     6735.1958  51.459799   4.307905   0.000167  -0.000085
1 40729U 98067GM  16034.42463144  .00057848  00000-0  44857-3 0  9997 | 2 40729  51.6386 358.2833 0002118 337.9707 103.6985 15.71248926 31790 | 2016/02/03-10:11:28  205.9509   81.6928  103.7221   91.6468     6733.4635     6732.0374     6734.8897  51.615423  -1.546968   0.000194  -0.000085
1 40729U 98067GM  16035.69272681  .00052979  00000-0  40932-3 0  9991 | 2 40729  51.6386 351.7973 0002828 350.9218  68.7663 15.71370192 31990 | 2016/02/04-16:37:31  332.1823   59.7183   68.7965   91.6398     6733.1171     6731.2130     6735.0212  51.110312  -7.367567   0.000270  -0.000084
1 40729U 98067GM  16036.71244647  .00053021  00000-0  40779-3 0  9994 | 2 40729  51.6382 346.5801 0002480 357.6077  74.6567 15.71478977 32157 | 2016/02/05-17:05:55  332.9273   72.2918   74.6841   91.6334     6732.8064     6731.1366     6734.4761  50.228236 -11.984491   0.000239  -0.000068
1 40729U 98067GM  16037.84999721  .00057513  00000-0  43906-3 0  9994 | 2 40729  51.6375 340.7615 0001800 345.4168  47.0365 15.71623754 32334 | 2016/02/06-20:23:59   69.1965   32.4684   47.0516   91.6250     6732.3929     6731.1810     6733.6047  48.753813 -17.014616   0.000150  -0.000100
1 40729U 98067GM  16038.86871182  .00060585  00000-0  45948-3 0  9998 | 2 40729  51.6376 335.5467 0002371 357.1497  43.1933 15.71756970 32493 | 2016/02/07-20:50:56   74.2630   40.3616   43.2119   91.6172     6732.0125     6730.4163     6733.6086  47.005654 -21.375458   0.000211  -0.000109
1 40729U 98067GM  16040.22308541  .00063679  00000-0  47891-3 0  9991 | 2 40729  51.6362 328.6157 0002141   4.7129 144.7427 15.71936797 32706 | 2016/02/09-05:21:14  100.9908  149.4698  144.7569   91.6067     6731.4990     6730.0578     6732.9402  44.081490 -26.890879   0.000191  -0.000096
1 40729U 98067GM  16041.86935017  .00071499  00000-0  53098-3 0  9991 | 2 40729  51.6362 320.1846 0001216 350.6625 122.0788 15.72189503 32967 | 2016/02/10-20:51:51   20.4141  112.7531  122.0906   91.5920     6730.7777     6729.9592     6731.5962  39.662356 -33.063494   0.000080  -0.000092
1 40729U 98067GM  16043.14766028  .00073389  00000-0  54039-3 0  9994 | 2 40729  51.6376 313.6357 0001464   1.5360 151.6142 15.72380200 33161 | 2016/02/12-03:32:37   88.0057  153.1582  151.6222   91.5809     6730.2335     6729.2482     6731.2188  35.633591 -37.372301   0.000104  -0.000103
1 40729U 98067GM  16044.34604550  .00076168  00000-0  55601-3 0  9992 | 2 40729  51.6379 307.4993 0000916   3.2452  98.4657 15.72569818 33357 | 2016/02/13-08:18:18  218.1813  101.7213   98.4761   91.5699     6729.6925     6729.0760     6730.3089  31.434661 -40.967485   0.000060  -0.000069
1 40729U 98067GM  16045.36464272  .00080616  00000-0  58348-3 0  9994 | 2 40729  51.6346 302.2783 0000532 335.7534 136.7735 15.72747741 33513 | 2016/02/14-08:45:05  220.2853  112.5311  136.7777   91.5595     6729.1849     6728.8269     6729.5429  27.574538 -43.655203   0.000007  -0.000053
1 40729U 98067GM  16046.76161851  .00077947  00000-0  55950-3 0  9995 | 2 40729  51.6338 295.1117 0000862 350.5677 117.3105 15.72956714 33736 | 2016/02/15-18:16:43   16.3888  107.8870  117.3193   91.5473     6728.5889     6728.0089     6729.1689  21.912576 -46.753485   0.000023  -0.000083
1 40729U 98067GM  16048.10371189  .00081832  00000-0  58118-3 0  9999 | 2 40729  51.6372 288.2248 0001381 337.0793 176.3137 15.73185621 33943 | 2016/02/17-02:29:20  102.2373  153.3940  176.3147   91.5340     6727.9362     6727.0070     6728.8653  16.149332 -49.046911  -0.000011  -0.000138
1 40729U 98067GM  16049.11603700  .00094676  00000-0  66408-3 0  9999 | 2 40729  51.6379 283.0306 0001401  16.9476 114.1654 15.73416966 34104 | 2016/02/18-02:47:05  135.1464  131.1276  114.1800   91.5206     6727.2767     6726.3342     6728.2192  11.642870 -50.308213   0.000070  -0.000121
1 40729U 98067GM  16050.50348291  .00099701  00000-0  69024-3 0  9996 | 2 40729  51.6345 275.9128 0000942  34.4337  41.6328 15.73700655 34326 | 2016/02/19-12:05:00  338.1587   76.0737   41.6400   91.5041     6726.4682     6725.8345     6727.1018   5.319115 -51.359796   0.000061  -0.000072
1 40729U 98067GM  16051.77349745  .00079904  00000-0  55201-3 0  9996 | 2 40729  51.6372 269.3992 0001125  11.4541  64.5498 15.73841029 34523 | 2016/02/20-18:33:50   83.1920   76.0155   64.5614   91.4959     6726.0682     6725.3115     6726.8249  -0.541455 -51.634361   0.000021  -0.000110
1 40729U 98067GM  16052.85764137  .00070707  00000-0  48687-3 0  9994 | 2 40729  51.6357 263.8307 0000306 229.9980 232.8888 15.73966704 34697 | 2016/02/21-20:35:00   93.2380  102.8840  232.8860   91.4886     6725.7102     6725.5043     6725.9160  -5.549116 -51.336662  -0.000021   0.000022
1 40729U 98067GM  16054.75988876  .00061146  00000-0  41840-3 0  9994 | 2 40729  51.6355 254.0616 0000650 353.1674  96.2033 15.74171342 34996 | 2016/02/23-18:14:14   83.2072   89.3781   96.2107   91.4767     6725.1273     6724.6901     6725.5644 -14.179301 -49.650501  -0.000025  -0.000060
1 40729U 98067GM  16055.77515788  .00059023  00000-0  40220-3 0  9997 | 2 40729  51.6347 248.8448 0000695 328.8020 118.1580 15.74281845 35154 | 2016/02/24-18:36:13   97.3322   86.9670  118.1650   91.4703     6724.8126     6724.3452     6725.2799 -18.634729 -48.154845  -0.000055  -0.000042
1 40729U 98067GM  16057.54369598  .00065305  00000-0  43958-3 0  9991 | 2 40729  51.6347 239.7590 0001588 344.0234  53.5519 15.74524735 35433 | 2016/02/26-13:02:55   74.2196   37.5899   53.5665   91.4562     6724.1209     6723.0532     6725.1887 -26.005211 -44.607973  -0.000115  -0.000110
1 40729U 98067GM  16058.89618904  .00063870  00000-0  42700-3 0  9997 | 2 40729  51.6362 232.8042 0001543 337.7621 171.6977 15.74691771 35644 | 2016/02/27-21:30:30   97.5205  149.4624  171.7003   91.4465     6723.6454     6722.6080     6724.6829 -31.216186 -41.132067  -0.000133  -0.000078
1 40729U 98067GM  16060.46192271  .00060375  00000-0  40087-3 0  9990 | 2 40729  51.6351 224.7536 0001956 349.5611  42.3333 15.74872041 35896 | 2016/02/29-11:05:10   68.3439   31.9095   42.3484   91.4360     6723.1323     6721.8173     6724.4474 -36.668209 -36.354175  -0.000162  -0.000110
1 40729U 98067GM  16061.48991905  .00059981  00000-0  39622-3 0  9998 | 2 40729  51.6355 219.4662 0002079 350.4206 113.8872 15.74993084 36051 | 2016/03/01-11:45:29   12.3098  104.3296  113.9090   91.4290     6722.7879     6721.3902     6724.1855 -39.862590 -32.820707  -0.000180  -0.000104
1 40729U 98067GM  16062.69482544  .00063266  00000-0  41461-3 0  9991 | 2 40729  51.6347 213.2680 0002196 355.5176 105.5775 15.75154491 36249 | 2016/03/02-16:40:32   96.6746  101.1193  105.6017   91.4196     6722.3286     6720.8524     6723.8048 -43.172488 -28.324521  -0.000192  -0.000106
1 40729U 98067GM  16064.40753101  .00077754  00000-0  50119-3 0  9999 | 2 40729  51.6361 204.4552 0003268   9.1264  91.5339 15.75448992 36518 | 2016/03/04-09:46:50    4.1843  100.6977   91.5713   91.4025     6721.4908     6719.2942     6723.6874 -47.003580 -21.376396  -0.000272  -0.000181
1 40729U 98067GM  16065.41161409  .00085249  00000-0  54405-3 0  9995 | 2 40729  51.6349 199.2864 0003506   6.4528  33.2425 15.75639285 36672 | 2016/03/05-09:52:43   72.7777   39.7173   33.2645   91.3915     6720.9496     6718.5933     6723.3060 -48.737117 -17.054510  -0.000316  -0.000152
1 40729U 98067GM  16066.56173156  .00086059  00000-0  54452-3 0  9996 | 2 40729  51.6367 193.3672 0002980  11.0674  77.2401 15.75834266 36851 | 2016/03/06-13:28:53   85.2606   88.3408   77.2734   91.3802     6720.3952     6718.3926     6722.3979 -50.237779 -11.937939  -0.000271  -0.000123
1 40729U 98067GM  16067.57615001  .00083435  00000-0  52456-3 0  9995 | 2 40729  51.6359 188.1413 0003095  11.4550  75.7872 15.75991941 37010 | 2016/03/07-13:49:39   97.7423   87.2766   75.8216   91.3710     6719.9470     6717.8672     6722.0268 -51.115505  -7.312409  -0.000292  -0.000104
1 40729U 98067GM  16069.34292847  .00101374  00000-0  62396-3 0  9998 | 2 40729  51.6367 179.0381 0005226  14.8861  24.4773 15.76384579 37297 | 2016/03/09-08:13:49   72.5060   39.3882   24.5021   91.3483     6718.8311     6715.3198     6722.3423 -51.629423   0.866853  -0.000507  -0.000126
1 40729U 98067GM  16070.49196317  .00099413  00000-0  60661-3 0  9994 | 2 40729  51.6401 173.1215 0003683  16.9056  68.0043 15.76597923 37474 | 2016/03/10-11:48:25   87.6611   84.9490   68.0434   91.3359     6718.2249     6715.7506     6720.6993 -51.268413   6.184641  -0.000363  -0.000064
1 40729U 98067GM  16071.75790661  .00082285  00000-0  49992-3 0  9999 | 2 40729  51.6354 166.5868 0005905  12.4407  62.6922 15.76759234 37674 | 2016/03/11-18:11:23  200.9602   75.1930   62.7523   91.3266     6717.7667     6713.7999     6721.7336 -50.226913  11.977967  -0.000590   0.000010
1 40729U 98067GM  16073.08743563  .00084694  00000-0  50923-3 0  9998 | 2 40729  51.6377 159.7303 0005283  24.1008  43.5583 15.76987620 37889 | 2016/03/13-02:05:54  335.2314   67.7008   43.6000   91.3133     6717.1181     6713.5695     6720.6668 -48.439895  17.889345  -0.000527  -0.000035
1 40729U 98067GM  16074.10181885  .00089450  00000-0  53280-3 0  9999 | 2 40729  51.6378 154.4978 0004807  29.6076  41.1703 15.77181050 38047 | 2016/03/14-02:26:37  343.5229   70.8142   41.2066   91.3021     6716.5689     6713.3402     6719.7976 -46.606665  22.232435  -0.000479  -0.000034
1 40729U 98067GM  16075.23574269  .00079197  00000-0  46980-3 0  9992 | 2 40729  51.6378 148.6448 0004733  31.5751   1.9236 15.77322304 38228 | 2016/03/15-05:39:28   75.9853   33.5005    1.9254   91.2940     6716.1679     6712.9891     6719.3467 -44.096508  26.869320  -0.000473  -0.000002
1 40729U 98067GM  16076.45141552  .00075893  00000-0  44707-3 0  9996 | 2 40729  51.6352 142.3684 0004780  41.9163  59.6236 15.77495467 38419 | 2016/03/16-10:50:02   93.0610  101.5872   59.6709   91.2839     6715.6764     6712.4663     6718.8865 -40.892652  31.527526  -0.000477  -0.000036
1 40729U 98067GM  16077.78193554  .00088555  00000-0  51408-3 0  9997 | 2 40729  51.6356 135.5052 0005239  43.3544  60.0500 15.77760057 38628 | 2016/03/17-18:45:59  218.3583  103.4564   60.1020   91.2686     6714.9256     6711.4076     6718.4435 -36.832399  36.188528  -0.000524   0.000010
1 40729U 98067GM  16079.04400149  .00087851  00000-0  50508-3 0  9997 | 2 40729  51.6363 128.9825 0005761  41.3478  35.8314 15.77976195 38821 | 2016/03/19-01:03:21  346.6939   77.2179   35.8701   91.2561     6714.3124     6710.4443     6718.1805 -32.483518  40.138865  -0.000568   0.000097
1 40729U 98067GM  16080.11239302  .00080818  00000-0  46216-3 0  9995 | 2 40729  51.6345 123.4542 0006715  38.4677 352.1967 15.78121366 38995 | 2016/03/20-02:41:50   64.4110   30.6539  352.1862   91.2477     6713.9006     6709.3922     6718.4090 -28.464563  43.080045  -0.000638   0.000208
1 40729U 98067GM  16081.12638461  .00074126  00000-0  42223-3 0  9995 | 2 40729  51.6365 118.2191 0006199  47.4378 347.9884 15.78247538 39152 | 2016/03/21-03:01:59   70.9207   35.4114  347.9736   91.2404     6713.5428     6709.3811     6717.7045 -24.416036  45.499289  -0.000601   0.000154
1 40729U 98067GM  16082.47634271  .00066872  00000-0  37878-3 0  9998 | 2 40729  51.6334 111.2452 0006487  42.2425 108.7478 15.78410569 39368 | 2016/03/22-11:25:56   89.6460  151.0607  108.8182   91.2310     6713.0805     6708.7257     6717.4353 -18.709877  48.124303  -0.000580   0.000290
1 40729U 98067GM  16083.48910068  .00063173  00000-0  35642-3 0  9999 | 2 40729  51.6344 106.0134 0005756  59.2309  90.6188 15.78527502 39526 | 2016/03/23-11:44:18  101.6095  149.9157   90.6848   91.2243     6712.7490     6708.8851     6716.6128 -14.243977  49.630841  -0.000557   0.000147
1 40729U 98067GM  16084.61980473  .00062736  00000-0  35175-3 0  9997 | 2 40729  51.6325 100.1680 0005935  60.5059  39.4275 15.78668032 39704 | 2016/03/24-14:52:31  205.5392   99.9766   39.4707   91.2161     6712.3506     6708.3668     6716.3344  -9.114945  50.821578  -0.000560   0.000196
1 40729U 98067GM  16085.63268670  .00062681  00000-0  34950-3 0  9997 | 2 40729  51.6326  94.9279 0005721  67.0915  33.3792 15.78793080 39861 | 2016/03/25-15:11:04  215.8778  100.5068   33.4153   91.2089     6711.9961     6708.1562     6715.8361  -4.435348  51.441744  -0.000544   0.000177
1 40729U 98067GM  16086.82897635  .00060103  00000-0  33331-3 0  9997 | 2 40729  51.6325  88.7396 0005878  67.8784 356.7568 15.78929253 40055 | 2016/03/26-19:53:43  329.7450   64.6314  356.7530   91.2010     6711.6102     6707.6651     6715.5553   1.135727  51.620008  -0.000540   0.000233
1 40729U 98067GM  16087.84328478  .00057901  00000-0  31976-3 0  9999 | 2 40729  51.6323  83.4888 0005798  70.7036   3.4731 15.79037984 40213 | 2016/03/27-20:14:19  331.6051   74.1807    3.4771   91.1948     6711.3021     6707.4109     6715.1933   5.854970  51.299257  -0.000522   0.000252
1 40729U 98067GM  16088.85532434  .00057973  00000-0  31847-3 0  9996 | 2 40729  51.6341  78.2534 0005696  85.2547 346.0226 15.79155749 40370 | 2016/03/28-20:31:40  345.0716   71.2615  346.0068   91.1880     6710.9685     6707.1459     6714.7910  10.511859  50.552756  -0.000546   0.000162
1 40729U 98067GM  16090.18823744  .00081324  00000-0  43864-3 0  9991 | 2 40729  51.6331  71.3598 0005554  97.9916 356.8649 15.79426676 40587 | 2016/03/30-04:31:03   89.5485   94.8530  356.8614   91.1723     6710.2010     6706.4741     6713.9278  16.503189  48.924654  -0.000546   0.000103
1 40729U 98067GM  16091.20028161  .00088070  00000-0  47015-3 0  9992 | 2 40729  51.6348  66.1125 0005865  85.4119   8.1642 15.79620275 40744 | 2016/03/31-04:48:24  101.4097   93.5857    8.1738   91.1611     6709.6527     6705.7175     6713.5879  20.909105  47.211883  -0.000516   0.000280
1 40729U 98067GM  16092.41006924  .00085112  00000-0  45050-3 0  9990 | 2 40729  51.6363  59.8490 0006336  94.2235  44.0479 15.79817492 40933 | 2016/04/01-09:50:29  139.6938  138.3219   44.0984   91.1498     6709.0943     6704.8434     6713.3452  25.935913  44.650150  -0.000570   0.000277
1 40729U 98067GM  16094.17438465  .00064051  00000-0  33781-3 0  9991 | 2 40729  51.6356  50.7074 0006198 102.1151 357.7029 15.80009184 41215 | 2016/04/03-04:11:06  104.1814   99.8152  357.7001   91.1387     6708.5516     6704.3937     6712.7096  32.699840  39.961927  -0.000551   0.000283
1 40729U 98067GM  16095.31750863  .00071034  00000-0  37080-3 0  9992 | 2 40729  51.6348  44.7812 0006436  99.2457  27.5606 15.80191734 41394 | 2016/04/04-07:37:12  135.7706  126.8404   27.5947   91.1282     6708.0350     6703.7177     6712.3523  36.650479  36.371623  -0.000521   0.000378
1 40729U 98067GM  16096.45117050  .00085906  00000-0  44233-3 0  9994 | 2 40729  51.6342  38.9135 0006455 122.7577 338.0381 15.80417020 41576 | 2016/04/05-10:49:41  216.8845  100.7681  338.0104   91.1152     6707.3975     6703.0678     6711.7271  40.176321  32.433837  -0.000613   0.000203
1 40729U 98067GM  16097.83383816  .00081780  00000-0  41755-3 0  9994 | 2 40729  51.6339  31.7399 0005434 114.4770 298.7972 15.80628451 41798 | 2016/04/06-20:00:43   50.7029   53.2196  298.7426   91.1030     6706.7993     6703.1548     6710.4438  43.911791  27.162737  -0.000452   0.000302
1 40729U 98067GM  16099.04126406  .00081605  00000-0  41296-3 0  9995 | 2 40729  51.6341  25.4737 0005572 124.7869 324.1404 15.80822479 41984 | 2016/04/08-00:59:25   97.1794   88.8899  324.1030   91.0918     6706.2505     6702.5138     6709.9872  46.614378  22.207658  -0.000484   0.000276
1 40729U 98067GM  16100.12411508  .00090103  00000-0  45074-3 0  9998 | 2 40729  51.6371  19.8567 0005403 138.1785 357.8780 15.81035148 42154 | 2016/04/09-02:58:43   86.5609  136.0542  357.8757   91.0796     6705.6491     6702.0261     6709.2722  48.567021  17.539514  -0.000501   0.000202
1 40729U 98067GM  16101.26227774  .00091200  00000-0  45175-3 0  9995 | 2 40729  51.6365  13.9545 0005754 143.7576 355.2279 15.81241524 42339 | 2016/04/10-06:17:40  140.3945  138.9800  355.2224   91.0677     6705.0656     6701.2076     6708.9237  50.112580  12.452208  -0.000532   0.000218
1 40729U 98067GM  16102.83731365  .00082079  00000-0  40304-3 0  9998 | 2 40729  51.6358   5.7707 0005135 146.3768 325.1102 15.81476192 42584 | 2016/04/11-20:05:43   24.6421  111.4533  325.0765   91.0542     6704.4023     6700.9596     6707.8451  51.374123   5.191852  -0.000454   0.000240
1 40729U 98067GM  16104.10859552  .00085491  00000-0  41518-3 0  9998 | 2 40729  51.6310 359.1726 0005918 144.4195  10.2571 15.81692864 42781 | 2016/04/13-02:36:22   86.9651  154.6887   10.2692   91.0417     6703.7900     6699.8227     6707.7574  51.625617  -0.745570  -0.000476   0.000351
1 40729U 98067GM  16105.66072411  .00215905  00000-0  10259-2 0  9993 | 2 40729  51.6325 351.1142 0004939 170.8176 189.3437 15.82154090 43038 | 2016/04/14-15:51:26   89.8350    0.1521  189.3345   91.0152     6702.4871     6699.1768     6705.7975  51.012816  -7.975441  -0.000470   0.000153
1 40729U 98067GM  16106.87939318  .00128229  00000-0  59647-3 0  9992 | 2 40729  51.6379 344.7673 0006054 183.6073 283.1406 15.82452361 43224 | 2016/04/15-21:06:19   69.5173  106.6803  283.0730   90.9980     6701.6449     6697.5877     6705.7021  49.823690 -13.567336  -0.000593   0.000122
1 40729U 98067GM  16107.88649409  .00107447  00000-0  49804-3 0  9996 | 2 40729  51.6287 339.5370 0006622 162.2084 285.6872 15.82596152 43382 | 2016/04/16-21:16:33   97.1489   87.8225  285.6141   90.9897     6701.2390     6696.8014     6705.6765  48.370833 -18.049519  -0.000520   0.000410
1 40729U 98067GM  16108.89774425  .00098960  00000-0  45571-3 0  9991 | 2 40729  51.6353 334.2708 0005891 182.6643 270.8671 15.82775304 43546 | 2016/04/17-21:32:45  101.8261   93.4639  270.7996   90.9794     6700.7333     6696.7859     6704.6807  46.515964 -22.415826  -0.000542   0.000231
1 40729U 98067GM  16110.04454150  .00110847  00000-0  50269-3 0  9990 | 2 40729  51.6337 328.3189 0007026 195.2316 317.7964 15.83045668 43724 | 2016/04/19-01:04:08  102.2587  152.9739  317.7423   90.9639     6699.9703     6695.2629     6704.6777  43.939473 -27.117553  -0.000674   0.000199
1 40729U 98067GM  16111.04988207  .00100617  00000-0  45349-3 0  9993 | 2 40729  51.6343 323.0788 0006811 205.8748 280.6549 15.83217693 43889 | 2016/04/20-01:11:49  136.9106  126.4530  280.5782   90.9540     6699.4850     6694.9220     6704.0480  41.279684 -31.017554  -0.000668   0.000131
1 40729U 98067GM  16112.06146796  .00085003  00000-0  38223-3 0  9999 | 2 40729  51.6283 317.8000 0004482 213.9661 282.2310 15.83351089 44047 | 2016/04/21-01:28:30  137.6900  136.1469  282.1808   90.9463     6699.1087     6696.1062     6702.1112  38.246482 -34.679792  -0.000444   0.000064
1 40729U 98067GM  16113.07249317  .00078897  00000-0  35275-3 0  9991 | 2 40729  51.6316 312.5395 0005312 212.2417 291.0113 15.83495489 44207 | 2016/04/22-01:44:23  140.8602  143.1962  290.9545   90.9381     6698.7014     6695.1431     6702.2598  34.908039 -38.042752  -0.000513   0.000139
1 40729U 98067GM  16114.44999859  .00080039  00000-0  35407-3 0  9994 | 2 40729  51.6325 305.3609 0005235 219.1644 222.5636 15.83715617 44428 | 2016/04/23-10:47:59  346.8235   81.6874  222.5230   90.9254     6698.0807     6694.5742     6701.5871  29.881007 -42.107487  -0.000505   0.000140
1 40729U 98067GM  16115.71239399  .00204875  00000-0  86786-3 0  9993 | 2 40729  51.6343 298.7894 0005162 240.8204 204.2851 15.84212079 44624 | 2016/04/24-17:05:50   85.7241   85.0812  204.2608   90.8969     6696.6813     6693.2244     6700.1381  24.866642 -45.252083  -0.000516   0.000004
1 40729U 98067GM  16116.91640616 +.00148708 +00000-0 +62603-3 0  9998 | 2 40729 051.6334 292.5033 0007574 206.2578 270.6141 15.84482957044814 | 2016/04/25-21:59:37  134.8749  116.7851  270.5273   90.8814     6695.9180     6690.8465     6700.9895  19.761994 -47.701903  -0.000570   0.000499
1 40729U 98067GM  16118.47890971  .00086356  00000-0  36449-3 0  9991 | 2 40729  51.6325 284.3491 0005750 251.5215 144.3073 15.84669593 45068 | 2016/04/27-11:29:37   68.1136   35.8672  144.3457   90.8707     6695.3922     6691.5424     6699.2421  12.796048 -50.021757  -0.000574   0.000041
1 40729U 98067GM  16119.68749079  .00095464  00000-0  39768-3 0  9994 | 2 40729  51.6338 278.0398 0005543 251.0273 204.7601 15.84906537 45258 | 2016/04/28-16:29:59   90.7447   95.7608  204.7335   90.8571     6694.7249     6691.0140     6698.4358   7.221552 -51.126299  -0.000544   0.000105
1 40729U 98067GM  16120.69607125  .00103415  00000-0  42539-3 0  9998 | 2 40729  51.6363 272.7760 0006213 266.5244 188.2787 15.85132464 45414 | 2016/04/29-16:42:20  101.0759   94.7929  188.2685   90.8441     6694.0888     6689.9297     6698.2478   2.500818 -51.575705  -0.000621   0.000008
1 40729U 98067GM  16121.84110046  .00103375  00000-0  42046-3 0  9995 | 2 40729  51.6356 266.8083 0006473 275.8702 237.9226 15.85364233 45598 | 2016/04/30-20:11:11  101.3930  153.7300  237.8598   90.8309     6693.4363     6689.1037     6697.7690  -2.874908 -51.555505  -0.000647  -0.000030
1 40729U 98067GM  16122.84490095  .00109422  00000-0  43974-3 0  9991 | 2 40729  51.6327 261.5638 0006570 281.6077 205.5188 15.85590137 45752 | 2016/05/01-20:16:39  135.6614  127.0941  205.4864   90.8179     6692.8006     6688.4034     6697.1977  -7.574932 -51.074026  -0.000656  -0.000036
1 40729U 98067GM  16124.53821935  .00145547  00000-0  56711-3 0  9991 | 2 40729  51.6338 252.7030 0005858 293.7615 147.3608 15.86115240 46022 | 2016/05/03-12:55:02   81.7900   81.1585  147.3970   90.7879     6691.3233     6687.4036     6695.2431 -15.352014 -49.298732  -0.000582  -0.000066
1 40729U 98067GM  16125.61142487  .00150547  00000-0  57689-3 0  9990 | 2 40729  51.6328 247.0873 0006561 297.8599 156.0894 15.86436313 46190 | 2016/05/04-14:40:27  101.9905   93.9797  156.1198   90.7695     6690.4205     6686.0309     6694.8101 -20.102101 -47.558927  -0.000654  -0.000057
1 40729U 98067GM  16127.18162325  .00122440  00000-0  46349-3 0  9999 | 2 40729  51.6341 238.8860 0008050 304.1404 124.2771 15.86758003 46443 | 2016/05/06-04:21:32  342.5427   68.4937  124.3533   90.7511     6689.5162     6684.1311     6694.9013 -26.681536 -44.206062  -0.000804  -0.000043
1 40729U 98067GM  16128.43684204  .00119069  00000-0  44486-3 0  9996 | 2 40729  51.6318 232.3123 0008340 308.2242  95.8297 15.87033183 46649 | 2016/05/07-10:29:03  106.5959   44.1490   95.9248   90.7353     6688.7429     6683.1645     6694.3213 -31.565471 -40.859072  -0.000834  -0.000008
1 40729U 98067GM  16129.51477675  .00129347  00000-0  47563-3 0  9997 | 2 40729  51.6328 226.6640 0008101 314.8777 132.5852 15.87325955 46817 | 2016/05/08-12:21:16   97.9542   87.5312  132.6535   90.7186     6687.9204     6682.5025     6693.3383 -35.434325 -37.554689  -0.000810  -0.000022
1 40729U 98067GM  16130.52303252  .00148413  00000-0  53547-3 0  9993 | 2 40729  51.6325 221.3922 0007099 309.6525 144.0820 15.87663964 46972 | 2016/05/09-12:33:10  100.9203   93.7822  144.1297   90.6993     6686.9712     6682.2241     6691.7182 -38.734758 -34.139912  -0.000701   0.000111
1 40729U 98067GM  16131.53095435  .00167528  00000-0  59178-3 0  9990 | 2 40729  51.6313 216.1060 0007713 317.0569 142.2126 15.88029062 47132 | 2016/05/10-12:44:34  104.5168   99.3236  142.2667   90.6784     6685.9462     6680.7893     6691.1031 -41.714382 -30.425342  -0.000766   0.000092
1 40729U 98067GM  16132.66783773  .00156643  00000-0  54800-3 0  9997 | 2 40729  51.6290 210.1431 0008835 328.7009 154.7025 15.88240111 47312 | 2016/05/11-16:01:41  136.7444  123.4466  154.7457   90.6664     6685.3539     6679.4474     6691.2604 -44.647413 -25.926091  -0.000883   0.000018
1 40729U 98067GM  16134.22616152  .00100096  00000-0  34853-3 0  9994 | 2 40729  51.6305 201.9663 0009178 336.2105  63.9020 15.88513364 47562 | 2016/05/13-05:25:40   70.7446   40.2070   63.9965   90.6508     6684.5872     6678.4521     6690.7223 -47.882334 -19.312966  -0.000917   0.000029
1 40729U 98067GM  16135.43055156  .00100009  00000-0  34410-3 0  9992 | 2 40729  51.6302 195.6431 0009298 340.9248 111.8829 15.88750132 47751 | 2016/05/14-10:19:59   99.1401   92.9065  111.9817   90.6373     6683.9231     6677.7083     6690.1378 -49.717818 -13.921788  -0.000928   0.000056
1 40729U 98067GM  16136.43765625  .00115663  15911-4  40594-3 0  9995 | 2 40729  51.6295 190.3762 0008956 340.9047 116.4805 15.89008484 47918 | 2016/05/15-10:30:13  103.3798   97.4770  116.5723   90.6225     6683.1986     6677.2131     6689.1840 -50.785170  -9.299018  -0.000885   0.000136
1 40729U 98067GM  16138.13579052  .00135208  17714-4  46065-3 0  9990 | 2 40729  51.6288 181.4291 0010191 351.0910 108.5291 15.89492717 48181 | 2016/05/17-03:15:32    3.0941   99.7308  108.6398   90.5949     6681.8411     6675.0317     6688.6506 -51.612741  -1.287618  -0.001010   0.000133
1 40729U 98067GM  16139.20608521  .00131062  17345-4  44057-3 0  9996 | 2 40729  51.6317 175.8096 0010079 355.6432 113.1069 15.89774978 48354 | 2016/05/18-04:56:45   25.9447  108.8563  113.2131   90.5789     6681.0502     6674.3164     6687.7841 -51.493675   3.772785  -0.000997   0.000150
1 40729U 98067GM  16140.53494900  .00120629  16427-4  40005-3 0  9994 | 2 40729  51.6316 168.8251 0009550 359.9212 160.1105 15.90094275 48566 | 2016/05/19-12:50:19  101.3483  160.0689  160.1477   90.5607     6680.1558     6673.7763     6686.5354 -50.652673  10.006441  -0.000937   0.000186
1 40729U 98067GM  16142.16036866  .00103959  15097-4  34062-3 0  9993 | 2 40729  51.6289 160.2741 0009194   6.7932 104.9794 15.90425633 48820 | 2016/05/21-03:50:55   24.9116  111.8743  105.0811   90.5418     6679.2279     6673.0870     6685.3688 -48.599216  17.425828  -0.000896   0.000206
1 40729U 98067GM  16143.42203586  .00115281  16024-4  37079-3 0  9991 | 2 40729  51.6300 153.6337 0008934  12.6759 128.4603 15.90728999 49029 | 2016/05/22-10:07:43   97.6321  141.2163  128.5404   90.5245     6678.3787     6672.4122     6684.3452 -46.259093  22.929310  -0.000868   0.000211
1 40729U 98067GM  16144.42929486  .00110696  15665-4  35217-3 0  9993 | 2 40729  51.6293 148.3291 0009637  15.6845 137.9934 15.90954194 49187 | 2016/05/23-10:18:11   94.0011  153.7517  138.0672   90.5117     6677.7485     6671.3131     6684.1838 -43.940555  27.107420  -0.000926   0.000265
1 40729U 98067GM  16145.43391420  .00099924  14850-4  31586-3 0  9996 | 2 40729  51.6301 143.0358 0009313  19.4155 132.4212 15.91148362 49340 | 2016/05/24-10:24:50  103.7887  151.9154  132.4999   90.5007     6677.2052     6670.9867     6683.4237 -41.253038  31.046000  -0.000888   0.000281
1 40729U 98067GM  16146.79973582  .00101817  15010-4  31704-3 0  9997 | 2 40729  51.6301 135.8365 0009233  24.5149  36.9648 15.91429290 49565 | 2016/05/25-19:11:37  334.3870   61.5434   37.0285   90.4847     6676.4194     6670.2551     6682.5837 -37.037089  35.971117  -0.000870   0.000310
1 40729U 98067GM  16147.80585647  .00099575  14859-4  30729-3 0  9994 | 2 40729  51.6276 130.5405 0008550  29.4723  40.5042 15.91628293 49727 | 2016/05/26-19:20:25  334.3814   70.0402   40.5679   90.4734     6675.8629     6670.1550     6681.5707 -33.557185  39.234225  -0.000804   0.000292
1 40729U 98067GM  16148.81022576  .00096904  14679-4  29637-3 0  9992 | 2 40729  51.6294 125.2444 0008558  34.1289  35.0018 15.91819666 49884 | 2016/05/27-19:26:43  343.0862   69.1870   35.0581   90.4625     6675.3278     6669.6151     6681.0406 -29.793539  42.165626  -0.000801   0.000301
1 40729U 98067GM  16149.93431050 +.00131751 +17654-4 +39262-3 0  9998 | 2 40729 051.6285 119.3175 0008293 037.6098 358.2570 15.92144350050068 | 2016/05/28-22:25:24   68.0554   35.8639  358.2541   90.4441     6674.4202     6668.8851     6679.9553 -25.279832  45.015909  -0.000763   0.000325
1 40729U 98067GM  16150.93907172 +.00137348 +18245-4 +40290-3 0  9991 | 2 40729 051.6281 114.0144 0007958 043.9612 355.3991 15.92430950050228 | 2016/05/29-22:32:15   72.5694   39.3530  355.3918   90.4278     6673.6194     6668.3085     6678.9303 -21.010893  47.159337  -0.000738   0.000298
1 40729U 98067GM  16152.14172271  .00192471  25144-4  54642-3 0  9990 | 2 40729  51.6304 107.6721 0007074  59.9042  39.8503 15.92932239 50417 | 2016/05/31-03:24:04   92.6572   99.8065   39.9023   90.3993     6672.2192     6667.4993     6676.9391 -15.673396  49.193931  -0.000691   0.000152
1 40729U 98067GM  16153.14493375  .00152523  19987-4  42873-3 0  9997 | 2 40729  51.6291 102.3651 0007576  53.3123  43.7504 15.93201745 50575 | 2016/06/01-03:28:42  102.8008   97.1228   43.8105   90.3840     6671.4667     6666.4124     6676.5211 -11.055875  50.431454  -0.000690   0.000312
1 40729U 98067GM  16154.34377411  .00165116  21558-4  45362-3 0  9997 | 2 40729  51.6291  96.0270 0006836  59.8117  78.8681 15.93612458 50766 | 2016/06/02-08:15:02  140.2860  138.7567   78.9450   90.3607     6670.3204     6665.7606     6674.8803  -5.420906  51.343722  -0.000624   0.000280
1 40729U 98067GM  16155.83032469  .00143382  19070-4  38635-3 0  9995 | 2 40729  51.6285  88.1660 0006766  65.7060 328.2862 15.94036711 51003 | 2016/06/03-19:55:40   69.4580   33.9514  328.2454   90.3367     6669.1368     6664.6245     6673.6492   1.652312  51.602053  -0.000607   0.000298
1 40729U 98067GM  16156.83415513  .00127513  17462-4  34029-3 0  9995 | 2 40729  51.6278  82.8553 0006177  71.9636 326.8987 15.94280740 51163 | 2016/06/04-20:01:11   72.2670   38.8236  326.8600   90.3229     6668.4563     6664.3372     6672.5754   6.421240  51.226921  -0.000559   0.000263
1 40729U 98067GM  16157.96989656 +.00147794 +19636-4 +38566-3 0  9992 | 2 40729 051.6294 076.8451 0005930 082.6344 359.9395 15.94633940051346 | 2016/06/05-23:16:39   84.5519   82.5738  359.9394   90.3029     6667.4716     6663.5178     6671.4254  11.750049  50.274559  -0.000555   0.000208
1 40729U 98067GM  16159.17184808  .00206128  27713-4  51955-3 0  9992 | 2 40729  51.6291  70.4769 0004910  87.0167  61.5474 15.95167475 51535 | 2016/06/07-04:07:27   98.8172  148.6136   61.5969   90.2727     6665.9848     6662.7118     6669.2578  17.253768  48.660780  -0.000454   0.000188
1 40729U 98067GM  16160.17472376  .00168395  22274-4  41876-3 0  9995 | 2 40729  51.6291  65.1614 0004609  94.7893  57.3827 15.95487738 51690 | 2016/06/08-04:11:36  102.5485  152.2165   57.4272   90.2545     6665.0927     6662.0208     6668.1646  21.687503  46.853134  -0.000433   0.000158
1 40729U 98067GM  16161.79564703  .00147612  19790-4  35874-3 0  9999 | 2 40729  51.6293  56.5645 0004307 104.4140   5.7210 15.95965786 51955 | 2016/06/09-19:05:43   18.3125  110.1399    5.7259   90.2275     6663.7617     6660.8916     6666.6318  28.447636  43.084993  -0.000407   0.000140
1 40729U 98067GM  16162.84920019  .00138496  18808-4  33191-3 0  9991 | 2 40729  51.6301  50.9758 0004098 113.8676 294.1136 15.96251778 52124 | 2016/06/10-20:22:50  106.3725   47.9383  294.0707   90.2113     6662.9657     6660.2352     6665.6962  32.508819  40.110397  -0.000396   0.000107
1 40729U 98067GM  16163.85623615  .00162859  21737-4  38152-3 0  9992 | 2 40729  51.6290  45.6232 0003780 112.4478 327.1215 15.96602071 52289 | 2016/06/11-20:32:58   83.6626   79.5458  327.0980   90.1915     6661.9911     6659.4729     6664.5093  36.107979  36.902134  -0.000351   0.000141
1 40729U 98067GM  16164.92725317 +.00190795 +25730-4 +43513-3 0  9997 | 2 40729 051.6280 039.9411 0003038 128.9278 351.7234 15.97038103052452 | 2016/06/12-22:15:14   74.8845  120.6462  351.7184   90.1669     6660.7785     6658.7549     6662.8020  39.583437  33.145165  -0.000298   0.000059
1 40729U 98067GM  16166.05797543  .00208914  28742-4  46315-3 0  9995 | 2 40729  51.6267  33.9293 0002592 143.7083   3.3390 15.97524028 52631 | 2016/06/14-01:23:29  102.6747  147.0490    3.3407   90.1395     6659.4277     6657.7016     6661.1538  42.836065  28.816449  -0.000259   0.000011
1 40729U 98067GM  16167.48294866  .00205925  28382-4  44272-3 0  9992 | 2 40729  51.6309  26.3515 0001776 154.6820 274.4688 15.98082806 52864 | 2016/06/15-11:35:26  342.5439   69.1305  274.4485   90.1080     6657.8753     6656.6928     6659.0577  46.265820  22.917759  -0.000178  -0.000003
1 40729U 98067GM  16168.48392039  .00231857  33150-4  48414-3 0  9998 | 2 40729  51.6309  21.0224 0001936 166.7836 265.9511 15.98569318 53029 | 2016/06/16-11:36:50  345.6255   72.7126  265.9290   90.0805     6656.5244     6655.2357     6657.8131  48.194360  18.521703  -0.000192  -0.000026
1 40729U 98067GM  16169.55011649  .00187954  25700-4  38572-3 0  9996 | 2 40729  51.6292  15.3407 0002094 198.9820 254.4050 15.98936945 53198 | 2016/06/17-13:12:10  355.5364   93.3639  254.3819   90.0598     6655.5040     6654.1104     6656.8977  49.789638  13.658926  -0.000173  -0.000118
1 40729U 98067GM  16170.55074866  .00191125  26277-4  38370-3 0  9999 | 2 40729  51.6294  10.0031 0001953 208.5668 249.2801 15.99319749 53358 | 2016/06/18-13:13:04  357.6280   97.8260  249.2592   90.0383     6654.4420     6653.1423     6655.7416  50.844548   8.968102  -0.000153  -0.000122
1 40729U 98067GM  16171.79926986  .00217641  30901-4  42216-3 0  9990 | 2 40729  51.6266   3.3477 0003301 226.8777 225.6403 15.99877421 53553 | 2016/06/19-19:10:56  100.3105   92.4910  225.6133   90.0069     6652.8955     6650.6994     6655.0916  51.538502   3.014743  -0.000211  -0.000254
1 40729U 98067GM  16172.99308815  .00180965  24932-4  34343-3 0  9995 | 2 40729  51.6273 356.9804 0002519 247.5105 246.5642 16.00318872 53748 | 2016/06/20-23:50:02  136.0724  134.0482  246.5377   89.9821     6651.6720     6649.9964     6653.3475  51.555619  -2.719601  -0.000108  -0.000227
1 40729U 98067GM  16174.47255118  .00181804  25174-4  33446-3 0  9992 | 2 40729  51.6303 349.0770 0002201 255.4454 129.3376 16.00857216 53988 | 2016/06/22-11:20:28   67.3324   24.8025  129.3571   89.9518     6650.1806     6648.7169     6651.6444  50.694900  -9.783405  -0.000095  -0.000199
1 40729U 98067GM  16175.59830188  .00188788  26354-4  33853-3 0  9993 | 2 40729  51.6295 343.0618 0003334 267.9554 129.9252 16.01278899 54165 | 2016/06/23-14:21:33  106.6299   37.9099  129.9545   89.9281     6649.0131     6646.7963     6651.2299  49.389789 -15.041741  -0.000108  -0.000315
1 40729U 98067GM  16176.67040832  .00219972  31904-4  38202-3 0  9992 | 2 40729  51.6275 337.3261 0003838 279.6927 183.7492 16.01778685 54337 | 2016/06/24-16:05:23   73.8193  103.4390  183.7463   89.9001     6647.6299     6645.0786     6650.1813  47.637406 -19.901666  -0.000086  -0.000374
1 40729U 98067GM  16177.92381838  .00239419  35962-4  40053-3 0  9998 | 2 40729  51.6262 330.6193 0004461 282.8672 214.6314 16.02386906 54530 | 2016/06/25-22:10:17  138.9324  137.4696  214.6024   89.8659     6645.9477     6642.9829     6648.9124  44.985993 -25.328343  -0.000127  -0.000428
1 40729U 98067GM  16179.28396873  .00224257  33111-4  36249-3 0  9994 | 2 40729  51.6278 323.3261 0005413 297.5362 132.8762 16.02971372 54758 | 2016/06/27-06:48:54  344.3066   70.4578  132.9216   89.8332     6644.3321     6640.7355     6647.9287  41.407963 -30.835212  -0.000086  -0.000534
1 40729U 98067GM  16180.79333946  .00234021  35321-4  36211-3 0  9998 | 2 40729  51.6259 315.2323 0006546 302.9402 205.5222 16.03674951 54999 | 2016/06/28-19:02:24   99.2116  148.4301  205.4899   89.7938     6642.3886     6638.0405     6646.7367  36.652729 -36.356718  -0.000134  -0.000641
1 40729U 98067GM  16182.27716109  .00209666  30747-4  31332-3 0  9992 | 2 40729  51.6249 307.2662 0006846 311.5708 130.7858 16.04274050 55232 | 2016/06/30-06:39:06  348.9218   82.4160  130.8452   89.7602     6640.7348     6636.1885     6645.2810  31.259859 -41.084687  -0.000133  -0.000672
1 40729U 98067GM  16183.52316770  .00210186  31002-4  30429-3 0  9991 | 2 40729  51.6271 300.5778 0007349 318.5353 126.0590 16.04786089 55436 | 2016/07/01-12:33:21   83.1630   84.6623  126.1270   89.7316     6639.3221     6634.4429     6644.2014  26.263112 -44.447794  -0.000139  -0.000722
1 40729U 98067GM  16184.77465868  .00232723  35698-4  32392-3 0  9999 | 2 40729  51.6258 293.8479 0007812 319.5460 161.6490 16.05392827 55638 | 2016/07/02-18:35:30  145.0625  121.2232  161.6772   89.6977     6637.6492     6632.4639     6642.8345  20.872831 -47.218091  -0.000223  -0.000749
1 40729U 98067GM  16186.19954669  .00242009  37975-4  32309-3 0  9995 | 2 40729  51.6240 286.1810 0007962 332.9037 110.6083 16.06053502 55860 | 2016/07/04-04:47:20  344.7765   83.5974  110.6937   89.6608     6635.8287     6630.5453     6641.1122  14.386197 -49.578975  -0.000151  -0.000782
1 40729U 98067GM  16187.44321881  .00244925  38888-4  31445-3 0  9991 | 2 40729  51.6245 279.4769 0009073 336.5601 103.9030 16.06653874 56063 | 2016/07/05-10:38:14   83.4773   80.5640  104.0039   89.6273     6634.1755     6628.1563     6640.1947   8.499971 -50.919932  -0.000219  -0.000880
1 40729U 98067GM  16188.50307213 +.00257935 +42198-4 +31949-3 0  9995 | 2 40729 051.6255 273.7654 0009278 339.1997 116.7267 16.07206212056232 | 2016/07/06-12:04:25   96.3173   96.0213  116.8216   89.5965     6632.6555     6626.5017     6638.8093   3.390315 -51.514056  -0.000272  -0.000887
1 40729U 98067GM  16190.11630058  .00318499  59488-4  37022-3 0  9992 | 2 40729  51.6242 265.0601 0009343 340.6711  98.3417 16.08163259 56492 | 2016/07/08-02:47:28  344.2885   79.1187   98.4476   89.5431     6630.0238     6623.8293     6636.2182  -4.445398 -51.432446  -0.000384  -0.000852
1 40729U 98067GM  16191.22691263  .00489676  13140-3  52627-3 0  9998 | 2 40729  51.6175 259.0590 0009495 349.2832  46.4598 16.09327008 56673 | 2016/07/09-05:26:45   74.4744   35.8219   46.5387   89.4784     6626.8271     6620.5350     6633.1193  -9.796902 -50.679256  -0.000350  -0.000882
1 40729U 98067GM  16192.29610344  .00547950  16692-3  54436-3 0  9992 | 2 40729  51.6201 253.2647 0010419 347.5884 129.1898 16.10494023 56843 | 2016/07/10-07:06:23   25.1961  116.8707  129.2823   89.4136     6623.6254     6616.7242     6630.5266 -14.864038 -49.433745  -0.000507  -0.000910
1 40729U 98067GM  16193.54106427  .00534317  16204-3  48845-3 0  9992 | 2 40729  51.6255 246.5156 0010579 348.6595 153.7528 16.11727960 57046 | 2016/07/11-12:59:07   95.7240  142.4658  153.8063   89.3451     6620.2443     6613.2407     6627.2478 -20.572729 -47.349288  -0.000604  -0.000868
1 40729U 98067GM  16195.13323198  .00692193  28567-3  55022-3 0  9992 | 2 40729  51.6265 237.8681 0010640 359.5603  32.9527 16.13763073 57306 | 2016/07/13-03:11:51   69.0205   32.5794   33.0191   89.2324     6614.6773     6607.6392     6621.7153 -27.458594 -43.718659  -0.000573  -0.000897
1 40729U 98067GM  16196.19893215  .00801957  40522-3  56507-3 0  9995 | 2 40729  51.6075 232.0449 0012431 353.2931 117.9617 16.15426066 57471 | 2016/07/14-04:46:27   20.8044  111.3805  118.0874   89.1406     6610.1368     6601.9198     6618.3539 -31.740871 -40.692151  -0.000874  -0.000884
1 40729U 98067GM  16197.37239854  .00826004  11791-4  50257-3 0  9992 | 2 40729  51.6141 225.6343 0011748 355.2386 109.0582 16.17340648 57669 | 2016/07/15-08:56:15   97.7775  104.4240  109.1854   89.0350     6604.9192     6597.1597     6612.6786 -36.090411 -36.898476  -0.000888  -0.000769
1 40729U 98067GM  16198.46583246  .00975782  11855-4  49891-3 0  9991 | 2 40729  51.6195 219.6279 0011180   0.7322 359.3725 16.19634790 57846 | 2016/07/16-11:10:47  242.6900    0.1033  359.3711   88.9089     6598.6806     6591.3033     6606.0580 -39.757481 -32.922871  -0.000852  -0.000724
1 40729U 98067GM  16199.51387420  .01139357  11923-4  47837-3 0  9999 | 2 40729  51.6163 213.8668 0010443 358.4313   1.7089 16.22130869 58016 | 2016/07/17-12:19:58  266.7436    0.1438    1.7125   88.7721     6591.9097     6585.0258     6598.7936 -42.858838 -28.763909  -0.000883  -0.000558
1 40729U 98067GM  16200.74459128  .01390344  12019-4  43795-3 0  9993 | 2 40729  51.6162 207.0701 0007788  18.7409 341.2360 16.25620168 58213 | 2016/07/18-17:52:12  357.9748  359.9482  341.2073   88.5816     6582.4735     6577.3471     6587.6000 -45.961667 -23.489515  -0.000543  -0.000558
1 40729U 98067GM  16201.91064840 +.01988817 +12175-4 +38588-3 0  9991 | 2 40729 051.6076 200.5401 0014103 359.9875 359.9625 16.30641962058400 | 2016/07/19-21:51:20   65.4616  359.9499  359.9624   88.3088     6568.9522     6559.6880     6578.2163 -48.326743 -18.107190  -0.001321  -0.000495
1 40729U 98067GM  16202.94824483  .87005214  12670-4  39272-3 0  9998 | 2 40729  51.5890 194.7247 0013262 168.5360 192.8102 16.55509029 58579 | 2016/07/20-22:45:28   84.4382    1.3126  192.7766   86.9823     6503.0058     6494.3815     6511.6300 -49.894728 -13.112629   0.001324   0.000075
