# SPACE DATA - HISTORICAL TLEs
# ----------------------------
# NORAD_ID    : 39132
# OBJECT_NAME : DOVE 2
# --------------------------------------------------------------------+-----------------------------------------------------------------------+----------------------------------------------------------------------------------------------------------------------------------------
#                  LINE 1                                             |                 LINE 2                                                |      DERIVED PARAMETERS
# --------------------------------------------------------------------+-----------------------------------------------------------------------+----------------------------------------------------------------------------------------------------------------------------------------
# NORAD  COSPAR     TLE_EPOCH      MEANMOT1 MEANMOT2   BSTAR  #  REV  |   NORAD    INC     RAAN     ECC    ARGPER  MEANANOM   MEANMOT     REV |  CAL_DATE              LONG     ARGLAT     PERIOD        SMA         PERIGEE        APOGEE      INC_X      INC_Y      ECC_X      ECC_Y
# ------ ------   -------------- ----------  -------  ------- -- ----     -----  ------- -------- ------- -------- -------- -----------  ----   ------------------- ---------  --------  --------  ------------  ------------   ----------- ---------- ----------  ---------  ---------   
1 40956U 98067HH  15279.90076628 -.00000491  00000-0  00000+0 0  9990 | 2 40956  51.6424 246.4325 0009047  19.6215   5.7072 15.54825305    30 | 2015/10/06-21:37:06   67.7424   25.3390    5.7175   92.6149     6780.7975     6774.6629     6786.9321 -20.648138 -47.334891  -0.000062  -0.000903
1 40956U 98067HH  15281.07046294  .00031759  00000-0  47138-3 0  9994 | 2 40956  51.6412 240.6013 0005417  25.9356  71.1655 15.54902473   216 | 2015/10/08-01:41:27   64.0449   97.1599   71.2243   92.6103     6780.5731     6776.9001     6784.2462 -25.349838 -44.991102  -0.000033  -0.000541
1 40956U 98067HH  15282.36322348  .00031920  00000-0  47138-3 0  9994 | 2 40956  51.6440 234.1383 0009734  28.4718 110.1475 15.55002915   410 | 2015/10/09-08:43:02  135.6577  138.7240  110.2522   92.6043     6780.2812     6773.6812     6786.8811 -30.254643 -41.854024  -0.000125  -0.000965
1 40956U 98067HH  15284.86256149  .00033837  00000-0  49602-3 0  9993 | 2 40956  51.6448 221.6583 0009423  38.5973  61.4406 15.55177757   803 | 2015/10/11-20:42:05    8.9442  100.1328   61.5355   92.5939     6779.7730     6773.3844     6786.1615 -38.584974 -34.327615  -0.000159  -0.000929
1 40956U 98067HH  15287.25088519  .00040344  00000-0  58485-3 0  9993 | 2 40956  51.6453 209.7386 0010265  37.7622 123.4415 15.55387044  1177 | 2015/10/14-06:01:16  101.8487  161.3018  123.5396   92.5815     6779.1648     6772.2060     6786.1236 -44.843486 -25.618328  -0.000393  -0.000948
1 40956U 98067HH  15290.12801667  .00077884  00000-0  11072-2 0  9999 | 2 40956  51.6424 195.3683 0006196  78.7276   3.9463 15.55670742  1628 | 2015/10/17-03:04:20  153.3520   82.6788    3.9512   92.5646     6778.3406     6774.1407     6782.5404 -49.795780 -13.686407   0.000044  -0.000618
1 40956U 98067HH  15291.15709852  .00078419  00000-0  11081-2 0  9991 | 2 40956  51.6430 190.2249 0006214  84.7985   5.2895 15.55831402  1785 | 2015/10/18-03:46:13  162.5651   90.0946    5.2961   92.5550     6777.8739     6773.6622     6782.0857 -50.822835  -9.167275   0.000054  -0.000619
1 40956U 98067HH  15292.19311212  .00078483  00000-0  11025-2 0  9994 | 2 40956  51.6430 185.0447 0005946  90.3528  46.5854 15.55991144  1945 | 2015/10/19-04:38:04  134.8811  136.9877   46.6349   92.5455     6777.4100     6773.3802     6781.4399 -51.442956  -4.541119   0.000056  -0.000592
1 40956U 98067HH  15293.21254950  .00078827  00000-0  11008-2 0  9996 | 2 40956  51.6428 179.9477 0005950  93.2317 358.2339 15.56150246  2101 | 2015/10/20-05:06:04  193.4530   91.4635  358.2318   92.5361     6776.9481     6772.9158     6780.9804 -51.642778   0.047140   0.000033  -0.000594
1 40956U 98067HH  15295.25227741  .00104267  00000-0  14518-2 0  9997 | 2 40956  51.6438 169.7619 0005782  88.4443 271.7732 15.56269700  1781 | 2015/10/22-06:03:16  311.1994    0.1513  271.7070   92.5289     6776.6013     6772.6830     6780.5195 -50.821509   9.179126  -0.000118  -0.000566
1 40956U 98067HH  15296.85751989  .00083571  00000-0  11511-2 0  9994 | 2 40956  51.6421 161.7417 0008004  81.5957 278.5942 15.56479363  2670 | 2015/10/23-20:34:49  178.7167    0.0992  278.5035   92.5165     6775.9927     6770.5692     6781.4162 -49.042114  16.179541  -0.000359  -0.000715
1 40956U 98067HH  15297.88474070 +.00080976 +00000-0 +11088-2 0  9996 | 2 40956 051.6423 156.6028 0007844 085.8988 274.2901 15.56653693002831 | 2015/10/24-21:14:01  194.6685    0.0993  274.2005   92.5061     6775.4868     6770.1721     6780.8015 -47.395962  20.507314  -0.000362  -0.000696
1 40956U 98067HH  15299.16860923  .00089980  00000-0  12205-2 0  9991 | 2 40956  51.6414 150.1781 0007731  90.0299 270.1579 15.56862089  3034 | 2015/10/26-04:02:47  304.5524    0.0992  270.0693   92.4937     6774.8822     6769.6445     6780.1198 -44.802810  25.681558  -0.000384  -0.000671
1 40956U 98067HH  15300.19559223  .00061255  00000-0  83200-3 0  9994 | 2 40956  51.6407 145.0372 0007626  93.5865 266.5999 15.56992314  3192 | 2015/10/27-04:41:39  320.4209    0.0992  266.5127   92.4860     6774.5044     6769.3382     6779.6706 -42.320807  29.592418  -0.000397  -0.000651
1 40956U 98067HH  15301.54337774  .00067315  00000-0  90702-3 0  9997 | 2 40956  51.6407 138.2885 0007481  97.0107 263.1736 15.57168497  3406 | 2015/10/28-13:02:27   93.7029    0.0992  263.0885   92.4755     6773.9934     6768.9258     6779.0610 -38.550023  34.360699  -0.000426  -0.000615
1 40956U 98067HH  15302.57015648  .00070037  00000-0  93829-3 0  9992 | 2 40956  51.6407 133.1457 0007349 100.2389 259.9432 15.57306896  3567 | 2015/10/29-13:41:01  109.5003    0.0992  259.8603   92.4673     6773.5920     6768.6141     6778.5700 -35.314800  37.677935  -0.000438  -0.000590
1 40956U 98067HH  15303.78932760  .00082235  00000-0  10916-2 0  9997 | 2 40956  51.6413 127.0380 0007024 105.3993 254.7776 15.57487241  3757 | 2015/10/30-18:56:37  195.7165    0.0993  254.7000   92.4566     6773.0692     6768.3117     6777.8266 -31.105856  41.221955  -0.000428  -0.000557
1 40956U 98067HH  15304.88005847  .00062887  00000-0  83442-3 0  9992 | 2 40956  51.6414 121.5728 0006938 108.9946 251.1799 15.57613419  3926 | 2015/10/31-21:07:17  234.9223    0.0993  251.1047   92.4491     6772.7034     6768.0045     6777.4023 -27.038482  43.997212  -0.000441  -0.000536
1 40956U 98067HH  15306.03483754  .00079206  00000-0  10401-2 0  9995 | 2 40956  51.6412 115.7856 0006812 112.3422 247.8293 15.57793868  4109 | 2015/11/02-00:50:09  297.5711    0.0992  247.7570   92.4384     6772.1803     6767.5671     6776.7935 -22.464170  46.499189  -0.000455  -0.000507
1 40956U 98067HH  15307.51020004  .00079742  00000-0  10384-2 0  9999 | 2 40956  51.6415 108.3898 0006491 115.1277 245.0390 15.58016626  4332 | 2015/11/03-12:14:41  117.5564    0.0993  244.9716   92.4252     6771.5348     6767.1394     6775.9302 -16.291866  49.004282  -0.000471  -0.000447
1 40956U 98067HH  15308.53641023  .00081010  00000-0  10488-2 0  9998 | 2 40956  51.6410 103.2440 0006329 117.6508 242.5128 15.58165624  4499 | 2015/11/04-12:52:25  133.1525    0.0993  242.4485   92.4164     6771.1031     6766.8177     6775.3886 -11.830873  50.267517  -0.000478  -0.000414
1 40956U 98067HH  15309.62667255  .00088322  00000-0  11387-2 0  9996 | 2 40956  51.6422  97.7744 0006722 129.5640 230.6471 15.58319421  4666 | 2015/11/05-15:02:24  172.1436    0.1516  230.5876   92.4072     6770.6576     6766.1064     6775.2089  -6.985790  51.167525  -0.000456  -0.000494
1 40956U 98067HH  15310.84511445  .00043797  00000-0  56796-3 0  9992 | 2 40956  51.6414  91.6633 0006224 124.1189 236.0395 15.58386055  4856 | 2015/11/06-20:16:57  258.1474    0.0993  235.9804   92.4033     6770.4646     6766.2507     6774.6785  -1.498942  51.619641  -0.000505  -0.000364
1 40956U 98067HH  15312.51226313  .00049210  00000-0  63116-3 0  9995 | 2 40956  51.6420  83.2990 0006131 129.0399 231.1140 15.58627658  5111 | 2015/11/08-12:17:39  148.3330    0.0992  231.0593   92.3890     6769.7649     6765.6144     6773.9155   6.026005  51.289214  -0.000518  -0.000328
1 40956U 98067HH  15313.53808054  .00063010  00000-0  80093-3 0  9993 | 2 40956  51.6422  78.1500 0006072 131.1419 229.0099 15.58761472  5273 | 2015/11/09-12:54:50  163.7895    0.0993  228.9574   92.3810     6769.3775     6765.2671     6773.4879  10.604736  50.541630  -0.000530  -0.000297
1 40956U 98067HH  15314.88431910  .00070526  00000-0  88799-3 0  9996 | 2 40956  51.6423  71.3912 0006193 136.0482 224.1004 15.58964669  5482 | 2015/11/10-21:13:25  296.5243    0.0992  224.0510   92.3690     6768.7893     6764.5973     6772.9812  16.479310  48.942410  -0.000550  -0.000285
1 40956U 98067HH  15315.90991189 +.00068530 +00000-0 +85872-3 0  9990 | 2 40956 051.6431 066.2418 0006098 138.4174 221.7284 15.59104580005643 | 2015/11/11-21:50:16  311.9007    0.0993  221.6819   92.3607     6768.3843     6764.2569     6772.5117  20.805852  47.266545  -0.000554  -0.000254
1 40956U 98067HH  15317.44814271  .00053820  00000-0  67248-3 0  9990 | 2 40956  51.6428  58.5164 0006031 143.0577 217.0832 15.59281673  5889 | 2015/11/13-10:45:19  154.9103    0.0993  217.0416   92.3502     6767.8718     6763.7901     6771.9535  26.970684  44.040447  -0.000561  -0.000222
1 40956U 98067HH  15318.53760993  .00066838  00000-0  82748-3 0  9997 | 2 40956  51.6432  53.0434 0005946 146.2630 213.8743 15.59434319  6055 | 2015/11/14-12:54:09  193.6689    0.0993  213.8363   92.3412     6767.4302     6763.4063     6771.4541  31.048403  41.267624  -0.000561  -0.000197
1 40956U 98067HH  15319.75512766  .00046997  00000-0  58204-3 0  9999 | 2 40956  51.6430  46.9257 0005952 150.1429 209.9905 15.59575127  6244 | 2015/11/15-18:07:23  279.2969    0.0993  209.9564   92.3328     6767.0228     6762.9951     6771.0506  35.269390  37.723594  -0.000569  -0.000175
1 40956U 98067HH  15320.78033410  .00050600  00000-0  62359-3 0  9990 | 2 40956  51.6428  41.7728 0005833 153.7849 206.3440 15.59673136  6402 | 2015/11/16-18:43:40  294.5391    0.0993  206.3144   92.3270     6766.7393     6762.7923     6770.6864  38.514805  34.403323  -0.000562  -0.000156
1 40956U 98067HH  15322.38208368  .00040063  00000-0  49292-3 0  9997 | 2 40956  51.6430  33.7209 0005690 157.9467 202.1772 15.59821901  6657 | 2015/11/18-09:10:12  160.8047    0.0993  202.1526   92.3182     6766.3091     6762.4590     6770.1591  42.954152  28.669501  -0.000557  -0.000115
1 40956U 98067HH  15323.72744238  .00043798  00000-0  53557-3 0  9994 | 2 40956  51.6429  26.9565 0005582 162.3294 197.7895 15.59943039  6867 | 2015/11/19-17:27:31  293.2292    0.0994  197.7700   92.3111     6765.9588     6762.1820     6769.7355  46.031948  23.410444  -0.000551  -0.000090
1 40956U 98067HH  15324.75240702 +.00036229 +00000-0 +44309-3 0  9991 | 2 40956 051.6432 021.8023 0005458 164.9761 195.1395 15.60028807007028 | 2015/11/20-18:03:27  308.3843    0.0993  195.1232   92.3060     6765.7108     6762.0181     6769.4035  47.949209  19.180548  -0.000542  -0.000064
1 40956U 98067HH  15326.16165135  .00034710  00000-0  42321-3 0  9999 | 2 40956  51.6432  14.7152 0005424 169.5689 190.5418 15.60130417  7245 | 2015/11/22-03:52:46  104.1932    0.0993  190.5304   92.3000     6765.4170     6761.7475     6769.0866  49.949324  13.118124  -0.000541  -0.000041
1 40956U 98067HH  15327.18648993  .00035613  00000-0  43253-3 0  9998 | 2 40956  51.6432   9.5602 0005350 172.4876 187.6199 15.60220981  7403 | 2015/11/23-04:28:32  119.3035    0.0994  187.6118   92.2946     6765.1552     6761.5359     6768.7746  50.925961   8.577099  -0.000535  -0.000019
1 40956U 98067HH  15328.21128215  .00030179  00000-0  36687-3 0  9998 | 2 40956  51.6429   4.4049 0005314 175.4753 184.6290 15.60282713  7562 | 2015/11/24-05:04:14  134.3972    0.0994  184.6241   92.2910     6764.9768     6761.3819     6768.5717  51.490357   3.966397  -0.000531   0.000001
1 40956U 98067HH  15329.55626421  .00027382  00000-0  33264-3 0  9998 | 2 40956  51.6425 357.6387 0005217 179.7688 180.3309 15.60355327  7771 | 2015/11/25-13:21:01  266.6873    0.0994  180.3306   92.2867     6764.7669     6761.2377     6768.2961  51.598650  -2.127712  -0.000521   0.000024
1 40956U 98067HH  15330.58096962  .00026778  00000-0  32478-3 0  9998 | 2 40956  51.6423 352.4823 0005163 183.1928 176.9033 15.60411077  7931 | 2015/11/26-13:56:35  281.7512    0.0993  176.9065   92.2834     6764.6058     6761.1132     6768.0983  51.198408  -6.756489  -0.000515   0.000039
1 40956U 98067HH  15331.92583665 +.00030209 +00000-0 +36430-3 0  9994 | 2 40956 051.6424 345.7141 0005149 187.5801 172.5115 15.60493333008144 | 2015/11/27-22:13:12   54.0016    0.0993  172.5192   92.2785     6764.3681     6760.8851     6767.8510  50.045436 -12.743306  -0.000511   0.000060
1 40956U 98067HH  15333.20659239  .00033346  00000-0  40001-3 0  9992 | 2 40956  51.6425 339.2676 0005033 191.6918 168.3960 15.60579819  8340 | 2015/11/29-04:57:29  162.7863    0.0994  168.4076   92.2734     6764.1181     6760.7138     6767.5225  48.298338 -18.281640  -0.000497   0.000079
1 40956U 98067HH  15334.55130758  .00038371  00000-0  45738-3 0  9996 | 2 40956  51.6425 332.4991 0005012 196.4770 163.6061 15.60677096  8550 | 2015/11/30-13:13:52  294.9824    0.0993  163.6223   92.2676     6763.8371     6760.4470     6767.2271  45.807082 -23.846572  -0.000492   0.000096
1 40956U 98067HH  15336.08802484  .00042183  00000-0  49982-3 0  9999 | 2 40956  51.6427 324.7629 0004961 201.1986 158.8803 15.60789217  8794 | 2015/12/02-02:06:45  137.4557    0.0994  158.9008   92.2610     6763.5131     6760.1577     6766.8685  42.180284 -29.795840  -0.000481   0.000120
1 40956U 98067HH  15337.17646247  .00032374  00000-0  38437-3 0  9997 | 2 40956  51.6424 319.2828 0005005 204.8107 155.2646 15.60864699  8969 | 2015/12/03-04:14:06  175.8498    0.0993  155.2886   92.2566     6763.2951     6759.9100     6766.6801  39.141765 -33.687678  -0.000481   0.000137
1 40956U 98067HH  15338.47158832  .00028279  00000-0  33581-3 0  9993 | 2 40956  51.6452 312.7567 0004634 210.0404 232.4991 15.60935343  9163 | 2015/12/04-11:19:05  207.4335   82.4974  232.4570   92.2524     6763.0910     6759.9570     6766.2250  35.061235 -37.920133  -0.000443   0.000137
1 40956U 98067HH  15339.86535172  .00060711  00000-0  70762-3 0  9992 | 2 40956  51.6417 305.7419 0004991 213.2281 146.8400 15.61060041  9388 | 2015/12/05-20:46:06   80.0483    0.0994  146.8713   92.2450     6762.7308     6759.3556     6766.1061  30.165721 -41.915325  -0.000466   0.000179
1 40956U 98067HH  15340.95359722 +.00048622 +00000-0 +56670-3 0  9998 | 2 40956 051.6417 300.2598 0004987 216.7828 143.2824 15.61155159009551 | 2015/12/06-22:53:10  118.3743    0.0993  143.3165   92.2394     6762.4562     6759.0837     6765.8286  26.023374 -44.605484  -0.000459   0.000195
1 40956U 98067HH  15342.16980514  .00038535  00000-0  44955-3 0  9997 | 2 40956  51.6416 294.1328 0004952 220.6932 139.3692 15.61236555  9744 | 2015/12/08-04:04:31  203.5377    0.0993  139.4061   92.2346     6762.2211     6758.8725     6765.5698  21.113821 -47.128138  -0.000448   0.000211
1 40956U 98067HH  15343.38594765  .00029875  00000-0  34925-3 0  9994 | 2 40956  51.6420 288.0053 0004938 225.2908 134.7684 15.61312251  9933 | 2015/12/09-09:15:45  288.6784    0.0994  134.8086   92.2301     6762.0025     6758.6635     6765.3416  15.962799 -49.112984  -0.000441   0.000222
1 40956U 98067HH  15344.41002203  .00032250  00000-0  37547-3 0  9994 | 2 40956  51.6422 282.8459 0004925 228.9394 131.1174 15.61377932 10093 | 2015/12/10-09:50:25  303.5163    0.0993  131.1599   92.2262     6761.8129     6758.4827     6765.1431  11.481591 -50.349676  -0.000434   0.000233
1 40956U 98067HH  15345.81804508  .00035887  00000-0  41523-3 0  9995 | 2 40956  51.6423 275.7499 0004955 233.8915 126.1620 15.61484654 10311 | 2015/12/11-19:37:59   98.8918    0.0993  126.2078   92.2199     6761.5048     6758.1545     6764.8551   5.173852 -51.382472  -0.000428   0.000250
1 40956U 98067HH  15346.84200274  .00033015  00000-0  38155-3 0  9997 | 2 40956  51.6422 270.5891 0004931 237.5107 122.5411 15.61557399 10479 | 2015/12/12-20:12:29  113.6883    0.0994  122.5887   92.2156     6761.2948     6757.9608     6764.6288   0.530962 -51.639470  -0.000419   0.000261
1 40956U 98067HH  15347.86591578  .00030581  00000-0  35309-3 0  9993 | 2 40956  51.6417 265.4281 0004941 241.0987 118.9511 15.61622594 10634 | 2015/12/13-20:46:55  128.4692    0.0993  119.0006   92.2118     6761.1066     6757.7660     6764.4473  -4.116363 -51.477381  -0.000412   0.000273
1 40956U 98067HH  15348.88978525 +.00035243 +00000-0 +40467-3 0  9998 | 2 40956 051.6413 260.2667 0004919 245.1629 114.8853 15.61692823010797 | 2015/12/14-21:21:17  143.2344    0.0993  114.9364   92.2076     6760.9039     6757.5782     6764.2296  -8.730594 -50.897943  -0.000405   0.000279
1 40956U 98067HH  15349.91359995 +.00039166 +00000-0 +44728-3 0  9999 | 2 40956 051.6409 255.1049 0004895 249.1934 110.8536 15.61782222010950 | 2015/12/15-21:55:35  157.9798    0.0994  110.9060   92.2024     6760.6459     6757.3366     6763.9553 -13.274301 -49.905666  -0.000398   0.000286
1 40956U 98067HH  15350.93736056 +.00030669 +00000-0 +35091-3 0  9992 | 2 40956 051.6407 249.9425 0004928 253.2031 106.8422 15.61855750011113 | 2015/12/16-22:29:47  172.7068    0.0993  106.8962   92.1980     6760.4337     6757.1022     6763.7653 -17.710850 -48.508635  -0.000394   0.000296
1 40956U 98067HH  15352.21700092  .00028835  00000-0  32936-3 0  9993 | 2 40956  51.6406 243.4887 0004928 257.8590 102.1852 15.61934268 11313 | 2015/12/18-05:12:28  281.0935    0.0994  102.2404   92.1934     6760.2072     6756.8757     6763.5386 -23.051037 -46.210402  -0.000385   0.000308
1 40956U 98067HH  15353.49657721  .00030949  00000-0  35189-3 0  9996 | 2 40956  51.6407 237.0347 0004950 262.6768  97.3663 15.62013840 11512 | 2015/12/19-11:55:04   29.4572    0.0994   97.4226   92.1887     6759.9776     6756.6314     6763.3238 -28.099306 -43.326561  -0.000378   0.000320
1 40956U 98067HH  15354.52019067  .00040386  00000-0  45554-3 0  9999 | 2 40956  51.6411 231.8712 0004945 266.6073  93.4355 15.62087694 11672 | 2015/12/20-12:29:04   44.1308    0.0994   93.4921   92.1843     6759.7645     6756.4218     6763.1072 -31.884834 -40.622168  -0.000370   0.000328
1 40956U 98067HH  15355.54373569  .00054636  00000-0  61004-3 0  9993 | 2 40956  51.6405 226.7091 0004925 271.5363  88.5067 15.62216916 11837 | 2015/12/21-13:02:58   58.7778    0.0994   88.5631   92.1767     6759.3917     6756.0627     6762.7207 -35.410033 -37.588174  -0.000367   0.000328
1 40956U 98067HH  15356.82306628  .00034816  00000-0  39025-3 0  9993 | 2 40956  51.6402 220.2526 0004949 276.5567  83.4864 15.62321974 12036 | 2015/12/22-19:45:12  167.0542    0.0994   83.5427   92.1705     6759.0887     6755.7436     6762.4338 -39.411963 -33.367760  -0.000361   0.000339
1 40956U 98067HH  15358.10232223  .00035121  00000-0  39225-3 0  9997 | 2 40956  51.6397 213.7965 0005004 280.9776  79.0655 15.62410509 12231 | 2015/12/24-02:27:20  275.3033    0.0994   79.1218   92.1653     6758.8334     6755.4513     6762.2155 -42.913543 -28.724317  -0.000352   0.000355
1 40956U 98067HH  15359.18962830  .00033930  00000-0  37800-3 0  9993 | 2 40956  51.6394 208.3084 0005074 285.6216  74.4218 15.62491971 12403 | 2015/12/25-04:33:03  313.2930    0.0994   74.4778   92.1605     6758.5985     6755.1691     6762.0278 -45.463733 -24.488296  -0.000352   0.000365
1 40956U 98067HH  15360.21292834  .00030582  00000-0  34055-3 0  9998 | 2 40956  51.6391 203.1425 0005119 290.1673  69.8770 15.62557422 12562 | 2015/12/26-05:06:37  327.8546    0.0994   69.9321   92.1566     6758.4097     6754.9501     6761.8694 -47.483713 -20.295163  -0.000351   0.000372
1 40956U 98067HH  15361.49199383  .00035669  00000-0  39466-3 0  9996 | 2 40956  51.6390 196.6848 0005182 294.9674  65.0782 15.62642571 12762 | 2015/12/27-11:48:28   76.0353    0.0995   65.1321   92.1516     6758.1642     6754.6621     6761.6663 -49.464931 -14.825888  -0.000344   0.000387
1 40956U 98067HH  15362.51519352  .00029028  00000-0  32168-3 0  9996 | 2 40956  51.6392 191.5181 0005207 299.7001  60.3474 15.62710532 12920 | 2015/12/28-12:21:52   90.5605    0.0994   60.3993   92.1476     6757.9683     6754.4494     6761.4871 -50.599273 -10.311186  -0.000343   0.000392
1 40956U 98067HH  15363.53834749  .00032476  00000-0  35803-3 0  9999 | 2 40956  51.6393 186.3514 0005277 303.9951  56.0541 15.62783434 13088 | 2015/12/29-12:55:13  105.0694    0.0994   56.1043   92.1433     6757.7581     6754.1920     6761.3242 -51.322344  -5.712647  -0.000342   0.000402
1 40956U 98067HH  15364.88117330  .00025691  00000-0  28383-3 0  9994 | 2 40956  51.6396 179.5707 0005453 310.4046  49.6472 15.62859759 13291 | 2015/12/30-21:08:53  236.5883    0.0994   49.6948   92.1388     6757.5381     6753.8532     6761.2230 -51.638150   0.386916  -0.000350   0.000418
1 40956U 98067HH  15365.90423179 +.00042836 +00000-0 +46697-3 0  9997 | 2 40956 051.6395 174.4028 0005491 314.4213 045.6332 15.62935786013456 | 2015/12/31-21:42:05  251.0630    0.0995   45.6782   92.1343     6757.3189     6753.6085     6761.0294 -51.393292   5.036621  -0.000344   0.000428
1 40956U 98067HH  16001.92721678 +.00028493 +00000-0 +31162-3 0  9996 | 2 40956 051.6397 169.2349 0005595 318.5407 041.5163 15.63057520013618 | 2016/01/01-22:15:11  265.5113    0.0995   41.5588   92.1271     6756.9681     6753.1876     6760.7486 -50.730904   9.645415  -0.000343   0.000442
1 40956U 98067HH  16002.95014183 +.00030423 +00000-0 +33127-3 0  9995 | 2 40956 051.6395 164.0671 0005790 323.6640 036.3961 15.63132544013775 | 2016/01/02-22:48:12  279.9372    0.0995   36.4355   92.1227     6756.7519     6752.8397     6760.6640 -49.655709  14.175632  -0.000354   0.000458
1 40956U 98067HH  16004.03694303  .00032292  00000-0  35006-3 0  9998 | 2 40956  51.6392 158.5754 0005909 327.3258  32.7370 15.63214485 13948 | 2016/01/04-00:53:11  317.7459    0.0994   32.7736   92.1179     6756.5158     6752.5233     6760.5082 -48.070883  18.862586  -0.000346   0.000479
1 40956U 98067HH  16005.37939427  .00028705  00000-0  31090-3 0  9998 | 2 40956  51.6392 151.7912 0006041 333.4723  26.5962 15.63300612 14152 | 2016/01/05-09:06:19   89.1300    0.0995   26.6272   92.1128     6756.2676     6752.1861     6760.3491 -45.506057  24.409133  -0.000349   0.000493
1 40956U 98067HH  16006.53001366  .00034731  00000-0  37365-3 0  9996 | 2 40956  51.6393 145.9764 0006164 338.3417  21.7316 15.63369361 14339 | 2016/01/06-12:43:13  150.2971    0.0995   21.7578   92.1088     6756.0695     6751.9051     6760.2340 -42.799022  28.893961  -0.000348   0.000509
1 40956U 98067HH  16007.80841452  .00034221  00000-0  36702-3 0  9993 | 2 40956  51.6395 139.5139 0006356 343.0039  17.0741 15.63455145 14530 | 2016/01/07-19:24:07  258.2392    0.0994   17.0955   92.1037     6755.8224     6751.5284     6760.1164 -39.275119  33.527645  -0.000342   0.000536
1 40956U 98067HH  16008.83108174  .00034611  00000-0  37005-3 0  9994 | 2 40956  51.6397 134.3441 0006453 346.8524  13.2302 15.63528318 14690 | 2016/01/08-19:56:45  272.5726    0.0995   13.2471   92.0994     6755.6116     6751.2522     6759.9710 -36.094391  36.930388  -0.000334   0.000552
1 40956U 98067HH  16009.91760963 +.00038315 +00000-0 +40741-3 0  9990 | 2 40956 051.6404 128.8509 0006585 351.2065 008.8814 15.63617498014863 | 2016/01/09-22:01:21  310.2815    0.0996    8.8931   92.0941     6755.3547     6750.9063     6759.8031 -32.393812  40.216562  -0.000330   0.000570
1 40956U 98067HH  16011.19578811  .00048848  00000-0  51424-3 0  9994 | 2 40956  51.6405 122.3890 0006821 356.5894   3.5053 15.63759986 15066 | 2016/01/11-04:41:56   58.1407    0.0995    3.5101   92.0857     6754.9444     6750.3368     6759.5519 -27.661992  43.606828  -0.000330   0.000597
1 40956U 98067HH  16012.53775568  .00051945  00000-0  54352-3 0  9996 | 2 40956  51.6404 115.6007 0006901   1.4689 358.6325 15.63888158 15270 | 2016/01/12-12:54:22  189.3533    0.0995  358.6306   92.0782     6754.5753     6749.9140     6759.2366 -22.313650  46.570720  -0.000314   0.000615
1 40956U 98067HH  16013.81571572  .00046457  00000-0  48470-3 0  9993 | 2 40956  51.6401 109.1363 0007022   6.4310 353.6774 15.64008501 15473 | 2016/01/13-19:34:37  297.1359    0.0995  353.6685   92.0711     6754.2288     6749.4860     6758.9716 -16.928477  48.786541  -0.000303   0.000633
1 40956U 98067HH  16014.83802236  .00036975  00000-0  38625-3 0  9995 | 2 40956  51.6401 103.9639 0007114  10.1955 349.9183 15.64081956 15635 | 2016/01/14-20:06:45  311.3410    0.0995  349.9040   92.0668     6754.0173     6749.2125     6758.8221 -12.461298  50.114030  -0.000291   0.000649
1 40956U 98067HH  16016.17972526  .00030132  00000-0  31493-3 0  9999 | 2 40956  51.6399  97.1747 0007233  15.1706 344.9504 15.64173678 15844 | 2016/01/16-04:18:48   82.4585    0.0995  344.9289   92.0614     6753.7533     6748.8683     6758.6383  -6.449572  51.235557  -0.000275   0.000669
1 40956U 98067HH  16017.20192658  .00031388  00000-0  32695-3 0  9993 | 2 40956  51.6402  92.0016 0007265  19.0098 341.1167 15.64237411 16003 | 2016/01/17-04:50:46   96.6261    0.0995  341.0897   92.0576     6753.5698     6748.6634     6758.4763  -1.803658  51.608692  -0.000260   0.000678
1 40956U 98067HH  16018.22408358  .00031341  00000-0  32559-3 0  9991 | 2 40956  51.6403  86.8279 0007380  22.6876 337.4444 15.64305324 16160 | 2016/01/18-05:22:40  110.7783    0.0995  337.4119   92.0536     6753.3744     6748.3904     6758.3584   2.857532  51.561178  -0.000247   0.000696
1 40956U 98067HH  16019.43783249  .00042770  00000-0  43994-3 0  9993 | 2 40956  51.6406  80.6844 0007448  27.4897 332.6490 15.64402249 16357 | 2016/01/19-10:30:28  195.0610    0.0995  332.6098   92.0479     6753.0954     6748.0657     6758.1251   8.359193  50.959547  -0.000232   0.000708
1 40956U 98067HH  16020.52375376  .00040049  00000-0  41101-3 0  9998 | 2 40956  51.6407  75.1872 0007515  31.5382 328.6062 15.64490071 16527 | 2016/01/20-12:34:12  232.5545    0.0995  328.5613   92.0428     6752.8427     6747.7679     6757.9175  13.202551  49.924488  -0.000216   0.000720
1 40956U 98067HH  16021.60961412  .00051849  00000-0  52425-3 0  9991 | 2 40956  51.6403  69.6909 0007273  36.2200 323.9809 15.64589587 16690 | 2016/01/21-14:37:50  269.9743    0.1519  323.9319   92.0369     6752.5564     6747.6452     6757.4675  17.923553  48.430020  -0.000199   0.000699
1 40956U 98067HH  16023.20627231  .00035878  00000-0  36488-3 0  9992 | 2 40956  51.6400  61.6031 0007628  41.6394 318.5180 15.64771912 16948 | 2016/01/23-04:57:01  134.4763    0.0995  318.4601   92.0262     6752.0318     6746.8814     6757.1823  24.558776  45.426381  -0.000175   0.000743
1 40956U 98067HH  16024.48352032  .00034771  00000-0  35253-3 0  9997 | 2 40956  51.6399  55.1334 0007673  46.4404 313.7227 15.64865241 17145 | 2016/01/24-11:36:16  242.0085    0.0995  313.6591   92.0207     6751.7634     6746.5827     6756.9440  29.520862  42.369777  -0.000154   0.000752
1 40956U 98067HH  16025.63298206  .00030777  00000-0  31187-3 0  9991 | 2 40956  51.6396  49.3098 0007737  50.7487 309.4194 15.64942022 17322 | 2016/01/25-15:11:29  302.7663    0.0996  309.3509   92.0162     6751.5425     6746.3188     6756.7662  33.667404  39.155513  -0.000135   0.000762
1 40956U 98067HH  16026.84624609  .00032103  00000-0  32409-3 0  9998 | 2 40956  51.6397  43.1627 0007719  55.7477 304.4248 15.65014323 17518 | 2016/01/26-20:18:35   26.8799    0.0995  304.3518   92.0119     6751.3346     6746.1232     6756.5459  37.666726  35.325293  -0.000120   0.000763
1 40956U 98067HH  16027.86789716  .00033928  00000-0  34123-3 0  9993 | 2 40956  51.6398  37.9857 0007779  59.4869 300.6893 15.65079590 17675 | 2016/01/27-20:49:46   40.8546    0.0995  300.6126   92.0081     6751.1469     6745.8952     6756.3986  40.700651  31.782478  -0.000101   0.000771
1 40956U 98067HH  16028.88950020 +.00034663 +00000-0 +34741-3 0  9997 | 2 40956 051.6399 032.8084 0007804 063.3615 296.8179 15.65156162017836 | 2016/01/28-21:20:52   54.8127    0.0996  296.7381   92.0036     6750.9267     6745.6583     6756.1951  43.402674  27.980121  -0.000084   0.000776
1 40956U 98067HH  16029.91105448 +.00032206 +00000-0 +32235-3 0  9995 | 2 40956 051.6402 027.6311 0007830 067.4861 292.6963 15.65227906017990 | 2016/01/29-21:51:55   68.7534    0.0996  292.6135   91.9994     6750.7204     6745.4346     6756.0062  45.750737  23.949537  -0.000070   0.000780
1 40956U 98067HH  16030.93256332 +.00031064 +00000-0 +31032-3 0  9993 | 2 40956 051.6401 022.4534 0007822 071.5686 288.6159 15.65295809018159 | 2016/01/30-22:22:53   82.6791    0.0995  288.5309   91.9954     6750.5252     6745.2449     6755.8054  47.725288  19.723001  -0.000055   0.000780
1 40956U 98067HH  16031.95402538 +.00039882 +00000-0 +39516-3 0  9998 | 2 40956 051.6401 017.2753 0007803 075.8153 284.3708 15.65375851018316 | 2016/01/31-22:53:47   96.5887    0.0995  284.2842   91.9907     6750.2950     6745.0278     6755.5623  49.310559  15.335212  -0.000042   0.000779
1 40956U 98067HH  16033.16693345  .00039003  00000-0  38492-3 0  9998 | 2 40956  51.6399  11.1261 0007830  80.6869 279.5012 15.65486400 18505 | 2016/02/02-04:00:23  180.5783    0.0996  279.4127   91.9842     6749.9772     6744.6920     6755.2625  50.669321   9.964898  -0.000025   0.000783
1 40956U 98067HH  16034.18827029  .00045333  00000-0  44465-3 0  9999 | 2 40956  51.6399   5.9472 0007827  84.9257 275.2632 15.65570928 18661 | 2016/02/03-04:31:06  194.4443    0.0996  275.1739   91.9792     6749.7343     6744.4513     6755.0173  51.361964   5.350510  -0.000012   0.000783
1 40956U 98067HH  16035.20954312  .00046399  00000-0  45309-3 0  9990 | 2 40956  51.6398   0.7677 0007834  89.2443 270.9450 15.65672001 18826 | 2016/02/04-05:01:44  208.2883    0.0995  270.8552   91.9733     6749.4438     6744.1563     6754.7313  51.635165   0.691895  -0.000000   0.000783
1 40956U 98067HH  16036.42222014  .00048677  00000-0  47268-3 0  9999 | 2 40956  51.6397 354.6164 0007800  94.5167 265.6720 15.65791270 19015 | 2016/02/05-10:07:59  292.1992    0.0996  265.5829   91.9663     6749.1010     6743.8367     6754.3653  51.411910  -4.845009   0.000012   0.000780
1 40956U 98067HH  16037.89006959  .00048714  00000-0  47017-3 0  9993 | 2 40956  51.6399 347.1693 0007771 100.8900 259.2971 15.65943723 19248 | 2016/02/06-21:21:42  109.5205    0.0996  259.2096   91.9573     6748.6630     6743.4186     6753.9074  50.350478 -11.467723   0.000026   0.000777
1 40956U 98067HH  16038.91109460 +.00056711 +00000-0 +54333-3 0  9993 | 2 40956 051.6402 341.9893 0007706 105.4302 254.7546 15.66063478019409 | 2016/02/07-21:51:58  123.2781    0.0996  254.6694   91.9503     6748.3189     6743.1187     6753.5192  49.109768 -15.966871   0.000035   0.000770
1 40956U 98067HH  16040.18725552  .00050773  00000-0  48408-3 0  9999 | 2 40956  51.6401 335.5122 0007725 111.4117 248.7704 15.66231809 19600 | 2016/02/09-04:29:38  230.4337    0.0996  248.6879   91.9404     6747.8354     6742.6227     6753.0481  46.995050 -21.404794   0.000041   0.000771
1 40956U 98067HH  16041.20808942  .00064711  00000-0  61118-3 0  9998 | 2 40956  51.6401 330.3305 0007692 116.0728 244.1061 15.66364952 19767 | 2016/02/10-04:59:38  244.1250    0.0996  244.0268   91.9326     6747.4530     6742.2629     6752.6432  44.869832 -25.561653   0.000048   0.000768
1 40956U 98067HH  16042.35640840  .00068219  00000-0  63938-3 0  9995 | 2 40956  51.6395 324.4998 0007675 121.1618 239.0131 15.66534635 19945 | 2016/02/11-08:33:13  304.4864    0.0995  238.9377   91.9226     6746.9658     6741.7875     6752.1441  42.040414 -29.987357   0.000058   0.000765
1 40956U 98067HH  16043.82354395  .00067087  00000-0  62394-3 0  9992 | 2 40956  51.6391 317.0487 0007543 127.6935 232.4746 15.66734275 20177 | 2016/02/12-19:45:54  121.5591    0.0996  232.4061   91.9109     6746.3926     6741.3038     6751.4814  37.796368 -35.185668   0.000069   0.000751
1 40956U 98067HH  16045.16293454  .00062952  00000-0  58197-3 0  9991 | 2 40956  51.6388 310.2428 0007549 133.6972 226.4651 15.66909100 20389 | 2016/02/14-03:54:37  251.8716    0.0996  226.4024   91.9007     6745.8908     6740.7983     6750.9833  33.360114 -39.416601   0.000080   0.000751
1 40956U 98067HH  16046.31088130  .00053412  00000-0  49281-3 0  9997 | 2 40956  51.6391 304.4092 0007501 138.6620 221.4945 15.67026794 20569 | 2016/02/15-07:27:40  312.1033    0.0996  221.4376   91.8938     6745.5530     6740.4932     6750.6129  29.181229 -42.603433   0.000090   0.000745
1 40956U 98067HH  16047.77755314  .00071769  00000-0  65343-3 0  9995 | 2 40956  51.6389 296.9546 0007353 145.3223 214.8254 15.67234603 20798 | 2016/02/16-18:39:40  129.0142    0.0996  214.7773   91.8816     6744.9567     6739.9971     6749.9163  23.407105 -46.029159   0.000099   0.000729
1 40956U 98067HH  16048.86147096  .00079048  00000-0  71344-3 0  9994 | 2 40956  51.6390 291.4433 0007272 150.2938 209.8472 15.67411396 20964 | 2016/02/17-20:40:31  165.8110    0.0996  209.8058   91.8712     6744.4495     6739.5449     6749.3541  18.878201 -48.064538   0.000105   0.000720
1 40956U 98067HH  16049.88153872 +.00064992 +00000-0 +58556-3 0  9998 | 2 40956 051.6385 286.2559 0007268 155.0864 205.0484 15.67534330021129 | 2016/02/18-21:09:24  179.2344    0.0996  205.0132   91.8640     6744.0969     6739.1953     6748.9985  14.455055 -49.574046   0.000109   0.000719
1 40956U 98067HH  16050.90152984 +.00058542 +00000-0 +52596-3 0  9998 | 2 40956 051.6383 281.0678 0007279 159.4471 200.6820 15.67646967021288 | 2016/02/19-21:38:12  192.6304    0.0997  200.6526   91.8574     6743.7738     6738.8650     6748.6826   9.913028 -50.677864   0.000120   0.000718
1 40956U 98067HH  16051.98519503  .00044554  00000-0  40062-3 0  9994 | 2 40956  51.6378 275.5547 0007210 163.4606 196.6627 15.67744237 21452 | 2016/02/20-23:38:40  229.3368    0.0996  196.6390   91.8517     6743.4949     6738.6328     6748.3569   4.998333 -51.395321   0.000137   0.000708
1 40956U 98067HH  16053.19627984  .00041288  00000-0  37040-3 0  9995 | 2 40956  51.6373 269.3927 0007100 168.5848 191.5311 15.67836493 21643 | 2016/02/22-04:42:38  312.6905    0.0997  191.5149   91.8463     6743.2303     6738.4427     6748.0180  -0.547313 -51.634399   0.000148   0.000694
1 40956U 98067HH  16054.78968986  .00045026  00000-0  40092-3 0  9996 | 2 40956  51.6368 261.2838 0006944 175.3629 184.7433 15.67982875 21899 | 2016/02/23-18:57:09  176.0072    0.0996  184.7367   91.8377     6742.8107     6738.1284     6747.4929  -7.825056 -51.040451   0.000160   0.000676
1 40956U 98067HH  16056.12797909  .00092483  00000-0  80411-3 0  9999 | 2 40956  51.6367 254.4719 0006571 182.3326 177.7641 15.68268108 22103 | 2016/02/25-03:04:17  305.9318    0.0996  177.7670   91.8210     6741.9931     6737.5629     6746.4232 -13.823710 -49.751923   0.000150   0.000640
1 40956U 98067HH  16057.14748882  .00088569  00000-0  76687-3 0  9998 | 2 40956  51.6369 249.2791 0006723 187.4618 172.6280 15.68387423 22268 | 2016/02/26-03:32:23  319.1599    0.0997  172.6379   91.8140     6741.6511     6737.1187     6746.1835 -18.269964 -48.296769   0.000154   0.000654
1 40956U 98067HH  16058.54921782  .00041039  00000-0  35853-3 0  9996 | 2 40956  51.6371 242.1395 0006535 193.3371 166.7454 15.68495020 22480 | 2016/02/27-13:10:52  112.3109    0.0997  166.7626   91.8078     6741.3428     6736.9373     6745.7483 -24.131072 -45.651741   0.000164   0.000633
1 40956U 98067HH  16059.82342681  .00042906  00000-0  37295-3 0  9999 | 2 40956  51.6373 235.6493 0006322 199.7877 160.2876 15.68599948 22686 | 2016/02/28-19:45:44  218.7794    0.0997  160.3120   91.8016     6741.0422     6736.7805     6745.3039 -29.136699 -42.631720   0.000159   0.000612
1 40956U 98067HH  16060.84270217  .00053721  00000-0  46221-3 0  9994 | 2 40956  51.6370 230.4566 0006120 205.0916 154.9784 15.68752438 22849 | 2016/02/29-20:13:29  231.9212    0.0996  155.0080   91.7927     6740.6053     6736.4801     6744.7306 -32.875343 -39.819488   0.000153   0.000593
1 40956U 98067HH  16062.49887812  .00053074  00000-0  45378-3 0  9995 | 2 40956  51.6366 222.0161 0006033 212.8988 147.1634 15.68911342 23109 | 2016/03/02-11:58:23  118.2252    0.0997  147.2009   91.7834     6740.1502     6736.0838     6744.2165 -38.363762 -34.562411   0.000157   0.000583
1 40956U 98067HH  16063.77273730  .00053267  00000-0  45291-3 0  9993 | 2 40956  51.6362 215.5237 0005874 220.6042 139.4517 15.69046311 23308 | 2016/03/03-18:32:44  224.5688    0.0996  139.4954   91.7755     6739.7636     6735.8047     6743.7226 -42.025425 -30.002680   0.000141   0.000570
1 40956U 98067HH  16065.55594451  .00050683  00000-0  42779-3 0  9994 | 2 40956  51.6362 206.4324 0005598 231.0940 128.9558 15.69247273 23588 | 2016/03/05-13:20:33  157.3784    0.0997  129.0057   91.7637     6739.1882     6735.4156     6742.9608 -46.238161 -22.985422   0.000121   0.000547
1 40956U 98067HH  16066.63849442  .00057359  00000-0  48064-3 0  9997 | 2 40956  51.6368 200.9115 0005549 237.3525 122.6937 15.69371853 23758 | 2016/03/06-15:19:25  193.6879    0.0997  122.7472   91.7565     6738.8316     6735.0922     6742.5709 -48.235631 -18.430491   0.000113   0.000543
1 40956U 98067HH  16067.84827864  .00064084  00000-0  53161-3 0  9992 | 2 40956  51.6371 194.7406 0005411 243.3309 116.7135 15.69571224 23949 | 2016/03/07-20:21:31  276.5754    0.0998  116.7689   91.7448     6738.2609     6734.6148     6741.9070 -49.937604 -13.138714   0.000112   0.000529
1 40956U 98067HH  16069.38182044  .00073628  00000-0  60375-3 0  9996 | 2 40956  51.6382 186.9205 0005414 255.2913 136.4036 15.69794600 24188 | 2016/03/09-09:09:49   86.3315   31.7377  136.4464   91.7317     6737.6217     6733.9739     6741.2694 -51.261979  -6.221992   0.000073   0.000536
1 40956U 98067HH  16070.39474655  .00060941  00000-0  49902-3 0  9998 | 2 40956  51.6371 181.7465 0005392 257.2611 102.7784 15.69905465 24346 | 2016/03/10-09:28:26  128.8127    0.0997  102.8386   91.7253     6737.3045     6733.6717     6740.9372 -51.613112  -1.573767   0.000103   0.000529
1 40956U 98067HH  16071.47682751  .00067575  00000-0  54858-3 0  9992 | 2 40956  51.6369 176.2227 0005342 264.1186  95.9202 15.70072086 24510 | 2016/03/11-11:26:37  164.9529    0.0997   95.9811   91.7155     6736.8278     6733.2290     6740.4266 -51.524726   3.401765   0.000090   0.000527
1 40956U 98067HH  16072.49515356  .00078149  00000-0  62884-3 0  9998 | 2 40956  51.6366 171.0239 0005434 270.2274  89.8101 15.70224961 24679 | 2016/03/12-11:53:01  177.7541    0.0998   89.8724   91.7066     6736.3905     6732.7300     6740.0511 -51.004233   8.056469   0.000083   0.000537
1 40956U 98067HH  16073.51339715  .00052639  00000-0  42451-3 0  9999 | 2 40956  51.6366 165.8241 0005453 276.4541  83.5836 15.70333792 24836 | 2016/03/13-12:19:17  190.5250    0.0998   83.6457   91.7002     6736.0793     6732.4061     6739.7525 -50.064185  12.645782   0.000073   0.000540
1 40956U 98067HH  16074.78610718  .00050227  00000-0  40332-3 0  9991 | 2 40956  51.6364 159.3230 0005442 283.0208  77.0182 15.70456921 25037 | 2016/03/14-18:51:59  296.4549    0.0998   77.0790   91.6931     6735.7272     6732.0616     6739.3928 -48.310285  18.232777   0.000073   0.000539
1 40956U 98067HH  16076.18595541  .00080754  00000-0  63839-3 0  9998 | 2 40956  51.6365 152.1720 0005423 290.7771  69.2645 15.70637047 25253 | 2016/03/16-04:27:46   88.9284    0.0997   69.3226   91.6825     6735.2122     6731.5597     6738.8647 -45.664891  24.104893   0.000067   0.000538
1 40956U 98067HH  16077.20393128  .00081599  00000-0  64170-3 0  9996 | 2 40956  51.6367 146.9699 0005442 295.4711  64.5723 15.70758304 25411 | 2016/03/17-04:53:39  101.6034    0.0997   64.6286   91.6755     6734.8656     6731.2005     6738.5307 -43.291400  28.146109   0.000072   0.000539
1 40956U 98067HH  16078.22182704  .00054149  00000-0  42681-3 0  9999 | 2 40956  51.6370 141.7675 0005519 300.8633  59.1821 15.70870324 25574 | 2016/03/18-05:19:25  114.2495    0.0997   59.2364   91.6689     6734.5454     6730.8286     6738.2622 -40.561173  31.955767   0.000071   0.000547
1 40956U 98067HH  16079.36687443  .00055774  00000-0  43714-3 0  9998 | 2 40956  51.6371 135.9140 0005497 305.1493  54.8989 15.70993528 25753 | 2016/03/19-08:48:17  173.4459    0.0998   54.9505   91.6617     6734.1933     6730.4915     6737.8951 -37.090739  35.925857   0.000085   0.000543
1 40956U 98067HH  16081.14788344  .00054585  00000-0  42460-3 0  9995 | 2 40956  51.6362 126.8078 0005521 313.2277  46.8259 15.71182801 26038 | 2016/03/21-03:32:57  105.4654    0.0998   46.8721   91.6507     6733.6525     6729.9348     6737.3701 -30.936931  41.342514   0.000096   0.000544
1 40956U 98067HH  16082.16551020  .00044183  00000-0  34368-3 0  9998 | 2 40956  51.6361 121.6026 0005567 317.0996  42.9567 15.71274152 26190 | 2016/03/22-03:58:20  118.0166    0.0998   43.0002   91.6454     6733.3915     6729.6430     6737.1399 -27.058584  43.978629   0.000109   0.000546
1 40956U 98067HH  16083.18308323  .00041145  00000-0  31942-3 0  9997 | 2 40956  51.6356 116.3977 0005599 321.7206  38.3394 15.71353670 26359 | 2016/03/23-04:23:38  130.5470    0.0998   38.3792   91.6407     6733.1643     6729.3944     6736.9342 -22.957148  46.251536   0.000115   0.000548
1 40956U 98067HH  16084.45497575  .00051599  00000-0  39704-3 0  9994 | 2 40956  51.6353 109.8909 0005566 326.9733  33.0917 15.71464737 26556 | 2016/03/24-10:55:09  236.1838    0.0998   33.1265   91.6343     6732.8470     6729.0995     6736.5945 -17.567889  48.554850   0.000126   0.000542
1 40956U 98067HH  16085.47242677  .00045950  00000-0  35312-3 0  9993 | 2 40956  51.6353 104.6850 0005589 331.1918  28.8770 15.71545722 26713 | 2016/03/25-11:20:17  248.6711    0.0997   28.9079   91.6295     6732.6157     6728.8529     6736.3786 -13.089792  49.948589   0.000136   0.000542
1 40956U 98067HH  16086.48982015  .00035612  00000-0  27412-3 0  9998 | 2 40956  51.6355  99.4789 0005589 335.3477  24.7253 15.71626559 26879 | 2016/03/26-11:45:20  261.1374    0.0998   24.7521   91.6248     6732.3849     6728.6221     6736.1476  -8.503560  50.930485   0.000146   0.000539
1 40956U 98067HH  16087.82507480  .00042539  00000-0  32483-3 0  9996 | 2 40956  51.6359  92.6456 0005554 341.0807  18.9984 15.71732120 27084 | 2016/03/27-19:48:06   29.9723    0.0998   19.0191   91.6187     6732.0834     6728.3444     6735.8224  -2.383411  51.580864   0.000156   0.000533
1 40956U 98067HH  16088.84233631  .00062578  00000-0  47205-3 0  9996 | 2 40956  51.6362  87.4388 0005457 344.9656  15.1179 15.71857638 27245 | 2016/03/28-20:12:57   42.3916    0.0998   15.1342   91.6113     6731.7250     6728.0515     6735.3985   2.307440  51.584619   0.000165   0.000520
1 40956U 98067HH  16090.17737308  .00048347  00000-0  36417-3 0  9996 | 2 40956  51.6365  80.6045 0005354 349.9926  10.0965 15.72000673 27454 | 2016/03/30-04:15:25  171.1494    0.0999   10.1073   91.6030     6731.3167     6727.7127     6734.9206   8.429580  50.943796   0.000178   0.000505
1 40956U 98067HH  16091.19446702  .00045302  00000-0  34025-3 0  9995 | 2 40956  51.6365  75.3961 0005297 353.8436   6.2496 15.72098206 27611 | 2016/03/31-04:40:01  183.5100    0.0998    6.2562   91.5973     6731.0383     6727.4728     6734.6037  13.019381  49.968228   0.000188   0.000495
1 40956U 98067HH  16092.21150064  .00035759  00000-0  26890-3 0  9998 | 2 40956  51.6363  70.1879 0005249 357.4085   2.6886 15.72181931 27775 | 2016/04/01-05:04:33  195.8488    0.0999    2.6914   91.5925     6730.7993     6727.2663     6734.3323  17.501433  48.579907   0.000200   0.000485
1 40956U 98067HH  16093.48270967  .00040671  00000-0  30352-3 0  9990 | 2 40956  51.6359  63.6765 0005147   2.3192 357.7830 15.72300150 27974 | 2016/04/02-11:35:06  301.2433    0.0999  357.7807   91.5856     6730.4619     6726.9977     6733.9261  22.897364  46.281496   0.000209   0.000470
1 40956U 98067HH  16094.49960821  .00064772  00000-0  47691-3 0  9999 | 2 40956  51.6357  58.4669 0005125   6.3617 353.7445 15.72418620 28138 | 2016/04/03-11:59:26  313.5347    0.0998  353.7381   91.5787     6730.1238     6726.6747     6733.5730  27.005009  44.011078   0.000218   0.000464
1 40956U 98067HH  16095.83416706  .00051924  00000-0  38142-3 0  9992 | 2 40956  51.6357  51.6291 0004944  10.5983 349.5119 15.72566152 28343 | 2016/04/04-20:01:12   82.1251    0.0999  349.5016   91.5701     6729.7029     6726.3757     6733.0301  32.052844  40.482845   0.000230   0.000437
1 40956U 98067HH  16097.12143050  .00062359  00000-0  45336-3 0  9992 | 2 40956  51.6388  45.0282 0004973  18.8048  74.1232 15.72733592 28542 | 2016/04/06-02:54:51  100.5918   92.9828   74.1780   91.5603     6729.2253     6725.8788     6732.5717  36.496170  36.532113   0.000219   0.000446
1 40956U 98067HH  16098.12165707  .00062941  00000-0  45511-3 0  9998 | 2 40956  51.6363  39.9036 0004448  18.4294 341.6865 15.72860887 28700 | 2016/04/07-02:55:11  199.5960    0.0999  341.6705   91.5529     6728.8622     6725.8692     6731.8552  39.611489  33.124575   0.000234   0.000379
1 40956U 98067HH  16099.20171890  .00089445  00000-0  63895-3 0  9991 | 2 40956  51.6365  34.3661 0004348  22.5452 337.5737 15.73003988 28878 | 2016/04/08-04:50:28  235.0173    0.0999  337.5547   91.5446     6728.4541     6725.5285     6731.3796  42.623226  29.147705   0.000237   0.000364
1 40956U 98067HH  16100.40872958  .00053093  00000-0  38036-3 0  9998 | 2 40956  51.6366  28.1767 0004232  27.0187 333.1031 15.73149429 29066 | 2016/04/09-09:48:34  316.9173    0.0999  333.0812   91.5361     6728.0394     6725.1921     6730.8867  45.517433  24.382407   0.000242   0.000347
1 40956U 98067HH  16101.80614826  .00080911  00000-0  56985-3 0  9993 | 2 40956  51.6360  21.0089 0003963  31.5765 328.5471 15.73378864 29288 | 2016/04/10-19:20:51  108.5314    0.0999  328.5234   91.5228     6727.3853     6724.7192     6730.0513  48.203484  18.512175   0.000241   0.000315
1 40956U 98067HH  16102.82233849  .00082299  00000-0  57583-3 0  9994 | 2 40956  51.6360  15.7948 0003837  33.9625 326.1618 15.73525985 29446 | 2016/04/11-19:44:10  120.5749    0.0998  326.1373   91.5142     6726.9659     6724.3848     6729.5471  49.686364  14.054954   0.000248   0.000293
1 40956U 98067HH  16104.09242894  .00094544  00000-0  65369-3 0  9992 | 2 40956  51.6360   9.2745 0003525  39.1123 321.0130 15.73747620 29641 | 2016/04/13-02:13:05  225.5786    0.0999  320.9876   91.5013     6726.3343     6723.9633     6728.7054  50.960991   8.321895   0.000234   0.000264
1 40956U 98067HH  16105.17186324  .00085653  00000-0  58872-3 0  9999 | 2 40956  51.6364   3.7326 0003478  42.5455 317.5813 15.73926199 29819 | 2016/04/14-04:07:28  260.7793    0.0999  317.5544   91.4909     6725.8255     6723.4863     6728.1648  51.526866   3.361534   0.000240   0.000251
1 40956U 98067HH  16106.94945042 +.00068709 +00000-0 +46763-3 0  9994 | 2 40956 051.6368 354.6027 0003187 045.1427 314.9830 15.74244830030092 | 2016/04/15-22:47:12  191.5938    0.0999  314.9572   91.4724     6724.9180     6722.7747     6727.0612  51.407863  -4.857030   0.000245   0.000204
1 40956U 98067HH  16108.11329057  .00066696  00000-0  45114-3 0  9999 | 2 40956  51.6399 348.6235 0003573  47.2266  73.4711 15.74398362 30278 | 2016/04/17-02:43:08  137.1306  120.7370   73.5104   91.4635     6724.4808     6722.0781     6726.8834  50.625288 -10.186242   0.000290   0.000209
1 40956U 98067HH  16109.48834426  .00061149  00000-0  41060-3 0  9995 | 2 40956  51.6363 341.5587 0002945  50.5631 309.5629 15.74604849 30491 | 2016/04/18-11:43:12   41.1417    0.1000  309.5369   91.4515     6723.8929     6721.9127     6725.8731  48.984685 -16.334262   0.000249   0.000157
1 40956U 98067HH  16110.88451290  .00050733  00000-0  33969-3 0  9991 | 2 40956  51.6363 334.3815 0002713  53.4182 306.7067 15.74748952 30715 | 2016/04/19-21:13:41  192.3168    0.1000  306.6818   91.4431     6723.4827     6721.6586     6725.3067  46.560088 -22.326344   0.000240   0.000127
1 40956U 98067HH  16111.96328426  .00053992  00000-0  35939-3 0  9994 | 2 40956  51.6361 328.8347 0002635  54.8345 305.2901 15.74859055 30886 | 2016/04/20-23:07:07  227.2849    0.0999  305.2654   91.4368     6723.1693     6721.3977     6724.9408  44.183866 -26.722140   0.000241   0.000106
1 40956U 98067HH  16112.97852855  .00052145  00000-0  34576-3 0  9999 | 2 40956  51.6358 323.6140 0002538  56.3081 303.8160 15.74962864 31045 | 2016/04/21-23:29:04  238.9947    0.0999  303.7918   91.4307     6722.8739     6721.1676     6724.5801  41.568821 -30.631503   0.000239   0.000086
1 40956U 98067HH  16114.50128012  .00045061  00000-0  29780-3 0  9991 | 2 40956  51.6355 315.7818 0002429  59.4015 300.7224 15.75102901 31288 | 2016/04/23-12:01:50   76.5186    0.1000  300.6985   91.4226     6722.4754     6720.8425     6724.1083  37.006601 -36.010226   0.000234   0.000064
1 40956U 98067HH  16115.51636478  .00049401  00000-0  32438-3 0  9999 | 2 40956  51.6357 310.5599 0002359  59.4167 300.7065 15.75211178 31447 | 2016/04/24-12:23:33   88.1722    0.1000  300.6833   91.4163     6722.1673     6720.5816     6723.7531  33.575735 -39.229014   0.000232   0.000041
1 40956U 98067HH  16116.78511156  .00051604  00000-0  33634-3 0  9991 | 2 40956  51.6361 304.0316 0002219  58.2677 301.8538 15.75363803 31647 | 2016/04/25-18:50:33  192.7016    0.0999  301.8322   91.4075     6721.7331     6720.2416     6723.2247  28.898146 -42.792335   0.000222   0.000009
1 40956U 98067HH  16117.92688996  .00054145  00000-0  35074-3 0  9998 | 2 40956  51.6361 298.1558 0002177  58.2224 301.8988 15.75484814 31824 | 2016/04/26-22:14:43  250.7433    0.1000  301.8776   91.4004     6721.3889     6719.9257     6722.8522  24.365566 -45.525883   0.000217  -0.000014
1 40956U 98067HH  16119.70280537  .00053374  00000-0  34280-3 0  9996 | 2 40956  51.6364 289.0155 0002056  56.3759 303.7436 15.75687144 32109 | 2016/04/28-16:52:02  180.9653    0.0999  303.7240   91.3887     6720.8135     6719.4317     6722.1953  16.824375 -48.818626   0.000199  -0.000052
1 40956U 98067HH  16120.71747642  .00062532  00000-0  39729-3 0  9993 | 2 40956  51.6364 283.7904 0001860  56.5021 303.6157 15.75870423 32268 | 2016/04/29-17:13:09  192.4737    0.1000  303.5979   91.3781     6720.2924     6719.0425     6721.5424  12.308607 -50.147941   0.000175  -0.000063
1 40956U 98067HH  16121.79547599  .00072478  00000-0  45678-3 0  9991 | 2 40956  51.6360 278.2390 0001906  51.8390 308.2781 15.75995780 32437 | 2016/04/30-19:05:29  227.1682    0.1000  308.2610   91.3708     6719.9361     6718.6552     6721.2169   7.399574 -51.103061   0.000165  -0.000095
1 40956U 98067HH  16122.80997717  .00067771  00000-0  42500-3 0  9996 | 2 40956  51.6358 273.0126 0001939  50.6666 309.4505 15.76135412 32596 | 2016/05/01-19:26:22  238.6150    0.0999  309.4333   91.3627     6719.5392     6718.2363     6720.8421   2.713749 -51.564439   0.000156  -0.000115
1 40956U 98067HH  16124.52167141  .00087327  00000-0  53646-3 0  9999 | 2 40956  51.6359 264.1926 0002040  42.7331 317.3827 15.76503345 32860 | 2016/05/03-12:31:12  145.3333    0.1000  317.3669   91.3414     6718.4936     6717.1231     6719.8642  -5.224768 -51.370886   0.000123  -0.000163
1 40956U 98067HH  16125.59922666  .00076320  00000-0  46679-3 0  9997 | 2 40956  51.6363 258.6375 0002072  41.0676 319.0480 15.76656511 33038 | 2016/05/04-14:22:53  179.8706    0.1000  319.0324   91.3325     6718.0585     6716.6665     6719.4505 -10.173162 -50.624246   0.000103  -0.000180
1 40956U 98067HH  16126.61330717  .00060783  00000-0  37121-3 0  9999 | 2 40956  51.6370 253.4089 0002090  39.1293 320.9858 15.76781065 33194 | 2016/05/05-14:43:09  191.1682    0.1000  320.9707   91.3253     6717.7047     6716.3007     6719.1087 -14.744403 -49.487194   0.000080  -0.000193
1 40956U 98067HH  16128.13426648  .00072774  00000-0  43877-3 0  9995 | 2 40956  51.6373 245.5659 0002294  37.5114 322.6046 15.76999515 33438 | 2016/05/07-03:13:20   28.0548    0.1000  322.5886   91.3126     6717.0843     6715.5434     6718.6252 -21.359581 -47.012541   0.000052  -0.000223
1 40956U 98067HH  16129.14812140  .00061920  00000-0  37219-3 0  9997 | 2 40956  51.6372 240.3363 0002428  36.8590 323.2577 15.77132504 33592 | 2016/05/08-03:33:17   39.2708    0.1001  323.2411   91.3049     6716.7067     6715.0759     6718.3375 -25.555676 -44.869899   0.000030  -0.000241
1 40956U 98067HH  16130.16186460  .00050036  00000-0  29922-3 0  9998 | 2 40956  51.6372 235.1060 0002438  37.2673 322.8496 15.77336481 33759 | 2016/05/09-03:53:05   50.4476    0.1000  322.8327   91.2931     6716.1277     6714.4903     6717.7651 -29.539576 -42.353440   0.000010  -0.000244
1 40956U 98067HH  16131.49220305  .00073717  00000-0  43303-3 0  9992 | 2 40956  51.6366 228.2386 0002536  37.2944 322.8232 15.77580761 33969 | 2016/05/10-11:48:46  177.5474    0.1000  322.8056   91.2790     6715.4343     6713.7313     6717.1374 -34.391530 -38.517024  -0.000020  -0.000253
1 40956U 98067HH  16132.50568780  .00068677  00000-0  40164-3 0  9998 | 2 40956  51.6364 223.0058 0002630  38.7761 321.3427 15.77708105 34127 | 2016/05/11-12:08:11  188.6325    0.1000  321.3239   91.2716     6715.0730     6713.3069     6716.8390 -37.760907 -35.219763  -0.000038  -0.000260
1 40956U 98067HH  16134.21578535  .00058928  00000-0  34287-3 0  9994 | 2 40956  51.6363 214.1753 0002844  39.8472 320.2737 15.77883290 34397 | 2016/05/13-05:10:43   94.7815    0.1001  320.2529   91.2615     6714.5759     6712.6663     6716.4856 -42.719889 -29.005492  -0.000078  -0.000273
1 40956U 98067HH  16135.22908355  .00063801  00000-0  36886-3 0  9996 | 2 40956  51.6362 208.9413 0002866  42.4045 317.7177 15.77994416 34550 | 2016/05/14-05:29:52  105.8003    0.1001  317.6956   91.2551     6714.2607     6712.3364     6716.1850 -45.187662 -24.987445  -0.000092  -0.000272
1 40956U 98067HH  16136.43224757  .00095015  00000-0  53995-3 0  9999 | 2 40956  51.6362 202.7243 0002951  44.3901 315.7336 15.78220281 34749 | 2016/05/15-10:22:26  186.3408    0.1001  315.7100   91.2420     6713.6201     6711.6389     6715.6013 -47.627906 -19.946923  -0.000115  -0.000272
1 40956U 98067HH  16138.07838333  .00128399  00000-0  71362-3 0  9992 | 2 40956  51.6360 194.2174 0003045  47.4838 312.6420 15.78587498 35009 | 2016/05/17-01:52:52   69.0770    0.1001  312.6163   91.2208     6712.5789     6710.5349     6714.6229 -50.054431 -12.681894  -0.000144  -0.000268
1 40956U 98067HH  16139.15450277  .00097437  00000-0  53973-3 0  9995 | 2 40956  51.6355 188.6528 0003131  50.5178 309.6100 15.78779055 35172 | 2016/05/18-03:42:29  103.1032    0.1002  309.5824   91.2097     6712.0359     6709.9344     6714.1374 -51.047793  -7.768378  -0.000160  -0.000269
1 40956U 98067HH  16140.29379544  .00062614  00000-0  34718-3 0  9994 | 2 40956  51.6351 182.7592 0003137  55.7763 304.3535 15.78932474 35357 | 2016/05/19-07:03:03  160.2631    0.1001  304.3238   91.2009     6711.6011     6709.4957     6713.7065 -51.575238  -2.485637  -0.000164  -0.000268
1 40956U 98067HH  16141.30639162  .00071843  00000-0  39408-3 0  9997 | 2 40956  51.6348 177.5203 0003176  58.8160 301.3152 15.79116747 35510 | 2016/05/20-07:21:12  171.0333    0.1001  301.2841   91.1902     6711.0790     6708.9475     6713.2104 -51.586450   2.234001  -0.000176  -0.000264
1 40956U 98067HH  16142.50871782  .00095181  00000-0  51525-3 0  9991 | 2 40956  51.6343 171.2981 0003218  63.3047 296.8284 15.79297161 35706 | 2016/05/21-12:12:33  251.2761    0.1002  296.7955   91.1798     6710.5678     6708.4084     6712.7273 -51.039931   7.811939  -0.000186  -0.000262
1 40956U 98067HH  16143.64764699  .00070373  00000-0  38062-3 0  9992 | 2 40956  51.6340 165.4020 0003246  67.8074 292.3271 15.79435917 35881 | 2016/05/22-15:32:36  308.3079    0.1001  292.2927   91.1718     6710.1748     6707.9967     6712.3529 -49.967150  13.013605  -0.000194  -0.000260
1 40956U 98067HH  16145.16606541  .00050552  00000-0  27298-3 0  9998 | 2 40956  51.6343 157.5406 0003205  72.4166 287.7185 15.79605711 36124 | 2016/05/24-03:59:08  144.2960    0.1001  287.6835   91.1620     6709.6940     6707.5435     6711.8444 -47.717863  19.725783  -0.000206  -0.000245
1 40956U 98067HH  16146.43129997  .00046863  00000-0  25208-3 0  9993 | 2 40956  51.6348 150.9881 0003176  79.0893 281.0466 15.79724352 36324 | 2016/05/25-10:21:04  247.5792    0.1002  281.0109   91.1551     6709.3580     6707.2271     6711.4889 -45.155613  25.042427  -0.000204  -0.000244
1 40956U 98067HH  16147.44341944  .00042664  00000-0  22899-3 0  9991 | 2 40956  51.6351 145.7460 0003184  81.5118 278.6244 15.79814780 36488 | 2016/05/26-10:38:31  258.1816    0.1001  278.5883   91.1499     6709.1020     6706.9658     6711.2382 -42.679015  29.063468  -0.000216  -0.000234
1 40956U 98067HH  16148.45548073  .00050153  00000-0  26715-3 0  9998 | 2 40956  51.6355 140.5038 0003138  86.2080 273.9280 15.79910735 36648 | 2016/05/27-10:55:53  268.7636    0.1001  273.8921   91.1444     6708.8303     6706.7251     6710.9356 -39.845399  32.841574  -0.000215  -0.000228
1 40956U 98067HH  16149.84694806  .00059728  00000-0  31467-3 0  9995 | 2 40956  51.6353 133.2956 0003133  94.3900 265.7460 15.80079918 36864 | 2016/05/28-20:19:36   58.2715    0.1002  265.7102   91.1346     6708.3514     6706.2497     6710.4532 -35.409550  37.581484  -0.000211  -0.000232
1 40956U 98067HH  16150.92206337 +.00055950 +00000-0 +29327-3 0  9999 | 2 40956 051.6348 127.7238 0003106 100.4576 259.6776 15.80218085037039 | 2016/05/29-22:07:46   91.9453    0.1002  259.6426   91.1267     6707.9604     6705.8769     6710.0439 -31.593044  40.841549  -0.000207  -0.000231
1 40956U 98067HH  16151.93384513 +.00062507 +00000-0 +32481-3 0  9995 | 2 40956 051.6344 122.4792 0003067 108.4930 251.6405 15.80363218037197 | 2016/05/30-22:24:44  102.4303    0.1001  251.6071   91.1183     6707.5497     6705.4925     6709.6069 -27.727332  43.558080  -0.000193  -0.000238
1 40956U 98067HH  16152.94553882 +.00068277 +00000-0 +35198-3 0  9992 | 2 40956 051.6340 117.2340 0003020 113.2443 246.8877 15.80502326037358 | 2016/05/31-22:41:34  112.8839    0.1002  246.8559   91.1103     6707.1561     6705.1306     6709.1817 -23.629042  45.910111  -0.000192  -0.000233
1 40956U 98067HH  16154.14680983  .00061723  00000-0  31647-3 0  9993 | 2 40956  51.6344 111.0038 0002938 121.9437 238.1851 15.80661241 37543 | 2016/06/02-03:31:24  192.7589    0.1002  238.1565   91.1011     6706.7066     6704.7361     6708.6770 -18.507311  48.203638  -0.000177  -0.000234
1 40956U 98067HH  16155.22153567  .00060750  00000-0  30971-3 0  9994 | 2 40956  51.6347 105.4295 0002964 125.5168 234.6111 15.80791944 37711 | 2016/06/03-05:19:00  226.2947    0.1002  234.5834   91.0936     6706.3369     6704.3491     6708.3246 -13.737539  49.773710  -0.000187  -0.000230
1 40956U 98067HH  16156.29617093  .00058184  00000-0  29507-3 0  9992 | 2 40956  51.6351  99.8542 0003087 134.7976 225.3278 15.80923584 37889 | 2016/06/04-07:06:29  259.8004    0.1003  225.3027   91.0860     6705.9646     6703.8945     6708.0347  -8.836913  50.873299  -0.000179  -0.000252
1 40956U 98067HH  16157.30751351  .00067904  00000-0  34141-3 0  9991 | 2 40956  51.6357  94.6073 0003126 141.1081 219.0146 15.81049170 38044 | 2016/06/05-07:22:49  270.1302    0.1002  218.9921   91.0788     6705.6095     6703.5133     6707.7056  -4.147685  51.468847  -0.000176  -0.000258
1 40956U 98067HH  16158.82433349  .00097468  00000-0  48064-3 0  9990 | 2 40956  51.6355  86.7360 0003093 150.8386 209.2789 15.81327989 38288 | 2016/06/06-19:47:02  105.5569    0.1002  209.2616   91.0627     6704.8212     6702.7474     6706.8950   2.939957  51.551736  -0.000166  -0.000261
1 40956U 98067HH  16159.83540765 +.00077996 +00000-0 +38360-3 0  9995 | 2 40956 051.6356 081.4871 0002987 157.8591 202.2540 15.81473236038447 | 2016/06/07-20:02:59  115.7935    0.1001  202.2410   91.0543     6704.4107     6702.4081     6706.4133   7.643725  51.066708  -0.000152  -0.000257
1 40956U 98067HH  16160.84639460 +.00061691 +00000-0 +30291-3 0  9999 | 2 40956 051.6353 076.2368 0003053 164.9853 195.1240 15.81600681038603 | 2016/06/08-20:18:48  125.9994    0.1002  195.1149   91.0470     6704.0505     6702.0038     6706.0973  12.284537  50.152710  -0.000147  -0.000268
1 40956U 98067HH  16161.92048144 +.00055829 +00000-0 +27303-3 0  9998 | 2 40956 051.6349 070.6574 0003186 172.6101 187.4949 15.81727325038777 | 2016/06/09-22:05:29  159.3130    0.1002  187.4901   91.0397     6703.6927     6701.5569     6705.8285  17.102306  48.720365  -0.000143  -0.000285
1 40956U 98067HH  16162.99446203  .00071810  00000-0  34682-3 0  9990 | 2 40956  51.6348  65.0777 0003254 180.8628 179.2369 15.81896285 38946 | 2016/06/10-23:52:01  192.5896    0.1002  179.2374   91.0300     6703.2153     6701.0341     6705.3966  21.758327  46.826571  -0.000133  -0.000297
1 40956U 98067HH  16164.13150788  .00081560  00000-0  39012-3 0  9993 | 2 40956  51.6344  59.1684 0003449 186.2595 173.8365 15.82053900 39129 | 2016/06/12-03:09:22  248.9598    0.1002  173.8407   91.0209     6702.7701     6700.4583     6705.0819  26.463483  44.337290  -0.000143  -0.000314
1 40956U 98067HH  16165.52106730  .00073828  00000-0  35035-3 0  9994 | 2 40956  51.6346  51.9465 0003467 194.1117 165.9790 15.82262689 39340 | 2016/06/13-12:30:20   37.7980    0.1003  165.9886   91.0089     6702.1804     6699.8568     6704.5041  31.827413  40.658919  -0.000141  -0.000317
1 40956U 98067HH  16166.78415314  .00064386  00000-0  30390-3 0  9992 | 2 40956  51.6355  45.3802 0003472 205.7415 154.3415 15.82431934 39547 | 2016/06/14-18:49:10  140.3279    0.1002  154.3587   90.9992     6701.7026     6699.3757     6704.0294  36.268727  36.753290  -0.000112  -0.000329
1 40956U 98067HH  16168.67849974  .00068611  00000-0  31913-3 0  9992 | 2 40956  51.6352  35.5285 0003709 217.5825 142.4919 15.82719440 39840 | 2016/06/16-16:17:02  114.0201    0.1003  142.5178   90.9826     6700.8909     6698.4056     6703.3763  42.022097  30.005620  -0.000108  -0.000355
1 40956U 98067HH  16169.68868961  .00067446  00000-0  31187-3 0  9999 | 2 40956  51.6348  30.2732 0003784 224.0480 136.0222 15.82851166 40005 | 2016/06/17-16:31:42  123.9436    0.1003  136.0523   90.9751     6700.5192     6697.9837     6703.0547  44.593437  26.030327  -0.000102  -0.000364
1 40956U 98067HH  16170.69878912  .00072012  00000-0  33027-3 0  9999 | 2 40956  51.6344  25.0172 0003809 230.9455 129.1209 15.82999965 40162 | 2016/06/18-16:46:15  133.8349    0.1003  129.1548   90.9665     6700.0993     6697.5472     6702.6513  46.790106  21.835688  -0.000092  -0.000370
1 40956U 98067HH  16171.83503425  .00068326  00000-0  31124-3 0  9999 | 2 40956  51.6345  19.1027 0003928 238.4420 121.6200 15.83164694 40345 | 2016/06/19-20:02:26  189.9219    0.1003  121.6583   90.9571     6699.6345     6697.0029     6702.2661  48.791168  16.898032  -0.000085  -0.000384
1 40956U 98067HH  16172.84492368  .00074146  00000-0  33443-3 0  9997 | 2 40956  51.6343  13.8446 0004122 243.9386 116.1193 15.83341681 40509 | 2016/06/20-20:16:41  199.7397    0.1003  116.1617   90.9469     6699.1352     6696.3739     6701.8966  50.134236  12.355537  -0.000087  -0.000403
1 40956U 98067HH  16174.54890719  .00056845  00000-0  25514-3 0  9994 | 2 40956  51.6342   4.9719 0004277 256.9127 103.1399 15.83549908 40775 | 2016/06/22-13:10:25  103.7313    0.1003  103.1876   90.9349     6698.5480     6695.6830     6701.4129  51.439917   4.474990  -0.000060  -0.000423
1 40956U 98067HH  16175.55857668  .00058419  00000-0  25845-3 0  9998 | 2 40956  51.6338 359.7126 0004258 255.7668 104.3382 15.83674563 40938 | 2016/06/23-13:24:21  113.4144    0.1523  104.3855   90.9278     6698.1964     6695.3444     6701.0485  51.633150  -0.258998  -0.000107  -0.000412
1 40956U 98067HH  16176.88362037  .00056657  00000-0  25070-3 0  9998 | 2 40956  51.6345 352.8077 0004682 265.9826  94.0642 15.83850289 41144 | 2016/06/24-21:12:24  238.6993    0.1003   94.1177   90.9177     6697.7010     6694.5651     6700.8369  51.228216  -6.464634  -0.000091  -0.000459
1 40956U 98067HH  16178.46088092  .00055983  00000-0  24549-3 0  9991 | 2 40956  51.6344 344.5886 0004915 275.7397  84.3045 15.84044192 41395 | 2016/06/26-11:03:40   96.2894    0.1002   84.3605   90.9066     6697.1544     6693.8628     6700.4461  49.777759 -13.721735  -0.000083  -0.000485
1 40956U 98067HH  16179.47020060  .00081009  00000-0  34945-3 0  9993 | 2 40956  51.6341 339.3273 0005145 282.2389  77.8038 15.84242386 41556 | 2016/06/27-11:17:05  105.9021    0.1003   77.8614   90.8952     6696.5958     6693.1504     6700.0412  48.309501 -18.228339  -0.000075  -0.000509
1 40956U 98067HH  16180.47941360  .00078278  00000-0  33518-3 0  9999 | 2 40956  51.6339 334.0646 0005349 287.1380  72.9037 15.84409206 41719 | 2016/06/28-11:30:21  115.4772    0.1003   72.9623   90.8856     6696.1258     6692.5440     6699.7075  46.433733 -22.582473  -0.000082  -0.000529
1 40956U 98067HH  16181.67772269  .00060379  00000-0  25794-3 0  9992 | 2 40956  51.6336 327.8141 0005515 291.6201  68.4215 15.84558079 41905 | 2016/06/29-16:15:55  194.3002    0.1004   68.4803   90.8771     6695.7064     6692.0137     6699.3990  43.698769 -27.503567  -0.000101  -0.000542
1 40956U 98067HH  16182.74981159  .00052136  00000-0  22222-3 0  9996 | 2 40956  51.6335 322.2209 0005748 296.5840  63.4574 15.84664244 42073 | 2016/06/30-17:59:43  226.9023    0.1003   63.5163   90.8710     6695.4073     6691.5588     6699.2558  40.810010 -31.631652  -0.000112  -0.000564
1 40956U 98067HH  16183.82181720  .00057547  00000-0  24312-3 0  9995 | 2 40956  51.6338 316.6271 0005897 301.8722  58.1707 15.84807412 42240 | 2016/07/01-19:43:25  259.4733    0.1003   58.2281   90.8628     6695.0041     6691.0560     6698.9521  37.532587 -35.459191  -0.000118  -0.000578
1 40956U 98067HH  16185.52424097  .00051320  00000-0  21540-3 0  9994 | 2 40956  51.6343 307.7430 0006185 310.2532  49.7930 15.84989361 42516 | 2016/07/03-12:34:54  162.9046    0.1004   49.8472   90.8523     6694.4917     6690.3512     6698.6322  31.606423 -40.830564  -0.000129  -0.000605
1 40956U 98067HH  16186.53298692  .00056881  00000-0  23688-3 0  9998 | 2 40956  51.6341 302.4774 0006299 314.5630  45.4858 15.85108542 42673 | 2016/07/04-12:47:30  172.3104    0.1003   45.5373   90.8455     6694.1561     6689.9395     6698.3728  27.725802 -43.558698  -0.000141  -0.000614
1 40956U 98067HH  16187.54166052  .00047616  00000-0  19799-3 0  9998 | 2 40956  51.6339 297.2114 0006451 318.1065  41.9445 15.85214730 42839 | 2016/07/05-12:59:59  181.6909    0.1004   41.9939   90.8394     6693.8572     6689.5390     6698.1754  23.610886 -45.919339  -0.000164  -0.000624
1 40956U 98067HH  16188.55026583  .00046287  00000-0  19158-3 0  9996 | 2 40956  51.6337 291.9451 0006645 322.9574  37.0971 15.85320992 42990 | 2016/07/06-13:12:22  191.0457    0.1005   37.1431   90.8333     6693.5581     6689.1102     6698.0059  19.296443 -47.892445  -0.000173  -0.000642
1 40956U 98067HH  16190.12606597  .00078145  00000-0  31679-3 0  9991 | 2 40956  51.6333 283.7158 0006850 329.7167  30.3440 15.85537515 43247 | 2016/07/08-03:01:32   48.1101    0.1004   30.3837   90.8209     6692.9487     6688.3640     6697.5333  12.242568 -50.160913  -0.000195  -0.000657
1 40956U 98067HH  16191.44948605  .00097683  00000-0  38775-3 0  9998 | 2 40956  51.6327 276.7997 0006979 334.7096  25.3565 15.85885405 43451 | 2016/07/09-10:47:15  172.7564    0.1004   25.3908   90.8010     6691.9698     6687.2995     6696.6401   6.113248 -51.269522  -0.000221  -0.000662
1 40956U 98067HH  16192.58365109 +.00099167 +00000-0 +38937-3 0  9995 | 2 40956 051.6324 270.8711 0007139 339.4861 020.5855 15.86102726043636 | 2016/07/10-14:00:27  228.0968    0.1004   20.6143   90.7886     6691.3585     6686.5816     6696.1355   0.784966 -51.626433  -0.000240  -0.000672
1 40956U 98067HH  16193.59166521  .00093617  00000-0  36445-3 0  9990 | 2 40956  51.6323 265.5996 0007254 345.6683  14.4114 15.86299484 43795 | 2016/07/11-14:11:59  237.2389    0.1004   14.4321   90.7773     6690.8052     6685.9517     6695.6587  -3.961539 -51.480099  -0.000233  -0.000687
1 40956U 98067HH  16194.59955589  .00120260  00000-0  46130-3 0  9998 | 2 40956  51.6324 260.3277 0007266 350.1416   9.9445 15.86504051 43952 | 2016/07/12-14:23:21  246.3384    0.1005    9.9589   90.7656     6690.2300     6685.3689     6695.0912  -8.674905 -50.898436  -0.000243  -0.000685
1 40956U 98067HH  16196.17411453  .00104078  00000-0  39422-3 0  9996 | 2 40956  51.6325 252.0894 0007438 356.3330   3.7619 15.86817888 44209 | 2016/07/14-04:10:43  102.9610    0.1005    3.7675   90.7477     6689.3479     6684.3724     6694.3234 -15.878680 -49.130261  -0.000274  -0.000692
1 40956U 98067HH  16197.18166976  .00109726  00000-0  41092-3 0  9996 | 2 40956  51.6321 246.8153 0007477   1.6784 358.4244 15.87028433 44362 | 2016/07/15-04:21:36  111.9402    0.1004  358.4220   90.7356     6688.7562     6683.7551     6693.7574 -20.327375 -47.462318  -0.000274  -0.000696
1 40956U 98067HH  16198.56679233 +.00169253 +00000-0 +61667-3 0  9995 | 2 40956 051.6320 239.5611 0007468 007.8812 352.2309 15.87401183044584 | 2016/07/16-13:36:10  259.1944    0.1005  352.2193   90.7143     6687.7091     6682.7147     6692.7035 -26.157764 -44.515557  -0.000286  -0.000690
1 40956U 98067HH  16199.57400096 +.00094813 +00000-0 +34680-3 0  9990 | 2 40956 051.6315 234.2846 0007480 012.7119 347.4073 15.87563875044748 | 2016/07/17-13:46:33  268.0517    0.1005  347.3886   90.7050     6687.2522     6682.2501     6692.2543 -30.140377 -41.920991  -0.000292  -0.000689
1 40956U 98067HH  16200.89577536 +.00077511 +00000-0 +28124-3 0  9994 | 2 40956 051.6310 227.3586 0007530 017.7682 342.3585 15.87802981044952 | 2016/07/18-21:29:54   32.1118    0.1005  342.3323   90.6914     6686.5808     6681.5458     6691.6158 -34.975236 -37.980167  -0.000317  -0.000683
1 40956U 98067HH  16201.90272074 +.00071849 +00000-0 +25915-3 0  9999 | 2 40956 051.6305 222.0799 0007406 022.2293 337.9031 15.87953499045111 | 2016/07/19-21:39:55   40.8776    0.1004  337.8711   90.6828     6686.1583     6681.2065     6691.1101 -38.320724 -34.601020  -0.000321  -0.000667
1 40956U 98067HH  16202.90955581 +.00087461 +00000-0 +31108-3 0  9999 | 2 40956 051.6307 216.8009 0007476 025.6838 334.4537 15.88159852045279 | 2016/07/20-21:49:45   49.6045    0.1005  334.4167   90.6710     6685.5791     6680.5810     6690.5773 -41.341835 -30.928657  -0.000345  -0.000663
1 40956U 98067HH  16203.91626294 +.00082678 +00000-0 +29189-3 0  9998 | 2 40956 051.6308 211.5202 0007291 029.9298 330.2123 15.88332952045436 | 2016/07/21-21:59:25   58.2875    0.1006  330.1708   90.6611     6685.0934     6680.2193     6689.9675 -44.012980 -26.992538  -0.000348  -0.000640
1 40956U 98067HH  16205.11156782  .00099544  00000-0  34531-3 0  9999 | 2 40956  51.6309 205.2484 0007057  34.7197 325.4268 15.88617906 45623 | 2016/07/23-02:40:39  136.0428    0.1006  325.3809   90.6448     6684.2939     6679.5768     6689.0110 -46.698448 -22.022824  -0.000353  -0.000611
1 40956U 98067HH  16206.18088478  .00095234  00000-0  32750-3 0  9996 | 2 40956  51.6311 199.6359 0006925  38.8788 321.2714 15.88810087 45790 | 2016/07/24-04:20:28  167.6596    0.1005  321.2217   90.6339     6683.7549     6679.1264     6688.3834 -48.628601 -17.350206  -0.000362  -0.000591
1 40956U 98067HH  16207.18719639  .00103191  00000-0  35158-3 0  9994 | 2 40956  51.6311 194.3532 0006881  42.9733 317.1808 15.88965659 45954 | 2016/07/25-04:29:33  176.2025    0.1005  317.1272   90.6250     6683.3186     6678.7198     6687.9174 -50.019485 -12.799280  -0.000371  -0.000579
1 40956U 98067HH  16208.19337370  .00084293  00000-0  28467-3 0  9990 | 2 40956  51.6311 189.0692 0006588  47.8842 312.2722 15.89221247 46110 | 2016/07/26-04:38:27  184.6998    0.1005  312.2163   90.6104     6682.6020     6678.1996     6687.0045 -50.985643  -8.138468  -0.000359  -0.000552
1 40956U 98067HH  16209.19941988  .00101948  00000-0  34030-3 0  9997 | 2 40956  51.6306 183.7848 0006425  52.4431 307.7158 15.89382986 46271 | 2016/07/27-04:47:09  193.1499    0.1006  307.6575   90.6012     6682.1487     6677.8554     6686.4420 -51.517994  -3.408094  -0.000357  -0.000534
1 40956U 98067HH  16210.39398188  .00078589  13370-4  27275-3 0  9994 | 2 40956  51.6303 177.5084 0006332  57.8785 302.2834 15.89538629 46468 | 2016/07/28-09:27:20  270.6430    0.1005  302.2220   90.5923     6681.7125     6677.4816     6685.9433 -51.581489   2.244520  -0.000360  -0.000521
1 40956U 98067HH  16212.15412547  .00089440  14046-4  30385-3 0  9991 | 2 40956  51.6302 168.2568 0006052  66.0009 294.1630 15.89861467 46744 | 2016/07/30-03:41:56  195.2792    0.1006  294.0997   90.5739     6680.8079     6676.7647     6684.8511 -50.549561  10.508065  -0.000354  -0.000491
1 40956U 98067HH  16213.34831290  .00068369  12850-4  23289-3 0  9996 | 2 40956  51.6302 161.9774 0005761  72.5916 287.5719 15.90038997 46939 | 2016/07/31-08:21:34  272.6435    0.1006  287.5090   90.5638     6680.3106     6676.4621     6684.1592 -49.096941  15.973976  -0.000334  -0.000469
1 40956U 98067HH  16215.10793946  .00070451  12967-4  23678-3 0  9993 | 2 40956  51.6308 152.7223 0005523  80.6868 279.4762 15.90276983 47213 | 2016/08/02-02:35:25  197.0991    0.1006  279.4138   90.5503     6679.6441     6675.9550     6683.3333 -45.889232  23.662585  -0.000329  -0.000443
1 40956U 98067HH  16216.17615412  .00103308  15052-4  33912-3 0  9990 | 2 40956  51.6312 147.1028 0005332  85.8078 274.3537 15.90444082 47386 | 2016/08/03-04:13:39  228.3302    0.1006  274.2928   90.5408     6679.1763     6675.6149     6682.7376 -43.351952  28.042630  -0.000322  -0.000425
1 40956U 98067HH  16217.62090940  .00196872  00000-0  60089-3 0  9990 | 2 40956  51.6313 139.4890 0004901 101.4846 258.7244 15.91172541 47107 | 2016/08/04-14:54:06   37.4324    0.1539  258.6693   90.4993     6677.1376     6673.8651     6680.4100 -39.254310  33.539384  -0.000238  -0.000429
1 40956U 98067HH  16218.89763520  .00116148  16158-4  36136-3 0  9990 | 2 40956  51.6327 132.7670 0004758 101.1526  17.8634 15.91423267 47815 | 2016/08/05-21:32:35   26.2271  119.0327   17.8801   90.4850     6676.4362     6673.2596     6679.6129 -35.059563  37.904653  -0.000280  -0.000385
1 40956U 98067HH  16219.94431774 +.00102527 +15080-4 +31642-3 0  9996 | 2 40956 051.6304 127.2539 0004264 109.2244 250.9224 15.91658326047980 | 2016/08/06-22:39:49  168.4468    0.1006  250.8762   90.4717     6675.7789     6672.9323     6678.6254 -31.254368  41.095774  -0.000235  -0.000355
1 40956U 98067HH  16220.94879410 +.00115176 +16114-4 +34989-3 0  9991 | 2 40956 051.6300 121.9582 0004043 116.5551 243.5871 15.91894293048142 | 2016/08/07-22:46:15  176.3486    0.1007  243.5456   90.4583     6675.1192     6672.4204     6677.8179 -27.327781  43.804672  -0.000211  -0.000345
1 40956U 98067HH  16221.95311172 +.00134503 +17926-4 +40126-3 0  9996 | 2 40956 051.6300 116.6612 0003789 124.3639 235.7727 15.92163351048303 | 2016/08/08-22:52:28  184.1955    0.1007  235.7368   90.4430     6674.3671     6671.8382     6676.8961 -23.167099  46.140464  -0.000184  -0.000331
1 40956U 98067HH  16223.08276679  .00139308  18449-4  40866-3 0  9994 | 2 40956  51.6295 110.7003 0003670 134.0653 226.0657 15.92470045 48483 | 2016/08/10-01:59:11  237.9513    0.1007  226.0354   90.4256     6673.5102     6671.0610     6675.9594 -18.249982  48.296412  -0.000156  -0.000332
1 40956U 98067HH  16224.14945074  .00136565  18202-4  39414-3 0  9990 | 2 40956  51.6295 105.0694 0003500 143.1503 216.9745 15.92791626 48659 | 2016/08/11-03:35:12  268.6460    0.1007  216.9504   90.4073     6672.6119     6670.2765     6674.9473 -13.423094  49.854045  -0.000130  -0.000325
1 40956U 98067HH  16225.46682137  .00141765  18788-4  40057-3 0  9996 | 2 40956  51.6299  98.1135 0003176 156.8500 203.2650 15.93179242 48864 | 2016/08/12-11:12:13   31.1635    0.1006  203.2506   90.3853     6671.5296     6669.4107     6673.6484  -7.286760  51.113107  -0.000082  -0.000307
1 40956U 98067HH  16226.47031526  .00142218  18872-4  39551-3 0  9993 | 2 40956  51.6294  92.8105 0003072 165.3347 194.7749 15.93479606 49025 | 2016/08/13-11:17:15   38.7188    0.1006  194.7659   90.3683     6670.6912     6668.6419     6672.7404  -2.531535  51.567299  -0.000063  -0.000301
1 40956U 98067HH  16227.84982078 +.00134037 +18061-4 +36568-3 0  9997 | 2 40956 051.6295 085.5158 0003123 182.0359 178.0636 15.93868609049248 | 2016/08/14-20:23:44  184.0053    0.1007  178.0648   90.3462     6669.6058     6667.5228     6671.6887   4.036610  51.471459  -0.000013  -0.000312
1 40956U 98067HH  16228.85289907  .00138784  18582-4  37312-3 0  9999 | 2 40956  51.6290  80.2105 0003118 190.9244 169.1696 15.94127821 49402 | 2016/08/15-20:28:10  191.4130    0.1007  169.1763   90.3315     6668.8827     6666.8034     6670.9621   8.778423  50.877234   0.000006  -0.000312
1 40956U 98067HH  16230.04382577  .00152428  20141-4  40137-3 0  9994 | 2 40956  51.6283  73.9079 0003137 203.0266 157.0601 15.94475743 49595 | 2016/08/17-01:03:06  267.6303    0.1007  157.0741   90.3118     6667.9126     6665.8208     6670.0043  14.310445  49.605368   0.000038  -0.000311
1 40956U 98067HH  16231.73571150  .00153280  20316-4  39179-3 0  9993 | 2 40956  51.6279  64.9481 0003329 222.0313 138.0440 15.95026037 49863 | 2016/08/18-17:39:25  167.3480    0.1008  138.0695   90.2807     6666.3788     6664.1596     6668.5981  21.861269  46.770984   0.000097  -0.000318
1 40956U 98067HH  16232.86330866  .00147115  19650-4  36897-3 0  9998 | 2 40956  51.6276  58.9719 0003467 235.3867 124.6814 15.95393566 50043 | 2016/08/19-20:43:09  220.3778    0.1008  124.7141   90.2599     6665.3550     6663.0441     6667.6659  26.611880  44.240444   0.000143  -0.000316
1 40956U 98067HH  16233.86541157  .00143852  19321-4  35510-3 0  9996 | 2 40956  51.6276  53.6588 0003635 244.9776 115.0854 15.95695252 50204 | 2016/08/20-20:46:11  227.4408    0.1007  115.1231   90.2428     6664.5148     6662.0923     6666.9374  30.594131  41.586154   0.000174  -0.000319
1 40956U 98067HH  16234.86733261  .00159544  21215-4  38686-3 0  9993 | 2 40956  51.6279  48.3450 0003742 253.9019 106.1577 15.95979945 50369 | 2016/08/21-20:48:57  234.4371    0.1008  106.1989   90.2267     6663.7223     6661.2287     6666.2158  34.314161  38.574324   0.000200  -0.000316
1 40956U 98067HH  16235.86907269  .00133100  18231-4  31901-3 0  9992 | 2 40956  51.6278  43.0294 0004046 258.6141 101.4413 15.96268702 50520 | 2016/08/22-20:51:27  241.3707    0.1008  101.4867   90.2104     6662.9186     6660.2228     6665.6144  37.740110  35.229445   0.000212  -0.000344
1 40956U 98067HH  16236.87062332  .00173943  23200-4  40706-3 0  9991 | 2 40956  51.6282  37.7135 0004333 270.3579  89.6933 15.96591894 50686 | 2016/08/23-20:53:41  248.2362    0.1009   89.7430   90.1921     6662.0194     6659.1328     6664.9061  40.842007  31.581664   0.000267  -0.000341
1 40956U 98067HH  16237.87192297  .00169887  22726-4  38816-3 0  9999 | 2 40956  51.6281  32.3949 0004611 278.8885  81.1601 15.97032855 50846 | 2016/08/24-20:55:34  255.0122    0.1008   81.2123   90.1672     6660.7931     6657.7218     6663.8643  43.593509  27.659839   0.000304  -0.000346
1 40956U 98067HH  16238.87297644 +.00164416 +22060-4 +36847-3 0  9998 | 2 40956 051.6273 027.0741 0004944 285.0562 074.9900 15.97390950051003 | 2016/08/25-20:57:05  261.7013    0.1009   75.0447   90.1470     6659.7976     6656.5050     6663.0902  45.969910  23.497776   0.000332  -0.000367
1 40956U 98067HH  16239.87380061 +.00200495 +27413-4 +43789-3 0  9993 | 2 40956 051.6273 021.7519 0005249 290.4527 069.5918 15.97784206051164 | 2016/08/26-20:58:16  268.3084    0.1009   69.6482   90.1248     6658.7048     6655.2096     6662.1999  47.951295  19.132470   0.000353  -0.000389
1 40956U 98067HH  16241.37461299  .00185078  25128-4  39302-3 0  9990 | 2 40956  51.6274  13.7670 0005952 301.9534  58.0896 15.98303910 51406 | 2016/08/28-08:59:26   98.0665    0.1009   58.1475   90.0955     6657.2612     6653.2988     6661.2236  50.144222  12.285983   0.000426  -0.000416
1 40956U 98067HH  16242.43738613  .00187571  25585-4  38982-3 0  9995 | 2 40956  51.6266   8.1069 0006189 307.0261  53.0182 15.98679731 51572 | 2016/08/29-10:29:50  127.3712    0.1010   53.0749   90.0743     6656.2179     6652.0983     6660.3374  51.110679   7.280407   0.000439  -0.000437
1 40956U 98067HH  16243.56238457  .00205190  28520-4  41496-3 0  9995 | 2 40956  51.6268   2.1133 0006611 313.2131  46.8326 15.99128965 51754 | 2016/08/30-13:29:50  179.4716    0.1010   46.8879   90.0490     6654.9712     6650.5716     6659.3708  51.591687   1.903773   0.000470  -0.000465
1 40956U 98067HH  16244.68701203  .00221684  31593-4  43288-3 0  9994 | 2 40956  51.6277 356.1175 0007309 318.7662  41.2795 15.99712658 51933 | 2016/08/31-16:29:17  231.4418    0.1010   41.3348   90.0162     6653.3523     6648.4894     6658.2152  51.509215  -3.495741   0.000516  -0.000518
1 40956U 98067HH  16245.74876830 +.00322118 +55051-4 +60336-3 0  9993 | 2 40956 051.6273 350.4519 0007519 323.3466 036.7029 16.00353847052108 | 2016/09/01-17:58:13  260.3824    0.1010   36.7544   89.9801     6651.5751     6646.5737     6656.5764  50.912091  -8.563706   0.000520  -0.000543
1 40956U 98067HH  16247.49654004  .00323936  56327-4  56610-3 0  9990 | 2 40956  51.6268 341.1129 0008391 330.5928  29.4609 16.01532091 52382 | 2016/09/03-11:55:01  180.6377    0.1010   29.5082   89.9139     6648.3123     6642.7337     6653.8909  48.847123 -16.711822   0.000558  -0.000626
1 40956U 98067HH  16248.68171651  .00334539  60079-4  55257-3 0  9990 | 2 40956  51.6268 334.7702 0008842 335.2432  24.8153 16.02475401 52576 | 2016/09/04-16:21:40  254.8073    0.1011   24.8579   89.8610     6645.7030     6639.8268     6651.5791  46.701886 -22.005915   0.000569  -0.000677
1 40956U 98067HH  16250.05320657  .00391961  79969-4  60833-3 0  9992 | 2 40956  51.6258 327.4188 0008965 340.9886  19.0790 16.03494305 52796 | 2016/09/06-01:16:37   37.2378    0.1012   19.1126   89.8039     6642.8874     6636.9321     6648.8428  43.501403 -27.800201   0.000557  -0.000703
1 40956U 98067HH  16251.42382372  .00444171  10187-3  64534-3 0  9996 | 2 40956  51.6253 320.0615 0008936 347.6004  12.4787 16.04571551 53018 | 2016/09/07-10:10:18  179.3567    0.1013   12.5009   89.7436     6639.9139     6633.9805     6645.8473  39.582870 -33.141635   0.000546  -0.000707
1 40956U 98067HH  16253.53997892  .00561849  16529-3  71343-3 0  9993 | 2 40956  51.6250 308.6785 0008410 358.6772   1.4217 16.06744514 53352 | 2016/09/09-12:57:34  234.6216    0.1013    1.4241   89.6222     6633.9260     6628.3469     6639.5052  32.263031 -40.301829   0.000510  -0.000668
1 40956U 98067HH  16254.59696435  .00539626  15504-3  64235-3 0  9991 | 2 40956  51.6253 302.9755 0008145   9.1885 350.9275 16.07769710 53528 | 2016/09/10-14:19:37  261.8641    0.1013  350.9128   89.5651     6631.1056     6625.7046     6636.5067  28.098637 -43.308639   0.000547  -0.000604
1 40956U 98067HH  16256.15011814  .00548007  16383-3  59020-3 0  9992 | 2 40956  51.6242 294.5841 0007539  16.8960 343.2304 16.09330909 53774 | 2016/09/12-03:36:10  110.9113    0.1015  343.2055   89.4782     6626.8164     6621.8205     6631.8124  21.477136 -46.944549   0.000499  -0.000565
1 40956U 98067HH  16257.51543180  .00760987  33305-3  72786-3 0  9999 | 2 40956  51.6235 287.1880 0006771  27.4202 332.7169 16.11154294 53991 | 2016/09/13-12:22:13  251.1553    0.1015  332.6813   89.3769     6621.8157     6617.3320     6626.2993  15.255156 -49.318009   0.000475  -0.000482
1 40956U 98067HH  16259.06493013  .00829885  42057-3  67609-3 0  9995 | 2 40956  51.6277 278.7418 0006089  30.0585 330.0792 16.13531372 54246 | 2016/09/15-01:33:29   98.9476    0.1029  330.0444   89.2452     6615.3105     6611.2824     6619.3385   7.846478 -51.027955   0.000382  -0.000475
1 40956U 98067HH  16260.24070607  .01034072  73005-3  70832-3 0  9993 | 2 40956  51.6214 272.3569 0005107  54.6084 305.5409 16.16058885 54439 | 2016/09/16-05:46:37  169.7591    0.1017  305.4933   89.1057     6608.4111     6605.0362     6611.7860   2.122882 -51.577731   0.000428  -0.000278
1 40956U 98067HH  16261.41474648  .01179234  10596-2  68048-3 0  9997 | 2 40956  51.6203 265.9302 0004823  66.4993 293.6531 16.18465804 54623 | 2016/09/17-09:57:14  239.9945    0.1018  293.6025   88.9731     6601.8577     6598.6736     6605.0417  -3.663580 -51.490131   0.000428  -0.000223
1 40956U 98067HH  16262.83336346  .01509994  11913-4  64101-3 0  9998 | 2 40956  51.6199 258.1336 0003927  91.0468 269.0524 16.22123845 54858 | 2016/09/18-20:00:02   39.9446    0.0542  269.0074   88.7725     6591.9287     6589.3401     6594.5174 -10.614617 -50.516769   0.000386  -0.000074
1 40956U 98067HH  16264.12484813  .03119255  12064-4  77708-3 0  9999 | 2 40956  51.6106 250.9863 0005040 133.9101 226.2158 16.28292832 55060 | 2016/09/20-02:59:46  153.2727    0.0842  226.1741   88.4362     6575.2686     6571.9547     6578.5826 -16.814436 -48.794762   0.000457   0.000212
1 40956U 98067HH  16265.16440768  .12703001  12410-4  54301-3 0  9992 | 2 40956  51.6056 245.1566 0005290 157.7247 202.4257 16.43374461 55233 | 2016/09/21-03:56:44  174.3439    0.1273  202.4026   87.6246     6534.9783     6531.5213     6538.4353 -21.681555 -46.829992   0.000388   0.000360
