# SPACE DATA - HISTORICAL TLEs
# ----------------------------
# NORAD_ID    : 39132
# OBJECT_NAME : DOVE 2
# --------------------------------------------------------------------+-----------------------------------------------------------------------+----------------------------------------------------------------------------------------------------------------------------------------
#                  LINE 1                                             |                 LINE 2                                                |      DERIVED PARAMETERS
# --------------------------------------------------------------------+-----------------------------------------------------------------------+----------------------------------------------------------------------------------------------------------------------------------------
# NORAD  COSPAR     TLE_EPOCH      MEANMOT1 MEANMOT2   BSTAR  #  REV  |   NORAD    INC     RAAN     ECC    ARGPER  MEANANOM   MEANMOT     REV |  CAL_DATE              LONG     ARGLAT     PERIOD        SMA         PERIGEE        APOGEE      INC_X      INC_Y      ECC_X      ECC_Y
# ------ ------   -------------- ----------  -------  ------- -- ----     -----  ------- -------- ------- -------- -------- -----------  ----   ------------------- ---------  --------  --------  ------------  ------------   ----------- ---------- ----------  ---------  ---------   
1 40955U 98067HG  15279.84695417 -.00000492  00000-0  00000+0 0  9996 | 2 40955  51.6452 246.7014 0009849   8.8934  75.2054 15.54759201    73 | 2015/10/06-20:19:36  349.2780   84.2080   75.3146   92.6188     6780.9897     6774.3111     6787.6683 -20.426868 -47.433846  -0.000245  -0.000954
1 40955U 98067HG  15280.86035485  .00027117  00000-0  40456-3 0  9998 | 2 40955  51.6419 241.6462 0009097  11.4174 348.7021 15.54820332   232 | 2015/10/07-20:38:54   84.1356    0.0991  348.6817   92.6152     6780.8120     6774.6434     6786.9805 -24.525500 -45.446514  -0.000265  -0.000870
1 40955U 98067HG  15281.90742523 +.00027181 +00000-0 +40456-3 0  9993 | 2 40955 051.6435 236.4160 0009386 016.5924 088.3620 15.54880614000395 | 2015/10/08-21:46:41    2.5083  105.0619   88.4695   92.6116     6780.6367     6774.2724     6787.0010 -28.567063 -43.022947  -0.000274  -0.000898
1 40955U 98067HG  15282.93615338 +.00027901 +00000-0 +41414-3 0  9995 | 2 40955 051.6442 231.2803 0009402 020.6775 086.5860 15.54939825000552 | 2015/10/09-22:28:03   16.6910  107.3711   86.6936   92.6081     6780.4646     6774.0896     6786.8395 -32.304013 -40.293599  -0.000291  -0.000894
1 40955U 98067HG  15284.08958888  .00023772  00000-0  35361-3 0  9999 | 2 40955  51.6434 225.5225 0009238  24.9951  63.2498 15.54980211   731 | 2015/10/11-02:09:00   97.8410   88.3395   63.3444   92.6057     6780.3472     6774.0835     6786.6108 -36.182870 -36.848890  -0.000308  -0.000871
1 40955U 98067HG  15285.19184512  .00021853  00000-0  32527-3 0  9996 | 2 40955  51.6432 220.0162 0009037  27.3022 115.4269 15.55020185   903 | 2015/10/12-04:36:15   86.7618  142.8226  115.5204   92.6033     6780.2310     6774.1037     6786.3582 -39.551599 -33.206793  -0.000348  -0.000834
1 40955U 98067HG  15286.40452699  .00018805  00000-0  28063-3 0  9998 | 2 40955  51.6444 213.9667 0009130  32.3834  63.5530 15.55055131  1092 | 2015/10/13-09:42:31  217.3648   96.0301   63.6467   92.6012     6780.1294     6773.9391     6786.3196 -42.831925 -28.854293  -0.000366  -0.000836
1 40955U 98067HG  15287.88489448  .00020929  00000-0  31061-3 0  9995 | 2 40955  51.6450 206.5776 0009251  36.8049  72.2496 15.55126480  1329 | 2015/10/14-21:14:14   26.0272  109.1555   72.3506   92.5970     6779.9220     6773.6499     6786.1941 -46.187633 -23.106463  -0.000414  -0.000827
1 40955U 98067HG  15289.17745484  .00025763  00000-0  37924-3 0  9999 | 2 40955  51.6449 200.1238 0009429  42.7714 107.7356 15.55214855  1527 | 2015/10/16-04:15:32   97.6242  150.6099  107.8385   92.5917     6779.6651     6773.2726     6786.0577 -48.492052 -17.768415  -0.000430  -0.000839
1 40955U 98067HG  15290.26928561  .00029539  00000-0  43235-3 0  9997 | 2 40955  51.6456 194.6728 0008956  48.1771  99.5352 15.55295861  1691 | 2015/10/17-06:27:46  140.0052  147.8135   99.6364   92.5869     6779.4297     6773.3581     6785.5014 -49.961339 -13.081765  -0.000409  -0.000797
1 40955U 98067HG  15291.35376455  .00031479  00000-0  45890-3 0  9992 | 2 40955  51.6457 189.2568 0008908  52.1024  51.8830 15.55372023  1864 | 2015/10/18-08:29:25  220.6294  104.0658   51.9634   92.5824     6779.2084     6773.1695     6785.2473 -50.973133  -8.307712  -0.000427  -0.000782
1 40955U 98067HG  15292.76762014  .00034144  00000-0  49494-3 0  9994 | 2 40955  51.6458 182.1915 0009332  55.3990  50.8225 15.55479905  2081 | 2015/10/19-18:25:22   15.8402  106.3045   50.9055   92.5759     6778.8950     6772.5689     6785.2210 -51.608026  -1.974913  -0.000500  -0.000788
1 40955U 98067HG  15293.85440491  .00036077  00000-0  52078-3 0  9996 | 2 40955  51.6441 176.7655 0009266  59.9909  16.1768 15.55566727  2254 | 2015/10/20-20:30:20   83.6337   76.1973   16.2064   92.5708     6778.6427     6772.3616     6784.9238 -51.561829   2.913899  -0.000508  -0.000775
1 40955U 98067HG  15295.51108992  .00041027  00000-0  58266-3 0  9994 | 2 40955  51.6421 168.5005 0009158  64.7877 295.4582 15.55704786  2512 | 2015/10/22-12:15:58   45.8600    0.1511  295.3634   92.5625     6778.2417     6772.0342     6784.4492 -50.605459  10.295337  -0.000547  -0.000734
1 40955U 98067HG  15296.85991658  .00067921  00000-0  95762-3 0  9994 | 2 40955  51.6417 161.7580 0008268  70.2105 289.9777 15.55936120  2723 | 2015/10/23-20:38:16  179.5672    0.0991  289.8886   92.5488     6777.5698     6771.9661     6783.1735 -49.046335  16.165463  -0.000509  -0.000651
1 40955U 98067HG  15298.08018199  .00063266  00000-0  88821-3 0  9997 | 2 40955  51.6420 155.6576 0008150  75.2358 284.9536 15.56082107  2916 | 2015/10/25-01:55:27  266.1647    0.0991  284.8633   92.5401     6777.1459     6771.6225     6782.6693 -47.050949  21.286249  -0.000514  -0.000632
1 40955U 98067HG  15299.17189643  .00068046  00000-0  94943-3 0  9994 | 2 40955  51.6412 150.1998 0008064  78.8728 281.3170 15.56219079  3083 | 2015/10/26-04:07:31  305.7154    0.0992  281.2264   92.5320     6776.7482     6771.2835     6782.2130 -44.812360  25.664488  -0.000528  -0.000609
1 40955U 98067HG  15300.19930133  .00056045  00000-0  78066-3 0  9991 | 2 40955  51.6405 145.0616 0007924  82.6238 277.5654 15.56348435  3249 | 2015/10/27-04:46:59  321.7326    0.0992  277.4754   92.5243     6776.3727     6771.0031     6781.7423 -42.333242  29.574278  -0.000533  -0.000586
1 40955U 98067HG  15301.35504471  .00050477  00000-0  70139-3 0  9998 | 2 40955  51.6405 139.2804 0007816  85.8903 274.2982 15.56460088  3424 | 2015/10/28-08:31:15   24.7213    0.0992  274.2089   92.5176     6776.0487     6770.7525     6781.3448 -39.138914  33.688078  -0.000551  -0.000554
1 40955U 98067HG  15302.38232039  .00024591  00000-0  34573-3 0  9990 | 2 40955  51.6406 134.1402 0007753  89.9762 270.2118 15.56508221  3587 | 2015/10/29-09:10:32   40.6938    0.0992  270.1230   92.5148     6775.9090     6770.6556     6781.1623 -35.963365  37.059249  -0.000557  -0.000540
1 40955U 98067HG  15303.47376547  .00029015  00000-0  40563-3 0  9996 | 2 40955  51.6407 128.6799 0007700  93.4840 266.7033 15.56564370  3756 | 2015/10/30-11:22:13   80.1508    0.0992  266.6152   92.5114     6775.7460     6770.5287     6780.9633 -32.273828  40.313297  -0.000571  -0.000517
1 40955U 98067HG  15304.50096697  .00028340  00000-0  39549-3 0  9998 | 2 40955  51.6411 123.5404 0007627  97.0165 263.1694 15.56625546  3911 | 2015/10/31-12:01:23   96.0967    0.0991  263.0826   92.5078     6775.5685     6770.4008     6780.7362 -28.532990  43.042673  -0.000579  -0.000496
1 40955U 98067HG  15305.84908966  .00040279  00000-0  55606-3 0  9994 | 2 40955  51.6408 116.7940 0007588 101.1255 259.0590 15.56738521  4120 | 2015/11/01-20:22:41  229.4974    0.0991  258.9736   92.5011     6775.2407     6770.0996     6780.3817 -23.278850  46.096284  -0.000599  -0.000466
1 40955U 98067HG  15306.94037374 +.00033476 +00000-0 +46269-3 0  9998 | 2 40955 051.6413 111.3337 0007404 103.6868 256.4948 15.56798362004296 | 2015/11/02-22:34:08  268.8985    0.0991  256.4123   92.4975     6775.0670     6770.0508     6780.0833 -18.787062  48.102704  -0.000606  -0.000425
1 40955U 98067HG  15308.48091438  .00057225  00000-0  77961-3 0  9991 | 2 40955  51.6411 103.6223 0007309 108.4554 251.7233 15.56942584  4530 | 2015/11/04-11:32:31  112.7259    0.0992  251.6438   92.4890     6774.6486     6769.6971     6779.6002 -12.162532  50.188405  -0.000619  -0.000388
1 40955U 98067HG  15309.50786044  .00047672  00000-0  64497-3 0  9994 | 2 40955  51.6417  98.4789 0007197 110.7911 249.4375 15.57030598  4694 | 2015/11/05-12:11:19  128.5321    0.1514  249.3603   92.4837     6774.3933     6769.5178     6779.2689  -7.614320  51.077268  -0.000628  -0.000352
1 40955U 98067HG  15310.53471559  .00042399  00000-0  57617-3 0  9998 | 2 40955  51.6409  93.3391 0007091 115.1842 244.9886 15.57143172  4851 | 2015/11/06-12:49:59  144.4077    0.0992  244.9150   92.4770     6774.0668     6769.2633     6778.8703  -3.007840  51.553229  -0.000623  -0.000339
1 40955U 98067HG  15311.75404258  .00063078  00000-0  84760-3 0  9991 | 2 40955  51.6410  87.2331 0006970 118.9305 241.2387 15.57273801  5040 | 2015/11/07-18:05:49  230.6769    0.0992  241.1687   92.4693     6773.6880     6768.9668     6778.4093   2.492853  51.580796  -0.000626  -0.000307
1 40955U 98067HG  15312.84492721  .00037026  00000-0  50001-3 0  9999 | 2 40955  51.6413  81.7695 0006871 123.2347 236.9305 15.57377166  5219 | 2015/11/08-20:16:41  269.9381    0.0992  236.8645   92.4632     6773.3883     6768.7343     6778.0423   7.392751  51.109403  -0.000623  -0.000290
1 40955U 98067HG  15314.44904236  .00048029  00000-0  64205-3 0  9992 | 2 40955  51.6417  73.7328 0006687 127.6765 232.4834 15.57531126  5467 | 2015/11/10-10:46:37  137.0427    0.0992  232.4227   92.4540     6772.9419     6768.4129     6777.4710  14.465729  49.574266  -0.000623  -0.000244
1 40955U 98067HG  15315.47559513  .00043750  00000-0  58376-3 0  9998 | 2 40955  51.6418  68.5893 0006601 131.3881 228.7680 15.57623119  5623 | 2015/11/11-11:24:51  152.7608    0.0992  228.7111   92.4486     6772.6752     6768.2046     6777.1459  18.851873  48.077878  -0.000620  -0.000226
1 40955U 98067HG  15316.82286245  .00035631  00000-0  47539-3 0  9995 | 2 40955  51.6423  61.8381 0006515 135.8827 224.2686 15.57722351  5838 | 2015/11/12-19:44:55  285.8610    0.0992  224.2165   92.4427     6772.3876     6767.9754     6776.7998  24.373338  45.528755  -0.000621  -0.000198
1 40955U 98067HG  15317.84929777 +.00034568 +00000-0 +46028-3 0  9992 | 2 40955 051.6423 056.6944 0006365 138.6362 221.5114 15.57791767005993 | 2015/11/13-20:22:59  301.5368    0.0993  221.4631   92.4385     6772.1864     6767.8759     6776.4969  28.357020  43.160243  -0.000614  -0.000168
1 40955U 98067HG  15319.19641499  .00035089  00000-0  46526-3 0  9996 | 2 40955  51.6422  49.9421 0006248 143.2338 216.9084 15.57897754  6204 | 2015/11/15-04:42:50   74.5845    0.0992  216.8654   92.4323     6771.8793     6767.6482     6776.1103  33.234927  39.526655  -0.000608  -0.000142
1 40955U 98067HG  15320.47928946  .00052618  00000-0  68950-3 0  9996 | 2 40955  51.6420  43.5103 0006164 146.5933 213.5449 15.58028013  6408 | 2015/11/16-11:30:10  184.1195    0.0992  213.5059   92.4245     6771.5018     6767.3279     6775.6758  37.453392  35.554741  -0.000607  -0.000108
1 40955U 98067HG  15321.69791325  .00045905  00000-0  59984-3 0  9998 | 2 40955  51.6419  37.3998 0006080 150.3716 209.7622 15.58163426  6596 | 2015/11/17-16:44:59  270.1401    0.0992  209.7276   92.4165     6771.1095     6766.9927     6775.2263  41.025190  31.365899  -0.000602  -0.000082
1 40955U 98067HG  15322.72404798  .00046580  00000-0  60633-3 0  9991 | 2 40955  51.6419  32.2528 0005964 153.1671 206.9631 15.58259646  6757 | 2015/11/18-17:22:37  285.7107    0.0992  206.9321   92.4108     6770.8308     6766.7926     6774.8689  43.673645  27.559002  -0.000594  -0.000056
1 40955U 98067HG  15324.19900187  .00043664  00000-0  56597-3 0  9991 | 2 40955  51.6419  24.8539 0005891 157.6057 202.5194 15.58401758  6986 | 2015/11/20-04:46:33  105.5518    0.0993  202.4936   92.4024     6770.4191     6766.4307     6774.4076  46.858956  21.705394  -0.000589  -0.000025
1 40955U 98067HG  15325.41734662  .00041506  00000-0  53637-3 0  9995 | 2 40955  51.6423  18.7412 0005779 161.3779 198.7426 15.58506514  7173 | 2015/11/21-10:00:58  191.4741    0.0992  198.7213   92.3961     6770.1157     6766.2033     6774.0282  48.904199  16.592362  -0.000578  -0.000001
1 40955U 98067HG  15326.57149746  .00035237  00000-0  45523-3 0  9995 | 2 40955  51.6422  12.9501 0005675 164.6388 195.4778 15.58592564  7358 | 2015/11/22-13:42:57  253.9010    0.0993  195.4605   92.3910     6769.8666     6766.0247     6773.7085  50.328712  11.573139  -0.000567   0.000024
1 40955U 98067HG  15327.66146957  .00035001  00000-0  45087-3 0  9991 | 2 40955  51.6420   7.4803 0005611 168.4815 191.6307 15.58673391  7520 | 2015/11/23-15:52:30  292.8395    0.0992  191.6177   92.3863     6769.6325     6765.8341     6773.4310  51.202510   6.723029  -0.000560   0.000040
1 40955U 98067HG  15329.20016244  .00030071  00000-0  38703-3 0  9997 | 2 40955  51.6416 359.7570 0005538 173.3136 186.7931 15.58775577  7761 | 2015/11/25-04:48:14  136.0143    0.0992  186.7856   92.3802     6769.3367     6765.5878     6773.0855  51.641136  -0.219019  -0.000550   0.000067
1 40955U 98067HG  15330.48233667  .00029178  00000-0  37474-3 0  9999 | 2 40955  51.6413 353.3211 0005481 177.7848 182.3170 15.58848673  7962 | 2015/11/26-11:34:33  245.3016    0.0993  182.3145   92.3759     6769.1250     6765.4149     6772.8352  51.290839  -6.006140  -0.000542   0.000085
1 40955U 98067HG  15331.50803078  .00031646  00000-0  40478-3 0  9993 | 2 40955  51.6413 348.1711 0005429 181.3094 178.7885 15.58913310  8127 | 2015/11/27-12:11:33  260.7164    0.0992  178.7898   92.3720     6768.9379     6765.2631     6772.6128  50.544651 -10.585938  -0.000534   0.000099
1 40955U 98067HG  15332.53368072  .00030560  00000-0  39020-3 0  9992 | 2 40955  51.6411 343.0204 0005425 184.7888 175.3053 15.58979265  8288 | 2015/11/28-12:48:30  276.1158    0.0992  175.3104   92.3681     6768.7470     6765.0750     6772.4191  49.390002 -15.080812  -0.000530   0.000115
1 40955U 98067HG  15333.55928693  .00031519  00000-0  40116-3 0  9999 | 2 40955  51.6414 337.8701 0005400 188.6134 171.4767 15.59047315  8444 | 2015/11/29-13:25:22  291.4992    0.0993  171.4859   92.3641     6768.5500     6764.8950     6772.2051  47.837090 -19.453714  -0.000525   0.000126
1 40955U 98067HG  15334.58484620  .00040509  00000-0  51165-3 0  9995 | 2 40955  51.6415 332.7196 0005313 192.0137 168.0730 15.59126636  8606 | 2015/11/30-14:02:10  306.8653    0.0993  168.0856   92.3594     6768.3205     6764.7245     6771.9165  45.897627 -23.669651  -0.000513   0.000140
1 40955U 98067HG  15335.80263694  .00033110  00000-0  41854-3 0  9991 | 2 40955  51.6415 326.6034 0005315 196.2103 163.8720 15.59203628  8799 | 2015/12/01-19:15:47   32.5909    0.0992  163.8889   92.3548     6768.0977     6764.5004     6771.6949  43.114483 -28.425093  -0.000508   0.000157
1 40955U 98067HG  15336.82809618  .00031868  00000-0  40212-3 0  9991 | 2 40955  51.6416 321.4525 0005292 199.9472 160.1315 15.59270553  8950 | 2015/12/02-19:52:27   47.9214    0.0993  160.1521   92.3509     6767.9040     6764.3224     6771.4856  40.388472 -32.181146  -0.000502   0.000169
1 40955U 98067HG  15338.04577240  .00026245  00000-0  33161-3 0  9998 | 2 40955  51.6412 315.3350 0005296 203.9272 156.1475 15.59343799  9149 | 2015/12/04-01:05:54  133.6066    0.0992  156.1720   92.3465     6767.6921     6764.1079     6771.2762  36.728720 -36.301717  -0.000495   0.000188
1 40955U 98067HG  15339.13522042  .00032003  00000-0  40153-3 0  9997 | 2 40955  51.6411 309.8615 0005275 207.9700 152.1010 15.59418933  9310 | 2015/12/05-03:14:43  172.3589    0.0993  152.1293   92.3421     6767.4747     6763.9048     6771.0445  33.098536 -39.639502  -0.000489   0.000199
1 40955U 98067HG  15340.16053170  .00044045  00000-0  54759-3 0  9999 | 2 40955  51.6409 304.7092 0005264 211.4457 148.6221 15.59506360  9470 | 2015/12/06-03:51:09  187.6370    0.0992  148.6535   92.3369     6767.2218     6763.6595     6770.7840  29.404924 -42.451537  -0.000481   0.000213
1 40955U 98067HG  15341.18578093  .00054386  00000-0  67113-3 0  9995 | 2 40955  51.6407 299.5569 0005259 215.2702 144.7943 15.59610776  9630 | 2015/12/07-04:27:31  202.8929    0.0992  144.8290   92.3307     6766.9197     6763.3610     6770.4784  25.473720 -44.920502  -0.000476   0.000224
1 40955U 98067HG  15342.40317423  .00045886  00000-0  56519-3 0  9992 | 2 40955  51.6412 293.4374 0005316 219.0415 141.0195 15.59733150  9822 | 2015/12/08-09:40:34  288.4774    0.0993  141.0578   92.3235     6766.5658     6762.9686     6770.1629  20.540126 -47.380553  -0.000471   0.000246
1 40955U 98067HG  15343.81267421  .00043099  00000-0  52890-3 0  9992 | 2 40955  51.6410 286.3511 0005299 224.5024 135.5544 15.59858339 10040 | 2015/12/09-19:30:15   84.3771    0.0993  135.5969   92.3161     6766.2037     6762.6183     6769.7891  14.538109 -49.552359  -0.000463   0.000258
1 40955U 98067HG  15344.83769224  .00056424  00000-0  68656-3 0  9996 | 2 40955  51.6413 281.1971 0005354 228.2136 131.8400 15.59964296 10201 | 2015/12/10-20:06:16   99.5511    0.0993  131.8857   92.3098     6765.8973     6762.2749     6769.5198  10.027950 -50.658307  -0.000461   0.000272
1 40955U 98067HG  15345.92669769 +.00049530 +00000-0 +60147-3 0  9997 | 2 40955 051.6415 275.7208 0005325 232.3828 127.6683 15.60072700010373 | 2015/12/11-22:14:26  138.1453    0.0994  127.7166   92.3034     6765.5839     6761.9812     6769.1866   5.147675 -51.384297  -0.000452   0.000281
1 40955U 98067HG  15346.95157283 +.00046115 +00000-0 +55850-3 0  9995 | 2 40955 051.6412 270.5663 0005387 236.1366 123.9115 15.60173757010536 | 2015/12/12-22:50:15  153.2680    0.0993  123.9627   92.2974     6765.2917     6761.6473     6768.9362   0.510403 -51.638678  -0.000450   0.000296
1 40955U 98067HG  15348.04043424  .00039427  00000-0  47707-3 0  9998 | 2 40955  51.6410 265.0888 0005405 240.3818 119.6637 15.60268677 10708 | 2015/12/14-00:58:13  191.8114    0.0993  119.7175   92.2918     6765.0173     6761.3609     6768.6738  -4.421073 -51.451404  -0.000445   0.000306
1 40955U 98067HG  15349.32136369  .00052889  00000-0  63382-3 0  9995 | 2 40955  51.6404 258.6448 0005375 246.4352 113.6077 15.60390640 10907 | 2015/12/15-07:42:45  300.6552    0.0993  113.6641   92.2846     6764.6648     6761.0288     6768.3008 -10.167520 -50.629561  -0.000441   0.000308
1 40955U 98067HG  15350.85834168  .00039135  00000-0  46890-3 0  9991 | 2 40955  51.6401 250.9093 0005438 252.2249 107.8152 15.60530214 11144 | 2015/12/16-20:36:00  143.2205    0.0994  107.8745   92.2763     6764.2615     6760.5831     6767.9399 -16.889644 -48.799998  -0.000435   0.000326
1 40955U 98067HG  15351.94696180 +.00034208 +00000-0 +40970-3 0  9991 | 2 40955 051.6398 245.4302 0005409 257.1021 102.9368 15.60606145011312 | 2015/12/17-22:43:37  181.6770    0.0993  102.9972   92.2718     6764.0421     6760.3834     6767.7007 -21.471906 -46.964095  -0.000429   0.000329
1 40955U 98067HG  15353.09955897  .00032422  00000-0  38750-3 0  9991 | 2 40955  51.6401 239.6279 0005461 261.6732  98.3642 15.60688271 11494 | 2015/12/19-02:23:21  243.5519    0.0993   98.4261   92.2670     6763.8048     6760.1111     6767.4985 -26.109942 -44.553012  -0.000426   0.000341
1 40955U 98067HG  15354.12403952  .00035086  00000-0  41751-3 0  9990 | 2 40955  51.6403 234.4703 0005486 266.6197  93.4169 15.60762152 11657 | 2015/12/20-02:58:37  258.5330    0.0994   93.4797   92.2626     6763.5913     6759.8808     6767.3018 -30.009463 -42.025619  -0.000427   0.000345
1 40955U 98067HG  15355.14845437  .00062782  00000-0  73600-3 0  9992 | 2 40955  51.6401 229.3125 0005528 270.5010  89.5350 15.60892047 11814 | 2015/12/21-03:33:46  273.4905    0.0993   89.5983   92.2549     6763.2161     6759.4774     6766.9548 -33.665885 -39.157479  -0.000422   0.000357
1 40955U 98067HG  15356.17276351  .00042647  00000-0  50012-3 0  9999 | 2 40955  51.6402 224.1548 0005566 274.5370  85.4988 15.61050174 11979 | 2015/12/22-04:08:46  288.4093    0.0994   85.5624   92.2456     6762.7593     6758.9952     6766.5235 -37.049797 -35.972528  -0.000418   0.000367
1 40955U 98067HG  15357.19699845  .00042146  00000-0  49250-3 0  9995 | 2 40955  51.6397 218.9954 0005684 278.9484  81.0866 15.61146859 12131 | 2015/12/23-04:43:40  303.3036    0.0994   81.1510   92.2399     6762.4801     6758.6363     6766.3239 -40.134193 -32.494694  -0.000422   0.000381
1 40955U 98067HG  15358.47720193  .00054724  00000-0  63343-3 0  9992 | 2 40955  51.6393 212.5453 0005843 284.2656  75.7688 15.61278825 12332 | 2015/12/24-11:27:10   51.8894    0.0993   75.8337   92.2321     6762.0991     6758.1480     6766.0501 -43.530194 -27.780201  -0.000426   0.000400
1 40955U 98067HG  15359.50128455  .00051966  00000-0  59960-3 0  9995 | 2 40955  51.6387 207.3860 0005943 289.7725  70.2627 15.61382213 12494 | 2015/12/25-12:01:50   66.7270    0.0993   70.3268   92.2260     6761.8005     6757.7820     6765.8191 -45.851438 -23.752916  -0.000436   0.000404
1 40955U 98067HG  15360.52530725  .00041395  00000-0  47793-3 0  9992 | 2 40955  51.6384 202.2241 0006016 293.7284  66.3078 15.61466035 12654 | 2015/12/26-12:36:26   81.5454    0.0993   66.3709   92.2210     6761.5586     6757.4908     6765.6263 -47.802265 -19.531202  -0.000432   0.000418
1 40955U 98067HG  15361.80527346  .00028538  00000-0  33099-3 0  9997 | 2 40955  51.6385 195.7733 0006176 299.7068  60.3310 15.61536289 12854 | 2015/12/27-19:19:35  190.0440    0.0993   60.3925   92.2169     6761.3558     6757.1799     6765.5316 -49.694041 -14.036987  -0.000440   0.000433
1 40955U 98067HG  15362.82920731  .00023052  00000-0  26823-3 0  9998 | 2 40955  51.6386 190.6118 0006199 304.0349  56.0056 15.61581950 13016 | 2015/12/28-19:54:03  204.8283    0.0994   56.0645   92.2142     6761.2239     6757.0327     6765.4152 -50.755448  -9.509443  -0.000436   0.000441
1 40955U 98067HG  15363.85311141  .00021858  00000-0  25426-3 0  9991 | 2 40955  51.6389 185.4500 0006251 308.3112  51.7319 15.61626234 13176 | 2015/12/29-20:28:28  219.6021    0.0994   51.7882   92.2116     6761.0961     6756.8698     6765.3225 -51.405464  -4.904511  -0.000432   0.000451
1 40955U 98067HG  15364.94097717 +.00020184 +00000-0 +23486-3 0  9997 | 2 40955 051.6391 179.9657 0006351 312.9842 047.0619 15.61673484013341 | 2015/12/30-22:35:00  257.7874    0.0994   47.1152   92.2088     6760.9597     6756.6659     6765.2536 -51.639091   0.030914  -0.000433   0.000465
1 40955U 98067HG  16001.09279663  .00037026  00000-0  42376-3 0  9996 | 2 40955  51.6390 174.1582 0006436 317.6367  42.4129 15.61743272 13520 | 2016/01/01-02:13:37  319.3817    0.0994   42.4627   92.2047     6760.7583     6756.4071     6765.1096 -51.370824   5.255925  -0.000429   0.000480
1 40955U 98067HG  16002.50048234  .00027055  00000-0  31030-3 0  9997 | 2 40955  51.6390 167.0593 0006534 323.9685  36.0867 15.61854557 13746 | 2016/01/02-12:00:41  114.6293    0.0993   36.1308   92.1981     6760.4372     6756.0199     6764.8545 -50.327491  11.564166  -0.000429   0.000493
1 40955U 98067HG  16003.84409589  .00035330  00000-0  40142-3 0  9998 | 2 40955  51.6386 160.2827 0006634 329.3226  30.7379 15.61953008 13951 | 2016/01/03-20:15:29  246.4258    0.0994   30.7768   92.1923     6760.1531     6755.6684     6764.6378 -48.610963  17.421806  -0.000423   0.000511
1 40955U 98067HG  16004.86774646  .00035535  00000-0  40251-3 0  9998 | 2 40955  51.6385 155.1192 0006738 333.9927  26.0727 15.62028783 14110 | 2016/01/04-20:49:33  261.1076    0.0994   26.1067   92.1878     6759.9345     6755.3796     6764.4893 -46.845675  21.725961  -0.000425   0.000523
1 40955U 98067HG  16005.89134689 +.00038006 +00000-0 +42865-3 0  9998 | 2 40955 051.6382 149.9555 0006798 338.6159 021.4551 15.62107127014277 | 2016/01/05-21:23:32  275.7707    0.0995   21.4836   92.1832     6759.7085     6755.1132     6764.3037 -44.699927  25.853825  -0.000424   0.000531
1 40955U 98067HG  16006.97886139  .00042213  00000-0  47338-3 0  9997 | 2 40955  51.6384 144.4683 0006939 342.9423  17.1337 15.62204240 14447 | 2016/01/06-23:29:33  313.8301    0.0994   17.1571   92.1774     6759.4283     6754.7379     6764.1187 -42.023026  30.009826  -0.000422   0.000551
1 40955U 98067HG  16008.51404621  .00044926  00000-0  50017-3 0  9992 | 2 40955  51.6388 136.7212 0007099 349.6416  10.4430 15.62361413 14689 | 2016/01/08-12:20:13  155.7482    0.0994   10.4578   92.1682     6758.9750     6754.1768     6763.7732 -37.594413  35.400929  -0.000421   0.000572
1 40955U 98067HG  16009.53741496  .00043130  00000-0  47840-3 0  9995 | 2 40955  51.6394 131.5563 0007219 353.8985   6.1920 15.62474487 14840 | 2016/01/09-12:53:52  170.3287    0.0994    6.2009   92.1615     6758.6489     6753.7698     6763.5279 -34.255289  38.641983  -0.000419   0.000588
1 40955U 98067HG  16010.81652670  .00045016  00000-0  49630-3 0  9997 | 2 40955  51.6394 125.0994 0007293 359.7718   0.3272 15.62610462 15041 | 2016/01/10-19:35:47  278.5181    0.0995    0.3277   92.1535     6758.2568     6753.3280     6763.1856 -29.692484  42.249071  -0.000417   0.000598
1 40955U 98067HG  16011.83973440  .00053080  00000-0  58091-3 0  9992 | 2 40955  51.6395 119.9332 0007424   3.8685 356.2365 15.62726833 15200 | 2016/01/11-20:09:13  293.0416    0.0994  356.2309   92.1466     6757.9213     6752.9042     6762.9384 -25.767593  44.751191  -0.000413   0.000617
1 40955U 98067HG  16013.18256270  .00059386  00000-0  64425-3 0  9990 | 2 40955  51.6392 113.1525 0007645   9.8536 350.2607 15.62902300 15414 | 2016/01/13-04:22:53   64.5547    0.0995  350.2459   92.1363     6757.4155     6752.2494     6762.5815 -20.303489  47.480262  -0.000416   0.000641
1 40955U 98067HG  16014.46131938  .00050045  00000-0  54150-3 0  9992 | 2 40955  51.6389 106.6918 0007623  14.9257 345.1961 15.63042073 15617 | 2016/01/14-11:04:17  172.6207    0.0995  345.1738   92.1280     6757.0126     6751.8617     6762.1635 -14.831902  49.463023  -0.000400   0.000649
1 40955U 98067HG  16015.48425108  .00047054  00000-0  50777-3 0  9997 | 2 40955  51.6389 101.5231 0007673  19.0679 341.0601 15.63137199 15775 | 2016/01/15-11:37:19  187.0469    0.0994  341.0315   92.1224     6756.7385     6751.5540     6761.9229 -10.315541  50.598079  -0.000390   0.000661
1 40955U 98067HG  16016.50712932  .00036383  00000-0  39336-3 0  9996 | 2 40955  51.6388  96.3544 0007751  23.0780 337.0561 15.63207262 15934 | 2016/01/16-12:10:15  201.4538    0.0994  337.0214   92.1183     6756.5366     6751.2996     6761.7736  -5.715278  51.321548  -0.000381   0.000675
1 40955U 98067HG  16017.78565843  .00035757  00000-0  38529-3 0  9991 | 2 40955  51.6392  89.8931 0007844  28.2776 331.8643 15.63301425 16133 | 2016/01/17-18:51:20  309.4380    0.0995  331.8219   92.1128     6756.2653     6750.9656     6761.5649   0.096346  51.639110  -0.000370   0.000691
1 40955U 98067HG  16019.19194792  .00041490  00000-0  44386-3 0  9998 | 2 40955  51.6393  82.7852 0007948  33.8456 326.3045 15.63412912 16353 | 2016/01/19-04:36:24  104.1880    0.0995  326.2539   92.1062     6755.9441     6750.5744     6761.3137   6.485354  51.230435  -0.000356   0.000710
1 40955U 98067HG  16020.47030534  .00036483  00000-0  38969-3 0  9990 | 2 40955  51.6396  76.3231 0008007  38.6569 321.4997 15.63513665 16552 | 2016/01/20-11:17:14  212.1123    0.0994  321.4425   92.1003     6755.6538     6750.2446     6761.0631  12.209999  50.175335  -0.000338   0.000726
1 40955U 98067HG  16021.68464918  .00046995  00000-0  49691-3 0  9994 | 2 40955  51.6395  70.1841 0008039  43.5076 316.6551 15.63654549 16743 | 2016/01/21-16:25:53  296.6059    0.0994  316.5918   92.0920     6755.2480     6749.8175     6760.6786  17.505739  48.581756  -0.000323   0.000736
1 40955U 98067HG  16023.15451761  .00033313  00000-0  35281-3 0  9990 | 2 40955  51.6394  62.7503 0008119  48.6336 311.5356 15.63775569 16976 | 2016/01/23-03:42:30  114.6346    0.0995  311.4659   92.0848     6754.8995     6749.4152     6760.3838  23.644094  45.908436  -0.000296   0.000756
1 40955U 98067HG  16024.17697739  .00032255  00000-0  34094-3 0  9995 | 2 40955  51.6390  57.5786 0008126  52.4494 307.7238 15.63842285 17138 | 2016/01/24-04:14:50  128.8956    0.0995  307.6501   92.0809     6754.7074     6749.2185     6760.1963  27.685843  43.589912  -0.000278   0.000763
1 40955U 98067HG  16025.19939308  .00032947  00000-0  34717-3 0  9999 | 2 40955  51.6390  52.4064 0008122  56.1993 303.9774 15.63910874 17292 | 2016/01/25-04:47:07  143.1417    0.0995  303.9002   92.0769     6754.5099     6749.0239     6759.9959  31.502716  40.916564  -0.000259   0.000770
1 40955U 98067HG  16026.41345690  .00027617  00000-0  29131-3 0  9992 | 2 40955  51.6390  46.2653 0008206  60.5481 299.6332 15.63980994 17483 | 2016/01/26-09:55:22  227.5378    0.0995  299.5514   92.0727     6754.3080     6748.7654     6759.8506  35.699080  37.311687  -0.000237   0.000786
1 40955U 98067HG  16027.49967820  .00030696  00000-0  32221-3 0  9991 | 2 40955  51.6392  40.7694 0008193  64.7983 295.3861 15.64045922 17650 | 2016/01/27-11:59:32  265.1409    0.0995  295.3012   92.0689     6754.1211     6748.5874     6759.6547  39.108634  33.721235  -0.000220   0.000789
1 40955U 98067HG  16028.58585241  .00032787  00000-0  34272-3 0  9996 | 2 40955  51.6393  35.2726 0008197  68.8561 291.3310 15.64117097 17824 | 2016/01/28-14:03:37  302.7283    0.0996  291.2435   92.0647     6753.9162     6748.3800     6759.4524  42.159039  29.820005  -0.000200   0.000795
1 40955U 98067HG  16029.79975123  .00032835  00000-0  34209-3 0  9996 | 2 40955  51.6396  29.1298 0008161  73.6873 286.5019 15.64200143 18013 | 2016/01/29-19:11:38   27.0691    0.0995  286.4122   92.0598     6753.6771     6748.1654     6759.1888  45.108180  25.137629  -0.000181   0.000796
1 40955U 98067HG  16030.82192875  .00032489  00000-0  33758-3 0  9990 | 2 40955  51.6396  23.9566 0008205  77.5539 282.6373 15.64273959 18176 | 2016/01/30-19:43:34   41.2317    0.0994  282.5455   92.0555     6753.4647     6747.9234     6759.0059  47.191018  20.967978  -0.000164   0.000804
1 40955U 98067HG  16031.84405681  .00041987  00000-0  43266-3 0  9993 | 2 40955  51.6395  18.7831 0008216  81.8269 278.3657 15.64358016 18335 | 2016/01/31-20:15:26   55.3773    0.0994  278.2725   92.0505     6753.2227     6747.6743     6758.7712  48.889401  16.627220  -0.000151   0.000808
1 40955U 98067HG  16032.92999434 +.00048917 +00000-0 +50037-3 0  9991 | 2 40955 051.6395 013.2855 0008203 086.1412 274.0521 15.64476779018504 | 2016/02/01-22:19:11   92.8821    0.0995  273.9583   92.0436     6752.8810     6747.3416     6758.4203  50.257475  11.866935  -0.000134   0.000809
1 40955U 98067HG  16033.95198272 +.00048510 +00000-0 +49430-3 0  9990 | 2 40955 051.6391 008.1111 0008168 090.0882 270.1049 15.64578068018666 | 2016/02/02-22:50:51  106.9798    0.0995  270.0113   92.0376     6752.5895     6747.0740     6758.1050  51.122520   7.285917  -0.000116   0.000808
1 40955U 98067HG  16035.16549645  .00050525  00000-0  51143-3 0  9992 | 2 40955  51.6392   1.9656 0008137  95.7194 264.4729 15.64728466 18857 | 2016/02/04-03:58:18  191.1872    0.0995  264.3801   92.0287     6752.1568     6746.6626     6757.6510  51.608816   1.771197  -0.000109   0.000806
1 40955U 98067HG  16036.18731125  .00060226  00000-0  60464-3 0  9996 | 2 40955  51.6389 356.7896 0008154 100.4213 259.7701 15.64861248 19017 | 2016/02/05-04:29:43  205.2245    0.0995  259.6782   92.0209     6751.7748     6746.2694     6757.2802  51.557859  -2.891920  -0.000102   0.000809
1 40955U 98067HG  16037.40059296  .00066189  00000-0  65874-3 0  9998 | 2 40955  51.6393 350.6422 0008133 105.6943 254.4950 15.65041620 19208 | 2016/02/06-09:36:51  289.3513    0.0995  254.4052   92.0103     6751.2561     6745.7653     6756.7469  50.952094  -8.396513  -0.000090   0.000808
1 40955U 98067HG  16038.42219464  .00067887  00000-0  67136-3 0  9995 | 2 40955  51.6393 345.4651 0008104 110.3093 249.8774 15.65191416 19369 | 2016/02/07-10:07:57  303.3146    0.0995  249.7902   92.0015     6750.8253     6745.3544     6756.2962  49.986582 -12.959898  -0.000082   0.000806
1 40955U 98067HG  16039.82672861  .00085069  00000-0  83024-3 0  9990 | 2 40955  51.6394 338.3462 0007985 116.5570 243.6244 15.65430057 19580 | 2016/02/08-19:50:29   97.4554    0.0995  243.5425   91.9875     6750.1392     6744.7492     6755.5292  47.995229 -19.054806  -0.000068   0.000796
1 40955U 98067HG  16040.84808441  .00074138  00000-0  72112-3 0  9990 | 2 40955  51.6391 333.1677 0007943 120.5570 239.6210 15.65572433 19748 | 2016/02/09-20:21:14  111.3321    0.0995  239.5425   91.9791     6749.7300     6744.3686     6755.0913  46.079195 -23.308891  -0.000052   0.000793
1 40955U 98067HG  16041.93317149 +.00053144 +00000-0 +51688-3 0  9990 | 2 40955 051.6391 327.6644 0007850 125.3499 234.8231 15.65713516019918 | 2016/02/10-22:23:46  148.5412    0.0995  234.7496   91.9708     6749.3245     6744.0263     6754.6227  43.631407 -27.620590  -0.000041   0.000784
1 40955U 98067HG  16043.14580616  .00066261  00000-0  63822-3 0  9993 | 2 40955  51.6387 321.5128 0007801 130.5120 229.6556 15.65865162 20108 | 2016/02/12-03:29:57  232.4419    0.0995  229.5875   91.9619     6748.8887     6743.6239     6754.1535  40.420048 -32.136817  -0.000028   0.000780
1 40955U 98067HG  16044.16687162  .00065769  00000-0  62990-3 0  9997 | 2 40955  51.6385 316.3320 0007720 134.9656 225.1967 15.66010387 20260 | 2016/02/13-04:00:17  246.2180    0.0996  225.1340   91.9534     6748.4715     6743.2616     6753.6813  37.352858 -35.655275  -0.000017   0.000772
1 40955U 98067HG  16045.82592800  .00057682  00000-0  54951-3 0  9998 | 2 40955  51.6380 307.9118 0007503 141.2259 218.9277 15.66199646 20524 | 2016/02/14-19:49:20  133.5425    0.0996  218.8737   91.9423     6747.9278     6742.8648     6752.9908  31.728850 -40.740190   0.000011   0.000750
1 40955U 98067HG  16046.84678619 +.00055754 +00000-0 +52896-3 0  9998 | 2 40955 051.6382 302.7294 0007453 145.6253 214.5226 15.66317034020686 | 2016/02/15-20:19:22  147.2457    0.0995  214.4742   91.9354     6747.5906     6742.5617     6752.6196  27.919332 -43.439782   0.000021   0.000745
1 40955U 98067HG  16047.93135351 +.00091074 +00000-0 +85118-3 0  9998 | 2 40955 051.6383 297.2228 0007366 150.4455 209.6958 15.66487424020850 | 2016/02/16-22:21:08  184.2721    0.0995  209.6540   91.9254     6747.1013     6742.1314     6752.0712  23.622034 -45.918553   0.000030   0.000736
1 40955U 98067HG  16049.07958032  .00076753  00000-0  71401-3 0  9991 | 2 40955  51.6382 291.3909 0007314 156.2556 203.8779 15.66674727 21031 | 2016/02/18-01:54:35  244.6052    0.0996  203.8440   91.9144     6746.5636     6741.6291     6751.4980  18.833944 -48.081038   0.000030   0.000731
1 40955U 98067HG  16050.48278734  .00080117  00000-0  73847-3 0  9997 | 2 40955  51.6377 284.2635 0007016 162.1492 197.9752 15.66888042 21251 | 2016/02/19-11:35:12   38.2793    0.0996  197.9504   91.9019     6745.9512     6741.2183     6750.6842  12.722582 -50.045859   0.000044   0.000700
1 40955U 98067HG  16051.50318625  .00078193  00000-0  71674-3 0  9992 | 2 40955  51.6374 279.0787 0006855 167.3718 192.7451 15.67036863 21410 | 2016/02/20-12:04:35   51.8210    0.0996  192.7278   91.8932     6745.5241     6740.9001     6750.1482   8.147916 -50.990514   0.000042   0.000684
1 40955U 98067HG  16052.84232514  .00062833  00000-0  57422-3 0  9991 | 2 40955  51.6366 272.2714 0006547 174.1229 185.9845 15.67203424 21620 | 2016/02/21-20:12:56  182.0477    0.0996  185.9767   91.8834     6745.0462     6740.6302     6749.4622   2.046515 -51.596029   0.000041   0.000653
1 40955U 98067HG  16053.86252201  .00061391  00000-0  55831-3 0  9999 | 2 40955  51.6366 267.0845 0006379 179.2025 180.8983 15.67334848 21789 | 2016/02/22-20:42:01  195.5176    0.0997  180.8972   91.8757     6744.6691     6740.3667     6748.9715  -2.626398 -51.569763   0.000041   0.000637
1 40955U 98067HG  16055.45640569  .00088439  00000-0  79236-3 0  9991 | 2 40955  51.6356 258.9795 0006172 187.7408 172.3494 15.67554352 22037 | 2016/02/24-10:57:13   59.0024    0.0996  172.3588   91.8628     6744.0395     6739.8770     6748.2019  -9.870672 -50.683380   0.000035   0.000616
1 40955U 98067HG  16056.54013043  .00071687  00000-0  63979-3 0  9997 | 2 40955  51.6357 253.4672 0005964 192.8638 167.2723 15.67700759 22203 | 2016/02/25-12:57:47   95.6779    0.1511  167.2873   91.8543     6743.6196     6739.5977     6747.6415 -14.693671 -49.500925   0.000038   0.000595
1 40955U 98067HG  16057.68748077  .00058301  00000-0  52018-3 0  9995 | 2 40955  51.6358 247.6280 0005625 199.9401 160.1376 15.67832078 22389 | 2016/02/26-16:29:58  155.7525    0.0996  160.1595   91.8466     6743.2430     6739.4499     6747.0361 -19.653541 -47.749284   0.000024   0.000562
1 40955U 98067HG  16058.70727794  .00051637  00000-0  45973-3 0  9999 | 2 40955  51.6361 242.4385 0005480 205.1764 154.8966 15.67936899 22542 | 2016/02/27-16:58:28  169.0788    0.0996  154.9232   91.8404     6742.9425     6739.2473     6746.6376 -23.892046 -45.776161   0.000023   0.000548
1 40955U 98067HG  16059.85447396  .00047789  00000-0  42423-3 0  9993 | 2 40955  51.6362 236.5996 0005357 210.5906 149.4779 15.68042829 22720 | 2016/02/28-20:30:26  229.0435    0.0997  149.5091   91.8342     6742.6388     6739.0268     6746.2508 -28.425035 -43.108173   0.000026   0.000535
1 40955U 98067HG  16060.87414064 +.00043535 +00000-0 +38574-3 0  9990 | 2 40955 051.6360 231.4092 0005272 215.4998 144.5648 15.68130813022889 | 2016/02/29-20:58:45  242.3228    0.0996  144.5998   91.8291     6742.3866     6738.8320     6745.9412 -32.208167 -40.359763   0.000028   0.000526
1 40955U 98067HG  16061.89374503  .00054682  00000-0  48050-3 0  9991 | 2 40955  51.6358 226.2184 0005162 221.0849 138.9760 15.68236249 23047 | 2016/03/01-21:26:59  255.5799    0.0997  139.0148   91.8229     6742.0844     6738.6041     6745.5646 -35.727396 -37.280142   0.000024   0.000516
1 40955U 98067HG  16063.42302000  .00051625  00000-0  45102-3 0  9994 | 2 40955  51.6352 218.4316 0004979 229.5469 130.5094 15.68403346 23285 | 2016/03/03-10:09:08   95.4176    0.0997  130.5528   91.8131     6741.6055     6738.2488     6744.9621 -40.448473 -32.095403   0.000018   0.000498
1 40955U 98067HG  16064.44243850  .00064997  00000-0  56269-3 0  9996 | 2 40955  51.6346 213.2393 0004850 235.3525 124.7014 15.68531396 23444 | 2016/03/04-10:37:06  108.6077    0.0996  124.7471   91.8056     6741.2386     6737.9691     6744.5081 -43.186587 -28.302837   0.000012   0.000485
1 40955U 98067HG  16065.46177572  .00056048  00000-0  48394-3 0  9994 | 2 40955  51.6349 208.0461 0004737 241.6669 118.3851 15.68657303 23601 | 2016/03/05-11:04:57  121.7690    0.0997  118.4328   91.7983     6740.8779     6737.6847     6744.0710 -45.571392 -24.277792   0.000002   0.000474
1 40955U 98067HG  16066.48102767  .00061925  00000-0  53085-3 0  9994 | 2 40955  51.6350 202.8526 0004613 247.4888 112.5621 15.68792284 23763 | 2016/03/06-11:32:40  134.8989    0.0997  112.6109   91.7904     6740.4912     6737.3818     6743.6006 -47.582014 -20.053058  -0.000003   0.000461
1 40955U 98067HG  16067.50017491  .00097065  00000-0  81890-3 0  9996 | 2 40955  51.6354 197.6581 0004482 253.6276 106.4228 15.68996124 23925 | 2016/03/07-12:00:15  147.9914    0.0997  106.4721   91.7784     6739.9074     6736.8865     6742.9282 -49.202524 -15.662891  -0.000010   0.000448
1 40955U 98067HG  16068.51918926  .00077695  00000-0  65307-3 0  9993 | 2 40955  51.6356 192.4627 0004373 258.6695 101.3810 15.69179317 24087 | 2016/03/08-12:27:37  161.0363    0.0996  101.4301   91.7677     6739.3828     6736.4357     6742.3299 -50.418895 -11.143169  -0.000009   0.000437
1 40955U 98067HG  16069.53809866  .00066497  00000-0  55704-3 0  9996 | 2 40955  51.6357 187.2671 0004323 264.6193  95.4310 15.69325755 24249 | 2016/03/09-12:54:51  174.0437    0.0996   95.4803   91.7592     6738.9635     6736.0503     6741.8768 -51.220923  -6.531659  -0.000014   0.000432
1 40955U 98067HG  16070.55691404  .00069849  00000-0  58106-3 0  9990 | 2 40955  51.6355 182.0709 0004235 271.7773  88.2739 15.69475008 24407 | 2016/03/10-13:21:57  187.0168    0.0997   88.3224   91.7504     6738.5363     6735.6825     6741.3901 -51.601776  -1.865908  -0.000028   0.000423
1 40955U 98067HG  16071.76662987  .00077465  00000-0  63846-3 0  9998 | 2 40955  51.6351 175.8993 0004150 278.0167  82.0359 15.69657820 24595 | 2016/03/11-18:23:56  269.8770    0.0997   82.0830   91.7397     6738.0131     6735.2168     6740.8093 -51.502909   3.692407  -0.000028   0.000414
1 40955U 98067HG  16072.78522397  .00063007  00000-0  51794-3 0  9997 | 2 40955  51.6347 170.7015 0004072 283.9850  76.0694 15.69805675 24752 | 2016/03/12-18:50:43  282.7709    0.0997   76.1147   91.7311     6737.5900     6734.8464     6740.3335 -50.956217   8.343031  -0.000033   0.000406
1 40955U 98067HG  16073.80373300  .00057748  00000-0  47306-3 0  9998 | 2 40955  51.6344 165.5030 0004001 289.1884  70.8680 15.69925911 24916 | 2016/03/13-19:17:22  295.6345    0.0997   70.9113   91.7241     6737.2460     6734.5504     6739.9415 -49.990399  12.925604  -0.000033   0.000399
1 40955U 98067HG  16075.14041303  .00089313  00000-0  72140-3 0  9999 | 2 40955  51.6345 158.6799 0004000 298.1303  61.9290 15.70086902 25129 | 2016/03/15-03:22:11   64.9770    0.0998   61.9695   91.7147     6736.7854     6734.0907     6739.4801 -48.100828  18.773171  -0.000047   0.000397
1 40955U 98067HG  16076.41329399  .00089705  00000-0  71856-3 0  9992 | 2 40955  51.6348 152.1794 0003946 304.0129  56.0493 15.70285732 25321 | 2016/03/16-09:55:08  170.9664    0.0997   56.0868   91.7031     6736.2167     6733.5586     6738.8748 -45.666500  24.098201  -0.000043   0.000392
1 40955U 98067HG  16077.62239267  .00066168  00000-0  52912-3 0  9990 | 2 40955  51.6350 146.0034 0003861 309.3066  50.7589 15.70451467 25515 | 2016/03/17-14:56:14  253.6063    0.0998   50.7932   91.6934     6735.7428     6733.1421     6738.3435 -42.809068  28.871385  -0.000036   0.000384
1 40955U 98067HG  16078.76774084  .00056855  00000-0  45335-3 0  9990 | 2 40955  51.6352 140.1519 0003854 314.8855  45.1829 15.70582279 25699 | 2016/03/18-18:25:32  312.9092    0.0997   45.2142   91.6857     6735.3688     6732.7730     6737.9646 -39.642712  33.085484  -0.000034   0.000384
1 40955U 98067HG  16080.16747530  .00064563  00000-0  50996-3 0  9997 | 2 40955  51.6344 132.9995 0003861 321.2777  38.7944 15.70757019 25917 | 2016/03/20-04:01:09  105.3419    0.0998   38.8221   91.6755     6734.8692     6732.2689     6737.4696 -35.214247  37.763317  -0.000029   0.000385
1 40955U 98067HG  16081.18537113 +.00064183 +00000-0 +50451-3 0  9998 | 2 40955 051.6342 127.7961 0003766 324.4027 035.6719 15.70875639026070 | 2016/03/21-04:26:56  117.9886    0.0998   35.6971   91.6686     6734.5302     6731.9940     6737.0664 -31.644188  40.801176  -0.000014   0.000376
1 40955U 98067HG  16082.20319321  .00054239  00000-0  42566-3 0  9990 | 2 40955  51.6339 122.5931 0003851 327.8389  32.2373 15.70982986 26230 | 2016/03/22-04:52:35  130.6092    0.0997   32.2608   91.6624     6734.2234     6731.6301     6736.8168 -27.813598  43.502453  -0.000003   0.000385
1 40955U 98067HG  16083.47537447  .00053502  00000-0  41769-3 0  9997 | 2 40955  51.6337 116.0878 0003950 333.3928  26.6867 15.71113370 26438 | 2016/03/23-11:24:32  236.3504    0.0998   26.7070   91.6547     6733.8508     6731.1910     6736.5107 -22.705813  46.373322   0.000004   0.000395
1 40955U 98067HG  16084.49304156  .00064309  00000-0  49813-3 0  9994 | 2 40955  51.6336 110.8833 0003970 336.8494  23.2324 15.71224947 26599 | 2016/03/24-11:49:58  248.9158    0.0998   23.2504   91.6482     6733.5320     6730.8588     6736.2052 -18.405607  48.241707   0.000016   0.000397
1 40955U 98067HG  16085.51063862  .00050432  00000-0  39060-3 0  9999 | 2 40955  51.6338 105.6781 0004006 341.2672  18.8178 15.71328228 26756 | 2016/03/25-12:15:19  261.4557    0.0998   18.8326   91.6422     6733.2370     6730.5396     6735.9343 -13.953129  49.712770   0.000021   0.000400
1 40955U 98067HG  16086.84613772  .00043760  00000-0  33810-3 0  9990 | 2 40955  51.6341  98.8459 0004107 345.6229  14.4652 15.71448322 26963 | 2016/03/26-20:18:26   30.3808    0.0999   14.4770   91.6352     6732.8939     6730.1287     6735.6591  -7.940161  51.019939   0.000040   0.000409
1 40955U 98067HG  16087.92717619 +.00054956 +00000-0 +42079-3 0  9991 | 2 40955 051.6344 093.3145 0004120 349.5824 010.5087 15.71564052027135 | 2016/03/27-22:15:08   66.1486    0.0997   10.5173   91.6285     6732.5634     6729.7896     6735.3372  -2.985329  51.548027   0.000051   0.000409
1 40955U 98067HG  16089.13529063  .00061233  00000-0  46499-3 0  9996 | 2 40955  51.6347  87.1325 0004067 352.4003   7.6933 15.71716447 27326 | 2016/03/29-03:14:49  148.4401    0.0998    7.6995   91.6196     6732.1282     6729.3902     6734.8661   2.583100  51.570048   0.000074   0.000400
1 40955U 98067HG  16090.15255757  .00055162  00000-0  41732-3 0  9995 | 2 40955  51.6347  81.9254 0004003 355.7639   4.3325 15.71849036 27487 | 2016/03/30-03:39:40  160.8631    0.0999    4.3360   91.6119     6731.7496     6729.0549     6734.4443   7.252730  51.122795   0.000085   0.000391
1 40955U 98067HG  16091.16974088  .00063676  00000-0  47790-3 0  9991 | 2 40955  51.6346  76.7180 0003956 357.6232   2.4747 15.71979431 27640 | 2016/03/31-04:04:25  173.2576    0.0999    2.4767   91.6043     6731.3773     6728.7144     6734.0403  11.862739  50.253431   0.000107   0.000381
1 40955U 98067HG  16092.18684187  .00064153  00000-0  47890-3 0  9994 | 2 40955  51.6343  71.5094 0003885   0.4295 359.6706 15.72103800 27807 | 2016/04/01-04:29:03  185.6229    0.0998  359.6703   91.5970     6731.0223     6728.4073     6733.6373  16.375770  48.968715   0.000120   0.000369
1 40955U 98067HG  16093.45810912  .00057198  00000-0  42518-3 0  9995 | 2 40955  51.6340  64.9980 0003794   4.0461 356.0567 15.72251292 28006 | 2016/04/02-10:59:40  291.0408    0.0998  356.0537   91.5884     6730.6013     6728.0478     6733.1549  21.823105  46.795535   0.000136   0.000354
1 40955U 98067HG  16094.47502245  .00090302  00000-0  66121-3 0  9995 | 2 40955  51.6336  59.7883 0003756   7.0099 353.0951 15.72421897 28164 | 2016/04/03-11:24:01  303.3394    0.0998  353.0899   91.5785     6730.1145     6727.5867     6732.6423  25.981843  44.620315   0.000148   0.000345
1 40955U 98067HG  16095.80953838  .00089422  00000-0  64812-3 0  9997 | 2 40955  51.6337  52.9496 0003627   9.6424 350.4644 15.72666687 28378 | 2016/04/04-19:25:44   71.9174    0.0999  350.4575   91.5642     6729.4161     6726.9753     6731.8569  31.110198  41.209156   0.000167   0.000322
1 40955U 98067HG  16096.82617353  .00088756  00000-0  63842-3 0  9990 | 2 40955  51.6336  47.7381 0003564  11.8499 348.2582 15.72848820 28534 | 2016/04/05-19:49:41   84.1183    0.0998  348.2499   91.5536     6728.8966     6726.4984     6731.2948  34.724656  38.212915   0.000180   0.000307
1 40955U 98067HG  16097.84268901  .00090035  00000-0  64226-3 0  9994 | 2 40955  51.6341  42.5253 0003445  13.9913 346.1181 15.73038431 28692 | 2016/04/06-20:13:28   96.2773    0.0999  346.1086   91.5426     6728.3559     6726.0379     6730.6738  38.053245  34.900299   0.000190   0.000287
1 40955U 98067HG  16098.92260565 +.00092387 +00000-0 +65331-3 0  9992 | 2 40955 051.6342 036.9866 0003361 015.5708 344.5393 15.73232540028860 | 2016/04/07-22:08:33  131.6497    0.0998  344.5290   91.5313     6727.8024     6725.5412     6730.0636  41.244172  31.064592   0.000204   0.000267
1 40955U 98067HG  16099.93886579 +.00083326 +00000-0 +58511-3 0  9998 | 2 40955 051.6345 031.7726 0003257 017.6023 342.5088 15.73439497029026 | 2016/04/08-22:31:58  143.7180    0.0999  342.4976   91.5192     6727.2124     6725.0214     6729.4035  43.896791  27.188110   0.000212   0.000247
1 40955U 98067HG  16100.95501492 +.00077977 +00000-0 +54473-3 0  9999 | 2 40955 051.6343 026.5579 0003115 020.0547 340.0574 15.73587375029183 | 2016/04/09-22:55:13  155.7470    0.0999  340.0452   91.5106     6726.7910     6724.6956     6728.8864  46.186004  23.085797   0.000214   0.000226
1 40955U 98067HG  16102.16158078  .00061143  00000-0  42631-3 0  9993 | 2 40955  51.6344  20.3645 0003121  23.0986 337.0153 15.73730078 29377 | 2016/04/11-03:52:40  237.4915    0.0999  337.0013   91.5023     6726.3843     6724.2850     6728.4836  48.407135  17.968319   0.000227   0.000215
1 40955U 98067HG  16103.30454418  .00064393  00000-0  44608-3 0  9993 | 2 40955  51.6343  14.4968 0003045  26.0213 334.0938 15.73860013 29550 | 2016/04/12-07:18:32  295.9514    0.0999  334.0786   91.4948     6726.0141     6723.9660     6728.0622  49.990348  12.925404   0.000231   0.000198
1 40955U 98067HG  16104.32042469  .00108471  00000-0  73934-3 0  9995 | 2 40955  51.6345   9.2799 0002949  28.9597 331.1565 15.74023840 29716 | 2016/04/13-07:41:24  307.8855    0.0999  331.1402   91.4853     6725.5474     6723.5640     6727.5308  50.958726   8.326456   0.000232   0.000183
1 40955U 98067HG  16105.71691089  .00123860  00000-0  82350-3 0  9998 | 2 40955  51.6345   2.1044 0002570  30.9915 329.1236 15.74542136 29938 | 2016/04/14-17:12:21   99.1736    0.1000  329.1085   91.4552     6724.0714     6722.3433     6725.7995  51.599676   1.896042   0.000215   0.000140
1 40955U 98067HG  16106.92261026 +.00138105 +00000-0 +89935-3 0  9990 | 2 40955 051.6344 355.9052 0002215 032.7809 327.3328 15.74970450030122 | 2016/04/15-22:08:33  180.6144    0.1000  327.3191   91.4303     6722.8523     6721.3632     6724.3414  51.502591  -3.687053   0.000194   0.000106
1 40955U 98067HG  16108.12802015  .00198796  00000-0  12607-2 0  9996 | 2 40955  51.6348 349.7053 0001925  29.3004 330.8104 15.75382031 30319 | 2016/04/17-03:04:20  261.9528    0.1000  330.7996   91.4064     6721.6813     6720.3874     6722.9752  50.803561  -9.227717   0.000182   0.000063
1 40955U 98067HG  16109.45990274  .00194702  00000-0  12069-2 0  9993 | 2 40955  51.6346 342.8484 0001560  20.9545 339.1519 15.75916619 30521 | 2016/04/18-11:02:15   29.6046    0.1000  339.1455   91.3754     6720.1611     6719.1128     6721.2094  49.338297 -15.227094   0.000156   0.000010
1 40955U 98067HG  16110.85478006  .00151297  00000-0  92610-3 0  9996 | 2 40955  51.6341 335.6624 0001497  14.5146 345.5896 15.76342673 30744 | 2016/04/19-20:30:52  180.3235    0.0999  345.5853   91.3507     6718.9502     6717.9443     6719.9560  47.045534 -21.279051   0.000148  -0.000026
1 40955U 98067HG  16111.86902875  .00118523  00000-0  72233-3 0  9998 | 2 40955  51.6341 330.4348 0001406   5.1103 354.9911 15.76556685 30909 | 2016/04/20-20:51:24  191.6831    0.1000  354.9897   91.3383     6718.3421     6717.3975     6719.2867  44.911070 -25.476971   0.000128  -0.000058
1 40955U 98067HG  16113.00992360  .00099380  00000-0  60269-3 0  9999 | 2 40955  51.6338 324.5532 0001756   6.6659 353.4364 15.76743119 31080 | 2016/04/22-00:14:17  249.4105    0.1000  353.4341   91.3275     6717.8125     6716.6329     6718.9922  42.063700 -29.944856   0.000154  -0.000085
1 40955U 98067HG  16114.08731200  .00086236  00000-0  52033-3 0  9998 | 2 40955  51.6335 318.9965 0002083   3.3139 356.7874 15.76915058 31259 | 2016/04/23-02:05:43  283.8899    0.1000  356.7861   91.3175     6717.3242     6715.9250     6718.7234  38.966228 -33.877004   0.000165  -0.000127
1 40955U 98067HG  16115.10121461  .00093432  00000-0  55888-3 0  9991 | 2 40955  51.6336 313.7664 0002255   3.9880 356.1138 15.77078385 31418 | 2016/04/24-02:25:44  295.1238    0.1000  356.1120   91.3081     6716.8604     6715.3457     6718.3750  35.715983 -37.288030   0.000167  -0.000152
1 40955U 98067HG  16116.49515758  .00073410  00000-0  43669-3 0  9998 | 2 40955  51.6332 306.5741 0002424   6.7475 353.3558 15.77299023 31632 | 2016/04/25-11:53:01   85.5080    0.1001  353.3526   91.2953     6716.2340     6714.6060     6717.8620  30.766257 -41.465947   0.000166  -0.000176
1 40955U 98067HG  16117.76221608  .00067762  00000-0  40043-3 0  9993 | 2 40955  51.6338 300.0345 0002668   7.6158 352.4883 15.77479440 31831 | 2016/04/26-18:17:35  189.4368    0.1001  352.4843   91.2849     6715.7219     6713.9301     6717.5136  25.843821 -44.700629   0.000163  -0.000211
1 40955U 98067HG  16118.90245049  .00071351  00000-0  41835-3 0  9994 | 2 40955  51.6338 294.1478 0002737   9.5962 350.5090 15.77634774 32015 | 2016/04/27-21:39:31  246.9306    0.1000  350.5038   91.2759     6715.2811     6713.4431     6717.1190  21.122968 -47.115492   0.000152  -0.000228
1 40955U 98067HG  16120.04257484  .00060326  00000-0  35248-3 0  9999 | 2 40955  51.6336 288.2611 0002929  11.7179 348.3890 15.77779172 32198 | 2016/04/29-01:01:18  304.3842    0.1001  348.3822   91.2675     6714.8713     6712.9045     6716.8381  16.179274 -49.033251   0.000146  -0.000254
1 40955U 98067HG  16121.49925319  .00057209  00000-0  33200-3 0  9990 | 2 40955  51.6329 280.7376 0003070  14.2983 345.8104 15.77953256 32427 | 2016/04/30-11:58:55  117.7458    0.1001  345.8018   91.2575     6714.3775     6712.3161     6716.4388   9.619798 -50.728846   0.000130  -0.000278
1 40955U 98067HG  16122.51249491  .00068278  00000-0  39250-3 0  9993 | 2 40955  51.6322 275.5026 0003137  16.6177 343.4926 15.78093648 32583 | 2016/05/01-12:17:59  128.7450    0.1001  343.4824   91.2493     6713.9792     6711.8731     6716.0854   4.951059 -51.394271   0.000118  -0.000291
1 40955U 98067HG  16123.52563616  .00084511  00000-0  48021-3 0  9997 | 2 40955  51.6320 270.2669 0003267  17.9299 342.1817 15.78268208 32748 | 2016/05/02-12:36:54  139.7088    0.1001  342.1702   91.2392     6713.4842     6711.2909     6715.6775   0.240516 -51.631440   0.000102  -0.000310
1 40955U 98067HG  16124.60197068  .00078170  00000-0  44101-3 0  9990 | 2 40955  51.6319 264.7026 0003311  20.0061 340.1069 15.78458690 32915 | 2016/05/03-14:26:50  173.8130    0.1001  340.0940   91.2282     6712.9441     6710.7214     6715.1667  -4.766936 -51.411374   0.000084  -0.000320
1 40955U 98067HG  16125.61488359  .00064603  00000-0  36331-3 0  9990 | 2 40955  51.6319 259.4651 0003427  21.7116 338.4030 15.78604330 33077 | 2016/05/04-14:45:25  184.6959    0.1001  338.3885   91.2198     6712.5312     6710.2308     6714.8315  -9.440088 -50.761578   0.000066  -0.000336
1 40955U 98067HG  16126.62771092  .00062945  00000-0  35211-3 0  9994 | 2 40955  51.6320 254.2275 0003529  23.1303 336.9856 15.78732783 33232 | 2016/05/05-15:03:54  195.5484    0.1001  336.9698   91.2124     6712.1670     6709.7983     6714.5358 -14.034527 -49.687981   0.000045  -0.000350
1 40955U 98067HG  16127.70374399  .00064674  00000-0  35909-3 0  9998 | 2 40955  51.6320 248.6620 0003742  25.2609 334.8575 15.78886719 33405 | 2016/05/06-16:53:23  229.5439    0.1002  334.8393   91.2035     6711.7308     6709.2192     6714.2423 -18.787288 -48.092632   0.000026  -0.000373
1 40955U 98067HG  16128.71637764  .00069940  00000-0  38500-3 0  9999 | 2 40955  51.6319 243.4230 0003823  28.1324 331.9883 15.79046283 33561 | 2016/05/07-17:11:35  240.3268    0.1001  331.9677   91.1943     6711.2786     6708.7129     6713.8443 -23.100118 -46.176159   0.000010  -0.000382
1 40955U 98067HG  16129.85546861  .00057296  00000-0  31372-3 0  9993 | 2 40955  51.6316 237.5288 0003908  31.4444 328.6790 15.79243756 33743 | 2016/05/08-20:31:52  297.4138    0.1001  328.6557   91.1829     6710.7191     6708.0966     6713.3417 -27.719747 -43.559589  -0.000007  -0.000391
1 40955U 98067HG  16130.86785440 +.00068508 +00000-0 +37059-3 0  9990 | 2 40955 051.6312 232.2883 0004059 033.8009 326.3251 15.79439314033905 | 2016/05/09-20:49:42  308.1084    0.1002  326.2993   91.1716     6710.1652     6707.4415     6712.8889 -31.582216 -40.845372  -0.000028  -0.000405
1 40955U 98067HG  16132.25972088  .00071118  00000-0  38100-3 0  9990 | 2 40955  51.6307 225.0817 0004253  36.5968 323.5323 15.79637099 34120 | 2016/05/11-06:13:59   97.7557    0.1001  323.5033   91.1602     6709.6051     6706.7515     6712.4587 -36.456322 -36.560440  -0.000062  -0.000421
1 40955U 98067HG  16133.46166790  .00057739  00000-0  30870-3 0  9998 | 2 40955  51.6309 218.8559 0004229  40.9919 319.1400 15.79765110 34317 | 2016/05/12-11:04:48  177.8644    0.1002  319.1083   91.1528     6709.2426     6706.4053     6712.0799 -40.206337 -32.391361  -0.000075  -0.000416
1 40955U 98067HG  16134.47375534  .00059005  00000-0  31374-3 0  9996 | 2 40955  51.6312 213.6131 0004266  44.1686 315.9656 15.79876940 34476 | 2016/05/13-11:22:12  188.4539    0.1002  315.9316   91.1463     6708.9260     6706.0640     6711.7880 -42.998189 -28.582102  -0.000090  -0.000417
1 40955U 98067HG  16135.67550467  .00069677  00000-0  36656-3 0  9993 | 2 40955  51.6314 207.3864 0004325  47.9586 312.1783 15.80044287 34661 | 2016/05/14-16:12:43  268.4922    0.1002  312.1416   91.1367     6708.4523     6705.5509     6711.3537 -45.844790 -23.749878  -0.000109  -0.000418
1 40955U 98067HG  16137.00358908  .00085174  00000-0  44197-3 0  9997 | 2 40955  51.6311 200.5037 0004348  53.1749 306.9651 15.80266385 34873 | 2016/05/16-00:05:10   34.7912    0.1002  306.9253   91.1239     6707.8237     6704.9071     6710.7403 -48.360248 -18.084715  -0.000122  -0.000417
1 40955U 98067HG  16138.07856526  .00097051  00000-0  49813-3 0  9991 | 2 40955  51.6309 194.9306 0004325  57.3315 302.8103 15.80453372 35046 | 2016/05/17-01:53:08   68.4134    0.1001  302.7686   91.1131     6707.2946     6704.3937     6710.1955 -49.887769 -13.302643  -0.000132  -0.000412
1 40955U 98067HG  16139.15342138  .00079100  00000-0  40443-3 0  9995 | 2 40955  51.6305 189.3569 0004329  60.8939 299.2496 15.80618332 35218 | 2016/05/18-03:40:55  101.9931    0.1002  299.2063   91.1036     6706.8279     6703.9246     6709.7313 -50.943543  -8.394282  -0.000146  -0.000407
1 40955U 98067HG  16140.16494348  .00074106  00000-0  37654-3 0  9990 | 2 40955  51.6300 184.1101 0004287  65.6015 294.5434 15.80779957 35377 | 2016/05/19-03:57:31  112.3834    0.1002  294.4987   91.0943     6706.3708     6703.4958     6709.2458 -51.497216  -3.700491  -0.000149  -0.000402
1 40955U 98067HG  16141.17636834  .00068949  00000-0  34847-3 0  9999 | 2 40955  51.6297 178.8624 0004223  70.6013 289.5444 15.80925054 35530 | 2016/05/20-04:13:58  122.7402    0.1001  289.4988   91.0859     6705.9604     6703.1285     6708.7924 -51.619524   1.025033  -0.000148  -0.000395
1 40955U 98067HG  16142.50372311  .00089970  00000-0  44837-3 0  9991 | 2 40955  51.6293 171.9737 0004188  76.5938 283.5530 15.81125873 35741 | 2016/05/21-12:05:21  248.7838    0.1001  283.5063   91.0743     6705.3926     6702.5844     6708.2008 -51.123544   7.208877  -0.000153  -0.000390
1 40955U 98067HG  16143.51491573  .00079148  00000-0  39211-3 0  9991 | 2 40955  51.6289 166.7238 0004178  82.2821 277.8655 15.81304372 35903 | 2016/05/22-12:21:28  259.0589    0.1002  277.8181   91.0641     6704.8880     6702.0867     6707.6893 -50.249084  11.856343  -0.000150  -0.000390
1 40955U 98067HG  16144.90512835 +.00079672 +00000-0 +39065-3 0  9999 | 2 40955 051.6290 159.5050 0004058 087.9043 272.2424 15.81525940036126 | 2016/05/23-21:43:23   48.1254    0.1002  272.1959   91.0513     6704.2617     6701.5412     6706.9823 -48.361026  18.076637  -0.000156  -0.000375
1 40955U 98067HG  16145.91608701 +.00061991 +00000-0 +30378-3 0  9992 | 2 40955 051.6294 154.2546 0003882 091.5370 268.6077 15.81638021036285 | 2016/05/24-21:59:09   58.3194    0.1002  268.5632   91.0449     6703.9450     6701.3425     6706.5475 -46.504310  22.426414  -0.000159  -0.000354
1 40955U 98067HG  16147.11651783  .00047982  00000-0  23511-3 0  9999 | 2 40955  51.6298 148.0180 0003719  94.3257 265.8170 15.81747165 36472 | 2016/05/26-02:47:47  137.8963    0.1002  265.7745   91.0386     6703.6366     6701.1435     6706.1297 -43.793147  27.345869  -0.000173  -0.000329
1 40955U 98067HG  16148.19051685  .00047372  00000-0  23113-3 0  9994 | 2 40955  51.6298 142.4383 0003709  97.4630 262.6794 15.81845221 36641 | 2016/05/27-04:34:20  171.1745    0.1002  262.6372   91.0329     6703.3596     6700.8733     6705.8459 -40.926804  31.474322  -0.000186  -0.000321
1 40955U 98067HG  16149.20126415  .00063725  00000-0  30720-3 0  9993 | 2 40955  51.6299 137.1868 0003655 102.2457 257.8955 15.81981417 36804 | 2016/05/28-04:49:49  181.2925    0.1003  257.8546   91.0251     6702.9748     6700.5249     6705.4248 -37.874317  35.088213  -0.000186  -0.000315
1 40955U 98067HG  16150.33822770  .00073036  00000-0  34784-3 0  9996 | 2 40955  51.6297 131.2769 0003590 108.0954 252.0440 15.82189221 36980 | 2016/05/29-08:07:02  237.6317    0.1003  252.0049   91.0131     6702.3879     6699.9818     6704.7941 -34.060047  38.801277  -0.000183  -0.000309
1 40955U 98067HG  16151.79078633  .00100538  00000-0  46944-3 0  9997 | 2 40955  51.6296 123.7251 0003453 112.3291 247.8078 15.82488564 37219 | 2016/05/30-18:58:43   49.5388    0.1003  247.7712   90.9959     6701.5427     6699.2286     6703.8567 -28.665210  42.940905  -0.000193  -0.000286
1 40955U 98067HG  16152.80108470  .00111651  00000-0  51463-3 0  9993 | 2 40955  51.6292 118.4693 0003347 118.1727 241.9614 15.82722822 37372 | 2016/05/31-19:13:33   59.5006    0.1003  241.9276   90.9825     6700.8814     6698.6386     6703.1242 -24.611010  45.385818  -0.000184  -0.000280
1 40955U 98067HG  16154.12686168  .00119885  00000-0  54294-3 0  9997 | 2 40955  51.6290 111.5676 0003326 129.3262 230.8036 15.83068358 37586 | 2016/06/02-03:02:40  184.9931    0.1003  230.7741   90.9626     6699.9063     6697.6779     6702.1347 -18.978754  48.014170  -0.000162  -0.000291
1 40955U 98067HG  16155.13679525  .00117490  00000-0  52635-3 0  9995 | 2 40955  51.6291 106.3103 0003080 132.6567 227.4696 15.83308286 37745 | 2016/06/03-03:16:59  194.8254    0.1003  227.4436   90.9488     6699.2294     6697.1661     6701.2928 -14.499478  49.551278  -0.000159  -0.000264
1 40955U 98067HG  16156.84070682  .00138190  00000-0  60504-3 0  9997 | 2 40955  51.6293  97.4352 0002925 145.6167 214.5026 15.83724420 38017 | 2016/06/04-20:10:37   98.7952    0.1003  214.4836   90.9249     6698.0559     6696.0967     6700.0151  -6.681080  51.195193  -0.000133  -0.000261
1 40955U 98067HG  16157.85022352  .00159281  00000-0  68681-3 0  9998 | 2 40955  51.6295  92.1742 0002801 153.8444 206.2701 15.83981276 38175 | 2016/06/05-20:24:19  108.4820    0.1003  206.2559   90.9102     6697.3318     6695.4558     6699.2077  -1.958712  51.592332  -0.000114  -0.000256
1 40955U 98067HG  16159.04874974  .00145949  00000-0  61810-3 0  9999 | 2 40955  51.6299  85.9245 0002545 165.1542 194.9536 15.84401060 38366 | 2016/06/07-01:10:11  187.3892    0.1003  194.9461   90.8861     6696.1487     6694.4446     6697.8529   3.669385  51.499342  -0.000083  -0.000241
1 40955U 98067HG  16160.05782627  .00134453  00000-0  56363-3 0  9990 | 2 40955  51.6297  80.6613 0002473 176.1846 183.9177 15.84651730 38522 | 2016/06/08-01:23:16  196.9200    0.1004  183.9158   90.8717     6695.4426     6693.7868     6697.0983   8.377969  50.945417  -0.000056  -0.000241
1 40955U 98067HG  16161.12981539  .00099539  00000-0  41560-3 0  9990 | 2 40955  51.6293  75.0676 0002347 186.3002 173.7972 15.84859543 38692 | 2016/06/09-03:06:56  229.4913    0.1003  173.8001   90.8598     6694.8573     6693.2860     6696.4285  13.303798  49.885805  -0.000035  -0.000232
1 40955U 98067HG  16162.13863271  .00077792  00000-0  32397-3 0  9999 | 2 40955  51.6292  69.8007 0002407 193.2412 166.8529 15.85008234 38852 | 2016/06/10-03:19:37  238.9301    0.1004  166.8592   90.8513     6694.4386     6692.8272     6696.0499  17.826878  48.453862  -0.000029  -0.000239
1 40955U 98067HG  16163.77777258  .00072049  00000-0  29713-3 0  9997 | 2 40955  51.6292  61.2434 0002302 205.6749 154.4140 15.85242015 39116 | 2016/06/11-18:39:59  119.1985    0.1003  154.4254   90.8379     6693.7804     6692.2395     6695.3213  24.838279  45.261840  -0.000012  -0.000230
1 40955U 98067HG  16164.78633458  .00080696  00000-0  32918-3 0  9990 | 2 40955  51.6291  55.9753 0002446 210.3815 149.7048 15.85424682 39278 | 2016/06/12-18:52:19  128.5456    0.1004  149.7189   90.8274     6693.2662     6691.6290     6694.9034  28.889076  42.790014  -0.000016  -0.000244
1 40955U 98067HG  16166.04684832  .00096843  00000-0  38833-3 0  9996 | 2 40955  51.6291  49.3898 0002510 219.4104 140.6718 15.85709625 39477 | 2016/06/14-01:07:27  230.1626    0.1004  140.6900   90.8111     6692.4644     6690.7845     6694.1442  33.605865  39.194512  -0.000005  -0.000251
1 40955U 98067HG  16167.05509614  .00123169  00000-0  48569-3 0  9991 | 2 40955  51.6291  44.1201 0002687 226.1081 133.9702 15.85958722 39632 | 2016/06/15-01:19:20  239.3992    0.1005  133.9924   90.7968     6691.7636     6689.9655     6693.5616  37.063608  35.942356   0.000001  -0.000269
1 40955U 98067HG  16168.63010990  .00108262  00000-0  41898-3 0  9995 | 2 40955  51.6296  35.8864 0002368 246.6009 113.5273 15.86460470 39885 | 2016/06/16-15:07:21   96.1404    0.1531  113.5522   90.7681     6690.3526     6688.7683     6691.9368  41.829311  30.264242   0.000051  -0.000231
1 40955U 98067HG  16169.70083632  .00153779  00000-0  58014-3 0  9998 | 2 40955  51.6288  30.2816 0002675 256.9714 103.0992 15.86771025 40054 | 2016/06/17-16:49:12  128.3196    0.1005  103.1291   90.7503     6689.4796     6687.6902     6691.2690  44.584439  26.033839   0.000079  -0.000255
1 40955U 98067HG  16170.70839305  .00153326  00000-0  56993-3 0  9998 | 2 40955  51.6284  25.0079 0002806 272.6405  87.4279 15.87074236 40213 | 2016/06/18-17:00:05  137.3090    0.1005   87.4600   90.7330     6688.6276     6686.7507     6690.5044  46.788212  21.825556   0.000130  -0.000249
1 40955U 98067HG  16171.84167009  .00139603  00000-0  51212-3 0  9990 | 2 40955  51.6279  19.0723 0003080 284.3381  75.7281 15.87383142 40395 | 2016/06/19-20:12:00  192.3436    0.1004   75.7623   90.7153     6687.7598     6685.7000     6689.8196  48.793890  16.869985   0.000170  -0.000257
1 40955U 98067HG  16173.03768124  .00115656  00000-0  42001-3 0  9996 | 2 40955  51.6276  12.8057 0003413 296.1924  63.8730 15.87664745 40586 | 2016/06/21-00:54:15  270.3539    0.1005   63.9081   90.6992     6686.9690     6684.6867     6689.2512  50.343483  11.443026   0.000215  -0.000265
1 40955U 98067HG  16174.54814939  .00096826  00000-0  34747-3 0  9994 | 2 40955  51.6274   4.8878 0003779 303.6261  56.4383 15.87972955 40823 | 2016/06/22-13:09:20  103.5301    0.1005   56.4744   90.6816     6686.1037     6683.5770     6688.6304  51.439655   4.398901   0.000235  -0.000296
1 40955U 98067HG  16175.74373966  .00092655  00000-0  32896-3 0  9996 | 2 40955  51.6275 358.6178 0004065 310.6154  49.4497 15.88204053 41013 | 2016/06/23-17:50:59  181.3903    0.1005   49.4851   90.6685     6685.4551     6682.7374     6688.1727  51.612478  -1.245338   0.000257  -0.000315
1 40955U 98067HG  16176.75041340  .00095374  00000-0  33501-3 0  9991 | 2 40955  51.6277 353.3369 0004305 315.2378  44.8279 15.88406757 41174 | 2016/06/24-18:00:35  190.0654    0.1005   44.8627   90.6569     6684.8863     6682.0084     6687.7641  51.278985  -5.990418   0.000268  -0.000337
1 40955U 98067HG  16177.88277269 +.00079964 +00000-0 +27898-3 0  9996 | 2 40955 051.6276 347.3948 0004351 318.6089 041.4586 15.88609679041358 | 2016/06/25-21:11:11  244.7711    0.1005   41.4916   90.6453     6684.3170     6681.4087     6687.2254  50.383218 -11.266785   0.000256  -0.000352
1 40955U 98067HG  16178.88920446  .00082962  00000-0  28690-3 0  9992 | 2 40955  51.6273 342.1126 0004491 322.7953  37.2741 15.88771530 41517 | 2016/06/26-21:20:27  253.3589    0.1006   37.3053   90.6361     6683.8630     6680.8613     6686.8648  49.131738 -15.857188   0.000257  -0.000368
1 40955U 98067HG  16180.46155084  .00070276  00000-0  24088-3 0  9999 | 2 40955  51.6264 333.8578 0004755 328.8599  31.2124 15.89010235 41766 | 2016/06/28-11:04:37  109.2052    0.1006   31.2407   90.6224     6683.1936     6680.0158     6686.3715  46.345190 -22.746616   0.000257  -0.000400
1 40955U 98067HG  16181.59350158  .00058879  00000-0  20095-3 0  9992 | 2 40955  51.6264 327.9122 0004879 333.2308  26.8444 15.89164708 41940 | 2016/06/29-14:14:38  163.7659    0.1005   26.8697   90.6136     6682.7605     6679.5000     6686.0211  43.739696 -27.424883   0.000252  -0.000418
1 40955U 98067HG  16182.66247015  .00059776  00000-0  20259-3 0  9997 | 2 40955  51.6262 322.2966 0004971 336.7974  23.2806 15.89297264 42119 | 2016/06/30-15:53:57  195.2610    0.1005   23.3031   90.6061     6682.3890     6679.0671     6685.7108  40.845991 -31.573241   0.000242  -0.000434
1 40955U 98067HG  16183.79421661  .00076244  00000-0  25503-3 0  9999 | 2 40955  51.6262 316.3502 0005308 341.5721  18.5091 15.89461641 42292 | 2016/07/01-19:03:40  249.7484    0.1005   18.5284   90.5967     6681.9282     6678.3815     6685.4750  37.355283 -35.634918   0.000249  -0.000469
1 40955U 98067HG  16184.80011479  .00072791  00000-0  24197-3 0  9995 | 2 40955  51.6265 311.0637 0005450 345.5662  14.5187 15.89601452 42458 | 2016/07/02-19:12:09  258.1460    0.1006   14.5344   90.5887     6681.5364     6677.8950     6685.1779  33.913329 -38.925334   0.000244  -0.000487
1 40955U 98067HG  16185.80592364  .00068116  12820-4  23553-3 0  9991 | 2 40955  51.6266 305.7767 0005596 349.3552  10.7334 15.89748216 42614 | 2016/07/03-19:20:31  266.5119    0.1006   10.7454   90.5804     6681.1252     6677.3864     6684.8640  30.182345 -41.884745   0.000238  -0.000507
1 40955U 98067HG  16187.12590268  .00067920  12819-4  23259-3 0  9992 | 2 40955  51.6267 298.8375 0005770 353.8477   6.2457 15.89940223 42823 | 2016/07/05-03:01:17   29.9398    0.1006    6.2529   90.5694     6680.5873     6676.7326     6684.4420  24.900957 -45.224534   0.000223  -0.000532
1 40955U 98067HG  16188.13149760  .00065408  12704-4  22284-3 0  9990 | 2 40955  51.6262 293.5494 0005870 357.4068   2.6906 15.90077424 42981 | 2016/07/06-03:09:21   38.2292    0.1006    2.6938   90.5616     6680.2030     6676.2817     6684.1243  20.626711 -47.326560   0.000210  -0.000548
1 40955U 98067HG  16189.13700913  .00066076  12742-4  22348-3 0  9999 | 2 40955  51.6260 288.2609 0006048   1.0231 359.0786 15.90208972 43148 | 2016/07/07-03:17:17   46.4887    0.1006  359.0775   90.5541     6679.8346     6675.7946     6683.8746  16.176722 -49.026091   0.000200  -0.000571
1 40955U 98067HG  16190.14241493  .00099423  14761-4  32709-3 0  9992 | 2 40955  51.6255 282.9712 0006105   4.3577 355.7481 15.90417325 43308 | 2016/07/08-03:25:04   54.7113    0.1006  355.7429   90.5423     6679.2512     6675.1735     6683.3289  11.587924 -50.308173   0.000182  -0.000583
1 40955U 98067HG  16191.46176646  .00107374  15385-4  34607-3 0  9992 | 2 40955  51.6249 276.0257 0006033   8.5674 351.5434 15.90770251 43518 | 2016/07/09-11:04:56  177.9188    0.1006  351.5332   90.5222     6678.2632     6674.2342     6682.2922   5.419300 -51.339668   0.000152  -0.000584
1 40955U 98067HG  16192.59237819  .00109955  15616-4  34804-3 0  9990 | 2 40955  51.6246 270.0705 0006031  12.9333 347.1826 15.91107829 43697 | 2016/07/10-14:13:01  232.0035    0.1006  347.1673   90.5030     6677.3186     6673.2915     6681.3457   0.063522 -51.624561   0.000136  -0.000588
1 40955U 98067HG  16193.59720355  .00116424  16173-4  36339-3 0  9996 | 2 40955  51.6244 264.7764 0006046  16.7699 343.3506 15.91346246 43852 | 2016/07/11-14:19:58  240.0205    0.1006  343.3307   90.4894     6676.6517     6672.6150     6680.6884  -4.700029 -51.410003   0.000121  -0.000592
1 40955U 98067HG  16195.16687973  .00154815  20071-4  46688-3 0  9995 | 2 40955  51.6246 256.5029 0006174  21.5235 338.6030 15.91869519 44100 | 2016/07/13-04:00:18   94.9186    0.1007  338.5772   90.4597     6675.1884     6671.0672     6679.3097 -12.048983 -50.198818   0.000086  -0.000611
1 40955U 98067HG  16196.23398313  .00138669  18347-4  41324-3 0  9995 | 2 40955  51.6245 250.8738 0005902  26.7434 333.3876 15.92150617 44270 | 2016/07/14-05:36:56  125.7522    0.1007  333.3573   90.4437     6674.4027     6670.4635     6678.3420 -16.914766 -48.774785   0.000078  -0.000585
1 40955U 98067HG  16197.36362664  .00146694  19242-4  42848-3 0  9994 | 2 40955  51.6244 244.9125 0005688  31.9149 328.2202 15.92511099 44456 | 2016/07/15-08:43:37  179.4945    0.1008  328.1859   90.4232     6673.3955     6669.5997     6677.1913 -21.888841 -46.754222   0.000068  -0.000565
1 40955U 98067HG  16198.36751766  .00220524  29525-4  62660-3 0  9994 | 2 40955  51.6243 239.6129 0005776  34.2494 325.8884 15.92888770 44617 | 2016/07/16-08:49:13  187.1817    0.1007  325.8513   90.4018     6672.3406     6668.4867     6676.1945 -26.113613 -44.532545   0.000039  -0.000576
1 40955U 98067HG  16199.37118704  .00166585  21680-4  46749-3 0  9995 | 2 40955  51.6238 234.3101 0005488  41.0261 319.1158 15.93222253 44777 | 2016/07/17-08:54:30  194.7906    0.1007  319.0746   90.3829     6671.4095     6667.7482     6675.0708 -30.117224 -41.928147   0.000051  -0.000546
1 40955U 98067HG  16200.43733740 +.00169981 +22175-4 +46714-3 0  9993 | 2 40955 051.6233 228.6744 0005066 048.2991 311.8449 15.93614599044941 | 2016/07/18-10:29:45  225.2892    0.1007  311.8016   90.3606     6670.3145     6666.9353     6673.6936 -34.088789 -38.767507   0.000062  -0.000503
1 40955U 98067HG  16201.44054766  .00153263  20171-4  41477-3 0  9990 | 2 40955  51.6232 223.3686 0004944  51.7800 308.3652 15.93946580 45103 | 2016/07/19-10:34:23  232.7383    0.1008  308.3208   90.3418     6669.3882     6666.0909     6672.6856 -37.527542 -35.449095   0.000044  -0.000492
1 40955U 98067HG  16202.44355375  .00213130  28646-4  56249-3 0  9999 | 2 40955  51.6226 218.0615 0004521  57.0079 303.1362 15.94304202 45265 | 2016/07/20-10:38:43  240.1173    0.1007  303.0928   90.3215     6668.3909     6665.3761     6671.4056 -40.645026 -31.825692   0.000040  -0.000450
1 40955U 98067HG  16203.44629063  .00166815  21944-4  43246-3 0  9992 | 2 40955  51.6225 212.7523 0004403  56.6728 303.4701 15.94721422 45423 | 2016/07/21-10:42:39  247.4013    0.1008  303.4280   90.2979     6667.2277     6664.2921     6670.1633 -43.415415 -27.928197  -0.000004  -0.000440
1 40955U 98067HG  16204.82473069  .00146448  19543-4  37296-3 0  9998 | 2 40955  51.6227 205.4496 0004240  60.7282 299.4149 15.95106715 45640 | 2016/07/22-19:47:36   32.3009    0.1008  299.3726   90.2761     6666.1541     6663.3276     6668.9805 -46.613421 -22.183150  -0.000028  -0.000423
1 40955U 98067HG  16205.82700152  .00145122  19437-4  36311-3 0  9992 | 2 40955  51.6230 200.1381 0003985  63.7461 296.3956 15.95439623 45803 | 2016/07/23-19:50:52   39.4192    0.1008  296.3547   90.2573     6665.2267     6662.5706     6667.8828 -48.467055 -17.772977  -0.000042  -0.000396
1 40955U 98067HG  16206.82906617  .00159331  21161-4  39099-3 0  9997 | 2 40955  51.6231 194.8252 0003846  62.9899 297.1501 15.95760151 45967 | 2016/07/24-19:53:51   46.4647    0.1008  297.1109   90.2391     6664.3341     6661.7710     6666.8972 -49.904616 -13.208852  -0.000081  -0.000376
1 40955U 98067HG  16207.83090699  .00275365  41252-4  65399-3 0  9994 | 2 40955  51.6229 189.5087 0003519  66.6310 293.5068 15.96198525 46125 | 2016/07/25-19:56:30   53.4336    0.1008  293.4698   90.2143     6663.1139     6660.7692     6665.4587 -50.913629  -8.527967  -0.000084  -0.000342
1 40955U 98067HG  16208.83246757  .00180668  24149-4  42256-3 0  9997 | 2 40955  51.6220 184.1908 0003246  73.5696 286.5669 15.96596876 46287 | 2016/07/26-19:58:45   60.3018    0.1008  286.5312   90.1918     6662.0056     6659.8431     6664.1681 -51.483974  -3.772435  -0.000069  -0.000317
1 40955U 98067HG  16209.83378929  .00186752  25108-4  42770-3 0  9992 | 2 40955  51.6216 178.8715 0002958  74.6211 285.5125 15.96969498 46440 | 2016/07/27-20:00:39   67.0867    0.1009  285.4798   90.1708     6660.9692     6658.9989     6662.9395 -51.611587   1.016675  -0.000084  -0.000284
1 40955U 98067HG  16211.33528427  .00245833  35594-4  53829-3 0  9993 | 2 40955  51.6212 170.8884 0002573  68.1905 291.9377 15.97703186 46683 | 2016/07/29-08:02:48  257.0934    0.1008  291.9103   90.1294     6658.9299     6657.2165     6660.6432 -50.969832   8.174629  -0.000132  -0.000221
1 40955U 98067HG  16212.77348847  .00245038  35706-4  51374-3 0  9993 | 2 40955  51.6202 163.2337 0001845  84.6471 275.4748 15.98483682 46915 | 2016/07/30-18:33:49   63.9255    0.1009  275.4538   90.0854     6656.7621     6655.5339     6657.9903 -49.425791  14.890811  -0.000069  -0.000171
1 40955U 98067HG  16213.83608462  .00257433  38480-4  52345-3 0  9996 | 2 40955  51.6205 157.5710 0001332 109.4972 250.6181 15.99016651 47086 | 2016/07/31-20:03:57   93.1767    0.1009  250.6037   90.0553     6655.2828     6654.3964     6656.1693 -47.715566  19.695197  -0.000007  -0.000133
1 40955U 98067HG  16214.89835043 +.00230557 +33195-4 +45703-3 0  9996 | 2 40955 051.6205 151.9084 0000693 095.5134 264.5955 15.99492569047250 | 2016/08/01-21:33:37  122.3084    0.1010  264.5876   90.0286     6653.9626     6653.5015     6654.4237 -45.539394  24.307193  -0.000027  -0.000064
1 40955U 98067HG  16216.02275839  .00262204  39919-4  50365-3 0  9998 | 2 40955  51.6204 145.9088 0000621 172.5938 187.5081 16.00013360 47430 | 2016/08/03-00:32:46  174.2102    0.1010  187.5072   89.9992     6652.5187     6652.1055     6652.9318 -42.749250  28.933844   0.000047  -0.000041
1 40955U 98067HG  16217.20908564  .00349006  63316-4  63353-3 0  9992 | 2 40955  51.6209 139.5694 0002007 206.5518 153.5390 16.00937956 47622 | 2016/08/04-05:01:04  248.8078    0.1010  153.5492   89.9473     6649.9571     6648.6224     6651.2917 -39.293419  33.477523   0.000195  -0.000048
1 40955U 98067HG  16218.76909817  .00310933  52946-4  53333-3 0  9997 | 2 40955  51.6203 131.2302 0001854 250.4965 109.5846 16.01927188 47875 | 2016/08/05-18:27:30  100.2988    0.1011  109.6046   89.8917     6647.2191     6645.9867     6648.4515 -34.022215  38.821956   0.000172   0.000069
1 40955U 98067HG  16219.95412729 +.00249207 +38102-4 +41339-3 0  9996 | 2 40955 051.6192 124.8853 0002182 265.5193 094.5569 16.02536480048065 | 2016/08/06-22:53:56  174.4271    0.1011   94.5818   89.8575     6645.5341     6644.0841     6646.9842 -29.522850  42.343160   0.000188   0.000110
1 40955U 98067HG  16221.07637358  .00289281  47893-4  46239-3 0  9996 | 2 40955  51.6191 118.8714 0002614 270.8621  89.2091 16.03127150 48240 | 2016/08/08-01:49:58  225.5608    0.1012   89.2391   89.8244     6643.9017     6642.1649     6645.6384 -24.924041  45.203138   0.000227   0.000130
1 40955U 98067HG  16222.75881533  .00378643  76032-4  56182-3 0  9994 | 2 40955  51.6190 109.8429 0003362 278.5370  81.5260 16.04317125 48516 | 2016/08/09-18:12:41  121.9348    0.1011   81.5641   89.7578     6640.6159     6638.3833     6642.8485 -17.521672  48.554219   0.000296   0.000160
1 40955U 98067HG  16223.87959468 +.00513295 +13583-3 +70760-3 0  9994 | 2 40955 051.6180 103.8169 0003958 282.0782 077.9786 16.05489368048699 | 2016/08/10-21:06:36  172.5523    0.1012   78.0230   89.6923     6637.3831     6634.7560     6640.0102 -12.327405  50.124375   0.000356   0.000173
1 40955U 98067HG  16225.06171757  .00575290  17346-3  72904-3 0  9990 | 2 40955  51.6181  97.4540 0005631 302.8187  57.2283 16.06820097 48884 | 2016/08/12-01:28:52  245.6544    0.1013   57.2826   89.6180     6633.7180     6629.9825     6637.4534  -6.696425  51.181893   0.000430   0.000364
1 40955U 98067HG  16226.80192972 +.00644078 +22584-3 +70971-3 0  9998 | 2 40955 051.6195 088.0378 0007715 303.9141 056.1375 16.08978322049160 | 2016/08/13-19:14:46  163.2576    0.1251   56.2110   89.4978     6627.7845     6622.6712     6632.8978   1.767460  51.589232   0.000655   0.000408
1 40955U 98067HG  16228.04353242  .00674906  25551-3  67097-3 0  9990 | 2 40955  51.6183  81.3355 0008400 316.6338  43.4308 16.10533851 49363 | 2016/08/15-01:02:41  258.1477    0.1308   43.4970   89.4113     6623.5162     6617.9524     6629.0800   7.776211  51.029202   0.000662   0.000517
1 40955U 98067HG  16229.09784148  .00845111  42609-3  75246-3 0  9995 | 2 40955  51.6163  75.6188 0010427 321.4264  38.6004 16.12152908 49535 | 2016/08/16-02:20:53  284.4926    0.1014   38.6750   89.3216     6619.0809     6612.1792     6625.9826  12.820047  49.998888   0.000832   0.000628
1 40955U 98067HG  16230.27484963  .00941832  56580-3  72641-3 0  9995 | 2 40955  51.6151  69.2167 0011227 323.5680  36.4570 16.14230024 49725 | 2016/08/17-06:35:47  355.7795    0.1015   36.5335   89.2066     6613.4016     6605.9767     6620.8264  18.314817  48.256461   0.000944   0.000608
1 40955U 98067HG  16231.51186529  .01545126  00000-0  94392-3 0  9997 | 2 40955  51.6127  62.4749 0009831 324.6524  35.4175 16.17252282 49921 | 2016/08/18-12:17:05   89.0213    0.1353   35.4829   89.0399     6605.1598     6598.6662     6611.6533  23.852146  45.770579   0.000875   0.000448
1 40955U 98067HG  16232.80790713  .01671512  11897-4  75786-3 0  9991 | 2 40955  51.6132  55.3515 0011060 331.6264  28.4151 16.21144334 50139 | 2016/08/19-19:23:23  204.0256    0.1019   28.4755   88.8261     6594.5837     6587.2901     6601.8773  29.344185  42.459878   0.000986   0.000502
1 40955U 98067HG  16233.85437114 +.02925189 +12042-4 +88054-3 0  9998 | 2 40955 051.6121 049.5753 0010129 329.7346 030.3088 16.26056285050302 | 2016/08/20-20:30:17  227.5584    0.1020   30.3674   88.5578     6581.2965     6574.6303     6587.9627  33.467770  39.290167   0.000956   0.000335
1 40955U 98067HG  16234.95780760  .06826490  12366-4  77783-3 0  9993 | 2 40955  51.6122  43.4303 0006459 323.8227  36.1895 16.36055317 50486 | 2016/08/21-22:59:14  272.0594    0.0559   36.2332   88.0166     6554.4540     6550.2205     6558.6875  37.481358  35.481924   0.000641   0.000082
