# SPACE DATA - HISTORICAL TLEs
# ----------------------------
# NORAD_ID    : 39132
# OBJECT_NAME : DOVE 2
# --------------------------------------------------------------------+-----------------------------------------------------------------------+----------------------------------------------------------------------------------------------------------------------------------------
#                  LINE 1                                             |                 LINE 2                                                |      DERIVED PARAMETERS
# --------------------------------------------------------------------+-----------------------------------------------------------------------+----------------------------------------------------------------------------------------------------------------------------------------
# NORAD  COSPAR     TLE_EPOCH      MEANMOT1 MEANMOT2   BSTAR  #  REV  |   NORAD    INC     RAAN     ECC    ARGPER  MEANANOM   MEANMOT     REV |  CAL_DATE              LONG     ARGLAT     PERIOD        SMA         PERIGEE        APOGEE      INC_X      INC_Y      ECC_X      ECC_Y
# ------ ------   -------------- ----------  -------  ------- -- ----     -----  ------- -------- ------- -------- -------- -----------  ----   ------------------- ---------  --------  --------  ------------  ------------   ----------- ---------- ----------  ---------  ---------   
1 40979U 98067HM  15281.77395448 -.00000489  00000-0  00000+0 0  9994 | 2 40979  51.6352 237.0874 0007096  52.8579  22.0616 15.54838254   149 | 2015/10/08-18:34:29  343.6907   74.9501   22.0922   92.6141     6780.7598     6775.9482     6785.5715 -28.056455 -43.347771   0.000242  -0.000667
1 40979U 98067HM  15282.87116138  .00028163  00000-0  41732-3 0  9992 | 2 40979  51.6441 231.6118 0009599  27.1662  73.9044 15.54979994   324 | 2015/10/09-20:54:28  359.0912  101.1763   74.0101   92.6057     6780.3478     6773.8393     6786.8562 -32.070282 -40.479749  -0.000187  -0.000942
1 40979U 98067HM  15283.89281003  .00022999  00000-0  34176-3 0  9994 | 2 40979  51.6444 226.5091 0010419  28.9753  35.0353 15.55016829   482 | 2015/10/10-21:25:38   50.0544   64.0792   35.1039   92.6035     6780.2407     6773.1764     6787.3050 -35.543709 -37.467170  -0.000261  -0.001009
1 40979U 98067HM  15285.19221759  .00021318  00000-0  31686-3 0  9998 | 2 40979  51.6454 220.0234 0009620  34.9737 108.1370 15.55068945   681 | 2015/10/12-04:36:47   86.5075  143.2154  108.2417   92.6004     6780.0892     6773.5668     6786.6117 -39.549110 -33.213178  -0.000249  -0.000929
1 40979U 98067HM  15286.28485738  .00020006  00000-0  29743-3 0  9992 | 2 40979  51.6455 214.5697 0009461  40.3327 103.7657 15.55108982   856 | 2015/10/13-06:50:11  125.4007  144.2037  103.8710   92.5980     6779.9729     6773.5583     6786.3874 -42.526792 -29.304089  -0.000246  -0.000913
1 40979U 98067HM  15287.31297690  .00019494  00000-0  28961-3 0  9995 | 2 40979  51.6457 209.4363 0009548  44.0526  99.7423 15.55147804  1019 | 2015/10/14-07:30:41  141.9740  143.9027   99.8501   92.5957     6779.8600     6773.3866     6786.3334 -44.978376 -25.381569  -0.000271  -0.000915
1 40979U 98067HM  15288.71678338  .00019699  00000-0  29197-3 0  9991 | 2 40979  51.6461 202.4269 0009462  49.4174  39.0002 15.55205332  1230 | 2015/10/15-17:12:10  351.1147   88.4859   39.0685   92.5923     6779.6928     6773.2779     6786.1078 -47.739952 -19.703215  -0.000295  -0.000899
1 40979U 98067HM  15289.87977774  .00050713  00000-0  73315-3 0  9998 | 2 40979  51.6448 196.6297 0009142  53.9116  70.6459 15.55372097  1411 | 2015/10/16-21:06:52   20.5963  124.6564   70.7448   92.5823     6779.2082     6773.0107     6785.4058 -49.484723 -14.779972  -0.000305  -0.000862
1 40979U 98067HM  15290.89908187 +.00037859 +00000-0 +54881-3 0  9997 | 2 40979 051.6468 191.5328 0009254 063.3314 012.5431 15.55429364001573 | 2015/10/17-21:34:40   82.3304   75.8976   12.5662   92.5789     6779.0418     6772.7685     6785.3151 -50.604072 -10.325687  -0.000242  -0.000893
1 40979U 98067HM  15292.56792582  .00042932  00000-0  61741-3 0  9994 | 2 40979  51.6451 183.1970 0008992  68.2161 359.1886 15.55589864  1832 | 2015/10/19-13:37:48  341.5647   67.4032  359.1871   92.5694     6778.5755     6772.4802     6784.6708 -51.564724  -2.880207  -0.000287  -0.000852
1 40979U 98067HM  15293.79678402  .00063514  00000-0  89895-3 0  9993 | 2 40979  51.6430 177.0574 0008789  66.6600  48.3979 15.55854973  2023 | 2015/10/20-19:07:22   23.6512  115.1333   48.4733   92.5536     6777.8055     6771.8485     6783.7625 -51.574907   2.651118  -0.000389  -0.000788
1 40979U 98067HM  15295.18922459  .00071094  00000-0  99537-3 0  9998 | 2 40979  51.6421 170.0991 0008429  73.2158 286.9758 15.56104375  2246 | 2015/10/22-04:32:29  288.1269    0.0992  286.8834   92.5388     6777.0812     6771.3688     6782.7936 -50.872975   8.879579  -0.000379  -0.000753
1 40979U 98067HM  15296.28090684  .00087249  00000-0  12093-2 0  9996 | 2 40979  51.6418 164.6407 0008294  77.2166 282.9752 15.56289063  2413 | 2015/10/23-06:44:30  327.6667    0.0992  282.8826   92.5278     6776.5451     6770.9246     6782.1655 -49.797351  13.678426  -0.000391  -0.000731
1 40979U 98067HM  15297.50087316  .00084937  00000-0  11693-2 0  9996 | 2 40979  51.6418 158.5398 0008119  80.0327 280.1581 15.56485515  2590 | 2015/10/24-12:01:15   54.1590    0.0992  280.0665   92.5161     6775.9749     6770.4734     6781.4763 -48.061574  18.893402  -0.000423  -0.000693
1 40979U 98067HM  15298.84907413  .00086337  00000-0  11785-2 0  9991 | 2 40979  51.6414 151.7935 0007937  84.5586 275.6311 15.56709216  2802 | 2015/10/25-20:22:40  187.5876    0.0992  275.5406   92.5028     6775.3257     6769.9481     6780.7033 -45.508975  24.408346  -0.000440  -0.000661
1 40979U 98067HM  15299.94033336 +.00073370 +00000-0 +99795-3 0  9998 | 2 40979 051.6405 146.3317 0007773 088.2496 271.9386 15.56876683002977 | 2015/10/26-22:34:04  226.9798    0.0992  271.8496   92.4929     6774.8398     6769.5737     6780.1059 -42.978373  28.628669  -0.000450  -0.000633
1 40979U 98067HM  15300.96729840  .00074775  00000-0  10111-2 0  9999 | 2 40979  51.6410 141.1900 0007566  91.9063 268.2795 15.57028466  3136 | 2015/10/27-23:12:54  242.8435    0.0991  268.1928   92.4839     6774.3995     6769.2740     6779.5250 -40.240144  32.365471  -0.000454  -0.000605
1 40979U 98067HM  15302.37925168  .00036787  00000-0  50107-3 0  9998 | 2 40979  51.6414 134.1192 0007583  95.0845 265.1013 15.57143702  3351 | 2015/10/29-09:06:07   39.6092    0.0992  265.0147   92.4770     6774.0653     6768.9285     6779.2021 -35.950336  37.073002  -0.000495  -0.000574
1 40979U 98067HM  15303.47023734  .00044701  00000-0  60475-3 0  9992 | 2 40979  51.6409 128.6562 0007428  99.7442 260.4390 15.57236103  3529 | 2015/10/30-11:17:08   78.9050    0.0993  260.3551   92.4715     6773.7973     6768.7658     6778.8289 -32.257275  40.326800  -0.000493  -0.000555
1 40979U 98067HM  15304.49699307  .00036743  00000-0  49742-3 0  9991 | 2 40979  51.6414 123.5139 0007390 102.8912 257.2906 15.57309715  3689 | 2015/10/31-11:55:40   94.6927    0.0992  257.2080   92.4672     6773.5839     6768.5782     6778.5896 -28.513245  43.056115  -0.000510  -0.000535
1 40979U 98067HM  15305.84453729 +.00039195 +00000-0 +52815-3 0  9996 | 2 40979 051.6414 116.7643 0007333 106.8168 253.3629 15.57404572003896 | 2015/11/01-20:16:08  227.8886    0.0992  253.2824   92.4615     6773.3088     6768.3420     6778.2757 -23.255222  46.108880  -0.000531  -0.000506
1 40979U 98067HM  15306.87118369 +.00036859 +00000-0 +49597-3 0  9995 | 2 40979 051.6417 111.6211 0007261 110.3885 249.7888 15.57472230004051 | 2015/11/02-20:54:30  243.6388    0.0992  249.7107   92.4575     6773.1127     6768.1947     6778.0306 -19.028259  48.008234  -0.000540  -0.000486
1 40979U 98067HM  15307.89778352  .00045914  00000-0  61365-3 0  9991 | 2 40979  51.6417 106.4776 0007215 113.7505 246.4245 15.57552478  4216 | 2015/11/03-21:32:48  259.3724    0.0993  246.3488   92.4527     6772.8800     6767.9934     6777.7667 -14.647676  49.520811  -0.000551  -0.000466
1 40979U 98067HM  15308.98847591  .00047116  00000-0  62693-3 0  9995 | 2 40979  51.6414 101.0127 0007170 117.0307 243.1418 15.57659929  4384 | 2015/11/04-23:43:24  298.5641    0.0992  243.0685   92.4464     6772.5685     6767.7126     6777.4245  -9.864880  50.690417  -0.000565  -0.000442
1 40979U 98067HM  15310.52815231  .00043358  00000-0  57472-3 0  9997 | 2 40979  51.6417  93.2958 0007088 121.3117 238.8570 15.57799654  4623 | 2015/11/06-12:40:32  142.0859    0.0992  238.7875   92.4381     6772.1636     6767.3635     6776.9637  -2.968925  51.556286  -0.000583  -0.000403
1 40979U 98067HM  15311.81109677  .00071848  00000-0  93839-3 0  9992 | 2 40979  51.6415  86.8649 0007000 124.6034 235.5619 15.57978296  4825 | 2015/11/07-19:27:58  251.6447    0.0992  235.4958   92.4275     6771.6459     6766.9057     6776.3860   2.824300  51.564211  -0.000597  -0.000365
1 40979U 98067HM  15312.83733934  .00050520  00000-0  66033-3 0  9994 | 2 40979  51.6422  81.7190 0007039 128.4606 231.7019 15.58107004  4988 | 2015/11/08-20:05:46  267.2522    0.0992  231.6386   92.4198     6771.2730     6766.5067     6776.0393   7.437926  51.103758  -0.000608  -0.000354
1 40979U 98067HM  15314.44066934  .00071404  00000-0  92044-3 0  9997 | 2 40979  51.6423  73.6788 0006811 130.5534 229.6053 15.58331253  5231 | 2015/11/10-10:34:33  134.0754    0.0993  229.5459   92.4065     6770.6233     6766.0119     6775.2348  14.512613  49.561186  -0.000621  -0.000280
1 40979U 98067HM  15315.53079571  .00072214  00000-0  92505-3 0  9991 | 2 40979  51.6429  68.2095 0006946 135.4317 224.7235 15.58492514  5405 | 2015/11/11-12:44:20  173.0681    0.0992  224.6675   92.3970     6770.1563     6765.4537     6774.8588  19.170561  47.952880  -0.000636  -0.000279
1 40979U 98067HM  15316.55671366  .00069113  00000-0  88073-3 0  9993 | 2 40979  51.6428  63.0536 0006813 139.2107 220.9914 15.58625798  5560 | 2015/11/12-13:21:40  188.5188    0.1509  220.9402   92.3891     6769.7703     6765.1581     6774.3826  23.402284  46.035985  -0.000631  -0.000258
1 40979U 98067HM  15317.90308549 +.00065620 +00000-0 +83267-3 0  9992 | 2 40979 051.6432 056.3053 0006885 141.5167 218.6317 15.58784121005775 | 2015/11/13-21:40:26  321.3417    0.0992  218.5825   92.3797     6769.3119     6764.6512     6773.9726  28.649967  42.967423  -0.000655  -0.000211
1 40979U 98067HM  15319.18520347  .00063786  00000-0  80412-3 0  9996 | 2 40979  51.6433  49.8695 0006784 144.5977 215.5467 15.58969834  5975 | 2015/11/15-04:26:41   70.6077    0.0992  215.5015   92.3687     6768.7743     6764.1824     6773.3662  33.285694  39.485352  -0.000657  -0.000169
1 40979U 98067HM  15320.53128520  .00052054  00000-0  65500-3 0  9991 | 2 40979  51.6429  43.1097 0006859 150.1997 209.9388 15.59104691  6187 | 2015/11/16-12:45:03  203.2896    0.0993  209.8996   92.3607     6768.3840     6763.7415     6773.0264  37.701723  35.292622  -0.000667  -0.000158
1 40979U 98067HM  15321.74908181 +.00034934 +00000-0 +44103-3 0  9997 | 2 40979 051.6430 036.9931 0006779 154.2143 205.9189 15.59200766006371 | 2015/11/17-17:58:40  289.0186    0.0993  205.8850   92.3550     6768.1059     6763.5178     6772.6940  41.247676  31.074566  -0.000665  -0.000132
1 40979U 98067HM  15323.22316534  .00034258  00000-0  43101-3 0  9993 | 2 40979  51.6431  29.5884 0006673 158.8740 201.2530 15.59302616  6605 | 2015/11/19-05:21:21  108.5525    0.0993  201.2253   92.3490     6767.8112     6763.2951     6772.3274  44.908577  25.499598  -0.000660  -0.000098
1 40979U 98067HM  15324.44080914  .00033025  00000-0  41438-3 0  9990 | 2 40979  51.6435  23.4713 0006578 162.9127 197.2089 15.59392802  6791 | 2015/11/20-10:34:45  194.2269    0.0993  197.1866   92.3436     6767.5503     6763.0986     6772.0020  47.370501  20.569072  -0.000654  -0.000073
1 40979U 98067HM  15325.53022470  .00033819  00000-0  42297-3 0  9999 | 2 40979  51.6436  17.9978 0006505 166.1229 193.9944 15.59466699  6960 | 2015/11/21-12:43:31  232.9681    0.0993  193.9764   92.3393     6767.3365     6762.9343     6771.7386  49.116595  15.956864  -0.000649  -0.000047
1 40979U 98067HM  15326.55551091  .00034319  00000-0  42800-3 0  9994 | 2 40979  51.6435  12.8460 0006484 169.5367 190.5762 15.59535065  7129 | 2015/11/22-13:19:56  248.2379    0.0993  190.5626   92.3352     6767.1387     6762.7509     6771.5265  50.350924  11.481968  -0.000648  -0.000027
1 40979U 98067HM  15327.58075037  .00034568  00000-0  42987-3 0  9991 | 2 40979  51.6436   7.6938 0006437 172.6654 187.4434 15.59606990  7288 | 2015/11/23-13:56:16  263.4909    0.0993  187.4339   92.3310     6766.9307     6762.5748     6771.2865  51.178688   6.913991  -0.000644  -0.000004
1 40979U 98067HM  15329.11852669  .00026733  00000-0  33304-3 0  9994 | 2 40979  51.6430 359.9648 0006427 177.4193 182.6835 15.59699600  7522 | 2015/11/25-02:50:40  106.3411    0.0994  182.6801   92.3255     6766.6628     6762.3139     6771.0117  51.642990  -0.031727  -0.000642   0.000029
1 40979U 98067HM  15330.14366111  .00026514  00000-0  32962-3 0  9997 | 2 40979  51.6430 354.8119 0006401 180.7475 179.3509 15.59759691  7686 | 2015/11/26-03:26:52  121.5572    0.0992  179.3517   92.3219     6766.4890     6762.1578     6770.8202  51.431429  -4.669856  -0.000638   0.000050
1 40979U 98067HM  15331.42502500  .00031442  00000-0  38835-3 0  9994 | 2 40979  51.6428 348.3703 0006336 184.6560 175.4375 15.59835993  7885 | 2015/11/27-10:12:02  230.5577    0.0993  175.4433   92.3174     6766.2683     6761.9812     6770.5554  50.582619 -10.410448  -0.000629   0.000077
1 40979U 98067HM  15332.45007034  .00031328  00000-0  38606-3 0  9999 | 2 40979  51.6429 343.2163 0006301 188.2364 171.8527 15.59897742  8042 | 2015/11/28-10:48:06  245.7427    0.0993  171.8629   92.3137     6766.0898     6761.8264     6770.3531  49.442999 -14.912375  -0.000623   0.000094
1 40979U 98067HM  15333.47507417  .00029615  00000-0  36451-3 0  9994 | 2 40979  51.6429 338.0622 0006235 191.9391 168.1455 15.59960520  8203 | 2015/11/29-11:24:06  260.9130    0.0993  168.1602   92.3100     6765.9082     6761.6897     6770.1268  47.903437 -19.293779  -0.000614   0.000108
1 40979U 98067HM  15335.14061638  .00030114  00000-0  36907-3 0  9992 | 2 40979  51.6430 329.6857 0006218 197.7382 162.3395 15.60064296  8460 | 2015/12/01-03:22:29  150.5332    0.0993  162.3611   92.3039     6765.6082     6761.4013     6769.8150  44.581832 -26.066448  -0.000607   0.000135
1 40979U 98067HM  15336.50015228  .00049174  00000-0  59400-3 0  9996 | 2 40979  51.6445 322.8434 0006605 200.9252 240.0508 15.60205936  8676 | 2015/12/02-12:00:13  207.2502   80.9104  239.9852   92.2955     6765.1987     6760.7303     6769.6671  41.160029 -31.193050  -0.000634   0.000185
1 40979U 98067HM  15337.51057185  .00025760  00000-0  31458-3 0  9994 | 2 40979  51.6426 317.7652 0006142 204.9861 155.0835 15.60248942  8836 | 2015/12/03-12:15:13  297.9817    0.0992  155.1131   92.2930     6765.0744     6760.9193     6769.2295  38.235999 -34.712628  -0.000587   0.000182
1 40979U 98067HM  15338.91963126 +.00022233 +00000-0 +27176-3 0  9994 | 2 40979 051.6425 310.6766 0006147 209.7742 150.2902 15.60318824009053 | 2015/12/04-22:04:16   93.7258    0.0993  150.3251   92.2888     6764.8724     6760.7140     6769.0308  33.659999 -39.165703  -0.000579   0.000206
1 40979U 98067HM  15340.08603999  .00025348  00000-0  30810-3 0  9993 | 2 40979  51.6445 304.8019 0006346 210.5124 225.9481 15.60380934  9239 | 2015/12/06-02:03:53   84.2612   76.4083  225.8959   92.2852     6764.6929     6760.4000     6768.9858  29.475623 -42.406863  -0.000577   0.000265
1 40979U 98067HM  15341.86561899  .00033054  00000-0  39768-3 0  9996 | 2 40979  51.6424 295.8521 0006083 220.0082 140.0464 15.60500841  9510 | 2015/12/07-20:46:29   92.0194    0.0993  140.0911   92.2781     6764.3464     6760.2316     6768.4611  22.518648 -46.474165  -0.000555   0.000249
1 40979U 98067HM  15342.89022767 +.00028289 +00000-0 +34068-3 0  9998 | 2 40979 051.6425 290.6957 0006081 223.8358 136.2154 15.60560166009678 | 2015/12/08-21:21:55  107.0482    0.0994  136.2636   92.2746     6764.1749     6760.0616     6768.2882  18.250699 -48.310038  -0.000549   0.000261
1 40979U 98067HM  15344.10689992  .00028742  00000-0  34507-3 0  9995 | 2 40979  51.6428 284.5728 0006055 228.4289 131.6186 15.60631619  9861 | 2015/12/10-02:33:56  192.3760    0.0993  131.6704   92.2703     6763.9685     6759.8729     6768.0640  12.993841 -49.981385  -0.000540   0.000275
1 40979U 98067HM  15345.89976847 +.00036530 +00000-0 +43418-3 0  9995 | 2 40979 051.6427 275.5466 0006201 233.2726 126.7699 15.60768629010141 | 2015/12/11-21:35:39  128.6070    0.0994  126.8268   92.2622     6763.5726     6759.3785     6767.7667   4.991541 -51.400905  -0.000531   0.000321
1 40979U 98067HM  15347.18029140  .00034134  00000-0  40471-3 0  9998 | 2 40979  51.6427 269.0998 0006195 238.3306 121.7084 15.60866600 10344 | 2015/12/13-04:19:37  237.3077    0.0994  121.7688   92.2564     6763.2896     6759.0997     6767.4794  -0.811349 -51.636326  -0.000522   0.000333
1 40979U 98067HM  15348.20465438  .00031463  00000-0  37262-3 0  9992 | 2 40979  51.6422 263.9419 0006198 242.0487 117.9880 15.60937897 10501 | 2015/12/14-04:54:42  252.2483    0.0994  118.0507   92.2522     6763.0836     6758.8919     6767.2754  -5.450157 -51.353798  -0.000514   0.000347
1 40979U 98067HM  15349.22897013  .00048146  00000-0  56391-3 0  9993 | 2 40979  51.6418 258.7835 0006239 245.8459 114.1882 15.61023796 10669 | 2015/12/15-05:29:43  267.1725    0.0993  114.2534   92.2472     6762.8355     6758.6162     6767.0549 -10.045200 -50.655399  -0.000509   0.000361
1 40979U 98067HM  15350.76533503  .00033149  00000-0  38910-3 0  9999 | 2 40979  51.6413 251.0449 0006274 251.3133 108.7180 15.61143246 10901 | 2015/12/16-18:22:04  109.5196    0.0994  108.7861   92.2401     6762.4906     6758.2478     6766.7333 -16.774494 -48.840969  -0.000497   0.000383
1 40979U 98067HM  15351.78951804  .00029075  00000-0  34132-3 0  9995 | 2 40979  51.6412 245.8853 0006313 254.8913 105.1382 15.61209882 11060 | 2015/12/17-18:56:54  124.3964    0.0993  105.2080   92.2362     6762.2981     6758.0291     6766.5672 -21.098769 -47.134441  -0.000489   0.000399
1 40979U 98067HM  15352.81365699  .00029077  00000-0  34046-3 0  9997 | 2 40979  51.6414 240.7252 0006310 258.6069 101.4216 15.61277551 11221 | 2015/12/18-19:31:39  139.2569    0.0994  101.4925   92.2322     6762.1027     6757.8358     6766.3696 -25.252585 -45.045989  -0.000479   0.000411
1 40979U 98067HM  15353.83775332  .00029484  00000-0  34428-3 0  9995 | 2 40979  51.6414 235.5653 0006342 262.4560  97.5714 15.61341088 11384 | 2015/12/19-20:06:21  154.1020    0.0994   97.6434   92.2284     6761.9193     6757.6309     6766.2077 -29.201488 -42.592339  -0.000471   0.000424
1 40979U 98067HM  15354.86180035  .00046298  00000-0  53411-3 0  9994 | 2 40979  51.6417 230.4047 0006386 266.4489  93.5774 15.61434183 11549 | 2015/12/20-20:40:59  168.9300    0.0993   93.6504   92.2229     6761.6505     6757.3325     6765.9685 -32.914394 -39.793314  -0.000466   0.000437
1 40979U 98067HM  15355.88576327  .00044618  00000-0  51225-3 0  9995 | 2 40979  51.6413 225.2446 0006376 270.4024  89.6239 15.61575545 11707 | 2015/12/21-21:15:29  183.7260    0.0994   89.6970   92.2146     6761.2424     6756.9315     6765.5534 -36.359692 -36.671469  -0.000456   0.000446
1 40979U 98067HM  15356.90966055 +.00032725 +00000-0 +37680-3 0  9995 | 2 40979 051.6409 220.0834 0006415 274.1674 085.8587 15.61649051011867 | 2015/12/22-21:49:54  198.4996    0.0994   85.9320   92.2102     6761.0303     6756.6931     6765.3675 -39.510865 -33.251678  -0.000448   0.000460
1 40979U 98067HM  15358.18946515  .00032337  00000-0  37112-3 0  9995 | 2 40979  51.6404 213.6309 0006481 278.6282  81.3977 15.61739184 12068 | 2015/12/24-04:32:49  306.9434    0.0993   81.4711   92.2049     6760.7701     6756.3885     6765.1518 -42.996968 -28.600554  -0.000436   0.000480
1 40979U 98067HM  15359.46919668  .00033972  00000-0  38814-3 0  9992 | 2 40979  51.6399 207.1782 0006539 283.8669  76.1598 15.61829622 12265 | 2015/12/25-11:15:38   55.3600    0.0995   76.2326   92.1996     6760.5091     6756.0884     6764.9298 -45.938350 -23.587014  -0.000429   0.000493
1 40979U 98067HM  15360.49293451  .00029416  00000-0  33631-3 0  9992 | 2 40979  51.6398 202.0152 0006581 288.1462  71.8815 15.61888650 12423 | 2015/12/26-11:49:49   70.0767    0.0994   71.9532   92.1961     6760.3388     6755.8898     6764.7878 -47.874455 -19.357311  -0.000424   0.000503
1 40979U 98067HM  15361.77255278  .00029135  00000-0  33225-3 0  9996 | 2 40979  51.6398 195.5621 0006639 293.2164  66.8131 15.61960166 12620 | 2015/12/27-18:32:28  178.4518    0.0995   66.8831   92.1919     6760.1325     6755.6444     6764.6205 -49.746697 -13.854062  -0.000416   0.000518
1 40979U 98067HM  15362.79619988  .00026762  00000-0  30501-3 0  9998 | 2 40979  51.6401 190.3987 0006702 297.5093  62.5219 15.62023443 12788 | 2015/12/28-19:06:31  193.1355    0.0994   62.5901   92.1881     6759.9499     6755.4194     6764.4804 -50.791941  -9.320874  -0.000412   0.000529
1 40979U 98067HM  15363.94776204  .00023960  00000-0  27321-3 0  9994 | 2 40979  51.6403 184.5898 0006773 302.5927  57.4412 15.62078892 12963 | 2015/12/29-22:44:46  254.6391    0.0993   57.5066   92.1848     6759.7899     6755.2115     6764.3683 -51.474697  -4.132333  -0.000409   0.000540
1 40979U 98067HM  15364.97134083  .00022859  00000-0  26050-3 0  9995 | 2 40979  51.6404 179.4261 0006856 306.5714  53.4648 15.62124513 13129 | 2015/12/30-23:18:43  269.2977    0.0994   53.5280   92.1822     6759.6583     6755.0239     6764.2927 -51.637810   0.517245  -0.000403   0.000555
1 40979U 98067HM  16001.05884679  .00062672  00000-0  69743-3 0  9999 | 2 40979  51.6405 173.9387 0006955 311.2076  48.8318 15.62232001 13294 | 2016/01/01-01:24:44  307.3560    0.0994   48.8918   92.1758     6759.3482     6754.6471     6764.0494 -51.351803   5.452846  -0.000400   0.000569
1 40979U 98067HM  16002.08230384  .00027683  00000-0  31159-3 0  9994 | 2 40979  51.6404 168.7753 0007052 315.5381  44.5046 15.62324063 13456 | 2016/01/02-01:58:31  321.9694    0.0994   44.5613   92.1704     6759.0827     6754.3162     6763.8492 -50.652588  10.052177  -0.000398   0.000582
1 40979U 98067HM  16003.48948519  .00023560  00000-0  26538-3 0  9990 | 2 40979  51.6403 161.6732 0007137 321.3047  38.7435 15.62403423 13671 | 2016/01/03-11:44:51  117.0382    0.0994   38.7947   92.1657     6758.8538     6754.0300     6763.6776 -49.021027  16.237596  -0.000388   0.000599
1 40979U 98067HM  16004.83264269  .00024627  00000-0  27637-3 0  9999 | 2 40979  51.6400 154.8943 0007286 326.7987  33.2549 15.62470213 13883 | 2016/01/04-19:59:00  248.6723    0.0994   33.3007   92.1618     6758.6612     6753.7368     6763.5856 -46.761393  21.910310  -0.000383   0.000620
1 40979U 98067HM  16005.85596168  .00023906  00000-0  26792-3 0  9998 | 2 40979  51.6400 149.7288 0007404 330.9185  29.1395 15.62522122 14046 | 2016/01/05-20:32:35  263.2369    0.0993   29.1808   92.1587     6758.5115     6753.5075     6763.5155 -44.598837  26.031392  -0.000377   0.000637
1 40979U 98067HM  16007.19901311  .00030295  00000-0  33662-3 0  9990 | 2 40979  51.6404 142.9485 0007540 336.2292  23.8353 15.62601606 14256 | 2016/01/07-04:46:34   34.8330    0.0994   23.8702   92.1540     6758.2823     6753.1866     6763.3781 -41.213906  31.115026  -0.000368   0.000658
1 40979U 98067HM  16008.22224356  .00025172  00000-0  28022-3 0  9994 | 2 40979  51.6407 137.7825 0007594 340.0934  19.9763 15.62661294 14412 | 2016/01/08-05:20:01   49.3653    0.0995   20.0061   92.1505     6758.1102     6752.9781     6763.2423 -38.245071  34.699804  -0.000355   0.000671
1 40979U 98067HM  16009.50122177  .00026966  00000-0  29873-3 0  9991 | 2 40979  51.6411 131.3244 0007804 345.2000  14.8765 15.62743651 14613 | 2016/01/09-12:01:45  157.5094    0.0995   14.8995   92.1456     6757.8728     6752.5989     6763.1466 -34.099731  38.781588  -0.000349   0.000698
1 40979U 98067HM  16010.52434145  .00031816  00000-0  34991-3 0  9993 | 2 40979  51.6413 126.1579 0007878 349.4481  10.6346 15.62836669 14776 | 2016/01/10-12:35:03  172.0012    0.0994   10.6513   92.1401     6757.6046     6752.2810     6762.9283 -30.469016  41.694879  -0.000340   0.000710
1 40979U 98067HM  16011.73923858 +.00030959 +00000-0 +33963-3 0  9996 | 2 40979 051.6415 120.0224 0008025 354.1918 005.8982 15.62914632014961 | 2016/01/11-17:44:30  256.6898    0.0995    5.9077   92.1356     6757.3799     6751.9571     6762.8027 -25.838233  44.712753  -0.000329   0.000732
1 40979U 98067HM  16012.76225463  .00041721  00000-0  45345-3 0  9993 | 2 40979  51.6414 114.8555 0008127 357.9189   2.1770 15.63004046 15126 | 2016/01/12-18:17:38  271.1449    0.0994    2.1805   92.1303     6757.1222     6751.6307     6762.6137 -21.706492  46.857896  -0.000315   0.000749
1 40979U 98067HM  16013.84913618  .00049040  00000-0  52904-3 0  9990 | 2 40979  51.6413 109.3646 0008243   2.2883 357.8148 15.63121311 15297 | 2016/01/13-20:22:45  308.9773    0.0995  357.8112   92.1234     6756.7843     6751.2146     6762.3539 -17.123135  48.719833  -0.000304   0.000766
1 40979U 98067HM  16015.06380177  .00045437  00000-0  48875-3 0  9992 | 2 40979  51.6411 103.2272 0008382   7.1969 352.9144 15.63227783 15489 | 2016/01/15-01:31:52   33.5833    0.0994  352.9025   92.1171     6756.4774     6750.8142     6762.1407 -11.816157  50.271082  -0.000293   0.000786
1 40979U 98067HM  16016.09907451  .00044183  00000-0  47371-3 0  9993 | 2 40979  51.6447  97.9920 0008379  13.6808  56.6447 15.63324393 15644 | 2016/01/16-02:22:40  342.3229   70.4057   56.7249   92.1114     6756.1991     6750.5381     6761.8601  -7.180412  51.143100  -0.000309   0.000779
1 40979U 98067HM  16017.42898968  .00029638  00000-0  31949-3 0  9995 | 2 40979  51.6412  91.2741 0008564  16.3561 343.7709 15.63382842 15853 | 2016/01/17-10:17:44  179.3196    0.0995  343.7434   92.1080     6756.0307     6750.2448     6761.8166  -1.148263  51.628432  -0.000259   0.000816
1 40979U 98067HM  16018.45170962  .00032158  00000-0  34519-3 0  9993 | 2 40979  51.6414  86.1049 0008659  20.3123 339.8214 15.63445748 16014 | 2016/01/18-10:50:27  193.6693    0.0994  339.7871   92.1043     6755.8495     6749.9996     6761.6994   3.507999  51.522113  -0.000245   0.000831
1 40979U 98067HM  16019.60221650  .00035428  00000-0  37837-3 0  9991 | 2 40979  51.6416  80.2883 0008751  24.5417 335.5993 15.63524025 16194 | 2016/01/19-14:27:11  254.7951    0.0995  335.5578   92.0996     6755.6240     6749.7121     6761.5358   8.711456  50.901526  -0.000224   0.000846
1 40979U 98067HM  16021.13613190  .00048040  00000-0  50771-3 0  9992 | 2 40979  51.6416  72.5330 0008765  30.3241 329.8259 15.63649973 16438 | 2016/01/21-03:16:01   96.2628    0.0995  329.7754   92.0922     6755.2612     6749.3402     6761.1822  15.500559  49.260405  -0.000195   0.000855
1 40979U 98067HM  16022.15866029  .00042007  00000-0  44321-3 0  9997 | 2 40979  51.6414  67.3626 0008873  34.3827 325.7740 15.63751574 16598 | 2016/01/22-03:48:28  110.5446    0.0995  325.7168   92.0862     6754.9686     6748.9749     6760.9623  19.876665  47.662904  -0.000181   0.000869
1 40979U 98067HM  16023.50063417  .00036335  00000-0  38273-3 0  9993 | 2 40979  51.6412  60.5756 0008939  39.3925 320.7718 15.63862377 16800 | 2016/01/23-12:00:54  241.7573    0.0995  320.7070   92.0797     6754.6495     6748.6115     6760.6875  25.370016  44.979727  -0.000155   0.000880
1 40979U 98067HM  16024.90643417 +.00029541 +00000-0 +31151-3 0  9991 | 2 40979 051.6408 053.4639 0008967 044.9550 315.2169 15.63942344017020 | 2016/01/24-21:45:15   36.3350    0.0995  315.1445   92.0750     6754.4193     6748.3626     6760.4760  30.743274  41.492449  -0.000131   0.000887
1 40979U 98067HM  16026.05657949  .00024388  00000-0  25768-3 0  9995 | 2 40979  51.6409  47.6455 0009021  49.2746 310.9031 15.64006540 17209 | 2016/01/26-01:21:28   97.3336    0.0995  310.8249   92.0712     6754.2344     6748.1415     6760.3274  34.791288  38.162139  -0.000109   0.000896
1 40979U 98067HM  16027.20667758  .00029163  00000-0  30602-3 0  9991 | 2 40979  51.6410  41.8269 0009097  53.4974 306.6858 15.64072760 17388 | 2016/01/27-04:57:36  158.3156    0.0995  306.6021   92.0673     6754.0438     6747.8997     6760.1880  38.480962  34.438474  -0.000084   0.000906
1 40979U 98067HM  16028.42061483  .00028489  00000-0  29826-3 0  9995 | 2 40979  51.6412  35.6846 0009142  58.0934 302.0950 15.64145010 17573 | 2016/01/28-10:05:41  242.6666    0.0996  302.0062   92.0631     6753.8358     6747.6615     6760.0102  41.945066  30.123495  -0.000060   0.000912
1 40979U 98067HM  16029.57060773  .00028264  00000-0  29512-3 0  9996 | 2 40979  51.6413  29.8650 0009161  62.4231 297.7694 15.64216562 17758 | 2016/01/29-13:41:40  303.6130    0.0996  297.6765   92.0589     6753.6299     6747.4429     6759.8169  44.783392  25.715203  -0.000037   0.000915
1 40979U 98067HM  16030.84831823  .00029557  00000-0  30739-3 0  9999 | 2 40979  51.6414  23.3983 0009150  67.7088 292.4876 15.64292594 17958 | 2016/01/30-20:21:34   51.3110    0.0995  292.3907   92.0544     6753.4110     6747.2316     6759.5904  47.394742  20.507867  -0.000018   0.000915
1 40979U 98067HM  16031.93432095 +.00034750 +00000-0 +35913-3 0  9998 | 2 40979 051.6415 017.9012 0009187 071.9107 288.2888 15.64365753018124 | 2016/01/31-22:25:25   88.8364    0.0995  288.1888   92.0501     6753.2005     6746.9963     6759.4046  49.141430  15.873386   0.000003   0.000919
1 40979U 98067HM  16032.95638966 +.00035223 +00000-0 +36279-3 0  9998 | 2 40979 051.6414 012.7276 0009176 076.0909 284.1106 15.64444879018284 | 2016/02/01-22:57:12  102.9601    0.0995  284.0086   92.0454     6752.9728     6746.7762     6759.1693  50.372495  11.377432   0.000019   0.000917
1 40979U 98067HM  16034.17003063  .00034514  00000-0  35440-3 0  9999 | 2 40979  51.6413   6.5832 0009149  80.9811 279.2219 15.64532755 18470 | 2016/02/03-04:04:50  187.2100    0.0995  279.1184   92.0403     6752.7199     6746.5418     6758.8979  51.300799   5.920462   0.000039   0.000914
1 40979U 98067HM  16035.31972797  .00037824  00000-0  38624-3 0  9999 | 2 40979  51.6410   0.7615 0009143  85.7431 274.4608 15.64627570 18656 | 2016/02/04-07:40:24  248.0550    0.0994  274.3563   92.0347     6752.4471     6746.2733     6758.6208  51.636439   0.686324   0.000056   0.000913
1 40979U 98067HM  16036.40548365  .00052675  00000-0  53233-3 0  9994 | 2 40979  51.6410 355.2629 0009147  90.0804 270.1239 15.64740463 18825 | 2016/02/05-09:43:53  285.4954    0.0995  270.0191   92.0280     6752.1223     6745.9461     6758.2985  51.464601  -4.264712   0.000074   0.000912
1 40979U 98067HM  16037.87432323  .00045778  00000-0  46112-3 0  9996 | 2 40979  51.6413 347.8225 0009099  96.6983 263.5048 15.64884477 19057 | 2016/02/06-20:59:01  103.1671    0.0995  263.4012   92.0196     6751.7080     6745.5646     6757.8514  50.479309 -10.893265   0.000087   0.000906
1 40979U 98067HM  16038.89604427 +.00050821 +00000-0 +50887-3 0  9994 | 2 40979 051.6416 342.6462 0009053 101.1425 259.0588 15.64990084019218 | 2016/02/07-21:30:18  117.1718    0.0995  258.9570   92.0134     6751.4043     6745.2922     6757.5163  49.290934 -15.403205   0.000098   0.000900
1 40979U 98067HM  16040.17309093  .00045836  00000-0  45717-3 0  9995 | 2 40979  51.6413 336.1761 0008979 107.0401 253.1579 15.65133891 19413 | 2016/02/09-04:09:15  224.6407    0.0996  253.0595   92.0049     6750.9907     6744.9290     6757.0524  47.241010 -20.859311   0.000106   0.000892
1 40979U 98067HM  16041.19463943  .00057873  00000-0  57175-3 0  9998 | 2 40979  51.6412 330.9995 0008966 111.0786 249.1169 15.65273616 19577 | 2016/02/10-04:40:16  238.5841    0.0995  249.0209   91.9967     6750.5890     6744.5364     6756.6415  45.166193 -25.036545   0.000124   0.000888
1 40979U 98067HM  16042.79065212  .00062592  00000-0  61352-3 0  9998 | 2 40979  51.6405 322.9100 0008898 118.2688 241.9207 15.65439341 19822 | 2016/02/11-18:58:32  102.8173    0.0996  241.8308   91.9870     6750.1125     6744.1063     6756.1188  41.193069 -31.142773   0.000136   0.000879
1 40979U 98067HM  16043.81200418  .00059654  00000-0  58225-3 0  9991 | 2 40979  51.6401 317.7309 0008847 122.3391 237.8462 15.65566007 19986 | 2016/02/12-19:29:17  116.6941    0.0995  237.7604   91.9795     6749.7484     6743.7769     6755.7199  38.213361 -34.733830   0.000153   0.000871
1 40979U 98067HM  16044.83327699  .00043194  00000-0  42212-3 0  9996 | 2 40979  51.6398 312.5512 0008795 127.5414 232.6382 15.65674769 20144 | 2016/02/13-19:59:55  130.5443    0.0995  232.5581   91.9731     6749.4358     6743.4997     6755.3720  34.921351 -38.041663   0.000151   0.000866
1 40979U 98067HM  16045.91830490 +.00048372 +00000-0 +46974-3 0  9996 | 2 40979 051.6401 307.0471 0008711 132.1811 227.9926 15.65783643020315 | 2016/02/14-22:02:21  167.7338    0.0996  227.9185   91.9667     6749.1230     6743.2438     6755.0021  31.111680 -41.216056   0.000163   0.000856
1 40979U 98067HM  16046.93943772 +.00047250 +00000-0 +45717-3 0  9995 | 2 40979 051.6401 301.8666 0008671 136.2222 223.9463 15.65885606020470 | 2016/02/15-22:32:47  181.5338    0.0996  223.8774   91.9607     6748.8300     6742.9781     6754.6819  27.263047 -43.856883   0.000179   0.000848
1 40979U 98067HM  16048.08812083  .00074688  00000-0  71261-3 0  9991 | 2 40979  51.6405 296.0382 0008648 141.8856 218.2753 15.66043433 20657 | 2016/02/17-02:06:53  242.0279    0.0996  218.2140   91.9515     6748.3765     6742.5405     6754.2125  22.668645 -46.399071   0.000181   0.000846
1 40979U 98067HM  16049.30049492  .00069397  00000-0  65889-3 0  9993 | 2 40979  51.6401 289.8859 0008535 146.9097 213.2434 15.66197165 20844 | 2016/02/18-07:12:42  325.8376    0.0995  213.1898   91.9424     6747.9349     6742.1756     6753.6943  17.565284 -48.560897   0.000195   0.000831
1 40979U 98067HM  16050.83176235  .00042189  00000-0  40155-3 0  9998 | 2 40979  51.6396 282.1129 0008430 153.5672 206.5756 15.66349174 21088 | 2016/02/19-19:57:44  166.3865    0.0996  206.5324   91.9335     6747.4983     6741.8102     6753.1865  10.835987 -50.489897   0.000209   0.000817
1 40979U 98067HM  16051.85253252  .00038507  00000-0  36594-3 0  9997 | 2 40979  51.6391 276.9300 0008337 157.3736 202.7629 15.66431851 21243 | 2016/02/20-20:27:38  180.0591    0.0996  202.7260   91.9287     6747.2609     6741.6357     6752.8861   6.230600 -51.261840   0.000226   0.000803
1 40979U 98067HM  16052.87325191 +.00036625 +00000-0 +34736-3 0  9997 | 2 40979 051.6388 271.7470 0008264 161.5494 198.5803 15.66506710021408 | 2016/02/21-20:57:28  193.7139    0.0996  198.5502   91.9243     6747.0460     6741.4702     6752.6217   1.574270 -51.614798   0.000238   0.000792
1 40979U 98067HM  16054.21287461  .00036583  00000-0  34565-3 0  9997 | 2 40979  51.6384 264.9434 0008199 166.9362 193.1847 15.66601690 21613 | 2016/02/23-05:06:32  324.1109    0.0995  193.1633   91.9187     6746.7732     6741.2416     6752.3049  -4.551398 -51.437429   0.000255   0.000779
1 40979U 98067HM  16055.48863405  .00043308  00000-0  40639-3 0  9997 | 2 40979  51.6382 258.4630 0008162 172.4994 187.6126 15.66693354 21818 | 2016/02/24-11:43:37   71.1311    0.0996  187.6002   91.9133     6746.5101     6741.0036     6752.0166 -10.327676 -50.594889   0.000266   0.000772
1 40979U 98067HM  16056.63676328  .00034530  00000-0  31980-3 0  9997 | 2 40979  51.6395 252.6201 0008353 176.3692 183.7888 15.66765910 21991 | 2016/02/25-15:16:56  131.3861    0.1517  183.7825   91.9091     6746.3018     6740.6666     6751.9370 -15.425029 -49.281908   0.000299   0.000780
1 40979U 98067HM  16057.78479444  .00038497  00000-0  35947-3 0  9997 | 2 40979  51.6383 246.7976 0007844 181.9073 178.1895 15.66873586 22176 | 2016/02/26-18:50:06  191.6926    0.0996  178.1923   91.9028     6745.9927     6740.7012     6751.2843 -20.344479 -47.461734   0.000285   0.000731
1 40979U 98067HM  16058.93277645 +.00039786 +00000-0 +36999-3 0  9994 | 2 40979 051.6386 240.9643 0007761 187.0139 173.0750 15.66959979022359 | 2016/02/27-22:23:11  251.9388    0.0996  173.0857   91.8977     6745.7448     6740.5094     6750.9801 -25.063026 -45.148530   0.000291   0.000719
1 40979U 98067HM  16060.52709944  .00037469  00000-0  34735-3 0  9996 | 2 40979  51.6387 232.8620 0007577 193.9345 166.1443 15.67068227 22603 | 2016/02/29-12:39:01  115.5789    0.0996  166.1651   91.8913     6745.4341     6740.3231     6750.5451 -31.176185 -41.165529   0.000299   0.000696
1 40979U 98067HM  16061.73870773  .00040526  00000-0  37378-3 0  9993 | 2 40979  51.6383 226.7035 0007552 199.3681 160.7030 15.67157438 22792 | 2016/03/01-17:43:44  199.1183    0.0997  160.7316   91.8861     6745.1781     6740.0842     6750.2721 -35.412198 -37.583111   0.000306   0.000690
1 40979U 98067HM  16063.46032617  .00044098  00000-0  40345-3 0  9998 | 2 40979  51.6380 217.9514 0007302 207.4861 152.5750 15.67320699 23067 | 2016/03/03-11:02:52  109.3600    0.0996  152.6135   91.8765     6744.7097     6739.7847     6749.6347 -40.718251 -31.757000   0.000304   0.000664
1 40979U 98067HM  16064.48045695  .00050904  00000-0  46258-3 0  9993 | 2 40979  51.6379 212.7643 0007146 212.5212 147.5345 15.67425811 23228 | 2016/03/04-11:31:51  122.8051    0.0996  147.5784   91.8704     6744.4082     6739.5886     6749.2277 -43.422515 -27.945624   0.000299   0.000649
1 40979U 98067HM  16065.81927965  .00050695  00000-0  45835-3 0  9997 | 2 40979  51.6382 205.9557 0006883 219.7176 140.3317 15.67555357 23437 | 2016/03/05-19:39:45  252.9158    0.0996  140.3820   91.8628     6744.0366     6739.3947     6748.6785 -46.429595 -22.600805   0.000284   0.000627
1 40979U 98067HM  16067.54044558  .00066703  00000-0  59502-3 0  9990 | 2 40979  51.6386 197.2003 0006780 228.2631 131.7787 15.67773212 23704 | 2016/03/07-12:58:14  162.9949    0.0997  131.8366   91.8500     6743.4118     6738.8398     6747.9838 -49.329157 -15.270208   0.000282   0.000617
1 40979U 98067HM  16068.56027344  .00055877  00000-0  49738-3 0  9997 | 2 40979  51.6388 192.0111 0006736 233.2317 126.8062 15.67899336 23861 | 2016/03/08-13:26:47  176.3313    0.0997  126.8680   91.8426     6743.0502     6738.5080     6747.5923 -50.508287 -10.746095   0.000282   0.000612
1 40979U 98067HM  16070.15360746  .00051861  00000-0  45914-3 0  9992 | 2 40979  51.6390 183.9032 0006552 241.5540 118.4797 15.68064955 24114 | 2016/03/10-03:41:11   39.6141    0.0997  118.5457   91.8329     6742.5754     6738.1576     6746.9931 -51.519222  -3.515119   0.000272   0.000596
1 40979U 98067HM  16071.17325115  .00054857  00000-0  48296-3 0  9990 | 2 40979  51.6390 178.7132 0006487 246.8710 113.1603 15.68178584 24270 | 2016/03/11-04:09:28   52.8832    0.0996  113.2286   91.8263     6742.2496     6737.8759     6746.6233 -51.625977   1.159657   0.000268   0.000591
1 40979U 98067HM  16072.51141454  .00058866  00000-0  51425-3 0  9993 | 2 40979  51.6386 171.8999 0006424 254.0594 105.9695 15.68339748 24486 | 2016/03/12-12:16:26  182.7567    0.0997  106.0403   91.8168     6741.7877     6737.4568     6746.1187 -51.123423   7.276032   0.000262   0.000587
1 40979U 98067HM  16073.53088519  .00044072  00000-0  38545-3 0  9990 | 2 40979  51.6384 166.7080 0006439 258.5295 101.4979 15.68436029 24645 | 2016/03/13-12:44:28  195.9644    0.0997  101.5702   91.8112     6741.5118     6737.1710     6745.8527 -50.255058  11.872384   0.000270   0.000585
1 40979U 98067HM  16074.80514003  .00041960  00000-0  36567-3 0  9998 | 2 40979  51.6380 160.2175 0006363 264.8475  95.1796 15.68546377 24847 | 2016/03/14-19:19:24  302.4429    0.0997   95.2522   91.8047     6741.1957     6736.9062     6745.4851 -48.590541  17.476908   0.000268   0.000577
1 40979U 98067HM  16076.20670566  .00063834  00000-0  54865-3 0  9996 | 2 40979  51.6382 153.0778 0006342 271.4011  88.6259 15.68704762 25065 | 2016/03/16-04:57:39   95.5277    0.0997   88.6986   91.7955     6740.7419     6736.4669     6745.0169 -46.041763  23.380755   0.000273   0.000572
1 40979U 98067HM  16077.22593609  .00075454  00000-0  64358-3 0  9990 | 2 40979  51.6381 147.8854 0006354 277.4562  82.5713 15.68822712 25222 | 2016/03/17-05:25:20  108.6472    0.0997   82.6435   91.7886     6740.4040     6736.1212     6744.6869 -43.736773  27.451559   0.000265   0.000577
1 40979U 98067HM  16078.37247522  .00050343  00000-0  43016-3 0  9995 | 2 40979  51.6386 142.0421 0006344 282.6053  77.4235 15.68946843 25400 | 2016/03/18-08:56:21  168.3734    0.0998   77.4945   91.7813     6740.0485     6735.7726     6744.3244 -40.715121  31.761988   0.000272   0.000573
1 40979U 98067HM  16079.51893374  .00049688  00000-0  42280-3 0  9996 | 2 40979  51.6385 136.1985 0006284 287.7548  72.2763 15.69054047 25581 | 2016/03/19-12:27:15  228.0697    0.0997   72.3449   91.7750     6739.7415     6735.5062     6743.9767 -37.269680  35.742211   0.000276   0.000565
1 40979U 98067HM  16081.17479090  .00044027  00000-0  37315-3 0  9991 | 2 40979  51.6384 127.7566 0006283 294.4849  65.5493 15.69203818 25845 | 2016/03/21-04:11:41  114.2492    0.0998   65.6149   91.7663     6739.3126     6735.0783     6743.5469 -31.618624  40.826303   0.000293   0.000556
1 40979U 98067HM  16082.32106812  .00039587  00000-0  33498-3 0  9991 | 2 40979  51.6379 121.9118 0006288 299.1145  60.9222 15.69291867 26025 | 2016/03/22-07:42:20  173.8811    0.0997   60.9852   91.7611     6739.0606     6734.8230     6743.2981 -27.296474  43.833494   0.000305   0.000550
1 40979U 98067HM  16083.46728415  .00039479  00000-0  33294-3 0  9990 | 2 40979  51.6375 116.0665 0006297 304.1807  55.8593 15.69375304 26208 | 2016/03/23-11:12:53  233.4907    0.0997   55.9190   91.7563     6738.8217     6734.5783     6743.0651 -22.690242  46.385174   0.000312   0.000547
1 40979U 98067HM  16084.86808144 +.00045771 +00000-0 +38223-3 0  9992 | 2 40979 051.6372 108.9215 0006218 310.3173 049.7280 15.69546355026429 | 2016/03/24-20:50:02   26.2981    0.0997   49.7824   91.7463     6738.3321     6734.1422     6742.5220 -16.744519  48.846919   0.000318   0.000534
1 40979U 98067HM  16086.14144742  .00031882  00000-0  26727-3 0  9996 | 2 40979  51.6372 102.4242 0006262 315.3933  44.6560 15.69628722 26622 | 2016/03/26-03:23:41  132.4582    0.0998   44.7065   91.7414     6738.0963     6733.8770     6742.3157 -11.109631  50.427934   0.000334   0.000530
1 40979U 98067HM  16087.41474453  .00033697  00000-0  28115-3 0  9991 | 2 40979  51.6375  95.9274 0006225 320.5397  39.5146 15.69714670 26820 | 2016/03/27-09:57:13  238.5920    0.0997   39.5600   91.7364     6737.8504     6733.6561     6742.0447  -5.332512  51.361422   0.000344   0.000519
1 40979U 98067HM  16088.81527897  .00040469  00000-0  33475-3 0  9997 | 2 40979  51.6379  88.7806 0006148 325.9648  34.0954 15.69833446 27042 | 2016/03/28-19:34:00   31.3057    0.0997   34.1349   91.7295     6737.5105     6733.3683     6741.6527   1.098903  51.626206   0.000355   0.000502
1 40979U 98067HM  16090.21569930  .00041137  00000-0  33834-3 0  9990 | 2 40979  51.6381  81.6329 0006061 331.2610  28.8053 15.69964416 27267 | 2016/03/30-05:10:36  183.9790    0.0998   28.8388   91.7218     6737.1358     6733.0524     6741.2192   7.514116  51.088467   0.000366   0.000483
1 40979U 98067HM  16091.55236013  .00041889  00000-0  34272-3 0  9992 | 2 40979  51.6381  74.8098 0006039 335.9583  24.1132 15.70082973 27470 | 2016/03/31-13:15:23  313.3123    0.0998   24.1415   91.7149     6736.7967     6732.7283     6740.8650  13.530428  49.833933   0.000382   0.000468
1 40979U 98067HM  16092.76163843  .00033280  00000-0  27255-3 0  9995 | 2 40979  51.6379  68.6355 0005987 340.2643  19.8122 15.70172657 27661 | 2016/04/01-18:16:45   36.0137    0.0998   19.8355   91.7097     6736.5401     6732.5070     6740.5733  18.811679  48.089432   0.000394   0.000451
1 40979U 98067HM  16094.47996388  .00053120  00000-0  42843-3 0  9998 | 2 40979  51.6375  59.8604 0005868 346.2490  13.8347 15.70324552 27936 | 2016/04/03-11:31:08  305.0724    0.0998   13.8508   91.7008     6736.1057     6732.1530     6740.0585  25.927631  44.656347   0.000407   0.000423
1 40979U 98067HM  16095.49814533  .00050145  00000-0  40316-3 0  9999 | 2 40979  51.6376  54.6598 0005763 349.7964  10.2915 15.70426155 28092 | 2016/04/04-11:57:19  317.8177    0.0997   10.3033   91.6949     6735.8152     6731.9333     6739.6970  29.868742  42.122440   0.000411   0.000404
1 40979U 98067HM  16096.70714789  .00043879  00000-0  35192-3 0  9998 | 2 40979  51.6381  48.4835 0005646 353.9832   6.1097 15.70544602 28288 | 2016/04/05-16:58:17   40.4216    0.0998    6.1166   91.6879     6735.4765     6731.6736     6739.2793  34.227576  38.664795   0.000416   0.000381
1 40979U 98067HM  16098.10692707  .00047361  00000-0  37707-3 0  9993 | 2 40979  51.6387  41.3313 0005495 358.8209   1.2775 15.70687747 28503 | 2016/04/07-02:33:58  192.8684    0.0998    1.2789   91.6796     6735.0673     6731.3663     6738.7682  38.775679  34.102816   0.000420   0.000354
1 40979U 98067HM  16099.18848082  .00102265  00000-0  79782-3 0  9995 | 2 40979  51.6390  35.8049 0005263   2.3714 357.7307 15.70856077 28678 | 2016/04/08-04:31:24  228.8165    0.0997  357.7283   91.6698     6734.5861     6731.0417     6738.1305  41.879941  30.210211   0.000414   0.000325
1 40979U 98067HM  16100.39714557  .00053389  00000-0  41881-3 0  9991 | 2 40979  51.6394  29.6269 0005096   6.4492 353.6570 15.70993527 28869 | 2016/04/09-09:31:53  311.3011    0.0997  353.6505   91.6617     6734.1933     6730.7615     6737.6250  44.888216  25.527939   0.000412   0.000300
1 40979U 98067HM  16101.60571543  .00052082  00000-0  40674-3 0  9990 | 2 40979  51.6389  23.4490 0005115   9.9879 350.1220 15.71110328 29057 | 2016/04/10-14:32:13   33.7516    0.0998  350.1119   91.6549     6733.8595     6730.4152     6737.3039  47.374283  20.548803   0.000427   0.000282
1 40979U 98067HM  16102.81417526  .00059220  00000-0  45870-3 0  9998 | 2 40979  51.6385  17.2689 0005086  13.0459 347.0669 15.71253324 29248 | 2016/04/11-19:32:24  116.1655    0.0997  347.0538   91.6466     6733.4510     6730.0263     6736.8756  49.310743  15.329229   0.000439   0.000257
1 40979U 98067HM  16104.21330688  .00091611  00000-0  69826-3 0  9994 | 2 40979  51.6382  10.1115 0004663  16.8857 343.2296 15.71461296 29461 | 2016/04/13-05:07:09  268.3868    0.0999  343.2142   91.6345     6732.8569     6729.7173     6735.9964  50.836154   9.065826   0.000415   0.000212
1 40979U 98067HM  16105.73943129  .00062281  00000-0  47418-3 0  9996 | 2 40979  51.6378   2.3032 0004529  20.7212 339.3969 15.71645435 29706 | 2016/04/14-17:44:46  107.1013    0.0998  339.3786   91.6237     6732.3310     6729.2819     6735.3800  51.596085   2.075199   0.000417   0.000177
1 40979U 98067HM  16106.94748035 +.00051293 +00000-0 +38935-3 0  9994 | 2 40979 051.6385 356.1205 0004382 024.4057 335.7148 15.71798139029890 | 2016/04/15-22:44:22  189.3700    0.0998  335.6941   91.6148     6731.8949     6728.9450     6734.8448  51.520173  -3.493774   0.000410   0.000154
1 40979U 98067HM  16108.09185051  .00055674  00000-0  41981-3 0  9997 | 2 40979  51.6386 350.2625 0004194  27.2682 332.8535 15.71922385 30070 | 2016/04/17-02:12:15  248.3280    0.0998  332.8316   91.6076     6731.5402     6728.7170     6734.3634  50.894642  -8.733868   0.000400   0.000126
1 40979U 98067HM  16109.49038849  .00052264  00000-0  39158-3 0  9999 | 2 40979  51.6385 343.1042 0004249  29.7116 330.4123 15.72100448 30293 | 2016/04/18-11:46:09   40.3362    0.0998  330.3882   91.5972     6731.0319     6728.1719     6733.8919  49.409519 -15.007803   0.000414   0.000094
1 40979U 98067HM  16110.88878219  .00048244  00000-0  35990-3 0  9990 | 2 40979  51.6382 335.9422 0004119  32.6900 327.4352 15.72237730 30511 | 2016/04/19-21:19:50  192.2970    0.0998  327.4098   91.5892     6730.6400     6727.8677     6733.4124  47.152631 -21.050726   0.000407   0.000062
1 40979U 98067HM  16111.90573074 +.00040580 +00000-0 +30273-3 0  9999 | 2 40979 051.6379 330.7325 0004026 036.6484 323.4789 15.72315912030676 | 2016/04/20-21:44:15  204.6084    0.0998  323.4514   91.5846     6730.4169     6727.7073     6733.1266  45.046153 -25.245135   0.000399   0.000052
1 40979U 98067HM  16112.92262578 +.00041109 +00000-0 +30553-3 0  9995 | 2 40979 051.6378 325.5234 0004011 038.5156 321.6128 15.72398503030839 | 2016/04/21-22:08:34  216.9009    0.0998  321.5842   91.5798     6730.1812     6727.4818     6732.8807  42.568005 -29.230589   0.000400   0.000028
1 40979U 98067HM  16113.93947139  .00042148  00000-0  31208-3 0  9992 | 2 40979  51.6376 320.3136 0003968  41.0968 319.0328 15.72475698 30992 | 2016/04/22-22:32:50  229.1762    0.0998  319.0030   91.5753     6729.9610     6727.2905     6732.6314  39.737775 -32.975006   0.000397   0.000010
1 40979U 98067HM  16115.01981234  .00041014  00000-0  30273-3 0  9999 | 2 40979  51.6375 314.7775 0003968  43.2195 316.9114 15.72562394 31162 | 2016/04/24-00:28:31  264.6986    0.0998  316.8803   91.5703     6729.7136     6727.0433     6732.3840  36.371158 -36.654745   0.000397  -0.000014
1 40979U 98067HM  16116.10009141  .00042736  00000-0  31393-3 0  9994 | 2 40979  51.6377 309.2406 0004127  45.1889 314.9445 15.72655738 31332 | 2016/04/25-02:24:07  300.1982    0.0999  314.9110   91.5649     6729.4473     6726.6701     6732.2246  32.664887 -39.993215   0.000411  -0.000040
1 40979U 98067HM  16117.75215924 +.00042331 +00000-0 +30921-3 0  9991 | 2 40979 051.6375 300.7736 0003805 048.4676 311.6648 15.72794411031593 | 2016/04/26-18:03:06  185.0390    0.0998  311.6322   91.5568     6729.0518     6726.4914     6731.6122  26.420174 -44.366720   0.000374  -0.000071
1 40979U 98067HM  16118.76874375  .00043310  00000-0  31505-3 0  9991 | 2 40979  51.6380 295.5639 0003747  50.5337 309.5992 15.72882068 31757 | 2016/04/27-18:26:59  197.2206    0.0998  309.5661   91.5517     6728.8018     6726.2805     6731.3230  22.282698 -46.582877   0.000364  -0.000090
1 40979U 98067HM  16119.84879396  .00049456  00000-0  35714-3 0  9992 | 2 40979  51.6370 290.0247 0003679  52.8915 307.2420 15.72995124 31920 | 2016/04/28-20:22:15  232.6418    0.0999  307.2084   91.5451     6728.4793     6726.0039     6730.9548  17.681811 -48.515290   0.000352  -0.000108
1 40979U 98067HM  16121.43695107  .00052077  00000-0  37288-3 0  9997 | 2 40979  51.6361 281.8810 0003678  52.6574 307.4759 15.73172886 32170 | 2016/04/30-10:29:12   94.0877    0.0998  307.4424   91.5348     6727.9725     6725.4979     6730.4470  10.630824 -50.529916   0.000332  -0.000158
1 40979U 98067HM  16122.51680208  .00055141  00000-0  39246-3 0  9994 | 2 40979  51.6359 276.3409 0003576  54.9647 305.1687 15.73289831 32346 | 2016/05/01-12:24:11  129.4384    0.0999  305.1352   91.5280     6727.6391     6725.2333     6730.0449   5.702866 -51.320011   0.000314  -0.000172
1 40979U 98067HM  16123.67740869  .00080929  00000-0  56781-3 0  9997 | 2 40979  51.6359 270.3816 0003797  59.9722  38.4420 15.73468378 32522 | 2016/05/02-16:15:28   96.0792   98.4413   38.4691   91.5176     6727.1301     6724.5758     6729.6844   0.343902 -51.634755   0.000330  -0.000188
1 40979U 98067HM  16125.50174299  .00052373  00000-0  36658-3 0  9992 | 2 40979  51.6358 261.0234 0003616  53.7266 306.4066 15.73702033 32812 | 2016/05/04-12:02:30  142.2769    0.0998  306.3732   91.5040     6726.4642     6724.0319     6728.8965  -8.056789 -51.003372   0.000255  -0.000257
1 40979U 98067HM  16126.51773808  .00074574  00000-0  51499-3 0  9992 | 2 40979  51.6306 255.7969 0004993 107.1197 253.0866 15.73823971 32973 | 2016/05/05-12:25:32  154.1900    0.1516  253.0319   91.4969     6726.1168     6722.7584     6729.4751 -12.668076 -50.052360   0.000499   0.000025
1 40979U 98067HM  16127.53366658  .00053176  00000-0  36884-3 0  9992 | 2 40979  51.6362 250.5911 0003630  59.0209 301.1146 15.73907170 33130 | 2016/05/06-12:48:28  166.2022    0.0999  301.0790   91.4921     6725.8798     6723.4383     6728.3212 -17.159104 -48.701769   0.000231  -0.000280
1 40979U 98067HM  16128.54951183  .00065396  00000-0  44899-3 0  9999 | 2 40979  51.6363 245.3754 0003631  58.8952 301.2403 15.74059737 33293 | 2016/05/07-13:11:17  178.1234    0.0999  301.2047   91.4832     6725.4451     6723.0031     6727.8871 -21.515356 -46.940355   0.000204  -0.000300
1 40979U 98067HM  16129.56526864  .00076410  00000-0  52027-3 0  9997 | 2 40979  51.6363 240.1588 0003662  59.7952 300.3409 15.74190112 33452 | 2016/05/08-13:33:59  190.0130    0.0999  300.3047   91.4756     6725.0738     6722.6111     6727.5365 -25.694110 -44.789733   0.000183  -0.000317
1 40979U 98067HM  16130.89828809 +.00055535 +00000-0 +37678-3 0  9999 | 2 40979 051.6360 233.3108 0003636 062.3207 297.8161 15.74402346033668 | 2016/05/09-21:33:32  318.0612    0.0999  297.7792   91.4633     6724.4694     6722.0244     6726.9144 -30.851168 -41.406303   0.000157  -0.000328
1 40979U 98067HM  16132.29461278  .00051465  00000-0  34350-3 0  9990 | 2 40979  51.6371 226.1347 0003165  65.5578 294.6273 15.74622910 33882 | 2016/05/11-07:04:14  109.2422    0.1521  294.5943   91.4505     6723.8414     6721.7134     6725.9695 -35.782719 -37.228848   0.000117  -0.000294
1 40979U 98067HM  16133.43701547  .00042409  00000-0  28619-3 0  9992 | 2 40979  51.6356 220.2629 0003687  66.8994 293.2393 15.74643335 34061 | 2016/05/12-10:29:18  167.5514    0.0999  293.2005   91.4493     6723.7833     6721.3042     6726.2624 -39.402454 -33.371872   0.000109  -0.000352
1 40979U 98067HM  16134.45240361  .00046191  00000-0  30996-3 0  9990 | 2 40979  51.6356 215.0432 0003701  68.9091 291.2304 15.74735138 34224 | 2016/05/13-10:51:27  179.3108    0.1000  291.1909   91.4439     6723.5220     6721.0336     6726.0104 -42.275065 -29.648847   0.000089  -0.000359
1 40979U 98067HM  16135.46769317  .00072798  00000-0  48055-3 0  9996 | 2 40979  51.6358 209.8233 0003723  70.4822 289.6579 15.74925820 34381 | 2016/05/14-11:13:28  191.0351    0.0999  289.6177   91.4329     6722.9793     6720.4763     6725.4822 -44.797324 -25.679868   0.000067  -0.000366
1 40979U 98067HM  16137.18080187  .00063748  00000-0  41806-3 0  9990 | 2 40979  51.6360 201.0133 0003811  74.0734 286.0686 15.75129887 34657 | 2016/05/16-04:20:21   98.2508    0.1000  286.0266   91.4210     6722.3986     6719.8367     6724.9605 -48.202062 -18.515877   0.000034  -0.000380
1 40979U 98067HM  16138.38618138  .00058645  00000-0  38276-3 0  9993 | 2 40979  51.6361 194.8120 0003798  78.0249 282.1176 15.75273658 34840 | 2016/05/17-09:16:06  179.5763    0.0999  282.0750   91.4127     6721.9896     6719.4366     6724.5426 -49.920226 -13.200678   0.000019  -0.000379
1 40979U 98067HM  16139.40115626  .00051497  00000-0  33525-3 0  9991 | 2 40979  51.6361 189.5894 0003821  80.6982 279.4449 15.75386185 35000 | 2016/05/18-09:37:39  191.1897    0.0999  279.4017   91.4062     6721.6695     6719.1011     6724.2378 -50.914582  -8.601868   0.000002  -0.000382
1 40979U 98067HM  16140.54291766 +.00048972 +00000-0 +31747-3 0  9996 | 2 40979 051.6358 183.7141 0003828 083.6173 276.5262 15.75504816035182 | 2016/05/19-13:01:48  249.2241    0.0999  276.4826   91.3993     6721.3321     6718.7591     6723.9050 -51.527350  -3.344858  -0.000018  -0.000382
1 40979U 98067HM  16142.12856927  .00044802  00000-0  28915-3 0  9999 | 2 40979  51.6355 175.5518 0003843  87.9237 272.2203 15.75645534 35430 | 2016/05/21-03:05:08  109.7834    0.1000  272.1763   91.3911     6720.9319     6718.3490     6723.5147 -51.479967   4.004734  -0.000044  -0.000382
1 40979U 98067HM  16143.14331015  .00048310  00000-0  31003-3 0  9998 | 2 40979  51.6354 170.3281 0003830  90.7051 269.4387 15.75742159 35590 | 2016/05/22-03:26:21  121.3142    0.0999  269.3948   91.3855     6720.6571     6718.0831     6723.2311 -50.901454   8.675054  -0.000060  -0.000378
1 40979U 98067HM  16144.41165011  .00042039  00000-0  26920-3 0  9994 | 2 40979  51.6355 163.7971 0003846  94.7410 265.4029 15.75854265 35796 | 2016/05/23-09:52:46  225.6976    0.1000  265.3590   91.3790     6720.3384     6717.7537     6722.9230 -49.584515  14.408355  -0.000076  -0.000377
1 40979U 98067HM  16145.42625926  .00037883  00000-0  24225-3 0  9999 | 2 40979  51.6355 158.5720 0003833  99.0730 261.0704 15.75935477 35954 | 2016/05/24-10:13:48  237.1825    0.1000  261.0270   91.3743     6720.1075     6717.5317     6722.6833 -48.066320  18.864087  -0.000082  -0.000374
1 40979U 98067HM  16146.44081892  .00035516  00000-0  22669-3 0  9991 | 2 40979  51.6358 153.3466 0003830 102.0305 258.1124 15.76010571 36119 | 2016/05/25-10:34:46  248.6499    0.1000  258.0695   91.3699     6719.8940     6717.3203     6722.4677 -46.148801  23.163420  -0.000097  -0.000371
1 40979U 98067HM  16147.45533251  .00030995  00000-0  19788-3 0  9998 | 2 40979  51.6361 148.1212 0003843 106.5469 253.5953 15.76077585 36272 | 2016/05/26-10:55:40  260.1008    0.1000  253.5531   91.3661     6719.7035     6717.1212     6722.2859 -43.847680  27.270272  -0.000102  -0.000371
1 40979U 98067HM  16148.46980232  .00036475  00000-0  23126-3 0  9995 | 2 40979  51.6364 142.8952 0003846 111.3610 248.7800 15.76149635 36433 | 2016/05/27-11:16:30  271.5371    0.0999  248.7389   91.3619     6719.4988     6716.9144     6722.0831 -41.181753  31.150939  -0.000104  -0.000370
1 40979U 98067HM  16149.80121302  .00044253  00000-0  27798-3 0  9991 | 2 40979  51.6368 136.0361 0003885 115.9590 244.1811 15.76269778 36642 | 2016/05/28-19:13:44   39.0172    0.1000  244.1410   91.3549     6719.1573     6716.5469     6721.7677 -37.166998  35.846525  -0.000120  -0.000369
1 40979U 98067HM  16150.94233315 +.00043766 +00000-0 +27360-3 0  9999 | 2 40979 051.6367 130.1564 0003905 121.3298 238.8084 15.76384634036821 | 2016/05/29-22:36:57   96.8268    0.0999  238.7701   91.3483     6718.8309     6716.2072     6721.4546 -33.299283  39.465257  -0.000124  -0.000370
1 40979U 98067HM  16151.95658239 +.00061904 +00000-0 +38219-3 0  9996 | 2 40979 051.6366 124.9290 0003890 126.7388 233.3970 15.76521036036989 | 2016/05/30-22:57:28  108.1860    0.1000  233.3612   91.3404     6718.4434     6715.8299     6721.0569 -29.565099  42.334896  -0.000122  -0.000369
1 40979U 98067HM  16153.35102919  .00057806  00000-0  35455-3 0  9996 | 2 40979  51.6364 117.7398 0004030 133.9510 226.1823 15.76697417 37200 | 2016/06/01-08:25:28  258.7530    0.1000  226.1490   91.3301     6717.9423     6715.2350     6720.6496 -24.034522  45.701855  -0.000127  -0.000383
1 40979U 98067HM  16154.36508786  .00049703  00000-0  30428-3 0  9992 | 2 40979  51.6367 112.5113 0004076 139.8086 220.3216 15.76802838 37368 | 2016/06/02-08:45:43  270.0452    0.1000  220.2914   91.3240     6717.6429     6714.9048     6720.3810 -19.769918  47.702192  -0.000124  -0.000388
1 40979U 98067HM  16155.44245605  .00045024  00000-0  27496-3 0  9993 | 2 40979  51.6369 106.9552 0004004 143.9582 216.1688 15.76902238 37532 | 2016/06/03-10:37:08  304.5190    0.0999  216.1417   91.3183     6717.3606     6714.6710     6720.0502 -15.058553  49.392403  -0.000131  -0.000378
1 40979U 98067HM  16156.45638974  .00047107  00000-0  28628-3 0  9992 | 2 40979  51.6375 101.7256 0004097 149.1427 210.9815 15.76992382 37691 | 2016/06/04-10:57:12  315.7669    0.1000  210.9573   91.3131     6717.1046     6714.3526     6719.8566 -10.494020  50.559934  -0.000134  -0.000387
1 40979U 98067HM  16157.85044435  .00049912  00000-0  30115-3 0  9990 | 2 40979  51.6379  94.5348 0004114 156.5843 203.5345 15.77129758 37911 | 2016/06/05-20:24:38  106.1968    0.1000  203.5157   91.3051     6716.7145     6713.9513     6719.4778  -4.082729  51.476247  -0.000133  -0.000389
1 40979U 98067HM  16159.11763520  .00059736  00000-0  35634-3 0  9990 | 2 40979  51.6378  87.9971 0004180 164.0972 196.0160 15.77311976 38117 | 2016/06/07-02:49:23  210.1778    0.1000  196.0028   91.2946     6716.1972     6713.3899     6719.0046   1.804745  51.606252  -0.000129  -0.000398
1 40979U 98067HM  16160.19464454  .00061228  00000-0  36298-3 0  9990 | 2 40979  51.6378  82.4392 0004286 170.2653 189.8432 15.77441298 38287 | 2016/06/08-04:40:17  244.5253    0.1001  189.8348   91.2871     6715.8301     6712.9517     6718.7086   6.794409  51.188850  -0.000127  -0.000409
1 40979U 98067HM  16161.84168073  .00045597  00000-0  26987-3 0  9996 | 2 40979  51.6373  73.9382 0004287 179.0564 181.0445 15.77602678 38543 | 2016/06/09-20:12:01  127.5904    0.1000  181.0436   91.2777     6715.3721     6712.4933     6718.2510  14.286700  49.621578  -0.000125  -0.000410
1 40979U 98067HM  16162.91850114 +.00051385 +00000-0 +30202-3 0  9996 | 2 40979 051.6366 068.3771 0004410 184.1531 175.9434 15.77706196038713 | 2016/06/10-22:02:38  161.8726    0.1001  175.9470   91.2717     6715.0784     6712.1170     6718.0397  19.027888  48.002895  -0.000132  -0.000421
1 40979U 98067HM  16163.93191002 +.00051782 +00000-0 +30287-3 0  9997 | 2 40979 051.6369 063.1442 0004332 189.6037 170.4882 15.77813092038876 | 2016/06/11-22:21:57  172.9361    0.1001  170.4964   91.2656     6714.7751     6711.8663     6717.6839  23.326795  46.067669  -0.000128  -0.000414
1 40979U 98067HM  16165.07189850  .00064880  00000-0  37523-3 0  9995 | 2 40979  51.6369  57.2566 0004445 197.1725 162.9126 15.77972645 39058 | 2016/06/13-01:43:32  230.3500    0.1001  162.9276   91.2563     6714.3225     6711.3379     6717.3070  27.929242  43.431865  -0.000119  -0.000428
1 40979U 98067HM  16166.08512348  .00058070  00000-0  33450-3 0  9998 | 2 40979  51.6371  52.0225 0004482 203.1307 156.9493 15.78107010 39216 | 2016/06/14-02:02:34  241.3489    0.1001  156.9694   91.2486     6713.9413     6710.9321     6716.9505  31.774992  40.703071  -0.000115  -0.000433
1 40979U 98067HM  16167.28822821  .00059846  00000-0  34219-3 0  9997 | 2 40979  51.6372  45.8065 0004565 209.1400 150.9347 15.78259604 39401 | 2016/06/15-06:55:02  321.8737    0.1001  150.9601   91.2397     6713.5086     6710.4439     6716.5733  35.995454  37.023340  -0.000119  -0.000441
1 40979U 98067HM  16169.06101396  .00059697  00000-0  33828-3 0  9991 | 2 40979  51.6371  36.6433 0004879 218.7039 141.3613 15.78459412 39688 | 2016/06/17-01:27:51  250.9966    0.1001  141.3962   91.2282     6712.9420     6709.6668     6716.2173  41.431888  30.818644  -0.000123  -0.000472
1 40979U 98067HM  16170.20055350  .00051404  00000-0  29054-3 0  9991 | 2 40979  51.6371  30.7529 0005000 223.7042 136.3564 15.78577999 39866 | 2016/06/18-04:48:47  308.2491    0.1001  136.3959   91.2213     6712.6058     6709.2495     6715.9621  44.375918  26.403938  -0.000134  -0.000482
1 40979U 98067HM  16171.21340270  .00053452  00000-0  30043-3 0  9996 | 2 40979  51.6368  25.5161 0005160 228.3760 131.6800 15.78684736 40020 | 2016/06/19-05:07:17  319.1145    0.1001  131.7241   91.2152     6712.3032     6708.8397     6715.7668  46.600367  22.243311  -0.000143  -0.000496
1 40979U 98067HM  16172.47936566  .00048691  00000-0  27244-3 0  9992 | 2 40979  51.6366  18.9694 0005027 235.5507 124.5019 15.78825900 40221 | 2016/06/20-11:30:17   62.6590    0.1001  124.5494   91.2070     6711.9031     6708.5291     6715.2772  48.832336  16.785155  -0.000134  -0.000484
1 40979U 98067HM  16173.55535288  .00046847  00000-0  26118-3 0  9998 | 2 40979  51.6364  13.4031 0005171 240.7659 119.2825 15.78921813 40394 | 2016/06/21-13:19:42   96.6455    0.1001  119.3342   91.2015     6711.6313     6708.1607     6715.1019  50.229997  11.969345  -0.000141  -0.000497
1 40979U 98067HM  16174.63128217  .00036823  00000-0  20562-3 0  9998 | 2 40979  51.6366   7.8361 0005238 245.3097 114.7359 15.78999061 40561 | 2016/06/22-15:09:02  130.6103    0.1001  114.7904   91.1970     6711.4124     6707.8970     6714.9279  51.154424   7.040123  -0.000152  -0.000501
1 40979U 98067HM  16175.64386715  .00037962  00000-0  21102-3 0  9995 | 2 40979  51.6368   2.5976 0005291 251.4533 108.5894 15.79084475 40727 | 2016/06/23-15:27:10  141.3804    0.1002  108.6469   91.1921     6711.1704     6707.6195     6714.7213  51.583742   2.340239  -0.000145  -0.000509
1 40979U 98067HM  16176.71967522  .00048099  00000-0  26480-3 0  9992 | 2 40979  51.6370 357.0309 0005377 256.5367 103.5035 15.79188231 40899 | 2016/06/24-17:16:19  175.3008    0.1001  103.5634   91.1861     6710.8764     6707.2680     6714.4849  51.567683  -2.674661  -0.000152  -0.000516
1 40979U 98067HM  16177.85868548  .00037362  00000-0  20579-3 0  9990 | 2 40979  51.6367 351.1362 0005568 262.1103  97.9266 15.79293414 41075 | 2016/06/25-20:36:30  232.3652    0.1001   97.9898   91.1800     6710.5785     6706.8420     6714.3149  51.020024  -7.956500  -0.000161  -0.000533
1 40979U 98067HM  16178.87108302  .00044634  00000-0  24394-3 0  9997 | 2 40979  51.6365 345.8962 0005631 266.5658  93.4699 15.79380694 41239 | 2016/06/26-20:54:21  243.0674    0.1001   93.5343   91.1750     6710.3312     6706.5526     6714.1098  50.079962 -12.582748  -0.000170  -0.000537
1 40979U 98067HM  16179.88342127 +.00039772 +00000-0 +21701-3 0  9990 | 2 40979 051.6363 340.6559 0005724 271.8347 088.1999 15.79470569041391 | 2016/06/27-21:12:07  253.7483    0.1002   88.2655   91.1698     6710.0767     6706.2358     6713.9175  48.721239 -17.104046  -0.000172  -0.000546
1 40979U 98067HM  16180.95896671  .00044341  00000-0  24027-3 0  9990 | 2 40979  51.6360 335.0873 0005904 276.3661  83.6668 15.79571298 41567 | 2016/06/28-23:00:54  287.5751    0.1001   83.7340   91.1640     6709.7914     6705.8299     6713.7529  46.831305 -21.750986  -0.000188  -0.000560
1 40979U 98067HM  16181.97118499  .00044512  00000-0  24019-3 0  9999 | 2 40979  51.6357 329.8455 0006002 280.8146  79.2180 15.79660915 41721 | 2016/06/29-23:18:30  298.2135    0.1002   79.2856   91.1588     6709.5376     6705.5106     6713.5647  44.648047 -25.938339  -0.000199  -0.000566
1 40979U 98067HM  16183.42614953  .00042851  00000-0  23012-3 0  9993 | 2 40979  51.6356 322.3102 0006161 288.9521  71.0813 15.79782908 41954 | 2016/07/01-10:13:39  110.9693    0.1002   71.1481   91.1518     6709.1922     6705.0587     6713.3257  40.860923 -31.569292  -0.000198  -0.000583
1 40979U 98067HM  16184.43823499  .00035897  00000-0  19282-3 0  9998 | 2 40979  51.6360 317.0675 0006290 294.1832  65.8511 15.79862937 42118 | 2016/07/02-10:31:03  121.5594    0.1001   65.9169   91.1471     6708.9656     6704.7457     6713.1856  37.805641 -35.171153  -0.000202  -0.000596
1 40979U 98067HM  16185.45026423  .00048371  00000-0  25703-3 0  9999 | 2 40979  51.6363 311.8246 0006395 298.9230  61.1130 15.79959537 42273 | 2016/07/03-10:48:22  132.1287    0.1002   61.1772   91.1416     6708.6922     6704.4020     6712.9824  34.433795 -38.478842  -0.000211  -0.000604
1 40979U 98067HM  16186.77846267  .00044614  00000-0  23614-3 0  9996 | 2 40979  51.6366 304.9432 0006578 305.2660  54.7726 15.80079743 42484 | 2016/07/04-18:40:59  258.4680    0.1002   54.8342   91.1346     6708.3519     6703.9392     6712.7647  29.575590 -42.327567  -0.000223  -0.000619
1 40979U 98067HM  16187.85359812  .00041139  00000-0  21722-3 0  9998 | 2 40979  51.6364 299.3721 0006690 309.7936  50.2476 15.80169412 42655 | 2016/07/05-20:29:10  292.1450    0.1002   50.3066   91.1295     6708.0981     6703.6104     6712.5859  25.326594 -44.998683  -0.000238  -0.000625
1 40979U 98067HM  16189.11838677  .00037738  00000-0  19872-3 0  9993 | 2 40979  51.6362 292.8179 0006832 315.3760  44.6691 15.80269922 42859 | 2016/07/07-02:50:28   35.2658    0.1002   44.7242   91.1237     6707.8137     6703.2309     6712.3965  20.024703 -47.595256  -0.000254  -0.000634
1 40979U 98067HM  16190.44630423  .00069522  00000-0  35881-3 0  9994 | 2 40979  51.6357 285.9340 0006902 319.9855  40.0637 15.80444181 43065 | 2016/07/08-10:42:40  161.5048    0.1001   40.1146   91.1136     6707.3206     6702.6912     6711.9500  14.175542 -49.651783  -0.000282  -0.000630
1 40979U 98067HM  16191.45793737  .00060655  00000-0  31156-3 0  9993 | 2 40979  51.6350 280.6891 0007225 324.8872  35.1653 15.80599206 43224 | 2016/07/09-10:59:25  171.9314    0.1002   35.2130   91.1047     6706.8820     6702.0363     6711.7278   9.577243 -50.739035  -0.000299  -0.000658
1 40979U 98067HM  16192.65912931  .00057134  00000-0  29145-3 0  9998 | 2 40979  51.6346 274.4587 0007358 329.5989  30.4585 15.80773031 43413 | 2016/07/10-15:49:08  251.7700    0.1002   30.5013   91.0947     6706.3904     6701.4558     6711.3249   4.014098 -51.478335  -0.000322  -0.000662
1 40979U 98067HM  16194.30267061  .00073039  00000-0  36730-3 0  9999 | 2 40979  51.6346 265.9324 0007546 335.8878  24.1770 15.80983692 43673 | 2016/07/12-07:15:50  133.5837    0.1002   24.2124   91.0825     6705.7946     6700.7344     6710.8548  -3.662617 -51.504535  -0.000356  -0.000665
1 40979U 98067HM  16195.56677928  .00061085  00000-0  30574-3 0  9993 | 2 40979  51.6352 259.3717 0007674 341.2719  18.8000 15.81155372 43875 | 2016/07/13-13:36:09  236.4624    0.1003   18.8284   91.0726     6705.3092     6700.1635     6710.4549  -9.523432 -50.749366  -0.000376  -0.000669
1 40979U 98067HM  16196.57797530  .00070335  00000-0  34913-3 0  9996 | 2 40979  51.6351 254.1236 0007757 345.4815  14.5963 15.81278224 44030 | 2016/07/14-13:52:17  246.7318    0.1002   14.6187   91.0656     6704.9619     6699.7609     6710.1629 -14.125456 -49.665431  -0.000392  -0.000669
1 40979U 98067HM  16198.15780123  .00073368  00000-0  36050-3 0  9995 | 2 40979  51.6346 245.9225 0007888 351.9314   8.1560 15.81480454 44280 | 2016/07/16-03:47:14  105.2178    0.1002    8.1688   91.0539     6704.3903     6699.1019     6709.6787 -21.065469 -47.142104  -0.000420  -0.000668
1 40979U 98067HM  16199.16878579  .00058736  00000-0  28814-3 0  9991 | 2 40979  51.6343 240.6728 0007967 355.9573   4.1363 15.81602422 44442 | 2016/07/17-04:03:03  115.4122    0.1002    4.1429   91.0469     6704.0456     6698.7045     6709.3867 -25.290294 -45.016685  -0.000438  -0.000665
1 40979U 98067HM  16200.36923660  .00053030  00000-0  25909-3 0  9992 | 2 40979  51.6337 234.4375 0007938   0.3948 359.7060 15.81733146 44631 | 2016/07/18-08:51:42  194.9859    0.1003  359.7055   91.0394     6703.6762     6698.3549     6708.9976 -30.029678 -42.003064  -0.000457  -0.000649
1 40979U 98067HM  16201.44324146  .00045530  00000-0  22201-3 0  9994 | 2 40979  51.6332 228.8581 0007936   4.3031 355.8038 15.81841950 44801 | 2016/07/19-10:38:16  228.2595    0.1002  355.7971   91.0331     6703.3688     6698.0490     6708.6886 -33.970832 -38.884057  -0.000476  -0.000635
1 40979U 98067HM  16202.45400040  .00070858  00000-0  34065-3 0  9996 | 2 40979  51.6329 223.6056 0007882   8.3732 351.7400 15.81964390 44968 | 2016/07/20-10:53:45  238.3752    0.1002  351.7270   91.0261     6703.0229     6697.7396     6708.3063 -37.387613 -35.610711  -0.000485  -0.000621
1 40979U 98067HM  16203.90681702 +.00057236 +00000-0 +27397-3 0  9998 | 2 40979 051.6332 216.0559 0007954 013.8879 346.2341 15.82142051045191 | 2016/07/21-21:45:48   50.3620    0.1003  346.2124   91.0158     6702.5211     6697.1900     6707.8523 -41.742507 -30.389974  -0.000512  -0.000609
1 40979U 98067HM  16205.04370319  .00051958  00000-0  24784-3 0  9996 | 2 40979  51.6333 210.1458 0007876  18.2551 341.8733 15.82258285 45377 | 2016/07/23-01:02:55  106.6653    0.1003  341.8452   91.0092     6702.1929     6696.9142     6707.4715 -44.649909 -25.930354  -0.000523  -0.000589
1 40979U 98067HM  16206.18049799  .00048940  00000-0  23235-3 0  9994 | 2 40979  51.6339 204.2350 0007716  22.6241 337.5100 15.82386673 45559 | 2016/07/24-04:19:55  162.9370    0.1002  337.4761   91.0018     6701.8304     6696.6592     6707.0015 -47.083381 -21.194690  -0.000528  -0.000563
1 40979U 98067HM  16207.19091187  .00065768  00000-0  30897-3 0  9993 | 2 40979  51.6338 198.9813 0007686  26.4735 333.6659 15.82490755 45718 | 2016/07/25-04:34:54  172.9303    0.1003  333.6268   90.9958     6701.5365     6696.3857     6706.6873 -48.826201 -16.794386  -0.000539  -0.000548
1 40979U 98067HM  16208.39068067  .00043181  00000-0  20323-3 0  9995 | 2 40979  51.6336 192.7412 0007516  31.3979 328.7471 15.82631842 45902 | 2016/07/26-09:22:34  252.2641    0.1003  328.7024   90.9877     6701.1382     6696.1016     6706.1748 -50.362185 -11.387668  -0.000539  -0.000523
1 40979U 98067HM  16210.15859752  .00046376  00000-0  21636-3 0  9998 | 2 40979  51.6334 183.5445 0007510  37.9403 322.2127 15.82787167 46182 | 2016/07/28-03:48:22  179.6454    0.1002  322.1599   90.9788     6700.6998     6695.6676     6705.7320 -51.534630  -3.192170  -0.000563  -0.000497
1 40979U 98067HM  16211.35815343  .00056886  00000-0  26278-3 0  9993 | 2 40979  51.6331 177.3031 0007406  42.9209 317.2371 15.82911997 46371 | 2016/07/29-08:35:44  258.9043    0.1003  317.1794   90.9716     6700.3475     6695.3852     6705.3098 -51.575912   2.429462  -0.000565  -0.000478
1 40979U 98067HM  16212.36821139  .00058438  00000-0  26799-3 0  9998 | 2 40979  51.6331 172.0461 0007124  48.3715 311.7897 15.83059221 46533 | 2016/07/30-08:50:13  268.7745    0.1003  311.7288   90.9631     6699.9321     6695.1590     6704.7051 -51.136375   7.144797  -0.000542  -0.000462
1 40979U 98067HM  16213.88316950 +.00043427 +00000-0 +19912-3 0  9997 | 2 40979 051.6331 164.1612 0007010 053.9539 306.2112 15.83191597046771 | 2016/07/31-21:11:45  103.5337    0.1003  306.1464   90.9555     6699.5586     6694.8622     6704.2550 -49.672766  14.092314  -0.000552  -0.000433
1 40979U 98067HM  16215.08242068  .00046930  00000-0  21374-3 0  9996 | 2 40979  51.6337 157.9171 0006865  58.7062 301.4612 15.83301137 46964 | 2016/08/02-01:58:41  182.6879    0.1003  301.3941   90.9492     6699.2496     6694.6506     6703.8486 -47.845897  19.411572  -0.000551  -0.000410
1 40979U 98067HM  16216.09225118  .00068087  00000-0  30628-3 0  9994 | 2 40979  51.6339 152.6592 0006729  62.7331 297.4357 15.83411639 47126 | 2016/08/03-02:12:50  192.4788    0.1003  297.3672   90.9429     6698.9379     6694.4302     6703.4456 -45.865898  23.714532  -0.000549  -0.000390
1 40979U 98067HM  16217.66994101  .00178505  00000-0  78891-3 0  9994 | 2 40979  51.6363 144.4563 0009536  56.8055 303.4395 15.83635346 47376 | 2016/08/04-16:04:42   50.1288    0.1538  303.3483   90.9300     6698.3070     6691.9195     6704.6945 -42.015031  30.017406  -0.000889  -0.000346
1 40979U 98067HM  16218.80563263  .00076103  00000-0  33415-3 0  9996 | 2 40979  51.6340 138.5260 0006317  74.1747 285.9952 15.83884099 47558 | 2016/08/05-19:20:06  106.1026    0.1003  285.9256   90.9157     6697.6057     6693.3748     6701.8366 -38.687101  34.196171  -0.000532  -0.000341
1 40979U 98067HM  16219.87815644 +.00071883 +00000-0 +31347-3 0  9999 | 2 40979 051.6338 132.9362 0006127 079.1493 281.0199 15.84052237047729 | 2016/08/06-21:04:32  138.8588    0.1003  280.9510   90.9061     6697.1317     6693.0284     6701.2351 -35.172096  37.801759  -0.000519  -0.000325
1 40979U 98067HM  16220.95056714 +.00077833 +00000-0 +33631-3 0  9994 | 2 40979 051.6336 127.3454 0005909 085.3262 274.8417 15.84216774047896 | 2016/08/07-22:48:49  171.5758    0.1004  274.7742   90.8967     6696.6680     6692.7110     6700.6251 -31.321898  41.048354  -0.000497  -0.000319
1 40979U 98067HM  16222.14898808  .00091277  00000-0  38852-3 0  9993 | 2 40979  51.6333 121.0959 0005649  91.6390 268.5261 15.84472604 48082 | 2016/08/09-03:34:32  250.4408    0.1004  268.4614   90.8820     6695.9472     6692.1646     6699.7297 -26.667157  44.213804  -0.000475  -0.000305
1 40979U 98067HM  16223.54767001  .00112677  00000-0  47054-3 0  9990 | 2 40979  51.6344 113.7950 0006429  94.6299 329.9558 15.84781899 48306 | 2016/08/10-13:08:38  338.2252   64.5488  329.9189   90.8642     6695.0759     6690.7717     6699.3802 -20.832696  47.245212  -0.000565  -0.000306
1 40979U 98067HM  16224.73436620  .00100326  00000-0  41490-3 0  9998 | 2 40979  51.6338 107.6070 0004956 104.1234 256.0320 15.85043388 48495 | 2016/08/11-17:37:29  117.2238    0.1003  255.9769   90.8492     6694.3396     6691.0219     6697.6573 -15.618519  49.214949  -0.000422  -0.000261
1 40979U 98067HM  16225.80609147  .00104188  00000-0  42635-3 0  9995 | 2 40979  51.6337 102.0112 0004805 112.5715 247.5798 15.85248910 48661 | 2016/08/12-19:20:46  149.7012    0.1004  247.5289   90.8375     6693.7610     6690.5446     6696.9773 -10.745122  50.503280  -0.000396  -0.000273
1 40979U 98067HM  16226.81465383  .00089047  00000-0  36249-3 0  9999 | 2 40979  51.6336  96.7444 0004591 118.6704 241.4762 15.85420276 48823 | 2016/08/13-19:33:06  159.0492    0.1004  241.4300   90.8277     6693.2786     6690.2057     6696.3515  -6.063867  51.276292  -0.000374  -0.000266
1 40979U 98067HM  16227.82311127  .00079908  00000-0  32343-3 0  9993 | 2 40979  51.6337  91.4768 0004411 123.4773 236.6653 15.85581570 48983 | 2016/08/14-19:45:16  168.3595    0.1004  236.6231   90.8184     6692.8247     6689.8725     6695.7769  -1.330712  51.616549  -0.000362  -0.000253
1 40979U 98067HM  16228.83146549  .00080151  00000-0  32197-3 0  9998 | 2 40979  51.6336  86.2083 0004270 129.5772 230.5609 15.85737758 49147 | 2016/08/15-19:57:18  177.6339    0.1003  230.5231   90.8095     6692.3852     6689.5275     6695.2428   3.414497  51.520577  -0.000346  -0.000250
1 40979U 98067HM  16229.83972021  .00081405  00000-0  32436-3 0  9990 | 2 40979  51.6335  80.9394 0004048 134.2527 225.8810 15.85901189 49306 | 2016/08/16-20:09:11  186.8727    0.1004  225.8477   90.8001     6691.9254     6689.2165     6694.6343   8.131193  50.989234  -0.000331  -0.000233
1 40979U 98067HM  16230.84786161  .00088534  00000-0  34913-3 0  9993 | 2 40979  51.6333  75.6692 0003907 140.4351 219.6939 15.86083519 49462 | 2016/08/17-20:20:55  196.0721    0.1004  219.6653   90.7897     6691.4125     6688.7982     6694.0269  12.780268  50.026617  -0.000316  -0.000230
1 40979U 98067HM  16231.91888123  .00082273  00000-0  32171-3 0  9991 | 2 40979  51.6330  70.0684 0003696 147.4881 212.6351 15.86286650 49630 | 2016/08/18-22:03:11  228.3015    0.1004  212.6123   90.7780     6690.8413     6688.3684     6693.3142  17.601591  48.540197  -0.000293  -0.000225
1 40979U 98067HM  16232.92677947  .00083421  00000-0  32329-3 0  9994 | 2 40979  51.6329  64.7964 0003530 153.7896 206.3287 15.86466123 49792 | 2016/08/19-22:14:33  237.4151    0.1004  206.3108   90.7678     6690.3367     6687.9750     6692.6984  21.987155  46.717463  -0.000276  -0.000220
1 40979U 98067HM  16233.93456452 +.00085618 +00000-0 +32881-3 0  9995 | 2 40979 051.6328 059.5232 0003246 161.4079 198.7044 15.86643434049959 | 2016/08/20-22:25:46  246.4903    0.1004  198.6925   90.7576     6689.8382     6687.6667     6692.0097  26.187611  44.498934  -0.000245  -0.000213
1 40979U 98067HM  16235.50900820  .00085369  00000-0  32359-3 0  9996 | 2 40979  51.6329  51.2844 0002803 170.3040 189.8019 15.86913997 50200 | 2016/08/22-12:12:58  103.0871    0.1004  189.7964   90.7422     6689.0778     6687.2029     6690.9528  32.294062  40.287094  -0.000210  -0.000186
1 40979U 98067HM  16236.51650570  .00081464  00000-0  30636-3 0  9990 | 2 40979  51.6333  46.0102 0002593 179.7229 180.3777 15.87093772 50367 | 2016/08/23-12:23:46  112.0587    0.1004  180.3775   90.7319     6688.5727     6686.8383     6690.3070  35.860891  37.148272  -0.000181  -0.000186
1 40979U 98067HM  16237.64977691  .00110419  00000-0  40686-3 0  9990 | 2 40979  51.6328  40.0742 0002425 193.6822 166.4117 15.87392300 50545 | 2016/08/24-15:35:40  167.0960    0.1004  166.4182   90.7148     6687.7341     6686.1123     6689.3558  39.510006  33.240119  -0.000143  -0.000196
1 40979U 98067HM  16238.65694995  .00096696  00000-0  35311-3 0  9994 | 2 40979  51.6330  34.7983 0002195 206.3451 153.7442 15.87626880 50700 | 2016/08/25-15:46:00  175.9515    0.1004  153.7553   90.7014     6687.0753     6685.6075     6688.5431  42.399271  29.466396  -0.000106  -0.000192
1 40979U 98067HM  16239.78985283  .00094727  00000-0  34192-3 0  9991 | 2 40979  51.6327  28.8602 0002032 221.0404 139.0448 15.87870416 50888 | 2016/08/26-18:57:23  230.8554    0.1005  139.0601   90.6875     6686.3915     6685.0328     6687.7502  45.219920  24.921769  -0.000070  -0.000191
1 40979U 98067HM  16240.79674322  .00092712  00000-0  33166-3 0  9995 | 2 40979  51.6320  23.5811 0002044 234.5797 125.5018 15.88059756 51041 | 2016/08/27-19:07:18  239.6112    0.1006  125.5209   90.6767     6685.8600     6684.4935     6687.2266  47.320457  20.655213  -0.000042  -0.000200
1 40979U 98067HM  16241.80351298  .00093958  00000-0  33286-3 0  9998 | 2 40979  51.6323  18.3013 0002051 245.9096 114.1695 15.88250911 51205 | 2016/08/28-19:17:03  248.3228    0.1005  114.1909   90.6658     6685.3236     6683.9524     6686.6947  49.020653  16.213265  -0.000021  -0.000204
1 40979U 98067HM  16243.37635316  .00118967  00000-0  41321-3 0  9995 | 2 40979  51.6323  10.0507 0002103 268.5549  91.5215 15.88555814 51457 | 2016/08/30-09:01:56  104.3489    0.1005   91.5456   90.6484     6684.4681     6683.0624     6685.8739  50.839936   9.010846   0.000031  -0.000208
1 40979U 98067HM  16244.44565885  .00129808  00000-0  44232-3 0  9997 | 2 40979  51.6325   4.4383 0002255 278.6496  81.4254 15.88902828 51620 | 2016/08/31-10:41:44  135.9667    0.1006   81.4510   90.6286     6683.4948     6681.9877     6685.0020  51.477667   3.995607   0.000051  -0.000220
1 40979U 98067HM  16245.70336719  .00237381  00000-0  79695-3 0  9996 | 2 40979  51.6287 357.8289 0002785 227.4655 132.6631 15.89319502 51826 | 2016/09/01-16:52:50  236.5371    0.1521  132.6866   90.6048     6682.3266     6680.4656     6684.1877  51.591638  -1.955890  -0.000196  -0.000198
1 40979U 98067HM  16247.52636035  .00208258  00000-0  66161-3 0  9997 | 2 40979  51.6326 348.2529 0003397 306.1316  53.9375 15.90069257 52114 | 2016/09/03-12:37:57  184.2470    0.1006   53.9690   90.5621     6680.2259     6677.9566     6682.4951  50.551195 -10.511994   0.000140  -0.000309
1 40979U 98067HM  16248.53179502  .00178387  22750-4  57772-3 0  9997 | 2 40979  51.6325 342.9640 0003704 310.0615  50.0066 15.90451225 52278 | 2016/09/04-12:45:47  192.4844    0.1006   50.0391   90.5403     6679.1563     6676.6823     6681.6302  49.366911 -15.126903   0.000145  -0.000341
1 40979U 98067HM  16249.53699469  .00166812  21343-4  53095-3 0  9998 | 2 40979  51.6317 337.6733 0003902 315.9651  44.1043 15.90814267 52433 | 2016/09/05-12:53:16  200.6364    0.1005   44.1354   90.5197     6678.1401     6675.5342     6680.7459  47.761016 -19.614225   0.000156  -0.000357
1 40979U 98067HM  16250.60477167  .00150040  19442-4  46959-3 0  9991 | 2 40979  51.6317 332.0506 0004352 324.9142  35.1577 15.91182899 52606 | 2016/09/06-14:30:52  231.7088    0.1006   35.1864   90.4987     6677.1086     6674.2027     6680.0145  45.609474 -24.199345   0.000197  -0.000388
1 40979U 98067HM  16252.11184684  .00169819  21839-4  51794-3 0  9998 | 2 40979  51.6311 324.1106 0004599 333.5992  26.4779 15.91630122 52840 | 2016/09/08-02:41:03   63.6761    0.1006   26.5014   90.4733     6675.8578     6672.7875     6678.9280  41.828941 -30.267312   0.000214  -0.000407
1 40979U 98067HM  16253.11630881  .00175090  22571-4  52385-3 0  9993 | 2 40979  51.6313 318.8153 0004965 338.8981  21.1820 15.91985832 53006 | 2016/09/09-02:47:29   71.5648    0.1007   21.2026   90.4531     6674.8633     6671.5492     6678.1774  38.857240 -33.998618   0.000231  -0.000440
1 40979U 98067HM  16254.30881506  .00166845  21582-4  48946-3 0  9994 | 2 40979  51.6312 312.5222 0004760 343.8681  16.2174 15.92383446 53190 | 2016/09/10-07:24:41  148.3301    0.1007   16.2326   90.4305     6673.7521     6670.5754     6676.9288  34.896280 -38.052995   0.000212  -0.000426
1 40979U 98067HM  16255.50105578  .00144267  19000-4  41734-3 0  9999 | 2 40979  51.6311 306.2301 0004804 349.6174  10.4733 15.92711760 53389 | 2016/09/11-12:01:31  224.9988    0.1007   10.4833   90.4118     6672.8350     6669.6293     6676.0406  30.515504 -41.648223   0.000209  -0.000432
1 40979U 98067HM  16256.50483050  .00155843  20349-4  44188-3 0  9990 | 2 40979  51.6312 300.9293 0004877 354.4204   5.6748 15.93059321 53548 | 2016/09/12-12:06:57  232.6434    0.1007    5.6803   90.3921     6671.8644     6668.6105     6675.1182  26.537403 -44.289356   0.000209  -0.000441
1 40979U 98067HM  16257.50840677 +.00160244 +20917-4 +44674-3 0  9995 | 2 40979 051.6306 295.6266 0004836 000.1640 359.9368 15.93368906053708 | 2016/09/13-12:12:06  240.2171    0.1007  359.9367   90.3746     6671.0001     6667.7740     6674.2262  22.330461 -46.551792   0.000210  -0.000435
1 40979U 98067HM  16258.51177936  .00150278  19791-4  41248-3 0  9996 | 2 40979  51.6303 290.3240 0004932   3.8442 356.2602 15.93689060 53861 | 2016/09/14-12:16:57  247.7192    0.1007  356.2565   90.3564     6670.1067     6666.8170     6673.3964  17.932674 -48.415980   0.000202  -0.000450
1 40979U 98067HM  16260.45516995  .00157207  20703-4  41464-3 0  9998 | 2 40979  51.6296 280.0430 0004836  12.1007 348.0116 15.94419396 54170 | 2016/09/16-10:55:26  239.5284    0.1008  348.0001   90.3150     6668.0697     6664.8450     6671.2943   9.003542 -50.838488   0.000182  -0.000448
1 40979U 98067HM  16261.45788440  .00161663  21295-4  41894-3 0  9990 | 2 40979  51.6288 274.7343 0004713  16.0510 344.0646 15.94738256 54331 | 2016/09/17-10:59:21  246.7993    0.1008  344.0498   90.2969     6667.1808     6664.0386     6670.3230   4.261190 -51.452651   0.000167  -0.000441
1 40979U 98067HM  16262.83629644  .00166787  22011-4  42213-3 0  9998 | 2 40979  51.6292 267.4342 0004726  22.2047 337.9164 15.95164764 54550 | 2016/09/18-20:04:16   31.6809    0.1007  337.8960   90.2728     6665.9923     6662.8420     6669.1427  -2.311268 -51.577440   0.000159  -0.000445
1 40979U 98067HM  16263.83852045  .00207825  28076-4  51324-3 0  9991 | 2 40979  51.6288 262.1214 0004400  28.8328 331.2922 15.95546950 54716 | 2016/09/19-20:07:28   38.7783    0.1008  331.2680   90.2512     6664.9278     6661.9952     6667.8604  -7.076996 -51.141462   0.000157  -0.000411
1 40979U 98067HM  16264.96569777 +.00221574 +30536-4 +53141-3 0  9993 | 2 40979 051.6289 256.1424 0004189 033.2419 326.8852 15.96068186054890 | 2016/09/20-23:10:36   91.6500    0.1009  326.8590   90.2217     6663.4767     6660.6853     6666.2680 -12.365619 -50.126189   0.000139  -0.000395
1 40979U 98067HM  16266.09250964  .00190814  25631-4  44681-3 0  9995 | 2 40979  51.6289 250.1617 0003596  42.7947 317.3341 15.96555174 55077 | 2016/09/22-02:13:12  144.3919    0.1009  317.3062   90.1942     6662.1216     6659.7259     6664.5173 -17.521134 -48.564938   0.000140  -0.000331
1 40979U 98067HM  16267.15639740  .00237209  00000-0  52860-3 0  9993 | 2 40979  51.6263 244.5084 0002690  43.0677 317.1073 15.97081795 55245 | 2016/09/23-03:45:12  174.0472    0.1540  317.0863   90.1644     6660.6570     6658.8653     6662.4487 -22.218863 -46.600397   0.000081  -0.000256
1 40979U 98067HM  16268.15753553  .00216428  29983-4  48416-3 0  9990 | 2 40979  51.6278 239.1923 0003252  55.5834 304.5481 15.97347364 55409 | 2016/09/24-03:46:51  180.8033    0.1008  304.5174   90.1495     6659.9187     6657.7529     6662.0845 -26.441606 -44.342657   0.000136  -0.000295
1 40979U 98067HM  16269.15837652  .00245667  35588-4  53556-3 0  9990 | 2 40979  51.6278 233.8707 0002896  64.6702 295.4607 15.97780898 55566 | 2016/09/25-03:48:03  187.4148    0.1009  295.4307   90.1250     6658.7139     6656.7856     6660.6423 -30.440240 -41.699179   0.000138  -0.000254
1 40979U 98067HM  16270.15891089  .00290791  45787-4  61337-3 0  9992 | 2 40979  51.6275 228.5467 0002671  75.4244 284.7061 15.98334739 55722 | 2016/09/26-03:48:49  193.9177    0.1009  284.6765   90.0938     6657.1756     6655.3975     6658.9538 -34.177889 -38.694582   0.000149  -0.000222
1 40979U 98067HM  16271.31071039  .00488050  11318-3  97321-3 0  9997 | 2 40979  51.6323 222.4120 0002139  88.1613  65.6779 15.99263807 55905 | 2016/09/27-07:27:25  102.1268  153.8615   65.7002   90.0414     6654.5971     6653.1737     6656.0206 -38.120855 -34.823768   0.000139  -0.000162
1 40979U 98067HM  16273.09519850  .00601442  17395-3  10836-2 0  9990 | 2 40979  51.6276 212.8870 0002525 126.1315 233.9930 16.01021274 56193 | 2016/09/29-02:17:05  189.5411    0.1011  233.9696   89.9426     6649.7263     6648.0473     6651.4054 -43.353920 -28.032957   0.000236  -0.000090
1 40979U 98067HM  16274.21825853  .00526056  13615-3  87784-3 0  9993 | 2 40979  51.6274 206.8815 0002765 139.4995 220.6222 16.02332598 56372 | 2016/09/30-05:14:17  240.9579    0.1011  220.6016   89.8690     6646.0978     6644.2602     6647.9355 -46.048727 -23.343160   0.000269  -0.000065
1 40979U 98067HM  16275.83892654 +.00619853 +19311-3 +93416-3 0  9991 | 2 40979 051.6273 198.1935 0003464 163.4142 196.6983 16.04030453056637 | 2016/10/01-20:08:03  114.6930    0.1011  196.6869   89.7739     6641.4071     6639.1065     6643.7077 -49.046321 -16.119445   0.000346   0.000010
1 40979U 98067HM  16277.14670120  .00557064  15921-3  77220-3 0  9992 | 2 40979  51.6271 191.1673 0004323 180.3432 179.7578 16.05393927 56846 | 2016/10/03-03:31:14  233.8186    0.1012  179.7580   89.6976     6637.6462     6634.7767     6640.5156 -50.649585  -9.998851   0.000424   0.000086
1 40979U 98067HM  16278.76391751  .00891515  44277-3  10581-2 0  9995 | 2 40979  51.6256 182.4552 0004756 195.4591 164.6278 16.07902479 57101 | 2016/10/04-18:20:02  106.3367    0.1013  164.6422   89.5577     6630.7406     6627.5870     6633.8942 -51.578209  -2.211548   0.000453   0.000146
1 40979U 98067HM  16279.81963399  .01028296  63576-3  10572-2 0  9997 | 2 40979  51.6247 176.7456 0006291 208.7904 151.2764 16.10138647 57274 | 2016/10/05-19:40:16  133.1649    0.1014  151.3110   89.4333     6624.6000     6620.4324     6628.7675 -51.541446   2.930706   0.000568   0.000271
1 40979U 98067HM  16280.93600328 +.01054077 +70457-3 +93084-3 0  9994 | 2 40979 051.6241 170.6892 0007976 216.2752 143.7723 16.12390937057456 | 2016/10/06-22:27:50  182.2339    0.1015  143.8263   89.3084     6618.4294     6613.1506     6623.7083 -50.943965   8.352255   0.000711   0.000362
1 40979U 98067HM  16282.11259394  .01237409  10985-2  90346-3 0  9998 | 2 40979  51.6233 164.2853 0009627 222.4856 137.5416 16.15172611 57643 | 2016/10/08-02:42:08  253.3904    0.1016  137.6160   89.1546     6610.8283     6604.4641     6617.1926 -49.693739  13.982038   0.000860   0.000434
1 40979U 98067HM  16283.53310250  .02980693  11867-4  13004-2 0  9992 | 2 40979  51.6216 156.5047 0012398 240.0726 119.9062 16.21566388 57875 | 2016/10/09-12:47:40   54.0026    0.1019  120.0293   88.8030     6593.4394     6585.2649     6601.6139 -47.341797  20.580182   0.000996   0.000739
1 40979U 98067HM  16284.63910384  .07625644  12254-4  10694-2 0  9998 | 2 40979  51.6413 150.2954 0006454 280.0019  81.6258 16.34124883 58054 | 2016/10/10-15:20:18   97.8136    1.7009   81.6990   88.1206     6559.6149     6555.3814     6563.8485 -44.855206  25.589731   0.000218   0.000608
