# SPACE DATA - HISTORICAL TLEs
# ----------------------------
# NORAD_ID    : 46955
# OBJECT_NAME : DRAGRACER 2(AUGURY)
# --------------------------------------------------------------------+-----------------------------------------------------------------------+----------------------------------------------------------------------------------------------------------------------------------------
#                  LINE 1                                             |                 LINE 2                                                |      DERIVED PARAMETERS
# --------------------------------------------------------------------+-----------------------------------------------------------------------+----------------------------------------------------------------------------------------------------------------------------------------
# NORAD  COSPAR     TLE_EPOCH      MEANMOT1 MEANMOT2   BSTAR  #  REV  |   NORAD    INC     RAAN     ECC    ARGPER  MEANANOM   MEANMOT     REV |  CAL_DATE              LONG     ARGLAT     PERIOD        SMA         PERIGEE        APOGEE      INC_X      INC_Y      ECC_X      ECC_Y
# ------ ------   -------------- ----------  -------  ------- -- ----     -----  ------- -------- ------- -------- -------- -----------  ----   ------------------- ---------  --------  --------  ------------  ------------   ----------- ---------- ----------  ---------  ---------   
1 46954U 20085AB  20325.53122162 -.00000068  00000-0  00000+0 0  9991 | 2 46954  97.3598 100.1588 0011869 314.9497 103.7892 15.19943911    54 | 2020/11/20-12:44:57   92.3375   58.8709  103.9212   94.7403     6884.1470     6875.9762     6892.3178 -17.172028  95.833460   0.000679   0.000974
1 46954U 20085AB  20326.83714065 -.00000068  00000-0  00000+0 0  9994 | 2 46954  97.3681 101.4406 0013296 307.8881  52.1914 15.19992756   259 | 2020/11/21-20:05:28  261.1331    0.2000   52.3119   94.7373     6883.9995     6874.8465     6893.1525 -19.313149  95.433480   0.000867   0.001008
1 46954U 20085AB  20328.74607811  .00064386  00000-0  29368-2 0  9999 | 2 46954  97.3634 103.3055 0011976 303.3319  57.1385 15.20314204   545 | 2020/11/23-17:54:21  227.9764    0.5858   57.2539   94.7173     6883.0291     6874.7860     6891.2722 -22.407520  94.749853   0.000822   0.000871
1 46954U 20085AB  20329.93062768 +.00066556 +00000-0 +30173-2 0  9994 | 2 46954 097.3649 104.4619 0013338 300.6335 059.3487 15.20496949000725 | 2020/11/24-22:20:06  294.9135    0.1138   59.4803   94.7059     6882.4776     6873.2977     6891.6574 -24.315536  94.279788   0.000942   0.000945
1 46954U 20085AB  20331.11515837  .00062264  00000-0  28133-2 0  9992 | 2 46954  97.3650 105.6187 0013276 295.8559  64.1164 15.20635639   901 | 2020/11/26-02:45:49    1.3652    0.1093   64.2534   94.6972     6882.0591     6872.9225     6891.1957 -26.213984  93.769773   0.000995   0.000879
1 46954U 20085AB  20332.36536661  .00064768  00000-0  29111-2 0  9996 | 2 46954  97.3646 106.8403 0013492 293.2186  66.7634 15.20800439  1091 | 2020/11/27-08:46:07   91.4412    0.1242   66.9056   94.6870     6881.5619     6872.2773     6890.8465 -28.207019  93.189213   0.001033   0.000868
1 46954U 20085AB  20333.61542685 +.00068799 +00000-0 +30741-2 0  9997 | 2 46954 097.3647 108.0626 0013673 290.6236 069.3640 15.20980438001286 | 2020/11/28-14:46:12  181.4671    0.1343   69.5107   94.6758     6881.0190     6871.6106     6890.4274 -30.188501  92.566404   0.001067   0.000855
1 46954U 20085AB  20334.79954431  .00068727  00000-0  30570-2 0  9994 | 2 46954  97.3658 109.2211 0012860 281.4389  78.4600 15.21145888  1465 | 2020/11/29-19:11:20  247.8467    0.0433   78.6044   94.6655     6880.5200     6871.6717     6889.3684 -32.054224  91.938163   0.001106   0.000656
1 46954U 20085AB  20335.85193485 +.00087197 +00000-0 +38394-2 0  9990 | 2 46954 097.3615 110.2481 0013957 283.1780 076.7882 15.21388568001626 | 2020/11/30-20:26:47  266.6502    0.1220   76.9440   94.6504     6879.7883     6870.1862     6889.3904 -33.695447  91.344833   0.001165   0.000769
1 46954U 20085AB  20336.96998667  .00085619  00000-0  37501-2 0  9994 | 2 46954  97.3635 111.3440 0014254 279.5051  80.4573 15.21572249  1794 | 2020/12/01-23:16:46  309.1588    0.1235   80.6184   94.6390     6879.2346     6869.4290     6889.0403 -35.437063  90.685532   0.001224   0.000731
1 46954U 20085AB  20338.15366467  .00080405  00000-0  35060-2 0  9990 | 2 46954  97.3633 112.5031 0014520 273.5522  86.3692 15.21747911  1971 | 2020/12/03-03:41:16   15.3315    0.0875   86.5353   94.6280     6878.7052     6868.7173     6888.6931 -37.264189  89.949944   0.001304   0.000638
1 46954U 20085AB  20339.40292543  .00082413  00000-0  35742-2 0  9990 | 2 46954  97.3642 113.7227 0014107 274.4308  85.2366 15.21927471  2163 | 2020/12/04-09:40:12  105.3311  359.8285   85.3977   94.6169     6878.1642     6868.4611     6887.8672 -39.170642  89.137244   0.001244   0.000666
1 46954U 20085AB  20340.91508054  .00076429  00000-0  32955-2 0  9998 | 2 46954  97.3653 115.2058 0014571 267.7768  92.1762 15.22149023  2396 | 2020/12/05-21:57:42  289.4287    0.1198   92.3430   94.6031     6877.4967     6867.4755     6887.5179 -41.465046  88.094560   0.001341   0.000569
1 46954U 20085AB  20341.96685793  .00072677  00000-0  31223-2 0  9998 | 2 46954  97.3642 116.2360 0014667 263.0471  96.9096 15.22290114  2555 | 2020/12/06-23:12:16  308.0713    0.1235   97.0764   94.5943     6877.0718     6866.9852     6887.1584 -43.041746  87.333817   0.001384   0.000484
1 46954U 20085AB  20343.21570587  .00072679  00000-0  31062-2 0  9995 | 2 46954  97.3641 117.4600 0014616 260.0356  99.9229 15.22468499  2742 | 2020/12/08-05:10:36   37.6617    0.1234  100.0878   94.5832     6876.5346     6866.4838     6886.5853 -44.897434  86.394377   0.001394   0.000439
1 46954U 20085AB  20344.26725740  .00071947  00000-0  30619-2 0  9998 | 2 46954  97.3638 118.4916 0014688 259.1259 100.8298 15.22614619  2902 | 2020/12/09-06:24:51   56.2279    0.1210  100.9951   94.5742     6876.0946     6865.9950     6886.1942 -46.445445  85.571784   0.001400   0.000445
1 46954U 20085AB  20345.31870352  .00072820  00000-0  30849-2 0  9991 | 2 46954  97.3630 119.5219 0014563 257.9863 101.9742 15.22767974  3068 | 2020/12/10-07:38:55   74.7498    0.1237  102.1374   94.5646     6875.6330     6865.6200     6885.6459 -47.976222  84.722110   0.001389   0.000438
1 46954U 20085AB  20346.37009536  .00075515  00000-0  31864-2 0  9998 | 2 46954  97.3615 120.5527 0014314 252.3238 107.6436 15.22892259  3220 | 2020/12/11-08:52:56   93.2494    0.1236  107.7998   94.5569     6875.2589     6865.4176     6885.1001 -49.491836  83.844021   0.001395   0.000319
1 46954U 20085AB  20347.42136420  .00067243  00000-0  28296-2 0  9992 | 2 46954  97.3609 121.5854 0014910 249.2468 110.7167 15.23018662  3381 | 2020/12/12-10:06:45  111.7136    0.1232  110.8764   94.5491     6874.8785     6864.6280     6885.1289 -50.994607  82.937898   0.001464   0.000280
1 46954U 20085AB  20348.93242762 +.00058590 +00000-0 +24577-2 0  9999 | 2 46954 097.3628 123.0685 0014281 246.2925 113.6795 15.23177590003618 | 2020/12/13-22:22:41  295.6942    0.1218  113.8293   94.5392     6874.4002     6864.5829     6884.2176 -53.125167  81.591859   0.001409   0.000232
1 46954U 20085AB  20350.64038521  .00055856  00000-0  23315-2 0  9997 | 2 46954  97.3629 124.7416 0014156 243.0233 116.9421 15.23360036  3876 | 2020/12/15-15:22:09  190.5759    0.1099  117.0866   94.5279     6873.8513     6864.1207     6883.5820 -55.484809  80.006064   0.001403   0.000191
1 46954U 20085AB  20351.95406761  .00052744  00000-0  21936-2 0  9997 | 2 46954  97.3624 126.0301 0015011 235.9821 123.9921 15.23488994  4073 | 2020/12/16-22:53:51  303.4991    0.1167  124.1346   94.5199     6873.4634     6863.1457     6883.7812 -57.269555  78.737761   0.001500   0.000053
1 46954U 20085AB  20353.26765405  .00049456  00000-0  20510-2 0  9999 | 2 46954  97.3623 127.3194 0014876 232.7846 127.2038 15.23604822  4274 | 2020/12/18-06:25:25   56.3814    0.1240  127.3394   94.5127     6873.1151     6862.8906     6883.3395 -59.026645  77.429146   0.001488   0.000003
1 46954U 20085AB  20354.64678830  .00049818  00000-0  20576-2 0  9991 | 2 46954  97.3621 128.6722 0014754 229.1517 130.8440 15.23741604  4483 | 2020/12/19-15:31:22  192.8690    0.1234  130.9717   94.5042     6872.7038     6862.5638     6882.8437 -60.838063  76.013871   0.001474  -0.000056
1 46954U 20085AB  20355.89446812  .00050451  00000-0  20758-2 0  9999 | 2 46954  97.3618 129.8971 0014720 226.0083 133.9941 15.23867782  4672 | 2020/12/20-21:28:02  282.0319    0.1236  134.1153   94.4964     6872.3244     6862.2083     6882.4404 -62.448910  74.695741   0.001468  -0.000105
1 46954U 20085AB  20356.94505986  .00051854  00000-0  21261-2 0  9992 | 2 46954  97.3600 130.9273 0014472 223.0464 136.9648 15.23980768  4830 | 2020/12/21-22:40:53  300.2414    0.1242  137.0778   94.4894     6871.9847     6862.0396     6881.9298 -63.780622  73.559512   0.001439  -0.000152
1 46954U 20085AB  20358.12685782  .00055238  00000-0  22525-2 0  9991 | 2 46954  97.3654 132.0946 0015531 210.5161 149.5533 15.24132712  5014 | 2020/12/23-03:02:40    5.6280    0.1594  149.6433   94.4800     6871.5280     6860.8558     6882.2001 -65.269547  72.248926   0.001482  -0.000464
1 46954U 20085AB  20359.17724519  .00070217  00000-0  28417-2 0  9999 | 2 46954  97.3597 133.1198 0014357 217.8813 142.3640 15.24328623  5175 | 2020/12/24-04:15:13   23.6017    0.3456  142.4643   94.4678     6870.9392     6861.0746     6880.8038 -66.547892  71.065387   0.001418  -0.000225
1 46954U 20085AB  20360.42438691  .00070700  00000-0  28467-2 0  9994 | 2 46954  97.3595 134.3458 0013968 214.0456 145.9851 15.24502538  5367 | 2020/12/25-10:11:07  112.7906    0.1201  146.0745   94.4570     6870.4166     6860.8200     6880.0132 -68.053040  69.625110   0.001368  -0.000281
1 46954U 20085AB  20361.93395450  .00068415  00000-0  27393-2 0  9993 | 2 46954  97.3594 135.8298 0014080 210.2798 149.7618 15.24700303  5595 | 2020/12/26-22:24:53  296.2279    0.1227  149.8429   94.4448     6869.8225     6860.1498     6879.4952 -69.833280  67.839264   0.001367  -0.000338
1 46954U 20085AB  20363.11522573  .00065211  00000-0  26017-2 0  9996 | 2 46954  97.3600 136.9915 0013595 209.4288 150.5974 15.24842495  5779 | 2020/12/28-02:45:55    1.5036    0.1026  150.6738   94.4360     6869.3954     6860.0565     6878.7344 -71.194745  66.409923   0.001321  -0.000319
1 46954U 20085AB  20364.36200395  .00064345  00000-0  25555-2 0  9992 | 2 46954  97.3604 138.2175 0013786 203.5293 156.5317 15.24996947  5969 | 2020/12/29-08:41:17   90.3118    0.1238  156.5945   94.4264     6868.9316     6859.4621     6878.4011 -72.599659  64.871697   0.001309  -0.000432
1 46954U 20085AB  20365.80547412  .00064401  00000-0  25438-2 0  9999 | 2 46954  97.3605 139.6370 0013713 198.5581 161.5133 15.25179509  6180 | 2020/12/30-19:19:52  249.9539    0.1211  161.5630   94.4151     6868.3835     6858.9648     6877.8021 -74.184484  63.053385   0.001273  -0.000509
1 46954U 20085AB  20366.85516570  .00064110  00000-0  25220-2 0  9992 | 2 46954  97.3584 140.6684 0014305 194.7807 165.3007 15.25310030  6349 | 2020/12/31-20:31:26  267.8361    0.1229  165.3422   94.4070     6867.9916     6858.1670     6877.8163 -75.305824  61.706491   0.001301  -0.000594
1 46954U 20085AB  21001.90477584  .00062520  00000-0  24516-2 0  9996 | 2 46954  97.3591 141.7018 0013752 195.1423 164.9403 15.25432439  6505 | 2021/01/01-21:42:52  285.6957    0.1235  164.9812   94.3995     6867.6242     6858.1799     6877.0686 -76.407017  60.338728   0.001264  -0.000541
1 46954U 20085AB  21002.95431522  .00060288  00000-0  23574-2 0  9996 | 2 46954  97.3628 142.7381 0013516 189.9122 170.1925 15.25541247  6668 | 2021/01/02-22:54:12  303.5060    0.1310  170.2188   94.3927     6867.2977     6858.0158     6876.5795 -77.488742  58.949213   0.001201  -0.000621
1 46954U 20085AB  21004.33175603  .00052608  00000-0  20554-2 0  9997 | 2 46954  97.3595 144.0891 0010273 186.5626 173.5446 15.25643363  6871 | 2021/01/04-07:57:43   79.3888    0.1204  173.5578   94.3864     6866.9912     6859.9368     6874.0457 -78.854387  57.103922   0.000895  -0.000503
1 46954U 20085AB  21005.64349927  .00046402  00000-0  18083-2 0  9993 | 2 46954  97.3599 145.3808 0012416 183.2038 176.9191 15.25739984  7071 | 2021/01/05-15:26:38  191.6019    0.1305  176.9267   94.3804     6866.7013     6858.1756     6875.2270 -80.121944  55.312062   0.001060  -0.000647
1 46954U 20085AB  21006.95510918  .00054609  00000-0  21154-2 0  9999 | 2 46954  97.3597 146.6715 0012718 177.4051 182.7258 15.25893412  7273 | 2021/01/06-22:55:21  303.7756    0.1240  182.7189   94.3709     6866.2410     6857.5085     6874.9735 -81.347356  53.493167   0.001030  -0.000746
1 46954U 20085AB  21008.39772585  .00058170  00000-0  22404-2 0  9995 | 2 46954  97.3611 148.0922 0012503 173.1867 186.9543 15.26068478  7490 | 2021/01/08-09:32:43  103.1087    0.1237  186.9370   94.3601     6865.7159     6857.1317     6874.3001 -82.649813  51.460590   0.000975  -0.000782
1 46954U 20085AB  21009.64351698  .00053711  00000-0  20632-2 0  9999 | 2 46954  97.3623 149.3210 0011854 166.3366 193.7855 15.26187951  7684 | 2021/01/09-15:26:39  191.6115    0.0898  193.7532   94.3527     6865.3576     6857.2194     6873.4958 -83.735408  49.676945   0.000848  -0.000829
1 46954U 20085AB  21010.95477044  .00053922  00000-0  20622-2 0  9992 | 2 46954  97.3635 150.6138 0012670 164.5123 195.6489 15.26323721  7882 | 2021/01/10-22:54:52  303.6233    0.1221  195.6098   94.3443     6864.9504     6856.2525     6873.6483 -84.835935  47.775676   0.000898  -0.000894
1 46954U 20085AB  21012.65928893  .00048782  00000-0  18595-2 0  9998 | 2 46954  97.3610 152.2927 0013158 155.6556 204.5340 15.26453234  8141 | 2021/01/12-15:49:22  197.2227    0.1271  204.4715   94.3363     6864.5621     6855.5297     6873.5945 -86.197042  45.268469   0.000809  -0.001038
1 46954U 20085AB  21013.90473011  .00050638  00000-0  19212-2 0  9994 | 2 46954  97.3598 153.5223 0013899 155.6782 204.5118 15.26591032  8335 | 2021/01/13-21:42:48  285.5791    0.1240  204.4458   94.3278     6864.1490     6854.6085     6873.6895 -87.147532  43.407815   0.000878  -0.001077
1 46954U 20085AB  21014.95342508  .00055296  00000-0  20891-2 0  9996 | 2 46954  97.3531 154.5491 0012027 156.0359 204.1466 15.26729017  8492 | 2021/01/14-22:52:55  303.1236    0.1262  204.0903   94.3193     6863.7354     6855.4804     6871.9904 -87.905360  41.836274   0.000782  -0.000913
1 46954U 20085AB  21016.13312476  .00054653  00000-0  20582-2 0  9992 | 2 46954  97.3505 155.7077 0010685 150.5336 209.6017 15.26853316  8670 | 2021/01/16-03:11:41    7.8669    0.0749  209.5413   94.3116     6863.3629     6856.0294     6870.6964 -88.730948  40.049204   0.000632  -0.000862
1 46954U 20085AB  21017.37831356  .00045113  00000-0  16977-2 0  9996 | 2 46954  97.3583 156.9435 0010101 147.5280 212.6583 15.26932600  8861 | 2021/01/17-09:04:46   96.0753    0.1239  212.5959   94.3067     6863.1253     6856.1929     6870.0578 -89.581232  38.129274   0.000572  -0.000833
1 46954U 20085AB  21018.49233454  .00047508  00000-0  17813-2 0  9995 | 2 46954  97.3598 158.0422 0010203 143.2194 216.9741 15.27040235  9034 | 2021/01/18-11:48:57  137.1150    0.1233  216.9039   94.3001     6862.8028     6855.8007     6869.8049 -90.297273  36.405126   0.000529  -0.000872
1 46954U 20085AB  21019.93388949  .00049193  00000-0  18359-2 0  9993 | 2 46954  97.3595 159.4645 0010374 138.8399 221.3622 15.27183477  9257 | 2021/01/19-22:24:48  296.0648    0.1236  221.2837   94.2912     6862.3737     6855.2547     6869.4927 -91.172793  34.152512   0.000492  -0.000913
1 46954U 20085AB  21021.63736067  .00052783  00000-0  19582-2 0  9999 | 2 46954  97.3583 161.1443 0009704 133.1315 227.0947 15.27368798  9514 | 2021/01/21-15:17:47  189.2895    0.1448  227.0133   94.2798     6861.8186     6855.1599     6868.4773 -92.133618  31.464823   0.000399  -0.000885
1 46954U 20085AB  21022.94758855  .00051901  00000-0  19180-2 0  9998 | 2 46954  97.3584 162.4376 0009688 128.9559 231.2520 15.27500577  9716 | 2021/01/22-22:44:31  300.9880    0.1214  231.1655   94.2717     6861.4239     6854.7766     6868.0713 -92.820417  29.377342   0.000353  -0.000902
1 46954U 20085AB  21024.12671100  .00048708  00000-0  17958-2 0  9999 | 2 46954  97.3567 163.5995 0008890 122.7268 237.4454 15.27603248  9891 | 2021/01/24-03:02:27    5.5081    0.0864  237.3596   94.2653     6861.1165     6855.0170     6867.2160 -93.395403  27.488648   0.000250  -0.000853
1 46954U 20085AB  21025.37124674  .00049660  00000-0  18238-2 0  9996 | 2 46954  97.3554 164.8273 0008534 116.9275 243.2848 15.27727382 10089 | 2021/01/25-08:54:35   93.4997    0.1250  243.1975   94.2577     6860.7448     6854.8899     6866.5998 -93.961718  25.480765   0.000174  -0.000836
1 46954U 20085AB  21027.13960462  .00088761  00000-0  32088-2 0  9999 | 2 46954  97.3567 166.5753 0008061 107.9121 252.8237 15.28059952 10350 | 2021/01/27-03:21:01    9.5800    0.6476  252.7355   94.2371     6859.7493     6854.2197     6865.2790 -94.696514  22.603037   0.000063  -0.000804
1 46954U 20085AB  21028.18721562  .00078617  00000-0  28333-2 0  9998 | 2 46954  97.3572 167.6107 0007949 110.9056 249.3039 15.28210748 10517 | 2021/01/28-04:29:35   27.2434    0.1243  249.2187   94.2278     6859.2981     6853.8456     6864.7505 -95.089981  20.888272   0.000118  -0.000786
1 46954U 20085AB  21029.23483082  .00068678  00000-0  24693-2 0  9998 | 2 46954  97.3585 168.6458 0007807 106.1445 254.0631 15.28336128 10672 | 2021/01/29-05:38:09   44.3843    0.1216  253.9771   94.2201     6858.9229     6853.5681     6864.2777 -95.453083  19.167327   0.000065  -0.000778
1 46954U 20085AB  21030.34784233  .00069895  00000-0  25021-2 0  9992 | 2 46954  97.3600 169.7454 0008155  86.9983 273.2115 15.28471436 10848 | 2021/01/30-08:20:53   85.0637    0.1165  273.1182   94.2118     6858.5181     6852.9250     6864.1112 -95.804811  17.332275  -0.000187  -0.000794
1 46954U 20085AB  21032.63897951  .00045135  00000-0  16148-2 0  9999 | 2 46954  97.3588 172.0077 0007453  89.0749 270.3176 15.28622407 11195 | 2021/02/01-15:20:07  190.6863  359.3071  270.2322   94.2025     6858.0665     6852.9552     6863.1778 -96.413131  13.536769  -0.000116  -0.000736
1 46954U 20085AB  21033.81737481  .00046645  00000-0  16627-2 0  9990 | 2 46954  97.3584 173.1734 0007541  84.4981 275.7122 15.28733228 11372 | 2021/02/02-19:37:01  254.0866    0.1243  275.6262   94.1956     6857.7351     6852.5637     6862.9065 -96.668171  11.572501  -0.000161  -0.000737
1 46954U 20085AB  21034.93003670  .00068105  00000-0  24062-2 0  9997 | 2 46954  97.3587 174.2750 0007079  74.8029 285.3962 15.28919097 11545 | 2021/02/03-22:19:15  294.6512    0.1209  285.3180   94.1842     6857.1793     6852.3251     6862.0335 -96.873088   9.711912  -0.000253  -0.000661
1 46954U 20085AB  21036.17349343  .00060836  00000-0  21426-2 0  9999 | 2 46954  97.3585 175.5044 0006753  74.1618 286.0365 15.29059964 11733 | 2021/02/05-04:09:49   22.2926    0.1239  285.9621   94.1755     6856.7581     6852.1278     6861.3885 -97.058963   7.631206  -0.000235  -0.000633
1 46954U 20085AB  21037.22053066  .00056018  00000-0  19679-2 0  9994 | 2 46954  97.3570 176.5392 0006675  70.9713 289.2247 15.29167449 11896 | 2021/02/06-05:17:33   39.2255    0.1238  289.1525   94.1689     6856.4368     6851.8601     6861.0135 -97.179453   5.877017  -0.000255  -0.000617
1 46954U 20085AB  21038.33293112  .00052876  00000-0  18523-2 0  9990 | 2 46954  97.3561 177.6402 0006562  61.0326 299.1570 15.29275569 12068 | 2021/02/07-07:59:25   79.6915    0.1239  299.0913   94.1622     6856.1136     6851.6147     6860.6126 -97.273539   4.008602  -0.000341  -0.000561
1 46954U 20085AB  21039.64150973  .00056890  00000-0  19823-2 0  9996 | 2 46954  97.3553 178.9338 0006039  51.2738 308.9341 15.29433086 12265 | 2021/02/08-15:23:46  190.7577    0.1540  308.8802   94.1525     6855.6429     6851.5028     6859.7830 -97.338444   1.811551  -0.000387  -0.000464
1 46954U 20085AB  21040.94994376  .00059692  00000-0  20685-2 0  9995 | 2 46954  97.3551 180.2274 0006744  41.3270 318.8483 15.29596257 12461 | 2021/02/09-22:47:55  301.8226    0.1244  318.7974   94.1425     6855.1553     6850.5322     6859.7784 -97.354333  -0.386390  -0.000505  -0.000447
1 46954U 20085AB  21042.38908270  .00058853  00000-0  20293-2 0  9996 | 2 46954  97.3549 181.6508 0006795  32.9179 327.2482 15.29761897 12684 | 2021/02/11-09:20:16   99.9169    0.1239  327.2060   94.1323     6854.6605     6850.0027     6859.3182 -97.314494  -2.804591  -0.000560  -0.000386
1 46954U 20085AB  21043.63189060  .00045410  00000-0  15653-2 0  9992 | 2 46954  97.3555 182.8835 0006468  32.6379 327.5219 15.29843482 12876 | 2021/02/12-15:09:55  187.3263    0.1200  327.4821   94.1273     6854.4168     6849.9833     6858.8502 -97.232237  -4.897500  -0.000526  -0.000376
1 46954U 20085AB  21044.87459559  .00048764  00000-0  16736-2 0  9990 | 2 46954  97.3545 184.1137 0006256  32.4763 327.6865 15.29968417 13061 | 2021/02/13-20:59:25  274.6918    0.1245  327.6482   94.1196     6854.0436     6849.7557     6858.3315 -97.103682  -6.983817  -0.000502  -0.000373
1 46954U 20085AB  21045.92097677  .00056782  00000-0  19383-2 0  9996 | 2 46954  97.3553 185.1522 0005299  28.6570 331.4966 15.30107818 13223 | 2021/02/14-22:06:12  291.3911    0.1246  331.4676   94.1110     6853.6273     6849.9956     6857.2591 -96.961952  -8.742673  -0.000440  -0.000295
1 46954U 20085AB  21047.35962278  .00058773  00000-0  19948-2 0  9992 | 2 46954  97.3540 186.5752 0005557  17.7132 342.4298 15.30281603 13448 | 2021/02/16-08:37:51   89.3093    0.1238  342.4106   94.1003     6853.1084     6849.3002     6856.9167 -96.713646 -11.147731  -0.000507  -0.000229
1 46954U 20085AB  21049.19038962  .00061895  00000-0  20848-2 0  9990 | 2 46954  97.3572 188.3922 0006209  11.0366 349.1018 15.30510756 13722 | 2021/02/18-04:34:09   28.3774    0.1249  349.0883   94.0862     6852.4244     6848.1697     6856.6790 -96.314720 -14.209123  -0.000586  -0.000207
1 46954U 20085AB  21050.62864808  .00064043  00000-0  21439-2 0  9991 | 2 46954  97.3563 189.8156 0006219   2.1489 357.9778 15.30700125 13940 | 2021/02/19-15:05:15  186.1564    0.1242  357.9753   94.0746     6851.8592     6847.5980     6856.1204 -95.931152 -16.597087  -0.000608  -0.000129
1 46954U 20085AB  21051.80527549  .00065775  00000-0  21907-2 0  9993 | 2 46954  97.3551 190.9809 0006188 358.1302   1.9928 15.30857595 14126 | 2021/02/20-19:19:35  249.7404    0.1255    1.9953   94.0649     6851.3893     6847.1497     6855.6290 -95.572600 -18.544370  -0.000611  -0.000098
1 46954U 20085AB  21052.85104846  .00106495  00000-0  34966-2 0  9994 | 2 46954  97.3544 192.0174 0006651 346.7516  13.6418 15.31128769 14287 | 2021/02/21-20:25:30  265.9425    0.4114   13.6598   94.0483     6850.5803     6846.0240     6855.1367 -95.220821 -20.270036  -0.000665   0.000014
1 46954U 20085AB  21053.89660952  .00090460  00000-0  29621-2 0  9990 | 2 46954  97.3556 193.0522 0005601 338.3504  21.8227 15.31293508 14447 | 2021/02/22-21:31:07  282.5605    0.1970   21.8466   94.0381     6850.0890     6846.2523     6853.9257 -94.840390 -21.986659  -0.000554   0.000084
1 46954U 20085AB  21054.94202039  .00103162  00000-0  33445-2 0  9998 | 2 46954  97.3549 194.0928 0006899 340.3071  19.7884 15.31551048 14601 | 2021/02/23-22:36:30  298.9759    0.1223   19.8152   94.0223     6849.3210     6844.5957     6854.0464 -94.424773 -23.705250  -0.000687   0.000067
1 46954U 20085AB  21056.37927685  .00102056  00000-0  32802-2 0  9995 | 2 46954  97.3547 195.5194 0007287 333.9641  26.1234 15.31831628 14823 | 2021/02/25-09:06:09   96.3862    0.1243   26.1602   94.0051     6848.4846     6843.4942     6853.4751 -93.805139 -26.048675  -0.000716   0.000133
1 46954U 20085AB  21057.62032207  .00102307  00000-0  32628-2 0  9996 | 2 46954  97.3550 196.7523 0007350 329.2364  30.8403 15.32080225 15019 | 2021/02/26-14:53:15  183.1636    0.1199   30.8835   93.9899     6847.7438     6842.7107     6852.7769 -93.223233 -28.061090  -0.000713   0.000178
1 46954U 20085AB  21058.86116595  .00103201  00000-0  32651-2 0  9996 | 2 46954  97.3545 197.9847 0007358 324.1680  35.9054 15.32332690 15203 | 2021/02/27-20:40:04  269.8614    0.1229   35.9549   93.9744     6846.9916     6841.9536     6852.0296 -92.597662 -30.059469  -0.000700   0.000226
1 46954U 20085AB  21059.90605565  .00066217  00000-0  21023-2 0  9998 | 2 46954  97.3528 199.0236 0008555 319.9276  40.1328 15.32380860 15363 | 2021/02/28-21:44:43  286.0256    0.1236   40.1960   93.9714     6846.8481     6840.9907     6852.7056 -92.035818 -31.732883  -0.000798   0.000307
1 46954U 20085AB  21060.95079680  .00074391  00000-0  23473-2 0  9991 | 2 46954  97.3521 200.0611 0008089 316.3959  43.6655 15.32544054 15523 | 2021/03/01-22:49:08  302.1237    0.1254   43.7295   93.9614     6846.3621     6840.8240     6851.9001 -91.445491 -33.393915  -0.000742   0.000323
1 46954U 20085AB  21062.38710932  .00102921  00000-0  32012-2 0  9992 | 2 46954  97.3527 201.4914 0008611 309.8725  50.3806 15.32870822 15741 | 2021/03/03-09:17:26   98.9899    0.3292   50.4567   93.9414     6845.3891     6839.4945     6851.2836 -90.584017 -35.666288  -0.000756   0.000413
1 46954U 20085AB  21063.56198247  .00113359  00000-0  34902-2 0  9999 | 2 46954  97.3552 202.6600 0008819 306.5262  53.5171 15.33147684 15928 | 2021/03/04-13:29:15  162.1435    0.1246   53.5984   93.9244     6844.5649     6838.5287     6850.6011 -89.840087 -37.507249  -0.000757   0.000452
1 46954U 20085AB  21064.80195995  .00109185  00000-0  33357-2 0  9999 | 2 46954  97.3549 203.8945 0009626 299.8151  60.2080 15.33406791 16110 | 2021/03/05-19:14:49  248.5432    0.1189   60.3038   93.9085     6843.7939     6837.2060     6850.3817 -89.010888 -39.433974  -0.000776   0.000570
1 46954U 20085AB  21065.84602031  .00100799  00000-0  30657-2 0  9990 | 2 46954  97.3548 204.9317 0009088 301.1756  58.8531 15.33590501 16278 | 2021/03/06-20:18:16  264.3912    0.1179   58.9423   93.8973     6843.2473     6837.0282     6849.4664 -88.282397 -41.038708  -0.000754   0.000507
1 46954U 20085AB  21067.34664810  .00091851  00000-0  27765-2 0  9994 | 2 46954  97.3559 206.4306 0007991 278.2474  81.7855 15.33833973 16500 | 2021/03/08-08:19:10   84.5932    0.1235   81.8761   93.8824     6842.5231     6837.0552     6847.9910 -87.179693 -43.334424  -0.000455   0.000657
1 46954U 20085AB  21068.65134831  .00087886  00000-0  26398-2 0  9998 | 2 46954  97.3538 207.7240 0009832 289.1847  70.8257 15.34037878 16707 | 2021/03/09-15:37:56  194.3004    0.1169   70.9322   93.8699     6841.9168     6835.1898     6848.6437 -86.177470 -45.290241  -0.000718   0.000672
1 46954U 20085AB  21069.89064210  .00085561  00000-0  25545-2 0  9999 | 2 46954  97.3542 208.9588 0010127 287.1750  72.8314 15.34236807 16899 | 2021/03/10-21:22:31  280.4369    0.1173   72.9423   93.8577     6841.3253     6834.3971     6848.2535 -85.181819 -47.137013  -0.000730   0.000702
1 46954U 20085AB  21070.93413923  .00082990  00000-0  24660-2 0  9995 | 2 46954  97.3539 209.9995 0010338 286.0104  73.9948 15.34396346 17052 | 2021/03/11-22:25:09  296.0848    0.1191   74.1087   93.8480     6840.8511     6833.7790     6847.9232 -84.311375 -48.676214  -0.000744   0.000718
1 46954U 20085AB  21072.62958314  .00082403  00000-0  24272-2 0  9999 | 2 46954  97.3531 211.6894 0011391 285.9861  74.0451 15.34664710 17313 | 2021/03/13-15:06:35  186.3999    0.1568   74.1707   93.8316     6840.0536     6832.2621     6847.8451 -82.838562 -51.140970  -0.000842   0.000767
1 46954U 20085AB  21075.36744447  .00104804  00000-0  30160-2 0  9996 | 2 46954  97.3543 214.4303 0011273 285.2912  74.7139 15.35301661 17731 | 2021/03/16-08:49:07   92.0137    0.1298   74.8386   93.7926     6838.1616     6830.4530     6845.8703 -80.299249 -55.044440  -0.000860   0.000729
1 46954U 20085AB  21076.86630808  .00114918  00000-0  32643-2 0  9992 | 2 46954  97.3507 215.9217 0010272 257.0816 103.1034 15.35677946 17967 | 2021/03/17-20:47:29  271.4107    0.2996  103.2180   93.7697     6837.0445     6830.0215     6844.0676 -78.836495 -57.113622  -0.000401   0.000946
1 46954U 20085AB  21077.97404952  .00097906  00000-0  27761-2 0  9996 | 2 46954  97.3541 217.0155 0010969 260.7237  99.2760 15.35800063 18139 | 2021/03/18-23:22:37  310.3809    0.1237   99.4000   93.7622     6836.6821     6829.1830     6844.1813 -77.734589 -58.610191  -0.000511   0.000971
1 46954U 20085AB  21079.53770272  .00086708  00000-0  24445-2 0  9995 | 2 46954  97.3543 218.5852 0011910 269.5508  90.4362 15.36018341 18374 | 2021/03/20-12:54:17  153.2803    0.1235   90.5727   93.7489     6836.0344     6827.8927     6844.1761 -76.100065 -60.717706  -0.000735   0.000937
1 46954U 20085AB  21080.84052075  .00129601  00000-0  35867-2 0  9995 | 2 46954  97.3527 219.8862 0011127 254.9718 105.5617 15.36422798 18570 | 2021/03/21-20:10:20  261.7314    0.6563  105.6845   93.7242     6834.8347     6827.2295     6842.4398 -74.700637 -62.428863  -0.000468   0.001010
1 46954U 20085AB  21081.88236844  .00142222  00000-0  38898-2 0  9999 | 2 46954  97.3492 220.9298 0012099 252.7123 107.2787 15.36727568 18730 | 2021/03/22-21:10:36  277.3223    0.1233  107.4110   93.7056     6833.9310     6825.6626     6842.1993 -73.548570 -63.776756  -0.000485   0.001108
1 46954U 20085AB  21082.92414963  .00126851  00000-0  34501-2 0  9992 | 2 46954  97.3511 221.9715 0012186 249.2635 110.7230 15.36964319 18899 | 2021/03/23-22:10:46  292.3532    0.1170  110.8535   93.6912     6833.2291     6824.9022     6841.5561 -72.378359 -65.104606  -0.000441   0.001136
1 46954U 20085AB  21084.35634810  .00118553  00000-0  31956-2 0  9997 | 2 46954  97.3522 223.4049 0012431 243.6501 116.3482 15.37274834 19115 | 2021/03/25-08:33:08   87.9111    0.1259  116.4758   93.6723     6832.3089     6823.8157     6840.8022 -70.727922 -66.895530  -0.000365   0.001188
1 46954U 20085AB  21085.91835314  .00126191  00000-0  33547-2 0  9997 | 2 46954  97.3520 224.9689 0012406 240.0750 119.9273 15.37673305 19357 | 2021/03/26-22:02:25  290.2045    0.1254  120.0504   93.6480     6831.1286     6822.6539     6839.6032 -68.875614 -68.800884  -0.000322   0.001198
1 46954U 20085AB  21087.34983898  .00129225  00000-0  33932-2 0  9996 | 2 46954  97.3506 226.4025 0012566 233.7381 126.2704 15.38040919 19572 | 2021/03/28-08:23:46   85.5105    0.1245  126.3864   93.6256     6830.0400     6821.4574     6838.6226 -67.131800 -70.501494  -0.000221   0.001237
1 46954U 20085AB  21088.84607762  .00122721  00000-0  31908-2 0  9990 | 2 46954  97.3494 227.8989 0011875 237.2335 122.7749 15.38379657 19802 | 2021/03/29-20:18:21  264.1349    0.1227  122.8892   93.6050     6829.0374     6820.9279     6837.1468 -65.267016 -72.229650  -0.000310   0.001146
1 46954U 20085AB  21089.95182063  .00096100  00000-0  24941-2 0  9995 | 2 46954  97.3523 229.0124 0011919 232.2766 127.7292 15.38546069 19971 | 2021/03/30-22:50:37  302.1814    0.1137  127.8371   93.5949     6828.5449     6820.4060     6836.6839 -63.852953 -73.486534  -0.000233   0.001169
1 46954U 20085AB  21091.31749552  .00111594  00000-0  28611-2 0  9993 | 2 46954  97.3515 230.3818 0012076 227.6311 132.4027 15.38855199 20187 | 2021/04/01-07:37:11   73.7730    0.1359  132.5048   93.5761     6827.6304     6819.3854     6835.8755 -62.078006 -74.990905  -0.000168   0.001196
1 46954U 20085AB  21092.61786920  .00117838  00000-0  29885-2 0  9998 | 2 46954  97.3522 231.6865 0011926 225.6474 134.3787 15.39165674 20381 | 2021/04/02-14:49:43  181.8922    0.1237  134.4763   93.5572     6826.7122     6818.5707     6834.8538 -60.354852 -76.385488  -0.000152   0.001183
1 46954U 20085AB  21093.65799376  .00117175  00000-0  29493-2 0  9991 | 2 46954  97.3521 232.7309 0011802 223.3067 136.7190 15.39400805 20541 | 2021/04/03-15:47:30  196.3183    0.1183  136.8116   93.5429     6826.0170     6817.9610     6834.0731 -58.952470 -77.472819  -0.000124   0.001174
1 46954U 20085AB  21094.89294576  .00115138  00000-0  28734-2 0  9994 | 2 46954  97.3523 233.9716 0011779 218.1923 141.8488 15.39671274 20732 | 2021/04/04-21:25:50  280.8621    0.1244  141.9321   93.5265     6825.2176     6817.1782     6833.2570 -57.261278 -78.731292  -0.000044   0.001177
1 46954U 20085AB  21096.32261821  .00087624  00000-0  21783-2 0  9996 | 2 46954  97.3527 235.4089 0012566 215.5047 144.2691 15.39894439 20956 | 2021/04/06-07:44:34   75.7834  359.8578  144.3531   93.5129     6824.5582     6815.9824     6833.1339 -55.268673 -80.143134  -0.000020   0.001256
1 46954U 20085AB  21097.62218837  .00093235  00000-0  22974-2 0  9997 | 2 46954  97.3521 236.7138 0012133 212.8045 147.2310 15.40144760 21158 | 2021/04/07-14:55:57  183.3429    0.1107  147.3062   93.4977     6823.8187     6815.5394     6832.0980 -53.428925 -81.380473   0.000010   0.001213
1 46954U 20085AB  21099.11636453  .00105376  00000-0  25642-2 0  9996 | 2 46954  97.3529 238.2157 0012660 206.2213 153.8571 15.40470025 21386 | 2021/04/09-02:47:33    1.1743    0.1422  153.9209   93.4780     6822.8581     6814.2204     6831.4959 -51.278001 -82.753572   0.000123   0.001260
1 46954U 20085AB  21100.48034922  .00104063  00000-0  25102-2 0  9995 | 2 46954  97.3528 239.5884 0012273 203.3616 156.7011 15.40746298 21593 | 2021/04/10-11:31:42  132.1962    0.1182  156.7566   93.4612     6822.0425     6813.6698     6830.4152 -49.280803 -83.958145   0.000151   0.001218
1 46954U 20085AB  21101.64930667  .00099775  00000-0  23920-2 0  9994 | 2 46954  97.3524 240.7639 0011286 203.5033 156.5572 15.40962137 21771 | 2021/04/11-15:35:00  192.9997    0.1119  156.6086   93.4481     6821.4054     6813.7068     6829.1041 -47.547843 -84.951118   0.000113   0.001123
1 46954U 20085AB  21102.94793745  .00101163  00000-0  24041-2 0  9992 | 2 46954  97.3513 242.0695 0011348 199.0395 161.0432 15.41221193 21974 | 2021/04/12-22:45:01  300.4590    0.1249  161.0854   93.4324     6820.6410     6812.9010     6828.3811 -45.599368 -86.011471   0.000175   0.001121
1 46954U 20085AB  21104.37616043  .00116672  00000-0  27354-2 0  9997 | 2 46954  97.3517 243.5074 0011283 196.2713 163.9473 15.41567443 22198 | 2021/04/14-09:01:40   94.4532    0.2543  163.9830   93.4114     6819.6197     6811.9251     6827.3142 -43.426863 -87.128991   0.000200   0.001110
1 46954U 20085AB  21105.41464381  .00117264  00000-0  27282-2 0  9997 | 2 46954  97.3504 244.5533 0010912 195.8389 164.2485 15.41801457 22358 | 2021/04/15-09:57:05  108.4161    0.1213  164.2824   93.3972     6818.9296     6811.4888     6826.3704 -41.828670 -87.905988   0.000182   0.001076
1 46954U 20085AB  21106.64764522  .00125707  00000-0  28911-2 0  9994 | 2 46954  97.3504 245.7962 0010960 193.0389 167.0663 15.42114422 22540 | 2021/04/16-15:32:36  192.2512    0.1333  167.0944   93.3783     6818.0070     6810.5345     6825.4795 -39.912060 -88.792611   0.000212   0.001075
1 46954U 20085AB  21107.94517770  .00203711  00000-0  45550-2 0  9999 | 2 46954  97.3502 247.1062 0010756 186.9379 173.1719 15.42654791 22748 | 2021/04/17-22:41:03  299.3272    0.1244  173.1865   93.3456     6816.4147     6809.0830     6823.7465 -37.871590 -89.681682   0.000296   0.001034
1 46954U 20085AB  21109.17744737  .00187631  00000-0  41422-2 0  9997 | 2 46954  97.3521 248.3487 0010548 185.6974 174.4158 15.43102012 22936 | 2021/04/19-04:15:31   22.9130    0.1249  174.4275   93.3185     6815.0976     6807.9091     6822.2862 -35.918727 -90.483570   0.000290   0.001014
1 46954U 20085AB  21110.21486648  .00191916  00000-0  41799-2 0  9996 | 2 46954  97.3535 249.3993 0010401 182.2258 177.8949 15.43490543 23092 | 2021/04/20-05:09:24   36.3483    0.1251  177.8993   93.2950     6813.9539     6806.8667     6821.0411 -34.254129 -91.128254   0.000328   0.000987
1 46954U 20085AB  21111.44646216  .00194882  00000-0  41776-2 0  9991 | 2 46954  97.3526 250.6428 0009986 179.4418 180.6808 15.43955711 23282 | 2021/04/21-10:42:54  119.6913    0.1212  180.6794   93.2669     6812.5852     6805.7822     6819.3883 -32.268147 -91.849308   0.000340   0.000939
1 46954U 20085AB  21112.61292137  .00193358  00000-0  40853-2 0  9992 | 2 46954  97.3522 251.8216 0011697 173.0546 187.0771 15.44374131 23462 | 2021/04/22-14:42:36  179.5784    0.1152  187.0606   93.2417     6811.3547     6803.3874     6819.3219 -30.371624 -92.493326   0.000497   0.001059
1 46954U 20085AB  21113.90876067  .00142096  00000-0  29987-2 0  9993 | 2 46954  97.3513 253.1309 0009612 174.0395 186.0970 15.44628407 23667 | 2021/04/23-21:48:36  286.0437    0.1248  186.0853   93.2263     6810.6071     6804.0608     6817.1535 -28.249998 -93.162295   0.000373   0.000886
1 46954U 20085AB  21114.94518156  .00150288  00000-0  31352-2 0  9991 | 2 46954  97.3515 254.1810 0009550 171.1465 188.9974 15.44937883 23828 | 2021/04/24-22:41:03  299.1192    0.1268  188.9803   93.2076     6809.6976     6803.1943     6816.2009 -26.537952 -93.664570   0.000399   0.000868
1 46954U 20085AB  21116.56402243  .00221650  00000-0  44709-2 0  9992 | 2 46954  97.3513 255.8208 0008589 171.1543 188.9870 15.45664202 24079 | 2021/04/26-13:32:11  161.8604    0.1259  188.9716   93.1638     6807.5641     6801.7171     6813.4112 -23.846730 -94.385428   0.000336   0.000790
1 46954U 20085AB  21117.59970649  .00219004  00000-0  43543-2 0  9991 | 2 46954  97.3534 256.8737 0008125 166.8622 193.2665 15.46100149 24230 | 2021/04/27-14:23:34  174.6871    0.1074  193.2452   93.1376     6806.2844     6800.7543     6811.8145 -22.108797 -94.809734   0.000360   0.000729
1 46954U 20085AB  21118.69986299  .00194900  00000-0  38377-2 0  9997 | 2 46954  97.3523 257.9882 0007896 160.1158 200.0396 15.46477047 24407 | 2021/04/28-16:47:48  210.6867    0.1244  200.0086   93.1149     6805.1785     6799.8051     6810.5519 -20.260292 -95.220748   0.000417   0.000670
1 46954U 20085AB  21119.79979337  .00147572  00000-0  28986-2 0  9992 | 2 46954  97.3530 259.1005 0007267 163.0646 197.0821 15.46733102 24575 | 2021/04/29-19:11:42  246.6421    0.1223  197.0577   93.0994     6804.4275     6799.4827     6809.3722 -18.408174 -95.596787   0.000339   0.000643
1 46954U 20085AB  21120.96416365  .00153692  00000-0  29803-2 0  9999 | 2 46954  97.3524 260.2829 0006703 161.9493 198.1992 15.47087523 24757 | 2021/04/30-23:08:23  305.7789    0.1245  198.1752   93.0781     6803.3882     6798.8279     6807.9485 -16.431484 -95.955699   0.000312   0.000593
1 46954U 20085AB  21122.19295034  .00149084  00000-0  28583-2 0  9998 | 2 46954  97.3527 261.5314 0006422 159.7493 200.4011 15.47436577 24943 | 2021/05/02-04:37:50   28.1029    0.1248  200.3755   93.0571     6802.3651     6797.9966     6806.7335 -14.336877 -96.291236   0.000309   0.000563
1 46954U 20085AB  21123.22749667  .00150839  00000-0  28611-2 0  9991 | 2 46954  97.3521 262.5822 0006446 155.3659 204.7902 15.47740311 25103 | 2021/05/03-05:27:35   40.5027    0.1252  204.7593   93.0389     6801.4751     6797.0909     6805.8593 -12.568514 -96.537370   0.000342   0.000546
1 46954U 20085AB  21124.64964417  .00156585  00000-0  29227-2 0  9998 | 2 46954  97.3506 264.0275 0006522 149.7139 210.4381 15.48182495 25323 | 2021/05/04-15:35:29  192.4364    0.1142  210.4003   93.0123     6800.1800     6795.7449     6804.6150 -10.129438 -96.822176   0.000386   0.000526
1 46954U 20085AB  21125.87756895  .00155545  00000-0  28676-2 0  9995 | 2 46954  97.3499 265.2767 0006640 147.5425 212.6234 15.48542628 25518 | 2021/05/05-21:03:41  274.4365    0.1249  212.5824   92.9907     6799.1256     6794.6110     6803.6402  -8.016160 -97.019298   0.000401   0.000529
1 46954U 20085AB  21126.91149740  .00114492  00000-0  21128-2 0  9997 | 2 46954  97.3479 266.3293 0005499 150.3252 209.8305 15.48677103 25674 | 2021/05/06-21:52:33  286.6274    0.1244  209.7992   92.9826     6798.7320     6794.9934     6802.4706  -6.232406 -97.148190   0.000302   0.000459
1 46954U 20085AB  21127.94523130  .00118256  00000-0  21628-2 0  9997 | 2 46954  97.3484 267.3824 0005099 145.1124 215.0458 15.48922088 25838 | 2021/05/07-22:41:07  298.7349    0.1247  215.0123   92.9679     6798.0151     6794.5488     6801.4814  -4.445887 -97.246826   0.000310   0.000405
1 46954U 20085AB  21129.30176959  .00117938  00000-0  21339-2 0  9997 | 2 46954  97.3492 268.7643 0004846 141.6366 218.5238 15.49232998 26042 | 2021/05/09-07:14:32   67.0417    0.1258  218.4892   92.9492     6797.1056     6793.8117     6800.3995  -2.099371 -97.326561   0.000309   0.000373
1 46954U 20085AB  21130.65803574  .00118920  00000-0  21279-2 0  9992 | 2 46954  97.3487 270.1457 0004653 138.8097 221.3599 15.49546816 26253 | 2021/05/10-15:47:34  195.2437    0.1344  221.3247   92.9304     6796.1878     6793.0256     6799.3501   0.247552 -97.348385   0.000306   0.000351
1 46954U 20085AB  21131.88487914  .00121563  00000-0  21516-2 0  9995 | 2 46954  97.3467 271.3957 0004611 127.2900 232.8784 15.49847914 26445 | 2021/05/11-21:14:13  276.8677    0.1263  232.8363   92.9123     6795.3076     6792.1743     6798.4409   2.371088 -97.317819   0.000360   0.000288
1 46954U 20085AB  21132.91771954  .00155195  00000-0  26971-2 0  9998 | 2 46954  97.3453 272.4479 0003894 129.5914 230.5695 15.50246183 26600 | 2021/05/12-22:01:30  288.6636    0.1264  230.5350   92.8885     6794.1437     6791.4980     6796.7893   4.157707 -97.256470   0.000289   0.000261
1 46954U 20085AB  21134.20836336  .00233942  00000-0  39323-2 0  9990 | 2 46954  97.3512 273.7636 0002262 142.8094 217.3317 15.50905274 26809 | 2021/05/14-05:00:02   33.2716    0.1254  217.3160   92.8490     6792.2187     6790.6823     6793.7551   6.390131 -97.141250   0.000125   0.000189
1 46954U 20085AB  21135.56309202  .00207985  00000-0  34440-2 0  9990 | 2 46954  97.3503 275.1500 0002591 126.3756 233.7719 15.51423091 27017 | 2021/05/15-13:30:51  160.9164    0.1236  233.7480   92.8180     6790.7072     6788.9478     6792.4667   8.738501 -96.957308   0.000194   0.000172
1 46954U 20085AB  21136.59496833  .00196628  00000-0  32179-2 0  9999 | 2 46954  97.3504 276.2052 0002060 126.1213 234.0143 15.51796258 27179 | 2021/05/16-14:16:45  172.3656    0.1165  233.9952   92.7957     6789.6185     6788.2199     6791.0172  10.522564 -96.780039   0.000152   0.000139
1 46954U 20085AB  21137.94892978  .00199759  00000-0  32104-2 0  9995 | 2 46954  97.3490 277.5874 0001623 126.1079 234.0311 15.52293914 27385 | 2021/05/17-22:46:27  299.7407    0.1239  234.0160   92.7659     6788.1673     6787.0656     6789.2690  12.853807 -96.496671   0.000117   0.000112
1 46954U 20085AB  21139.36683474  .00219084  00000-0  34363-2 0  9995 | 2 46954  97.3487 279.0365 0001137  78.2935 281.8454 15.52904824 27603 | 2021/05/19-08:48:14   90.1350    0.1261  281.8326   92.7294     6786.3869     6785.6153     6787.1585  15.289941 -96.140455   0.000114  -0.000005
1 46954U 20085AB  21140.39770923  .00216873  00000-0  33515-2 0  9997 | 2 46954  97.3484 280.0931 0001302  57.5055 302.6324 15.53325501 27763 | 2021/05/20-09:32:42  101.2103    0.1253  302.6198   92.7043     6785.1616     6784.2781     6786.0450  17.060128 -95.841865   0.000120  -0.000050
1 46954U 20085AB  21141.55706748  .00229867  00000-0  34795-2 0  9998 | 2 46954  97.3458 281.2803 0000811  12.1000 348.0285 15.53853850 27949 | 2021/05/21-13:22:10  158.5442    0.1266  348.0266   92.6728     6783.6234     6783.0732     6784.1735  19.041711 -95.465271   0.000032  -0.000074
1 46954U 20085AB  21142.65165230  .00236059  00000-0  35041-2 0  9991 | 2 46954  97.3443 282.4045 0003017 153.5856 206.6174 15.54371008 28111 | 2021/05/22-15:38:22  192.4749    0.1875  206.6019   92.6420     6782.1186     6780.0725     6784.1648  20.910727 -95.071837   0.000073   0.000293
1 46954U 20085AB  21143.93894294  .00242033  00000-0  35134-2 0  9994 | 2 46954  97.3441 283.7253 0002574 206.6048 153.5071 15.54965816 28318 | 2021/05/23-22:32:04  295.9387    0.1251  153.5203   92.6065     6780.3890     6778.6437     6782.1343  23.096555 -94.564385  -0.000167   0.000196
1 46954U 20085AB  21144.96856278  .00194346  00000-0  28097-2 0  9991 | 2 46954  97.3449 284.7847 0002060 301.2279  58.8764 15.55245052 28471 | 2021/05/24-23:14:43  306.5649    0.1245   58.8966   92.5899     6779.5774     6778.1808     6780.9740  24.841209 -94.121963  -0.000143  -0.000148
1 46954U 20085AB  21146.12654838  .00188681  00000-0  26886-2 0  9998 | 2 46954  97.3449 285.9745 0002868 304.3509  55.7301 15.55659616 28655 | 2021/05/26-03:02:13    3.4145    0.1082   55.7573   92.5652     6778.3729     6776.4288     6780.3169  26.790242 -93.585856  -0.000183  -0.000221
1 46954U 20085AB  21147.21991254  .00193218  00000-0  27105-2 0  9992 | 2 46954  97.3461 287.0983 0003108 305.6470  54.4507 15.56070315 28822 | 2021/05/27-05:16:40   36.9628    0.1267   54.4797   92.5408     6777.1801     6775.0738     6779.2865  28.620918 -93.043572  -0.000188  -0.000247
1 46954U 20085AB  21148.63426006  .00289681  00000-0  38931-2 0  9996 | 2 46954  97.3466 288.5541 0003415 300.2535  59.8362 15.56901358 29040 | 2021/05/28-15:13:20  186.0742    0.1235   59.8700   92.4914     6774.7682     6772.4547     6777.0818  30.975683 -92.286877  -0.000225  -0.000257
1 46954U 20085AB  21149.85524136  .00251266  00000-0  33240-2 0  9990 | 2 46954  97.3487 289.8137 0005062 297.5694  62.5038 15.57453126 29230 | 2021/05/29-20:31:32  265.5878    0.1247   62.5553   92.4586     6773.1681     6769.7395     6776.5966  32.997596 -91.585632  -0.000343  -0.000373
1 46954U 20085AB  21150.88312241  .00261640  00000-0  33931-2 0  9991 | 2 46954  97.3493 290.8760 0004627 261.4727  98.7649 15.57954320 29392 | 2021/05/30-21:11:41  275.4114    0.2900   98.8173   92.4289     6771.7154     6768.5821     6774.8486  34.690097 -90.958691  -0.000452  -0.000099
1 46954U 20085AB  21151.91077048  .00195886  00000-0  25380-2 0  9996 | 2 46954  97.3458 291.9302 0004727 286.7902  73.2834 15.58201271 29556 | 2021/05/31-21:51:30  285.4874    0.1255   73.3353   92.4142     6770.9999     6767.7992     6774.2005  36.356396 -90.301812  -0.000369  -0.000296
1 46954U 20085AB  21152.93813772  .00202459  00000-0  25812-2 0  9996 | 2 46954  97.3456 292.9880 0004980 281.7701  78.2995 15.58608549 29719 | 2021/06/01-22:30:55  295.2984    0.1255   78.3554   92.3901     6769.8203     6766.4489     6773.1916  38.017188 -89.615062  -0.000409  -0.000284
1 46954U 20085AB  21154.54287580  .00205118  00000-0  25530-2 0  9999 | 2 46954  97.3442 294.6463 0005437 279.6996  80.3659 15.59237431 29967 | 2021/06/03-13:01:44  152.9316    0.1269   80.4273   92.3528     6767.9998     6764.3201     6771.6796  40.594030 -88.476087  -0.000449  -0.000307
1 46954U 20085AB  21155.63367065  .00242914  00000-0  29477-2 0  9996 | 2 46954  97.3423 295.7754 0006238 285.7487  74.3059 15.59779909 30133 | 2021/06/04-15:12:29  185.5747    0.1234   74.3747   92.3207     6766.4305     6762.2096     6770.6514  42.328764 -87.657282  -0.000467  -0.000414
1 46954U 20085AB  21156.65998488  .00240344  00000-0  28663-2 0  9999 | 2 46954  97.3415 296.8353 0006400 279.4849  80.5536 15.60245801 30291 | 2021/06/05-15:50:22  195.0156    0.1109   80.6260   92.2932     6765.0835     6760.7538     6769.4131  43.942618 -86.858586  -0.000516  -0.000379
1 46954U 20085AB  21157.87833969  .00241997  00000-0  28243-2 0  9995 | 2 46954  97.3414 298.0971 0007096 276.2963  83.7492 15.60803510 30488 | 2021/06/06-21:04:48  273.5554    0.1263   83.8300   92.2602     6763.4718     6758.6725     6768.2712  45.844610 -85.869785  -0.000586  -0.000401
1 46954U 20085AB  21158.90396475  .00248807  00000-0  28467-2 0  9991 | 2 46954  97.3413 299.1589 0007380 271.9524  88.0888 15.61299199 30643 | 2021/06/07-21:41:42  282.7339    0.1257   88.1733   92.2309     6762.0402     6757.0498     6767.0306  47.427929 -85.005413  -0.000632  -0.000381
1 46954U 20085AB  21160.18552213  .00258675  00000-0  28835-2 0  9991 | 2 46954  97.3395 300.4869 0006852 264.6014  95.4483 15.61949879 30847 | 2021/06/09-04:27:09   24.0212    0.1279   95.5265   92.1925     6760.1621     6755.5301     6764.7942  49.384353 -83.881845  -0.000621  -0.000291
1 46954U 20085AB  21161.33841678  .00277719  00000-0  30097-2 0  9998 | 2 46954  97.3409 301.6901 0008712 269.1106  90.9164 15.62605119 31026 | 2021/06/10-08:07:19   79.0191    0.1268   91.0162   92.1538     6758.2722     6752.3844     6764.1600  51.135573 -82.827556  -0.000748  -0.000446
1 46954U 20085AB  21162.61889725  .00285239  00000-0  30060-2 0  9991 | 2 46954  97.3419 303.0194 0008883 265.4816  94.5428 15.63300299 31220 | 2021/06/11-14:51:12  179.9275    0.1259   94.6443   92.1128     6756.2685     6750.2669     6762.2701  53.043837 -81.619831  -0.000781  -0.000424
1 46954U 20085AB  21163.64285352  .00295322  00000-0  30346-2 0  9992 | 2 46954  97.3414 304.0782 0010891 254.6870 105.3812 15.63894385 31380 | 2021/06/12-15:25:42  188.4584    0.1885  105.5015   92.0778     6754.5574     6747.2010     6761.9138  54.542712 -80.625311  -0.001031  -0.000350
1 46954U 20085AB  21164.66637646  .00313209  00000-0  31302-2 0  9990 | 2 46954  97.3440 305.1450 0011431 259.8337 100.1939 15.64541093 31546 | 2021/06/13-15:59:34  196.9093    0.1565  100.3228   92.0398     6752.6959     6744.9769     6760.4149  56.035845 -79.597980  -0.001036  -0.000483
1 46954U 20085AB  21165.88126164  .00316826  00000-0  30716-2 0  9999 | 2 46954  97.3406 306.4071 0010141 260.5061  99.4955 15.65315745 31734 | 2021/06/14-21:09:01  274.2293    0.1162   99.6101   91.9942     6750.4678     6743.6222     6757.3135  57.773459 -78.341687  -0.000904  -0.000459
1 46954U 20085AB  21166.96780441  .00324813  00000-0  30637-2 0  9990 | 2 46954  97.3405 307.5396 0010450 260.7052  99.3026 15.65980147 31901 | 2021/06/15-23:13:38  305.3169    0.1259   99.4207   91.9552     6748.5583     6741.5061     6755.6106  59.310502 -77.184437  -0.000921  -0.000495
1 46954U 20085AB  21168.11769834  .00360974  00000-0  32827-2 0  9993 | 2 46954  97.3416 308.7358 0009832 256.7203 103.3265 15.66792991 32089 | 2021/06/17-02:49:29  359.1769    0.1564  103.4361   91.9075     6746.2241     6739.5912     6752.8569  60.909576 -75.930301  -0.000888  -0.000423
1 46954U 20085AB  21169.20316504  .00373033  00000-0  32832-2 0  9992 | 2 46954  97.3416 309.8717 0010715 259.1502 100.8556 15.67560720 32259 | 2021/06/18-04:52:33   29.9199    0.1264  100.9762   91.8625     6744.0212     6736.7950     6751.2474  62.402841 -74.707915  -0.000937  -0.000520
1 46954U 20085AB  21170.60714374  .00372743  00000-0  31538-2 0  9994 | 2 46954  97.3405 311.3454 0012376 249.8571 110.1194 15.68514246 32479 | 2021/06/19-14:34:17  175.2917    0.1096  110.2525   91.8066     6741.2877     6732.9447     6749.6307  64.302818 -73.077497  -0.001154  -0.000448
1 46954U 20085AB  21172.64785334  .00369727  00000-0  29671-2 0  9997 | 2 46954  97.3379 313.4761 0008984 261.4708  98.5180 15.69857139 32796 | 2021/06/21-15:32:54  189.8156    0.0906   98.6198   91.7281     6737.4427     6731.3898     6743.4956  66.973531 -70.634361  -0.000736  -0.000515
1 46954U 20085AB  21173.92240606  .00363321  00000-0  28160-2 0  9993 | 2 46954  97.3362 314.8191 0012355 249.5878 110.4065 15.70677475 32995 | 2021/06/22-22:08:15  288.5623    0.1269  110.5391   91.6802     6735.0966     6726.7754     6743.4178  68.609437 -69.044051  -0.001125  -0.000511
1 46954U 20085AB  21174.94148050  .00384567  00000-0  28807-2 0  9999 | 2 46954  97.3363 315.8921 0011342 255.3122 104.6890 15.71451125 33153 | 2021/06/23-22:35:43  295.3537    0.1269  104.8147   91.6350     6732.8859     6725.2495     6740.5224  69.890416 -67.747214  -0.000970  -0.000588
1 46954U 20085AB  21175.95999516  .00424719  00000-0  30475-2 0  9990 | 2 46954  97.3396 316.9606 0013720 246.5018 113.4806 15.72330345 33313 | 2021/06/24-23:02:23  301.9731    0.1265  113.6247   91.5838     6730.3757     6721.1417     6739.6098  71.144009 -66.434386  -0.001259  -0.000546
1 46954U 20085AB  21177.35956822  .00461413  00000-0  31321-2 0  9992 | 2 46954  97.3354 318.4344 0012587 245.2843 114.7114 15.73558759 33537 | 2021/06/26-08:37:46   85.7118    0.1266  114.8423   91.5123     6726.8725     6718.4054     6735.3396  72.826013 -64.579811  -0.001152  -0.000506
1 46954U 20085AB  21178.37672149  .00493828  00000-0  32053-2 0  9990 | 2 46954  97.3368 319.5045 0012326 245.1036 114.8957 15.74523562 33694 | 2021/06/27-09:02:28   91.8159    0.1273  115.0237   91.4562     6724.1243     6715.8361     6732.4124  74.020448 -63.209381  -0.001121  -0.000513
1 46954U 20085AB  21179.64732410  .00517517  00000-0  31828-2 0  9990 | 2 46954  97.3368 320.8469 0011742 239.3174 120.6219 15.75718556 33896 | 2021/06/28-15:32:08  189.2028    0.0550  120.7376   91.3869     6720.7242     6712.8327     6728.6157  75.480949 -61.457945  -0.001102  -0.000405
1 46954U 20085AB  21180.85361126  .00475341  00000-0  28108-2 0  9992 | 2 46954  97.3368 322.1246 0013904 250.6657 109.3088 15.76698450 34089 | 2021/06/29-20:29:12  263.3422    0.1248  109.4591   91.3301     6717.9394     6708.5988     6727.2800  76.832585 -59.759573  -0.001169  -0.000753
1 46954U 20085AB  21181.86878717  .00483385  00000-0  27443-2 0  9991 | 2 46954  97.3348 323.1995 0014088 247.8880 112.0836 15.77600417 34246 | 2021/06/30-20:51:03  268.7341    0.1211  112.2331   91.2779     6715.3786     6705.9179     6724.8392  77.938519 -58.306522  -0.001206  -0.000727
1 46954U 20085AB  21182.94672304  .00616595  00000-0  32525-2 0  9993 | 2 46954  97.3320 324.3451 0014191 249.0029 111.4644 15.78912380 34415 | 2021/07/01-22:43:16  296.2122    0.6185  111.6156   91.2020     6711.6580     6702.1335     6721.1826  79.086397 -56.734998  -0.001185  -0.000780
1 46954U 20085AB  21183.96028179  .00647974  00000-0  32241-2 0  9991 | 2 46954  97.3323 325.4249 0015149 247.5452 112.4206 15.80115982 34570 | 2021/07/02-23:02:48  301.5141    0.1262  112.5810   91.1326     6708.2494     6698.0870     6718.4117  80.141768 -55.234714  -0.001271  -0.000824
1 46954U 20085AB  21184.97318955  .00647967  00000-0  30582-2 0  9995 | 2 46954  97.3366 326.5020 0015307 250.8516 109.0790 15.81274629 34733 | 2021/07/03-23:21:23  306.1173    0.0963  109.2447   91.0658     6704.9721     6694.7088     6715.2354  81.169486 -53.720836  -0.001217  -0.000929
1 46954U 20085AB  21186.36469111  .00689623  00000-0  29978-2 0  9993 | 2 46954  97.3344 327.9890 0014627 248.6304 111.3402 15.82970021 34953 | 2021/07/05-08:45:09   86.9024    0.1266  111.4962   90.9682     6700.1838     6690.3834     6709.9841  82.534349 -51.595220  -0.001174  -0.000872
1 46954U 20085AB  21187.56524694  .00729746  00000-0  29430-2 0  9998 | 2 46954  97.3315 329.2681 0014168 250.5846 109.3896 15.84484616 35145 | 2021/07/06-13:33:57  159.0032    0.1273  109.5427   90.8813     6695.9133     6686.4266     6705.4001  83.663032 -49.738496  -0.001088  -0.000908
1 46954U 20085AB  21188.89073332  .00717947  19702-3  28799-2 0  9992 | 2 46954  97.3311 330.6912 0014423 249.5607 110.3886 15.86319346 35354 | 2021/07/07-21:22:39  276.0865    0.1041  110.5434   90.7762     6690.7494     6681.0993     6700.3994  84.872145 -47.645168  -0.001101  -0.000932
1 46954U 20085AB  21189.89963017  .00738772  21311-3  27674-2 0  9990 | 2 46954  97.3321 331.7734 0014500 250.5631 109.4072 15.87721580 35516 | 2021/07/08-21:35:28  279.1806    0.1269  109.5638   90.6960     6686.8094     6677.1135     6696.5053  85.757753 -46.034177  -0.001072  -0.000977
1 46954U 20085AB  21190.90766640  .00731276  21216-3  25607-2 0  9997 | 2 46954  97.3300 332.8593 0015126 249.5321 110.4312 15.89064715 35675 | 2021/07/09-21:47:02  281.9883    0.1256  110.5935   90.6193     6683.0409     6672.9321     6693.1497  86.612895 -44.399722  -0.001117  -0.001020
1 46954U 20085AB  21191.91483795  .00733074  21713-3  23966-2 0  9992 | 2 46954  97.3280 333.9426 0015067 254.3650 105.6030 15.90431210 35833 | 2021/07/10-21:57:21  284.4748    0.1342  105.7692   90.5415     6679.2123     6669.1487     6689.2759  87.435040 -42.753402  -0.001002  -0.001125
1 46954U 20085AB  21193.17252349  .00734461  22325-3  21928-2 0  9998 | 2 46954  97.3331 335.3039 0015299 257.5955 102.3360 15.92196221 36031 | 2021/07/12-04:08:26   17.1564    0.1027  102.5072   90.4411     6674.2753     6664.0643     6684.4863  88.430686 -40.666278  -0.000923  -0.001220
1 46954U 20085AB  21194.50431279  .00806702  28133-3  21616-2 0  9992 | 2 46954  97.3287 336.7463 0015367 257.6050 175.5777 15.94272318 36241 | 2021/07/13-12:06:12   63.2196   73.1963  175.5913   90.3233     6668.4798     6658.2323     6678.7272  89.422273 -38.425681  -0.000896  -0.001249
1 46954U 20085AB  21195.65531250  .00912999  38007-3  21985-2 0  9995 | 2 46954  97.3272 337.9971 0015921 257.3943 301.3383 15.96271364 36420 | 2021/07/14-15:43:39  351.9133  198.5766  301.1823   90.2102     6662.9112     6652.3032     6673.5192  90.238363 -36.463978  -0.000904  -0.001310
1 46954U 20085AB  21197.06134420  .01548843  13872-2  30886-2 0  9996 | 2 46954  97.3287 339.5331 0016125 263.0631  98.6964 15.99929470 36656 | 2021/07/16-01:28:20  334.9077    1.9421   98.8790   90.0040     6652.7512     6642.0236     6663.4788  91.184762 -34.032557  -0.000742  -0.001432
1 46954U 20085AB  21198.18564913  .01691618  18680-2  27811-2 0  9999 | 2 46954  97.3251 340.7676 0015204 259.1032 100.7017 16.03419645 36839 | 2021/07/17-04:27:20   21.4857  359.9760  100.8728   89.8081     6643.0936     6632.9935     6653.1938  91.893410 -32.058949  -0.000763  -0.001315
1 46954U 20085AB  21199.25429584  .02154954  40895-2  28876-2 0  9995 | 2 46954  97.3269 341.9426 0017137 270.5582 140.2108 16.07298943 37008 | 2021/07/18-06:06:11  355.1127   50.8945  140.3363   89.5913     6632.4004     6621.0344     6643.7663  92.533206 -30.168383  -0.000515  -0.001634
1 46954U 20085AB  21200.43633767  .41203644  24981-5  62624-2 0  9992 | 2 46954  97.3079 343.2511 0018477 281.6218 155.9730 16.33687244 37193 | 2021/07/19-10:28:19   33.6786   77.6808  156.0590   88.1442     6560.7864     6548.6640     6572.9087  93.179797 -28.041985  -0.000165  -0.001840
