# SPACE DATA - HISTORICAL TLEs
# ----------------------------
# NORAD_ID    : 60396
# OBJECT_NAME : QIANFAN-18
# --------------------------------------------------------------------+-----------------------------------------------------------------------+----------------------------------------------------------------------------------------------------------------------------------------
#                  LINE 1                                             |                 LINE 2                                                |      DERIVED PARAMETERS
# --------------------------------------------------------------------+-----------------------------------------------------------------------+----------------------------------------------------------------------------------------------------------------------------------------
# NORAD  COSPAR     TLE_EPOCH      MEANMOT1 MEANMOT2   BSTAR  #  REV  |   NORAD    INC     RAAN     ECC    ARGPER  MEANANOM   MEANMOT     REV |  CAL_DATE              LONG     ARGLAT     PERIOD        SMA         PERIGEE        APOGEE      INC_X      INC_Y      ECC_X      ECC_Y
# ------ ------   -------------- ----------  -------  ------- -- ----     -----  ------- -------- ------- -------- -------- -----------  ----   ------------------- ---------  --------  --------  ------------  ------------   ----------- ---------- ----------  ---------  ---------   
1 60385U 24140G   24226.55039869  .00003579  00000-0  14740-2 0  9996 | 2 60385  88.9958 350.3489 0015101 189.8102 170.2799 14.26657174  1043 | 2024/08/13-13:12:34  170.1706    0.1193  170.3091  100.9353     7181.0634     7170.2192     7191.9075  87.736234 -14.919973  -0.001510  -0.000004
1 60385U 24140G   24227.88303277  .00002311  00000-0  94960-3 0  9996 | 2 60385  88.9959 350.1952 0015307 185.6625 174.4399 14.26664376  1234 | 2024/08/14-21:11:34  291.3738    0.1194  174.4569  100.9347     7181.0392     7170.0472     7192.0312  87.695993 -15.155294  -0.001527   0.000111
1 60385U 24140G   24229.63649017  .00002541  00000-0  10446-2 0  9997 | 2 60385  88.9962 349.9930 0015531 179.9719 180.1479 14.26673840  1485 | 2024/08/16-15:16:32  204.5315    0.1193  180.1474  100.9341     7181.0074     7169.8546     7192.1603  87.642259 -15.464736  -0.001529   0.000271
1 60385U 24140G   24230.82883582  .00002502  00000-0  10282-2 0  9992 | 2 60385  88.9966 349.8555 0015701 176.2041 183.9275 14.26679203  1651 | 2024/08/17-19:53:31  275.0769    0.1193  183.9152  100.9337     7180.9894     7169.7146     7192.2643  87.605288 -15.675088  -0.001524   0.000378
1 60385U 24140G   24231.88090139  .00002258  00000-0  92711-3 0  9993 | 2 60385  88.9969 349.7344 0015844 172.9136 187.2285 14.26683414  1809 | 2024/08/18-21:08:29  294.9681    0.1193  187.2057  100.9334     7180.9753     7169.5978     7192.3528  87.572257 -15.860268  -0.001512   0.000473
1 60385U 24140G   24233.14337562  .00002171  00000-0  89111-3 0  9992 | 2 60385  88.9972 349.5892 0016002 169.0646 191.0898 14.26688972  1985 | 2024/08/20-03:26:27   30.8361    0.1192  191.0546  100.9330     7180.9567     7169.4657     7192.4476  87.532077 -16.082198  -0.001490   0.000582
1 60385U 24140G   24234.54611939  .00002241  00000-0  92009-3 0  9998 | 2 60385  88.9974 349.4278 0016177 164.6950 195.4736 14.26695197  2185 | 2024/08/21-13:06:24  177.3536    0.1192  195.4242  100.9326     7180.9358     7169.3192     7192.5524  87.486623 -16.328745  -0.001455   0.000706
1 60385U 24140G   24235.59817353  .00002093  00000-0  85892-3 0  9999 | 2 60385  88.9969 349.3067 0016232 161.4944 198.6843 14.26698946  2330 | 2024/08/22-14:21:22  197.2411    0.1192  198.6248  100.9323     7180.9232     7169.2671     7192.5793  87.451424 -16.513527  -0.001417   0.000792
1 60385U 24140G   24236.86063506  .00001608  00000-0  65838-3 0  9992 | 2 60385  88.9969 349.1615 0016412 157.7366 202.4544 14.26702191  2513 | 2024/08/23-20:39:18  293.1045    0.1193  202.3827  100.9321     7180.9123     7169.1270     7192.6976  87.409295 -16.735095  -0.001375   0.000896
1 60385U 24140G   24237.91268312  .00001739  00000-0  71239-3 0  9998 | 2 60385  88.9970 349.0403 0016513 154.5997 205.6012 14.26706173  2661 | 2024/08/24-21:54:15  312.9900    0.1193  205.5196  100.9318     7180.8989     7169.0411     7192.7568  87.373797 -16.919976  -0.001330   0.000979
1 60385U 24140G   24239.03486523  .00001543  00000-0  63149-3 0  9993 | 2 60385  88.9970 348.9111 0016644 151.2606 208.9508 14.26709354  2829 | 2024/08/26-00:50:12  358.2003    0.1192  208.8586  100.9316     7180.8883     7168.9364     7192.8401  87.335421 -17.116958  -0.001278   0.001066
1 60385U 24140G   24240.22718049  .00001655  00000-0  67747-3 0  9999 | 2 60385  88.9970 348.7737 0016772 147.7175 212.5049 14.26713911  2997 | 2024/08/27-05:27:08   68.7354    0.1193  212.4018  100.9312     7180.8730     7168.8292     7192.9167  87.294122 -17.326346  -0.001216   0.001155
1 60385U 24140G   24241.48962652  .00002084  00000-0  85458-3 0  9995 | 2 60385  88.9971 348.6285 0016878 143.9789 216.2546 14.26720813  3174 | 2024/08/28-11:45:03  164.5944    0.1193  216.1404  100.9307     7180.8498     7168.7300     7192.9696  87.250031 -17.547532  -0.001143   0.001242
1 60385U 24140G   24242.54166339  .00002464  00000-0  10114-2 0  9999 | 2 60385  88.9970 348.5073 0017050 140.9633 219.2795 14.26724842  3327 | 2024/08/29-12:59:59  184.4765    0.1193  219.1560  100.9305     7180.8363     7168.5930     7193.0796  87.212619 -17.732037  -0.001084   0.001316
1 60385U 24140G   24243.59369582  .00002170  00000-0  89005-3 0  9990 | 2 60385  88.9973 348.3861 0017144 137.9275 222.3239 14.26728398  3479 | 2024/08/30-14:14:55  204.3578    0.1193  222.1918  100.9302     7180.8244     7168.5136     7193.1352  87.175208 -17.916541  -0.001015   0.001381
1 60385U 24140G   24244.85612883  .00002509  00000-0  10298-2 0  9998 | 2 60385  88.9975 348.2409 0017247 134.2118 226.0496 14.26735340  3659 | 2024/08/31-20:32:49  300.2132    0.1193  225.9075  100.9297     7180.8011     7168.4163     7193.1858  87.129720 -18.137445  -0.000925   0.001455
1 60385U 24140G   24245.90815220  .00002640  00000-0  10837-2 0  9990 | 2 60385  88.9978 348.1199 0017297 131.2339 229.0349 14.26740766  3809 | 2024/09/01-21:47:44  320.0921    0.1193  228.8854  100.9293     7180.7829     7168.3623     7193.2035  87.091516 -18.321471  -0.000848   0.001508
1 60385U 24140G   24247.17057565  .00002890  00000-0  11866-2 0  9991 | 2 60385  88.9979 347.9748 0017378 127.6765 232.6008 14.26747423  3987 | 2024/09/03-04:05:37   55.9454    0.1193  232.4428  100.9289     7180.7605     7168.2818     7193.2393  87.044936 -18.541990  -0.000752   0.001567
1 60385U 24140G   24248.57326049  .00003236  00000-0  13289-2 0  9998 | 2 60385  88.9980 347.8135 0017484 123.6388 236.6477 14.26756152  4189 | 2024/09/04-13:45:29  202.4466    0.1193  236.4805  100.9282     7180.7312     7168.1764     7193.2860  86.992489 -18.786988  -0.000639   0.001627
1 60385U 24140G   24249.83567020  .00002987  00000-0  12263-2 0  9997 | 2 60385  88.9978 347.6685 0017498 119.9406 240.3528 14.26762241  4363 | 2024/09/05-20:03:21  298.2965    0.1193  240.1787  100.9278     7180.7108     7168.1460     7193.2756  86.944470 -19.007039  -0.000529   0.001668
1 60385U 24140G   24251.16820607  .00003133  00000-0  12863-2 0  9999 | 2 60385  88.9975 347.5153 0017553 116.2479 244.0521 14.26770639  4556 | 2024/09/07-04:02:13   59.4694    0.1193  243.8714  100.9272     7180.6826     7168.0784     7193.2869  86.893045 -19.239382  -0.000418   0.001705
1 60385U 24140G   24252.50073441  .00003001  00000-0  12315-2 0  9990 | 2 60385  88.9973 347.3620 0017567 112.4466 247.8591 14.26778218  4740 | 2024/09/08-12:01:03  180.6406    0.1194  247.6728  100.9267     7180.6572     7168.0429     7193.2715  86.841062 -19.471759  -0.000299   0.001731
1 60385U 24140G   24253.55272506  .00003187  00000-0  13082-2 0  9996 | 2 60385  88.9971 347.2408 0017603 109.3924 250.9175 14.26784876  4892 | 2024/09/09-13:15:55  200.5112    0.1194  250.7270  100.9262     7180.6349     7167.9948     7193.2749  86.799483 -19.655369  -0.000203   0.001749
1 60385U 24140G   24254.88523943  .00002954  00000-0  12118-2 0  9997 | 2 60385  88.9970 347.0873 0017595 105.6056 254.7081 14.26792389  5088 | 2024/09/10-21:14:44  321.6794    0.1193  254.5137  100.9257     7180.6097     7167.9754     7193.2439  86.746416 -19.887819  -0.000083   0.001758
1 60385U 24140G   24255.93721987  .00002892  00000-0  11861-2 0  9997 | 2 60385  88.9969 346.9662 0017597 102.6793 257.6370 14.26798132  5239 | 2024/09/11-22:29:35  341.5478    0.1194  257.4401  100.9253     7180.5904     7167.9547     7193.2261  86.704090 -20.071099   0.000011   0.001760
1 60385U 24140G   24257.05932623  .00005085  00000-0  20893-2 0  9995 | 2 60385  88.9971 346.8369 0017502  99.1208 261.1967 14.26808610  5394 | 2024/09/13-01:25:25   26.7402    0.1194  260.9986  100.9245     7180.5552     7167.9878     7193.1226  86.658769 -20.266759   0.000123   0.001746
1 60385U 24140G   24258.18142538  .00004378  00000-0  17980-2 0  9995 | 2 60385  88.9971 346.7073 0017574  96.0862 264.2335 14.26816880  5555 | 2024/09/14-04:21:15   71.9293    0.1194  264.0332  100.9240     7180.5275     7167.9084     7193.1465  86.612705 -20.462724   0.000220   0.001744
1 60385U 24140G   24259.51391283  .00002953  00000-0  12110-2 0  9993 | 2 60385  88.9974 346.5545 0017553  92.5602 267.7602 14.26821229  5749 | 2024/09/15-12:20:02  193.0902    0.1194  267.5592  100.9236     7180.5129     7167.9089     7193.1168  86.558118 -20.693705   0.000331   0.001724
1 60385U 24140G   24260.56587197  .00002213  00000-0  90589-3 0  9997 | 2 60385  88.9975 346.4335 0017510  89.5679 270.7521 14.26824702  5898 | 2024/09/16-13:34:51  212.9538    0.1194  270.5515  100.9234     7180.5012     7167.9282     7193.0743  86.514320 -20.876480   0.000424   0.001699
1 60385U 24140G   24261.82821829  .00002482  00000-0  10167-2 0  9991 | 2 60385  88.9976 346.2882 0017478  85.9785 274.3406 14.26831119  6078 | 2024/09/17-19:52:38  308.7889    0.1194  274.1409  100.9229     7180.4797     7167.9297     7193.0298  86.461197 -21.095834   0.000532   0.001665
1 60385U 24140G   24262.88017048  .00001758  00000-0  71834-3 0  9992 | 2 60385  88.9973 346.1672 0017422  82.9632 277.3543 14.26833548  6228 | 2024/09/18-21:07:26  328.6511    0.1194  277.1562  100.9228     7180.4716     7167.9617     7192.9814  86.416162 -21.278308   0.000621   0.001628
1 60385U 24140G   24264.21263966  .00001872  00000-0  76539-3 0  9997 | 2 60385  88.9967 346.0135 0017342  78.9449 281.3694 14.26838442  6417 | 2024/09/20-05:06:12   89.8102    0.1194  281.1745  100.9224     7180.4551     7168.0028     7192.9075  86.358188 -21.509903   0.000734   0.001571
1 60385U 24140G   24265.47497498  .00001713  00000-0  69955-3 0  9993 | 2 60385  88.9966 345.8682 0017261  75.3570 284.9536 14.26842207  6593 | 2024/09/21-11:23:57  185.6442    0.1194  284.7624  100.9222     7180.4425     7168.0484     7192.8367  86.303265 -21.728811   0.000831   0.001513
1 60385U 24140G   24266.52691940  .00001371  00000-0  55870-3 0  9999 | 2 60385  88.9965 345.7470 0017185  72.3594 287.9474 14.26843633  6749 | 2024/09/22-12:38:45  205.5060    0.1193  287.7599  100.9221     7180.4377     7168.0981     7192.7773  86.257012 -21.911298   0.000908   0.001459
1 60385U 24140G   24267.57886072  .00001568  00000-0  63997-3 0  9994 | 2 60385  88.9964 345.6259 0017111  69.3008 291.0019 14.26847944  6893 | 2024/09/23-13:53:33  225.3669    0.1195  290.8187  100.9218     7180.4233     7168.1368     7192.7097  86.210410 -22.093536   0.000983   0.001400
1 60385U 24140G   24268.70093036  .00001528  00000-0  62328-3 0  9993 | 2 60385  88.9963 345.4966 0017024  66.0354 294.2620 14.26850498  7056 | 2024/09/24-16:49:20  270.5526    0.1194  294.0840  100.9216     7180.4147     7168.1908     7192.6386  86.160235 -22.288007   0.001059   0.001333
1 60385U 24140G   24269.82299552  .00001744  00000-0  71216-3 0  9994 | 2 60385  88.9962 345.3674 0016938  62.7522 297.5395 14.26854998  7215 | 2024/09/25-19:45:06  315.7369    0.1194  297.3672  100.9213     7180.3996     7168.2374     7192.5618  86.109661 -22.482213   0.001131   0.001261
1 60385U 24140G   24270.87492917  .00001843  00000-0  75291-3 0  9998 | 2 60385  88.9961 345.2462 0016856  59.6606 300.6252 14.26858818  7364 | 2024/09/26-20:59:53  335.5969    0.1194  300.4588  100.9210     7180.3868     7168.2835     7192.4900  86.061814 -22.664288   0.001194   0.001190
1 60385U 24140G   24272.06711738  .00001796  00000-0  73379-3 0  9998 | 2 60385  88.9960 345.1088 0016739  56.1649 304.1136 14.26862465  7537 | 2024/09/28-01:36:38   46.1045    0.1195  303.9546  100.9207     7180.3745     7168.3553     7192.3938  86.007119 -22.870581   0.001258   0.001104
1 60385U 24140G   24273.18917271  .00001811  00000-0  73996-3 0  9995 | 2 60385  88.9959 344.9795 0016619  52.8337 307.4371 14.26866775  7693 | 2024/09/29-04:32:24   91.2873    0.1194  307.2857  100.9204     7180.3601     7168.4271     7192.2931  85.955191 -23.064589   0.001313   0.001019
1 60385U 24140G   24274.52160807  .00002125  00000-0  86898-3 0  9993 | 2 60385  88.9963 344.8259 0016447  49.1181 311.1435 14.26873196  7886 | 2024/09/30-12:31:06  212.4402    0.1195  311.0014  100.9200     7180.3385     7168.5290     7192.1481  85.893437 -23.295042   0.001364   0.000918
1 60385U 24140G   24275.57352675  .00002170  00000-0  88762-3 0  9997 | 2 60385  88.9961 344.7048 0016336  45.9009 314.3526 14.26878068  8036 | 2024/10/01-13:45:52  232.2969    0.1195  314.2186  100.9196     7180.3222     7168.5924     7192.0520  85.843816 -23.476481   0.001406   0.000832
1 60385U 24140G   24276.83582395  .00003514  00000-0  14403-2 0  9994 | 2 60385  88.9958 344.5593 0016202  42.0204 318.2229 14.26888073  8212 | 2024/10/02-20:03:35  328.1238    0.1194  318.0990  100.9189     7180.2886     7168.6551     7191.9221  85.783632 -23.694321   0.001449   0.000725
1 60385U 24140G   24277.88773452  .00003985  00000-0  16339-2 0  9998 | 2 60385  88.9955 344.4381 0016098  38.7771 321.4575 14.26894228  8362 | 2024/10/03-21:18:20  347.9783    0.1195  321.3424  100.9185     7180.2680     7168.7092     7191.8268  85.733030 -23.875649   0.001479   0.000635
1 60385U 24140G   24279.15002017  .00003659  00000-0  14998-2 0  9999 | 2 60385  88.9950 344.2926 0015898  34.9101 325.3133 14.26900204  8547 | 2024/10/05-03:36:01   83.8020    0.1196  325.2095  100.9181     7180.2479     7168.8328     7191.6631  85.671641 -24.093152   0.001501   0.000523
1 60385U 24140G   24280.48242607  .00002867  00000-0  11740-2 0  9990 | 2 60385  88.9947 344.1388 0015741  30.8031 329.4083 14.26905504  8736 | 2024/10/06-11:34:41  204.9472    0.1194  329.3163  100.9177     7180.2302     7168.9278     7191.5326  85.606370 -24.322952   0.001521   0.000406
1 60385U 24140G   24281.53431949  .00003494  00000-0  14316-2 0  9995 | 2 60385  88.9944 344.0174 0015624  27.5790 332.6230 14.26913085  8889 | 2024/10/07-12:49:25  224.7965    0.1195  332.5405  100.9171     7180.2047     7168.9864     7191.4231  85.554353 -24.504200   0.001531   0.000314
1 60385U 24140G   24282.58620531  .00005853  00000-0  24009-2 0  9999 | 2 60385  88.9942 343.8959 0015468  24.1530 336.0386 14.26927312  9032 | 2024/10/08-14:04:08  244.6440    0.1195  335.9665  100.9161     7180.1570     7169.0507     7191.2633  85.502006 -24.685514   0.001532   0.000217
1 60385U 24140G   24283.84846619  .00002720  00000-0  11129-2 0  9995 | 2 60385  88.9943 343.7501 0015306  20.0700 340.1093 14.26927476  9212 | 2024/10/09-20:21:47  340.4602    0.1195  340.0495  100.9161     7180.1565     7169.1665     7191.1464  85.439008 -24.903038   0.001527   0.000102
1 60385U 24140G   24285.18083972  .00023272  00000-0  95313-2 0  9991 | 2 60385  88.9943 343.5961 0015183  15.7790 344.3874 14.26977084  9407 | 2024/10/11-04:20:24  101.5948    0.1195  344.3405  100.9126     7179.9900     7169.0887     7190.8914  85.371765 -25.132591   0.001518  -0.000017
1 60385U 24140G   24286.51321056  .00002722  00000-0  11137-2 0  9996 | 2 60385  88.9944 343.4422 0014938  11.4866 348.6666 14.26945542  9593 | 2024/10/12-12:19:01  222.7287    0.1195  348.6329  100.9149     7180.0959     7169.3702     7190.8215  85.304045 -25.361843   0.001488  -0.000132
1 60385U 24140G   24287.84557290  .00001553  00000-0  63292-3 0  9995 | 2 60385  88.9943 343.2884 0014760   6.9765 353.1631 14.26949156  9781 | 2024/10/13-20:17:37  343.8598    0.1194  353.1429  100.9146     7180.0837     7169.4859     7190.6815  85.235563 -25.590705   0.001455  -0.000250
1 60385U 24140G   24288.89743704  .00001654  00000-0  67449-3 0  9998 | 2 60385  88.9936 343.1669 0014680   3.3545 356.7744 14.26951318  9935 | 2024/10/14-21:32:18    3.6998    0.1194  356.7649  100.9144     7180.0765     7169.5361     7190.6168  85.180435 -25.771193   0.001428  -0.000342
1 60385U 24140G   24290.15967037  .00002049  00000-0  83677-3 0  9997 | 2 60385  88.9934 343.0210 0014532 359.1500   0.9667 14.26957965 10111 | 2024/10/16-03:49:55   99.5060    0.1195    0.9695  100.9140     7180.0542     7169.6201     7190.4882  85.114342 -25.987958   0.001383  -0.000445
1 60385U 24140G   24291.21152880  .00002037  00000-0  83155-3 0  9995 | 2 60385  88.9932 342.8993 0014393 355.5878   4.5186 14.26961342 10263 | 2024/10/17-05:04:36  119.3438    0.1194    4.5316  100.9137     7180.0429     7169.7086     7190.3771  85.058759 -26.168629   0.001339  -0.000528
1 60385U 24140G   24292.40363178  .00002238  00000-0  91410-3 0  9997 | 2 60385  88.9930 342.7614 0014238 351.4513   8.6436 14.26966169 10433 | 2024/10/18-09:41:13  189.8253    0.1195    8.6682  100.9134     7180.0267     7169.8037     7190.2496  84.995339 -26.373214   0.001282  -0.000619
1 60385U 24140G   24293.80610394  .00001802  00000-0  73495-3 0  9996 | 2 60385  88.9927 342.5993 0014044 346.5855  13.4963 14.26967531 10631 | 2024/10/19-19:20:47  336.2728    0.1194   13.5339  100.9133     7180.0221     7169.9385     7190.1057  84.920098 -26.613485   0.001206  -0.000719
1 60385U 24140G   24294.85795709  .00001675  00000-0  68265-3 0  9993 | 2 60385  88.9925 342.4778 0013918 342.9015  17.1708 14.26969191 10784 | 2024/10/20-20:35:27  356.1077    0.1195   17.2180  100.9132     7180.0165     7170.0234     7190.0097  84.863281 -26.793444   0.001145  -0.000791
1 60385U 24140G   24295.90980888  .00001203  00000-0  48860-3 0  9990 | 2 60385  88.9923 342.3561 0013797 339.1793  20.8837 14.26968965 10936 | 2024/10/21-21:50:07   15.9421    0.1194   20.9401  100.9132     7180.0173     7170.1110     7189.9236  84.805988 -26.973578   0.001080  -0.000858
1 60385U 24140G   24297.38239824  .00001009  00000-0  40879-3 0  9997 | 2 60385  88.9921 342.1857 0013650 333.8496  26.2007 14.26971076 11149 | 2024/10/23-09:10:39  187.7088    0.1195   26.2699  100.9130     7180.0102     7170.2095     7189.8109  84.725202 -27.225614   0.000982  -0.000948
1 60385U 24140G   24298.50436716  .00001428  00000-0  58111-3 0  9994 | 2 60385  88.9919 342.0557 0013520 329.9431  30.0985 14.26976171 11300 | 2024/10/24-12:06:17  232.8622    0.1194   30.1763  100.9127     7179.9931     7170.2858     7189.7005  84.663020 -27.417717   0.000905  -0.001005
1 60385U 24140G   24299.83670348  .00001445  00000-0  58815-3 0  9992 | 2 60385  88.9918 341.9015 0013373 324.9744  35.0569 14.26979205 11498 | 2024/10/25-20:04:51  353.9810    0.1194   35.1450  100.9125     7179.9829     7170.3811     7189.5847  84.588830 -27.645440   0.000802  -0.001070
1 60385U 24140G   24300.88854565  .00001383  00000-0  56277-3 0  9996 | 2 60385  88.9917 341.7798 0013307 321.0849  38.9386 14.26981914 11640 | 2024/10/26-21:19:30   13.8104    0.1195   39.0346  100.9123     7179.9738     7170.4195     7189.5282  84.529823 -27.825019   0.000722  -0.001118
1 60385U 24140G   24302.15075220  .00001818  00000-0  74143-3 0  9996 | 2 60385  88.9915 341.6337 0013199 316.4475  43.5676 14.26987852 11829 | 2024/10/28-03:37:04  109.6034    0.1195   43.6720  100.9119     7179.9539     7170.4771     7189.4307  84.458407 -28.040410   0.000621  -0.001165
1 60385U 24140G   24303.48307705  .00001855  00000-0  75678-3 0  9994 | 2 60385  88.9912 341.4793 0013081 311.5139  48.4932 14.26992379 12014 | 2024/10/29-11:35:37  230.7159    0.1195   48.6056  100.9115     7179.9387     7170.5467     7189.3308  84.382253 -28.267810   0.000511  -0.001204
1 60385U 24140G   24304.53490923  .00001971  00000-0  80438-3 0  9995 | 2 60385  88.9913 341.3576 0012973 307.5032  52.4982 14.26996525 12162 | 2024/10/30-12:50:16  250.5396    0.1195   52.6163  100.9112     7179.9248     7170.6103     7189.2393  84.322115 -28.447011   0.000419  -0.001228
1 60385U 24140G   24305.79710316  .00001854  00000-0  75593-3 0  9991 | 2 60385  88.9908 341.2110 0012966 302.8168  57.1777 14.27001032 12344 | 2024/10/31-19:07:49  346.3270    0.1195   57.3027  100.9109     7179.9097     7170.6002     7189.2192  84.248579 -28.662508   0.000314  -0.001258
1 60385U 24140G   24306.84892819  .00001901  00000-0  77524-3 0  9996 | 2 60385  88.9906 341.0891 0012881 298.7531  61.2369 14.27005474 12492 | 2024/11/01-20:22:27    6.1472    0.1195   61.3664  100.9106     7179.8948     7170.6464     7189.1432  84.187218 -28.841622   0.000220  -0.001269
1 60385U 24140G   24307.90075028  .00002066  00000-0  84301-3 0  9993 | 2 60385  88.9903 340.9675 0012789 294.5123  65.4737 14.27010414 12647 | 2024/11/02-21:37:04   25.9654    0.1194   65.6071  100.9103     7179.8782     7170.6959     7189.0606  84.125534 -29.020131   0.000122  -0.001273
1 60385U 24140G   24309.30317466  .00002100  00000-0  85710-3 0  9998 | 2 60385  88.9901 340.8048 0012749 289.2171  70.7644 14.27016373 12846 | 2024/11/04-07:16:34  172.3877    0.1195   70.9024  100.9098     7179.8583     7170.7047     7189.0119  84.042599 -29.258835   0.000000  -0.001275
1 60385U 24140G   24310.49523156  .00001737  00000-0  70774-3 0  9994 | 2 60385  88.9901 340.6665 0012779 284.8246  75.1532 14.27019335 13012 | 2024/11/05-11:53:08  242.8451    0.1194   75.2948  100.9096     7179.8483     7170.6732     7189.0235  83.971730 -29.461611  -0.000100  -0.001274
1 60385U 24140G   24311.54704364  .00001758  00000-0  71652-3 0  9992 | 2 60385  88.9900 340.5446 0012760 280.7658  79.2100 14.27023582 13160 | 2024/11/06-13:07:44  262.6581    0.1195   79.3537  100.9093     7179.8341     7170.6726     7188.9955  83.908764 -29.640165  -0.000193  -0.001261
1 60385U 24140G   24312.80921496  .00001587  00000-0  64598-3 0  9990 | 2 60385  88.9899 340.3982 0012749 275.9103  84.0638 14.27027287 13344 | 2024/11/07-19:25:16  358.4319    0.1194   84.2091  100.9091     7179.8216     7170.6681     7188.9752  83.832661 -29.854435  -0.000302  -0.001239
1 60385U 24140G   24314.07138335  .00001469  00000-0  59767-3 0  9994 | 2 60385  88.9897 340.2517 0012758 270.9883  88.9849 14.27031026 13528 | 2024/11/09-01:42:47   94.2040    0.1194   89.1311  100.9088     7179.8091     7170.6491     7188.9691  83.755863 -30.068622  -0.000410  -0.001208
1 60385U 24140G   24315.12318710  .00001616  00000-0  65768-3 0  9990 | 2 60385  88.9896 340.1296 0012773 266.9556  93.0176 14.27035437 13675 | 2024/11/10-02:57:23  114.0122    0.1194   93.1638  100.9085     7179.7943     7170.6236     7188.9651  83.691502 -30.247008  -0.000497  -0.001177
1 60385U 24140G   24316.45547108  .00001257  00000-0  51034-3 0  9994 | 2 60385  88.9895 339.9750 0012806 261.8516  98.1225 14.27037079 13868 | 2024/11/11-10:55:52  235.1013    0.1193   98.2677  100.9084     7179.7888     7170.5944     7188.9832  83.609488 -30.472686  -0.000605  -0.001129
1 60385U 24140G   24317.57739249  .00001081  00000-0  43798-3 0  9990 | 2 60385  88.9893 339.8447 0012840 257.5998 102.3759 14.27038891 14024 | 2024/11/12-13:51:26  280.2275    0.1194  102.5196  100.9083     7179.7827     7170.5639     7189.0016  83.539784 -30.662680  -0.000691  -0.001082
1 60385U 24140G   24318.62919251  .00000934  00000-0  37757-3 0  9994 | 2 60385  88.9892 339.7225 0012886 253.6185 106.3593 14.27040454 14175 | 2024/11/13-15:06:02  300.0323    0.1194  106.5009  100.9081     7179.7775     7170.5256     7189.0293  83.474104 -30.840748  -0.000769  -0.001034
1 60385U 24140G   24320.10171036  .00000761  00000-0  30681-3 0  9998 | 2 60385  88.9889 339.5515 0012964 248.0072 111.9744 14.27042481 14386 | 2024/11/15-02:26:27  111.7573    0.1193  112.1121  100.9080     7179.7707     7170.4628     7189.0785  83.381406 -31.089635  -0.000875  -0.000957
1 60385U 24140G   24321.29374759  .00000602  00000-0  24121-3 0  9992 | 2 60385  88.9888 339.4131 0013035 243.5205 116.4652 14.27043569 14551 | 2024/11/16-07:02:59  182.1999    0.1193  116.5988  100.9079     7179.7670     7170.4082     7189.1259  83.305971 -31.290920  -0.000954  -0.000888
1 60385U 24140G   24322.76626333  .00000510  00000-0  20354-3 0  9995 | 2 60385  88.9886 339.2420 0013135 237.9860 122.0058 14.27044966 14761 | 2024/11/17-18:23:25  353.9220    0.1193  122.1333  100.9078     7179.7624     7170.3317     7189.1930  83.211970 -31.539482  -0.001046  -0.000795
1 60385U 24140G   24323.81805957  .00000478  00000-0  19014-3 0  9997 | 2 60385  88.9885 339.1197 0013215 234.0831 125.9137 14.27045896 14915 | 2024/11/18-19:38:00   13.7226    0.1193  126.0362  100.9078     7179.7592     7170.2712     7189.2473  83.144365 -31.716994  -0.001106  -0.000724
1 60385U 24140G   24324.86985499  .00000540  00000-0  21585-3 0  9999 | 2 60385  88.9884 338.9975 0013299 230.2366 129.7657 14.27047394 15069 | 2024/11/19-20:52:35   33.5224    0.1193  129.8827  100.9077     7179.7542     7170.2059     7189.3026  83.076437 -31.894215  -0.001161  -0.000649
1 60385U 24140G   24326.13200886  .00000504  00000-0  20107-3 0  9990 | 2 60385  88.9883 338.8508 0013407 225.6102 134.3995 14.27048409 15241 | 2024/11/21-03:10:05  129.2811    0.1193  134.5091  100.9076     7179.7508     7170.1249     7189.3767  82.994409 -32.106783  -0.001220  -0.000555
1 60385U 24140G   24327.46428105  .00000612  00000-0  24515-3 0  9990 | 2 60385  88.9883 338.6959 0013535 220.7888 139.2294 14.27050310 15439 | 2024/11/22-11:08:33  250.3587    0.1194  139.3306  100.9074     7179.7444     7170.0266     7189.4622  82.907305 -32.331042  -0.001276  -0.000451
1 60385U 24140G   24328.51607402  .00000589  00000-0  23573-3 0  9992 | 2 60385  88.9883 338.5737 0013639 217.0039 143.0216 14.27051308 15585 | 2024/11/23-12:23:08  270.1557    0.1194  143.1155  100.9074     7179.7411     7169.9486     7189.5335  82.838161 -32.507793  -0.001314  -0.000366
1 60385U 24140G   24329.56786602  .00000612  00000-0  24521-3 0  9999 | 2 60385  88.9882 338.4514 0013752 213.2639 146.7692 14.27052651 15733 | 2024/11/24-13:37:43  289.9522    0.1193  146.8554  100.9073     7179.7366     7169.8630     7189.6101  82.768490 -32.684503  -0.001347  -0.000279
1 60385U 24140G   24330.68977631  .00000687  00000-0  27613-3 0  9995 | 2 60385  88.9881 338.3210 0013839 209.3607 150.6811 14.27054417 15897 | 2024/11/25-16:33:16  335.0675    0.1193  150.7586  100.9072     7179.7307     7169.7946     7189.6667  82.693796 -32.872755  -0.001371  -0.000185
1 60385U 24140G   24331.81168532  .00000709  00000-0  28507-3 0  9991 | 2 60385  88.9881 338.1906 0013960 205.4323 154.6186 14.27056081 16051 | 2024/11/26-19:28:49   20.1818    0.1194  154.6871  100.9070     7179.7251     7169.7022     7189.7480  82.618767 -33.060873  -0.001393  -0.000088
1 60385U 24140G   24332.86347368  .00000751  00000-0  30230-3 0  9996 | 2 60385  88.9879 338.0683 0014095 201.7510 158.3087 14.27057884 16206 | 2024/11/27-20:43:24   39.9758    0.1193  158.3683  100.9069     7179.7190     7169.5992     7189.8388  82.547823 -33.237076  -0.001409   0.000004
1 60385U 24140G   24333.91526077  .00000814  00000-0  32832-3 0  9999 | 2 60385  88.9878 337.9460 0014230 198.1086 161.9603 14.27059874 16355 | 2024/11/28-21:57:58   59.7690    0.1193  162.0107  100.9068     7179.7123     7169.4956     7189.9291  82.476597 -33.413164  -0.001420   0.000098
1 60385U 24140G   24334.96704659  .00000795  00000-0  32029-3 0  9995 | 2 60385  88.9877 337.8237 0014342 194.5045 165.5739 14.27061502 16502 | 2024/11/29-23:12:32   79.5613    0.1193  165.6148  100.9067     7179.7069     7169.4098     7190.0040  82.404995 -33.589099  -0.001421   0.000191
1 60385U 24140G   24336.15906903  .00000777  00000-0  31295-3 0  9998 | 2 60385  88.9877 337.6851 0014487 190.4467 169.6428 14.27063341 16676 | 2024/12/01-03:49:03  149.9918    0.1193  169.6726  100.9065     7179.7007     7169.2995     7190.1020  82.323501 -33.788341  -0.001418   0.000298
1 60385U 24140G   24337.49132755  .00000823  00000-0  33172-3 0  9990 | 2 60385  88.9877 337.5301 0014638 185.9618 174.1404 14.27065804 16862 | 2024/12/02-11:47:30  271.0603    0.1193  174.1575  100.9063     7179.6925     7169.1828     7190.2021  82.231793 -34.010923  -0.001403   0.000416
1 60385U 24140G   24338.54310924  .00000728  00000-0  29273-3 0  9994 | 2 60385  88.9877 337.4078 0014748 182.4688 177.6435 14.27067057 17015 | 2024/12/03-13:02:04  290.8506    0.1192  177.6504  100.9063     7179.6883     7169.0997     7190.2769  82.159009 -34.186372  -0.001385   0.000507
1 60385U 24140G   24339.80524571  .00000707  00000-0  28427-3 0  9996 | 2 60385  88.9877 337.2610 0014912 178.3246 181.8001 14.27068921 17198 | 2024/12/04-19:19:33   26.5982    0.1193  181.7947  100.9061     7179.6820     7168.9757     7190.3883  82.071149 -34.396763  -0.001358   0.000616
1 60385U 24140G   24340.92714331  .00000705  00000-0  28340-3 0  9998 | 2 60385  88.9878 337.1306 0015040 174.6415 185.4943 14.27070689 17357 | 2024/12/05-22:15:05   71.7064    0.1193  185.4778  100.9060     7179.6761     7168.8778     7190.4743  81.992744 -34.583499  -0.001325   0.000711
1 60385U 24140G   24342.11915824  .00000706  00000-0  28366-3 0  9990 | 2 60385  88.9878 336.9919 0015191 170.7312 189.4166 14.27072464 17527 | 2024/12/07-02:51:35  142.1334    0.1194  189.3882  100.9059     7179.6701     7168.7635     7190.5768  81.908785 -34.781883  -0.001284   0.000811
1 60385U 24140G   24343.45140847  .00000754  00000-0  30330-3 0  9990 | 2 60385  88.9879 336.8369 0015341 166.4377 193.7232 14.27074745 17713 | 2024/12/08-10:50:01  263.1985    0.1193  193.6816  100.9057     7179.6625     7168.6481     7190.6768  81.814484 -35.003380  -0.001230   0.000917
1 60385U 24140G   24344.57330189  .00000775  00000-0  31177-3 0  9997 | 2 60385  88.9879 336.7064 0015468 162.8407 197.3313 14.27076522 17870 | 2024/12/09-13:45:33  308.3053    0.1193  197.2786  100.9056     7179.6565     7168.5510     7190.7620  81.734546 -35.189634  -0.001177   0.001004
1 60385U 24140G   24345.76531220  .00000732  00000-0  29420-3 0  9999 | 2 60385  88.9878 336.5677 0015621 159.1033 201.0803 14.27078072 18041 | 2024/12/10-18:22:02   18.7310    0.1193  201.0160  100.9055     7179.6513     7168.4360     7190.8666  81.649029 -35.387352  -0.001117   0.001092
1 60385U 24140G   24346.81708493  .00000695  00000-0  27901-3 0  9994 | 2 60385  88.9878 336.4454 0015741 155.7626 204.4311 14.27079370 18195 | 2024/12/11-19:36:36   38.5181    0.1192  204.3566  100.9054     7179.6470     7168.3455     7190.9484  81.573307 -35.561554  -0.001058   0.001166
1 60385U 24140G   24347.93897467  .00000598  00000-0  23941-3 0  9990 | 2 60385  88.9879 336.3149 0015865 152.2471 207.9573 14.27080450 18350 | 2024/12/12-22:32:07   83.6240    0.1193  207.8722  100.9053     7179.6433     7168.2528     7191.0338  81.492190 -35.747297  -0.000989   0.001241
1 60385U 24140G   24349.20109932  .00000617  00000-0  24700-3 0  9991 | 2 60385  88.9879 336.1682 0016008 148.3763 211.8396 14.27082237 18532 | 2024/12/14-04:49:34  179.3681    0.1193  211.7430  100.9052     7179.6373     7168.1442     7191.1305  81.400396 -35.955832  -0.000908   0.001319
1 60385U 24140G   24350.39310451  .00000707  00000-0  28386-3 0  9997 | 2 60385  88.9880 336.0296 0016141 144.7039 215.5227 14.27084295 18707 | 2024/12/15-09:26:04  249.7927    0.1193  215.4154  100.9050     7179.6304     7168.0418     7191.2191  81.313271 -36.152677  -0.000825   0.001387
1 60385U 24140G   24351.44487275  .00000687  00000-0  27583-3 0  9998 | 2 60385  88.9880 335.9073 0016256 141.4826 218.7532 14.27085523 18858 | 2024/12/16-10:40:37  269.5791    0.1194  218.6368  100.9050     7179.6263     7167.9551     7191.2975  81.235917 -36.326161  -0.000748   0.001443
1 60385U 24140G   24352.56675737  .00000740  00000-0  29746-3 0  9997 | 2 60385  88.9881 335.7769 0016356 138.0329 222.2122 14.27087311 19011 | 2024/12/17-13:36:07  314.6844    0.1194  222.0865  100.9048     7179.6203     7167.8773     7191.3633  81.153123 -36.510993  -0.000660   0.001496
1 60385U 24140G   24353.89899374  .00000801  00000-0  32226-3 0  9994 | 2 60385  88.9882 335.6220 0016484 134.0063 226.2493 14.27089390 19201 | 2024/12/18-21:34:33   75.7470    0.1193  226.1130  100.9047     7179.6134     7167.7785     7191.4482  81.054209 -36.730300  -0.000554   0.001553
1 60385U 24140G   24354.95075801  .00000733  00000-0  29438-3 0  9998 | 2 60385  88.9884 335.4998 0016588 130.8055 229.4580 14.27090482 19355 | 2024/12/19-22:49:05   95.5331    0.1192  229.3137  100.9046     7179.6097     7167.7002     7191.5192  80.975869 -36.903171  -0.000466   0.001592
1 60385U 24140G   24356.14275562  .00000770  00000-0  30963-3 0  9993 | 2 60385  88.9885 335.3613 0016698 127.3145 232.9574 14.27092556 19527 | 2024/12/21-03:25:34  165.9573    0.1194  232.8049  100.9045     7179.6027     7167.6142     7191.5912  80.886518 -37.098846  -0.000366   0.001629
1 60385U 24140G   24357.33475156  .00000809  00000-0  32567-3 0  9991 | 2 60385  88.9886 335.2227 0016793 123.7630 236.5166 14.27094647 19691 | 2024/12/22-08:02:02  236.3816    0.1193  236.3563  100.9043     7179.5957     7167.5390     7191.6524  80.796629 -37.294446  -0.000262   0.001659
1 60385U 24140G   24358.38651075  .00000955  00000-0  38532-3 0  9993 | 2 60385  88.9887 335.1006 0016879 120.5845 239.7017 14.27097196 19843 | 2024/12/23-09:16:34  256.1671    0.1194  239.5349  100.9041     7179.5872     7167.4687     7191.7056  80.717060 -37.466584  -0.000167   0.001680
1 60385U 24140G   24359.43826826  .00001072  00000-0  43346-3 0  9998 | 2 60385  88.9887 334.9783 0016957 117.4815 242.8105 14.27099737 19993 | 2024/12/24-10:31:06  275.9529    0.1193  242.6378  100.9039     7179.5786     7167.4042     7191.7531  80.636902 -37.638793  -0.000073   0.001694
1 60385U 24140G   24360.49002375  .00001181  00000-0  47816-3 0  9998 | 2 60385  88.9887 334.8562 0017019 114.3964 245.9008 14.27102517 20144 | 2024/12/25-11:45:38  295.7385    0.1193  245.7229  100.9038     7179.5693     7167.3504     7191.7882  80.556509 -37.810548   0.000022   0.001702
1 60385U 24140G   24361.54177733  .00001246  00000-0  50470-3 0  9998 | 2 60385  88.9888 334.7340 0017085 111.3120 248.9900 14.27105161 20290 | 2024/12/26-13:00:09  315.5238    0.1194  248.8074  100.9036     7179.5605     7167.2942     7191.8267  80.475775 -37.982315   0.000118   0.001704
1 60385U 24140G   24362.87399556  .00001244  00000-0  50396-3 0  9999 | 2 60385  88.9888 334.5793 0017165 107.4310 252.8762 14.27108204 20488 | 2024/12/27-20:58:33   76.5850    0.1193  252.6883  100.9034     7179.5502     7167.2266     7191.8739  80.372928 -38.199463   0.000239   0.001700
1 60385U 24140G   24364.13609379  .00001257  00000-0  50928-3 0  9992 | 2 60385  88.9890 334.4327 0017241 103.7560 256.5554 14.27111425 20663 | 2024/12/29-03:15:58  172.3267    0.1193  256.3633  100.9031     7179.5394     7167.1612     7191.9177  80.275106 -38.405070   0.000353   0.001688
1 60385U 24140G   24365.18783937  .00001395  00000-0  56576-3 0  9999 | 2 60385  88.9891 334.3106 0017283 100.7208 259.5933 14.27114983 20813 | 2024/12/30-04:30:29  192.1112    0.1194  259.3986  100.9029     7179.5275     7167.1191     7191.9359  80.193171 -38.576096   0.000446   0.001670
1 60385U 24140G   24366.44993079  .00001588  00000-0  64457-3 0  9990 | 2 60385  88.9893 334.1640 0017328  97.0646 263.2519 14.27119636 20991 | 2024/12/31-10:47:54  287.8523    0.1194  263.0548  100.9025     7179.5119     7167.0712     7191.9526  80.094386 -38.781243   0.000558   0.001641
1 60385U 24140G   25001.57178530  .00001855  00000-0  75410-3 0  9996 | 2 60385  88.9894 334.0338 0017369  93.8211 266.4969 14.27124784 21155 | 2025/01/01-13:43:22  332.9544    0.1194  266.2983  100.9022     7179.4946     7167.0246     7191.9647  80.006142 -38.963195   0.000655   0.001609
1 60385U 24140G   25002.90398304  .00002054  00000-0  83560-3 0  9994 | 2 60385  88.9901 333.8789 0017450  90.0822 270.2372 14.27130625 21342 | 2025/01/02-21:41:44   94.0121    0.1194  270.0372  100.9018     7179.4751     7166.9469     7192.0032  79.901141 -39.179658   0.000766   0.001568
1 60385U 24140G   25004.16605956  .00001420  00000-0  57577-3 0  9993 | 2 60385  88.9903 333.7326 0017463  86.4943 273.8248 14.27134263 21520 | 2025/01/04-03:59:07  189.7502    0.1194  273.6251  100.9015     7179.4629     7166.9254     7192.0003  79.801018 -39.383640   0.000867   0.001516
1 60385U 24140G   25005.42813174  .00001720  00000-0  69830-3 0  9994 | 2 60385  88.9898 333.5861 0017444  82.7843 277.5333 14.27139267 21707 | 2025/01/05-10:16:30  285.4882    0.1194  277.3351  100.9012     7179.4461     7166.9222     7191.9699  79.699609 -39.587332   0.000966   0.001452
1 60385U 24140G   25006.54997014  .00001570  00000-0  63703-3 0  9990 | 2 60385  88.9899 333.4560 0017460  79.5934 280.7227 14.27142908 21867 | 2025/01/06-13:11:57  330.5873    0.1194  280.5260  100.9009     7179.4339     7166.8986     7191.9692  79.609603 -39.768246   0.001050   0.001395
1 60385U 24140G   25007.88215001  .00001341  00000-0  54321-3 0  9999 | 2 60385  88.9900 333.3014 0017451  75.8002 284.5129 14.27146436 22053 | 2025/01/07-21:10:17   91.6427    0.1194  284.3192  100.9006     7179.4220     7166.8932     7191.9508  79.502097 -39.982955   0.001143   0.001319
1 60385U 24140G   25008.93386901  .00001127  00000-0  45561-3 0  9992 | 2 60385  88.9901 333.1794 0017438  72.8153 287.4948 14.27148470 22204 | 2025/01/08-22:24:46  111.4232    0.1194  287.3041  100.9005     7179.4152     7166.8957     7191.9347  79.416870 -40.152193   0.001211   0.001254
1 60385U 24140G   25010.12581467  .00001115  00000-0  45051-3 0  9991 | 2 60385  88.9902 333.0411 0017421  69.4050 290.9011 14.27151693 22379 | 2025/01/10-03:01:10  181.8408    0.1195  290.7145  100.9003     7179.4044     7166.8972     7191.9116  79.319809 -40.343817   0.001286   0.001176
1 60385U 24140G   25011.45798656  .00001057  00000-0  42697-3 0  9996 | 2 60385  88.9904 332.8867 0017382  65.5757 294.7248 14.27154780 22565 | 2025/01/11-10:59:30  302.8957    0.1194  294.5437  100.9001     7179.3940     7166.9148     7191.8733  79.210981 -40.557512   0.001361   0.001081
1 60385U 24140G   25012.57981396  .00000974  00000-0  39282-3 0  9998 | 2 60385  88.9905 332.7566 0017347  62.3710 297.9242 14.27156694 22729 | 2025/01/12-13:54:55  347.9947    0.1194  297.7484  100.8999     7179.3876     7166.9335     7191.8417  79.118773 -40.737315   0.001419   0.000998
1 60385U 24140G   25013.84186732  .00000954  00000-0  38465-3 0  9990 | 2 60385  88.9906 332.6103 0017289  58.7264 301.5620 14.27159201 22903 | 2025/01/13-20:12:17   83.7310    0.1194  301.3930  100.8997     7179.3792     7166.9668     7191.7916  79.014585 -40.939251   0.001477   0.000899
1 60385U 24140G   25014.89357627  .00000977  00000-0  39405-3 0  9999 | 2 60385  88.9908 332.4883 0017238  55.6901 304.5922 14.27161544 23054 | 2025/01/14-21:26:44  103.5109    0.1195  304.4294  100.8996     7179.3714     7166.9956     7191.7472  78.927411 -41.107497   0.001519   0.000814
1 60385U 24140G   25015.94528359  .00001033  00000-0  41691-3 0  9992 | 2 60385  88.9910 332.3664 0017179  52.6526 307.6230 14.27164029 23201 | 2025/01/15-22:41:12  123.2907    0.1195  307.4669  100.8994     7179.3630     7167.0296     7191.6965  78.839951 -41.275419   0.001557   0.000727
1 60385U 24140G   25017.13721592  .00001170  00000-0  47286-3 0  9997 | 2 60385  88.9911 332.2283 0017113  49.2235 311.0440 14.27167430 23374 | 2025/01/17-03:17:35  193.7074    0.1194  310.8959  100.8992     7179.3516     7167.0656     7191.6376  78.740325 -41.465373   0.001593   0.000626
1 60385U 24140G   25018.39925849  .00001361  00000-0  55108-3 0  9991 | 2 60385  88.9913 332.0821 0017027  45.5170 314.7412 14.27171605 23551 | 2025/01/18-09:34:55  289.4422    0.1194  314.6024  100.8989     7179.3376     7167.1134     7191.5619  78.634439 -41.666251   0.001623   0.000515
1 60385U 24140G   25019.45095857  .00001400  00000-0  56725-3 0  9996 | 2 60385  88.9914 331.9602 0016957  42.4363 317.8139 14.27174536 23701 | 2025/01/19-10:49:22  309.2207    0.1195  317.6832  100.8987     7179.3278     7167.1538     7191.5018  78.545702 -41.833503   0.001642   0.000422
1 60385U 24140G   25020.50265501  .00001684  00000-0  68335-3 0  9993 | 2 60385  88.9914 331.8384 0016879  39.3547 320.8870 14.27179222 23858 | 2025/01/20-12:03:49  328.9983    0.1195  320.7648  100.8983     7179.3121     7167.1941     7191.4300  78.456595 -42.000381   0.001656   0.000328
1 60385U 24140G   25021.55434919  .00001694  00000-0  68719-3 0  9997 | 2 60385  88.9914 331.7166 0016788  36.2594 323.9734 14.27182549 24009 | 2025/01/21-13:18:15  348.7755    0.1195  323.8601  100.8981     7179.3009     7167.2483     7191.3535  78.367132 -42.167070   0.001663   0.000233
1 60385U 24140G   25023.16694102  .00001725  00000-0  70002-3 0  9991 | 2 60385  88.9915 331.5298 0016641  31.4946 328.7241 14.27188199 24238 | 2025/01/23-04:00:23  211.0989    0.1195  328.6249  100.8977     7179.2820     7167.3349     7191.2290  78.229328 -42.422392   0.001662   0.000088
1 60385U 24140G   25024.49907649  .00002001  00000-0  81282-3 0  9991 | 2 60385  88.9916 331.3755 0016524  27.5243 332.6823 14.27194602 24428 | 2025/01/24-11:58:40  332.1471    0.1195  332.5952  100.8972     7179.2605     7167.3975     7191.1235  78.114887 -42.632961   0.001652  -0.000032
1 60385U 24140G   25025.55075948  .00001803  00000-0  73171-3 0  9994 | 2 60385  88.9917 331.2537 0016409  24.3938 335.8029 14.27197421 24575 | 2025/01/25-13:13:05  351.9213    0.1195  335.7257  100.8970     7179.2510     7167.4706     7191.0315  78.024168 -42.798970   0.001636  -0.000125
1 60385U 24140G   25026.81277570  .00001611  00000-0  65314-3 0  9996 | 2 60385  88.9918 331.1076 0016268  20.5807 339.6039 14.27200860 24754 | 2025/01/26-19:30:23   87.6492    0.1195  339.5388  100.8968     7179.2395     7167.5603     7190.9187  77.914868 -42.997835   0.001610  -0.000235
1 60385U 24140G   25027.86445309  .00001552  00000-0  62897-3 0  9996 | 2 60385  88.9919 330.9858 0016148  17.3867 342.7877 14.27204088 24905 | 2025/01/27-20:44:48  107.4217    0.1195  342.7328  100.8966     7179.2287     7167.6357     7190.8217  77.823374 -43.163418   0.001582  -0.000325
1 60385U 24140G   25029.12646187  .00001687  00000-0  68422-3 0  9993 | 2 60385  88.9920 330.8397 0016011  13.5089 346.6530 14.27209119 25086 | 2025/01/29-03:02:06  203.1473    0.1195  346.6106  100.8962     7179.2118     7167.7172     7190.7064  77.713145 -43.361770   0.001542  -0.000432
1 60385U 24140G   25030.59880149  .00001636  00000-0  66322-3 0  9995 | 2 60385  88.9921 330.6692 0015828   8.9908 351.1566 14.27213683 25290 | 2025/01/30-14:22:16   14.8258    0.1195  351.1287  100.8959     7179.1965     7167.8333     7190.5597  77.583853 -43.592884   0.001484  -0.000550
1 60385U 24140G   25031.79069169  .00001622  00000-0  65784-3 0  9995 | 2 60385  88.9922 330.5313 0015677   5.2780 354.8576 14.27217632 25468 | 2025/01/31-18:58:35   85.2307    0.1195  354.8415  100.8956     7179.1833     7167.9285     7190.4381  77.478796 -43.779537   0.001430  -0.000642
1 60385U 24140G   25032.91246695  .00001855  00000-0  75285-3 0  9996 | 2 60385  88.9922 330.4013 0015539   1.7554 358.3691 14.27222664 25627 | 2025/02/01-21:53:57  130.3166    0.1194  358.3640  100.8953     7179.1664     7168.0107     7190.3221  77.379264 -43.955218   0.001374  -0.000726
1 60385U 24140G   25034.17446061  .00001844  00000-0  74853-3 0  9993 | 2 60385  88.9923 330.2552 0015378 357.8046   2.3078 14.27227076 25803 | 2025/02/03-04:11:13  226.0364    0.1195    2.3149  100.8949     7179.1516     7168.1115     7190.1917  77.267017 -44.152436   0.001305  -0.000814
1 60385U 24140G   25035.36634026  .00001752  00000-0  71068-3 0  9998 | 2 60385  88.9923 330.1173 0015208 353.9802   6.1207 14.27230818 25972 | 2025/02/04-08:47:31  296.4373    0.1195    6.1393  100.8947     7179.1390     7168.2210     7190.0571  77.160527 -44.338275   0.001232  -0.000892
1 60385U 24140G   25036.48810648  .00001653  00000-0  67030-3 0  9992 | 2 60385  88.9923 329.9875 0015057 350.3536   9.7367 14.27234154 26136 | 2025/02/05-11:42:52  341.5192    0.1195    9.7659  100.8944     7179.1279     7168.3182     7189.9375  77.059883 -44.512963   0.001159  -0.000961
1 60385U 24140G   25037.53975974  .00001604  00000-0  65033-3 0  9990 | 2 60385  88.9923 329.8658 0014921 346.9503  13.1303 14.27237443 26287 | 2025/02/06-12:57:15    1.2823    0.1195   13.1692  100.8942     7179.1168     7168.4049     7189.8288  76.965161 -44.676543   0.001088  -0.001021
1 60385U 24140G   25038.80174079  .00001481  00000-0  59964-3 0  9997 | 2 60385  88.9923 329.7198 0014748 342.7570  17.3121 14.27240797 26460 | 2025/02/07-19:14:30   96.9968    0.1195   17.3625  100.8940     7179.1056     7168.5178     7189.6933  76.851067 -44.872519   0.000996  -0.001088
1 60385U 24140G   25039.85338966  .00001449  00000-0  58661-3 0  9997 | 2 60385  88.9923 329.5981 0014604 339.2373  20.8226 14.27243700 26610 | 2025/02/08-20:28:52  116.7579    0.1195   20.8822  100.8938     7179.0958     7168.6115     7189.5802  76.755582 -45.035654   0.000916  -0.001138
1 60385U 24140G   25040.90503647  .00001453  00000-0  58849-3 0  9998 | 2 60385  88.9924 329.4763 0014458 335.7033  24.3478 14.27246699 26763 | 2025/02/09-21:43:15  136.5179    0.1195   24.4162  100.8936     7179.0858     7168.7063     7189.4653  76.659757 -45.198771   0.000833  -0.001182
1 60385U 24140G   25042.16700990  .00001454  00000-0  58870-3 0  9993 | 2 60385  88.9924 329.3303 0014285 331.4448  28.5962 14.27249991 26945 | 2025/02/11-04:00:29  232.2283    0.1195   28.6747  100.8933     7179.0748     7168.8194     7189.3301  76.544334 -45.393967   0.000731  -0.001227
1 60385U 24140G   25043.49909004  .00001351  00000-0  54642-3 0  9996 | 2 60385  88.9925 329.1762 0014110 326.8384  33.1925 14.27253086 27130 | 2025/02/12-11:58:41  353.2543    0.1195   33.2811  100.8931     7179.0644     7168.9347     7189.1940  76.422054 -45.599723   0.000619  -0.001268
1 60385U 24140G   25044.55073008  .00001254  00000-0  50678-3 0  9997 | 2 60385  88.9925 329.0545 0013979 323.1340  36.8891 14.27255473 27282 | 2025/02/13-13:13:03   13.0108    0.1194   36.9854  100.8929     7179.0564     7169.0208     7189.0920  76.325024 -45.761946   0.000528  -0.001294
1 60385U 24140G   25045.81269543  .00001270  00000-0  51339-3 0  9991 | 2 60385  88.9925 328.9085 0013829 318.6737  41.3410 14.27258869 27462 | 2025/02/14-19:30:16  108.7165    0.1195   41.4458  100.8927     7179.0450     7169.1171     7188.9729  76.208167 -45.956287   0.000418  -0.001318
1 60385U 24140G   25046.86433046  .00001493  00000-0  60465-3 0  9995 | 2 60385  88.9924 328.7869 0013698 314.9922  45.0161 14.27262990 27619 | 2025/02/15-20:44:38  128.4697    0.1195   45.1273  100.8924     7179.0312     7169.1973     7188.8650  76.110376 -46.117870   0.000326  -0.001330
1 60385U 24140G   25047.91596314  .00001536  00000-0  62203-3 0  9990 | 2 60385  88.9923 328.6652 0013581 311.2377  48.7646 14.27266305 27760 | 2025/02/16-21:58:59  148.2217    0.1195   48.8818  100.8922     7179.0200     7169.2702     7188.7699  76.012162 -46.279377   0.000234  -0.001338
1 60385U 24140G   25049.17791917  .00001557  00000-0  63075-3 0  9997 | 2 60385  88.9922 328.5192 0013449 306.6635  53.3322 14.27270337 27948 | 2025/02/18-04:16:12  243.9223    0.1194   53.4559  100.8919     7179.0065     7169.3515     7188.6616  75.893902 -46.472867   0.000121  -0.001339
1 60385U 24140G   25050.43987127  .00001716  00000-0  69544-3 0  9992 | 2 60385  88.9921 328.3732 0013335 302.0479  57.9419 14.27275305 28123 | 2025/02/19-10:33:24  339.6208    0.1194   58.0715  100.8915     7178.9899     7169.4167     7188.5630  75.775149 -46.666055   0.000010  -0.001333
1 60385U 24140G   25051.56160450  .00001533  00000-0  62063-3 0  9995 | 2 60385  88.9920 328.2433 0013226 297.9096  62.0758 14.27277806 28283 | 2025/02/20-13:28:42   24.6847    0.1194   62.2098  100.8914     7178.9815     7169.4866     7188.4764  75.669069 -46.837678  -0.000089  -0.001320
1 60385U 24140G   25052.82355063  .00001384  00000-0  55972-3 0  9996 | 2 60385  88.9919 328.0973 0013120 293.1348  66.8463 14.27281180 28464 | 2025/02/21-19:45:54  120.3794    0.1194   66.9846  100.8911     7178.9702     7169.5514     7188.3890  75.549387 -47.030292  -0.000200  -0.001297
1 60385U 24140G   25053.87516959  .00001372  00000-0  55476-3 0  9991 | 2 60385  88.9919 327.9756 0013030 289.1712  70.8071 14.27284572 28616 | 2025/02/22-21:00:14  140.1233    0.1194   70.9482  100.8909     7178.9588     7169.6046     7188.3130  75.449322 -47.190657  -0.000290  -0.001270
1 60385U 24140G   25054.92678643  .00001451  00000-0  58728-3 0  9998 | 2 60385  88.9919 327.8538 0012954 285.2207  74.7555 14.27288286 28765 | 2025/02/23-22:14:34  159.8658    0.1195   74.8988  100.8906     7178.9463     7169.6467     7188.2459  75.348833 -47.350942  -0.000377  -0.001239
1 60385U 24140G   25056.11861519  .00001800  00000-0  72959-3 0  9997 | 2 60385  88.9918 327.7158 0012882 280.6923  79.2820 14.27293979 28934 | 2025/02/25-02:50:48  230.2388    0.1194   79.4271  100.8902     7178.9272     7169.6794     7188.1751  75.234482 -47.532232  -0.000474  -0.001198
1 60385U 24140G   25057.17022669  .00001687  00000-0  68343-3 0  9994 | 2 60385  88.9918 327.5940 0012827 276.6173  83.3561 14.27296802 29085 | 2025/02/26-04:05:07  249.9781    0.1194   83.5021  100.8900     7178.9178     7169.7094     7188.1262  75.133268 -47.692059  -0.000558  -0.001155
1 60385U 24140G   25058.50226341  .00001877  00000-0  76108-3 0  9994 | 2 60385  88.9916 327.4397 0012772 271.4654  88.5077 14.27302452 29273 | 2025/02/27-12:03:15   10.9788    0.1194   88.6540  100.8896     7178.8988     7169.7299     7188.0677  75.004390 -47.894115  -0.000660  -0.001094
1 60385U 24140G   25059.55386828  .00001933  00000-0  78380-3 0  9994 | 2 60385  88.9919 327.3181 0012682 267.2334  92.7409 14.27306505 29420 | 2025/02/28-13:17:34   30.7135    0.1194   92.8860  100.8893     7178.8852     7169.7810     7187.9895  74.902827 -48.053353  -0.000736  -0.001033
1 60385U 24140G   25060.81579012  .00001659  00000-0  67176-3 0  9990 | 2 60385  88.9913 327.1717 0012702 262.4886  97.4866 14.27309866 29601 | 2025/03/01-19:34:44  126.3947    0.1195   97.6309  100.8891     7178.8740     7169.7554     7187.9926  74.779295 -48.244259  -0.000822  -0.000968
1 60385U 24140G   25061.93749686  .00001293  00000-0  52232-3 0  9991 | 2 60385  88.9912 327.0418 0012687 258.0638 101.9134 14.27311849 29765 | 2025/03/02-22:29:59  171.4426    0.1194  102.0556  100.8890     7178.8673     7169.7595     7187.9752  74.669640 -48.413619  -0.000895  -0.000899
1 60385U 24140G   25063.12930764  .00001087  00000-0  43803-3 0  9998 | 2 60385  88.9910 326.9037 0012690 253.3572 106.6229 14.27314608 29939 | 2025/03/04-03:06:12  241.8044    0.1194  106.7622  100.8888     7178.8581     7169.7481     7187.9680  74.552564 -48.593345  -0.000968  -0.000820
1 60385U 24140G   25064.46132894  .00001088  00000-0  43851-3 0  9998 | 2 60385  88.9908 326.7493 0012724 248.1934 111.7907 14.27318183 30127 | 2025/03/05-11:04:18    2.7954    0.1194  111.9260  100.8885     7178.8461     7169.7117     7187.9805  74.421178 -48.793962  -0.001043  -0.000729
1 60385U 24140G   25065.51292381  .00000957  00000-0  38488-3 0  9997 | 2 60385  88.9907 326.6275 0012740 244.0270 115.9612 14.27319684 30271 | 2025/03/06-12:18:36   22.5237    0.1194  116.0924  100.8884     7178.8411     7169.6952     7187.9869  74.317200 -48.952002  -0.001096  -0.000650
1 60385U 24140G   25066.77483578  .00000959  00000-0  38590-3 0  9992 | 2 60385  88.9905 326.4812 0012789 239.1305 120.8632 14.27322258 30459 | 2025/03/07-18:35:45  118.1966    0.1194  120.9889  100.8882     7178.8324     7169.6514     7188.0134  74.191796 -49.141495  -0.001153  -0.000553
1 60385U 24140G   25068.17695771  .00001004  00000-0  40398-3 0  9999 | 2 60385  88.9904 326.3187 0012853 233.7001 126.3007 14.27325242 30652 | 2025/03/09-04:14:49  264.4979    0.1194  126.4193  100.8880     7178.8224     7169.5955     7188.0494  74.052041 -49.351661  -0.001208  -0.000440
1 60385U 24140G   25069.50897076  .00001085  00000-0  43740-3 0  9992 | 2 60385  88.9902 326.1642 0012924 228.6298 131.3786 14.27328252 30849 | 2025/03/10-12:12:55   25.4824    0.1194  131.4896  100.8878     7178.8123     7169.5344     7188.0902  73.918528 -49.551054  -0.001250  -0.000330
1 60385U 24140G   25070.63066419  .00001057  00000-0  42569-3 0  9994 | 2 60385  88.9901 326.0341 0013001 224.3811 135.6342 14.27330533 31003 | 2025/03/11-15:08:09   70.5209    0.1194  135.7383  100.8876     7178.8047     7169.4715     7188.1378  73.805740 -49.718715  -0.001279  -0.000235
1 60385U 24140G   25071.89256648  .00001125  00000-0  45335-3 0  9998 | 2 60385  88.9901 325.8878 0013104 219.6099 140.4139 14.27333826 31189 | 2025/03/12-21:25:17  166.1873    0.1194  140.5095  100.8874     7178.7936     7169.3865     7188.2007  73.678547 -49.907010  -0.001304  -0.000126
1 60385U 24140G   25073.22457109  .00001453  00000-0  58719-3 0  9996 | 2 60385  88.9899 325.7332 0013208 214.6357 145.3978 14.27338697 31373 | 2025/03/14-05:23:22  287.1667    0.1193  145.4836  100.8871     7178.7773     7169.2956     7188.2590  73.543451 -50.105520  -0.001321  -0.000009
1 60385U 24140G   25074.48646719  .00001370  00000-0  55330-3 0  9996 | 2 60385  88.9896 325.5868 0013334 209.9387 150.1046 14.27341678 31555 | 2025/03/15-11:40:30   22.8297    0.1193  150.1806  100.8868     7178.7673     7169.1951     7188.3395  73.414935 -50.293103  -0.001329   0.000104
1 60385U 24140G   25075.53804485  .00001355  00000-0  54744-3 0  9990 | 2 60385  88.9893 325.4647 0013451 206.0653 153.9865 14.27344562 31702 | 2025/03/16-12:54:47   42.5477    0.1193  154.0540  100.8866     7178.7576     7169.1015     7188.4138  73.307345 -50.449269  -0.001330   0.000198
1 60385U 24140G   25076.58961995  .00001362  00000-0  55015-3 0  9996 | 2 60385  88.9891 325.3427 0013566 202.2582 157.8025 14.27347749 31858 | 2025/03/17-14:09:03   62.2644    0.1193  157.8611  100.8864     7178.7470     7169.0083     7188.4856  73.199592 -50.605134  -0.001325   0.000291
1 60385U 24140G   25077.85150648  .00001475  00000-0  59593-3 0  9992 | 2 60385  88.9889 325.1962 0013707 197.7543 162.3174 14.27352329 32036 | 2025/03/18-20:26:10  157.9228    0.1193  162.3650  100.8861     7178.7316     7168.8917     7188.5715  73.069796 -50.792019  -0.001310   0.000402
1 60385U 24140G   25078.90307567  .00001585  00000-0  64102-3 0  9997 | 2 60385  88.9887 325.0741 0013825 194.0235 166.0578 14.27356285 32187 | 2025/03/19-21:40:25  177.6367    0.1194  166.0959  100.8858     7178.7183     7168.7938     7188.6429  72.961226 -50.947504  -0.001292   0.000493
1 60385U 24140G   25080.16495647  .00001498  00000-0  60540-3 0  9990 | 2 60385  88.9885 324.9275 0013994 189.5674 170.5256 14.27359736 32365 | 2025/03/21-03:57:32  273.2924    0.1194  170.5520  100.8856     7178.7068     7168.6609     7188.7526  72.830467 -51.133905  -0.001263   0.000603
1 60385U 24140G   25081.49693616  .00001584  00000-0  64038-3 0  9995 | 2 60385  88.9883 324.7728 0014174 184.9362 175.1695 14.27364897 32551 | 2025/03/22-11:55:35   34.2600    0.1194  175.1832  100.8852     7178.6895     7168.5144     7188.8645  72.691976 -51.330247  -0.001224   0.000715
1 60385U 24140G   25082.61860017  .00001694  00000-0  68526-3 0  9999 | 2 60385  88.9881 324.6424 0014320 181.1092 179.0073 14.27369286 32711 | 2025/03/23-14:50:47   79.2842    0.1193  179.0101  100.8849     7178.6747     7168.3949     7188.9546  72.574801 -51.495438  -0.001184   0.000806
1 60385U 24140G   25083.88046904  .00001593  00000-0  64392-3 0  9995 | 2 60385  88.9880 324.4957 0014491 176.8097 183.3193 14.27373099 32891 | 2025/03/24-21:07:52  174.9349    0.1194  183.3097  100.8846     7178.6620     7168.2594     7189.0646  72.442633 -51.681032  -0.001131   0.000906
1 60385U 24140G   25084.93202390  .00001423  00000-0  57453-3 0  9997 | 2 60385  88.9878 324.3735 0014644 173.2703 186.8691 14.27375763 33045 | 2025/03/25-22:22:06  194.6429    0.1194  186.8491  100.8844     7178.6530     7168.1406     7189.1654  72.332081 -51.835302  -0.001082   0.000987
1 60385U 24140G   25086.12378273  .00001431  00000-0  57776-3 0  9991 | 2 60385  88.9876 324.2349 0014817 169.3212 190.8299 14.27379745 33218 | 2025/03/27-02:58:14  264.9777    0.1193  190.7981  100.8842     7178.6397     7168.0031     7189.2763  72.206316 -52.010007  -0.001021   0.001074
1 60385U 24140G   25087.17533287  .00001287  00000-0  51884-3 0  9998 | 2 60385  88.9874 324.1126 0014952 165.9406 194.2208 14.27382041 33362 | 2025/03/28-04:12:28  284.6842    0.1194  194.1788  100.8840     7178.6320     7167.8985     7189.3655  72.094973 -52.163898  -0.000962   0.001144
1 60385U 24140G   25088.36708740  .00001115  00000-0  44868-3 0  9992 | 2 60385  88.9871 323.9739 0015124 162.1203 198.0526 14.27384486 33531 | 2025/03/29-08:48:36  355.0177    0.1193  197.9990  100.8838     7178.6238     7167.7668     7189.4807  71.968242 -52.338094  -0.000891   0.001222
1 60385U 24140G   25089.55884027  .00000944  00000-0  37908-3 0  9993 | 2 60385  88.9869 323.8352 0015302 158.3458 201.8387 14.27386566 33703 | 2025/03/30-13:24:43   65.3505    0.1194  201.7736  100.8837     7178.6168     7167.6321     7189.6015  71.841171 -52.512041  -0.000815   0.001295
1 60385U 24140G   25090.61038560  .00000828  00000-0  33168-3 0  9990 | 2 60385  88.9867 323.7128 0015451 154.9664 205.2282 14.27388201 33853 | 2025/03/31-14:38:57   85.0555    0.1193  205.1529  100.8836     7178.6113     7167.5197     7189.7030  71.728666 -52.665276  -0.000742   0.001356
1 60385U 24140G   25091.87223840  .00000739  00000-0  29518-3 0  9991 | 2 60385  88.9865 323.5659 0015613 151.0332 209.1732 14.27389968 34033 | 2025/04/01-20:56:01  180.7014    0.1193  209.0861  100.8834     7178.6054     7167.3974     7189.8134  71.593241 -52.848888  -0.000650   0.001420
1 60385U 24140G   25093.20419196  .00000858  00000-0  34384-3 0  9990 | 2 60385  88.9862 323.4109 0015806 146.8398 213.3790 14.27392925 34226 | 2025/04/03-04:54:02  301.6601    0.1193  213.2795  100.8832     7178.5955     7167.2490     7189.9420  71.449768 -53.042194  -0.000547   0.001483
1 60385U 24140G   25094.53614366  .00000807  00000-0  32308-3 0  9991 | 2 60385  88.9860 323.2557 0015992 142.7665 217.4642 14.27394686 34415 | 2025/04/04-12:52:02   62.6188    0.1194  217.3529  100.8831     7178.5896     7167.1096     7190.0696  71.305668 -53.235419  -0.000441   0.001537
1 60385U 24140G   25095.79798995  .00000841  00000-0  33686-3 0  9999 | 2 60385  88.9859 323.1087 0016135 138.9431 221.2981 14.27397136 34599 | 2025/04/05-19:09:06  158.2637    0.1194  221.1763  100.8829     7178.5814     7166.9987     7190.1640  71.168771 -53.418128  -0.000337   0.001578
1 60385U 24140G   25096.84952714  .00000869  00000-0  34819-3 0  9996 | 2 60385  88.9858 322.9862 0016251 135.7703 224.4793 14.27399093 34749 | 2025/04/06-20:23:19  177.9677    0.1193  224.3490  100.8828     7178.5748     7166.9089     7190.2407  71.054319 -53.570107  -0.000247   0.001606
1 60385U 24140G   25097.90106323  .00000766  00000-0  30630-3 0  9994 | 2 60385  88.9856 322.8636 0016378 132.6339 227.6239 14.27400429 34898 | 2025/04/07-21:37:31  197.6715    0.1193  227.4854  100.8827     7178.5703     7166.8133     7190.3274  70.939369 -53.721903  -0.000157   0.001630
1 60385U 24140G   25099.16290436  .00000793  00000-0  31722-3 0  9996 | 2 60385  88.9854 322.7166 0016512 128.8988 231.3682 14.27402826 35078 | 2025/04/09-03:54:34  293.3158    0.1194  231.2206  100.8825     7178.5623     7166.7090     7190.4155  70.801146 -53.903610  -0.000047   0.001651
1 60385U 24140G   25100.56494812  .00000813  00000-0  32521-3 0  9998 | 2 60385  88.9852 322.5531 0016640 124.7523 235.5240 14.27405150 35273 | 2025/04/10-13:33:31   79.5877    0.1193  235.3670  100.8824     7178.5545     7166.6094     7190.4996  70.646879 -54.105307   0.000078   0.001662
1 60385U 24140G   25101.82678561  .00000740  00000-0  29565-3 0  9996 | 2 60385  88.9850 322.4060 0016769 121.0887 239.1955 14.27406732 35452 | 2025/04/11-19:50:34  175.2321    0.1193  239.0306  100.8822     7178.5492     7166.5115     7190.5869  70.507579 -54.286384   0.000190   0.001666
1 60385U 24140G   25102.87831548  .00000705  00000-0  28145-3 0  9992 | 2 60385  88.9847 322.2833 0016863 118.0499 242.2403 14.27408162 35603 | 2025/04/12-21:04:46  194.9360    0.1194  242.0695  100.8821     7178.5444     7166.4392     7190.6496  70.390925 -54.437069   0.000283   0.001662
1 60385U 24140G   25103.92984429  .00000651  00000-0  25918-3 0  9991 | 2 60385  88.9845 322.1606 0016944 115.0172 245.2784 14.27409377 35753 | 2025/04/13-22:18:58  214.6401    0.1194  245.1022  100.8821     7178.5403     7166.3770     7190.7036  70.274028 -54.587565   0.000376   0.001652
1 60385U 24140G   25105.05147378  .00000669  00000-0  26669-3 0  9994 | 2 60385  88.9843 322.0298 0017016 111.8019 248.4988 14.27410985 35918 | 2025/04/15-01:14:07  259.6580    0.1194  248.3175  100.8819     7178.5349     7166.3199     7190.7499  70.149070 -54.747728   0.000474   0.001634
1 60385U 24140G   25106.17310208  .00000665  00000-0  26495-3 0  9995 | 2 60385  88.9841 321.8989 0017100 108.5992 251.7061 14.27412544 36077 | 2025/04/16-04:09:16  304.6760    0.1194  251.5202  100.8818     7178.5297     7166.2544     7190.8050  70.023651 -54.907726   0.000571   0.001612
1 60385U 24140G   25107.57513587  .00000577  00000-0  22890-3 0  9992 | 2 60385  88.9839 321.7352 0017199 104.6647 255.6455 14.27413807 36274 | 2025/04/17-13:48:11   90.9489    0.1194  255.4547  100.8817     7178.5255     7166.1791     7190.8718  69.866331 -55.107443   0.000689   0.001576
1 60385U 24140G   25108.83696499  .00000495  00000-0  19545-3 0  9998 | 2 60385  88.9838 321.5879 0017243 101.0352 259.2783 14.27414807 36454 | 2025/04/18-20:05:13  186.5951    0.1194  259.0842  100.8817     7178.5221     7166.1442     7190.9000  69.724348 -55.286816   0.000793   0.001531
1 60385U 24140G   25109.88848830  .00000467  00000-0  18421-3 0  9993 | 2 60385  88.9837 321.4651 0017276  98.0233 262.2922 14.27415824 36605 | 2025/04/19-21:19:25  206.3007    0.1194  262.0961  100.8816     7178.5187     7166.1171     7190.9203  69.605615 -55.436064   0.000877   0.001488
1 60385U 24140G   25110.94001078  .00000446  00000-0  17578-3 0  9996 | 2 60385  88.9835 321.3423 0017322  95.0876 265.2296 14.27416793 36750 | 2025/04/20-22:33:36  226.0063    0.1194  265.0318  100.8815     7178.5155     7166.0808     7190.9501  69.486485 -55.584995   0.000958   0.001443
1 60385U 24140G   25112.13173497  .00000493  00000-0  19483-3 0  9993 | 2 60385  88.9834 321.2031 0017354  91.7640 268.5542 14.27418261 36921 | 2025/04/22-03:09:41  296.3399    0.1194  268.3554  100.8814     7178.5105     7166.0530     7190.9681  69.351159 -55.753585   0.001045   0.001385
1 60385U 24140G   25113.74406640  .00000457  00000-0  18010-3 0  9995 | 2 60385  88.9832 321.0147 0017358  87.2113 273.1068 14.27419502 37154 | 2025/04/23-17:51:27  158.5569    0.1195  272.9082  100.8813     7178.5064     7166.0459     7190.9668  69.167300 -55.981198   0.001156   0.001295
1 60385U 24140G   25114.79558559  .00000468  00000-0  18452-3 0  9990 | 2 60385  88.9830 320.8918 0017366  84.2823 276.0350 14.27420613 37307 | 2025/04/24-19:05:38  178.2639    0.1194  275.8371  100.8813     7178.5027     7166.0365     7190.9688  69.046905 -56.129308   0.001224   0.001232
1 60385U 24140G   25115.84710401  .00000479  00000-0  18910-3 0  9994 | 2 60385  88.9828 320.7688 0017364  81.3828 278.9333 14.27421653 37451 | 2025/04/25-20:19:49  197.9712    0.1195  278.7367  100.8812     7178.4992     7166.0344     7190.9639  68.926095 -56.277279   0.001287   0.001165
1 60385U 24140G   25116.89862152  .00000478  00000-0  18862-3 0  9996 | 2 60385  88.9827 320.6458 0017341  78.3464 281.9675 14.27422676 37607 | 2025/04/26-21:34:00  217.6791    0.1194  281.7730  100.8811     7178.4957     7166.0475     7190.9440  68.805046 -56.425053   0.001348   0.001091
1 60385U 24140G   25117.95013818  .00000476  00000-0  18782-3 0  9990 | 2 60385  88.9826 320.5229 0017314  75.4286 284.8827 14.27423724 37753 | 2025/04/27-22:48:11  237.3870    0.1194  284.6908  100.8810     7178.4922     7166.0634     7190.9211  68.683778 -56.572447   0.001402   0.001017
1 60385U 24140G   25119.14185624  .00000405  00000-0  15903-3 0  9992 | 2 60385  88.9824 320.3836 0017275  72.0892 288.2184 14.27424442 37926 | 2025/04/29-03:24:16  307.7231    0.1194  288.0302  100.8810     7178.4898     7166.0890     7190.8907  68.545880 -56.739139   0.001457   0.000927
1 60385U 24140G   25121.59539032  .00000352  00000-0  13754-3 0  9993 | 2 60385  88.9821 320.0967 0017159  65.2159 295.0819 14.27426309 38270 | 2025/05/01-14:17:21  113.7104    0.1196  294.9037  100.8809     7178.4836     7166.1660     7190.8011  68.260679 -57.081467   0.001551   0.000734
1 60385U 24140G   25122.85720633  .00000372  00000-0  14543-3 0  9991 | 2 60385  88.9821 319.9491 0017085  61.6583 298.6331 14.27427376 38451 | 2025/05/02-20:34:22  209.3619    0.1194  298.4611  100.8808     7178.4800     7166.2155     7190.7444  68.113404 -57.257124   0.001588   0.000629
1 60385U 24140G   25123.90871920  .00000347  00000-0  13512-3 0  9991 | 2 60385  88.9820 319.8260 0017021  58.6255 301.6601 14.27427972 38609 | 2025/05/03-21:48:33  229.0718    0.1194  301.4939  100.8807     7178.4780     7166.2595     7190.6965  67.990154 -57.403269   0.001615   0.000539
1 60385U 24140G   25125.17053374  .00000331  00000-0  12886-3 0  9993 | 2 60385  88.9819 319.6784 0016939  54.9997 305.2784 14.27428770 38783 | 2025/05/05-04:05:34  324.7239    0.1194  305.1197  100.8807     7178.4753     7166.3157     7190.6349  67.841975 -57.578163   0.001639   0.000429
1 60385U 24140G   25126.36224672  .00000321  00000-0  12469-3 0  9992 | 2 60385  88.9819 319.5389 0016838  51.5497 308.7205 14.27429532 38951 | 2025/05/06-08:41:38   35.0626    0.1195  308.5698  100.8806     7178.4728     7166.3856     7190.5599  67.701587 -57.743170   0.001652   0.000324
1 60385U 24140G   25127.48385830  .00000308  00000-0  11956-3 0  9995 | 2 60385  88.9818 319.4076 0016733  48.2895 311.9727 14.27430166 39110 | 2025/05/07-11:36:45   80.0875    0.1194  311.8299  100.8806     7178.4706     7166.4589     7190.4824  67.569008 -57.898099   0.001658   0.000224
1 60385U 24140G   25128.81577125  .00000297  00000-0  11512-3 0  9998 | 2 60385  88.9817 319.2518 0016594  44.4343 315.8179 14.27430918 39309 | 2025/05/08-19:34:42  201.0548    0.1195  315.6852  100.8805     7178.4681     7166.5562     7190.3801  67.411245 -58.081555   0.001656   0.000107
1 60385U 24140G   25129.86728097  .00000271  00000-0  10454-3 0  9996 | 2 60385  88.9816 319.1287 0016473  41.3828 318.8611 14.27431365 39457 | 2025/05/09-20:48:53  220.7661    0.1195  318.7367  100.8805     7178.4666     7166.6415     7190.2917  67.286226 -58.226188   0.001647   0.000015
1 60385U 24140G   25130.91879023  .00000253  00000-0  97010-4 0  9994 | 2 60385  88.9815 319.0056 0016362  38.2420 321.9932 14.27431849 39604 | 2025/05/10-22:03:03  240.4777    0.1196  321.8776  100.8805     7178.4650     7166.7196     7190.2104  67.160896 -58.370553   0.001634  -0.000079
1 60385U 24140G   25132.18060061  .00000273  00000-0  10515-3 0  9995 | 2 60385  88.9814 318.8580 0016207  34.4820 325.7423 14.27432624 39780 | 2025/05/12-04:20:03  336.1316    0.1196  325.6376  100.8804     7178.4624     7166.8283     7190.0965  67.010229 -58.543306   0.001610  -0.000188
1 60385U 24140G   25133.51251120  .00000233  00000-0  88790-4 0  9998 | 2 60385  88.9814 318.7021 0016040  30.4977 329.7147 14.27433093 39972 | 2025/05/13-12:18:00   97.1000    0.1195  329.6218  100.8804     7178.4608     7166.9466     7189.9751  66.850687 -58.725422   0.001576  -0.000301
1 60385U 24140G   25134.56401901  .00000226  00000-0  86152-4 0  9990 | 2 60385  88.9814 318.5789 0015911  27.3192 332.8835 14.27433533 40128 | 2025/05/14-13:32:11  116.8121    0.1194  332.8002  100.8804     7178.4593     7167.0377     7189.8810  66.724258 -58.869032   0.001543  -0.000388
1 60385U 24140G   25135.82582786  .00000211  00000-0  79824-4 0  9993 | 2 60385  88.9814 318.4312 0015725  23.4244 336.7663 14.27434061 40306 | 2025/05/15-19:49:11  212.4667    0.1195  336.6951  100.8803     7178.4576     7167.1694     7189.7457  66.572281 -59.040841   0.001494  -0.000490
1 60385U 24140G   25137.15773667  .00000302  00000-0  11720-3 0  9992 | 2 60385  88.9814 318.2753 0015558  19.2955 340.8825 14.27435074 40490 | 2025/05/17-03:47:08  333.4353    0.1195  340.8240  100.8802     7178.4542     7167.2859     7189.6224  66.411387 -59.221763   0.001438  -0.000594
1 60385U 24140G   25138.20924316  .00000308  00000-0  11959-3 0  9998 | 2 60385  88.9815 318.1522 0015420  16.0488 344.1192 14.27435596 40648 | 2025/05/18-05:01:18  353.1471    0.1196  344.0708  100.8802     7178.4524     7167.3832     7189.5216  66.284070 -59.364378   0.001388  -0.000671
1 60385U 24140G   25139.47105047  .00000261  00000-0  10030-3 0  9997 | 2 60385  88.9815 318.0045 0015222  12.0423 348.1132 14.27435970 40826 | 2025/05/19-11:18:18   88.8017    0.1195  348.0772  100.8802     7178.4512     7167.5241     7189.3782  66.130817 -59.535051   0.001319  -0.000760
1 60385U 24140G   25140.52255599  .00000257  00000-0  98931-4 0  9995 | 2 60385  88.9815 317.8814 0015043   8.5990 351.5458 14.27436456 40972 | 2025/05/20-12:32:28  108.5139    0.1194  351.5204  100.8801     7178.4495     7167.6510     7189.2481  66.002754 -59.676996   0.001254  -0.000831
1 60385U 24140G   25141.57406127  .00000241  00000-0  92340-4 0  9997 | 2 60385  88.9815 317.7583 0014896   5.2175 354.9171 14.27436871 41126 | 2025/05/21-13:46:38  128.2255    0.1194  354.9019  100.8801     7178.4481     7167.7551     7189.1412  65.874385 -59.818665   0.001189  -0.000897
1 60385U 24140G   25142.83586709  .00000242  00000-0  92586-4 0  9995 | 2 60385  88.9815 317.6105 0014705   1.0769 359.0454 14.27437507 41304 | 2025/05/22-20:03:38  223.8794    0.1195  359.0426  100.8801     7178.4460     7167.8901     7189.0019  65.719858 -59.988395   0.001105  -0.000971
1 60385U 24140G   25143.88737148  .00000242  00000-0  92558-4 0  9995 | 2 60385  88.9815 317.4874 0014548 357.5528   2.5592 14.27438048 41452 | 2025/05/23-21:17:48  243.5908    0.1195    2.5667  100.8800     7178.4442     7168.0010     7188.8874  65.590822 -60.129456   0.001029  -0.001028
1 60385U 24140G   25144.93887553  .00000242  00000-0  92534-4 0  9992 | 2 60385  88.9815 317.3643 0014390 353.9810   6.1209 14.27438551 41605 | 2025/05/24-22:31:58  263.3018    0.1195    6.1385  100.8800     7178.4425     7168.1127     7188.7723  65.461482 -60.270239   0.000951  -0.001080
1 60385U 24140G   25147.88308523  .00000235  00000-0  89611-4 0  9998 | 2 60385  88.9816 317.0197 0013969 343.8941  16.1807 14.27439949 42025 | 2025/05/27-21:11:38  246.4910    0.1195   16.2254  100.8799     7178.4378     7168.4103     7188.4654  65.097884 -60.662926   0.000718  -0.001198
1 60385U 24140G   25149.14488859  .00000258  00000-0  99311-4 0  9993 | 2 60385  88.9816 316.8720 0013801 339.5089  20.5550 14.27440661 42201 | 2025/05/29-03:28:38  342.1425    0.1195   20.6106  100.8799     7178.4354     7168.5285     7188.3424  64.941288 -60.830537   0.000613  -0.001236
1 60385U 24140G   25150.19639092  .00000289  00000-0  11194-3 0  9993 | 2 60385  88.9817 316.7490 0013668 335.8411  24.2140 14.27441361 42354 | 2025/05/30-04:42:48    1.8515    0.1194   24.2783  100.8798     7178.4331     7168.6216     7188.2446  64.810623 -60.969878   0.000525  -0.001262
1 60385U 24140G   25151.52829337  .00000285  00000-0  11030-3 0  9999 | 2 60385  88.9819 316.5931 0013492 330.9408  29.1033 14.27442029 42549 | 2025/05/31-12:40:44  122.8161    0.1194   29.1786  100.8798     7178.4309     7168.7457     7188.1160  64.644631 -61.146138   0.000406  -0.001287
1 60385U 24140G   25152.57979315  .00000633  00000-0  25214-3 0  9993 | 2 60385  88.9820 316.4700 0013368 327.0753  32.9608 14.27445013 42698 | 2025/06/01-13:54:54  142.5235    0.1196   33.0443  100.8795     7178.4209     7168.8247     7188.0170  64.513182 -61.284954   0.000313  -0.001300
1 60385U 24140G   25153.84159533  .00000376  00000-0  14710-3 0  9999 | 2 60385  88.9821 316.3224 0013218 322.4020  37.6249 14.27444087 42872 | 2025/06/02-20:11:53  238.1728    0.1195   37.7175  100.8796     7178.4240     7168.9355     7187.9124  64.355164 -61.451013   0.000200  -0.001307
1 60385U 24140G   25155.17349551  .00000359  00000-0  14047-3 0  9992 | 2 60385  88.9821 316.1666 0013086 317.4248  42.5931 14.27444881 43066 | 2025/06/04-04:09:50  359.1345    0.1195   42.6947  100.8796     7178.4213     7169.0276     7187.8150  64.187828 -61.625781   0.000082  -0.001306
1 60385U 24140G   25156.50539473  .00000362  00000-0  14168-3 0  9992 | 2 60385  88.9822 316.0108 0012959 312.3606  47.6490 14.27445936 43256 | 2025/06/05-12:07:46  120.0951    0.1195   47.7589  100.8795     7178.4178     7169.1152     7187.7203  64.020088 -61.800164  -0.000037  -0.001295
1 60385U 24140G   25157.55689363  .00000308  00000-0  11953-3 0  9991 | 2 60385  88.9822 315.8878 0012871 308.2704  51.7331 14.27446542 43404 | 2025/06/06-13:21:55  139.8002    0.1194   51.8490  100.8794     7178.4157     7169.1764     7187.6551  63.887271 -61.937457  -0.000131  -0.001280
1 60385U 24140G   25158.81869178  .00000285  00000-0  11020-3 0  9994 | 2 60385  88.9822 315.7402 0012780 303.3788  56.6182 14.27447310 43584 | 2025/06/07-19:38:54  235.4453    0.1194   56.7406  100.8794     7178.4131     7169.2391     7187.5872  63.727502 -62.101831  -0.000241  -0.001255
1 60385U 24140G   25160.92168784  .00000270  00000-0  10401-3 0  9990 | 2 60385  88.9824 315.4942 0012650 295.2671  64.7212 14.27448518 43886 | 2025/06/09-22:07:13  274.8514    0.1195   64.8524  100.8793     7178.4091     7169.3284     7187.4898  63.460423 -62.375013  -0.000417  -0.001194
1 60385U 24140G   25162.18348484  .00000264  00000-0  10148-3 0  9998 | 2 60385  88.9825 315.3467 0012614 290.2552  69.7286 14.27449206 44063 | 2025/06/11-04:24:13   10.4940    0.1195   69.8643  100.8792     7178.4068     7169.3520     7187.4616  63.299708 -62.538246  -0.000521  -0.001149
1 60385U 24140G   25163.51538125  .00000293  00000-0  11360-3 0  9998 | 2 60385  88.9827 315.1910 0012570 285.0935  74.8868 14.27450086 44256 | 2025/06/12-12:22:08  131.4487    0.1194   75.0259  100.8792     7178.4038     7169.3806     7187.4271  63.129670 -62.710172  -0.000623  -0.001092
1 60385U 24140G   25164.56687724  .00000436  00000-0  17162-3 0  9999 | 2 60385  88.9828 315.0681 0012543 280.9667  79.0116 14.27451644 44408 | 2025/06/13-13:36:18  151.1485    0.1194   79.1527  100.8791     7178.3986     7169.3948     7187.4025  62.995082 -62.845512  -0.000701  -0.001040
1 60385U 24140G   25165.75857312  .00000375  00000-0  14693-3 0  9991 | 2 60385  88.9829 314.9288 0012537 276.2101  83.7665 14.27452004 44574 | 2025/06/14-18:12:20  221.4746    0.1194   83.9093  100.8790     7178.3974     7169.3979     7187.3970  62.842174 -62.998553  -0.000787  -0.000976
1 60385U 24140G   25166.81006848  .00000384  00000-0  15056-3 0  9993 | 2 60385  88.9830 314.8059 0012564 271.9408  88.0347 14.27452882 44729 | 2025/06/15-19:26:29  241.1734    0.1194   88.1786  100.8790     7178.3945     7169.3755     7187.4134  62.706967 -63.133276  -0.000861  -0.000915
1 60385U 24140G   25167.86156349  .00000383  00000-0  14994-3 0  9990 | 2 60385  88.9831 314.6830 0012586 267.7783  92.1970 14.27453662 44879 | 2025/06/16-20:40:39  260.8711    0.1194   92.3411  100.8789     7178.3919     7169.3571     7187.4266  62.571472 -63.267709  -0.000929  -0.000850
1 60385U 24140G   25168.91305803  .00000397  00000-0  15566-3 0  9999 | 2 60385  88.9831 314.5601 0012608 263.6251  96.3508 14.27454526 45025 | 2025/06/17-21:54:48  280.5678    0.1195   96.4944  100.8789     7178.3890     7169.3384     7187.4395  62.435618 -63.401780  -0.000991  -0.000779
1 60385U 24140G   25170.17485090  .00000404  00000-0  15884-3 0  9999 | 2 60385  88.9832 314.4126 0012652 258.6823 101.2950 14.27455530 45208 | 2025/06/19-04:11:47   16.2030    0.1194  101.4371  100.8788     7178.3856     7169.3035     7187.4677  62.272263 -63.562372  -0.001060  -0.000691
1 60385U 24140G   25171.50674267  .00000348  00000-0  13582-3 0  9993 | 2 60385  88.9833 314.2570 0012727 253.4842 106.4955 14.27456241 45399 | 2025/06/20-12:09:42  137.1501    0.1195  106.6353  100.8787     7178.3832     7169.2473     7187.5191  62.099485 -63.731324  -0.001126  -0.000592
1 60385U 24140G   25172.62833524  .00000339  00000-0  13200-3 0  9997 | 2 60385  88.9833 314.1260 0012810 249.1470 110.8353 14.27456969 45552 | 2025/06/21-15:04:48  182.1573    0.1194  110.9724  100.8787     7178.3808     7169.1853     7187.5763  61.953608 -63.873141  -0.001177  -0.000506
1 60385U 24140G   25173.89012636  .00000320  00000-0  12426-3 0  9999 | 2 60385  88.9834 313.9786 0012899 244.2675 115.7188 14.27457775 45739 | 2025/06/22-21:21:46  277.7892    0.1194  115.8519  100.8786     7178.3781     7169.1187     7187.6375  61.789152 -64.032384  -0.001225  -0.000404
1 60385U 24140G   25175.15191709  .00000334  00000-0  13005-3 0  9998 | 2 60385  88.9835 313.8312 0013005 239.4809 120.5101 14.27458645 45915 | 2025/06/24-03:38:45   13.4202    0.1193  120.6384  100.8786     7178.3751     7169.0397     7187.7106  61.624286 -64.191204  -0.001266  -0.000299
1 60385U 24140G   25176.20340884  .00000316  00000-0  12272-3 0  9990 | 2 60385  88.9836 313.7084 0013116 235.5020 124.4936 14.27459234 46067 | 2025/06/25-04:52:54   33.1118    0.1194  124.6174  100.8785     7178.3732     7168.9580     7187.7883  61.486635 -64.323206  -0.001295  -0.000210
1 60385U 24140G   25177.53529787  .00000329  00000-0  12801-3 0  9990 | 2 60385  88.9838 313.5529 0013254 230.5251 129.4772 14.27460122 46257 | 2025/06/26-12:50:49  154.0535    0.1194  129.5943  100.8785     7178.3702     7168.8560     7187.8844  61.311974 -64.489987  -0.001322  -0.000094
1 60385U 24140G   25178.58678874  .00000345  00000-0  13454-3 0  9991 | 2 60385  88.9839 313.4301 0013365 226.6183 133.3899 14.27460860 46408 | 2025/06/27-14:04:58  173.7435    0.1194  133.5011  100.8784     7178.3677     7168.7738     7187.9616  61.173683 -64.621320  -0.001336  -0.000001
1 60385U 24140G   25179.63827922  .00000340  00000-0  13247-3 0  9993 | 2 60385  88.9840 313.3073 0013495 222.7535 137.2610 14.27461501 46550 | 2025/06/28-15:19:07  193.4329    0.1193  137.3658  100.8784     7178.3656     7168.6784     7188.0528  61.035111 -64.752355  -0.001346   0.000093
1 60385U 24140G   25180.82996779  .00000338  00000-0  13175-3 0  9990 | 2 60385  88.9841 313.1682 0013652 218.4859 141.5363 14.27462363 46720 | 2025/06/29-19:55:09  263.7468    0.1194  141.6335  100.8783     7178.3627     7168.5628     7188.1626  60.877797 -64.900415  -0.001351   0.000198
1 60385U 24140G   25181.88145710  .00000379  00000-0  14847-3 0  9990 | 2 60385  88.9842 313.0455 0013784 214.7395 145.2901 14.27463333 46871 | 2025/06/30-21:09:17  283.4347    0.1194  145.3799  100.8782     7178.3594     7168.4648     7188.2541  60.738740 -65.030710  -0.001347   0.000292
1 60385U 24140G   25183.14324363  .00000404  00000-0  15872-3 0  9992 | 2 60385  88.9843 312.8982 0013946 210.2751 149.7639 14.27464443 47052 | 2025/07/02-03:26:16   19.0594    0.1194  149.8443  100.8782     7178.3557     7168.3448     7188.3666  60.571422 -65.186720  -0.001335   0.000404
1 60385U 24140G   25184.19473163  .00000424  00000-0  16664-3 0  9993 | 2 60385  88.9843 312.7755 0014097 206.6037 153.4436 14.27465414 47206 | 2025/07/03-04:40:24   38.7459    0.1194  153.5157  100.8781     7178.3525     7168.2331     7188.4718  60.431685 -65.316285  -0.001319   0.000496
1 60385U 24140G   25185.52661550  .00000441  00000-0  17361-3 0  9994 | 2 60385  88.9843 312.6201 0014281 202.0206 158.0377 14.27466646 47397 | 2025/07/04-12:38:19  159.6812    0.1194  158.0988  100.8780     7178.3483     7168.0969     7188.5997  60.254309 -65.479950  -0.001290   0.000612
1 60385U 24140G   25186.57810208  .00000438  00000-0  17237-3 0  9994 | 2 60385  88.9844 312.4974 0014428 198.4418 161.6255 14.27467569 47546 | 2025/07/05-13:52:28  179.3665    0.1193  161.6775  100.8779     7178.3452     7167.9883     7188.7021  60.114012 -65.608909  -0.001261   0.000701
1 60385U 24140G   25187.83988502  .00000422  00000-0  16576-3 0  9995 | 2 60385  88.9845 312.3502 0014611 194.1780 165.9006 14.27468676 47723 | 2025/07/06-20:09:26  274.9879    0.1193  165.9413  100.8779     7178.3415     7167.8532     7188.8298  59.945324 -65.763207  -0.001219   0.000806
1 60385U 24140G   25188.89137008  .00000415  00000-0  16307-3 0  9993 | 2 60385  88.9846 312.2275 0014771 190.7003 169.3879 14.27469614 47872 | 2025/07/07-21:23:34  294.6720    0.1193  169.4190  100.8778     7178.3384     7167.7353     7188.9415  59.804420 -65.891504  -0.001179   0.000890
1 60385U 24140G   25190.15315134  .00000402  00000-0  15760-3 0  9991 | 2 60385  88.9847 312.0804 0014963 186.6165 173.4834 14.27470666 48052 | 2025/07/09-03:40:32   30.2924    0.1193  173.5028  100.8777     7178.3348     7167.5939     7189.0758  59.635122 -66.044902  -0.001124   0.000988
1 60385U 24140G   25191.48503078  .00000375  00000-0  14666-3 0  9997 | 2 60385  88.9848 311.9250 0015159 182.2883 177.8244 14.27471648 48248 | 2025/07/10-11:38:26  151.2243    0.1193  177.8310  100.8777     7178.3316     7167.4499     7189.2132  59.455840 -66.206478  -0.001057   0.001087
