# SPACE DATA - HISTORICAL TLEs
# ----------------------------
# NORAD_ID    : 60396
# OBJECT_NAME : QIANFAN-18
# --------------------------------------------------------------------+-----------------------------------------------------------------------+----------------------------------------------------------------------------------------------------------------------------------------
#                  LINE 1                                             |                 LINE 2                                                |      DERIVED PARAMETERS
# --------------------------------------------------------------------+-----------------------------------------------------------------------+----------------------------------------------------------------------------------------------------------------------------------------
# NORAD  COSPAR     TLE_EPOCH      MEANMOT1 MEANMOT2   BSTAR  #  REV  |   NORAD    INC     RAAN     ECC    ARGPER  MEANANOM   MEANMOT     REV |  CAL_DATE              LONG     ARGLAT     PERIOD        SMA         PERIGEE        APOGEE      INC_X      INC_Y      ECC_X      ECC_Y
# ------ ------   -------------- ----------  -------  ------- -- ----     -----  ------- -------- ------- -------- -------- -----------  ----   ------------------- ---------  --------  --------  ------------  ------------   ----------- ---------- ----------  ---------  ---------   
1 60391U 24140N   24226.55026263  .00003123  00000-0  12849-2 0  9990 | 2 60391  88.9959 350.3487 0014891 189.7591 170.3316 14.26681125  1022 | 2024/08/13-13:12:22  170.1211    0.1193  170.3602  100.9336     7180.9830     7170.2898     7191.6762  87.736281 -14.920296  -0.001489  -0.000003
1 60391U 24140N   24227.88287473  .00001979  00000-0  81186-3 0  9997 | 2 60391  88.9959 350.1950 0015095 185.5029 174.6002 14.26687636  1215 | 2024/08/14-21:11:20  291.3162    0.1193  174.6164  100.9331     7180.9611     7170.1215     7191.8008  87.695941 -15.155601  -0.001505   0.000113
1 60391U 24140N   24229.63630400  .00002231  00000-0  91611-3 0  9990 | 2 60391  88.9963 349.9928 0015329 179.8844 180.2356 14.26696095  1485 | 2024/08/16-15:16:16  204.4643    0.1193  180.2349  100.9325     7180.9328     7169.9251     7191.9404  87.642304 -15.465059  -0.001509   0.000269
1 60391U 24140N   24230.82863139  .00002233  00000-0  91655-3 0  9990 | 2 60391  88.9965 349.8557 0015421 176.1798 183.9516 14.26700658  1631 | 2024/08/17-19:53:13  275.0031    0.1192  183.9394  100.9322     7180.9174     7169.8437     7191.9911  87.605244 -15.674764  -0.001497   0.000372
1 60391U 24140N   24231.88068114  .00001962  00000-0  80456-3 0  9992 | 2 60391  88.9970 349.7343 0015614 172.7592 187.3831 14.26704444  1801 | 2024/08/18-21:08:10  294.8885    0.1194  187.3602  100.9319     7180.9047     7169.6925     7192.1170  87.572327 -15.860439  -0.001489   0.000470
1 60391U 24140N   24233.14313701  .00001945  00000-0  79746-3 0  9999 | 2 60391  88.9972 349.5891 0015782 168.8990 191.2555 14.26709413  1968 | 2024/08/20-03:26:07   30.7499    0.1193  191.2203  100.9316     7180.8881     7169.5552     7192.2209  87.532049 -16.082351  -0.001468   0.000579
1 60391U 24140N   24234.19518039  .00001971  00000-0  80833-3 0  9994 | 2 60391  88.9968 349.4681 0015858 165.6498 194.5150 14.26713497  2113 | 2024/08/21-04:41:03   50.6332    0.1193  194.4695  100.9313     7180.8744     7169.4869     7192.2618  87.497497 -16.267096  -0.001439   0.000667
1 60391U 24140N   24235.59790119  .00001771  00000-0  72534-3 0  9997 | 2 60391  88.9969 349.3066 0016034 161.3189 198.8597 14.26717705  2339 | 2024/08/22-14:20:58  197.1430    0.1193  198.8004  100.9310     7180.8602     7169.3464     7192.3740  87.451396 -16.513680  -0.001397   0.000786
1 60391U 24140N   24236.64993969  .00001294  00000-0  52847-3 0  9997 | 2 60391  88.9970 349.1855 0016165 158.1816 202.0070 14.26719032  2464 | 2024/08/23-15:35:54  217.0249    0.1193  201.9377  100.9309     7180.8558     7169.2479     7192.4636  87.416395 -16.698498  -0.001361   0.000872
1 60391U 24140N   24237.84225018  .00001328  00000-0  54264-3 0  9996 | 2 60391  88.9970 349.0482 0016332 154.5996 205.6004 14.26719344  2635 | 2024/08/24-20:12:50  287.5577    0.1193  205.5197  100.9309     7180.8547     7169.1270     7192.5825  87.376129 -16.907929  -0.001315   0.000968
1 60391U 24140N   24238.89428640  .00001218  00000-0  49716-3 0  9992 | 2 60391  88.9970 348.9272 0016447 151.4266 208.7833 14.26721856  2807 | 2024/08/25-21:27:46  307.4388    0.1193  208.6927  100.9307     7180.8463     7169.0360     7192.6566  87.340227 -17.092416  -0.001266   0.001049
1 60391U 24140N   24239.94631991  .00001522  00000-0  62270-3 0  9992 | 2 60391  88.9970 348.8060 0016540 148.3080 211.9113 14.26726150  2959 | 2024/08/26-22:42:42  327.3196    0.1193  211.8113  100.9304     7180.8319     7168.9548     7192.7090  87.303876 -17.277132  -0.001212   0.001126
1 60391U 24140N   24241.20875700  .00001650  00000-0  67544-3 0  9993 | 2 60391  88.9971 348.6607 0016664 144.5498 215.6807 14.26730634  3115 | 2024/08/28-05:00:36   63.1754    0.1193  215.5695  100.9301     7180.8169     7168.8507     7192.7830  87.259879 -17.498496  -0.001141   0.001215
1 60391U 24140N   24242.54132511  .00001893  00000-0  77548-3 0  9991 | 2 60391  88.9972 348.5074 0016790 140.5714 219.6706 14.26736134  3304 | 2024/08/29-12:59:30  184.3551    0.1194  219.5480  100.9297     7180.7984     7168.7418     7192.8550  87.212846 -17.731924  -0.001058   0.001303
1 60391U 24140N   24243.59334996  .00001835  00000-0  75169-3 0  9991 | 2 60391  88.9972 348.3863 0016883 137.5065 222.7439 14.26739050  3472 | 2024/08/30-14:14:25  204.2337    0.1193  222.6128  100.9295     7180.7886     7168.6653     7192.9119  87.175173 -17.916217  -0.000990   0.001368
1 60391U 24140N   24244.85577465  .00002039  00000-0  83563-3 0  9995 | 2 60391  88.9976 348.2408 0017056 133.9076 226.3529 14.26744514  3634 | 2024/08/31-20:32:18  300.0863    0.1193  226.2117  100.9291     7180.7703     7168.5228     7193.0178  87.129786 -18.137618  -0.000908   0.001444
1 60391U 24140N   24245.90779157  .00002038  00000-0  83491-3 0  9993 | 2 60391  88.9978 348.1198 0017122 130.8870 229.3810 14.26748854  3809 | 2024/09/01-21:47:13  319.9628    0.1193  229.2323  100.9288     7180.7557     7168.4608     7193.0506  87.091484 -18.321623  -0.000830   0.001497
1 60391U 24140N   24247.17020794  .00002273  00000-0  93194-3 0  9992 | 2 60391  88.9979 347.9747 0017201 127.2804 232.9961 14.26754513  3965 | 2024/09/03-04:05:05   55.8136    0.1193  232.8389  100.9284     7180.7367     7168.3852     7193.0883  87.044903 -18.542142  -0.000734   0.001556
1 60391U 24140N   24248.57288625  .00002755  00000-0  11306-2 0  9995 | 2 60391  88.9980 347.8134 0017298 123.2475 237.0379 14.26762040  4168 | 2024/09/04-13:44:57  202.3127    0.1193  236.8718  100.9278     7180.7115     7168.2903     7193.1327  86.992456 -18.787139  -0.000622   0.001614
1 60391U 24140N   24249.83553162  .00001920  00000-0  79368-3 0  9992 | 2 60391  88.9971 347.6695 0017363 118.0724 242.2228 14.26264419  4348 | 2024/09/05-20:03:09  298.2437    0.1193  242.0469  100.9630     7182.3816     7169.9108     7194.8524  86.944118 -19.005372  -0.000471   0.001671
1 60391U 24140N   24251.16853141  .00002181  00000-0  90215-3 0  9995 | 2 60391  88.9975 347.5152 0017518 115.1318 245.1695 14.26271933  4538 | 2024/09/07-04:02:41   59.5857    0.1193  244.9875  100.9625     7182.3564     7169.7743     7194.9384  86.893011 -19.239533  -0.000384   0.001709
1 60391U 24140N   24252.50152534  .00002098  00000-0  86783-3 0  9994 | 2 60391  88.9973 347.3621 0017539 111.3238 248.9830 14.26277996  4725 | 2024/09/08-12:02:11  180.9250    0.1193  248.7955  100.9621     7182.3360     7169.7389     7194.9331  86.841096 -19.471607  -0.000265   0.001734
1 60391U 24140N   24253.62404151  .00002525  00000-0  10455-2 0  9990 | 2 60391  88.9971 347.2329 0017562 108.1762 252.1346 14.26284270  4901 | 2024/09/09-14:58:37  226.2624    0.1194  251.9432  100.9616     7182.3150     7169.7014     7194.9285  86.796772 -19.667337  -0.000166   0.001748
1 60391U 24140N   24254.74656678  .00001999  00000-0  82659-3 0  9997 | 2 60391  88.9973 347.1039 0017570 104.6226 255.6917 14.26270823  5042 | 2024/09/10-17:55:03  271.6034    0.1193  255.4967  100.9626     7182.3601     7169.7407     7194.9795  86.752467 -19.862753  -0.000053   0.001756
1 60391U 24140N   24255.79895419  .00002040  00000-0  84424-3 0  9991 | 2 60391  88.9971 346.9827 0017673 101.5462 258.7717 14.26235700  5197 | 2024/09/11-19:10:29  291.6178    0.1193  258.5731  100.9651     7182.4780     7169.7844     7195.1716  86.710061 -20.046174   0.000045   0.001767
1 60391U 24140N   24256.85135415  .00002404  00000-0  99618-3 0  9997 | 2 60391  88.9972 346.8618 0017774  98.7690 261.5517 14.26221578  5342 | 2024/09/12-20:25:56  311.6371    0.1193  261.3503  100.9661     7182.5254     7169.7592     7195.2917  86.667666 -20.229119   0.000135   0.001772
1 60391U 24140N   24258.18440809  .00003339  00000-0  13862-2 0  9995 | 2 60391  88.9973 346.7084 0017861  95.2122 265.1110 14.26209163  5534 | 2024/09/14-04:25:32   73.0014    0.1193  264.9071  100.9670     7182.5671     7169.7383     7195.3959  86.613293 -20.461108   0.000251   0.001768
1 60391U 24140N   24259.86829721  .00002091  00000-0  86655-3 0  9990 | 2 60391  88.9974 346.5144 0017941  90.4052 269.9198 14.26168382  5791 | 2024/09/15-20:50:20  321.0534    0.1194  269.7142  100.9698     7182.7040     7169.8176     7195.5905  86.543614 -20.754280   0.000406   0.001748
1 60391U 24140N   24260.92076613  .00001738  00000-0  71994-3 0  9990 | 2 60391  88.9969 346.3937 0018047  86.9900 273.3358 14.26113769  5946 | 2024/09/16-22:05:54  341.0994    0.1193  273.1293  100.9737     7182.8874     7169.9245     7195.8504  86.499214 -20.936430   0.000516   0.001729
1 60391U 24140N   24262.18375959  .00001637  00000-0  67815-3 0  9990 | 2 60391  88.9969 346.2486 0018074  83.8347 276.4904 14.26092372  6101 | 2024/09/18-04:24:36   77.1678    0.1193  276.2846  100.9752     7182.9593     7169.9768     7195.9417  86.445916 -21.155420   0.000616   0.001699
1 60391U 24140N   24264.21885122  .00000984  00000-0  40750-3 0  9997 | 2 60391  88.9968 346.0144 0018024  79.4850 280.8373 14.25807910  6395 | 2024/09/20-05:15:08   92.0436    0.1194  280.6344  100.9954     7183.9146     7170.9663     7196.8629  86.358623 -21.508571   0.000747   0.001640
1 60391U 24140N   24265.48211560  .00000661  00000-0  27169-3 0  9997 | 2 60391  88.9966 345.8694 0017983  76.1815 284.1377 14.25788754  6573 | 2024/09/21-11:34:14  188.2120    0.1193  283.9378  100.9967     7183.9790     7171.0600     7196.8979  86.303720 -21.727003   0.000843   0.001589
1 60391U 24140N   24266.53483620  .00000539  00000-0  22064-3 0  9995 | 2 60391  88.9965 345.7485 0017936  73.1079 287.2079 14.25789696  6744 | 2024/09/22-12:50:09  208.3534    0.1193  287.0114  100.9967     7183.9758     7171.0906     7196.8610  86.257585 -21.909040   0.000928   0.001535
1 60391U 24140N   24267.58755489  .00000627  00000-0  25728-3 0  9994 | 2 60391  88.9963 345.6274 0017877  70.0214 290.2902 14.25791910  6895 | 2024/09/23-14:06:04  228.4950    0.1193  290.0979  100.9965     7183.9684     7171.1256     7196.8111  86.210892 -22.091255   0.001009   0.001476
1 60391U 24140N   24268.71045247  .00001186  00000-0  49224-3 0  9992 | 2 60391  88.9963 345.4982 0017789  66.7285 293.5779 14.25795969  7056 | 2024/09/24-17:03:03  273.9793    0.1194  293.3909  100.9962     7183.9547     7171.1752     7196.7343  86.160858 -22.285601   0.001090   0.001406
1 60391U 24140N   24269.83334718  .00001369  00000-0  56939-3 0  9994 | 2 60391  88.9962 345.3690 0017704  63.4314 296.8691 14.25799471  7190 | 2024/09/25-20:00:01  319.4633    0.1193  296.6879  100.9960     7183.9430     7171.2245     7196.6614  86.110289 -22.479808   0.001166   0.001332
1 60391U 24140N   24270.88607327  .00001689  00000-0  70427-3 0  9993 | 2 60391  88.9959 345.2474 0017688  60.6513 299.6444 14.25766978  7368 | 2024/09/26-21:15:56  339.6087    0.1193  299.4680  100.9983     7184.0521     7171.3450     7196.7593  86.062095 -22.662435   0.001231   0.001270
1 60391U 24140N   24272.07919546  .00001674  00000-0  69849-3 0  9995 | 2 60391  88.9961 345.1107 0017758  57.2154 303.0747 14.25723680  7510 | 2024/09/28-01:54:02   50.4510    0.1194  302.9040  101.0013     7184.1976     7171.4399     7196.9552  86.007974 -22.867754   0.001313   0.001196
1 60391U 24140N   24273.20215885  .00001583  00000-0  66049-3 0  9994 | 2 60391  88.9957 344.9818 0017744  53.7963 306.4867 14.25699878  7673 | 2024/09/29-04:51:06   95.9607    0.1193  306.3230  101.0030     7184.2775     7171.5297     7197.0253  85.955924 -23.061087   0.001383   0.001111
1 60391U 24140N   24274.53607398  .00001704  00000-0  72235-3 0  9994 | 2 60391  88.9960 344.8283 0017407  50.7414 309.5320 14.24913128  7861 | 2024/09/30-12:51:56  217.6480    0.1193  309.3779  101.0588     7186.9217     7174.4115     7199.4320  85.894123 -23.291365   0.001416   0.001013
1 60391U 24140N   24275.87034178  .00001812  00000-0  76901-3 0  9996 | 2 60391  88.9957 344.6749 0017268  46.9365 313.3270 14.24904376  8053 | 2024/10/01-20:53:17  339.4628    0.1193  313.1828  101.0594     7186.9512     7174.5407     7199.3616  85.831167 -23.521170   0.001471   0.000905
1 60391U 24140N   24277.20463093  .00002184  00000-0  92828-3 0  9996 | 2 60391  88.9953 344.5215 0017123  43.1732 317.0800 14.24885647  8243 | 2024/10/03-04:54:40  101.2857    0.1194  316.9462  101.0607     7187.0142     7174.7078     7199.3205  85.767500 -23.750777   0.001516   0.000796
1 60391U 24140N   24278.25823830  .00002139  00000-0  91453-3 0  9994 | 2 60391  88.9952 344.4004 0016900  40.5589 319.6859 14.24570008  8390 | 2024/10/04-06:11:51  121.7524    0.1193  319.5604  101.0831     7188.0757     7175.9279     7200.2236  85.717012 -23.931975   0.001532   0.000713
1 60391U 24140N   24279.52286488  .00002096  00000-0  90145-3 0  9996 | 2 60391  88.9949 344.2552 0016634  37.5020 322.7329 14.24256632  8573 | 2024/10/05-12:32:55  218.4195    0.1193  322.6173  101.1054     7189.1301     7177.1717     7201.0885  85.655800 -24.149042   0.001545   0.000617
1 60391U 24140N   24280.85775149  .00001853  00000-0  79675-3 0  9996 | 2 60391  88.9947 344.1019 0016455  33.7367 326.4869 14.24241565  8761 | 2024/10/06-20:35:09  340.4590    0.1193  326.3826  101.1064     7189.1808     7177.3510     7201.0106  85.590688 -24.378080   0.001566   0.000504
1 60391U 24140N   24282.19302045  .00003890  00000-0  16991-2 0  9990 | 2 60391  88.9945 343.9486 0016017  29.9091 330.3012 14.23627458  8952 | 2024/10/08-04:37:56  102.6385    0.1192  330.2101  101.1501     7191.2481     7179.7299     7202.7663  85.524964 -24.606943   0.001555   0.000384
1 60391U 24140N   24283.45870281  .00000015  00000-0  00000+0 0  9999 | 2 60391  88.9402 343.9039 0039616  10.8917 349.1866 14.23834217  9139 | 2024/10/09-11:00:31  199.7084  359.9927  349.1010  101.1354     7190.5519     7162.0658     7219.0380  85.453569 -24.658604   0.003945  -0.000359
1 60391U 24140N   24284.51393234  .00001654  00000-0  73667-3 0  9998 | 2 60391  88.9941 343.6824 0015596  24.2713 335.9210 14.22349131  9287 | 2024/10/10-12:20:03  220.7386    0.1193  335.8480  101.2410     7195.5562     7184.3340     7206.7783  85.409332 -25.003918   0.001545   0.000216
1 60391U 24140N   24285.85112572  .00001876  00000-0  84664-3 0  9995 | 2 60391  88.9941 343.5291 0015577  21.6002 338.5843 14.21717372  9472 | 2024/10/11-20:25:37  343.6073    0.1192  338.5190  101.2860     7197.6876     7186.4758     7208.8995  85.342126 -25.232349   0.001551   0.000139
1 60391U 24140N   24288.87755056  .00001039  00000-0  46629-3 0  9990 | 2 60391  88.9934 343.1827 0015244  11.7522 348.4021 14.21722608  9929 | 2024/10/14-21:03:40  356.4799    0.1191  348.3669  101.2856     7197.6700     7186.6978     7208.6421  85.187347 -25.747645   0.001518  -0.000135
1 60391U 24140N   24293.35602665  .00000781  00000-0  48290-3 0  9995 | 2 60391  89.0000 342.6892 0012440   5.7216 354.4105 14.04317144 10556 | 2024/10/19-08:32:40  173.6612    0.1182  354.3966  102.5409     7257.0209     7247.9932     7266.0487  84.968721 -26.482380   0.001219  -0.000250
1 60391U 24140N   24294.85419192  .00000692  00000-0  44453-3 0  9990 | 2 60391  88.9919 342.5141 0013256 359.0336   1.0816 14.02090430 10753 | 2024/10/20-20:30:02  354.6693    0.1181    1.0845  102.7038     7264.7023     7255.0723     7274.3324  84.879666 -26.739493   0.001257  -0.000420
1 60391U 24140N   24296.13878989  .00000581  00000-0  37178-3 0  9999 | 2 60391  88.9917 342.3714 0013075 354.7393   5.3647 14.02090889 10936 | 2024/10/22-03:19:51   98.5447    0.1180    5.3787  102.7038     7264.7008     7255.2022     7274.1994  84.812616 -26.950749   0.001205  -0.000509
1 60391U 24140N   24298.06889705  .00000442  00000-0  30448-3 0  9990 | 2 60391  88.9914 342.1593 0013685 344.8108  15.2656 13.97466092 11204 | 2024/10/24-01:39:12   75.5253    0.1178   15.3070  103.0436     7280.7199     7270.7562     7290.6835  84.711982 -27.264435   0.001147  -0.000746
1 60391U 24140N   24299.07218561  .00000468  00000-0  33486-3 0  9991 | 2 60391  88.9914 342.0484 0012695 343.7710  16.3058 13.95481420 11342 | 2024/10/25-01:43:56   77.8086    0.1177   16.3467  103.1902     7287.6214     7278.3698     7296.8730  84.659051 -27.428350   0.001050  -0.000713
1 60391U 24140N   24300.14821702  .00000476  00000-0  34964-3 0  9990 | 2 60391  88.9865 341.9191 0012896 339.6249  20.4410 13.94024313 11503 | 2024/10/26-03:33:25  106.3807    0.1176   20.4927  103.2981     7292.6988     7283.2941     7302.1034  84.592279 -27.617810   0.001010  -0.000802
1 60391U 24140N   24302.73813541  .00000591  00000-0  48056-3 0  9994 | 2 60391  88.9907 341.6463 0012132 330.4107  29.6378 13.88576563 11858 | 2024/10/28-17:42:54  321.5943    0.1173   29.7066  103.7033     7311.7604     7302.8898     7320.6311  84.463812 -28.021584   0.000813  -0.000901
1 60391U 24140N   24304.03560364  .00000584  00000-0  48780-3 0  9997 | 2 60391  88.9899 341.5068 0011158 326.0141  34.0315 13.87031742 12041 | 2024/10/30-00:51:16   70.1041    0.1172   34.1031  103.8188     7317.1885     7309.0240     7325.3530  84.394578 -28.226894   0.000680  -0.000885
1 60391U 24140N   24305.11876686  .00000553  00000-0  48237-3 0  9997 | 2 60391  88.9901 341.3880 0011500 322.2171  37.8191 13.84412740 12194 | 2024/10/31-02:51:01  101.2387    0.1171   37.9000  104.0152     7326.4139     7317.9885     7334.8393  84.336059 -28.401885   0.000636  -0.000958
1 60391U 24140N   24307.14513230  .00000544  00000-0  49375-3 0  9999 | 2 60391  88.9898 341.1695 0011721 315.3050  44.7173 13.82047789 12467 | 2024/11/02-03:28:59  112.9599    0.1169   44.8119  104.1932     7334.7695     7326.1724     7343.3665  84.226850 -28.723200   0.000523  -0.001049
1 60391U 24140N   24308.15874126  .00000577  00000-0  52502-3 0  9997 | 2 60391  88.9895 341.0600 0011670 311.8230  48.1941 13.82049044 12606 | 2024/11/03-03:48:35  118.9729    0.1169   48.2939  104.1931     7334.7650     7326.2053     7343.3247  84.171519 -28.884019   0.000454  -0.001075
1 60391U 24140N   24309.46282472  .00000268  00000-0  24640-3 0  9998 | 2 60391  88.9898 340.9200 0011603 306.7129  53.2972 13.79781325 12780 | 2024/11/04-11:06:28  229.8753    0.1168   53.4039  104.3644     7342.7994     7334.2796     7351.3193  84.100974 -29.089700   0.000351  -0.001106
1 60391U 24140N   24310.47856187  .00000229  00000-0  21197-3 0  9992 | 2 60391  88.9891 340.8110 0011604 304.1884  55.8182 13.79051491 12924 | 2024/11/05-11:29:07  236.6543    0.1167   55.9283  104.4196     7345.3899     7336.8663     7353.9135  84.044820 -29.249412   0.000300  -0.001121
1 60391U 24140N   24314.04308374  .00000193  00000-0  19802-3 0  9999 | 2 60391  88.9915 340.4358 0011588 290.5775  69.4145 13.72189525 13428 | 2024/11/09-01:02:02   83.7854    0.1164   69.5389  104.9418     7369.8578     7361.3176     7378.3980  83.853742 -29.799950   0.000020  -0.001159
1 60391U 24140N   24315.35702955  .00000192  00000-0  20613-3 0  9998 | 2 60391  88.9882 340.2897 0011925 284.9394  75.0447 13.69484422 13592 | 2024/11/10-08:34:07  198.2549    0.1162   75.1768  105.1491     7379.5596     7370.7595     7388.3597  83.774375 -30.012561  -0.000099  -0.001188
1 60391U 24140N   24317.47797567  .00000157  00000-0  17243-3 0  9992 | 2 60391  88.9965 340.0436 0011074 266.8025  93.1869 13.67343212 13897 | 2024/11/12-11:28:17  244.1269    0.1161   93.3136  105.3137     7387.2617     7379.0810     7395.4423  83.652493 -30.374948  -0.000435  -0.001018
1 60391U 24140N   24318.57672559  .00000144  00000-0  16253-3 0  9993 | 2 60391  88.9919 339.9482 0010383 274.2122  85.7850 13.65062527 14047 | 2024/11/13-13:50:29  280.8474    0.1159   85.9037  105.4897     7395.4876     7387.8088     7403.1663  83.597480 -30.512614  -0.000283  -0.000999
1 60391U 24140N   24320.48541312  .00000116  00000-0  13547-3 0  9990 | 2 60391  88.9878 339.7539 0011420 265.1605  94.8248 13.61725425 14298 | 2024/11/15-11:38:59  250.0624    0.1157   94.9552  105.7482     7407.5651     7399.1057     7416.0245  83.489679 -30.794513  -0.000484  -0.001034
1 60391U 24140N   24322.69346737  .00000072  00000-0  83308-4 0  9993 | 2 60391  88.9876 339.5239 0011565 255.5182 104.4690 13.57229359 14608 | 2024/11/17-16:38:35  327.3664    0.1155  104.5973  106.0985     7423.9153     7415.3296     7432.5011  83.365202 -31.129343  -0.000663  -0.000948
1 60391U 24140N   24323.79999987  .00000061  00000-0  70634-4 0  9992 | 2 60391  88.9852 339.4042 0011913 245.1658 114.8257 13.55728314 14745 | 2024/11/18-19:11:59    6.9241    0.1153  114.9495  106.2160     7429.3941     7420.5435     7438.2447  83.297740 -31.302593  -0.000849  -0.000836
1 60391U 24140N   24325.05595485  .00000064  00000-0  77956-4 0  9995 | 2 60391  88.9864 339.2795 0011431 244.1237 115.8738 13.53248963 14917 | 2024/11/20-01:20:34  100.4246    0.1153  115.9916  106.4106     7438.4658     7429.9629     7446.9687  83.230537 -31.484235  -0.000831  -0.000785
1 60391U 24140N   24326.16593767  .00000064  00000-0  79724-4 0  9994 | 2 60391  88.9872 339.1662 0011565 243.6665 116.3299 13.51770660 15062 | 2024/11/21-03:58:57  141.2268    0.1151  116.4486  106.5269     7443.8880     7435.2792     7452.4969  83.168863 -31.649043  -0.000848  -0.000786
1 60391U 24140N   24327.49883129  .00000080  00000-0  10567-3 0  9992 | 2 60391  88.9871 339.0299 0011670 237.8564 122.1455 13.51054869 15241 | 2024/11/22-11:58:19  262.5131    0.1150  122.2586  106.5834     7446.5170     7437.8269     7455.2071  83.093245 -31.846766  -0.000933  -0.000700
1 60391U 24140N   24329.12830206  .00000095  00000-0  12837-3 0  9990 | 2 60391  88.9872 338.8626 0011487 232.0894 127.9219 13.50899149 15464 | 2024/11/24-03:04:45  130.8866    0.1150  128.0256  106.5957     7447.0892     7438.5347     7455.6437  82.999994 -32.089293  -0.000985  -0.000591
1 60391U 24140N   24330.46154173  .00000111  00000-0  15419-3 0  9999 | 2 60391  88.9870 338.7261 0011589 227.7463 132.2706 13.50899158 15642 | 2024/11/25-11:04:37  252.2979    0.1151  132.3688  106.5957     7447.0892     7438.4587     7455.7196  82.923124 -32.286867  -0.001037  -0.000517
1 60391U 24140N   24331.79478136  .00000090  00000-0  12028-3 0  9993 | 2 60391  88.9869 338.5895 0011664 223.5000 136.5232 13.50899268 15829 | 2024/11/26-19:04:29   13.7085    0.1151  136.6151  106.5957     7447.0888     7438.4025     7455.7750  82.845819 -32.484437  -0.001081  -0.000439
1 60391U 24140N   24332.90581416  .00000110  00000-0  15174-3 0  9991 | 2 60391  88.9868 338.4757 0011746 219.9605 140.0683 13.50899537 15981 | 2024/11/27-21:44:22   54.8836    0.1151  140.1546  106.5956     7447.0878     7438.3404     7455.8351  82.781043 -32.648883  -0.001114  -0.000371
1 60391U 24140N   24334.09091561  .00000116  00000-0  16066-3 0  9997 | 2 60391  88.9866 338.3542 0011834 216.2028 143.8323 13.50899840 16134 | 2024/11/29-02:10:55  122.8034    0.1150  143.9122  106.5956     7447.0867     7438.2738     7455.8995  82.711436 -32.824279  -0.001145  -0.000297
1 60391U 24140N   24335.12787940  .00000090  00000-0  12127-3 0  9990 | 2 60391  88.9866 338.2480 0011902 212.9698 147.0712 13.50899920 16278 | 2024/11/30-03:04:08  137.2328    0.1150  147.1452  106.5956     7447.0864     7438.2228     7455.9499  82.650453 -32.977532  -0.001167  -0.000232
1 60391U 24140N   24336.16484298  .00000080  00000-0  10549-3 0  9990 | 2 60391  88.9865 338.1417 0011988 209.7258 150.3214 13.50900103 16412 | 2024/12/01-03:57:22  151.6618    0.1151  150.3893  106.5956     7447.0857     7438.1581     7456.0133  82.589035 -33.130778  -0.001188  -0.000164
1 60391U 24140N   24337.42401298  .00000098  00000-0  13373-3 0  9996 | 2 60391  88.9865 338.0126 0012089 205.8203 154.2346 13.50900396 16589 | 2024/12/02-10:10:34  246.3255    0.1150  154.2947  106.5956     7447.0846     7438.0818     7456.0874  82.514175 -33.316785  -0.001206  -0.000081
1 60391U 24140N   24338.46097644  .00000073  00000-0  94581-4 0  9991 | 2 60391  88.9865 337.9063 0012172 202.6723 157.3892 13.50900484 16726 | 2024/12/03-11:03:48  260.7542    0.1151  157.4428  106.5956     7447.0843     7438.0197     7456.1489  82.452221 -33.469814  -0.001217  -0.000012
1 60391U 24140N   24339.49793985  .00000080  00000-0  10514-3 0  9997 | 2 60391  88.9866 337.8001 0012266 199.5235 160.5448 13.50900659 16866 | 2024/12/04-11:57:02  275.1825    0.1150  160.5915  106.5956     7447.0837     7437.9491     7456.2182  82.390134 -33.622623  -0.001225   0.000057
1 60391U 24140N   24340.53490324  .00000067  00000-0  85793-4 0  9992 | 2 60391  88.9866 337.6938 0012355 196.3989 163.6764 13.50900758 17016 | 2024/12/05-12:50:15  289.6107    0.1150  163.7161  106.5955     7447.0833     7437.8824     7456.2842  82.327613 -33.775422  -0.001229   0.000127
1 60391U 24140N   24341.57186664  .00000075  00000-0  97873-4 0  9997 | 2 60391  88.9866 337.5874 0012432 193.2521 166.8306 13.50900878 17153 | 2024/12/06-13:43:29  304.0386    0.1151  166.8630  106.5955     7447.0828     7437.8246     7456.3411  82.264749 -33.928249  -0.001227   0.000198
1 60391U 24140N   24342.83103631  .00000084  00000-0  11212-3 0  9992 | 2 60391  88.9866 337.4583 0012556 189.5020 170.5896 13.50901084 17312 | 2024/12/07-19:56:41   38.7010    0.1151  170.6131  106.5955     7447.0821     7437.7315     7456.4326  82.188092 -34.113523  -0.001223   0.000283
1 60391U 24140N   24344.16427471  .00000093  00000-0  12631-3 0  9997 | 2 60391  88.9866 337.3216 0012666 185.5215 174.5799 13.50901262 17491 | 2024/12/09-03:56:33  160.1078    0.1151  174.5936  106.5955     7447.0814     7437.6490     7456.5139  82.106468 -34.309516  -0.001210   0.000374
1 60391U 24140N   24345.49751282  .00000113  00000-0  15720-3 0  9999 | 2 60391  88.9866 337.1849 0012787 181.6055 178.5057 13.50901539 17672 | 2024/12/10-11:56:25  281.5145    0.1150  178.5095  106.5955     7447.0804     7437.5578     7456.6030  82.024377 -34.505313  -0.001192   0.000463
1 60391U 24140N   24346.60854442  .00000103  00000-0  14123-3 0  9990 | 2 60391  88.9866 337.0710 0012887 178.4046 181.7148 13.50901678 17832 | 2024/12/11-14:36:18  322.6867    0.1150  181.7104  106.5955     7447.0799     7437.4829     7456.6770  81.955621 -34.668303  -0.001172   0.000535
1 60391U 24140N   24347.79364468  .00000077  00000-0  10006-3 0  9991 | 2 60391  88.9867 336.9495 0012992 174.9706 185.1578 13.50901777 17983 | 2024/12/12-19:02:50   30.6034    0.1150  185.1444  106.5955     7447.0795     7437.4043     7456.7548  81.882012 -34.842057  -0.001146   0.000612
1 60391U 24140N   24349.20095097  .00000066  00000-0  84126-4 0  9991 | 2 60391  88.9867 336.8053 0013124 170.9336 189.2054 13.50901969 18174 | 2024/12/14-04:49:22  178.7543    0.1150  189.1814  106.5954     7447.0788     7437.3053     7456.8524  81.794063 -35.048025  -0.001110   0.000701
1 60391U 24140N   24350.46011963  .00000074  00000-0  96622-4 0  9994 | 2 60391  88.9868 336.6763 0013240 167.3648 192.7837 13.50902199 18349 | 2024/12/15-11:02:34  273.4156    0.1150  192.7502  106.5954     7447.0780     7437.2181     7456.9379  81.715038 -35.232132  -0.001072   0.000777
1 60391U 24140N   24351.57115066  .00000065  00000-0  82708-4 0  9996 | 2 60391  88.9868 336.5624 0013342 164.2324 195.9245 13.50902323 18509 | 2024/12/16-13:42:27  314.5874    0.1150  195.8826  106.5954     7447.0775     7437.1416     7457.0134  81.644837 -35.394506  -0.001034   0.000843
1 60391U 24140N   24352.75625041  .00000074  00000-0  95682-4 0  9991 | 2 60391  88.9869 336.4410 0013447 160.9053 199.2605 13.50902463 18658 | 2024/12/17-18:09:00   22.5039    0.1151  199.2098  106.5954     7447.0770     7437.0629     7457.0911  81.569751 -35.567458  -0.000989   0.000911
1 60391U 24140N   24353.94134996  .00000082  00000-0  10806-3 0  9990 | 2 60391  88.9871 336.3196 0013550 157.6028 202.5717 13.50902647 18815 | 2024/12/18-22:35:32   90.4205    0.1150  202.5122  106.5954     7447.0763     7436.9856     7457.1671  81.494390 -35.740291  -0.000940   0.000976
1 60391U 24140N   24355.12644944  .00000092  00000-0  12366-3 0  9995 | 2 60391  88.9872 336.1982 0013653 154.2656 205.9177 13.50902793 18977 | 2024/12/20-03:02:05  158.3370    0.1150  205.8494  106.5954     7447.0758     7436.9083     7457.2433  81.418571 -35.912924  -0.000886   0.001039
1 60391U 24140N   24356.45968590  .00000120  00000-0  16656-3 0  9996 | 2 60391  88.9874 336.0616 0013767 150.6238 209.5690 13.50903140 19152 | 2024/12/21-11:01:56  279.7434    0.1151  209.4913  106.5954     7447.0745     7436.8221     7457.3269  81.332902 -36.107014  -0.000822   0.001104
1 60391U 24140N   24357.57071610  .00000114  00000-0  15785-3 0  9993 | 2 60391  88.9874 335.9478 0013855 147.5551 212.6454 13.50903339 19318 | 2024/12/22-13:41:49  320.9154    0.1150  212.5599  106.5953     7447.0738     7436.7559     7457.3917  81.261026 -36.268485  -0.000765   0.001155
1 60391U 24140N   24358.82988340  .00000129  00000-0  18087-3 0  9993 | 2 60391  88.9875 335.8189 0013954 144.0441 216.1652 13.50903624 19470 | 2024/12/23-19:55:01   55.5768    0.1151  216.0710  106.5953     7447.0728     7436.6811     7457.4644  81.179317 -36.451250  -0.000695   0.001210
1 60391U 24140N   24359.86684423  .00000150  00000-0  21337-3 0  9999 | 2 60391  88.9875 335.7127 0014029 141.2869 218.9290 13.50903987 19614 | 2024/12/24-20:48:15   70.0044    0.1150  218.8281  106.5953     7447.0714     7436.6239     7457.5189  81.111614 -36.601656  -0.000637   0.001250
1 60391U 24140N   24361.12601082  .00000118  00000-0  16398-3 0  9996 | 2 60391  88.9876 335.5838 0014125 137.8834 222.3405 13.50904170 19782 | 2024/12/26-03:01:27  164.6664    0.1150  222.2316  106.5953     7447.0707     7436.5518     7457.5897  81.029156 -36.784084  -0.000562   0.001296
1 60391U 24140N   24362.38517690  .00000137  00000-0  19376-3 0  9996 | 2 60391  88.9877 335.4549 0014219 134.4873 225.7443 13.50904591 19956 | 2024/12/27-09:14:39  259.3285    0.1150  225.6277  106.5952     7447.0692     7436.4802     7457.6582  80.946288 -36.966326  -0.000485   0.001337
1 60391U 24140N   24363.42213698  .00000128  00000-0  17996-3 0  9999 | 2 60391  88.9878 335.3487 0014290 131.7268 228.5107 13.50904828 20092 | 2024/12/28-10:07:52  273.7565    0.1150  228.3882  106.5952     7447.0683     7436.4265     7457.7102  80.877721 -37.116341  -0.000420   0.001366
1 60391U 24140N   24364.45909670  .00000123  00000-0  17210-3 0  9999 | 2 60391  88.9879 335.2426 0014360 128.9803 231.2630 13.50905106 20234 | 2024/12/29-11:01:05  288.1843    0.1151  231.1348  106.5952     7447.0673     7436.3733     7457.7613  80.808942 -37.266088  -0.000353   0.001392
1 60391U 24140N   24365.57012472  .00000164  00000-0  23510-3 0  9993 | 2 60391  88.9880 335.1289 0014435 126.0330 234.2161 13.50905577 20390 | 2024/12/30-13:40:58  329.3574    0.1151  234.0821  106.5952     7447.0656     7436.3157     7457.8154  80.734921 -37.426417  -0.000279   0.001416
1 60391U 24140N   24366.75522092  .00000170  00000-0  24495-3 0  9998 | 2 60391  88.9882 335.0077 0014510 122.9369 237.3180 13.50905927 20548 | 2024/12/31-18:07:31   37.2755    0.1151  237.1782  106.5951     7447.0643     7436.2586     7457.8700  80.655752 -37.597199  -0.000201   0.001437
1 60391U 24140N   25001.79217965  .00000185  00000-0  26750-3 0  9991 | 2 60391  88.9883 334.9016 0014564 120.2377 240.0218 13.50906324 20689 | 2025/01/01-19:00:44   51.7042    0.1151  239.8774  106.5951     7447.0628     7436.2169     7457.9087  80.586082 -37.746535  -0.000130   0.001451
1 60391U 24140N   25002.90320642  .00000204  00000-0  29667-3 0  9994 | 2 60391  88.9885 334.7879 0014635 117.2726 242.9917 13.50906780 20840 | 2025/01/02-21:40:37   92.8779    0.1150  242.8424  106.5951     7447.0612     7436.1624     7457.9599  80.511199 -37.906464  -0.000053   0.001463
1 60391U 24140N   25004.08830137  .00000187  00000-0  27131-3 0  9994 | 2 60391  88.9886 334.6667 0014707 114.1596 246.1094 13.50907051 20996 | 2025/01/04-02:07:09  160.7966    0.1150  245.9554  106.5950     7447.0602     7436.1078     7458.0126  80.430924 -38.076730   0.000030   0.001470
1 60391U 24140N   25005.12525879  .00000205  00000-0  29837-3 0  9990 | 2 60391  88.9888 334.5606 0014753 111.4925 248.7800 13.50907605 21132 | 2025/01/05-03:00:22  175.2260    0.1150  248.6225  106.5950     7447.0581     7436.0715     7458.0448  80.360456 -38.225692   0.000102   0.001472
1 60391U 24140N   25006.38442101  .00000175  00000-0  25247-3 0  9992 | 2 60391  88.9889 334.4318 0014813 108.2604 252.0160 13.50907979 21307 | 2025/01/06-09:13:33  269.8904    0.1150  251.8546  106.5950     7447.0568     7436.0254     7458.0881  80.274413 -38.406288   0.000188   0.001469
1 60391U 24140N   25007.42137770  .00000158  00000-0  22584-3 0  9993 | 2 60391  88.9890 334.3258 0014861 105.5733 254.7059 13.50908295 21440 | 2025/01/07-10:06:47  284.3201    0.1150  254.5417  106.5949     7447.0556     7435.9885     7458.1227  80.203312 -38.554777   0.000261   0.001463
1 60391U 24140N   25008.60647072  .00000139  00000-0  19660-3 0  9995 | 2 60391  88.9891 334.2047 0014914 102.5316 257.7504 13.50908578 21610 | 2025/01/08-14:33:19  352.2399    0.1151  257.5835  106.5949     7447.0545     7435.9480     7458.1611  80.121734 -38.724252   0.000342   0.001452
1 60391U 24140N   25009.79156336  .00000130  00000-0  18256-3 0  9995 | 2 60391  88.9892 334.0836 0014963  99.4676 260.8167 13.50908893 21768 | 2025/01/09-18:59:51   60.1602    0.1151  260.6475  106.5949     7447.0534     7435.9104     7458.1964  80.039798 -38.893553   0.000424   0.001435
1 60391U 24140N   25010.82851909  .00000118  00000-0  16423-3 0  9999 | 2 60391  88.9892 333.9776 0014995  96.8232 263.4626 13.50909166 21902 | 2025/01/10-19:53:04   74.5908    0.1151  263.2919  106.5949     7447.0524     7435.8855     7458.2192  79.967706 -39.041564   0.000493   0.001416
1 60391U 24140N   25011.93954281  .00000103  00000-0  14157-3 0  9995 | 2 60391  88.9894 333.8641 0015018  94.0044 266.2824 13.50909400 22062 | 2025/01/11-22:32:56  115.7669    0.1151  266.1107  106.5949     7447.0515     7435.8675     7458.2355  79.890389 -39.199988   0.000566   0.001391
1 60391U 24140N   25013.12463447  .00000120  00000-0  16714-3 0  9997 | 2 60391  88.9896 333.7430 0015039  91.0183 269.2691 13.50909708 22216 | 2025/01/13-02:59:28  183.6885    0.1151  269.0968  106.5948     7447.0504     7435.8508     7458.2500  79.807537 -39.368844   0.000641   0.001360
1 60391U 24140N   25014.16158948  .00000111  00000-0  15357-3 0  9991 | 2 60391  88.9897 333.6371 0015061  88.3751 271.9125 13.50909893 22357 | 2025/01/14-03:52:41  198.1201    0.1151  271.7400  106.5948     7447.0497     7435.8337     7458.2657  79.734725 -39.516330   0.000707   0.001330
1 60391U 24140N   25015.42074872  .00000131  00000-0  18364-3 0  9997 | 2 60391  88.9899 333.5085 0015081  85.1780 275.1093 13.50910270 22529 | 2025/01/15-10:05:52  292.7874    0.1151  274.9371  106.5948     7447.0483     7435.8174     7458.2792  79.646009 -39.695283   0.000784   0.001288
1 60391U 24140N   25016.53177133  .00000136  00000-0  19199-3 0  9996 | 2 60391  88.9901 333.3951 0015102  82.3500 277.9365 13.50910515 22687 | 2025/01/16-12:45:45  333.9648    0.1151  277.7651  106.5948     7447.0474     7435.8009     7458.2940  79.567467 -39.852931   0.000850   0.001248
1 60391U 24140N   25017.56872529  .00000155  00000-0  22129-3 0  9999 | 2 60391  88.9902 333.2892 0015105  79.7357 280.5497 13.50910878 22828 | 2025/01/17-13:38:57  348.3973    0.1152  280.3795  106.5947     7447.0461     7435.7973     7458.2949  79.493760 -39.999972   0.000909   0.001207
1 60391U 24140N   25018.75381518  .00000169  00000-0  24307-3 0  9999 | 2 60391  88.9904 333.1682 0015106  76.7101 283.5734 13.50911272 22973 | 2025/01/18-18:05:29   56.3206    0.1152  283.4051  106.5947     7447.0446     7435.7951     7458.2942  79.409288 -40.167852   0.000973   0.001155
1 60391U 24140N   25019.86483641  .00000192  00000-0  27933-3 0  9996 | 2 60391  88.9904 333.0549 0015103  73.8860 286.3952 13.50911780 23126 | 2025/01/19-20:45:21   97.4989    0.1151  286.2291  106.5947     7447.0428     7435.7955     7458.2901  79.329702 -40.324802   0.001031   0.001104
1 60391U 24140N   25020.90178913  .00000224  00000-0  32797-3 0  9996 | 2 60391  88.9905 332.9490 0015091  71.2604 289.0183 13.50912284 23276 | 2025/01/20-21:38:34  111.9324    0.1151  288.8547  106.5946     7447.0409     7435.8026     7458.2793  79.255123 -40.471404   0.001082   0.001052
1 60391U 24140N   25021.93874145  .00000206  00000-0  30042-3 0  9991 | 2 60391  88.9905 332.8432 0015077  68.6367 291.6391 13.50912640 23413 | 2025/01/21-22:31:47  126.3660    0.1151  291.4784  106.5946     7447.0396     7435.8117     7458.2675  79.180255 -40.617684   0.001130   0.000999
1 60391U 24140N   25023.12382947  .00000179  00000-0  25870-3 0  9990 | 2 60391  88.9906 332.7223 0015064  65.6400 294.6322 13.50912961 23561 | 2025/01/23-02:58:18  194.2903    0.1152  294.4752  106.5946     7447.0384     7435.8202     7458.2567  79.094460 -40.784718   0.001181   0.000935
1 60391U 24140N   25024.16078095  .00000200  00000-0  29114-3 0  9991 | 2 60391  88.9907 332.6165 0015046  63.0046 297.2640 13.50913452 23708 | 2025/01/24-03:51:31  208.7243    0.1152  297.1106  106.5945     7447.0366     7435.8318     7458.2414  79.019103 -40.930747   0.001223   0.000876
1 60391U 24140N   25025.49400380  .00000207  00000-0  30285-3 0  9992 | 2 60391  88.9908 332.4805 0015015  59.6106 300.6527 13.50914012 23887 | 2025/01/25-11:51:21  330.1399    0.1151  300.5045  106.5945     7447.0346     7435.8529     7458.2163  78.921814 -41.118241   0.001272   0.000798
1 60391U 24140N   25026.53095451  .00000179  00000-0  25848-3 0  9994 | 2 60391  88.9909 332.3747 0014990  56.9707 303.2882 13.50914272 24039 | 2025/01/26-12:44:34  344.5744    0.1152  303.1445  106.5945     7447.0336     7435.8705     7458.1967  78.845841 -41.263951   0.001307   0.000735
1 60391U 24140N   25027.86417643  .00000178  00000-0  25778-3 0  9993 | 2 60391  88.9910 332.2387 0014950  53.5765 306.6762 13.50914724 24208 | 2025/01/27-20:44:24  105.9906    0.1151  306.5386  106.5944     7447.0320     7435.8987     7458.1653  78.747761 -41.451033   0.001346   0.000651
1 60391U 24140N   25028.90112621  .00000202  00000-0  29504-3 0  9996 | 2 60391  88.9911 332.1330 0014907  50.8931 309.3543 13.50915249 24359 | 2025/01/28-21:37:37  120.4256    0.1152  309.2221  106.5944     7447.0300     7435.9287     7458.1313  78.671246 -41.596284   0.001372   0.000583
1 60391U 24140N   25030.16027925  .00000204  00000-0  29702-3 0  9991 | 2 60391  88.9912 332.0046 0014853  47.6793 312.5613 13.50915646 24516 | 2025/01/30-03:50:48  215.0969    0.1151  312.4358  106.5944     7447.0286     7435.9675     7458.0896  78.577920 -41.772529   0.001399   0.000500
1 60391U 24140N   25031.49349938  .00000227  00000-0  33321-3 0  9996 | 2 60391  88.9913 331.8686 0014797  44.2529 315.9803 13.50916305 24691 | 2025/01/31-11:50:38  336.5137    0.1152  315.8623  106.5943     7447.0262     7436.0068     7458.0455  78.478633 -41.958975   0.001422   0.000411
1 60391U 24140N   25032.53044784  .00000237  00000-0  34887-3 0  9992 | 2 60391  88.9914 331.7629 0014732  41.5881 318.6388 13.50916787 24847 | 2025/02/01-12:43:50  350.9492    0.1152  318.5271  106.5943     7447.0244     7436.0534     7457.9953  78.401182 -42.103729   0.001433   0.000340
1 60391U 24140N   25033.56739589  .00000243  00000-0  35852-3 0  9990 | 2 60391  88.9914 331.6571 0014678  38.8977 321.3227 13.50917290 24984 | 2025/02/02-13:37:03    5.3849    0.1151  321.2174  106.5942     7447.0225     7436.0918     7457.9533  78.323301 -42.248430   0.001443   0.000269
1 60391U 24140N   25034.60434356  .00000233  00000-0  34207-3 0  9992 | 2 60391  88.9915 331.5514 0014621  36.2318 323.9820 13.50917725 25127 | 2025/02/03-14:30:15   19.8204    0.1151  323.8833  106.5942     7447.0209     7436.1326     7457.9092  78.245315 -42.392897   0.001449   0.000198
1 60391U 24140N   25035.78942600  .00000223  00000-0  32747-3 0  9994 | 2 60391  88.9915 331.4306 0014545  33.1494 327.0565 13.50918285 25270 | 2025/02/04-18:56:46   87.7468    0.1151  326.9657  106.5942     7447.0189     7436.1872     7457.8506  78.155762 -42.557772   0.001450   0.000116
1 60391U 24140N   25036.82637281  .00000217  00000-0  31704-3 0  9991 | 2 60391  88.9915 331.3249 0014471  30.4471 329.7517 13.50918727 25411 | 2025/02/05-19:49:58  102.1825    0.1151  329.6680  106.5941     7447.0173     7436.2407     7457.7938  78.077118 -42.701882   0.001446   0.000045
1 60391U 24140N   25037.86331916  .00000222  00000-0  32619-3 0  9994 | 2 60391  88.9915 331.2192 0014397  27.7073 332.4842 13.50919210 25556 | 2025/02/06-20:43:10  116.6183    0.1152  332.4079  106.5941     7447.0155     7436.2940     7457.7369  77.998208 -42.845847   0.001439  -0.000027
1 60391U 24140N   25038.90026532  .00000195  00000-0  28327-3 0  9995 | 2 60391  88.9915 331.1136 0014323  24.9879 335.1963 13.50919497 25703 | 2025/02/07-21:36:22  131.0539    0.1152  335.1273  106.5941     7447.0144     7436.3481     7457.6808  77.919108 -42.989530   0.001429  -0.000097
1 60391U 24140N   25040.15941373  .00000197  00000-0  28728-3 0  9991 | 2 60391  88.9916 330.9853 0014230  21.6673 338.5077 13.50919995 25863 | 2025/02/09-03:49:33  225.7259    0.1152  338.4479  106.5940     7447.0126     7436.4155     7457.6097  77.822735 -43.163952   0.001411  -0.000182
1 60391U 24140N   25041.49262920  .00000223  00000-0  32728-3 0  9998 | 2 60391  88.9916 330.8494 0014126  18.1237 342.0415 13.50920636 26045 | 2025/02/10-11:49:23  347.1432    0.1152  341.9915  106.5940     7447.0102     7436.4906     7457.5299  77.720136 -43.348418   0.001387  -0.000270
1 60391U 24140N   25042.52957422  .00000202  00000-0  29380-3 0  9998 | 2 60391  88.9917 330.7438 0014036  15.3318 344.8255 13.50920890 26192 | 2025/02/11-12:42:35    1.5790    0.1151  344.7833  106.5940     7447.0093     7436.5567     7457.4619  77.640197 -43.491637   0.001362  -0.000338
1 60391U 24140N   25043.56651887  .00000210  00000-0  30731-3 0  9990 | 2 60391  88.9917 330.6381 0013948  12.5501 347.5995 13.50921328 26336 | 2025/02/12-13:35:47   16.0145    0.1152  347.5651  106.5939     7447.0077     7436.6206     7457.3948  77.559831 -43.634794   0.001335  -0.000403
1 60391U 24140N   25044.82566562  .00000201  00000-0  29300-3 0  9995 | 2 60391  88.9918 330.5098 0013836   9.1233 351.0166 13.50921751 26498 | 2025/02/13-19:48:57  110.6864    0.1151  350.9918  106.5939     7447.0061     7436.7025     7457.3098  77.462014 -43.808410   0.001297  -0.000482
1 60391U 24140N   25045.86260959  .00000197  00000-0  28664-3 0  9997 | 2 60391  88.9918 330.4042 0013736   6.2880 353.8441 13.50922169 26648 | 2025/02/14-20:42:09  125.1217    0.1152  353.8272  106.5939     7447.0046     7436.7754     7457.2338  77.381141 -43.951104   0.001262  -0.000543
1 60391U 24140N   25046.89955332  .00000213  00000-0  31173-3 0  9995 | 2 60391  88.9918 330.2985 0013646   3.4682 356.6561 13.50922608 26788 | 2025/02/15-21:35:21  139.5570    0.1152  356.6470  106.5938     7447.0030     7436.8408     7457.1652  77.299928 -44.093782   0.001224  -0.000603
1 60391U 24140N   25047.93649655  .00000230  00000-0  33772-3 0  9995 | 2 60391  88.9917 330.1929 0013554   0.6048 359.5117 13.50923147 26921 | 2025/02/16-22:28:33  153.9921    0.1152  359.5104  106.5938     7447.0010     7436.9073     7457.0947  77.218442 -44.236127   0.001183  -0.000661
1 60391U 24140N   25049.12157419  .00000232  00000-0  34160-3 0  9994 | 2 60391  88.9916 330.0722 0013444 357.3041   2.8036 13.50923664 27072 | 2025/02/18-02:55:04  221.9176    0.1152    2.8111  106.5937     7446.9991     7436.9874     7457.0109  77.124996 -44.398648   0.001132  -0.000725
1 60391U 24140N   25050.15851668  .00000225  00000-0  33044-3 0  9998 | 2 60391  88.9915 329.9665 0013341 354.3460   5.7538 13.50924112 27216 | 2025/02/19-03:48:15  236.3525    0.1152    5.7692  106.5937     7446.9975     7437.0624     7456.9325  77.042871 -44.540803   0.001084  -0.000778
1 60391U 24140N   25051.56579528  .00000226  00000-0  33245-3 0  9990 | 2 60391  88.9914 329.8231 0013202 350.3678   9.7217 13.50924761 27416 | 2025/02/20-13:34:44   24.5136    0.1151    9.7473  106.5936     7446.9951     7437.1636     7456.8266  76.931066 -44.733437   0.001014  -0.000845
1 60391U 24140N   25052.82493876  .00000206  00000-0  30088-3 0  9991 | 2 60391  88.9914 329.6948 0013077 346.7596  13.3210 13.50925261 27574 | 2025/02/21-19:47:54  119.1835    0.1152   13.3556  106.5936     7446.9932     7437.2548     7456.7317  76.830704 -44.905593   0.000948  -0.000901
1 60391U 24140N   25053.93594733  .00000219  00000-0  32025-3 0  9995 | 2 60391  88.9913 329.5816 0012971 343.5805  16.4924 13.50925786 27732 | 2025/02/22-22:27:45  160.3626    0.1152   16.5347  106.5936     7446.9913     7437.3318     7456.6508  76.741747 -45.057250   0.000887  -0.000946
1 60391U 24140N   25055.12102272  .00000227  00000-0  33379-3 0  9993 | 2 60391  88.9913 329.4607 0012853 340.1275  19.9374 13.50926379 27884 | 2025/02/24-02:54:16  228.2867    0.1152   19.9877  106.5935     7446.9891     7437.4175     7456.5607  76.646501 -45.219082   0.000819  -0.000991
1 60391U 24140N   25056.45423193  .00000261  00000-0  38664-3 0  9998 | 2 60391  88.9912 329.3248 0012724 336.2011  23.8550 13.50927154 28067 | 2025/02/25-10:54:05  349.7008    0.1152   23.9141  106.5935     7446.9863     7437.5107     7456.4618  76.538944 -45.400702   0.000739  -0.001036
1 60391U 24140N   25057.49117209  .00000270  00000-0  40028-3 0  9998 | 2 60391  88.9911 329.2191 0012624 333.1151  26.9344 13.50927693 28201 | 2025/02/26-11:47:17    4.1336    0.1151   27.0000  106.5934     7446.9843     7437.5832     7456.3854  76.454972 -45.541773   0.000675  -0.001067
1 60391U 24140N   25058.52811190  .00000261  00000-0  38541-3 0  9990 | 2 60391  88.9910 329.1134 0012511 330.0339  30.0095 13.50928158 28346 | 2025/02/27-12:40:28   18.5658    0.1152   30.0813  106.5934     7446.9826     7437.6657     7456.2995  76.370740 -45.682690   0.000609  -0.001093
1 60391U 24140N   25059.56505129  .00000262  00000-0  38763-3 0  9994 | 2 60391  88.9909 329.0076 0012413 326.9007  33.1366 13.50928681 28497 | 2025/02/28-13:33:40   32.9979    0.1152   33.2145  106.5933     7446.9807     7437.7367     7456.2246  76.286168 -45.823583   0.000542  -0.001117
1 60391U 24140N   25060.82419150  .00000253  00000-0  37328-3 0  9999 | 2 60391  88.9907 328.8792 0012296 323.0326  36.9977 13.50929273 28653 | 2025/03/01-19:46:50  127.6649    0.1152   37.0826  106.5933     7446.9785     7437.8217     7456.1353  76.183115 -45.994322   0.000459  -0.001141
1 60391U 24140N   25061.93519731  .00000213  00000-0  31157-3 0  9998 | 2 60391  88.9906 328.7659 0012192 319.6230  40.4015 13.50929622 28812 | 2025/03/02-22:26:41  168.8411    0.1152   40.4922  106.5933     7446.9772     7437.8979     7456.0566  76.091929 -46.144829   0.000385  -0.001157
1 60391U 24140N   25063.12026976  .00000221  00000-0  32369-3 0  9990 | 2 60391  88.9904 328.6450 0012080 315.9292  44.0895 13.50930164 28966 | 2025/03/04-02:53:11  236.7620    0.1151   44.1859  106.5932     7446.9752     7437.9793     7455.9712  75.994218 -46.305184   0.000304  -0.001169
1 60391U 24140N   25064.15720783  .00000223  00000-0  32711-3 0  9994 | 2 60391  88.9903 328.5392 0011999 312.6214  47.3924 13.50930641 29101 | 2025/03/05-03:46:22  251.1924    0.1151   47.4937  106.5932     7446.9735     7438.0378     7455.9091  75.908498 -46.445381   0.000232  -0.001177
1 60391U 24140N   25065.49041371  .00000171  00000-0  24609-3 0  9990 | 2 60391  88.9901 328.4032 0011880 308.4003  51.6081 13.50931004 29282 | 2025/03/06-11:46:11   12.6020    0.1152   51.7149  106.5932     7446.9721     7438.1251     7455.8191  75.797869 -46.625325   0.000141  -0.001180
1 60391U 24140N   25066.82361927  .00000192  00000-0  27953-3 0  9998 | 2 60391  88.9900 328.2672 0011777 304.1308  55.8726 13.50931555 29479 | 2025/03/07-19:46:00  134.0111    0.1152   55.9844  106.5931     7446.9701     7438.1998     7455.7404  75.686899 -46.805058   0.000049  -0.001177
1 60391U 24140N   25068.15682444  .00000189  00000-0  27477-3 0  9993 | 2 60391  88.9899 328.1311 0011678 299.8401  60.1588 13.50932060 29645 | 2025/03/09-03:45:49  255.4196    0.1151   60.2750  106.5931     7446.9683     7438.2717     7455.6648  75.575420 -46.984659  -0.000041  -0.001167
1 60391U 24140N   25069.19376165  .00000182  00000-0  26380-3 0  9993 | 2 60391  88.9898 328.0252 0011606 296.4692  63.5268 13.50932377 29781 | 2025/03/10-04:39:01  269.8479    0.1151   63.6459  106.5930     7446.9671     7438.3241     7455.6100  75.488364 -47.124212  -0.000111  -0.001155
1 60391U 24140N   25070.52696637  .00000162  00000-0  23222-3 0  9991 | 2 60391  88.9896 327.8891 0011525 292.0905  67.9022 13.50932721 29974 | 2025/03/11-12:38:49   31.2550    0.1151   68.0246  106.5930     7446.9658     7438.3832     7455.5485  75.376043 -47.303287  -0.000201  -0.001135
1 60391U 24140N   25071.63797008  .00000163  00000-0  23443-3 0  9994 | 2 60391  88.9895 327.7757 0011462 288.4041  71.5863 13.50933074 30128 | 2025/03/12-15:18:40   72.4271    0.1151   71.7110  106.5930     7446.9645     7438.4288     7455.5002  75.282188 -47.452326  -0.000274  -0.001113
1 60391U 24140N   25072.82304036  .00000188  00000-0  27301-3 0  9995 | 2 60391  88.9893 327.6547 0011396 284.4509  75.5377 13.50933591 30277 | 2025/03/13-19:45:10  140.3433    0.1151   75.6642  106.5930     7446.9626     7438.4761     7455.4492  75.181639 -47.611098  -0.000350  -0.001084
1 60391U 24140N   25073.85997663  .00000194  00000-0  28215-3 0  9995 | 2 60391  88.9891 327.5488 0011346 280.9782  79.0093 13.50934013 30417 | 2025/03/14-20:38:21  154.7694    0.1152   79.1370  106.5929     7446.9611     7438.5118     7455.4104  75.093342 -47.749867  -0.000415  -0.001056
1 60391U 24140N   25074.89691261  .00000199  00000-0  28985-3 0  9994 | 2 60391  88.9889 327.4429 0011312 277.4821  82.5044 13.50934445 30555 | 2025/03/15-21:31:33  169.1953    0.1150   82.6329  106.5929     7446.9595     7438.5355     7455.3835  75.004789 -47.888473  -0.000479  -0.001025
1 60391U 24140N   25075.93384840  .00000208  00000-0  30471-3 0  9996 | 2 60391  88.9887 327.3369 0011278 273.9860  86.0002 13.50934876 30708 | 2025/03/16-22:24:44  183.6205    0.1151   86.1291  106.5929     7446.9579     7438.5592     7455.3566  74.915897 -48.027046  -0.000541  -0.000989
1 60391U 24140N   25077.11891754  .00000204  00000-0  29740-3 0  9998 | 2 60391  88.9885 327.2158 0011255 269.9609  90.0253 13.50935368 30858 | 2025/03/18-02:51:14  251.5346    0.1152   90.1543  106.5928     7446.9561     7438.5745     7455.3376  74.814052 -48.185172  -0.000610  -0.000946
1 60391U 24140N   25078.15585271  .00000223  00000-0  32702-3 0  9990 | 2 60391  88.9883 327.1098 0011230 266.4402  93.5465 13.50935894 30996 | 2025/03/19-03:44:25  265.9588    0.1151   93.6749  106.5928     7446.9542     7438.5912     7455.3171  74.724611 -48.323391  -0.000667  -0.000903
1 60391U 24140N   25079.63718827  .00000197  00000-0  28633-3 0  9997 | 2 60391  88.9880 326.9583 0011204 261.4000  98.5881 13.50936435 31203 | 2025/03/20-15:17:33   80.8498    0.1150   98.7150  106.5927     7446.9522     7438.6086     7455.2957  74.596323 -48.520643  -0.000744  -0.000837
1 60391U 24140N   25080.89632299  .00000199  00000-0  29023-3 0  9991 | 2 60391  88.9879 326.8296 0011204 257.1141 102.8759 13.50936988 31362 | 2025/03/21-21:30:42  175.5061    0.1151  103.0010  106.5927     7446.9501     7438.6066     7455.2937  74.487062 -48.688027  -0.000807  -0.000778
1 60391U 24140N   25081.93325709  .00000235  00000-0  34551-3 0  9995 | 2 60391  88.9877 326.7235 0011194 253.5537 106.4384 13.50937614 31517 | 2025/03/22-22:23:53  189.9285    0.1151  106.5614  106.5926     7446.9478     7438.6117     7455.2840  74.396607 -48.825768  -0.000854  -0.000724
1 60391U 24140N   25082.97019097  .00000230  00000-0  33756-3 0  9991 | 2 60391  88.9875 326.6175 0011203 250.0244 109.9701 13.50938097 31657 | 2025/03/23-23:17:04  204.3503    0.1151  110.0907  106.5926     7446.9461     7438.6033     7455.2889  74.305983 -48.963212  -0.000899  -0.000669
1 60391U 24140N   25084.08119133  .00000221  00000-0  32380-3 0  9999 | 2 60391  88.9873 326.5038 0011236 246.2632 113.7341 13.50938528 31793 | 2025/03/25-01:56:54  245.5164    0.1151  113.8519  106.5926     7446.9445     7438.5771     7455.3119  74.208505 -49.110461  -0.000945  -0.000608
1 60391U 24140N   25085.19219146  .00000202  00000-0  29498-3 0  9992 | 2 60391  88.9871 326.3901 0011252 242.4207 117.5801 13.50938945 31945 | 2025/03/26-04:36:45  286.6817    0.1150  117.6943  106.5925     7446.9430     7438.5637     7455.3223  74.110736 -49.257515  -0.000986  -0.000542
1 60391U 24140N   25086.45132457  .00000196  00000-0  28461-3 0  9992 | 2 60391  88.9869 326.2612 0011293 238.1228 121.8825 13.50939397 32127 | 2025/03/27-10:49:54   21.3351    0.1151  121.9923  106.5925     7446.9413     7438.5315     7455.3511  73.999566 -49.424009  -0.001029  -0.000466
1 60391U 24140N   25087.48825741  .00000187  00000-0  27163-3 0  9999 | 2 60391  88.9867 326.1550 0011350 234.6628 125.3463 13.50939746 32264 | 2025/03/28-11:43:05   35.7554    0.1151  125.4523  106.5925     7446.9400     7438.4877     7455.3923  73.907663 -49.560973  -0.001061  -0.000403
1 60391U 24140N   25088.89552327  .00000164  00000-0  23532-3 0  9993 | 2 60391  88.9864 326.0108 0011417 229.9705 130.0445 13.50940120 32447 | 2025/03/29-21:29:33  183.8964    0.1151  130.1446  106.5924     7446.9386     7438.4365     7455.4408  73.782447 -49.746657  -0.001098  -0.000314
1 60391U 24140N   25090.08058896  .00000188  00000-0  27343-3 0  9999 | 2 60391  88.9862 325.8893 0011476 225.9492 134.0715 13.50940587 32606 | 2025/03/31-01:56:02  251.8039    0.1151  134.1659  106.5924     7446.9369     7438.3908     7455.4830  73.676624 -49.902894  -0.001123  -0.000235
1 60391U 24140N   25091.19158780  .00000158  00000-0  22673-3 0  9993 | 2 60391  88.9859 325.7755 0011541 222.2514 137.7748 13.50940885 32759 | 2025/04/01-04:35:53  292.9669    0.1150  137.8636  106.5924     7446.9358     7438.3413     7455.5303  73.577115 -50.048962  -0.001143  -0.000161
1 60391U 24140N   25092.52478618  .00000136  00000-0  19239-3 0  9996 | 2 60391  88.9856 325.6389 0011633 217.8822 142.1512 13.50941199 32930 | 2025/04/02-12:35:41   54.3618    0.1151  142.2329  106.5924     7446.9347     7438.2716     7455.5977  73.457335 -50.224067  -0.001161  -0.000071
1 60391U 24140N   25093.56171804  .00000153  00000-0  21902-3 0  9997 | 2 60391  88.9854 325.5326 0011704 214.4450 145.5943 13.50941582 33085 | 2025/04/03-13:28:52   68.7797    0.1150  145.6700  106.5923     7446.9333     7438.2174     7455.6492  73.363864 -50.360151  -0.001170   0.000000
1 60391U 24140N   25094.59864982  .00000154  00000-0  22043-3 0  9995 | 2 60391  88.9853 325.4262 0011778 211.0111 149.0346 13.50941853 33223 | 2025/04/04-14:22:03   83.1972    0.1151  149.1040  106.5923     7446.9323     7438.1613     7455.7033  73.270135 -50.496247  -0.001176   0.000073
1 60391U 24140N   25095.85778099  .00000122  00000-0  17116-3 0  9998 | 2 60391  88.9851 325.2970 0011875 207.0331 153.0202 13.50942111 33383 | 2025/04/05-20:35:12  177.8470    0.1150  153.0819  106.5923     7446.9313     7438.0881     7455.7745  73.155917 -50.661226  -0.001177   0.000158
1 60391U 24140N   25096.89471242  .00000138  00000-0  19603-3 0  9993 | 2 60391  88.9850 325.1907 0011962 203.7379 156.3222 13.50942403 33521 | 2025/04/06-21:28:23  192.2639    0.1151  156.3772  106.5923     7446.9302     7438.0222     7455.8383  73.061718 -50.796807  -0.001174   0.000230
1 60391U 24140N   25097.93164374  .00000112  00000-0  15533-3 0  9994 | 2 60391  88.9848 325.0843 0012062 200.4538 159.6131 13.50942564 33678 | 2025/04/07-22:21:34  206.6808    0.1150  159.6612  106.5922     7446.9297     7437.9472     7455.9121  72.967097 -50.932282  -0.001168   0.000301
1 60391U 24140N   25099.19077436  .00000143  00000-0  20309-3 0  9997 | 2 60391  88.9846 324.9551 0012181 196.5313 163.5443 13.50942972 33839 | 2025/04/09-04:34:42  301.3294    0.1151  163.5838  106.5922     7446.9282     7437.8570     7455.9993  72.851897 -51.096576  -0.001155   0.000387
1 60391U 24140N   25100.52397124  .00000143  00000-0  20309-3 0  9996 | 2 60391  88.9844 324.8182 0012311 192.4080 167.6770 13.50943318 34022 | 2025/04/10-12:34:31   62.7219    0.1151  167.7071  106.5922     7446.9269     7437.7590     7456.0948  72.729438 -51.270384  -0.001135   0.000477
1 60391U 24140N   25101.85716786  .00000132  00000-0  18550-3 0  9995 | 2 60391  88.9841 324.6813 0012446 188.3447 171.7499 13.50943588 34199 | 2025/04/11-20:34:19  184.1140    0.1150  171.7703  106.5922     7446.9259     7437.6574     7456.1943  72.606483 -51.443840  -0.001109   0.000565
1 60391U 24140N   25102.89409833  .00000139  00000-0  19653-3 0  9994 | 2 60391  88.9839 324.5748 0012556 185.1917 174.9106 13.50943868 34338 | 2025/04/12-21:27:30  198.5298    0.1150  174.9233  106.5921     7446.9249     7437.5745     7456.2752  72.510572 -51.578595  -0.001085   0.000632
1 60391U 24140N   25104.15322795  .00000138  00000-0  19541-3 0  9991 | 2 60391  88.9836 324.4455 0012689 181.4020 178.7098 13.50944201 34503 | 2025/04/14-03:40:38  293.1773    0.1151  178.7131  106.5921     7446.9236     7437.4742     7456.3730  72.393745 -51.741924  -0.001050   0.000712
1 60391U 24140N   25105.19015800  .00000138  00000-0  19484-3 0  9998 | 2 60391  88.9834 324.3390 0012798 178.3262 181.7934 13.50944464 34641 | 2025/04/15-04:33:49  307.5929    0.1150  181.7888  106.5921     7446.9227     7437.3921     7456.4532  72.297281 -51.876282  -0.001018   0.000776
1 60391U 24140N   25106.37522073  .00000123  00000-0  17179-3 0  9997 | 2 60391  88.9831 324.2171 0012918 174.8541 185.2745 13.50944687 34803 | 2025/04/16-09:00:19   15.4964    0.1150  185.2609  106.5921     7446.9218     7437.3019     7456.5418  72.186504 -52.029805  -0.000976   0.000846
1 60391U 24140N   25107.63434964  .00000104  00000-0  14321-3 0  9993 | 2 60391  88.9830 324.0877 0013056 171.1967 188.9416 13.50944912 34984 | 2025/04/17-15:13:27  110.1436    0.1151  188.9184  106.5921     7446.9210     7437.1983     7456.6437  72.068732 -52.192644  -0.000928   0.000919
1 60391U 24140N   25108.81941192  .00000093  00000-0  12481-3 0  9992 | 2 60391  88.9828 323.9658 0013181 167.8075 192.3398 13.50945101 35134 | 2025/04/18-19:39:57  178.0470    0.1151  192.3076  106.5920     7446.9203     7437.1045     7456.7361  71.957365 -52.345738  -0.000878   0.000983
1 60391U 24140N   25109.93040782  .00000063  00000-0  79425-4 0  9990 | 2 60391  88.9827 323.8516 0013296 164.6692 195.4865 13.50945162 35299 | 2025/04/19-22:19:47  219.2064    0.1151  195.4459  106.5920     7446.9201     7437.0187     7456.8215  71.852808 -52.488998  -0.000828   0.001040
1 60391U 24140N   25111.18953636  .00000042  00000-0  46598-4 0  9993 | 2 60391  88.9825 323.7221 0013423 161.1235 199.0417 13.50945244 35458 | 2025/04/21-04:32:55  313.8537    0.1151  198.9916  106.5920     7446.9198     7436.9238     7456.9158  71.733827 -52.651148  -0.000767   0.001102
1 60391U 24140N   25112.52273122  .00000058  00000-0  70821-4 0  9990 | 2 60391  88.9823 323.5849 0013562 157.4297 202.7453 13.50945388 35631 | 2025/04/22-12:32:43   75.2453    0.1150  202.6853  106.5920     7446.9193     7436.8198     7457.0188  71.607383 -52.822651  -0.000699   0.001162
1 60391U 24140N   25113.70779318  .00000052  00000-0  61953-4 0  9999 | 2 60391  88.9821 323.4630 0013680 154.1923 205.9913 13.50945446 35795 | 2025/04/23-16:59:13  143.1490    0.1150  205.9227  106.5920     7446.9191     7436.7317     7457.1064  71.494677 -52.974761  -0.000635   0.001212
1 60391U 24140N   25114.89285500  .00000068  00000-0  87106-4 0  9990 | 2 60391  88.9819 323.3410 0013801 150.9822 209.2099 13.50945584 35968 | 2025/04/24-21:25:42  211.0528    0.1150  209.1328  106.5920     7446.9186     7436.6411     7457.1960  71.381555 -53.126755  -0.000568   0.001258
1 60391U 24140N   25115.92978390  .00000084  00000-0  11059-3 0  9992 | 2 60391  88.9818 323.2342 0013905 148.1921 212.0072 13.50945766 36106 | 2025/04/25-22:18:53  225.4688    0.1150  211.9229  106.5920     7446.9179     7436.5629     7457.2728  71.282322 -53.259659  -0.000508   0.001294
1 60391U 24140N   25117.18891167  .00000066  00000-0  83341-4 0  9992 | 2 60391  88.9815 323.1045 0014016 144.8231 215.3848 13.50945871 36264 | 2025/04/27-04:32:01  320.1170    0.1150  215.2919  106.5920     7446.9175     7436.4799     7457.3551  71.161336 -53.420703  -0.000431   0.001334
1 60391U 24140N   25118.52210550  .00000084  00000-0  11058-3 0  9997 | 2 60391  88.9814 322.9672 0014142 141.2989 218.9178 13.50946102 36440 | 2025/04/28-12:31:49   81.5093    0.1150  218.8161  106.5920     7446.9166     7436.3852     7457.4481  71.033038 -53.591016  -0.000348   0.001371
1 60391U 24140N   25121.78102288  .00000031  00000-0  29550-4 0  9996 | 2 60391  88.9810 322.6315 0014407 132.7572 227.4794 13.50946303 36884 | 2025/05/01-18:44:40  178.2475    0.1151  227.3579  106.5919     7446.9159     7436.1871     7457.6447  70.717509 -54.006039  -0.000135   0.001434
1 60391U 24140N   25122.81795088  .00000042  00000-0  46275-4 0  9992 | 2 60391  88.9809 322.5246 0014497 130.0931 230.1494 13.50946447 37038 | 2025/05/02-19:37:50  192.6646    0.1151  230.0220  106.5919     7446.9154     7436.1196     7457.7112  70.616545 -54.137826  -0.000066   0.001448
1 60391U 24140N   25123.92894511  .00000044  00000-0  48806-4 0  9990 | 2 60391  88.9808 322.4102 0014584 127.2501 232.9983 13.50946530 37187 | 2025/05/03-22:17:40  233.8261    0.1151  232.8650  106.5919     7446.9151     7436.0545     7457.7757  70.508230 -54.278654   0.000009   0.001458
1 60391U 24140N   25125.18807181  .00000052  00000-0  61918-4 0  9995 | 2 60391  88.9808 322.2804 0014660 123.9876 236.2670 13.50946599 37340 | 2025/05/05-04:30:49  328.4764    0.1150  236.1274  106.5919     7446.9148     7435.9976     7457.8320  70.385085 -54.438246   0.000095   0.001463
1 60391U 24140N   25126.44719829  .00000057  00000-0  69196-4 0  9997 | 2 60391  88.9807 322.1506 0014733 120.7730 239.4873 13.50946708 37513 | 2025/05/06-10:43:57   63.1271    0.1150  239.3420  106.5919     7446.9144     7435.9429     7457.8860  70.261499 -54.597498   0.000181   0.001462
1 60391U 24140N   25127.48412585  .00000064  00000-0  80646-4 0  9992 | 2 60391  88.9806 322.0436 0014792 118.1553 242.1095 13.50946794 37659 | 2025/05/07-11:37:08   77.5455    0.1151  241.9598  106.5919     7446.9141     7435.8986     7457.9296  70.159336 -54.728555   0.000252   0.001458
1 60391U 24140N   25128.52105321  .00000066  00000-0  83479-4 0  9994 | 2 60391  88.9805 321.9367 0014846 115.5519 244.7169 13.50946898 37792 | 2025/05/08-12:30:18   91.9643    0.1151  244.5632  106.5919     7446.9137     7435.8580     7457.9694  70.057025 -54.859298   0.000322   0.001449
1 60391U 24140N   25129.85424532  .00000067  00000-0  84520-4 0  9998 | 2 60391  88.9804 321.7993 0014908 112.2200 248.0535 13.50947014 37979 | 2025/05/09-20:30:06  213.3602    0.1152  247.8952  106.5919     7446.9133     7435.8114     7458.0152  69.925188 -55.027081   0.000410   0.001433
1 60391U 24140N   25130.89117226  .00000069  00000-0  87831-4 0  9993 | 2 60391  88.9803 321.6924 0014952 109.6326 250.6440 13.50947148 38118 | 2025/05/10-21:23:17  227.7798    0.1150  250.4824  106.5919     7446.9128     7435.7782     7458.0474  69.822321 -55.157386   0.000479   0.001416
1 60391U 24140N   25131.92809910  .00000054  00000-0  64598-4 0  9995 | 2 60391  88.9801 321.5855 0014988 107.0521 253.2273 13.50947203 38267 | 2025/05/11-22:16:27  242.1996    0.1150  253.0629  106.5919     7446.9126     7435.7512     7458.0740  69.719133 -55.287437   0.000546   0.001396
1 60391U 24140N   25133.18722432  .00000040  00000-0  43056-4 0  9999 | 2 60391  88.9801 321.4556 0015025 103.8641 256.4182 13.50947271 38421 | 2025/05/13-04:29:36  336.8527    0.1150  256.2509  106.5919     7446.9124     7435.7234     7458.1013  69.593607 -55.445361   0.000627   0.001365
1 60391U 24140N   25134.52041546  .00000038  00000-0  40653-4 0  9995 | 2 60391  88.9800 321.3182 0015051 100.5708 259.7139 13.50947397 38608 | 2025/05/14-12:29:23   98.2506    0.1151  259.5443  106.5919     7446.9119     7435.7035     7458.1202  69.460366 -55.612030   0.000709   0.001328
1 60391U 24140N   25135.55734181  .00000031  00000-0  29685-4 0  9998 | 2 60391  88.9801 321.2112 0015068  97.9942 262.2920 13.50947450 38751 | 2025/05/15-13:22:34  112.6716    0.1151  262.1209  106.5919     7446.9117     7435.6907     7458.1327  69.356468 -55.741713   0.000771   0.001294
1 60391U 24140N   25136.81646656  .00000017  00000-0  79827-5 0  9995 | 2 60391  88.9800 321.0813 0015088  94.8519 265.4355 13.50947450 38919 | 2025/05/16-19:35:42  207.3263    0.1151  265.2632  106.5919     7446.9117     7435.6758     7458.1476  69.229835 -55.898751   0.000845   0.001250
1 60391U 24140N   25137.85339273  .00000028  00000-0  24926-4 0  9995 | 2 60391  88.9801 320.9743 0015097  92.2570 268.0310 13.50947516 39058 | 2025/05/17-20:28:53  221.7481    0.1151  267.8581  106.5919     7446.9115     7435.6689     7458.1541  69.125401 -56.028003   0.000904   0.001209
1 60391U 24140N   25138.89031869  .00000043  00000-0  47727-4 0  9991 | 2 60391  88.9800 320.8674 0015098  89.7557 270.5324 13.50947637 39200 | 2025/05/18-21:22:03  236.1703    0.1151  270.3594  106.5918     7446.9110     7435.6677     7458.1544  69.020669 -56.156814   0.000958   0.001167
1 60391U 24140N   25140.14944298  .00000042  00000-0  46623-4 0  9994 | 2 60391  88.9800 320.7375 0015074  86.6755 273.6121 13.50947691 39363 | 2025/05/20-03:35:11  330.8265    0.1152  273.4397  106.5918     7446.9108     7435.6853     7458.1363  68.893173 -56.313152   0.001020   0.001110
1 60391U 24140N   25141.18636868  .00000058  00000-0  70280-4 0  9993 | 2 60391  88.9800 320.6306 0015064  84.1061 276.1806 13.50947784 39505 | 2025/05/21-04:28:22  345.2496    0.1150  276.0089  106.5918     7446.9105     7435.6924     7458.1285  68.787987 -56.441591   0.001070   0.001060
1 60391U 24140N   25142.51955871  .00000062  00000-0  76905-4 0  9994 | 2 60391  88.9800 320.4930 0015043  80.7725 279.5127 13.50947884 39685 | 2025/05/22-12:28:09  106.6512    0.1151  279.3426  106.5918     7446.9101     7435.7077     7458.1125  68.652240 -56.606628   0.001131   0.000992
1 60391U 24140N   25143.55648399  .00000057  00000-0  68997-4 0  9999 | 2 60391  88.9800 320.3860 0015013  78.2287 282.0547 13.50947971 39837 | 2025/05/23-13:21:20  121.0751    0.1151  281.8864  106.5918     7446.9098     7435.7297     7458.0898  68.546407 -56.734737   0.001173   0.000937
1 60391U 24140N   25144.81560743  .00000048  00000-0  55214-4 0  9993 | 2 60391  88.9800 320.2561 0014970  75.0928 285.1880 13.50948033 39993 | 2025/05/24-19:34:28  215.7331    0.1152  285.0224  106.5918     7446.9096     7435.7615     7458.0576  68.417603 -56.889999   0.001221   0.000866
1 60391U 24140N   25145.92659848  .00000042  00000-0  46163-4 0  9998 | 2 60391  88.9800 320.1416 0014942  72.3025 287.9756 13.50948121 40158 | 2025/05/25-22:14:18  256.9021    0.1151  287.8126  106.5918     7446.9092     7435.7821     7458.0364  68.303778 -57.026611   0.001261   0.000802
1 60391U 24140N   25147.85231592  .00000026  00000-0  22215-4 0  9998 | 2 60391  88.9801 319.9430 0014851  67.5000 292.7721 13.50948226 40409 | 2025/05/27-20:27:20  232.2631    0.1151  292.6151  106.5918     7446.9088     7435.8494     7457.9682  68.105777 -57.263088   0.001318   0.000684
1 60391U 24140N   25148.88924069  .00000021  00000-0  13303-4 0  9993 | 2 60391  88.9801 319.8360 0014819  64.8724 295.3962 13.50948232 40556 | 2025/05/28-21:20:30  246.6886    0.1151  295.2427  106.5918     7446.9088     7435.8732     7457.9444  67.998720 -57.390176   0.001346   0.000619
1 60391U 24140N   25149.92616532  .00000012  00000-0 -81373-6 0  9997 | 2 60391  88.9802 319.7291 0014778  62.2622 298.0026 13.50948238 40694 | 2025/05/29-22:13:40  261.1142    0.1152  297.8530  106.5918     7446.9088     7435.9038     7457.9138  67.891602 -57.517010   0.001370   0.000553
1 60391U 24140N   25151.18528794  .00000019  00000-0  99655-5 0  9997 | 2 60391  88.9803 319.5992 0014683  59.0938 301.1654 13.50948280 40858 | 2025/05/31-04:26:48  355.7749    0.1151  301.0213  106.5918     7446.9086     7435.9743     7457.8429  67.761102 -57.670849   0.001391   0.000471
1 60391U 24140N   25152.51847627  .00000057  00000-0  69423-4 0  9995 | 2 60391  88.9804 319.4617 0014571  55.6938 304.5590 13.50948541 41037 | 2025/06/01-12:26:36  117.1806    0.1151  304.4213  106.5918     7446.9077     7436.0568     7457.7586  67.622583 -57.833363   0.001406   0.000381
1 60391U 24140N   25153.85166480  .00000042  00000-0  47056-4 0  9996 | 2 60391  88.9805 319.3243 0014491  52.3097 307.9366 13.50948460 41211 | 2025/06/02-20:26:23  238.5864    0.1152  307.8055  106.5918     7446.9080     7436.1167     7457.6993  67.483775 -57.995426   0.001419   0.000292
1 60391U 24140N   25155.18485278  .00000073  00000-0  94520-4 0  9995 | 2 60391  88.9806 319.1868 0014374  48.8440 311.3949 13.50948679 41392 | 2025/06/04-04:26:11  359.9931    0.1152  311.2712  106.5918     7446.9072     7436.2030     7457.6114  67.344478 -58.157274   0.001423   0.000201
1 60391U 24140N   25156.51804045  .00000094  00000-0  12625-3 0  9998 | 2 60391  88.9806 319.0493 0014260  45.3715 314.8597 13.50948926 41589 | 2025/06/05-12:25:58  121.3999    0.1152  314.7437  106.5917     7446.9063     7436.2870     7457.5256  67.204716 -58.318722   0.001422   0.000110
1 60391U 24140N   25157.55496401  .00000077  00000-0  10131-3 0  9997 | 2 60391  88.9807 318.9424 0014165  42.6549 317.5699 13.50949040 41728 | 2025/06/06-13:19:08  135.8277    0.1151  317.4602  106.5917     7446.9059     7436.3573     7457.4544  67.095866 -58.444073   0.001416   0.000039
1 60391U 24140N   25158.59188733  .00000079  00000-0  10330-3 0  9991 | 2 60391  88.9807 318.8355 0014069  39.9318 320.2865 13.50949222 41869 | 2025/06/07-14:12:19  150.2555    0.1151  320.1833  106.5917     7446.9052     7436.4281     7457.3822  66.986707 -58.569156   0.001407  -0.000030
1 60391U 24140N   25159.70287652  .00000078  00000-0  10252-3 0  9997 | 2 60391  88.9808 318.7210 0013973  37.0004 323.2108 13.50949366 42002 | 2025/06/08-16:52:08  191.4283    0.1152  323.1148  106.5917     7446.9047     7436.4991     7457.3102  66.869604 -58.702971   0.001393  -0.000104
1 60391U 24140N   25160.88793143  .00000043  00000-0  48256-4 0  9993 | 2 60391  88.9808 318.5989 0013858  33.8216 326.3816 13.50949444 42179 | 2025/06/09-21:18:37  259.3462    0.1152  326.2936  106.5917     7446.9044     7436.5844     7457.2243  66.744353 -58.845340   0.001374  -0.000183
1 60391U 24140N   25161.92485437  .00000046  00000-0  52150-4 0  9994 | 2 60391  88.9809 318.4921 0013746  31.0140 329.1820 13.50949559 42316 | 2025/06/10-22:11:47  273.7745    0.1152  329.1012  106.5917     7446.9039     7436.6674     7457.1405  66.634624 -58.969716   0.001352  -0.000250
1 60391U 24140N   25163.18397493  .00000062  00000-0  77553-4 0  9990 | 2 60391  88.9811 318.3624 0013618  27.6055 332.5817 13.50949752 42478 | 2025/06/12-04:24:55    8.4375    0.1152  332.5097  106.5917     7446.9032     7436.7620     7457.0444  66.501114 -59.120538   0.001321  -0.000330
1 60391U 24140N   25164.51716139  .00000064  00000-0  81260-4 0  9992 | 2 60391  88.9812 318.2250 0013490  23.9904 336.1873 13.50949886 42653 | 2025/06/13-12:24:42  129.8455    0.1152  336.1248  106.5917     7446.9027     7436.8569     7456.9486  66.359221 -59.279910   0.001285  -0.000412
1 60391U 24140N   25165.55408404  .00000070  00000-0  89908-4 0  9994 | 2 60391  88.9814 318.1182 0013380  21.1056 339.0645 13.50949986 42801 | 2025/06/14-13:17:52  144.2741    0.1152  339.0096  106.5917     7446.9024     7436.9384     7456.8663  66.248756 -59.403635   0.001251  -0.000475
1 60391U 24140N   25166.81320416  .00000078  00000-0  10186-3 0  9999 | 2 60391  88.9815 317.9885 0013216  17.5462 342.6143 13.50950180 42965 | 2025/06/15-19:31:00  238.9377    0.1152  342.5690  106.5916     7446.9017     7437.0598     7456.7435  66.114189 -59.553516   0.001203  -0.000547
1 60391U 24140N   25167.85012654  .00000094  00000-0  12723-3 0  9993 | 2 60391  88.9815 317.8817 0013101  14.6558 345.4970 13.50950338 43118 | 2025/06/16-20:24:10  253.3663    0.1151  345.4593  106.5916     7446.9011     7437.1449     7456.6573  66.003066 -59.676650   0.001162  -0.000604
1 60391U 24140N   25168.88704874  .00000099  00000-0  13479-3 0  9993 | 2 60391  88.9816 317.7750 0012977  11.7321 348.4130 13.50950507 43254 | 2025/06/17-21:17:21  267.7947    0.1152  348.3831  106.5916     7446.9005     7437.2366     7456.5643  65.891892 -59.799529   0.001118  -0.000658
1 60391U 24140N   25170.07210248  .00000097  00000-0  13135-3 0  9991 | 2 60391  88.9817 317.6529 0012847   8.3124 351.8238 13.50950697 43401 | 2025/06/19-01:43:49  335.7131    0.1152  351.8028  106.5916     7446.8998     7437.3327     7456.4668  65.764381 -59.939879   0.001065  -0.000719
1 60391U 24140N   25171.18309020  .00000101  00000-0  13867-3 0  9999 | 2 60391  88.9817 317.5385 0012727   5.0789 355.0489 13.50950884 43556 | 2025/06/20-04:23:38   16.8866    0.1152  355.0363  106.5916     7446.8991     7437.4214     7456.3767  65.644570 -60.071069   0.001011  -0.000773
1 60391U 24140N   25172.44220955  .00000077  00000-0  10133-3 0  9993 | 2 60391  88.9818 317.4089 0012601   1.4084 358.7100 13.50950994 43727 | 2025/06/21-10:36:46  111.5496    0.1151  358.7067  106.5916     7446.8987     7437.5148     7456.2825  65.508599 -60.219467   0.000948  -0.000830
1 60391U 24140N   25173.47913111  .00000070  00000-0  89479-4 0  9993 | 2 60391  88.9819 317.3022 0012484 358.3257   1.7850 13.50951160 43867 | 2025/06/22-11:29:56  125.9778    0.1152    1.7895  106.5916     7446.8981     7437.6014     7456.1948  65.396414 -60.341425   0.000892  -0.000873
1 60391U 24140N   25174.51605270  .00000063  00000-0  78646-4 0  9999 | 2 60391  88.9820 317.1955 0012369 355.1854   4.9176 13.50951250 44005 | 2025/06/23-12:23:06  140.4060    0.1152    4.9298  106.5916     7446.8977     7437.6867     7456.1088  65.284002 -60.463174   0.000834  -0.000914
1 60391U 24140N   25175.55297418  .00000049  00000-0  56896-4 0  9992 | 2 60391  88.9821 317.0888 0012254 352.0261   8.0693 13.50951360 44147 | 2025/06/24-13:16:16  154.8341    0.1151    8.0890  106.5916     7446.8973     7437.7719     7456.0228  65.171364 -60.584713   0.000773  -0.000951
1 60391U 24140N   25176.58989568  .00000062  00000-0  77202-4 0  9999 | 2 60391  88.9822 316.9821 0012135 348.8445  11.2435 13.50951483 44290 | 2025/06/25-14:09:26  169.2619    0.1152   11.2707  106.5915     7446.8969     7437.8601     7455.9337  65.058499 -60.706043   0.000710  -0.000984
1 60391U 24140N   25177.84901460  .00000063  00000-0  78853-4 0  9998 | 2 60391  88.9823 316.8525 0012000 344.9658  15.1135 13.50951618 44453 | 2025/06/26-20:22:34  263.9241    0.1152   15.1494  106.5915     7446.8964     7437.9601     7455.8327  64.921092 -60.853114   0.000633  -0.001020
1 60391U 24140N   25178.88593603  .00000076  00000-0  98852-4 0  9994 | 2 60391  88.9824 316.7458 0011895 341.7386  18.3337 13.50951758 44603 | 2025/06/27-21:15:44  278.3515    0.1152   18.3766  106.5915     7446.8959     7438.0378     7455.7539  64.807728 -60.973978   0.000567  -0.001046
1 60391U 24140N   25179.92285740  .00000078  00000-0  10170-3 0  9998 | 2 60391  88.9826 316.6391 0011799 338.4216  21.6436 13.50951851 44744 | 2025/06/28-22:08:54  292.7791    0.1151   21.6935  106.5915     7446.8955     7438.1089     7455.6821  64.694211 -61.094699   0.000500  -0.001069
1 60391U 24140N   25181.18197609  .00000095  00000-0  12841-3 0  9991 | 2 60391  88.9827 316.5097 0011684 334.4143  25.6429 13.50952064 44906 | 2025/06/30-04:22:02   27.4403    0.1152   25.7009  106.5915     7446.8947     7438.1938     7455.5957  64.556139 -61.240720   0.000417  -0.001091
1 60391U 24140N   25182.51516037  .00000102  00000-0  13948-3 0  9997 | 2 60391  88.9828 316.3726 0011566 330.1308  29.9182 13.50952323 45080 | 2025/07/01-12:21:49  148.8459    0.1152   29.9844  106.5915     7446.8938     7438.2807     7455.5069  64.409487 -61.395087   0.000329  -0.001109
1 60391U 24140N   25183.55208143  .00000099  00000-0  13488-3 0  9992 | 2 60391  88.9829 316.2660 0011480 326.7614  33.2815 13.50952460 45222 | 2025/07/02-13:14:59  163.2723    0.1152   33.3538  106.5915     7446.8933     7438.3443     7455.4423  64.295221 -61.514885   0.000259  -0.001118
1 60391U 24140N   25184.58900228  .00000096  00000-0  13050-3 0  9991 | 2 60391  88.9829 316.1593 0011397 323.3297  36.7073 13.50952660 45375 | 2025/07/03-14:08:09  177.6984    0.1152   36.7855  106.5914     7446.8925     7438.4053     7455.3798  64.180552 -61.634513   0.000188  -0.001124
1 60391U 24140N   25185.62592311  .00000100  00000-0  13587-3 0  9998 | 2 60391  88.9829 316.0527 0011322 319.9196  40.1119 13.50952844 45507 | 2025/07/04-15:01:19  192.1240    0.1152   40.1956  106.5914     7446.8919     7438.4605     7455.3232  64.065769 -61.753815   0.000118  -0.001126
1 60391U 24140N   25186.81097536  .00000076  00000-0  99821-4 0  9997 | 2 60391  88.9830 315.9309 0011241 315.9628  44.0626 13.50953001 45660 | 2025/07/05-19:27:48  260.0388    0.1151   44.1523  106.5914     7446.8913     7438.5202     7455.2623  63.934419 -61.889937   0.000037  -0.001123
1 60391U 24140N   25187.84789605  .00000075  00000-0  97195-4 0  9997 | 2 60391  88.9831 315.8243 0011181 312.4918  47.5288 13.50953160 45808 | 2025/07/06-20:20:58  274.4637    0.1152   47.6234  106.5914     7446.8907     7438.5643     7455.2171  63.819233 -62.008851  -0.000033  -0.001118
1 60391U 24140N   25188.88481666  .00000066  00000-0  84131-4 0  9994 | 2 60391  88.9832 315.7178 0011123 308.9709  51.0450 13.50953293 45953 | 2025/07/07-21:14:08  288.8883    0.1151   51.1442  106.5914     7446.8902     7438.6070     7455.1734  63.703934 -62.127439  -0.000103  -0.001108
1 60391U 24140N   25189.92173727  .00000072  00000-0  93608-4 0  9992 | 2 60391  88.9833 315.6112 0011065 305.4289  54.5828 13.50953463 46093 | 2025/07/08-22:07:18  303.3126    0.1151   54.6862  106.5914     7446.8896     7438.6496     7455.1296  63.588306 -62.245924  -0.000172  -0.001093
1 60391U 24140N   25190.95865785  .00000063  00000-0  78724-4 0  9991 | 2 60391  88.9834 315.5047 0011029 301.8440  58.1637 13.50953569 46230 | 2025/07/09-23:00:28  317.7365    0.1151   58.2711  106.5914     7446.8892     7438.6760     7455.1024  63.472566 -62.364083  -0.000242  -0.001076
