# SPACE DATA - HISTORICAL TLEs
# ----------------------------
# NORAD_ID    : 60396
# OBJECT_NAME : QIANFAN-18
# --------------------------------------------------------------------+-----------------------------------------------------------------------+----------------------------------------------------------------------------------------------------------------------------------------
#                  LINE 1                                             |                 LINE 2                                                |      DERIVED PARAMETERS
# --------------------------------------------------------------------+-----------------------------------------------------------------------+----------------------------------------------------------------------------------------------------------------------------------------
# NORAD  COSPAR     TLE_EPOCH      MEANMOT1 MEANMOT2   BSTAR  #  REV  |   NORAD    INC     RAAN     ECC    ARGPER  MEANANOM   MEANMOT     REV |  CAL_DATE              LONG     ARGLAT     PERIOD        SMA         PERIGEE        APOGEE      INC_X      INC_Y      ECC_X      ECC_Y
# ------ ------   -------------- ----------  -------  ------- -- ----     -----  ------- -------- ------- -------- -------- -----------  ----   ------------------- ---------  --------  --------  ------------  ------------   ----------- ---------- ----------  ---------  ---------   
1 61552U 24185A   24318.68755546  .00001003  00000-0  41407-3 0  9996 | 2 61552  88.9885 122.9553 0010061 127.7798 232.4308 14.26019882 13965 | 2024/11/13-16:30:04  177.6349    0.1193  232.3395  100.9804     7183.2027     7175.9757     7190.4297 -48.408371  74.669825  -0.000332  -0.000950
1 61552U 24185A   24321.21367593  .00000720  00000-0  29569-3 0  9990 | 2 61552  88.9886 122.6631 0010206 121.0347 239.1850 14.26023287 14329 | 2024/11/16-05:07:41    9.8112    0.1193  239.0846  100.9801     7183.1913     7175.8601     7190.5224 -48.026992  74.915813  -0.000452  -0.000915
1 61552U 24185A   24322.89775336  .00000619  00000-0  25325-3 0  9996 | 2 61552  88.9887 122.4683 0010299 116.6132 243.6118 14.26025260 14565 | 2024/11/17-21:32:45  257.9285    0.1193  243.5061  100.9800     7183.1846     7175.7867     7190.5826 -47.772062  75.078751  -0.000529  -0.000884
1 61552U 24185A   24324.51165838  .00000678  00000-0  27812-3 0  9995 | 2 61552  88.9886 122.2815 0010350 112.3245 247.9046 14.26027602 14799 | 2024/11/19-12:16:47  120.7078    0.1193  247.7948  100.9798     7183.1768     7175.7422     7190.6113 -47.526978  75.234017  -0.000599  -0.000844
1 61552U 24185A   24325.56420338  .00000762  00000-0  31323-3 0  9996 | 2 61552  88.9887 122.1598 0010383 109.5511 250.6805 14.26029523 14942 | 2024/11/20-13:32:27  140.7806    0.1194  250.5683  100.9797     7183.1703     7175.7120     7190.6286 -47.367122  75.334882  -0.000643  -0.000815
1 61552U 24185A   24326.61674742  .00000838  00000-0  34488-3 0  9992 | 2 61552  88.9887 122.0380 0010412 106.7428 253.4909 14.26031376 15091 | 2024/11/21-14:48:06  160.8536    0.1193  253.3765  100.9795     7183.1641     7175.6850     7190.6432 -47.206867  75.435405  -0.000686  -0.000783
1 61552U 24185A   24328.02040940  .00001060  00000-0  44291-3 0  9997 | 2 61552  88.9887 121.8768 0010332 101.4776 258.7578 14.25451323 15296 | 2024/11/23-00:29:23  307.7149    0.1193  258.6417  101.0206     7185.1126     7177.6890     7192.5363 -46.994446  75.567922  -0.000751  -0.000709
1 61552U 24185A   24330.47974393  .00001148  00000-0  51854-3 0  9997 | 2 61552  88.9889 121.5934 0010768  96.2601 263.9816 14.21460873 15649 | 2024/11/25-11:30:49  115.7765    0.1190  263.8589  101.3042     7198.5535     7190.8021     7206.3049 -46.620198  75.799614  -0.000850  -0.000661
1 61552U 24185A   24331.74746370  .00001787  00000-0  82599-3 0  9999 | 2 61552  88.9890 121.4468 0010556  91.4906 268.7494 14.20476660 15827 | 2024/11/26-17:56:20  213.5534    0.1191  268.6285  101.3744     7201.8782     7194.2759     7209.4805 -46.426153  75.918736  -0.000886  -0.000574
1 61552U 24185A   24332.80472381  .00001158  00000-0  54150-3 0  9999 | 2 61552  88.9890 121.3260 0010928  89.6464 270.5978 14.19649959 15972 | 2024/11/27-19:18:48  235.3258    0.1190  270.4726  101.4335     7204.6738     7196.8006     7212.5471 -46.265986  76.016450  -0.000937  -0.000562
1 61552U 24185A   24334.49891329  .00000618  00000-0  30750-3 0  9993 | 2 61552  88.9893 121.1327 0011281  84.6415 275.6059 14.15748645 16213 | 2024/11/29-11:58:26  127.0939    0.1187  275.4772  101.7130     7217.9035     7209.7610     7226.0460 -46.009420  76.172362  -0.001016  -0.000491
1 61552U 24185A   24336.47976405  .00000577  00000-0  29560-3 0  9993 | 2 61552  88.9894 120.9082 0011485  79.8034 280.4448 14.14119705 16492 | 2024/12/01-11:30:51  122.3763    0.1187  280.3153  101.8301     7223.4454     7215.1492     7231.7415 -45.710656  76.352140  -0.001074  -0.000406
1 61552U 24185A   24337.54116327  .00000533  00000-0  27274-3 0  9993 | 2 61552  88.9895 120.7879 0011408  77.0321 283.2139 14.14121482 16649 | 2024/12/02-12:59:16  145.6487    0.1187  283.0866  101.8300     7223.4393     7215.1988     7231.6798 -45.550295  76.448033  -0.001086  -0.000349
1 61552U 24185A   24338.81483975  .00001062  00000-0  55020-3 0  9998 | 2 61552  88.9895 120.6434 0011370  73.4339 286.8095 14.14125183 16824 | 2024/12/03-19:33:22  245.5747    0.1186  286.6847  101.8297     7223.4267     7215.2137     7231.6397 -45.357348  76.562668  -0.001103  -0.000277
1 61552U 24185A   24340.15927291  .00001080  00000-0  56005-3 0  9996 | 2 61552  88.9895 120.4910 0011286  69.8167 290.4233 14.14128447 17018 | 2024/12/05-03:49:21   11.0516    0.1187  290.3020  101.8295     7223.4156     7215.2632     7231.5679 -45.153540  76.683042  -0.001110  -0.000202
1 61552U 24185A   24341.43294406  .00001048  00000-0  54279-3 0  9998 | 2 61552  88.9896 120.3467 0011203  66.3456 293.8905 14.14131185 17192 | 2024/12/06-10:23:26  110.9768    0.1187  293.7731  101.8293     7223.4063     7215.3139     7231.4986 -44.960321  76.796604  -0.001113  -0.000131
1 61552U 24185A   24342.49433461  .00001088  00000-0  56418-3 0  9992 | 2 61552  88.9897 120.2264 0011131  63.3594 296.8731 14.14133753 17347 | 2024/12/07-11:51:50  134.2475    0.1187  296.7593  101.8291     7223.3975     7215.3572     7231.4379 -44.799028  76.890922  -0.001111  -0.000070
1 61552U 24185A   24343.62648270  .00001081  00000-0  56008-3 0  9992 | 2 61552  88.9898 120.0981 0011052  60.2147 300.0138 14.14136148 17502 | 2024/12/08-15:02:08  183.0690    0.1188  299.9041  101.8290     7223.3894     7215.4061     7231.3727 -44.626787  76.991132  -0.001105  -0.000006
1 61552U 24185A   24344.90014667  .00001120  00000-0  58098-3 0  9996 | 2 61552  88.9899 119.9538 0010964  56.6718 303.5517 14.14139207 17689 | 2024/12/09-21:36:12  282.9927    0.1187  303.4469  101.8287     7223.3789     7215.4592     7231.2987 -44.432793  77.103367  -0.001094   0.000065
1 61552U 24185A   24346.59836190  .00000992  00000-0  51373-3 0  9991 | 2 61552  88.9900 119.7614 0010838  52.0181 308.1983 14.14142016 17926 | 2024/12/11-14:21:38  176.2235    0.1187  308.1006  101.8285     7223.3694     7215.5407     7231.1981 -44.173678  77.252225  -0.001073   0.000155
1 61552U 24185A   24347.80126201  .00000867  00000-0  44773-3 0  9998 | 2 61552  88.9901 119.6251 0010734  48.7064 311.5045 14.14143788 18093 | 2024/12/12-19:13:49  250.5950    0.1187  311.4123  101.8284     7223.3633     7215.6098     7231.1169 -43.989829  77.357177  -0.001051   0.000217
1 61552U 24185A   24349.21643619  .00000879  00000-0  45428-3 0  9993 | 2 61552  88.9902 119.4648 0010601  44.7249 315.4791 14.14146605 18290 | 2024/12/14-05:11:40   41.6198    0.1187  315.3938  101.8282     7223.3538     7215.6963     7231.0112 -43.773279  77.480034  -0.001020   0.000289
1 61552U 24185A   24350.41933177  .00000997  00000-0  51607-3 0  9995 | 2 61552  88.9903 119.3285 0010478  41.2262 318.9714 14.14149519 18465 | 2024/12/15-10:03:50  115.9905    0.1187  318.8925  101.8280     7223.3438     7215.7752     7230.9125 -43.588888  77.584034  -0.000988   0.000349
1 61552U 24185A   24351.62222562  .00001017  00000-0  52639-3 0  9998 | 2 61552  88.9903 119.1922 0010342  37.6953 322.4956 14.14151835 18638 | 2024/12/16-14:56:00  190.3609    0.1187  322.4234  101.8278     7223.3359     7215.8656     7230.8063 -43.404202  77.687507  -0.000951   0.000406
1 61552U 24185A   24352.89587555  .00001097  00000-0  56850-3 0  9991 | 2 61552  88.9903 119.0479 0010200  33.8968 326.2868 14.14154679 18814 | 2024/12/17-21:30:03  290.2819    0.1187  326.2219  101.8276     7223.3263     7215.9585     7230.6941 -43.208408  77.796575  -0.000908   0.000464
1 61552U 24185A   24354.16952366  .00001005  00000-0  52006-3 0  9997 | 2 61552  88.9904 118.9037 0010055  30.1600 330.0164 14.14156606 18997 | 2024/12/19-04:04:06   30.2020    0.1188  329.9588  101.8275     7223.3197     7216.0567     7230.5827 -43.012524  77.905161  -0.000862   0.000517
1 61552U 24185A   24355.58499224  .00000857  00000-0  44588-3 0  9993 | 2 61552  88.9911 118.7444 0007870  27.1337 333.0260 14.13767552 19199 | 2024/12/20-14:02:23  181.3418    0.1188  332.9851  101.8555     7224.6448     7218.9590     7230.3306 -42.796094  78.025062  -0.000652   0.000441
1 61552U 24185A   24356.85898753  .00001125  00000-0  58759-3 0  9998 | 2 61552  88.9912 118.6002 0007738  23.3880 336.7657 14.13771042 19372 | 2024/12/21-20:36:56  281.3860    0.1187  336.7307  101.8552     7224.6329     7219.0425     7230.2234 -42.599636  78.132610  -0.000610   0.000477
1 61552U 24185A   24358.20375764  .00001138  00000-0  59463-3 0  9998 | 2 61552  88.9913 118.4481 0007588  19.5827 340.5650 14.13774121 19561 | 2024/12/23-04:53:24   46.9868    0.1187  340.5360  101.8550     7224.6224     7219.1404     7230.1045 -42.392119  78.245509  -0.000564   0.000507
1 61552U 24185A   24359.40697033  .00001208  00000-0  63139-3 0  9990 | 2 61552  88.9914 118.3120 0007432  15.9692 344.1728 14.13777170 19731 | 2024/12/24-09:46:02  121.4711    0.1188  344.1496  101.8548     7224.6121     7219.2427     7229.9814 -42.206183  78.346074  -0.000519   0.000532
1 61552U 24185A   24360.53940315  .00001346  00000-0  70451-3 0  9998 | 2 61552  88.9915 118.1840 0007300  12.4403 347.6962 14.13780611 19894 | 2024/12/25-12:56:44  170.3966    0.1187  347.6784  101.8546     7224.6003     7219.3264     7229.8743 -42.031098  78.440257  -0.000475   0.000554
1 61552U 24185A   24361.60105679  .00001394  00000-0  73007-3 0  9996 | 2 61552  88.9916 118.0639 0007174   9.1065 351.0250 14.13783504 20048 | 2024/12/26-14:25:31  193.7635    0.1187  351.0122  101.8544     7224.5905     7219.4076     7229.7734 -41.866631  78.528275  -0.000433   0.000572
1 61552U 24185A   24362.87503816  .00001300  00000-0  67999-3 0  9991 | 2 61552  88.9916 117.9198 0007013   4.9499 355.1756 14.13786483 20227 | 2024/12/27-21:00:03  293.8025    0.1187  355.1688  101.8541     7224.5803     7219.5137     7229.6469 -41.668999  78.633322  -0.000381   0.000589
1 61552U 24185A   24364.50289864  .00001343  00000-0  70262-3 0  9991 | 2 61552  88.9917 117.7357 0006828 359.4690   0.6488 14.13791161 20455 | 2024/12/29-12:04:10  161.6286    0.1187    0.6497  101.8538     7224.5644     7219.6315     7229.4973 -41.416170  78.766894  -0.000312   0.000607
1 61552U 24185A   24365.56454324  .00001701  00000-0  89194-3 0  9995 | 2 61552  88.9917 117.6157 0006719 355.8980   4.2150 14.13796172 20603 | 2024/12/30-13:32:56  184.9919    0.1187    4.2207  101.8534     7224.5473     7219.6932     7229.4015 -41.251110  78.853463  -0.000268   0.000616
1 61552U 24185A   24366.90929004  .00001717  00000-0  90028-3 0  9991 | 2 61552  88.9917 117.4636 0006582 351.2676   8.8395 14.13800193 20793 | 2024/12/31-21:49:22  310.5842    0.1187    8.8511  101.8531     7224.5336     7219.7784     7229.2888 -41.041637  78.962692  -0.000211   0.000623
1 61552U 24185A   25002.32480680  .00002380  00000-0  12505-2 0  9997 | 2 61552  88.9918 117.3037 0006364 346.8277  13.2742 14.13807539 20992 | 2025/01/02-07:47:43  101.7305    0.1187   13.2910  101.8526     7224.5086     7219.9109     7229.1063 -40.821156  79.077011  -0.000155   0.000617
1 61552U 24185A   25003.52799162  .00001831  00000-0  96033-3 0  9997 | 2 61552  88.9918 117.1676 0006243 342.0459  18.0506 14.13810307 21163 | 2025/01/03-12:40:18  176.2045    0.1187   18.0728  101.8524     7224.4992     7219.9889     7229.0094 -40.633202  79.173754  -0.000100   0.000616
1 61552U 24185A   25004.80194832  .00001321  00000-0  69105-3 0  9996 | 2 61552  88.9917 117.0234 0006145 337.5008  22.5909 14.13812296 21347 | 2025/01/04-19:14:48  276.2335    0.1188   22.6180  101.8523     7224.4924     7220.0529     7228.9318 -40.433766  79.275678  -0.000048   0.000613
1 61552U 24185A   25006.28822529  .00001438  00000-0  75263-3 0  9992 | 2 61552  88.9917 116.8553 0005992 331.8362  28.2500 14.13818602 21557 | 2025/01/06-06:55:02   92.9318    0.1187   28.2825  101.8518     7224.4709     7220.1420     7228.7998 -40.201006  79.393966   0.000014   0.000599
1 61552U 24185A   25007.49139946  .00001205  00000-0  62949-3 0  9999 | 2 61552  88.9917 116.7193 0005869 326.9737  33.1082 14.13821384 21720 | 2025/01/07-11:47:36  167.4007    0.1187   33.1450  101.8516     7224.4614     7220.2214     7228.7015 -40.012440  79.489165   0.000064   0.000583
1 61552U 24185A   25008.55302199  .00000957  00000-0  49824-3 0  9999 | 2 61552  88.9917 116.5992 0005770 322.5647  37.5137 14.13823130 21874 | 2025/01/08-13:16:21  190.7548    0.1187   37.5540  101.8515     7224.4555     7220.2870     7228.6240 -39.845731  79.572862   0.000108   0.000567
1 61552U 24185A   25009.89774187  .00000865  00000-0  44963-3 0  9994 | 2 61552  88.9917 116.4471 0005670 316.9147  43.1595 14.13825975 22068 | 2025/01/09-21:32:44  316.3357    0.1187   43.2040  101.8513     7224.4458     7220.3495     7228.5421 -39.634353  79.678358   0.000162   0.000543
1 61552U 24185A   25011.52555849  .00000719  00000-0  37235-3 0  9991 | 2 61552  88.9916 116.2630 0005565 310.0382  50.0316 14.13828354 22298 | 2025/01/11-12:36:48  184.1426    0.1187   50.0805  101.8511     7224.4377     7220.4173     7228.4581 -39.378086  79.805208   0.000224   0.000510
1 61552U 24185A   25012.58717672  .00000709  00000-0  36736-3 0  9996 | 2 61552  88.9916 116.1429 0005504 305.5501  54.5172 14.13830041 22440 | 2025/01/12-14:05:32  207.4942    0.1187   54.5686  101.8510     7224.4319     7220.4556     7228.4083 -39.210717  79.887574   0.000261   0.000485
1 61552U 24185A   25013.93189158  .00000690  00000-0  35705-3 0  9992 | 2 61552  88.9914 115.9907 0005424 299.6949  60.3697 14.13831932 22634 | 2025/01/13-22:21:55  333.0718    0.1186   60.4237  101.8509     7224.4255     7220.5070     7228.3440 -38.998279  79.991272   0.000306   0.000448
1 61552U 24185A   25015.41815329  .00000751  00000-0  38950-3 0  9996 | 2 61552  88.9913 115.8225 0005357 293.2571  66.8052 14.13834429 22844 | 2025/01/15-10:02:08  149.7615    0.1187   66.8616  101.8507     7224.4170     7220.5469     7228.2871 -38.763242  80.105322   0.000351   0.000405
1 61552U 24185A   25016.55054144  .00000781  00000-0  40524-3 0  9995 | 2 61552  88.9912 115.6944 0005316 288.1298  71.9310 14.13836311 23008 | 2025/01/16-13:12:46  198.6669    0.1187   71.9889  101.8505     7224.4106     7220.5701     7228.2511 -38.584005  80.191697   0.000384   0.000368
1 61552U 24185A   25017.89525006  .00000880  00000-0  45765-3 0  9995 | 2 61552  88.9910 115.5422 0005292 282.0339  78.0254 14.13839139 23194 | 2025/01/17-21:29:09  324.2411    0.1186   78.0847  101.8503     7224.4010     7220.5778     7228.2241 -38.370762  80.293728   0.000419   0.000323
1 61552U 24185A   25019.23995632  .00000933  00000-0  48543-3 0  9997 | 2 61552  88.9909 115.3900 0005300 275.9017  84.1565 14.13841833 23383 | 2025/01/19-05:45:32   89.8141    0.1186   84.2169  101.8501     7224.3918     7220.5628     7228.2207 -38.157293  80.395282   0.000453   0.000275
1 61552U 24185A   25020.51388587  .00001007  00000-0  52448-3 0  9997 | 2 61552  88.9909 115.2458 0005327 270.1600  89.8977 14.13844758 23562 | 2025/01/20-12:19:59  189.8291    0.1187   89.9587  101.8499     7224.3818     7220.5334     7228.2302 -37.954836  80.491060   0.000481   0.000229
1 61552U 24185A   25021.57549200  .00001054  00000-0  54962-3 0  9990 | 2 61552  88.9908 115.1256 0005353 265.4575  94.6000 14.13847250 23711 | 2025/01/21-13:48:42  213.1741    0.1186   94.6611  101.8498     7224.3733     7220.5061     7228.2405 -37.785849  80.570417   0.000501   0.000188
1 61552U 24185A   25023.13251122  .00001040  00000-0  54186-3 0  9990 | 2 61552  88.9907 114.9492 0005400 258.6163 101.4417 14.13850603 23938 | 2025/01/23-03:10:48   55.4116    0.1186  101.5023  101.8495     7224.3619     7220.4607     7228.2631 -37.537571  80.686278   0.000525   0.000127
1 61552U 24185A   25024.19411298  .00001098  00000-0  57258-3 0  9995 | 2 61552  88.9906 114.8290 0005437 254.0814 105.9774 14.13853319 24084 | 2025/01/24-04:39:31   78.7540    0.1187  106.0373  101.8493     7224.3527     7220.4248     7228.2805 -37.368176  80.764759   0.000537   0.000084
1 61552U 24185A   25025.53880636  .00001164  00000-0  60751-3 0  9996 | 2 61552  88.9905 114.6766 0005493 248.2611 111.7992 14.13856562 24272 | 2025/01/25-12:55:52  204.3199    0.1187  111.8576  101.8491     7224.3416     7220.3733     7228.3099 -37.153178  80.863777   0.000549   0.000028
1 61552U 24185A   25026.60040476  .00001026  00000-0  53444-3 0  9993 | 2 61552  88.9904 114.5564 0005549 243.6688 116.3929 14.13858065 24429 | 2025/01/26-14:24:34  227.6604    0.1186  116.4498  101.8490     7224.3365     7220.3277     7228.3453 -36.983411  80.941451   0.000555  -0.000017
1 61552U 24185A   25027.87432052  .00001013  00000-0  52783-3 0  9999 | 2 61552  88.9902 114.4121 0005631 238.2213 121.8426 14.13860690 24601 | 2025/01/27-20:59:01  327.6679    0.1187  121.8974  101.8488     7224.3275     7220.2595     7228.3956 -36.779360  81.034156   0.000558  -0.000072
1 61552U 24185A   25029.21900651  .00001047  00000-0  54544-3 0  9998 | 2 61552  88.9899 114.2597 0005749 232.5588 127.5076 14.13863803 24796 | 2025/01/29-05:15:22   93.2301    0.1186  127.5598  101.8486     7224.3169     7220.1637     7228.4702 -36.563565  81.131424   0.000560  -0.000131
1 61552U 24185A   25030.56369029  .00001006  00000-0  52373-3 0  9999 | 2 61552  88.9898 114.1073 0005881 227.1685 132.9008 14.13866364 24989 | 2025/01/30-13:31:42  218.7911    0.1186  132.9501  101.8484     7224.3082     7220.0596     7228.5568 -36.347596  81.228301   0.000557  -0.000189
1 61552U 24185A   25031.90837148  .00000930  00000-0  48368-3 0  9994 | 2 61552  88.9896 113.9548 0006022 221.9338 138.1388 14.13868799 25171 | 2025/01/31-21:48:03  344.3510    0.1186  138.1848  101.8482     7224.2999     7219.9494     7228.6504 -36.131186  81.324574   0.000550  -0.000246
1 61552U 24185A   25033.25304974  .00001028  00000-0  53542-3 0  9999 | 2 61552  88.9894 113.8024 0006162 216.9295 143.1468 14.13872218 25365 | 2025/02/02-06:04:23  109.9092    0.1186  143.1891  101.8480     7224.2883     7219.8367     7228.7399 -35.914664  81.420208   0.000538  -0.000301
1 61552U 24185A   25034.52695370  .00000968  00000-0  50347-3 0  9995 | 2 61552  88.9893 113.6579 0006302 212.2079 147.8724 14.13874435 25541 | 2025/02/03-12:38:48  209.9108    0.1187  147.9108  101.8478     7224.2807     7219.7280     7228.8335 -35.709168  81.510434   0.000522  -0.000354
1 61552U 24185A   25035.58853866  .00000918  00000-0  47720-3 0  9994 | 2 61552  88.9892 113.5375 0006415 208.3884 151.6953 14.13876255 25693 | 2025/02/04-14:07:29  233.2447    0.1185  151.7301  101.8477     7224.2745     7219.6401     7228.9089 -35.537766  81.585200   0.000505  -0.000396
1 61552U 24185A   25036.93321137  .00000932  00000-0  48483-3 0  9998 | 2 61552  88.9889 113.3849 0006557 203.6271 156.4615 14.13878751 25880 | 2025/02/05-22:23:49  358.7999    0.1186  156.4915  101.8475     7224.2660     7219.5291     7229.0030 -35.320229  81.679286   0.000480  -0.000447
1 61552U 24185A   25038.91483070  .00000784  00000-0  40646-3 0  9991 | 2 61552  88.9886 113.1600 0006786 196.6115 163.4850 14.13881291 26166 | 2025/02/07-21:57:21  354.3531    0.1186  163.5071  101.8473     7224.2574     7219.3550     7229.1597 -34.999228  81.817021   0.000434  -0.000522
1 61552U 24185A   25040.61335853  .00000766  00000-0  39666-3 0  9996 | 2 61552  88.9882 112.9671 0007001 190.8845 169.2191 14.13883841 26406 | 2025/02/09-14:43:14  247.6830    0.1186  169.2341  101.8471     7224.2487     7219.1910     7229.3064 -34.723418  81.934022   0.000390  -0.000581
1 61552U 24185A   25041.88725203  .00000759  00000-0  39340-3 0  9999 | 2 61552  88.9880 112.8225 0007170 186.7741 173.3349 14.13885790 26589 | 2025/02/10-21:17:38  347.6795    0.1185  173.3444  101.8470     7224.2420     7219.0623     7229.4218 -34.516449  82.021210   0.000354  -0.000623
1 61552U 24185A   25043.23191590  .00000699  00000-0  36137-3 0  9990 | 2 61552  88.9876 112.6697 0007342 182.6319 177.4830 14.13887496 26778 | 2025/02/12-05:33:57  113.2308    0.1186  177.4867  101.8469     7224.2362     7218.9322     7229.5403 -34.297433  82.112600   0.000314  -0.000664
1 61552U 24185A   25044.50580637  .00000680  00000-0  35130-3 0  9997 | 2 61552  88.9874 112.5250 0007505 178.7484 181.3723 14.13889204 26954 | 2025/02/13-12:08:21  213.2258    0.1186  181.3702  101.8467     7224.2304     7218.8086     7229.6522 -34.089873  82.198771   0.000272  -0.000699
1 61552U 24185A   25045.56738062  .00000685  00000-0  35406-3 0  9992 | 2 61552  88.9872 112.4044 0007635 175.5227 184.6029 14.13890712 27105 | 2025/02/14-13:37:01  236.5546    0.1186  184.5959  101.8466     7224.2253     7218.7096     7229.7410 -33.916704  82.270158   0.000235  -0.000726
1 61552U 24185A   25046.91203931  .00000816  00000-0  42318-3 0  9990 | 2 61552  88.9870 112.2516 0007788 171.4516 188.6805 14.13893417 27291 | 2025/02/15-21:53:20    2.1034    0.1186  188.6670  101.8464     7224.2161     7218.5898     7229.8423 -33.697104  82.360132   0.000184  -0.000757
1 61552U 24185A   25048.53978141  .00000835  00000-0  43301-3 0  9996 | 2 61552  88.9868 112.0665 0007973 166.5408 193.5993 14.13896009 27521 | 2025/02/17-12:57:17  229.8720    0.1186  193.5778  101.8462     7224.2072     7218.4474     7229.9671 -33.430781  82.468379   0.000119  -0.000788
1 61552U 24185A   25049.88443520  .00000843  00000-0  43762-3 0  9993 | 2 61552  88.9866 111.9136 0008126 162.5610 197.5858 14.13898342 27719 | 2025/02/18-21:13:35  355.4190    0.1187  197.5577  101.8461     7224.1993     7218.3289     7230.0697 -33.210512  82.557113   0.000063  -0.000810
1 61552U 24185A   25050.94600218  .00000891  00000-0  46294-3 0  9997 | 2 61552  88.9864 111.7928 0008249 159.5014 200.6506 14.13900509 27865 | 2025/02/19-22:42:14   18.7450    0.1187  200.6173  101.8459     7224.1919     7218.2327     7230.1511 -33.036304  82.626763   0.000019  -0.000825
1 61552U 24185A   25052.57373570  .00000789  00000-0  40891-3 0  9999 | 2 61552  88.9861 111.6076 0008442 154.9632 205.1966 14.13902980 28096 | 2025/02/21-13:46:10  246.5108    0.1187  205.1555  101.8457     7224.1835     7218.0848     7230.2821 -32.768943  82.732837  -0.000050  -0.000843
1 61552U 24185A   25053.84761186  .00000724  00000-0  37434-3 0  9992 | 2 61552  88.9858 111.4626 0008576 151.5327 208.6329 14.13904933 28274 | 2025/02/22-20:20:33  346.5010    0.1186  208.5859  101.8456     7224.1768     7217.9814     7230.3723 -32.559354  82.815222  -0.000105  -0.000851
1 61552U 24185A   25054.90917369  .00000772  00000-0  39983-3 0  9990 | 2 61552  88.9856 111.3418 0008667 148.7647 211.4056 14.13906968 28420 | 2025/02/23-21:49:12    9.8257    0.1186  211.3539  101.8455     7224.1699     7217.9087     7230.4311 -32.384605  82.883499  -0.000149  -0.000854
1 61552U 24185A   25056.53689879  .00000911  00000-0  47307-3 0  9997 | 2 61552  88.9853 111.1564 0008810 144.4089 215.7686 14.13910573 28658 | 2025/02/25-12:53:08  237.5893    0.1185  215.7096  101.8452     7224.1576     7217.7931     7230.5221 -32.116130  82.987576  -0.000220  -0.000853
1 61552U 24185A   25057.59845681  .00000961  00000-0  49939-3 0  9997 | 2 61552  88.9851 111.0356 0008902 141.5794 218.6028 14.13912748 28802 | 2025/02/26-14:21:46  260.9126    0.1186  218.5392  101.8450     7224.1502     7217.7193     7230.5812 -31.941019  83.054917  -0.000266  -0.000850
1 61552U 24185A   25058.87232397  .00001056  00000-0  54929-3 0  9994 | 2 61552  88.9848 110.8904 0009016 138.1318 222.0560 14.13915765 28986 | 2025/02/27-20:56:08    0.9000    0.1187  221.9869  101.8448     7224.1399     7217.6267     7230.6532 -31.730331  83.135316  -0.000323  -0.000842
1 61552U 24185A   25060.21695928  .00000966  00000-0  50192-3 0  9995 | 2 61552  88.9846 110.7373 0009133 134.5212 225.6722 14.13917859 29173 | 2025/03/01-05:12:25  126.4415    0.1186  225.5974  101.8447     7224.1328     7217.5350     7230.7306 -31.508001  83.219619  -0.000382  -0.000829
1 61552U 24185A   25061.56159213  .00000831  00000-0  43060-3 0  9993 | 2 61552  88.9845 110.5841 0009242 131.0210 229.1777 14.13919855 29369 | 2025/03/02-13:28:41  251.9826    0.1186  229.0976  101.8445     7224.1260     7217.4495     7230.8025 -31.285337  83.303475  -0.000439  -0.000813
1 61552U 24185A   25062.76468295  .00000773  00000-0  40002-3 0  9997 | 2 61552  88.9842 110.4469 0009323 127.8989 232.3042 14.13921802 29532 | 2025/03/03-18:21:08  326.4139    0.1186  232.2197  101.8444     7224.1194     7217.3843     7230.8544 -31.085665  83.377870  -0.000489  -0.000794
1 61552U 24185A   25063.82623241  .00000655  00000-0  33786-3 0  9999 | 2 61552  88.9840 110.3258 0009391 125.2540 234.9527 14.13922962 29685 | 2025/03/04-19:49:46  349.7355    0.1187  234.8647  101.8443     7224.1154     7217.3313     7230.8996 -30.909299  83.443199  -0.000531  -0.000775
1 61552U 24185A   25064.88778080  .00000601  00000-0  30958-3 0  9997 | 2 61552  88.9838 110.2048 0009445 122.6021 237.6079 14.13924313 29834 | 2025/03/05-21:18:24   13.0570    0.1187  237.5166  101.8442     7224.1108     7217.2876     7230.9340 -30.732942  83.508101  -0.000571  -0.000752
1 61552U 24185A   25066.37394729  .00000587  00000-0  30207-3 0  9997 | 2 61552  88.9836 110.0354 0009530 118.9533 241.2611 14.13926119 30045 | 2025/03/07-08:58:29  189.7067    0.1187  241.1654  101.8441     7224.1047     7217.2201     7230.9892 -30.485840  83.598413  -0.000625  -0.000719
1 61552U 24185A   25067.50626343  .00000595  00000-0  30651-3 0  9995 | 2 61552  88.9834 109.9062 0009576 116.1372 244.0800 14.13927475 30202 | 2025/03/08-12:09:01  238.5830    0.1186  243.9814  101.8440     7224.1001     7217.1823     7231.0179 -30.297183  83.666757  -0.000665  -0.000689
1 61552U 24185A   25068.56780826  .00000690  00000-0  35627-3 0  9993 | 2 61552  88.9832 109.7850 0009616 113.4441 246.7757 14.13929327 30359 | 2025/03/09-13:37:38  261.9041    0.1186  246.6745  101.8438     7224.0937     7217.1471     7231.0404 -30.120065  83.730470  -0.000701  -0.000659
1 61552U 24185A   25069.84166104  .00000687  00000-0  35467-3 0  9990 | 2 61552  88.9829 109.6396 0009663 110.2016 250.0211 14.13930783 30535 | 2025/03/10-20:11:59    1.8891    0.1187  249.9171  101.8437     7224.0888     7217.1081     7231.0694 -29.907383  83.806354  -0.000742  -0.000619
1 61552U 24185A   25070.90320377  .00000699  00000-0  36087-3 0  9995 | 2 61552  88.9827 109.5185 0009703 107.5258 252.6990 14.13932225 30681 | 2025/03/11-21:40:36   25.2098    0.1187  252.5929  101.8436     7224.0839     7217.0743     7231.0934 -29.730117  83.869190  -0.000774  -0.000585
1 61552U 24185A   25072.46013021  .00000865  00000-0  44836-3 0  9999 | 2 61552  88.9824 109.3407 0009752 103.5877 256.6396 14.13935406 30903 | 2025/03/13-11:02:35  227.4132    0.1186  256.5309  101.8434     7224.0730     7217.0281     7231.1180 -29.469613  83.960761  -0.000819  -0.000530
1 61552U 24185A   25073.59243842  .00000925  00000-0  48046-3 0  9994 | 2 61552  88.9823 109.2114 0009781 100.7743 259.4546 14.13937522 31066 | 2025/03/14-14:13:06  276.2879    0.1187  259.3444  101.8433     7224.0658     7217.0000     7231.1317 -29.280030  84.026957  -0.000847  -0.000489
1 61552U 24185A   25074.79551349  .00000930  00000-0  48287-3 0  9994 | 2 61552  88.9821 109.0740 0009795  97.8545 262.3754 14.13939761 31238 | 2025/03/15-19:05:32  350.7172    0.1187  262.2642  101.8431     7224.0582     7216.9822     7231.1342 -29.078377  84.096743  -0.000873  -0.000444
1 61552U 24185A   25075.85704888  .00000896  00000-0  46489-3 0  9993 | 2 61552  88.9820 108.9527 0009792  95.2708 264.9597 14.13941602 31384 | 2025/03/16-20:34:09   14.0369    0.1187  264.8479  101.8430     7224.0519     7216.9781     7231.1257 -28.900240  84.158021  -0.000893  -0.000402
1 61552U 24185A   25076.91858208  .00000949  00000-0  49270-3 0  9997 | 2 61552  88.9819 108.8314 0009779  92.7335 267.4971 14.13944090 31533 | 2025/03/17-22:02:45   37.3564    0.1187  267.3852  101.8428     7224.0435     7216.9791     7231.1079 -28.721973  84.218922  -0.000909  -0.000359
1 61552U 24185A   25078.47549402  .00001103  00000-0  57375-3 0  9991 | 2 61552  88.9817 108.6535 0009753  88.8906 271.3398 14.13948159 31757 | 2025/03/19-11:24:42  239.5573    0.1187  271.2281  101.8425     7224.0296     7216.9840     7231.0752 -28.460276  84.307506  -0.000930  -0.000294
1 61552U 24185A   25079.53702268  .00001106  00000-0  57553-3 0  9991 | 2 61552  88.9816 108.5322 0009734  86.2756 273.9544 14.13950491 31903 | 2025/03/20-12:53:18  262.8756    0.1187  273.8431  101.8423     7224.0217     7216.9898     7231.0535 -28.281695  84.367475  -0.000941  -0.000249
1 61552U 24185A   25080.88162284  .00001138  00000-0  59223-3 0  9990 | 2 61552  88.9814 108.3785 0009705  82.8712 277.3578 14.13953734 32093 | 2025/03/21-21:09:32   28.4117    0.1187  277.2475  101.8421     7224.0106     7216.9997     7231.0215 -28.055208  84.442849  -0.000952  -0.000189
1 61552U 24185A   25082.22621797  .00001458  00000-0  76078-3 0  9991 | 2 61552  88.9812 108.2248 0009686  79.4805 280.7473 14.13959140 32287 | 2025/03/23-05:25:45  153.9461    0.1187  280.6382  101.8417     7223.9922     7216.9950     7230.9894 -27.828521  84.517616  -0.000960  -0.000130
1 61552U 24185A   25083.50004261  .00001381  00000-0  72053-3 0  9998 | 2 61552  88.9810 108.0792 0009658  76.3152 283.9110 14.13962003 32462 | 2025/03/24-12:00:03  253.9258    0.1187  283.8035  101.8415     7223.9824     7217.0055     7230.9594 -27.613593  84.587870  -0.000963  -0.000074
1 61552U 24185A   25084.56156016  .00001307  00000-0  68109-3 0  9996 | 2 61552  88.9808 107.9578 0009628  73.7494 286.4751 14.13964808 32617 | 2025/03/25-13:28:38  277.2415    0.1187  286.3693  101.8413     7223.9729     7217.0177     7230.9281 -27.434243  84.645999  -0.000962  -0.000029
1 61552U 24185A   25085.97691345  .00001325  00000-0  69084-3 0  9994 | 2 61552  88.9806 107.7960 0009557  70.2955 289.9262 14.13968800 32816 | 2025/03/26-23:26:45   68.3283    0.1187  289.8232  101.8410     7223.9593     7217.0554     7230.8632 -27.195037  84.722943  -0.000955   0.000032
1 61552U 24185A   25087.39226335  .00001136  00000-0  59133-3 0  9999 | 2 61552  88.9806 107.6342 0009473  66.8541 293.3643 14.13971641 33010 | 2025/03/28-09:24:51  219.4144    0.1187  293.2646  101.8408     7223.9496     7217.1064     7230.7929 -26.955676  84.799403  -0.000943   0.000091
1 61552U 24185A   25088.87837737  .00000940  00000-0  48807-3 0  9995 | 2 61552  88.9805 107.4642 0009363  63.1166 297.0976 14.13974281 33227 | 2025/03/29-21:04:51   36.0544    0.1186  297.0020  101.8406     7223.9406     7217.1769     7230.7044 -26.703923  84.878913  -0.000924   0.000153
1 61552U 24185A   25090.08141995  .00000864  00000-0  44774-3 0  9999 | 2 61552  88.9805 107.3265 0009275  60.0473 300.1634 14.13976503 33390 | 2025/03/31-01:57:14  110.4767    0.1188  300.0715  101.8404     7223.9331     7217.2329     7230.6333 -26.499855  84.942846  -0.000905   0.000203
1 61552U 24185A   25091.14292683  .00000827  00000-0  42841-3 0  9990 | 2 61552  88.9804 107.2051 0009198  57.3543 302.8530 14.13978373 33540 | 2025/04/01-03:25:48  133.7903    0.1187  302.7644  101.8403     7223.9267     7217.2821     7230.5713 -26.319787  84.998708  -0.000887   0.000245
1 61552U 24185A   25092.20443254  .00000800  00000-0  41420-3 0  9993 | 2 61552  88.9804 107.0836 0009111  54.6694 305.5343 14.13980117 33698 | 2025/04/02-04:54:22  157.1037    0.1187  305.4493  101.8402     7223.9208     7217.3390     7230.5025 -26.139481  85.054330  -0.000865   0.000285
1 61552U 24185A   25093.47823736  .00000879  00000-0  45571-3 0  9997 | 2 61552  88.9803 106.9378 0009032  51.4064 308.7930 14.13982569 33874 | 2025/04/03-11:28:39  257.0790    0.1187  308.7123  101.8400     7223.9124     7217.3878     7230.4370 -25.922931  85.120476  -0.000839   0.000333
1 61552U 24185A   25094.53973971  .00000957  00000-0  49696-3 0  9991 | 2 61552  88.9802 106.8164 0008956  48.6876 311.5081 14.13984695 34027 | 2025/04/04-12:57:13  280.3913    0.1188  311.4312  101.8399     7223.9052     7217.4354     7230.3749 -25.742488  85.175115  -0.000815   0.000371
1 61552U 24185A   25095.81353990  .00001032  00000-0  53628-3 0  9991 | 2 61552  88.9800 106.6706 0008856  45.4768 314.7141 14.13987551 34205 | 2025/04/05-19:31:29   20.3654    0.1187  314.6419  101.8397     7223.8954     7217.4979     7230.2929 -25.525603  85.240155  -0.000783   0.000414
1 61552U 24185A   25096.94580465  .00001066  00000-0  55395-3 0  9995 | 2 61552  88.9799 106.5410 0008746  42.5833 317.6030 14.13990116 34369 | 2025/04/06-22:41:57   69.2310    0.1187  317.5354  101.8395     7223.8867     7217.5687     7230.2047 -25.332701  85.297578  -0.000751   0.000449
1 61552U 24185A   25098.50266587  .00000925  00000-0  47998-3 0  9998 | 2 61552  88.9799 106.3628 0008571  38.5233 321.6564 14.13992783 34586 | 2025/04/08-12:03:50  271.4203    0.1187  321.5954  101.8393     7223.8776     7217.6860     7230.0692 -25.067288  85.375955  -0.000701   0.000493
1 61552U 24185A   25099.56415998  .00000949  00000-0  49236-3 0  9990 | 2 61552  88.9799 106.2413 0008451  35.6537 324.5213 14.13995101 34736 | 2025/04/09-13:32:23  294.7307    0.1187  324.4650  101.8391     7223.8697     7217.7648     7229.9746 -24.886186  85.428920  -0.000665   0.000522
1 61552U 24185A   25100.83795063  .00001000  00000-0  51937-3 0  9997 | 2 61552  88.9799 106.0955 0008296  32.2140 327.9552 14.13997938 34918 | 2025/04/10-20:06:38   34.7024    0.1187  327.9047  101.8389     7223.8601     7217.8671     7229.8530 -24.668716  85.491971  -0.000620   0.000552
1 61552U 24185A   25101.97020697  .00001039  00000-0  53975-3 0  9993 | 2 61552  88.9799 105.9659 0008172  28.9833 331.1806 14.14000439 35070 | 2025/04/11-23:17:05   83.5656    0.1187  331.1354  101.8387     7223.8515     7217.9482     7229.7549 -24.475274  85.547551  -0.000577   0.000578
1 61552U 24185A   25103.52705649  .00001010  00000-0  52438-3 0  9995 | 2 61552  88.9800 105.7878 0007990  24.6154 335.5412 14.14003521 35290 | 2025/04/13-12:38:57  285.7513    0.1187  335.5033  101.8385     7223.8410     7218.0692     7229.6129 -24.209265  85.623314  -0.000518   0.000608
1 61552U 24185A   25104.73007451  .00001021  00000-0  53050-3 0  9998 | 2 61552  88.9800 105.6501 0007851  21.3044 338.8468 14.14005994 35462 | 2025/04/14-17:31:18    0.1667    0.1187  338.8143  101.8383     7223.8326     7218.1612     7229.5040 -24.003415  85.681249  -0.000472   0.000627
1 61552U 24185A   25105.86232507  .00001001  00000-0  51996-3 0  9990 | 2 61552  88.9801 105.5206 0007720  18.1475 341.9985 14.14008089 35626 | 2025/04/15-20:41:44   49.0276    0.1186  341.9711  101.8382     7223.8255     7218.2487     7229.4023 -23.809724  85.735379  -0.000428   0.000643
1 61552U 24185A   25106.92380498  .00001581  00000-0  82524-3 0  9995 | 2 61552  88.9801 105.3991 0007591  15.2141 344.9273 14.14014244 35778 | 2025/04/16-22:10:16   72.3327    0.1188  344.9047  101.8377     7223.8045     7218.3209     7229.2881 -23.627862  85.785677  -0.000387   0.000653
1 61552U 24185A   25109.18830115  .00000833  00000-0  43133-3 0  9994 | 2 61552  88.9801 105.1399 0007277   8.5367 351.5942 14.14013444 36098 | 2025/04/19-04:31:09  170.0530    0.1187  351.5820  101.8378     7223.8072     7218.5505     7229.0640 -23.239537  85.891688  -0.000292   0.000666
1 61552U 24185A   25110.53284071  .00000823  00000-0  42600-3 0  9996 | 2 61552  88.9801 104.9861 0007087   4.3935 355.7312 14.14015809 36288 | 2025/04/20-12:47:17  295.5725    0.1186  355.7251  101.8376     7223.7992     7218.6797     7228.9187 -23.008893  85.953761  -0.000235   0.000669
1 61552U 24185A   25111.59431755  .00000928  00000-0  48121-3 0  9996 | 2 61552  88.9801 104.8647 0006943   0.9470 359.1728 14.14018258 36432 | 2025/04/21-14:15:49  318.8767    0.1187  359.1717  101.8374     7223.7908     7218.7754     7228.8063 -22.826720  86.002320  -0.000189   0.000668
1 61552U 24185A   25112.86808797  .00000876  00000-0  45377-3 0  9993 | 2 61552  88.9802 104.7190 0006774 356.7648   3.3494 14.14020322 36619 | 2025/04/22-20:50:02   58.8408    0.1187    3.3539  101.8373     7223.7838     7218.8904     7228.6772 -22.607973  86.060186  -0.000135   0.000664
1 61552U 24185A   25113.92956194  .00000860  00000-0  44564-3 0  9996 | 2 61552  88.9803 104.5976 0006632 353.2572   6.8524 14.14022130 36768 | 2025/04/23-22:18:34   82.1437    0.1187    6.8615  101.8372     7223.7777     7218.9869     7228.5685 -22.425600  86.107992  -0.000091   0.000657
1 61552U 24185A   25115.48638746  .00000941  00000-0  48808-3 0  9994 | 2 61552  88.9804 104.4195 0006418 348.2160  11.8875 14.14025383 36982 | 2025/04/25-11:40:23  284.3196    0.1187   11.9027  101.8369     7223.7666     7219.1304     7228.4028 -22.157856  86.177381  -0.000030   0.000641
1 61552U 24185A   25116.90168031  .00000983  00000-0  51036-3 0  9990 | 2 61552  88.9805 104.2577 0006255 343.3683  16.7298 14.14028429 37180 | 2025/04/26-21:38:25   75.3872    0.1187   16.7504  101.8367     7223.7562     7219.2377     7228.2747 -21.914433  86.239707   0.000026   0.000625
1 61552U 24185A   25117.96314832  .00001027  00000-0  53343-3 0  9992 | 2 61552  88.9806 104.1362 0006109 339.7900  20.3044 14.14030739 37335 | 2025/04/27-23:06:56   98.6871    0.1187   20.3287  101.8365     7223.7483     7219.3354     7228.1613 -21.731531  86.286081   0.000065   0.000607
1 61552U 24185A   25121.85518589  .00000791  00000-0  40913-3 0  9996 | 2 61552  88.9808 103.6911 0005576 325.1497  34.9323 14.14036799 37881 | 2025/05/01-20:31:28   64.1143    0.1186   34.9689  101.8361     7223.7277     7219.6998     7227.7557 -21.060619  86.452490   0.000201   0.000520
1 61552U 24185A   25122.91664718  .00000817  00000-0  42267-3 0  9993 | 2 61552  88.9809 103.5698 0005469 320.7841  39.2949 14.14038876 38036 | 2025/05/02-21:59:58   87.4109    0.1187   39.3346  101.8360     7223.7206     7219.7700     7227.6713 -20.877568  86.496981   0.000237   0.000493
1 61552U 24185A   25124.47345558  .00000739  00000-0  38164-3 0  9998 | 2 61552  88.9810 103.3918 0005292 314.2906  45.7846 14.14041003 38253 | 2025/05/04-11:21:46  289.5782    0.1187   45.8281  101.8358     7223.7134     7219.8906     7227.5362 -20.608772  86.561521   0.000283   0.000447
1 61552U 24185A   25125.53491433  .00000705  00000-0  36388-3 0  9999 | 2 61552  88.9811 103.2704 0005192 309.8540  50.2190 14.14042577 38406 | 2025/05/05-12:50:16  312.8731    0.1187   50.2647  101.8357     7223.7080     7219.9575     7227.4586 -20.425340  86.605090   0.000312   0.000415
1 61552U 24185A   25126.87942753  .00000660  00000-0  34016-3 0  9999 | 2 61552  88.9812 103.1168 0005073 304.1246  55.9459 14.14044323 38590 | 2025/05/06-21:06:22   78.3792    0.1187   55.9941  101.8356     7223.7021     7220.0375     7227.3667 -20.193116  86.659633   0.000344   0.000372
1 61552U 24185A   25127.94088429  .00000616  00000-0  31683-3 0  9997 | 2 61552  88.9813 102.9954 0004982 299.5266  60.5423 14.14045517 38744 | 2025/05/07-22:34:52  101.6729    0.1186   60.5920  101.8355     7223.6980     7220.0992     7227.2969 -20.009476  86.702322   0.000367   0.000337
1 61552U 24185A   25129.28539472  .00000640  00000-0  32921-3 0  9998 | 2 61552  88.9814 102.8418 0004860 293.3585  66.7090 14.14047392 38932 | 2025/05/09-06:50:58  227.1768    0.1187   66.7602  101.8353     7223.6916     7220.1809     7227.2023 -19.776993  86.755750   0.000392   0.000287
1 61552U 24185A   25130.55914039  .00000563  00000-0  28903-3 0  9995 | 2 61552  88.9816 102.6962 0004769 287.3902  72.6763 14.14048528 39116 | 2025/05/10-13:25:09  327.1273    0.1187   72.7285  101.8353     7223.6878     7220.2428     7227.1327 -19.556510  86.805922   0.000413   0.000239
1 61552U 24185A   25131.62059409  .00000542  00000-0  27802-3 0  9999 | 2 61552  88.9817 102.5749 0004725 282.2826  77.7831 14.14049670 39267 | 2025/05/11-14:53:39  350.4190    0.1186   77.8360  101.8352     7223.6839     7220.2707     7227.0971 -19.372712  86.847228   0.000429   0.000199
1 61552U 24185A   25132.89433760  .00000501  00000-0  25622-3 0  9998 | 2 61552  88.9818 102.4294 0004688 275.9922  84.0730 14.14050870 39449 | 2025/05/12-21:27:50   90.3681    0.1186   84.1264  101.8351     7223.6798     7220.2933     7227.0662 -19.152127  86.896241   0.000445   0.000148
1 61552U 24185A   25134.23884353  .00000493  00000-0  25183-3 0  9998 | 2 61552  88.9820 102.2758 0004679 269.3762  90.6888 14.14052238 39632 | 2025/05/14-05:43:56  215.8693    0.1186   90.7424  101.8350     7223.6751     7220.2952     7227.0551 -18.919148  86.947468   0.000458   0.000095
1 61552U 24185A   25135.51258503  .00000461  00000-0  23528-3 0  9998 | 2 61552  88.9821 102.1303 0004687 263.2104  96.8549 14.14053342 39819 | 2025/05/15-12:18:07  315.8169    0.1186   96.9082  101.8349     7223.6714     7220.2856     7227.0571 -18.698309  86.995330   0.000467   0.000044
1 61552U 24185A   25136.85708903  .00000465  00000-0  23706-3 0  9992 | 2 61552  88.9822 101.9768 0004704 256.7555 103.3107 14.14054593 40005 | 2025/05/16-20:34:12   81.3161    0.1186  103.3631  101.8348     7223.6671     7220.2691     7227.0651 -18.465195  87.045209   0.000470  -0.000010
1 61552U 24185A   25138.20159171  .00000586  00000-0  30096-3 0  9994 | 2 61552  88.9823 101.8232 0004729 250.1766 109.8911 14.14056511 40196 | 2025/05/18-04:50:17  206.8144    0.1186  109.9420  101.8347     7223.6606     7220.2445     7227.0766 -18.231797  87.094496   0.000468  -0.000066
1 61552U 24185A   25139.54609333  .00000497  00000-0  25428-3 0  9996 | 2 61552  88.9824 101.6697 0004767 243.9121 116.1575 14.14057301 40383 | 2025/05/19-13:06:22  332.3118    0.1186  116.2065  101.8346     7223.6579     7220.2144     7227.1014 -17.998418  87.143126   0.000462  -0.000119
1 61552U 24185A   25140.60754112  .00000499  00000-0  25500-3 0  9994 | 2 61552  88.9825 101.5486 0004816 238.9483 121.1231 14.14058325 40538 | 2025/05/20-14:34:51  355.5985    0.1186  121.1703  101.8346     7223.6544     7220.1755     7227.1333 -17.814213  87.181071   0.000454  -0.000161
1 61552U 24185A   25141.88127751  .00000466  00000-0  23794-3 0  9995 | 2 61552  88.9826 101.4032 0004892 232.7825 127.2916 14.14059420 40715 | 2025/05/21-21:09:02   95.5417    0.1187  127.3362  101.8345     7223.6507     7220.1169     7227.1845 -17.592936  87.226095   0.000440  -0.000213
1 61552U 24185A   25143.15501281  .00000448  00000-0  22818-3 0  9997 | 2 61552  88.9828 101.2578 0004999 226.9949 133.0820 14.14060611 40892 | 2025/05/23-03:43:13  195.4845    0.1187  133.1238  101.8344     7223.6466     7220.0355     7227.2577 -17.371564  87.270656   0.000425  -0.000263
1 61552U 24185A   25144.49951009  .00000409  00000-0  20790-3 0  9996 | 2 61552  88.9829 101.1043 0005134 221.2515 138.8284 14.14061727 41086 | 2025/05/24-11:59:17  320.9792    0.1186  138.8671  101.8343     7223.6428     7219.9342     7227.3514 -17.137716  87.316981   0.000407  -0.000314
1 61552U 24185A   25145.56095465  .00000410  00000-0  20813-3 0  9998 | 2 61552  88.9830 100.9832 0005244 216.7511 143.3317 14.14062700 41235 | 2025/05/25-13:27:46  344.2637    0.1187  143.3676  101.8342     7223.6395     7219.8514     7227.4276 -16.953144  87.353106   0.000388  -0.000353
1 61552U 24185A   25147.61307950  .00000369  00000-0  18670-3 0  9992 | 2 61552  88.9832 100.7491 0005466 208.4672 151.6217 14.14064163 41526 | 2025/05/27-14:42:50    5.2793    0.1187  151.6515  101.8341     7223.6345     7219.6861     7227.5829 -16.596132  87.421841   0.000346  -0.000423
1 61552U 24185A   25148.88681099  .00000429  00000-0  21803-3 0  9990 | 2 61552  88.9832 100.6037 0005606 203.2743 156.8191 14.14065427 41701 | 2025/05/28-21:17:00  105.2190    0.1187  156.8444  101.8340     7223.6302     7219.5806     7227.6798 -16.374228  87.463676   0.000312  -0.000465
1 61552U 24185A   25150.58511807  .00000485  00000-0  24753-3 0  9998 | 2 61552  88.9833 100.4100 0005799 196.6300 163.4697 14.14067096 41943 | 2025/05/30-14:02:34  358.4709    0.1186  163.4886  101.8339     7223.6245     7219.4355     7227.8135 -16.078464  87.518630   0.000264  -0.000517
1 61552U 24185A   25151.85884705  .00000504  00000-0  25767-3 0  9997 | 2 61552  88.9834 100.2647 0005948 191.9555 168.1492 14.14068386 42123 | 2025/05/31-20:36:44   98.4090    0.1187  168.1632  101.8338     7223.6201     7219.3235     7227.9167 -15.856487  87.559222   0.000225  -0.000551
1 61552U 24185A   25152.92028642  .00000590  00000-0  30311-3 0  9992 | 2 61552  88.9834 100.1436 0006098 188.0201 172.0889 14.14070050 42271 | 2025/06/01-22:05:12  121.6902    0.1186  172.0985  101.8337     7223.6145     7219.2095     7228.0194 -15.671387  87.592540   0.000190  -0.000579
1 61552U 24185A   25154.19401232  .00000633  00000-0  32561-3 0  9990 | 2 61552  88.9835  99.9983 0006286 183.4499 176.6645 14.14071905 42451 | 2025/06/03-04:39:22  221.6269    0.1186  176.6687  101.8336     7223.6081     7219.0674     7228.1489 -15.449223  87.632099   0.000146  -0.000611
1 61552U 24185A   25155.46773731  .00000527  00000-0  27001-3 0  9992 | 2 61552  88.9836  99.8530 0006459 179.3471 180.7725 14.14072863 42634 | 2025/06/04-11:13:32  321.5634    0.1186  180.7715  101.8335     7223.6049     7218.9392     7228.2706 -15.226958  87.671094   0.000103  -0.000638
1 61552U 24185A   25156.52917373  .00000457  00000-0  23320-3 0  9994 | 2 61552  88.9837  99.7320 0006606 176.0024 184.1217 14.14073759 42788 | 2025/06/05-12:42:00  344.8432    0.1187  184.1163  101.8334     7223.6018     7218.8299     7228.3737 -15.041793  87.703155   0.000066  -0.000657
1 61552U 24185A   25157.59060948  .00000403  00000-0  20437-3 0  9996 | 2 61552  88.9838  99.6109 0006749 172.6932 187.4355 14.14074657 42935 | 2025/06/06-14:10:28    8.1228    0.1187  187.4255  101.8334     7223.5988     7218.7236     7228.4740 -14.856408  87.734849   0.000027  -0.000674
1 61552U 24185A   25158.86433154  .00000371  00000-0  18788-3 0  9990 | 2 61552  88.9840  99.4656 0006911 168.7504 191.3838 14.14075733 43112 | 2025/06/07-20:44:38  108.0580    0.1186  191.3682  101.8333     7223.5951     7218.6029     7228.5873 -14.633901  87.772440  -0.000022  -0.000691
1 61552U 24185A   25160.20881534  .00000369  00000-0  18685-3 0  9993 | 2 61552  88.9841  99.3124 0007090 164.5598 195.5807 14.14076780 43304 | 2025/06/09-05:00:41  233.5442    0.1187  195.5589  101.8332     7223.5915     7218.4700     7228.7131 -14.399175  87.811354  -0.000076  -0.000705
1 61552U 24185A   25161.48253609  .00000344  00000-0  17321-3 0  9999 | 2 61552  88.9841  99.1671 0007258 160.5621 199.5844 14.14077522 43487 | 2025/06/10-11:34:51  333.4785    0.1186  199.5565  101.8332     7223.5890     7218.3461     7228.8319 -14.176443  87.847587  -0.000129  -0.000714
1 61552U 24185A   25162.54396945  .00000351  00000-0  17707-3 0  9994 | 2 61552  88.9842  99.0461 0007399 157.3388 202.8127 14.14078264 43637 | 2025/06/11-13:03:18  356.7567    0.1187  202.7799  101.8331     7223.5865     7218.2418     7228.9312 -13.990906  87.877428  -0.000174  -0.000719
1 61552U 24185A   25163.81768849  .00000406  00000-0  20627-3 0  9997 | 2 61552  88.9842  98.9009 0007571 153.5714 206.5860 14.14079508 43813 | 2025/06/12-19:37:28   96.6903    0.1186  206.5472  101.8330     7223.5822     7218.1133     7229.0512 -13.768161  87.912602  -0.000228  -0.000722
1 61552U 24185A   25164.87911951  .00000524  00000-0  26812-3 0  9991 | 2 61552  88.9842  98.7798 0007716 150.5134 209.6489 14.14081205 43964 | 2025/06/13-21:05:55  119.9678    0.1186  209.6052  101.8329     7223.5765     7218.0028     7229.1502 -13.582319  87.941506  -0.000273  -0.000722
1 61552U 24185A   25166.50664682  .00000417  00000-0  21204-3 0  9990 | 2 61552  88.9842  98.5943 0007924 146.1200 214.0495 14.14081992 44196 | 2025/06/15-12:09:34  347.6601    0.1187  213.9987  101.8329     7223.5738     7217.8498     7229.2978 -13.297530  87.985019  -0.000338  -0.000716
1 61552U 24185A   25167.56807642  .00000414  00000-0  21035-3 0  9991 | 2 61552  88.9842  98.4733 0008045 143.3131 216.8608 14.14082962 44340 | 2025/06/16-13:38:01   10.9376    0.1186  216.8055  101.8328     7223.5705     7217.7591     7229.3818 -13.111689  88.012905  -0.000380  -0.000709
1 61552U 24185A   25168.84179108  .00000398  00000-0  20198-3 0  9992 | 2 61552  88.9842  98.3281 0008183 139.9325 220.2466 14.14084070 44529 | 2025/06/17-20:12:10  110.8703    0.1186  220.1861  101.8327     7223.5667     7217.6557     7229.4778 -12.888604  88.045850  -0.000430  -0.000696
1 61552U 24185A   25169.90321931  .00000375  00000-0  18954-3 0  9995 | 2 61552  88.9843  98.2071 0008290 137.1222 223.0612 14.14084866 44674 | 2025/06/18-21:40:38  134.1473    0.1186  222.9964  101.8326     7223.5640     7217.5757     7229.5523 -12.702650  88.072972  -0.000472  -0.000682
1 61552U 24185A   25171.53074172  .00000333  00000-0  16743-3 0  9997 | 2 61552  88.9843  98.0215 0008463 132.7693 227.4207 14.14085830 44903 | 2025/06/20-12:44:16    1.8386    0.1186  227.3493  101.8326     7223.5607     7217.4474     7229.6740 -12.417286  88.113658  -0.000535  -0.000656
1 61552U 24185A   25172.59216882  .00000323  00000-0  16245-3 0  9996 | 2 61552  88.9843  97.9005 0008579 129.9344 230.2597 14.14086457 45054 | 2025/06/21-14:12:43   25.1154    0.1186  230.1842  101.8325     7223.5586     7217.3615     7229.7557 -12.231176  88.139684  -0.000576  -0.000636
1 61552U 24185A   25173.65359534  .00000325  00000-0  16344-3 0  9998 | 2 61552  88.9843  97.7795 0008689 127.1222 233.0760 14.14087120 45203 | 2025/06/22-15:41:10   48.3921    0.1187  232.9965  101.8325     7223.5563     7217.2798     7229.8329 -12.045011  88.165318  -0.000615  -0.000613
1 61552U 24185A   25174.85654483  .00000325  00000-0  16342-3 0  9990 | 2 61552  88.9843  97.6423 0008813 124.0032 236.1993 14.14087856 45370 | 2025/06/23-20:33:25  122.7725    0.1186  236.1154  101.8324     7223.5538     7217.1877     7229.9199 -11.833857  88.193908  -0.000659  -0.000586
1 61552U 24185A   25175.91797028  .00000325  00000-0  16344-3 0  9993 | 2 61552  88.9843  97.5212 0008911 121.3289 238.8771 14.14088500 45525 | 2025/06/24-22:01:52  146.0494    0.1186  238.7897  101.8324     7223.5516     7217.1147     7229.9885 -11.647424  88.218723  -0.000694  -0.000559
1 61552U 24185A   25176.97939510  .00000324  00000-0  16297-3 0  9990 | 2 61552  88.9842  97.4002 0009005 118.7468 241.4625 14.14089132 45670 | 2025/06/25-23:30:19  169.3262    0.1187  241.3719  101.8323     7223.5495     7217.0447     7230.0543 -11.461081  88.243025  -0.000727  -0.000531
1 61552U 24185A   25178.18234247  .00000327  00000-0  16425-3 0  9996 | 2 61552  88.9841  97.2630 0009090 115.8491 244.3634 14.14089942 45842 | 2025/06/27-04:22:34  243.7070    0.1186  244.2695  101.8323     7223.5467     7216.9805     7230.1129 -11.249730  88.270117  -0.000761  -0.000497
1 61552U 24185A   25179.52681229  .00000299  00000-0  14990-3 0  9994 | 2 61552  88.9841  97.1097 0009171 112.5625 247.6533 14.14090670 46037 | 2025/06/28-12:38:36    9.1913    0.1186  247.5561  101.8322     7223.5442     7216.9195     7230.1689 -11.013515  88.299901  -0.000797  -0.000454
1 61552U 24185A   25180.58823525  .00000279  00000-0  13943-3 0  9994 | 2 61552  88.9840  96.9887 0009227 109.9264 250.2918 14.14091269 46189 | 2025/06/29-14:07:03   32.4683    0.1187  250.1923  101.8322     7223.5422     7216.8770     7230.2074 -10.827003  88.322864  -0.000823  -0.000418
1 61552U 24185A   25181.86194194  .00000315  00000-0  15834-3 0  9991 | 2 61552  88.9840  96.8434 0009292 106.7551 253.4656 14.14092282 46362 | 2025/06/30-20:41:11  132.4010    0.1187  253.3636  101.8321     7223.5387     7216.8266     7230.2509 -10.602985  88.350037  -0.000851  -0.000372
1 61552U 24185A   25183.20640940  .00000327  00000-0  16419-3 0  9999 | 2 61552  88.9840  96.6901 0009365 103.4141 256.8090 14.14093202 46552 | 2025/07/02-04:57:13  257.8853    0.1186  256.7045  101.8320     7223.5356     7216.7708     7230.3005 -10.366558  88.378090  -0.000879  -0.000322
1 61552U 24185A   25184.55087580  .00000349  00000-0  17586-3 0  9993 | 2 61552  88.9839  96.5367 0009444 100.1038 260.1214 14.14094180 46745 | 2025/07/03-13:13:15   23.3697    0.1186  260.0148  101.8320     7223.5323     7216.7104     7230.3542 -10.129892  88.405428  -0.000905  -0.000270
1 61552U 24185A   25185.68305726  .00000356  00000-0  17964-3 0  9991 | 2 61552  88.9839  96.4075 0009504  97.3786 262.8481 14.14095005 46904 | 2025/07/04-16:23:36   72.1987    0.1187  262.7401  101.8319     7223.5295     7216.6642     7230.3947  -9.930516  88.428046  -0.000923  -0.000226
1 61552U 24185A   25186.81523792  .00000362  00000-0  18299-3 0  9991 | 2 61552  88.9838  96.2783 0009550  94.6896 265.5382 14.14095814 47066 | 2025/07/05-19:33:56  121.0277    0.1187  265.4291  101.8319     7223.5267     7216.6283     7230.4252  -9.731077  88.450115  -0.000938  -0.000182
1 61552U 24185A   25187.87665657  .00000341  00000-0  17169-3 0  9997 | 2 61552  88.9838  96.1572 0009573  92.1524 268.0759 14.14096523 47218 | 2025/07/06-21:02:23  144.3052    0.1187  267.9663  101.8318     7223.5243     7216.6092     7230.4394  -9.544108  88.470485  -0.000947  -0.000138
1 61552U 24185A   25188.93807464  .00000316  00000-0  15883-3 0  9992 | 2 61552  88.9837  96.0360 0009586  89.6487 270.5798 14.14097195 47367 | 2025/07/07-22:30:49  167.5829    0.1187  270.4700  101.8318     7223.5220     7216.5975     7230.4465  -9.356931  88.490376  -0.000954  -0.000095
1 61552U 24185A   25190.21177548  .00000308  00000-0  15422-3 0  9999 | 2 61552  88.9836  95.8907 0009579  86.5996 273.6286 14.14098064 47545 | 2025/07/09-05:04:57  267.5162    0.1186  273.5190  101.8317     7223.5191     7216.5996     7230.4385  -9.132483  88.513721  -0.000957  -0.000042
1 61552U 24185A   25191.55623671  .00000315  00000-0  15833-3 0  9994 | 2 61552  88.9834  95.7373 0009570  83.3439 276.8837 14.14098935 47732 | 2025/07/10-13:20:58   33.0014    0.1187  276.7748  101.8316     7223.5161     7216.6032     7230.4290  -8.895450  88.537656  -0.000957   0.000015
