# SPACE DATA - HISTORICAL TLEs
# ----------------------------
# NORAD_ID    : 60396
# OBJECT_NAME : QIANFAN-18
# --------------------------------------------------------------------+-----------------------------------------------------------------------+----------------------------------------------------------------------------------------------------------------------------------------
#                  LINE 1                                             |                 LINE 2                                                |      DERIVED PARAMETERS
# --------------------------------------------------------------------+-----------------------------------------------------------------------+----------------------------------------------------------------------------------------------------------------------------------------
# NORAD  COSPAR     TLE_EPOCH      MEANMOT1 MEANMOT2   BSTAR  #  REV  |   NORAD    INC     RAAN     ECC    ARGPER  MEANANOM   MEANMOT     REV |  CAL_DATE              LONG     ARGLAT     PERIOD        SMA         PERIGEE        APOGEE      INC_X      INC_Y      ECC_X      ECC_Y
# ------ ------   -------------- ----------  -------  ------- -- ----     -----  ------- -------- ------- -------- -------- -----------  ----   ------------------- ---------  --------  --------  ------------  ------------   ----------- ---------- ----------  ---------  ---------   
1 62239U 24232C   24351.54076046  .00001411  00000-0  59456-3 0  9991 | 2 62239  88.9937  78.8411 0015455 172.7189 187.4231 14.25160648 49941 | 2024/12/16-12:58:41  201.3532    0.1192  187.4003  101.0412     7186.0896     7174.9835     7197.1957  17.223007  87.311206  -0.000489  -0.001466
1 62239U 24232C   24352.66415895  .00001441  00000-0  60728-3 0  9991 | 2 62239  88.9937  78.7118 0015578 169.2400 190.9129 14.25163815 50101 | 2024/12/17-15:56:23  247.0023    0.1192  190.8792  101.0410     7186.0789     7174.8845     7197.2734  17.419999  87.272116  -0.000585  -0.001444
1 62239U 24232C   24353.92798000  .00001379  00000-0  58079-3 0  9999 | 2 62239  88.9935  78.5663 0015713 165.3265 194.8387 14.25166812 50287 | 2024/12/18-22:16:17  343.3568    0.1192  194.7927  101.0408     7186.0689     7174.7774     7197.3603  17.641527  87.227402  -0.000691  -0.001411
1 62239U 24232C   24355.19179837  .00001122  00000-0  47126-3 0  9998 | 2 62239  88.9935  78.4208 0015867 161.4204 198.7572 14.25168782 50468 | 2024/12/20-04:36:11   79.7102    0.1192  198.6988  101.0407     7186.0622     7174.6601     7197.4644  17.862979  87.182320  -0.000797  -0.001372
1 62239U 24232C   24356.52582558  .00001110  00000-0  46623-3 0  9992 | 2 62239  88.9935  78.2672 0016018 157.3932 202.7970 14.25172058 50652 | 2024/12/21-12:37:11  201.4158    0.1192  202.7260  101.0404     7186.0512     7174.5406     7197.5618  18.096636  87.134120  -0.000904  -0.001323
1 62239U 24232C   24357.57900285  .00001125  00000-0  47254-3 0  9996 | 2 62239  88.9935  78.1459 0016130 154.2208 205.9792 14.25174702 50803 | 2024/12/22-13:53:45  221.7092    0.1192  205.8984  101.0402     7186.0423     7174.4513     7197.6334  18.281065  87.095612  -0.000985  -0.001277
1 62239U 24232C   24359.47471649  .00001324  00000-0  55725-3 0  9997 | 2 62239  88.9934  77.9277 0016309 148.4885 211.7288 14.25180523 51074 | 2024/12/24-11:23:35  186.2355    0.1192  211.6307  101.0398     7186.0228     7174.3031     7197.7425  18.612598  87.025263  -0.001124  -0.001181
1 62239U 24232C   24360.52788782  .00001421  00000-0  59850-3 0  9995 | 2 62239  88.9934  77.8064 0016406 145.3399 214.8866 14.25183781 51223 | 2024/12/25-12:40:09  206.5274    0.1192  214.7793  101.0396     7186.0118     7174.2224     7197.8012  18.796796  86.985664  -0.001197  -0.001122
1 62239U 24232C   24361.58115885  .00001245  00000-0  52516-3 0  9996 | 2 62239  88.9934  77.6852 0016134 143.0516 217.1792 14.25028238 51375 | 2024/12/26-13:56:52  226.8600    0.1193  217.0677  101.0506     7186.5347     7174.9400     7198.1295  18.980758  86.945708  -0.001222  -0.001053
1 62239U 24232C   24362.77488026  .00001348  00000-0  56921-3 0  9996 | 2 62239  88.9932  77.5477 0016234 139.5495 220.6908 14.25031206 51548 | 2024/12/27-18:35:49  297.9043    0.1192  220.5697  101.0504     7186.5247     7174.8581     7198.1913  19.189315  86.899711  -0.001295  -0.000979
1 62239U 24232C   24363.82816137  .00001375  00000-0  58055-3 0  9991 | 2 62239  88.9931  77.4264 0016310 136.4337 223.8147 14.25034250 51694 | 2024/12/28-19:52:33  318.2368    0.1192  223.6855  101.0502     7186.5145     7174.7933     7198.2357  19.373224  86.858794  -0.001354  -0.000909
1 62239U 24232C   24364.95165833  .00001454  00000-0  61425-3 0  9999 | 2 62239  88.9929  77.2970 0016399 133.1482 227.1085 14.25037899 51853 | 2024/12/29-22:50:23    3.9242    0.1192  226.9710  101.0499     7186.5022     7174.7171     7198.2874  19.569297  86.814624  -0.001414  -0.000831
1 62239U 24232C   24366.49646204  .00001575  00000-0  66591-3 0  9999 | 2 62239  88.9928  77.1190 0016488 128.6628 231.6044 14.25043170 52074 | 2024/12/31-11:54:54  201.7437    0.1193  231.4565  101.0496     7186.4845     7174.6354     7198.3336  19.838886  86.753312  -0.001485  -0.000717
1 62239U 24232C   25001.54973270  .00001766  00000-0  74710-3 0  9992 | 2 62239  88.9926  76.9977 0016554 125.6306 234.6431 14.25047900 52221 | 2025/01/01-13:11:36  222.0741    0.1192  234.4886  101.0492     7186.4686     7174.5721     7198.3651  20.022460  86.710922  -0.001528  -0.000637
1 62239U 24232C   25002.88387147  .00001866  00000-0  78975-3 0  9990 | 2 62239  88.9923  76.8440 0016670 121.8809 238.4009 14.25053568 52418 | 2025/01/02-21:12:46  343.8246    0.1193  238.2384  101.0488     7186.4496     7174.4697     7198.4294  20.254928  86.656606  -0.001579  -0.000535
1 62239U 24232C   25003.93713499  .00001273  00000-0  53674-3 0  9991 | 2 62239  88.9921  76.7225 0016714 118.8426 241.4447 14.25056241 52563 | 2025/01/03-22:29:28    4.1536    0.1192  241.2766  101.0486     7186.4406     7174.4292     7198.4520  20.438598  86.613264  -0.001610  -0.000448
1 62239U 24232C   25005.48227038  .00001357  00000-0  59004-3 0  9998 | 2 62239  88.9925  76.5450 0017026 113.9421 246.3556 14.23498086 52787 | 2025/01/05-11:34:28  202.0924    0.1191  246.1770  101.1593     7191.6838     7179.4392     7203.9283  20.706917  86.549920  -0.001674  -0.000310
1 62239U 24232C   25007.10125114  .00000991  00000-0  46085-3 0  9999 | 2 62239  88.9875  76.3543 0017914 110.2355 250.0763 14.19755923 53014 | 2025/01/07-02:25:48   66.6979    0.1190  249.8835  101.4259     7204.3154     7191.4095     7217.2212  20.993690  86.475662  -0.001780  -0.000206
1 62239U 24232C   25008.51102061  .00000846  00000-0  39393-3 0  9994 | 2 62239  88.9918  76.1976 0017500 104.2777 256.0358 14.19574078 53210 | 2025/01/08-12:15:52  215.7594    0.1190  255.8413  101.4389     7204.9306     7192.3220     7217.5392  21.231142  86.422098  -0.001750  -0.000015
1 62239U 24232C   25009.77981167  .00000619  00000-0  28636-3 0  9991 | 2 62239  88.9916  76.0526 0017505 100.7130 259.6032 14.19575437 53394 | 2025/01/09-18:42:55  313.9171    0.1190  259.4060  101.4388     7204.9260     7192.3138     7217.5382  21.449736  86.367897  -0.001748   0.000099
1 62239U 24232C   25010.90762436  .00000605  00000-0  27964-3 0  9992 | 2 62239  88.9915  75.9236 0017509  97.5409 262.7771 14.19577181 53556 | 2025/01/10-21:46:58    1.1685    0.1190  262.5781  101.4387     7204.9201     7192.3050     7217.5352  21.644112  86.319288  -0.001740   0.000199
1 62239U 24232C   25012.17641250  .00000563  00000-0  25998-3 0  9991 | 2 62239  88.9913  75.7786 0017501  93.9599 266.3592 14.19578648 53734 | 2025/01/12-04:14:02   99.3267    0.1190  266.1591  101.4386     7204.9151     7192.3058     7217.5244  21.862444  86.264042  -0.001722   0.000312
1 62239U 24232C   25013.51568753  .00000571  00000-0  26370-3 0  9990 | 2 62239  88.9911  75.6254 0017478  90.1129 270.2063 14.19580214 53922 | 2025/01/13-12:22:35  222.9388    0.1189  270.0060  101.4384     7204.9098     7192.3171     7217.5026  22.092973  86.205084  -0.001694   0.000431
1 62239U 24232C   25014.57300869  .00000540  00000-0  24871-3 0  9999 | 2 62239  88.9909  75.5044 0017460  87.1063 273.2124 14.19581257 54075 | 2025/01/14-13:45:07  244.7381    0.1189  273.0126  101.4384     7204.9063     7192.3265     7217.4861  22.274926  86.158041  -0.001666   0.000522
1 62239U 24232C   25015.91228046  .00000576  00000-0  26595-3 0  9998 | 2 62239  88.9907  75.3512 0017431  83.3117 277.0056 14.19583006 54268 | 2025/01/15-21:53:41    8.3506    0.1190  276.8073  101.4382     7204.9004     7192.3415     7217.4592  22.505168  86.097980  -0.001624   0.000634
1 62239U 24232C   25017.18106277  .00000544  00000-0  25083-3 0  9996 | 2 62239  88.9905  75.2060 0017382  79.7034 280.6114 14.19584496 54444 | 2025/01/17-04:20:43  106.5105    0.1189  280.4155  101.4381     7204.8953     7192.3718     7217.4189  22.723236  86.040477  -0.001574   0.000737
1 62239U 24232C   25018.44984339  .00000579  00000-0  26746-3 0  9994 | 2 62239  88.9904  75.0607 0017325  76.0794 284.2322 14.19586197 54629 | 2025/01/18-10:47:46  204.6706    0.1191  284.0397  101.4380     7204.8896     7192.4071     7217.3721  22.941332  85.982478  -0.001517   0.000836
1 62239U 24232C   25019.57764724  .00000614  00000-0  28388-3 0  9997 | 2 62239  88.9903  74.9316 0017266  72.8275 287.4803 14.19587713 54786 | 2025/01/19-13:51:48  251.9245    0.1190  287.2915  101.4379     7204.8845     7192.4445     7217.3244  23.134985  85.930472  -0.001460   0.000921
1 62239U 24232C   25020.91691247  .00000673  00000-0  31208-3 0  9996 | 2 62239  88.9902  74.7783 0017197  68.9371 291.3656 14.19589704 54970 | 2025/01/20-22:00:21   15.5384    0.1190  291.1819  101.4378     7204.8777     7192.4875     7217.2679  23.364791  85.868168  -0.001386   0.001018
1 62239U 24232C   25022.25617600  .00000666  00000-0  30843-3 0  9992 | 2 62239  88.9901  74.6250 0017115  65.0470 295.2495 14.19591314 55161 | 2025/01/22-06:08:53  139.1528    0.1190  295.0720  101.4376     7204.8723     7192.5411     7217.2034  23.594428  85.805250  -0.001305   0.001108
1 62239U 24232C   25023.52495047  .00000647  00000-0  29958-3 0  9996 | 2 62239  88.9900  74.4797 0017024  61.4082 298.8818 14.19592820 55343 | 2025/01/23-12:35:55  237.3140    0.1190  298.7108  101.4375     7204.8672     7192.6016     7217.1327  23.811924  85.745043  -0.001222   0.001185
1 62239U 24232C   25024.58226109  .00000688  00000-0  31883-3 0  9999 | 2 62239  88.9898  74.3585 0016943  58.3493 301.9347 14.19594422 55492 | 2025/01/24-13:58:27  259.1152    0.1190  301.7697  101.4374     7204.8618     7192.6546     7217.0689  23.993197  85.694288  -0.001149   0.001245
1 62239U 24232C   25025.78054538  .00000632  00000-0  29231-3 0  9990 | 2 62239  88.9896  74.2212 0016848  54.8493 305.4272 14.19595590 55663 | 2025/01/25-18:43:59  331.8234    0.1190  305.2697  101.4373     7204.8578     7192.7191     7216.9965  24.198426  85.636354  -0.001062   0.001308
1 62239U 24232C   25026.90834133  .00000544  00000-0  25072-3 0  9993 | 2 62239  88.9894  74.0920 0016753  51.5307 308.7383 14.19596415 55822 | 2025/01/26-21:48:00   19.0782    0.1191  308.5884  101.4373     7204.8550     7192.7847     7216.9253  24.391416  85.581377  -0.000976   0.001362
1 62239U 24232C   25028.24759755  .00000542  00000-0  25003-3 0  9990 | 2 62239  88.9892  73.9385 0016636  47.5470 312.7123 14.19597922 56012 | 2025/01/28-05:56:32  142.6937    0.1190  312.5720  101.4372     7204.8499     7192.8639     7216.8359  24.620552  85.515531  -0.000869   0.001419
1 62239U 24232C   25029.51636518  .00000537  00000-0  24767-3 0  9992 | 2 62239  88.9891  73.7931 0016517  43.7757 316.4739 14.19599336 56194 | 2025/01/29-12:23:33  240.8557    0.1191  316.3434  101.4371     7204.8451     7192.9449     7216.7454  24.837458  85.452680  -0.000764   0.001464
1 62239U 24232C   25030.57367067  .00000516  00000-0  23757-3 0  9995 | 2 62239  88.9890  73.6719 0016406  40.6367 319.6044 14.19600358 56344 | 2025/01/30-13:46:05  262.6575    0.1191  319.4824  101.4370     7204.8417     7193.0214     7216.6619  25.018136  85.399854  -0.000675   0.001495
1 62239U 24232C   25031.91292306  .00000468  00000-0  21468-3 0  9990 | 2 62239  88.9888  73.5184 0016262  36.6258 323.6040 14.19601489 56538 | 2025/01/31-21:54:36   26.2732    0.1190  323.4932  101.4369     7204.8378     7193.1213     7216.5543  25.246782  85.332330  -0.000560   0.001527
1 62239U 24232C   25033.53412135  .00000482  00000-0  22160-3 0  9990 | 2 62239  88.9888  73.3325 0016083  31.6813 328.5342 14.19603255 56763 | 2025/02/02-12:49:08  251.7027    0.1191  328.4378  101.4368     7204.8319     7193.2443     7216.4194  25.523515  85.249966  -0.000417   0.001553
1 62239U 24232C   25034.59142366  .00000456  00000-0  20896-3 0  9998 | 2 62239  88.9887  73.2112 0015965  28.4409 331.7649 14.19604146 56911 | 2025/02/03-14:11:39  273.5047    0.1191  331.6782  101.4367     7204.8288     7193.3263     7216.3314  25.703911  85.195644  -0.000322   0.001564
1 62239U 24232C   25035.86018563  .00000413  00000-0  18887-3 0  9990 | 2 62239  88.9885  73.0657 0015836  24.4958 335.6981 14.19605094 57098 | 2025/02/04-20:38:40   11.6669    0.1191  335.6233  101.4367     7204.8256     7193.4161     7216.2352  25.920120  85.129904  -0.000208   0.001570
1 62239U 24232C   25036.91748676  .00000369  00000-0  16788-3 0  9990 | 2 62239  88.9884  72.9444 0015698  21.2454 338.9384 14.19605848 57248 | 2025/02/05-22:01:10   33.4689    0.1190  338.8736  101.4366     7204.8231     7193.5130     7216.1332  26.100259  85.074742  -0.000115   0.001566
1 62239U 24232C   25038.46819444  .00000231  00000-0  10280-3 0  9993 | 2 62239  88.9883  72.7664 0015493  16.4288 343.7401 14.19606214 57469 | 2025/02/07-11:14:11  233.4450    0.1191  343.6903  101.4366     7204.8219     7193.6594     7215.9843  26.364404  84.993151   0.000022   0.001549
1 62239U 24232C   25039.87917682  .00000208  00000-0  95429-4 0  9995 | 2 62239  88.9878  72.6053 0015326  12.6497 347.5073 14.17562879 57664 | 2025/02/08-21:06:00   22.9624    0.1189  347.4692  101.5828     7211.7437     7200.6910     7222.7965  26.603127  84.918209   0.000127   0.001527
1 62239U 24232C   25041.50418188  .00000810  00000-0  40721-3 0  9998 | 2 62239  88.9880  72.4192 0015150   8.0201 352.1225 14.15529051 57895 | 2025/02/10-12:06:01  249.7664    0.1188  352.0987  101.7287     7218.6500     7207.7137     7229.5862  26.878866  84.831543   0.000252   0.001494
1 62239U 24232C   25042.56519664  .00000645  00000-0  33588-3 0  9995 | 2 62239  88.9902  72.2924 0013975   1.0682 359.0531 14.13408457 58048 | 2025/02/11-13:33:52  272.9256    0.1186  359.0504  101.8814     7225.8685     7215.7703     7235.9666  27.067208  84.773946   0.000400   0.001339
1 62239U 24232C   25043.76952080  .00000584  00000-0  31370-3 0  9990 | 2 62239  88.9838  72.1603 0015933   0.5779 359.5422 14.11611383 58211 | 2025/02/12-18:28:06  347.8026    0.1186  359.5407  102.0111     7231.9998     7220.4771     7243.5226  27.260628  84.705223   0.000473   0.001522
1 62239U 24232C   25045.11738737  .00000547  00000-0  30447-3 0  9995 | 2 62239  88.9841  72.0068 0014641 357.6388   2.4725 14.09558585 58408 | 2025/02/14-02:49:02  114.5254    0.1186    2.4798  102.1596     7239.0196     7228.4210     7249.6183  27.487555  84.632171   0.000509   0.001373
1 62239U 24232C   25046.89419004  .00000554  00000-0  32808-3 0  9995 | 2 62239  88.9887  71.8090 0013878 353.0483   7.0504 14.06238809 58651 | 2025/02/15-21:27:38   36.1361    0.1183    7.0700  102.4008     7250.4081     7240.3460     7260.4703  27.780999  84.541143   0.000590   0.001256
1 62239U 24232C   25048.46064719  .00000561  00000-0  34484-3 0  9999 | 2 62239  88.9890  71.6359 0013952 348.4608  11.6251 14.04190239 58877 | 2025/02/17-11:03:19  241.7905    0.1182   11.6574  102.5502     7257.4582     7247.3326     7267.5838  28.036379  84.457111   0.000696   0.001209
1 62239U 24232C   25049.60197627  .00000493  00000-0  31486-3 0  9994 | 2 62239  88.9714  71.5324 0023014   7.8940 352.2597 14.01851739 59030 | 2025/02/18-14:26:50  293.8296    0.1181  352.2241  102.7213     7265.5270     7248.8061     7282.2478  28.183323  84.389634   0.000422   0.002262
1 62239U 24232C   25050.81637847  .00000517  00000-0  34455-3 0  9998 | 2 62239  88.9873  71.3715 0014041 342.5534  17.5160 13.99606194 59201 | 2025/02/19-19:35:35   12.4566    0.1179   17.5645  102.8861     7273.2961     7263.0837     7283.5086  28.425276  84.325223   0.000827   0.001135
1 62239U 24232C   25052.17652749  .00000465  00000-0  32834-3 0  9998 | 2 62239  88.9890  71.2256 0013403 340.4714  19.5948 13.96242801 59391 | 2025/02/21-04:14:11  143.6000    0.1178   19.6464  103.1339     7284.9718     7275.2078     7294.7359  28.640460  84.254176   0.000831   0.001052
1 62239U 24232C   25053.46746202  .00000471  00000-0  34713-3 0  9994 | 2 62239  88.9895  71.0713 0014699 340.9412  19.1212 13.93781264 59578 | 2025/02/22-11:13:08  249.7669    0.1177   19.1765  103.3161     7293.5466     7282.8258     7304.2673  28.867418  84.177214   0.000905   0.001158
1 62239U 24232C   25054.47330450  .00000466  00000-0  35731-3 0  9995 | 2 62239  88.9863  70.9697 0012975 333.4933  26.5576 13.91535289 59715 | 2025/02/23-11:21:33  252.9747    0.1175   26.6242  103.4828     7301.3924     7291.9189     7310.8660  29.015597  84.122867   0.000926   0.000909
1 62239U 24232C   25055.84079835  .00000524  00000-0  41923-3 0  9999 | 2 62239  88.9945  70.8298 0018626 326.5248  33.4746 13.89321709 59907 | 2025/02/24-20:10:44   26.8118    0.1174   33.5926  103.6477     7309.1458     7295.5318     7322.7598  29.223607  84.059514   0.001481   0.001130
1 62239U 24232C   25056.99447102  .00000465  00000-0  39123-3 0  9995 | 2 62239  88.9881  70.6927 0013677 324.5829  35.4432 13.86242528 60068 | 2025/02/25-23:52:02   83.3814    0.1171   35.5342  103.8779     7319.9654     7309.9539     7329.9769  29.422548  83.983305   0.001117   0.000790
1 62239U 24232C   25058.00571122  .00000464  00000-0  40444-3 0  9996 | 2 62239  88.9834  70.6024 0014106 330.2262  29.8104 13.84197749 60208 | 2025/02/27-00:08:13   88.5044    0.1171   29.8909  104.0314     7327.1725     7316.8368     7337.5082  29.553311  83.932397   0.001067   0.000922
1 62239U 24232C   25059.09044221  .00000458  00000-0  41053-3 0  9991 | 2 62239  88.9873  70.4652 0013483 316.1444  43.8653 13.82536934 60350 | 2025/02/28-02:10:14  120.2409    0.1169   43.9725  104.1563     7333.0393     7323.1522     7342.9264  29.755514  83.865064   0.001205   0.000604
1 62239U 24232C   25060.46691296  .00000376  00000-0  35106-3 0  9995 | 2 62239  88.9981  70.3131 0013178 326.0015  34.0307 13.79754421 60544 | 2025/03/01-11:12:21  257.2566    0.1168   34.1153  104.3664     7342.8949     7333.2184     7352.5714  29.981679  83.795947   0.001062   0.000780
1 62239U 24232C   25061.48267516  .00000337  00000-0  31927-3 0  9996 | 2 62239  88.9907  70.2044 0012149 321.1650  38.8642 13.78638264 60686 | 2025/03/02-11:35:03  264.0439    0.1167   38.9517  104.4509     7346.8576     7337.9319     7355.7833  30.138095  83.731953   0.001037   0.000632
1 62239U 24232C   25062.64497645  .00000289  00000-0  28391-3 0  9990 | 2 62239  88.9871  70.0830 0012761 302.4183  57.5747 13.76164739 60841 | 2025/03/03-15:28:45  323.7756    0.1165   57.6982  104.6386     7355.6585     7346.2719     7365.0450  30.314214  83.664523   0.001246   0.000276
1 62239U 24232C   25063.73654657  .00000283  00000-0  28834-3 0  9995 | 2 62239  88.9871  69.9684 0012787 299.6266  60.3624 13.74057279 60992 | 2025/03/04-17:40:37  357.9353    0.1165   60.4899  104.7991     7363.1777     7353.7624     7372.5930  30.481495  83.603723   0.001261   0.000213
1 62239U 24232C   25064.75668916  .00000272  00000-0  28151-3 0  9991 | 2 62239  88.9876  69.8599 0012715 296.1759  63.8097 13.73017916 61133 | 2025/03/05-18:09:37    6.3041    0.1164   63.9405  104.8785     7366.8932     7357.5262     7376.2602  30.639931  83.546320   0.001264   0.000134
1 62239U 24232C   25066.79874311  .00000053  00000-0  46034-4 0  9993 | 2 62239  88.9869  69.6417 0012745 285.6593  74.3162 13.70270262 61417 | 2025/03/07-19:10:11   23.6845    0.1162   74.4569  105.0888     7376.7379     7367.3362     7386.1396  30.957635  83.428372   0.001270  -0.000104
1 62239U 24232C   25067.89517190  .00000055  00000-0  50257-4 0  9998 | 2 62239  88.9885  69.5256 0012087 286.1191  73.8638 13.67653234 61562 | 2025/03/08-21:29:02   59.5883    0.1160   73.9969  105.2898     7386.1452     7377.2176     7395.0729  31.127184  83.366969   0.001205  -0.000092
1 62239U 24232C   25069.43209506  .00000274  00000-0  31963-3 0  9994 | 2 62239  88.9919  69.3585 0011294 286.3681  73.6236 13.65753748 61772 | 2025/03/10-10:22:13  254.5538    0.1159   73.7478  105.4363     7392.9921     7384.6424     7401.3417  31.371385  83.279016   0.001126  -0.000084
1 62239U 24232C   25070.82521829  .00000252  00000-0  30521-3 0  9999 | 2 62239  88.9867  69.2176 0012768 269.5142  90.4553 13.63213598 61963 | 2025/03/11-19:48:18   37.6144    0.1158   90.6016  105.6327     7402.1731     7392.7220     7411.6242  31.574242  83.196755   0.001190  -0.000463
1 62239U 24232C   25071.92688055  .00000256  00000-0  31488-3 0  9993 | 2 62239  88.9883  69.1052 0012420 270.2051  89.7683 13.62252152 62117 | 2025/03/12-22:14:42   75.4072    0.1157   89.9106  105.7073     7405.6555     7396.4577     7414.8533  31.737963  83.136149   0.001162  -0.000439
1 62239U 24232C   25072.95520872  .00000009  00000-0 -39002-5 0  9998 | 2 62239  88.9885  68.9980 0012412 266.6920  93.2817 13.62252016 62254 | 2025/03/13-22:55:30   86.7258    0.1157   93.4237  105.7073     7405.6560     7396.4641     7414.8479  31.893526  83.076809   0.001131  -0.000511
1 62239U 24232C   25073.98389456  .00000003  00000-0 -11774-4 0  9992 | 2 62239  88.9883  68.8935 0012307 259.8282 100.1487 13.60947064 62397 | 2025/03/14-23:36:48   98.1679    0.1157  100.2875  105.8087     7410.3892     7401.2693     7419.5092  32.044922  83.018314   0.001052  -0.000639
1 62239U 24232C   25075.38249978  .00000232  00000-0  30427-3 0  9990 | 2 62239  88.9914  68.7460 0012138 259.1634 100.8156 13.57943853 62589 | 2025/03/16-09:10:47  243.1897    0.1156  100.9522  106.0427     7421.3110     7412.3030     7430.3190  32.259659  82.938433   0.001028  -0.000645
1 62239U 24232C   25076.56241802  .00000242  00000-0  32816-3 0  9994 | 2 62239  88.9885  68.6278 0012409 248.8941 111.0887 13.56156180 62740 | 2025/03/17-13:29:52  309.2377    0.1154  111.2213  106.1825     7427.8314     7418.6142     7437.0486  32.429633  82.869005   0.000915  -0.000838
1 62239U 24232C   25077.59595802  .00000253  00000-0  34945-3 0  9997 | 2 62239  88.9893  68.5180 0012468 251.1096 108.8706 13.55030595 62882 | 2025/03/18-14:18:10  322.4432    0.1153  109.0057  106.2707     7431.9442     7422.6781     7441.2104  32.588674  82.807450   0.000950  -0.000808
1 62239U 24232C   25078.85129576  .00000275  00000-0  38223-3 0  9995 | 2 62239  88.9893  68.3891 0012548 246.5851 113.3983 13.55023814 63059 | 2025/03/19-20:25:51   55.7278    0.1153  113.5302  106.2712     7431.9690     7422.6434     7441.2946  32.774886  82.733925   0.000887  -0.000888
1 62239U 24232C   25079.95894935  .00000031  00000-0  27272-4 0  9998 | 2 62239  88.9895  68.2753 0012554 242.9337 117.0535 13.55023908 63208 | 2025/03/20-23:00:53   95.6848    0.1152  117.1815  106.2712     7431.9687     7422.6386     7441.2987  32.939220  82.668851   0.000827  -0.000944
1 62239U 24232C   25081.21428971  .00000038  00000-0  37094-4 0  9993 | 2 62239  88.9897  68.1463 0012602 238.6484 121.3437 13.55024073 63377 | 2025/03/22-05:08:34  188.9688    0.1153  121.4669  106.2712     7431.9681     7422.6023     7441.3338  33.125338  82.594665   0.000755  -0.001009
1 62239U 24232C   25082.46962970  .00000131  00000-0  17268-3 0  9997 | 2 62239  88.9898  68.0173 0012670 234.6147 125.3823 13.55024643 63547 | 2025/03/23-11:16:16  282.2526    0.1153  125.5006  106.2711     7431.9660     7422.5497     7441.3823  33.311251  82.519968   0.000683  -0.001067
1 62239U 24232C   25083.50343910  .00000121  00000-0  15839-3 0  9991 | 2 62239  88.9900  67.9111 0012730 231.2005 128.8012 13.55024829 63683 | 2025/03/24-12:04:57  295.5444    0.1153  128.9148  106.2711     7431.9653     7422.5044     7441.4262  33.464223  82.458267   0.000619  -0.001112
1 62239U 24232C   25084.53724835  .00000126  00000-0  16530-3 0  9998 | 2 62239  88.9901  67.8049 0012785 227.8188 132.1880 13.55025097 63821 | 2025/03/25-12:53:38  308.8358    0.1152  132.2964  106.2711     7431.9643     7422.4625     7441.4661  33.617043  82.396191   0.000553  -0.001153
1 62239U 24232C   25085.71879584  .00000107  00000-0  13771-3 0  9994 | 2 62239  88.9902  67.6837 0012973 224.3986 135.6128 13.54802859 63980 | 2025/03/26-17:15:03   15.4741    0.1153  135.7167  106.2885     7432.7770     7423.1345     7442.4196  33.791301  82.324988   0.000488  -0.001202
1 62239U 24232C   25087.19747620  .00000085  00000-0  10906-3 0  9995 | 2 62239  88.9911  67.5321 0013071 219.6811 140.3386 13.52995634 64185 | 2025/03/28-04:44:21  189.3998    0.1152  140.4341  106.4305     7439.3943     7429.6703     7449.1183  34.009352  82.236123   0.000387  -0.001249
1 62239U 24232C   25088.38094946  .00000230  00000-0  33191-3 0  9996 | 2 62239  88.9904  67.4113 0013648 216.2157 143.8072 13.51942410 64342 | 2025/03/29-09:08:34  256.7343    0.1151  143.8994  106.5134     7443.2576     7433.0990     7453.4161  34.182391  82.163590   0.000322  -0.001326
1 62239U 24232C   25089.56577371  .00000206  00000-0  30130-3 0  9998 | 2 62239  88.9913  67.2903 0013364 212.1643 147.8694 13.50911820 64509 | 2025/03/30-13:34:42  324.5490    0.1150  147.9507  106.5947     7447.0426     7437.0904     7456.9949  34.356179  82.092049   0.000220  -0.001318
1 62239U 24232C   25090.60271419  .00000197  00000-0  28715-3 0  9994 | 2 62239  88.9913  67.1849 0013252 208.6906 151.3517 13.50941380 64648 | 2025/03/31-14:27:54  338.9665    0.1150  151.4244  106.5923     7446.9340     7437.0653     7456.8027  34.507135  82.028709   0.000136  -0.001318
1 62239U 24232C   25091.93591259  .00000059  00000-0  73467-4 0  9990 | 2 62239  88.9915  67.0491 0013373 204.6196 155.4318 13.50941571 64829 | 2025/04/01-22:27:42  100.3586    0.1150  155.4954  106.5923     7446.9333     7436.9745     7456.8921  34.701537  81.946875   0.000039  -0.001337
1 62239U 24232C   25093.49131079  .00000100  00000-0  13623-3 0  9997 | 2 62239  88.9917  66.8906 0013507 199.6091 160.4542 13.50941896 65034 | 2025/04/03-11:47:29  301.9817    0.1150  160.5059  106.5923     7446.9321     7436.8735     7456.9907  34.928176  81.850749  -0.000082  -0.001348
1 62239U 24232C   25094.52824260  .00000135  00000-0  19123-3 0  9992 | 2 62239  88.9919  66.7851 0013602 196.3996 163.6716 13.50942231 65175 | 2025/04/04-12:40:40  316.3968    0.1149  163.7153  106.5923     7446.9309     7436.8016     7457.0602  35.078909  81.786481  -0.000161  -0.001351
1 62239U 24232C   25095.56517432  .00000134  00000-0  18929-3 0  9999 | 2 62239  88.9920  66.6796 0013702 193.2267 166.8527 13.50942448 65313 | 2025/04/05-13:33:51  330.8115    0.1151  166.8884  106.5923     7446.9301     7436.7263     7457.1339  35.229484  81.721842  -0.000240  -0.001349
1 62239U 24232C   25096.89837194  .00000153  00000-0  21851-3 0  9995 | 2 62239  88.9922  66.5439 0013832 189.1382 170.9519 13.50942848 65494 | 2025/04/06-21:33:39   92.2017    0.1150  170.9768  106.5922     7446.9286     7436.6280     7457.2292  35.423016  81.638359  -0.000342  -0.001340
1 62239U 24232C   25097.93530329  .00000128  00000-0  17973-3 0  9993 | 2 62239  88.9924  66.4384 0013932 186.0184 174.0801 13.50943016 65634 | 2025/04/07-22:26:50  106.6162    0.1149  174.0965  106.5922     7446.9280     7436.5529     7457.3031  35.573358  81.573178  -0.000420  -0.001328
1 62239U 24232C   25099.56476626  .00000144  00000-0  20438-3 0  9991 | 2 62239  88.9927  66.2726 0014094 181.1592 178.9529 13.50943505 65851 | 2025/04/09-13:33:15  334.9811    0.1150  178.9558  106.5922     7446.9262     7436.4305     7457.4219  35.809383  81.470171  -0.000541  -0.001301
1 62239U 24232C   25100.82389640  .00000131  00000-0  18457-3 0  9996 | 2 62239  88.9930  66.1446 0014224 177.4375 182.6851 13.50943839 66025 | 2025/04/10-19:46:24   69.6265    0.1150  182.6775  106.5921     7446.9250     7436.3325     7457.5175  35.991421  81.390243  -0.000633  -0.001274
1 62239U 24232C   25101.86082692  .00000129  00000-0  18192-3 0  9991 | 2 62239  88.9932  66.0392 0014336 174.3931 185.7383 13.50944097 66160 | 2025/04/11-20:39:35   84.0402    0.1150  185.7219  106.5921     7446.9240     7436.2481     7457.5999  36.141164  81.324079  -0.000707  -0.001247
1 62239U 24232C   25102.89775723  .00000124  00000-0  17334-3 0  9991 | 2 62239  88.9934  65.9338 0014451 171.3581 188.7822 13.50944356 66301 | 2025/04/12-21:32:46   98.4536    0.1151  188.7570  106.5921     7446.9231     7436.1615     7457.6846  36.290787  81.257640  -0.000781  -0.001216
1 62239U 24232C   25104.15688670  .00000135  00000-0  18978-3 0  9993 | 2 62239  88.9937  65.8059 0014587 167.7210 192.4300 13.50944673 66474 | 2025/04/14-03:45:55  193.0985    0.1151  192.3941  106.5921     7446.9219     7436.0591     7457.7847  36.472209  81.176700  -0.000867  -0.001173
1 62239U 24232C   25105.19381668  .00000122  00000-0  17025-3 0  9993 | 2 62239  88.9938  65.7005 0014701 164.7290 195.4308 13.50944885 66610 | 2025/04/15-04:39:05  207.5119    0.1151  195.3861  106.5921     7446.9211     7435.9734     7457.8688  36.621519  81.109561  -0.000936  -0.001133
1 62239U 24232C   25106.45294561  .00000157  00000-0  22484-3 0  9991 | 2 62239  88.9940  65.5726 0014837 161.1254 199.0450 13.50945322 66785 | 2025/04/16-10:52:14  302.1567    0.1150  198.9896  106.5920     7446.9195     7435.8705     7457.9685  36.802569  81.027791  -0.001018  -0.001080
1 62239U 24232C   25107.56394146  .00000148  00000-0  20985-3 0  9998 | 2 62239  88.9941  65.4598 0014949 157.9935 202.1861 13.50945551 66938 | 2025/04/17-13:32:04  343.3139    0.1150  202.1215  106.5920     7446.9187     7435.7863     7458.0511  36.962061  80.955271  -0.001085  -0.001028
1 62239U 24232C   25109.19340161  .00000156  00000-0  22264-3 0  9998 | 2 62239  88.9943  65.2943 0015127 153.4463 206.7466 13.50945977 67156 | 2025/04/19-04:38:29  211.6778    0.1150  206.6687  106.5920     7446.9171     7435.6522     7458.1821  37.195831  80.848349  -0.001180  -0.000947
1 62239U 24232C   25110.52659571  .00000158  00000-0  22543-3 0  9997 | 2 62239  88.9944  65.1589 0015266 149.7495 210.4540 13.50946368 67339 | 2025/04/20-12:38:17  333.0665    0.1150  210.3655  106.5919     7446.9157     7435.5472     7458.2841  37.386828  80.760314  -0.001252  -0.000874
1 62239U 24232C   25111.56352411  .00000163  00000-0  23321-3 0  9996 | 2 62239  88.9946  65.0537 0015378 146.8834 213.3283 13.50946726 67471 | 2025/04/21-13:31:28  347.4798    0.1150  213.2316  106.5919     7446.9144     7435.4625     7458.3662  37.535132  80.691714  -0.001305  -0.000813
1 62239U 24232C   25112.82265097  .00000172  00000-0  24761-3 0  9998 | 2 62239  88.9948  64.9259 0015495 143.4494 216.7718 13.50947169 67648 | 2025/04/22-19:44:37   82.1248    0.1151  216.6657  106.5919     7446.9127     7435.3737     7458.4517  37.715109  80.607971  -0.001363  -0.000736
1 62239U 24232C   25113.93364479  .00000169  00000-0  24373-3 0  9990 | 2 62239  88.9950  64.8132 0015590 140.4411 219.7881 13.50947565 67792 | 2025/04/23-22:24:26  123.2823    0.1150  219.6739  106.5918     7446.9113     7435.3015     7458.5210  37.873675  80.533811  -0.001410  -0.000665
1 62239U 24232C   25115.56310199  .00000148  00000-0  21040-3 0  9996 | 2 62239  88.9952  64.6478 0015752 136.0241 224.2167 13.50948011 68018 | 2025/04/25-13:30:52  351.6468    0.1151  224.0910  106.5918     7446.9096     7435.1793     7458.6400  38.106086  80.424324  -0.001474  -0.000556
1 62239U 24232C   25116.89629351  .00000176  00000-0  25441-3 0  9996 | 2 62239  88.9954  64.5125 0015864 132.4367 227.8128 13.50948589 68196 | 2025/04/26-21:30:39  113.0364    0.1150  227.6783  106.5918     7446.9075     7435.0937     7458.7213  38.295982  80.334295  -0.001517  -0.000462
1 62239U 24232C   25117.93321995  .00000169  00000-0  24266-3 0  9991 | 2 62239  88.9956  64.4073 0015946 129.7125 230.5434 13.50948914 68330 | 2025/04/27-22:23:50  127.4508    0.1150  230.4025  106.5917     7446.9063     7435.0315     7458.7812  38.443504  80.264025  -0.001546  -0.000389
1 62239U 24232C   25121.85872470  .00000185  00000-0  26701-3 0  9990 | 2 62239  88.9960  64.0092 0016276 119.4487 240.8291 13.50950101 68860 | 2025/05/01-20:36:33  104.8778    0.1151  240.6664  106.5916     7446.9020     7434.7814     7459.0225  39.000434  79.995338  -0.001625  -0.000098
1 62239U 24232C   25122.89564950  .00000195  00000-0  28397-3 0  9990 | 2 62239  88.9961  63.9041 0016343 116.7639 243.5186 13.50950531 69004 | 2025/05/02-21:29:44  119.2932    0.1150  243.3511  106.5916     7446.9004     7434.7299     7459.0708  39.147151  79.923753  -0.001634  -0.000019
1 62239U 24232C   25124.15477214  .00000187  00000-0  27043-3 0  9995 | 2 62239  88.9963  63.7765 0016449 113.5422 246.7459 13.50950927 69174 | 2025/05/04-03:42:52  213.9404    0.1151  246.5729  106.5916     7446.8989     7434.6495     7459.1483  39.325136  79.836552  -0.001643   0.000077
1 62239U 24232C   25125.19169613  .00000184  00000-0  26546-3 0  9995 | 2 62239  88.9964  63.6714 0016506 110.8284 249.4636 13.50951327 69316 | 2025/05/05-04:36:02  228.3563    0.1150  249.2866  106.5916     7446.8974     7434.6056     7459.1893  39.471561  79.764372  -0.001643   0.000158
1 62239U 24232C   25126.52488364  .00000160  00000-0  22938-3 0  9995 | 2 62239  88.9966  63.5364 0016581 107.4041 252.8925 13.50951711 69499 | 2025/05/06-12:35:49  349.7482    0.1151  252.7110  106.5915     7446.8960     7434.5483     7459.2437  39.659481  79.671327  -0.001637   0.000261
1 62239U 24232C   25127.85807060  .00000142  00000-0  20145-3 0  9998 | 2 62239  88.9968  63.4013 0016652 103.9898 256.3106 13.50952087 69678 | 2025/05/07-20:35:37  111.1409    0.1151  256.1253  106.5915     7446.8947     7434.4941     7459.2952  39.847320  79.577770  -0.001625   0.000364
1 62239U 24232C   25128.96905922  .00000160  00000-0  22940-3 0  9992 | 2 62239  88.9969  63.2888 0016704 101.1758 259.1272 13.50952528 69822 | 2025/05/08-23:15:26  152.3018    0.1151  258.9393  106.5915     7446.8930     7434.4537     7459.3323  40.003539  79.499466  -0.001609   0.000447
1 62239U 24232C   25130.52444282  .00000150  00000-0  21279-3 0  9997 | 2 62239  88.9971  63.1312 0016767  97.2253 263.0805 13.50952956 70036 | 2025/05/10-12:35:11  353.9277    0.1151  262.8898  106.5914     7446.8915     7434.4053     7459.3777  40.222152  79.389308  -0.001579   0.000564
1 62239U 24232C   25131.56136479  .00000144  00000-0  20460-3 0  9992 | 2 62239  88.9972  63.0262 0016801  94.5925 265.7146 13.50953255 70170 | 2025/05/11-13:28:21    8.3454    0.1151  265.5226  106.5914     7446.8904     7434.3788     7459.4019  40.367618  79.315553  -0.001554   0.000640
1 62239U 24232C   25132.82048396  .00000162  00000-0  23247-3 0  9998 | 2 62239  88.9973  62.8987 0016837  91.4145 268.8935 13.50953666 70346 | 2025/05/12-19:41:29  102.9959    0.1151  268.7006  106.5914     7446.8889     7434.3505     7459.4272  40.544064  79.225616  -0.001517   0.000730
1 62239U 24232C   25133.85740525  .00000170  00000-0  24487-3 0  9991 | 2 62239  88.9973  62.7937 0016863  88.8099 271.4984 13.50954010 70480 | 2025/05/13-20:34:39  117.4143    0.1151  271.3052  106.5913     7446.8876     7434.3299     7459.4453  40.689185  79.151182  -0.001483   0.000802
1 62239U 24232C   25134.89432620  .00000172  00000-0  24785-3 0  9993 | 2 62239  88.9974  62.6887 0016878  86.1776 274.1305 13.50954320 70620 | 2025/05/14-21:27:49  131.8331    0.1152  273.9376  106.5913     7446.8864     7434.3176     7459.4553  40.834214  79.076571  -0.001445   0.000873
1 62239U 24232C   25136.22750975  .00000189  00000-0  27322-3 0  9996 | 2 62239  88.9974  62.5537 0016893  82.8377 277.4694 13.50954781 70806 | 2025/05/16-05:27:36  253.2292    0.1151  277.2774  106.5913     7446.8848     7434.3047     7459.4648  41.020421  78.980139  -0.001390   0.000959
1 62239U 24232C   25137.56069260  .00000208  00000-0  30266-3 0  9997 | 2 62239  88.9974  62.4187 0016915  79.5039 280.8017 13.50955358 70986 | 2025/05/17-13:27:23   14.6256    0.1151  280.6112  106.5912     7446.8826     7434.2862     7459.4790  41.206399  78.883267  -0.001332   0.001043
1 62239U 24232C   25138.59761215  .00000209  00000-0  30470-3 0  9998 | 2 62239  88.9975  62.3137 0016925  76.9015 283.4024 13.50955736 71121 | 2025/05/18-14:20:33   29.0454    0.1151  283.2136  106.5912     7446.8812     7434.2774     7459.4851  41.350937  78.807709  -0.001282   0.001106
1 62239U 24232C   25139.85672826  .00000166  00000-0  23836-3 0  9997 | 2 62239  88.9975  62.1862 0016912  73.7104 286.5906 13.50956015 71296 | 2025/05/19-20:33:41  123.6986    0.1152  286.4048  106.5912     7446.8802     7434.2861     7459.4744  41.526205  78.715496  -0.001214   0.001177
1 62239U 24232C   25141.18990940  .00000163  00000-0  23424-3 0  9996 | 2 62239  88.9976  62.0513 0016892  70.3482 289.9491 13.50956438 71473 | 2025/05/21-04:33:28  245.0965    0.1152  289.7670  106.5911     7446.8787     7434.2994     7459.4579  41.711469  78.617595  -0.001139   0.001247
1 62239U 24232C   25142.52309003  .00000144  00000-0  20422-3 0  9993 | 2 62239  88.9977  61.9164 0016876  66.9809 293.3120 13.50956825 71658 | 2025/05/22-12:33:14    6.4948    0.1152  293.1343  106.5911     7446.8772     7434.3099     7459.4446  41.896501  78.519258  -0.001060   0.001313
1 62239U 24232C   25143.56000797  .00000147  00000-0  20857-3 0  9991 | 2 62239  88.9977  61.8114 0016851  64.3672 295.9218 13.50957129 71794 | 2025/05/23-13:26:24   20.9162    0.1152  295.7480  106.5911     7446.8761     7434.3274     7459.4249  42.040325  78.442346  -0.000995   0.001360
1 62239U 24232C   25144.59692561  .00000142  00000-0  20137-3 0  9997 | 2 62239  88.9977  61.7064 0016816  61.7570 298.5276 13.50957416 71934 | 2025/05/24-14:19:34   35.3380    0.1151  298.3581  106.5911     7446.8751     7434.3524     7459.3977  42.184007  78.365172  -0.000927   0.001403
1 62239U 24232C   25145.78197409  .00000140  00000-0  19736-3 0  9991 | 2 62239  88.9977  61.5863 0016777  58.8087 301.4706 13.50957722 72095 | 2025/05/25-18:46:02  103.2489    0.1151  301.3064  106.5910     7446.8739     7434.3803     7459.3676  42.348179  78.276576  -0.000849   0.001447
1 62239U 24232C   25147.85582276  .00000131  00000-0  18345-3 0  9996 | 2 62239  88.9977  61.3762 0016692  53.5776 306.6912 13.50940891 72370 | 2025/05/27-20:32:23  132.0991    0.1152  306.5376  106.5924     7446.9358     7434.5054     7459.3662  42.634928  78.120762  -0.000704   0.001513
1 62239U 24232C   25148.89275263  .00000176  00000-0  25359-3 0  9998 | 2 62239  88.9977  61.2713 0016650  51.0090 309.2541 13.50941236 72518 | 2025/05/28-21:25:33  146.5265    0.1152  309.1062  106.5923     7446.9345     7434.5354     7459.3337  42.777884  78.042573  -0.000631   0.001541
1 62239U 24232C   25150.22594762  .00000185  00000-0  26713-3 0  9991 | 2 62239  88.9977  61.1364 0016581  47.6216 312.6336 13.50941700 72698 | 2025/05/30-05:25:21  267.9336    0.1152  312.4936  106.5923     7446.9328     7434.5851     7459.2806  42.961513  77.941639  -0.000533   0.001570
1 62239U 24232C   25151.55914196  .00000178  00000-0  25652-3 0  9998 | 2 62239  88.9976  61.0014 0016502  44.1010 316.1454 13.50942098 72876 | 2025/05/31-13:25:09   29.3414    0.1152  316.0142  106.5923     7446.9314     7434.6424     7459.2203  43.144991  77.840109  -0.000430   0.001593
1 62239U 24232C   25152.81826921  .00000199  00000-0  28972-3 0  9997 | 2 62239  88.9976  60.8739 0016414  40.8749 319.3629 13.50942732 73045 | 2025/06/01-19:38:18  124.0044    0.1151  319.2402  106.5922     7446.9290     7434.7056     7459.1524  43.318101  77.743906  -0.000334   0.001607
1 62239U 24232C   25153.85519725  .00000182  00000-0  26260-3 0  9993 | 2 62239  88.9976  60.7690 0016341  38.2688 321.9619 13.50943079 73180 | 2025/06/02-20:31:29  138.4325    0.1151  321.8463  106.5922     7446.9278     7434.7587     7459.0968  43.460366  77.664467  -0.000257   0.001614
1 62239U 24232C   25154.89212493  .00000156  00000-0  22329-3 0  9993 | 2 62239  88.9976  60.6640 0016263  35.5312 324.6918 13.50943377 73320 | 2025/06/03-21:24:39  152.8612    0.1151  324.5839  106.5922     7446.9267     7434.8157     7459.0376  43.602620  77.584691  -0.000176   0.001617
1 62239U 24232C   25156.15125112  .00000148  00000-0  21037-3 0  9991 | 2 62239  88.9976  60.5365 0016162  32.2080 328.0055 13.50943724 73491 | 2025/06/05-03:37:48  247.5247    0.1152  327.9072  106.5922     7446.9254     7434.8897     7458.9611  43.775161  77.487471  -0.000077   0.001614
1 62239U 24232C   25157.55850929  .00000146  00000-0  20818-3 0  9991 | 2 62239  88.9976  60.3940 0016048  28.5258 331.6768 13.50944134 73684 | 2025/06/06-13:24:15   35.6781    0.1152  331.5894  106.5921     7446.9239     7434.9731     7458.8747  43.967744  77.378358   0.000030   0.001605
1 62239U 24232C   25158.96576702  .00000140  00000-0  19774-3 0  9994 | 2 62239  88.9976  60.2515 0015920  24.8119 335.3794 13.50944513 73876 | 2025/06/07-23:10:42  183.8317    0.1152  335.3033  106.5921     7446.9225     7435.0670     7458.7780  44.160055  77.268767   0.000137   0.001586
1 62239U 24232C   25160.96555363  .00000151  00000-0  21540-3 0  9993 | 2 62239  88.9974  60.0489 0015726  19.5016 340.6733 13.50945079 74144 | 2025/06/09-23:10:23  185.9450    0.1151  340.6135  106.5920     7446.9204     7435.2094     7458.6314  44.432904  77.111959   0.000285   0.001547
1 62239U 24232C   25162.52094264  .00000155  00000-0  22191-3 0  9992 | 2 62239  88.9973  59.8913 0015582  15.3048 344.8571 13.50945486 74351 | 2025/06/11-12:30:09   27.5887    0.1152  344.8104  106.5920     7446.9189     7435.3151     7458.5227  44.644792  76.989362   0.000398   0.001506
1 62239U 24232C   25163.85413260  .00000168  00000-0  24105-3 0  9991 | 2 62239  88.9971  59.7563 0015444  11.7070 348.4437 13.50945994 74536 | 2025/06/12-20:29:57  148.9974    0.1152  348.4082  106.5920     7446.9170     7435.4160     7458.4181  44.825969  76.883784   0.000491   0.001464
1 62239U 24232C   25164.89105780  .00000171  00000-0  24687-3 0  9990 | 2 62239  88.9970  59.6512 0015337   8.8683 351.2736 13.50946376 74670 | 2025/06/13-21:23:07  163.4264    0.1152  351.2469  106.5919     7446.9156     7435.4943     7458.3370  44.966875  76.801342   0.000562   0.001427
1 62239U 24232C   25165.92798282  .00000146  00000-0  20696-3 0  9998 | 2 62239  88.9970  59.5461 0015227   5.9969 354.1361 13.50946572 74815 | 2025/06/14-22:16:17  177.8554    0.1151  354.1182  106.5919     7446.9149     7435.5755     7458.2543  45.107679  76.718729   0.000630   0.001386
1 62239U 24232C   25167.55743598  .00000127  00000-0  17815-3 0  9997 | 2 62239  88.9968  59.3810 0015049   1.4529 358.6663 13.50946962 75035 | 2025/06/16-13:22:42   46.2435    0.1152  358.6623  106.5919     7446.9135     7435.7066     7458.1203  45.328457  76.588259   0.000733   0.001314
1 62239U 24232C   25168.96469062  .00000108  00000-0  14854-3 0  9993 | 2 62239  88.9968  59.2383 0014888 357.4983   2.6091 13.50947254 75224 | 2025/06/17-23:09:09  194.3967    0.1152    2.6169  106.5919     7446.9124     7435.8255     7457.9994  45.519066  76.475127   0.000817   0.001245
1 62239U 24232C   25170.52007710  .00000098  00000-0  13363-3 0  9998 | 2 62239  88.9967  59.0807 0014709 353.0940   7.0006 13.50947568 75435 | 2025/06/19-12:28:54   36.0393    0.1152    7.0212  106.5918     7446.9113     7435.9576     7457.8649  45.729198  76.349546   0.000902   0.001162
1 62239U 24232C   25171.55700133  .00000098  00000-0  13285-3 0  9994 | 2 62239  88.9966  58.9755 0014590 350.1310   9.9553 13.50947743 75579 | 2025/06/20-13:22:04   50.4676    0.1153    9.9843  106.5918     7446.9106     7436.0456     7457.7757  45.869253  76.265368   0.000955   0.001103
1 62239U 24232C   25172.59392544  .00000096  00000-0  12989-3 0  9990 | 2 62239  88.9965  58.8703 0014480 347.1012  12.9767 13.50947906 75711 | 2025/06/21-14:15:15   64.8959    0.1152   13.0140  106.5918     7446.9100     7436.1269     7457.6931  46.009154  76.180934   0.001006   0.001041
1 62239U 24232C   25173.63084953  .00000100  00000-0  13716-3 0  9993 | 2 62239  88.9964  58.7652 0014363 344.0704  15.9993 13.50948076 75854 | 2025/06/22-15:08:25   79.3239    0.1151   16.0447  106.5918     7446.9094     7436.2134     7457.6054  46.148766  76.096324   0.001053   0.000977
1 62239U 24232C   25174.88997142  .00000119  00000-0  16580-3 0  9996 | 2 62239  88.9963  58.6374 0014219 340.3506  19.7096 13.50948339 76020 | 2025/06/23-21:21:33  173.9862    0.1152   19.7646  106.5918     7446.9084     7436.3197     7457.4972  46.318335  75.993113   0.001105   0.000895
1 62239U 24232C   25176.59348906  .00000116  00000-0  16206-3 0  9996 | 2 62239  88.9961  58.4646 0014035 335.2735  24.7742 13.50948650 76256 | 2025/06/25-14:14:37   69.1169    0.1152   24.8417  106.5918     7446.9073     7436.4556     7457.3590  46.547209  75.852905   0.001167   0.000780
1 62239U 24232C   25177.63041265  .00000111  00000-0  15327-3 0  9998 | 2 62239  88.9960  58.3594 0013925 332.1414  27.8990 13.50948842 76390 | 2025/06/26-15:07:47   83.5439    0.1152   27.9738  106.5917     7446.9066     7436.5368     7457.2764  46.686350  75.767227   0.001200   0.000707
1 62239U 24232C   25178.88953398  .00000094  00000-0  12678-3 0  9991 | 2 62239  88.9959  58.2316 0013791 328.3074  31.7246 13.50949038 76564 | 2025/06/27-21:20:55  178.2049    0.1152   31.8078  106.5917     7446.9059     7436.6358     7457.1759  46.855183  75.662818   0.001234   0.000616
1 62239U 24232C   25179.92645734  .00000094  00000-0  12697-3 0  9990 | 2 62239  88.9958  58.1264 0013682 325.1080  34.9173 13.50949222 76700 | 2025/06/28-22:14:05  192.6312    0.1152   35.0072  106.5917     7446.9052     7436.7163     7457.0940  46.993974  75.576576   0.001257   0.000540
1 62239U 24232C   25181.55590815  .00000081  00000-0  10659-3 0  9993 | 2 62239  88.9956  57.9610 0013518 320.0160  39.9994 13.50949502 76922 | 2025/06/30-13:20:30   61.0149    0.1151   40.0991  106.5917     7446.9042     7436.8374     7456.9709  47.211844  75.440431   0.001286   0.000417
1 62239U 24232C   25182.59283136  .00000081  00000-0  10779-3 0  9996 | 2 62239  88.9955  57.8558 0013417 316.7583  43.2514 13.50949696 77066 | 2025/07/01-14:13:40   75.4402    0.1152   43.3569  106.5917     7446.9034     7436.9119     7456.8950  47.350227  75.353534   0.001298   0.000339
1 62239U 24232C   25183.62975456  .00000066  00000-0  83472-4 0  9998 | 2 62239  88.9955  57.7505 0013321 313.4698  46.5344 13.50949802 77204 | 2025/07/02-15:06:50   89.8653    0.1151   46.6453  106.5917     7446.9031     7436.9830     7456.8231  47.488634  75.266385   0.001307   0.000259
1 62239U 24232C   25184.96294149  .00000080  00000-0  10551-3 0  9992 | 2 62239  88.9954  57.6152 0013210 309.2036  50.7941 13.50950008 77385 | 2025/07/03-23:06:38  211.2685    0.1151   50.9115  106.5917     7446.9023     7437.0649     7456.7397  47.666184  75.153949   0.001312   0.000157
1 62239U 24232C   25186.51832623  .00000084  00000-0  11232-3 0  9991 | 2 62239  88.9953  57.4572 0013085 304.1792  55.8118 13.50950236 77599 | 2025/07/05-12:26:23   52.9048    0.1151   55.9359  106.5916     7446.9015     7437.1572     7456.6457  47.873195  75.022134   0.001308   0.000037
1 62239U 24232C   25187.55524930  .00000092  00000-0  12421-3 0  9995 | 2 62239  88.9952  57.3519 0013001 300.7796  59.2075 13.50950422 77735 | 2025/07/06-13:19:33   67.3283    0.1152   59.3356  106.5916     7446.9008     7437.2191     7456.5825  48.010938  74.933941   0.001299  -0.000042
1 62239U 24232C   25188.59217239  .00000096  00000-0  12966-3 0  9999 | 2 62239  88.9950  57.2466 0012934 297.3812  62.6022 13.50950562 77877 | 2025/07/07-14:12:43   81.7517    0.1151   62.7339  106.5916     7446.9003     7437.2684     7456.5321  48.148465  74.845410   0.001288  -0.000121
1 62239U 24232C   25189.85129314  .00000097  00000-0  13263-3 0  9997 | 2 62239  88.9949  57.1187 0012852 293.2204  66.7594 13.50950768 78040 | 2025/07/08-20:25:51  176.4077    0.1152   66.8948  106.5916     7446.8995     7437.3287     7456.4703  48.315366  74.737659   0.001267  -0.000216
1 62239U 24232C   25190.96228201  .00000101  00000-0  13762-3 0  9996 | 2 62239  88.9947  57.0058 0012798 289.5523  70.4246 13.50950948 78197 | 2025/07/09-23:05:41  217.5745    0.1152   70.5629  106.5916     7446.8988     7437.3683     7456.4294  48.462432  74.642142   0.001245  -0.000298
