# SPACE DATA - HISTORICAL TLEs
# ----------------------------
# NORAD_ID    : 60396
# OBJECT_NAME : QIANFAN-18
# --------------------------------------------------------------------+-----------------------------------------------------------------------+----------------------------------------------------------------------------------------------------------------------------------------
#                  LINE 1                                             |                 LINE 2                                                |      DERIVED PARAMETERS
# --------------------------------------------------------------------+-----------------------------------------------------------------------+----------------------------------------------------------------------------------------------------------------------------------------
# NORAD  COSPAR     TLE_EPOCH      MEANMOT1 MEANMOT2   BSTAR  #  REV  |   NORAD    INC     RAAN     ECC    ARGPER  MEANANOM   MEANMOT     REV |  CAL_DATE              LONG     ARGLAT     PERIOD        SMA         PERIGEE        APOGEE      INC_X      INC_Y      ECC_X      ECC_Y
# ------ ------   -------------- ----------  -------  ------- -- ----     -----  ------- -------- ------- -------- -------- -----------  ----   ------------------- ---------  --------  --------  ------------  ------------   ----------- ---------- ----------  ---------  ---------   
1 62242U 24232F   24351.60802000  .00001240  00000-0  52050-3 0  9992 | 2 62242  88.9938  78.8325 0016098 176.7451 183.3850 14.25298470 49958 | 2024/12/16-14:35:32  225.6534    0.1192  183.3741  101.0315     7185.6263     7174.0589     7197.1937  17.236131  87.308718  -0.000401  -0.001559
1 62242U 24232F   24352.66110467  .00001263  00000-0  53018-3 0  9998 | 2 62242  88.9938  78.7113 0016231 173.4244 186.7165 14.25301040 50108 | 2024/12/17-15:51:59  245.9123    0.1192  186.6948  101.0313     7185.6177     7173.9547     7197.2807  17.420780  87.272062  -0.000498  -0.001545
1 62242U 24232F   24353.85459874  .00001255  00000-0  52657-3 0  9997 | 2 62242  88.9936  78.5739 0016382 169.5852 190.5683 14.25303777 50271 | 2024/12/18-20:30:37  316.8713    0.1191  190.5339  101.0311     7185.6085     7173.8370     7197.3800  17.629976  87.229839  -0.000609  -0.001521
1 62242U 24232F   24354.90767964  .00001108  00000-0  46400-3 0  9992 | 2 62242  88.9935  78.4526 0016509 166.3246 193.8398 14.25305489 50424 | 2024/12/19-21:47:03  337.1288    0.1192  193.7946  101.0310     7185.6027     7173.7400     7197.4654  17.814589  87.192221  -0.000704  -0.001493
1 62242U 24232F   24356.52239977  .00001122  00000-0  47024-3 0  9999 | 2 62242  88.9935  78.2666 0016686 161.3827 198.7980 14.25309503 50650 | 2024/12/21-12:32:15  200.1893    0.1192  198.7365  101.0307     7185.5892     7173.5994     7197.5791  18.097548  87.133930  -0.000843  -0.001440
1 62242U 24232F   24357.57547568  .00001147  00000-0  48044-3 0  9993 | 2 62242  88.9935  78.1453 0016808 158.1661 202.0252 14.25312216 50802 | 2024/12/22-13:48:41  220.4453    0.1192  201.9531  101.0305     7185.5801     7173.5026     7197.6576  18.281977  87.095421  -0.000932  -0.001399
1 62242U 24232F   24359.47100682  .00001341  00000-0  56289-3 0  9992 | 2 62242  88.9935  77.9271 0016998 152.3604 207.8497 14.25318099 51079 | 2024/12/24-11:18:14  184.9042    0.1193  207.7589  101.0301     7185.5604     7173.3463     7197.7744  18.613530  87.025166  -0.001086  -0.001308
1 62242U 24232F   24360.52407673  .00001436  00000-0  60300-3 0  9994 | 2 62242  88.9934  77.8059 0017096 149.1985 211.0215 14.25321365 51229 | 2024/12/25-12:34:40  205.1586    0.1192  210.9207  101.0298     7185.5494     7173.2650     7197.8338  18.797555  86.985500  -0.001166  -0.001250
1 62242U 24232F   24361.71755314  .00001477  00000-0  62043-3 0  9995 | 2 62242  88.9933  77.6684 0017188 145.6464 214.5844 14.25324802 51398 | 2024/12/26-17:13:16  276.1132    0.1192  214.4728  101.0296     7185.5378     7173.1873     7197.8883  19.006229  86.940041  -0.001251  -0.001179
1 62242U 24232F   24362.77124319  .00001265  00000-0  53493-3 0  9991 | 2 62242  88.9932  77.5471 0016987 143.3005 216.9354 14.24912914 51547 | 2024/12/27-18:30:35  296.5963    0.1191  216.8186  101.0588     7186.9225     7174.7140     7199.1309  19.190225  86.899511  -0.001285  -0.001111
1 62242U 24232F   24363.82461157  .00001382  00000-0  58497-3 0  9991 | 2 62242  88.9931  77.4259 0017067 140.1739 220.0710 14.24916182 51697 | 2024/12/28-19:47:26  316.9594    0.1192  219.9453  101.0586     7186.9115     7174.6456     7199.1774  19.373982  86.858625  -0.001352  -0.001041
1 62242U 24232F   24364.87797746  .00001462  00000-0  61884-3 0  9996 | 2 62242  88.9930  77.3046 0017153 137.0677 223.1859 14.24919593 51845 | 2024/12/29-21:04:17  337.3220    0.1193  223.0516  101.0583     7186.9000     7174.5723     7199.2277  19.557803  86.817316  -0.001416  -0.000968
1 62242U 24232F   24365.93134063  .00001507  00000-0  63827-3 0  9990 | 2 62242  88.9928  77.1833 0017218 133.9588 226.3029 14.24923125 51998 | 2024/12/30-22:21:07  357.6842    0.1193  226.1605  101.0581     7186.8881     7174.5137     7199.2625  19.741514  86.775521  -0.001474  -0.000890
1 62242U 24232F   25001.47626817  .00001716  00000-0  72718-3 0  9991 | 2 62242  88.9926  77.0053 0017318 129.4422 230.8306 14.24929165 52211 | 2025/01/01-11:25:49  195.5477    0.1192  230.6770  101.0577     7186.8678     7174.4216     7199.3140  20.010958  86.713577  -0.001551  -0.000771
1 62242U 24232F   25002.88074103  .00001868  00000-0  79215-3 0  9999 | 2 62242  88.9923  76.8434 0017455 125.4344 234.8482 14.24935524 52416 | 2025/01/02-21:08:16  342.6944    0.1193  234.6849  101.0572     7186.8464     7174.3018     7199.3911  20.255835  86.656394  -0.001615  -0.000662
1 62242U 24232F   25003.93409189  .00001321  00000-0  55826-3 0  9998 | 2 62242  88.9921  76.7221 0017508 122.3651 237.9240 14.24938250 52564 | 2025/01/03-22:25:05    3.0537    0.1193  237.7542  101.0570     7186.8373     7174.2546     7199.4200  20.439203  86.613122  -0.001655  -0.000573
1 62242U 24232F   25005.12793592  .00001438  00000-0  61747-3 0  9993 | 2 62242  88.9923  76.5851 0017456 119.1570 241.1372 14.24166327 52739 | 2025/01/05-03:04:13   74.1462    0.1192  240.9622  101.1118     7189.4340     7176.8841     7201.9838  20.646291  86.564197  -0.001680  -0.000474
1 62242U 24232F   25007.16831446  .00001008  00000-0  46178-3 0  9994 | 2 62242  88.9908  76.3499 0016224 109.9850 250.3089 14.20592564 53020 | 2025/01/07-04:02:22   90.9291    0.1190  250.1340  101.3662     7201.4865     7189.8028     7213.1702  21.001109  86.477256  -0.001612  -0.000179
1 62242U 24232F   25008.50722482  .00000716  00000-0  32954-3 0  9994 | 2 62242  88.9919  76.1971 0017950 108.2026 252.1120 14.19992180 53212 | 2025/01/08-12:10:24  214.3886    0.1190  251.9164  101.4090     7203.5162     7190.5859     7216.4466  21.231920  86.422010  -0.001790  -0.000138
1 62242U 24232F   25009.84611044  .00000609  00000-0  27920-3 0  9991 | 2 62242  88.9918  76.0440 0017977 104.3908 255.9278 14.19993689 53407 | 2025/01/09-20:18:23  337.8562    0.1189  255.7281  101.4089     7203.5111     7190.5614     7216.4609  21.462748  86.364871  -0.001798  -0.000014
1 62242U 24232F   25011.60779909  .00000562  00000-0  25727-3 0  9994 | 2 62242  88.9916  75.8424 0017986  99.3943 260.9281 14.19996047 53654 | 2025/01/11-14:35:13  253.9983    0.1189  260.7246  101.4087     7203.5032     7190.5469     7216.4594  21.766447  86.288624  -0.001792   0.000149
1 62242U 24232F   25012.87621331  .00000530  00000-0  24240-3 0  9993 | 2 62242  88.9914  75.6973 0017982  95.7593 264.5647 14.19997501 53838 | 2025/01/12-21:01:44  352.0211    0.1189  264.3596  101.4086     7203.4982     7190.5449     7216.4516  21.984852  86.233031  -0.001778   0.000267
1 62242U 24232F   25013.93322410  .00000524  00000-0  23925-3 0  9999 | 2 62242  88.9912  75.5763 0017973  92.7306 267.5942 14.19998668 53983 | 2025/01/13-22:23:50   13.7070    0.1190  267.3884  101.4085     7203.4943     7190.5475     7216.4411  22.166864  86.186216  -0.001760   0.000364
1 62242U 24232F   25015.55397201  .00000513  00000-0  23418-3 0  9994 | 2 62242  88.9910  75.3908 0017946  88.1073 272.2172 14.20000498 54212 | 2025/01/15-13:17:43  238.9596    0.1190  272.0117  101.4084     7203.4881     7190.5607     7216.4155  22.445732  86.113804  -0.001721   0.000510
1 62242U 24232F   25016.89284887  .00000554  00000-0  25336-3 0  9993 | 2 62242  88.9908  75.2375 0017921  84.3003 276.0230 14.20002247 54402 | 2025/01/16-21:25:42    2.4294    0.1190  275.8187  101.4083     7203.4822     7190.5728     7216.3916  22.676005  86.053247  -0.001679   0.000626
1 62242U 24232F   25018.44312506  .00000583  00000-0  26698-3 0  9990 | 2 62242  88.9907  75.0600 0017858  79.8558 280.4645 14.20004248 54629 | 2025/01/18-10:38:06  202.2374    0.1190  280.2632  101.4081     7203.4754     7190.6115     7216.3394  22.942460  85.982488  -0.001617   0.000757
1 62242U 24232F   25019.57059730  .00000625  00000-0  28662-3 0  9992 | 2 62242  88.9906  74.9309 0017806  76.5784 283.7389 14.20005796 54787 | 2025/01/19-13:41:39  249.3708    0.1190  283.5406  101.4080     7203.4702     7190.6437     7216.2967  23.136113  85.930479  -0.001565   0.000849
1 62242U 24232F   25020.90946873  .00000690  00000-0  31738-3 0  9994 | 2 62242  88.9905  74.7775 0017749  72.6744 287.6386 14.20007823 54974 | 2025/01/20-21:49:38   12.8418    0.1190  287.4446  101.4079     7203.4633     7190.6779     7216.2488  23.366068  85.868131  -0.001496   0.000955
1 62242U 24232F   25022.24833842  .00000672  00000-0  30876-3 0  9996 | 2 62242  88.9903  74.6241 0017681  68.8428 291.4649 14.20009442 55166 | 2025/01/22-05:57:36  136.3133    0.1190  291.2762  101.4078     7203.4579     7190.7214     7216.1943  23.595829  85.805072  -0.001421   0.001053
1 62242U 24232F   25023.51673964  .00000700  00000-0  32185-3 0  9991 | 2 62242  88.9902  74.4787 0017602  65.1976 295.1043 14.20011235 55341 | 2025/01/23-12:24:06  234.3391    0.1191  294.9215  101.4076     7203.4518     7190.7723     7216.1313  23.813474  85.744820  -0.001342   0.001139
1 62242U 24232F   25024.57373928  .00000711  00000-0  32730-3 0  9993 | 2 62242  88.9900  74.3576 0017527  62.1252 298.1710 14.20012663 55490 | 2025/01/24-13:46:11  256.0276    0.1190  297.9938  101.4075     7203.4470     7190.8215     7216.0724  23.994597  85.694104  -0.001271   0.001207
1 62242U 24232F   25025.77167105  .00000642  00000-0  29482-3 0  9997 | 2 62242  88.9898  74.2203 0017439  58.6097 301.6796 14.20013825 55665 | 2025/01/25-18:31:12  328.6080    0.1190  301.5093  101.4075     7203.4430     7190.8810     7216.0051  24.199825  85.636166  -0.001186   0.001279
1 62242U 24232F   25026.82866875  .00000567  00000-0  25933-3 0  9997 | 2 62242  88.9896  74.0991 0017356  55.5091 304.7736 14.20014655 55810 | 2025/01/26-19:53:16  350.2968    0.1191  304.6100  101.4074     7203.4402     7190.9379     7215.9425  24.380866  85.584591  -0.001107   0.001337
1 62242U 24232F   25027.88566541  .00000549  00000-0  25109-3 0  9996 | 2 62242  88.9895  73.9780 0017271  52.3780 307.8974 14.20015771 55963 | 2025/01/27-21:15:21   11.9858    0.1190  307.7410  101.4073     7203.4365     7190.9954     7215.8775  24.561675  85.532773  -0.001024   0.001391
1 62242U 24232F   25029.15405996  .00000560  00000-0  25632-3 0  9998 | 2 62242  88.9893  73.8325 0017156  48.6221 311.6441 14.20017340 56142 | 2025/01/29-03:41:50  110.0127    0.1191  311.4970  101.4072     7203.4311     7191.0729     7215.7894  24.778746  85.469932  -0.000921   0.001448
1 62242U 24232F   25030.56338597  .00000516  00000-0  23569-3 0  9995 | 2 62242  88.9892  73.6709 0017013  44.4930 315.7623 14.20018638 56348 | 2025/01/30-13:31:16  258.9317    0.1191  315.6261  101.4071     7203.4268     7191.1716     7215.6820  25.019683  85.399609  -0.000803   0.001500
1 62242U 24232F   25031.90224419  .00000480  00000-0  21863-3 0  9996 | 2 62242  88.9890  73.5173 0016880  40.4769 319.7674 14.20019835 56538 | 2025/01/31-21:39:13   22.4049    0.1192  319.6423  101.4070     7203.4227     7191.2633     7215.5821  25.248477  85.332037  -0.000686   0.001542
1 62242U 24232F   25033.17063476  .00000516  00000-0  23562-3 0  9999 | 2 62242  88.9890  73.3718 0016752  36.6087 323.6244 14.20021409 56716 | 2025/02/02-04:05:42  120.4324    0.1191  323.5104  101.4069     7203.4174     7191.3502     7215.4846  25.465092  85.267644  -0.000572   0.001574
1 62242U 24232F   25034.50949050  .00000479  00000-0  21807-3 0  9996 | 2 62242  88.9889  73.2182 0016610  32.5474 327.6736 14.20022501 56901 | 2025/02/03-12:13:39  243.9058    0.1190  327.5716  101.4068     7203.4137     7191.4488     7215.3786  25.693560  85.198975  -0.000451   0.001599
1 62242U 24232F   25035.56648095  .00000454  00000-0  20672-3 0  9990 | 2 62242  88.9888  73.0969 0016501  29.2853 330.9258 14.20023382 57055 | 2025/02/04-13:35:43  265.5954    0.1190  330.8337  101.4068     7203.4107     7191.5244     7215.2971  25.873846  85.144293  -0.000354   0.001612
1 62242U 24232F   25036.83486891  .00000379  00000-0  17140-3 0  9997 | 2 62242  88.9886  72.9513 0016341  25.4286 334.7704 14.20024154 57232 | 2025/02/05-20:02:12    3.6229    0.1190  334.6904  101.4067     7203.4081     7191.6370     7215.1792  26.090072  85.078076  -0.000238   0.001617
1 62242U 24232F   25038.38512016  .00000225  00000-0  98901-4 0  9993 | 2 62242  88.9885  72.7734 0016144  20.6177 339.5660 14.20024480 57451 | 2025/02/07-09:14:34  203.4346    0.1190  339.5013  101.4067     7203.4070     7191.7778     7215.0362  26.354079  84.996563  -0.000095   0.001612
1 62242U 24232F   25039.44246801  .00000792  00000-0  37226-3 0  9998 | 2 62242  88.9888  72.6553 0015281  16.8864 343.2831 14.19019401 57607 | 2025/02/08-10:37:09  225.2543    0.1190  343.2326  101.4785     7206.8080     7195.7953     7217.8207  26.529310  84.942347   0.000012   0.001528
1 62242U 24232F   25040.50083693  .00000735  00000-0  35390-3 0  9992 | 2 62242  88.9869  72.5304 0016658  14.8507 345.3168 14.17695554 57759 | 2025/02/09-12:01:12  247.4372    0.1190  345.2683  101.5733     7211.2938     7199.2812     7223.3064  26.713844  84.882501   0.000076   0.001664
1 62242U 24232F   25041.56003464  .00000751  00000-0  36793-3 0  9993 | 2 62242  88.9882  72.4097 0015804  11.6306 348.5244 14.16823891 57909 | 2025/02/10-13:26:26  269.9255    0.1189  348.4883  101.6358     7214.2512     7202.8498     7225.6526  26.892992  84.827276   0.000164   0.001572
1 62242U 24232F   25042.90291979  .00000623  00000-0  31620-3 0  9994 | 2 62242  88.9852  72.2528 0013029   6.2020 353.9326 14.14755255 58091 | 2025/02/11-21:40:12   34.8651    0.1188  353.9168  101.7844     7221.2819     7211.8733     7230.6905  27.124269  84.750456   0.000261   0.001277
1 62242U 24232F   25044.46057155  .00000567  00000-0  29934-3 0  9995 | 2 62242  88.9880  72.0801 0015763   2.2638 357.8616 14.12456445 58319 | 2025/02/13-11:03:13  237.3369    0.1186  357.8548  101.9500     7229.1150     7217.7197     7240.5102  27.380460  84.670978   0.000425   0.001518
1 62242U 24232F   25045.80749755  .00000531  00000-0  28953-3 0  9999 | 2 62242  88.9876  71.9273 0015641 358.2595   1.8533 14.10629996 58502 | 2025/02/14-19:22:47    3.7233    0.1186    1.8591  102.0820     7235.3537     7224.0369     7246.6705  27.606045  84.597277   0.000530   0.001472
1 62242U 24232F   25046.87231552  .00000589  00000-0  33285-3 0  9995 | 2 62242  88.9879  71.8062 0015565 354.5154   5.5857 14.08858802 58658 | 2025/02/15-20:56:08   28.2401    0.1185    5.6031  102.2104     7241.4165     7230.1453     7252.6878  27.784881  84.539025   0.000625   0.001425
1 62242U 24232F   25048.50714900  .00000600  00000-0  35488-3 0  9991 | 2 62242  88.9886  71.6214 0015666 352.3862   7.7080 14.06376594 58885 | 2025/02/17-12:10:17  258.5832    0.1183    7.7321  102.3908     7249.9346     7238.5768     7261.2923  28.057626  84.449633   0.000687   0.001408
1 62242U 24232F   25050.07374163  .00000534  00000-0  32829-3 0  9991 | 2 62242  88.9916  71.4425 0012699 346.9505  13.1346 14.04165397 59104 | 2025/02/19-01:46:11  104.2887    0.1182   13.1677  102.5520     7257.5438     7248.3274     7266.7601  28.322128  84.364459   0.000666   0.001082
1 62242U 24232F   25051.28637596  .00000538  00000-0  34451-3 0  9994 | 2 62242  88.9878  71.3121 0014771 344.5628  15.5099 14.01929658 59270 | 2025/02/20-06:52:22  182.1750    0.1180   15.5552  102.7156     7265.2577     7254.5262     7275.9893  28.512843  84.296182   0.000829   0.001223
1 62242U 24232F   25052.57236869  .00000495  00000-0  32805-3 0  9998 | 2 62242  88.9880  71.1685 0014474 340.9784  19.0852 13.99849124 59450 | 2025/02/21-13:44:12  286.5527    0.1179   19.1395  102.8682     7272.4546     7261.9285     7282.9808  28.724089  84.224645   0.000888   0.001143
1 62242U 24232F   25053.71670372  .00000504  00000-0  34521-3 0  9994 | 2 62242  88.9860  71.0392 0013258 336.9630  23.0951 13.98074328 59614 | 2025/02/22-17:12:03  339.7760    0.1178   23.1548  102.9988     7278.6081     7268.9581     7288.2580  28.913436  84.157717   0.000887   0.000985
1 62242U 24232F   25054.86270587  .00000509  00000-0  36061-3 0  9991 | 2 62242  88.9869  70.9153 0013943 333.9169  26.1304 13.96235211 59772 | 2025/02/23-20:42:17   33.6010    0.1178   26.2009  103.1345     7284.9982     7274.8408     7295.1557  29.095651  84.095847   0.000989   0.000983
1 62242U 24232F   25056.01028233  .00000566  00000-0  41875-3 0  9991 | 2 62242  88.9916  70.7829 0008475 300.7511  59.2829 13.93916878 59939 | 2025/02/25-00:14:48   88.0053    0.1175   59.3664  103.3060     7293.0735     7286.8926     7299.2544  29.291450  84.032826   0.000830   0.000169
1 62242U 24232F   25057.44731697  .00000538  00000-0  41871-3 0  9999 | 2 62242  88.9869  70.6314 0012938 327.5096  32.5280 13.90983471 60137 | 2025/02/26-10:44:08  246.9021    0.1174   32.6078  103.5239     7303.3233     7293.8743     7312.7724  29.511986  83.950647   0.001018   0.000799
1 62242U 24232F   25058.45484063  .00000527  00000-0  41751-3 0  9998 | 2 62242  88.9876  70.5209 0013365 321.9815  38.0413 13.89939231 60276 | 2025/02/27-10:54:58  250.7290    0.1173   38.1358  103.6017     7306.9808     7297.2150     7316.7466  29.674071  83.894234   0.001127   0.000718
1 62242U 24232F   25059.46349518  .00000491  00000-0  40322-3 0  9998 | 2 62242  88.9948  70.3975 0013347 326.5838  33.4490 13.87756315 60418 | 2025/02/28-11:07:25  254.9522    0.1172   33.5334  103.7646     7314.6413     7304.8784     7324.4041  29.857103  83.836912   0.001066   0.000803
1 62242U 24232F   25060.76171992  .00000424  00000-0  35208-3 0  9995 | 2 62242  88.9873  70.2696 0012967 312.0022  48.0044 13.86814261 60596 | 2025/03/01-18:16:52    3.7468    0.1172   48.1150  103.8351     7317.9534     7308.4643     7327.4426  30.041644  83.762994   0.001200   0.000491
1 62242U 24232F   25061.84496642  .00000354  00000-0  30292-3 0  9997 | 2 62242  88.9896  70.1571 0012675 301.0501  58.9424 13.84785328 60746 | 2025/03/02-20:16:45   34.9099    0.1170   59.0669  103.9872     7325.0997     7315.8151     7334.3842  30.206835  83.706009   0.001243   0.000246
1 62242U 24232F   25063.07449682  .00000320  00000-0  28259-3 0  9999 | 2 62242  88.9879  70.0196 0012693 304.4351  55.5618 13.82781753 60912 | 2025/03/04-01:47:16  118.8858    0.1170   55.6819  104.1379     7332.1738     7322.8670     7341.4805  30.407047  83.631680   0.001229   0.000317
1 62242U 24232F   25064.59514073  .00000311  00000-0  28534-3 0  9990 | 2 62242  88.9870  69.8553 0012611 298.2057  61.7837 13.80311213 61123 | 2025/03/05-14:17:00  307.9882    0.1168   61.9111  104.3243     7340.9201     7331.6625     7350.1777  30.646432  83.543296   0.001249   0.000177
1 62242U 24232F   25065.61067915  .00000295  00000-0  27974-3 0  9990 | 2 62242  88.9874  69.7483 0012766 296.7777  63.2083 13.78320464 61261 | 2025/03/06-14:39:22  314.6934    0.1167   63.3390  104.4750     7347.9869     7338.6064     7357.3673  30.802534  83.486294   0.001268   0.000145
1 62242U 24232F   25066.70011384  .00000311  00000-0  29943-3 0  9997 | 2 62242  88.9878  69.6299 0012500 291.3754  68.6078 13.77554408 61417 | 2025/03/07-16:48:09  348.0849    0.1166   68.7412  104.5331     7350.7108     7341.5224     7359.8991  30.975129  83.422838   0.001250   0.000022
1 62242U 24232F   25067.79064026  .00000315  00000-0  31343-3 0  9999 | 2 62242  88.9852  69.5094 0013078 279.2144  80.7541 13.75680153 61561 | 2025/03/08-18:58:31   21.8845    0.1165   80.9021  104.6755     7357.3857     7347.7638     7367.0077  31.149599  83.355074   0.001283  -0.000256
1 62242U 24232F   25069.39308650  .00000313  00000-0  32657-3 0  9998 | 2 62242  88.9882  69.3431 0012148 282.3271  77.6532 13.72794919 61782 | 2025/03/10-09:26:02  240.4991    0.1163   77.7892  104.8955     7367.6909     7358.7407     7376.6412  31.392462  83.267119   0.001202  -0.000176
1 62242U 24232F   25070.85240754  .00000284  00000-0  30962-3 0  9995 | 2 62242  88.9906  69.1887 0012175 275.8720  84.1054 13.70005954 61984 | 2025/03/11-20:27:28   47.4503    0.1162   84.2442  105.1090     7377.6866     7368.7043     7386.6690  31.617588  83.184464   0.001176  -0.000314
1 62242U 24232F   25072.90018285  .00000284  00000-0  32295-3 0  9996 | 2 62242  88.9886  68.9731 0012177 269.6770  90.2995 13.67388176 62264 | 2025/03/13-21:36:15   66.8843    0.1160   90.4390  105.3103     7387.0997     7378.1044     7396.0950  31.929663  83.063034   0.001134  -0.000443
1 62242U 24232F   25073.92476708  .00000112  00000-0  11966-3 0  9999 | 2 62242  88.9880  68.8662 0011805 259.0992 100.8840 13.66622303 62401 | 2025/03/14-22:11:39   76.8447    0.1160  101.0168  105.3693     7389.8593     7381.1356     7398.5831  32.084367  83.002756   0.001001  -0.000626
1 62242U 24232F   25075.09733250  .00000272  00000-0  32543-3 0  9998 | 2 62242  88.9889  68.7433 0012156 262.5515  97.4262 13.64184781 62562 | 2025/03/16-02:20:09  140.2524    0.1158   97.5643  105.5575     7398.6595     7389.6657     7407.6533  32.262661  82.934583   0.001066  -0.000584
1 62242U 24232F   25076.56558658  .00000279  00000-0  34401-3 0  9990 | 2 62242  88.9893  68.5902 0012179 256.0483 103.9320 13.62460995 62765 | 2025/03/17-13:34:26  310.4216    0.1157  104.0674  105.6911     7404.8987     7395.8803     7413.9171  32.484301  82.848450   0.000993  -0.000705
1 62242U 24232F   25077.74139147  .00000297  00000-0  37861-3 0  9992 | 2 62242  88.9882  68.4682 0012218 253.0991 106.8826 13.60557674 62922 | 2025/03/18-17:47:36   14.9908    0.1156  107.0165  105.8390     7411.8030     7402.7473     7420.8588  32.660233  82.778070   0.000957  -0.000759
1 62242U 24232F   25078.77180374  .00000305  00000-0  39970-3 0  9997 | 2 62242  88.9892  68.3614 0012065 248.1306 111.8567 13.58993689 63063 | 2025/03/19-18:31:23   27.0561    0.1155  111.9849  105.9608     7417.4885     7408.5393     7426.4377  32.814844  82.717977   0.000875  -0.000831
1 62242U 24232F   25080.24527031  .00000310  00000-0  41536-3 0  9994 | 2 62242  88.9899  68.2088 0012135 242.4359 117.5564 13.57544640 63267 | 2025/03/21-05:53:11  199.1040    0.1155  117.6796  106.0739     7422.7659     7413.7583     7431.7734  33.035296  82.630936   0.000790  -0.000921
1 62242U 24232F   25081.42575315  .00000327  00000-0  45650-3 0  9992 | 2 62242  88.9892  68.0846 0011646 235.8811 124.1238 13.55141347 63420 | 2025/03/22-10:13:05  265.3529    0.1153  124.2342  106.2620     7431.5393     7422.8845     7440.1940  33.214076  82.558482   0.000651  -0.000966
1 62242U 24232F   25082.53331973  .00000148  00000-0  19715-3 0  9999 | 2 62242  88.9899  67.9731 0012312 233.8290 126.1725 13.55125980 63572 | 2025/03/23-12:47:58  305.2835    0.1153  126.2863  106.2632     7431.5955     7422.4457     7440.7452  33.374938  82.494338   0.000649  -0.001046
1 62242U 24232F   25083.56711211  .00000320  00000-0  44763-3 0  9993 | 2 62242  88.9900  67.8670 0012677 229.6904 130.3142 13.55029170 63715 | 2025/03/24-13:36:38  318.5707    0.1153  130.4249  106.2708     7431.9494     7422.5279     7441.3709  33.527680  82.432486   0.000586  -0.001124
1 62242U 24232F   25084.60091850  .00000031  00000-0  27108-4 0  9993 | 2 62242  88.9902  67.7608 0012734 226.1588 133.8514 13.55028951 63853 | 2025/03/25-14:25:19  331.8606    0.1153  133.9565  106.2708     7431.9502     7422.4864     7441.4141  33.680490  82.370385   0.000516  -0.001164
1 62242U 24232F   25085.93010015  .00000277  00000-0  38409-3 0  9991 | 2 62242  88.9904  67.6245 0012827 221.8174 138.2001 13.55026466 64037 | 2025/03/26-22:19:20   91.8051    0.1154  138.2980  106.2710     7431.9593     7422.4263     7441.4923  33.876421  82.290215   0.000427  -0.001210
1 62242U 24232F   25087.40696921  .00000024  00000-0  17313-4 0  9993 | 2 62242  88.9907  67.4728 0012957 217.0560 142.9700 13.55026426 64230 | 2025/03/28-09:46:02  265.0768    0.1153  143.0593  106.2710     7431.9594     7422.3299     7441.5890  34.094293  82.200510   0.000325  -0.001254
1 62242U 24232F   25088.88383832  .00000040  00000-0  41101-4 0  9990 | 2 62242  88.9910  67.3212 0013068 212.3354 147.7000 13.55026568 64439 | 2025/03/29-21:12:43   78.3475    0.1153  147.7799  106.2710     7431.9589     7422.2468     7441.6710  34.311785  82.110288   0.000219  -0.001288
1 62242U 24232F   25090.13917699  .00000082  00000-0  10105-3 0  9990 | 2 62242  88.9912  67.1924 0013167 208.2866 151.7574 13.55026847 64601 | 2025/03/31-03:20:24  171.6270    0.1153  151.8287  106.2710     7431.9579     7422.1723     7441.7436  34.496359  82.033133   0.000126  -0.001311
1 62242U 24232F   25091.17298523  .00000103  00000-0  13263-3 0  9995 | 2 62242  88.9914  67.0863 0013251 204.9548 155.0967 13.55027093 64740 | 2025/04/01-04:09:05  184.9155    0.1153  155.1605  106.2709     7431.9570     7422.1089     7441.8051  34.648286  81.969296   0.000047  -0.001324
1 62242U 24232F   25092.42850197  .00000100  00000-0  12869-3 0  9993 | 2 62242  88.9916  66.9575 0013332 200.8619 159.1992 13.54782264 64913 | 2025/04/02-10:17:02  278.2582    0.1153  159.2534  106.2901     7432.8524     7422.9429     7442.7618  34.832542  81.891385  -0.000051  -0.001332
1 62242U 24232F   25093.68483603  .00000110  00000-0  14554-3 0  9990 | 2 62242  88.9915  66.8291 0013445 197.0127 163.0577 13.53584922 65084 | 2025/04/03-16:26:09   11.8959    0.1152  163.1025  106.3842     7437.2350     7427.2356     7447.2343  35.015934  81.813027  -0.000144  -0.001337
1 62242U 24232F   25094.79400120  .00000122  00000-0  16456-3 0  9992 | 2 62242  88.9918  66.7155 0013488 193.6495 166.4295 13.53131721 65238 | 2025/04/04-19:03:21   52.3936    0.1152  166.4657  106.4198     7438.8955     7428.8619     7448.9291  35.178194  81.743716  -0.000226  -0.001330
1 62242U 24232F   25095.90373670  .00000253  00000-0  36520-3 0  9994 | 2 62242  88.9920  66.6020 0013242 189.2497 170.8413 13.52269115 65387 | 2025/04/05-21:41:22   93.0937    0.1151  170.8654  106.4877     7442.0587     7432.2039     7451.9134  35.340134  81.674053  -0.000324  -0.001284
1 62242U 24232F   25097.90235579  .00000234  00000-0  34406-3 0  9991 | 2 62242  88.9920  66.3980 0013641 181.2562 178.8557 13.50934752 65658 | 2025/04/07-21:39:23   94.7496    0.1150  178.8588  106.5929     7446.9584     7436.8000     7457.1168  35.630708  81.547708  -0.000519  -0.001262
1 62242U 24232F   25099.23555650  .00000034  00000-0  34650-4 0  9994 | 2 62242  88.9925  66.2630 0013641 177.6878 182.4338 13.50942060 65832 | 2025/04/09-05:39:12  216.1412    0.1150  182.4272  106.5923     7446.9315     7436.7731     7457.0899  35.822952  81.463987  -0.000599  -0.001226
1 62242U 24232F   25100.56875450  .00000124  00000-0  17322-3 0  9992 | 2 62242  88.9927  66.1274 0013781 173.7599 186.3726 13.50942390 66010 | 2025/04/10-13:39:00  337.5313    0.1150  186.3551  106.5923     7446.9303     7436.6677     7457.1929  36.015731  81.379161  -0.000691  -0.001192
1 62242U 24232F   25101.90195211  .00000128  00000-0  17934-3 0  9994 | 2 62242  88.9930  65.9918 0013916 169.9362 190.2071 13.50942751 66198 | 2025/04/11-21:38:48   98.9213    0.1151  190.1789  106.5922     7446.9290     7436.5658     7457.2921  36.208349  81.293970  -0.000780  -0.001153
1 62242U 24232F   25103.23514948  .00000126  00000-0  17660-3 0  9998 | 2 62242  88.9933  65.8562 0014065 166.0661 194.0881 13.50943076 66373 | 2025/04/13-05:38:36  220.3111    0.1150  194.0489  106.5922     7446.9278     7436.4537     7457.4019  36.400766  81.208323  -0.000867  -0.001107
1 62242U 24232F   25104.49428007  .00000126  00000-0  17668-3 0  9995 | 2 62242  88.9935  65.7283 0014196 162.4764 197.6880 13.50943375 66542 | 2025/04/14-11:51:45  314.9569    0.1151  197.6387  106.5922     7446.9267     7436.3550     7457.4983  36.582037  81.127046  -0.000946  -0.001058
1 62242U 24232F   25105.53121099  .00000130  00000-0  18342-3 0  9997 | 2 62242  88.9937  65.6229 0014302 159.5503 200.6223 13.50943601 66683 | 2025/04/15-12:44:56  329.3712    0.1150  200.5647  106.5922     7446.9258     7436.2752     7457.5764  36.731297  81.059796  -0.001008  -0.001014
1 62242U 24232F   25106.56814162  .00000143  00000-0  20256-3 0  9992 | 2 62242  88.9938  65.5176 0014420 156.6028 203.5782 13.50943901 66826 | 2025/04/16-13:38:07  343.7852    0.1150  203.5122  106.5921     7446.9247     7436.1863     7457.6632  36.880250  80.992244  -0.001070  -0.000967
1 62242U 24232F   25107.90133784  .00000153  00000-0  21857-3 0  9994 | 2 62242  88.9939  65.3821 0014560 152.8893 207.3022 13.50944270 67005 | 2025/04/17-21:37:55  105.1749    0.1151  207.2258  106.5921     7446.9234     7436.0807     7457.7661  37.071729  80.904890  -0.001143  -0.000902
1 62242U 24232F   25109.16046719  .00000160  00000-0  22847-3 0  9993 | 2 62242  88.9941  65.2542 0014684 149.4275 210.7735 13.50944607 67171 | 2025/04/19-03:51:04  199.8209    0.1150  210.6875  106.5921     7446.9221     7435.9871     7457.8572  37.252322  80.822115  -0.001208  -0.000836
1 62242U 24232F   25110.19739693  .00000161  00000-0  23007-3 0  9998 | 2 62242  88.9942  65.1489 0014791 146.5681 213.6407 13.50944916 67316 | 2025/04/20-04:44:15  214.2352    0.1150  213.5469  106.5921     7446.9210     7435.9063     7457.9357  37.400839  80.753606  -0.001258  -0.000778
1 62242U 24232F   25111.23432631  .00000187  00000-0  27088-3 0  9997 | 2 62242  88.9944  65.0436 0014893 143.7158 216.5006 13.50945338 67451 | 2025/04/21-05:37:25  228.6495    0.1150  216.3992  106.5920     7446.9195     7435.8288     7458.0102  37.549271  80.684915  -0.001306  -0.000717
1 62242U 24232F   25112.49345437  .00000169  00000-0  24322-3 0  9991 | 2 62242  88.9946  64.9158 0015016 140.3324 219.8928 13.50945717 67627 | 2025/04/22-11:50:34  323.2957    0.1150  219.7826  106.5920     7446.9181     7435.7358     7458.1004  37.729233  80.601140  -0.001358  -0.000640
1 62242U 24232F   25113.75258195  .00000171  00000-0  24544-3 0  9994 | 2 62242  88.9948  64.7880 0015133 136.9627 223.2711 13.50946147 67791 | 2025/04/23-18:03:43   57.9419    0.1151  223.1524  106.5920     7446.9165     7435.6471     7458.1859  37.909007  80.516965  -0.001406  -0.000561
1 62242U 24232F   25114.86357650  .00000156  00000-0  22330-3 0  9997 | 2 62242  88.9949  64.6752 0015240 133.9810 226.2600 13.50946509 67948 | 2025/04/24-20:43:33   99.1005    0.1150  226.1340  106.5919     7446.9152     7435.5661     7458.2643  38.067493  80.442266  -0.001444  -0.000488
1 62242U 24232F   25115.90050448  .00000165  00000-0  23713-3 0  9994 | 2 62242  88.9951  64.5700 0015346 131.2242 229.0235 13.50946869 68080 | 2025/04/25-21:36:43  113.5152    0.1151  228.8909  106.5919     7446.9138     7435.4858     7458.3419  38.215213  80.372416  -0.001477  -0.000418
1 62242U 24232F   25117.15963090  .00000152  00000-0  21688-3 0  9994 | 2 62242  88.9953  64.4423 0015436 127.9361 232.3188 13.50947223 68255 | 2025/04/27-03:49:52  208.1622    0.1151  232.1790  106.5919     7446.9125     7435.4175     7458.4076  38.394337  80.287224  -0.001508  -0.000331
1 62242U 24232F   25118.19655823  .00000164  00000-0  23505-3 0  9994 | 2 62242  88.9954  64.3371 0015520 125.2044 235.0563 13.50947572 68399 | 2025/04/28-04:43:02  222.5775    0.1151  234.9107  106.5918     7446.9112     7435.3536     7458.4689  38.541730  80.216683  -0.001531  -0.000257
1 62242U 24232F   25121.82580135  .00000182  00000-0  26375-3 0  9999 | 2 62242  88.9958  63.9689 0015788 115.7875 244.4907 13.50948766 68888 | 2025/05/01-19:49:09   93.0329    0.1151  244.3276  106.5918     7446.9069     7435.1497     7458.6640  39.056603  79.967707  -0.001579   0.000007
1 62242U 24232F   25122.86272709  .00000200  00000-0  29162-3 0  9997 | 2 62242  88.9959  63.8638 0015853 113.1223 247.1601 13.50949195 69029 | 2025/05/02-20:42:19  107.4491    0.1151  246.9928  106.5917     7446.9053     7435.0997     7458.7109  39.203269  79.896019  -0.001583   0.000083
1 62242U 24232F   25123.89965249  .00000185  00000-0  26833-3 0  9993 | 2 62242  88.9961  63.7587 0015928 110.4658 249.8205 13.50949520 69165 | 2025/05/03-21:35:29  121.8655    0.1151  249.6493  106.5917     7446.9041     7435.0427     7458.7655  39.349848  79.824152  -0.001585   0.000160
1 62242U 24232F   25125.52910590  .00000161  00000-0  23102-3 0  9994 | 2 62242  88.9963  63.5935 0016021 106.3098 253.9816 13.50950025 69389 | 2025/05/05-12:41:54  350.2349    0.1150  253.8052  106.5917     7446.9022     7434.9716     7458.8329  39.579929  79.710543  -0.001577   0.000281
1 62242U 24232F   25126.86229440  .00000150  00000-0  21327-3 0  9994 | 2 62242  88.9964  63.4584 0016082 102.9146 257.3802 13.50950447 69563 | 2025/05/06-20:41:42  111.6285    0.1150  257.2004  106.5916     7446.9007     7434.9246     7458.8768  39.767816  79.617084  -0.001563   0.000379
1 62242U 24232F   25127.89921840  .00000142  00000-0  20078-3 0  9994 | 2 62242  88.9966  63.3533 0016128 100.2870 260.0101 13.50950756 69706 | 2025/05/07-21:34:52  126.0460    0.1152  259.8282  106.5916     7446.8995     7434.8892     7458.9099  39.913884  79.544181  -0.001548   0.000454
1 62242U 24232F   25128.93614208  .00000153  00000-0  21816-3 0  9990 | 2 62242  88.9967  63.2483 0016169  97.6725 262.6263 13.50951129 69840 | 2025/05/08-22:28:02  140.4638    0.1151  262.4426  106.5916     7446.8982     7434.8573     7458.9391  40.059634  79.470991  -0.001528   0.000529
1 62242U 24232F   25130.56559297  .00000154  00000-0  21972-3 0  9992 | 2 62242  88.9969  63.0832 0016223  93.5766 266.7241 13.50951621 70063 | 2025/05/10-13:34:27    8.8354    0.1151  266.5385  106.5915     7446.8964     7434.8153     7458.9775  40.288557  79.355406  -0.001490   0.000643
1 62242U 24232F   25131.60251589  .00000162  00000-0  23140-3 0  9999 | 2 62242  88.9970  62.9782 0016251  90.9774 269.3239 13.50951944 70208 | 2025/05/11-14:27:37   23.2541    0.1151  269.1377  106.5915     7446.8952     7434.7932     7458.9971  40.433961  79.281529  -0.001460   0.000714
1 62242U 24232F   25132.86163611  .00000163  00000-0  23301-3 0  9996 | 2 62242  88.9971  62.8507 0016282  87.8192 272.4824 13.50952338 70377 | 2025/05/12-20:40:45  117.9056    0.1152  272.2960  106.5915     7446.8937     7434.7687     7459.0188  40.610331  79.191444  -0.001419   0.000798
1 62242U 24232F   25133.89855834  .00000171  00000-0  24580-3 0  9994 | 2 62242  88.9971  62.7456 0016300  85.2279 275.0733 13.50952665 70515 | 2025/05/13-21:33:55  132.3252    0.1151  274.8872  106.5914     7446.8925     7434.7541     7459.0310  40.755526  79.116818  -0.001382   0.000864
1 62242U 24232F   25134.93548013  .00000172  00000-0  24773-3 0  9993 | 2 62242  88.9972  62.6406 0016308  82.6073 277.6931 13.50952999 70654 | 2025/05/14-22:27:05  146.7449    0.1152  277.5079  106.5914     7446.8913     7434.7469     7459.0357  40.900493  79.042085  -0.001340   0.000930
1 62242U 24232F   25136.49086219  .00000188  00000-0  27285-3 0  9999 | 2 62242  88.9972  62.4831 0016325  78.7441 281.5544 13.50953553 70862 | 2025/05/16-11:46:50  348.3749    0.1151  281.3710  106.5914     7446.8893     7434.7322     7459.0463  41.117617  78.929356  -0.001273   0.001022
1 62242U 24232F   25137.52778302  .00000209  00000-0  30451-3 0  9998 | 2 62242  88.9972  62.3781 0016333  76.1653 284.1314 13.50954042 71006 | 2025/05/17-12:40:00    2.7952    0.1151  283.9498  106.5913     7446.8875     7434.7245     7459.0505  41.262193  78.853871  -0.001224   0.001081
1 62242U 24232F   25138.56470348  .00000196  00000-0  28457-3 0  9990 | 2 62242  88.9973  62.2730 0016331  73.5571 286.7373 13.50954372 71142 | 2025/05/18-13:33:10   17.2160    0.1151  286.5580  106.5913     7446.8863     7434.7247     7459.0478  41.406815  78.778138  -0.001171   0.001138
1 62242U 24232F   25140.19414915  .00000171  00000-0  24644-3 0  9997 | 2 62242  88.9974  62.1080 0016297  69.4762 290.8137 13.50954835 71369 | 2025/05/20-04:39:34  245.5920    0.1152  290.6390  106.5913     7446.8846     7434.7484     7459.0207  41.633554  78.658657  -0.001082   0.001219
1 62242U 24232F   25141.52733128  .00000149  00000-0  21245-3 0  9994 | 2 62242  88.9974  61.9731 0016273  66.1421 294.1433 13.50955206 71548 | 2025/05/21-12:39:21    6.9910    0.1151  293.9730  106.5912     7446.8832     7434.7649     7459.0015  41.818637  78.560415  -0.001004   0.001280
1 62242U 24232F   25142.56425047  .00000145  00000-0  20648-3 0  9999 | 2 62242  88.9974  61.8681 0016248  63.5501 296.7315 13.50955527 71681 | 2025/05/22-13:32:31   21.4128    0.1152  296.5651  106.5912     7446.8820     7434.7823     7458.9817  41.962536  78.483647  -0.000942   0.001324
1 62242U 24232F   25143.60116931  .00000138  00000-0  19513-3 0  9995 | 2 62242  88.9975  61.7631 0016218  60.9320 299.3453 13.50955810 71826 | 2025/05/23-14:25:41   35.8349    0.1151  299.1831  106.5912     7446.8810     7434.8036     7458.9583  42.106341  78.406703  -0.000876   0.001365
1 62242U 24232F   25144.86028473  .00000142  00000-0  20091-3 0  9995 | 2 62242  88.9975  61.6355 0016172  57.7680 302.5036 13.50956179 71991 | 2025/05/24-20:38:48  130.4908    0.1151  302.3471  106.5912     7446.8796     7434.8365     7458.9227  42.280852  78.312736  -0.000794   0.001409
1 62242U 24232F   25145.89720299  .00000147  00000-0  20849-3 0  9990 | 2 62242  88.9975  61.5305 0016131  55.1713 305.0952 13.50956475 72130 | 2025/05/25-21:31:58  144.9135    0.1151  304.9438  106.5911     7446.8785     7434.8660     7458.8911  42.424296  78.235121  -0.000725   0.001441
1 62242U 24232F   25147.89697309  .00000165  00000-0  23620-3 0  9997 | 2 62242  88.9975  61.3280 0016037  50.1211 310.1347 13.50957095 72407 | 2025/05/27-21:31:38  147.0150    0.1151  309.9940  106.5911     7446.8763     7434.9337     7458.8188  42.700536  78.084692  -0.000586   0.001493
1 62242U 24232F   25149.15608699  .00000178  00000-0  25657-3 0  9998 | 2 62242  88.9975  61.2004 0015969  46.9840 313.2646 13.50957526 72577 | 2025/05/29-03:44:45  241.6718    0.1152  313.1312  106.5911     7446.8747     7434.9828     7458.7666  42.874328  77.989403  -0.000498   0.001517
1 62242U 24232F   25150.19300944  .00000192  00000-0  27821-3 0  9997 | 2 62242  88.9973  61.0957 0015879  44.3992 315.8429 13.50939109 72710 | 2025/05/30-04:37:56  256.0972    0.1152  315.7160  106.5925     7446.9423     7435.1173     7458.7673  43.016675  77.910751  -0.000424   0.001530
1 62242U 24232F   25151.22994072  .00000112  00000-0  15470-3 0  9992 | 2 62242  88.9974  60.9905 0015847  41.6657 318.5698 13.50939138 72850 | 2025/05/31-05:31:06  270.5263    0.1152  318.4495  106.5925     7446.9422     7435.1411     7458.7434  43.159701  77.831725  -0.000347   0.001546
1 62242U 24232F   25152.48907028  .00000285  00000-0  42316-3 0  9996 | 2 62242  88.9974  60.8630 0015759  38.4379 321.7892 13.50940387 73021 | 2025/06/01-11:44:15    5.1899    0.1152  321.6773  106.5924     7446.9377     7435.2020     7458.6733  43.332793  77.735489  -0.000255   0.001555
1 62242U 24232F   25153.52600100  .00000188  00000-0  27220-3 0  9992 | 2 62242  88.9974  60.7581 0015683  35.7907 324.4292 13.50940177 73164 | 2025/06/02-12:37:26   19.6191    0.1152  324.3245  106.5924     7446.9384     7435.2594     7458.6175  43.475042  77.656023  -0.000179   0.001558
1 62242U 24232F   25154.56293084  .00000184  00000-0  26678-3 0  9998 | 2 62242  88.9974  60.6531 0015599  33.1122 327.1002 13.50940609 73300 | 2025/06/03-13:30:37   34.0484    0.1151  327.0029  106.5924     7446.9368     7435.3204     7458.5533  43.617281  77.576221  -0.000102   0.001557
1 62242U 24232F   25155.59986067  .00000151  00000-0  21517-3 0  9993 | 2 62242  88.9974  60.5480 0015511  30.3845 329.8202 13.50940752 73442 | 2025/06/04-14:23:47   48.4780    0.1152  329.7307  106.5924     7446.9363     7435.3854     7458.4873  43.759509  77.496081  -0.000025   0.001551
1 62242U 24232F   25156.93305555  .00000147  00000-0  20954-3 0  9998 | 2 62242  88.9974  60.4129 0015393  26.8328 333.3616 13.50941121 73625 | 2025/06/05-22:23:35  169.8876    0.1152  333.2824  106.5924     7446.9350     7435.4719     7458.3980  43.942118  77.392683   0.000074   0.001538
1 62242U 24232F   25158.56251550  .00000150  00000-0  21420-3 0  9997 | 2 62242  88.9974  60.2478 0015244  22.5103 337.6713 13.50941620 73842 | 2025/06/07-13:30:01   38.2771    0.1151  337.6048  106.5923     7446.9331     7435.5810     7458.2852  44.164945  77.265741   0.000192   0.001512
1 62242U 24232F   25159.74757698  .00000154  00000-0  21930-3 0  9992 | 2 62242  88.9973  60.1278 0015132  19.3733 340.7990 13.50941964 74009 | 2025/06/08-17:56:30  106.1966    0.1152  340.7419  106.5923     7446.9319     7435.6632     7458.2006  44.326624  77.172986   0.000276   0.001488
1 62242U 24232F   25160.85857177  .00000146  00000-0  20802-3 0  9997 | 2 62242  88.9972  60.0152 0015023  16.4052 343.7582 13.50942239 74151 | 2025/06/09-20:36:20  147.3713    0.1152  343.7100  106.5923     7446.9308     7435.7433     7458.1184  44.478152  77.085638   0.000353   0.001460
1 62242U 24232F   25161.89550006  .00000154  00000-0  22037-3 0  9994 | 2 62242  88.9971  59.9102 0014917  13.6368 346.5183 13.50942527 74295 | 2025/06/10-21:29:31  161.8008    0.1152  346.4784  106.5922     7446.9298     7435.8212     7458.0384  44.619293  77.003912   0.000422   0.001431
1 62242U 24232F   25163.52495815  .00000164  00000-0  23542-3 0  9995 | 2 62242  88.9969  59.7451 0014755   9.1780 350.9638 13.50943080 74519 | 2025/06/12-12:35:56   30.1902    0.1152  350.9372  106.5922     7446.9278     7435.9398     7457.9157  44.840897  76.874848   0.000531   0.001377
1 62242U 24232F   25164.56188557  .00000174  00000-0  25064-3 0  9994 | 2 62242  88.9968  59.6400 0014642   6.3153 353.8180 13.50943513 74659 | 2025/06/13-13:29:06   44.6197    0.1152  353.7999  106.5922     7446.9262     7436.0224     7457.8300  44.981785  76.792378   0.000597   0.001337
1 62242U 24232F   25165.89507785  .00000147  00000-0  20902-3 0  9995 | 2 62242  88.9967  59.5049 0014492   2.6418 357.4807 13.50943769 74831 | 2025/06/14-21:28:54  166.0289    0.1152  357.4734  106.5921     7446.9252     7436.1331     7457.7173  45.162681  76.686015   0.000677   0.001281
1 62242U 24232F   25166.93200485  .00000131  00000-0  18458-3 0  9994 | 2 62242  88.9967  59.3998 0014375 359.7501   0.3640 13.50944017 74972 | 2025/06/15-22:22:05  180.4582    0.1151    0.3650  106.5921     7446.9243     7436.2194     7457.6293  45.303274  76.603042   0.000737   0.001234
1 62242U 24232F   25168.48739516  .00000113  00000-0  15664-3 0  9994 | 2 62242  88.9966  59.2421 0014214 355.3382   4.7634 13.50944328 75182 | 2025/06/17-11:41:50   22.1019    0.1151    4.7769  106.5921     7446.9232     7436.3381     7457.5082  45.513892  76.477974   0.000824   0.001158
1 62242U 24232F   25169.52432179  .00000113  00000-0  15683-3 0  9996 | 2 62242  88.9965  59.1369 0014095 352.3801   7.7134 13.50944580 75325 | 2025/06/18-12:35:01   36.5309    0.1152    7.7351  106.5921     7446.9222     7436.4258     7457.4187  45.654184  76.394192   0.000877   0.001103
1 62242U 24232F   25170.56124839  .00000103  00000-0  14078-3 0  9999 | 2 62242  88.9965  59.0318 0013979 349.4130  10.6725 13.50944759 75462 | 2025/06/19-13:28:11   50.9596    0.1152   10.7022  106.5921     7446.9216     7436.5115     7457.3316  45.794240  76.310318   0.000927   0.001046
1 62242U 24232F   25171.89443953  .00000099  00000-0  13507-3 0  9997 | 2 62242  88.9964  58.8966 0013828 345.5439  14.5314 13.50944982 75644 | 2025/06/20-21:27:59  172.3679    0.1151   14.5712  106.5921     7446.9208     7436.6232     7457.2184  45.974129  76.201960   0.000987   0.000968
1 62242U 24232F   25172.93136593  .00000094  00000-0  12729-3 0  9992 | 2 62242  88.9963  58.7914 0013709 342.5037  17.5640 13.50945129 75788 | 2025/06/21-22:21:10  186.7962    0.1152   17.6115  106.5920     7446.9202     7436.7112     7457.1292  46.113913  76.117334   0.001030   0.000905
1 62242U 24232F   25174.48675527  .00000115  00000-0  15985-3 0  9990 | 2 62242  88.9961  58.6336 0013537 337.8632  22.1933 13.50945460 75998 | 2025/06/23-11:40:55   28.4384    0.1152   22.2520  106.5920     7446.9190     7436.8381     7456.9999  46.323270  75.989871   0.001088   0.000805
1 62242U 24232F   25175.59774750  .00000111  00000-0  15316-3 0  9995 | 2 62242  88.9960  58.5208 0013417 334.5168  25.5320 13.50945669 76145 | 2025/06/24-14:20:45   69.6112    0.1152   25.5984  106.5920     7446.9182     7436.9267     7456.9098  46.472732  75.898440   0.001125   0.000731
1 62242U 24232F   25176.85687191  .00000115  00000-0  16049-3 0  9995 | 2 62242  88.9959  58.3930 0013283 330.7079  29.3326 13.50945898 76314 | 2025/06/25-20:33:53  164.2731    0.1152   29.4073  106.5920     7446.9174     7437.0257     7456.8091  46.641858  75.794507   0.001161   0.000646
1 62242U 24232F   25177.89379772  .00000105  00000-0  14499-3 0  9999 | 2 62242  88.9957  58.2878 0013169 327.5287  32.5053 13.50946082 76454 | 2025/06/26-21:27:04  178.7002    0.1152   32.5865  106.5920     7446.9167     7437.1099     7456.7236  46.780839  75.708571   0.001185   0.000573
1 62242U 24232F   25178.93072349  .00000100  00000-0  13588-3 0  9998 | 2 62242  88.9957  58.1825 0013063 324.3323  35.6954 13.50946248 76597 | 2025/06/27-22:20:14  193.1271    0.1152   35.7829  106.5920     7446.9161     7437.1882     7456.6440  46.919900  75.622468   0.001207   0.000500
1 62242U 24232F   25180.56017802  .00000088  00000-0  11816-3 0  9990 | 2 62242  88.9955  58.0172 0012904 319.2110  40.8074 13.50946518 76815 | 2025/06/29-13:26:39   61.5114    0.1152   40.9042  106.5919     7446.9151     7437.3056     7456.5246  47.137771  75.486618   0.001233   0.000382
1 62242U 24232F   25181.59710358  .00000085  00000-0  11337-3 0  9995 | 2 62242  88.9954  57.9119 0012807 315.9266  44.0864 13.50946703 76954 | 2025/06/30-14:19:49   75.9373    0.1152   44.1886  106.5919     7446.9144     7437.3772     7456.4517  47.276370  75.399775   0.001244   0.000306
1 62242U 24232F   25182.63402907  .00000076  00000-0  99504-4 0  9992 | 2 62242  88.9954  57.8067 0012711 312.6120  47.3958 13.50946875 77098 | 2025/07/01-15:13:00   90.3629    0.1151   47.5031  106.5919     7446.9138     7437.4480     7456.3796  47.414731  75.312844   0.001250   0.000230
1 62242U 24232F   25183.89315288  .00000085  00000-0  11308-3 0  9991 | 2 62242  88.9953  57.6788 0012601 308.5507  51.4514 13.50947071 77268 | 2025/07/02-21:26:08  185.0222    0.1151   51.5644  106.5919     7446.9131     7437.5292     7456.2969  47.582678  75.206730   0.001253   0.000137
1 62242U 24232F   25185.52260718  .00000089  00000-0  11988-3 0  9998 | 2 62242  88.9952  57.5133 0012472 303.2411  56.7544 13.50947307 77489 | 2025/07/04-12:32:33   53.4039    0.1151   56.8740  106.5919     7446.9122     7437.6244     7456.2000  47.799662  75.068888   0.001247   0.000016
1 62242U 24232F   25186.55953259  .00000085  00000-0  11270-3 0  9991 | 2 62242  88.9951  57.4080 0012394 299.8350  60.1569 13.50947450 77624 | 2025/07/05-13:25:43   67.8280    0.1152   60.2802  106.5919     7446.9117     7437.6820     7456.1414  47.937491  74.980829   0.001238  -0.000060
1 62242U 24232F   25187.59645795  .00000096  00000-0  13107-3 0  9992 | 2 62242  88.9950  57.3027 0012318 296.4079  63.5807 13.50947651 77760 | 2025/07/06-14:18:53   82.2517    0.1151   63.7072  106.5918     7446.9110     7437.7379     7456.0841  48.075158  74.892518   0.001224  -0.000135
1 62242U 24232F   25188.63338328  .00000088  00000-0  11782-3 0  9997 | 2 62242  88.9948  57.1974 0012254 292.9530  67.0328 13.50947773 77906 | 2025/07/07-15:12:04   96.6750    0.1152   67.1622  106.5918     7446.9105     7437.7851     7456.0360  48.212608  74.803869   0.001207  -0.000210
1 62242U 24232F   25189.89250680  .00000094  00000-0  12678-3 0  9992 | 2 62242  88.9946  57.0694 0012188 288.7479  71.2349 13.50947977 78078 | 2025/07/08-21:25:12  191.3315    0.1151   71.3672  106.5918     7446.9098     7437.8335     7455.9861  48.379493  74.695807   0.001182  -0.000299
1 62242U 24232F   25190.92943198  .00000089  00000-0  11974-3 0  9993 | 2 62242  88.9945  56.9641 0012149 285.2826  74.6981 13.50948130 78219 | 2025/07/09-22:18:22  205.7540    0.1150   74.8324  106.5918     7446.9092     7437.8619     7455.9564  48.516635  74.606683   0.001157  -0.000370
