# SPACE DATA - HISTORICAL TLEs
# ----------------------------
# NORAD_ID    : 60396
# OBJECT_NAME : QIANFAN-18
# --------------------------------------------------------------------+-----------------------------------------------------------------------+----------------------------------------------------------------------------------------------------------------------------------------
#                  LINE 1                                             |                 LINE 2                                                |      DERIVED PARAMETERS
# --------------------------------------------------------------------+-----------------------------------------------------------------------+----------------------------------------------------------------------------------------------------------------------------------------
# NORAD  COSPAR     TLE_EPOCH      MEANMOT1 MEANMOT2   BSTAR  #  REV  |   NORAD    INC     RAAN     ECC    ARGPER  MEANANOM   MEANMOT     REV |  CAL_DATE              LONG     ARGLAT     PERIOD        SMA         PERIGEE        APOGEE      INC_X      INC_Y      ECC_X      ECC_Y
# ------ ------   -------------- ----------  -------  ------- -- ----     -----  ------- -------- ------- -------- -------- -----------  ----   ------------------- ---------  --------  --------  ------------  ------------   ----------- ---------- ----------  ---------  ---------   
1 62247U 24232L   24351.25396967  .00001242  00000-0  50781-3 0  9999 | 2 62247  88.9938  78.8725 0015433 177.4919 182.6355 14.26658453 49916 | 2024/12/16-06:05:42   97.8090    0.1193  182.6274  100.9352     7181.0591     7169.9765     7192.1416  17.175174  87.320730  -0.000364  -0.001500
1 62247U 24232L   24353.07979323  .00001186  00000-0  49665-3 0  9990 | 2 62247  88.9936  78.6623 0015507 173.2082 186.9324 14.25374543 50173 | 2024/12/18-01:54:54   37.1021    0.1192  186.9110  101.0261     7185.3707     7174.2283     7196.5130  17.495371  87.256936  -0.000483  -0.001474
1 62247U 24232L   24354.20302361  .00001214  00000-0  50876-3 0  9996 | 2 62247  88.9936  78.5331 0015619 169.6174 190.5345 14.25377261 50335 | 2024/12/19-04:52:21   82.6901    0.1192  190.5018  101.0259     7185.3615     7174.1387     7196.5843  17.692087  87.217263  -0.000581  -0.001450
1 62247U 24232L   24355.53685697  .00001031  00000-0  43075-3 0  9999 | 2 62247  88.9936  78.3795 0015772 165.5045 194.6603 14.25379338 50529 | 2024/12/20-12:53:04  204.3255    0.1191  194.6146  101.0257     7185.3545     7174.0218     7196.6873  17.925838  87.169520  -0.000694  -0.001416
1 62247U 24232L   24356.80048566  .00001076  00000-0  44995-3 0  9999 | 2 62247  88.9935  78.2340 0015916 161.6128 198.5643 14.25382625 50702 | 2024/12/21-19:12:41  300.6105    0.1191  198.5063  101.0255     7185.3435     7173.9073     7196.7797  18.147122  87.123619  -0.000799  -0.001376
1 62247U 24232L   24357.85350727  .00001209  00000-0  50609-3 0  9997 | 2 62247  88.9935  78.1127 0016022 158.3962 201.7911 14.25385888 50857 | 2024/12/22-20:29:03  320.8473    0.1193  201.7231  101.0253     7185.3325     7173.8202     7196.8449  18.331530  87.085005  -0.000884  -0.001336
1 62247U 24232L   24359.46813667  .00001298  00000-0  54415-3 0  9990 | 2 62247  88.9935  77.9267 0016198 153.4551 206.7475 14.25390360 51080 | 2024/12/24-11:14:07  183.8760    0.1192  206.6641  101.0250     7185.3175     7173.6787     7196.9563  18.614138  87.025036  -0.001011  -0.001266
1 62247U 24232L   24360.52115315  .00001394  00000-0  58469-3 0  9994 | 2 62247  88.9934  77.8054 0016298 150.3130 209.8992 14.25393558 51239 | 2024/12/25-12:30:27  204.1115    0.1193  209.8063  101.0247     7185.3068     7173.5961     7197.0174  18.798314  86.985336  -0.001088  -0.001213
1 62247U 24232L   24361.78544794  .00001003  00000-0  42510-3 0  9997 | 2 62247  88.9934  77.6598 0016406 146.4413 213.7823 14.24607140 51412 | 2024/12/26-18:51:02  300.6380    0.1192  213.6779  101.0805     7187.9508     7176.1583     7199.7434  19.019300  86.937285  -0.001178  -0.001142
1 62247U 24232L   24362.90928182  .00001296  00000-0  55138-3 0  9993 | 2 62247  88.9932  77.5306 0016497 143.1229 217.1102 14.24610424 51579 | 2024/12/27-21:49:21  346.4456    0.1192  216.9963  101.0803     7187.9398     7176.0818     7199.7977  19.215249  86.893981  -0.001252  -0.001075
1 62247U 24232L   24364.17359196  .00001322  00000-0  56254-3 0  9997 | 2 62247  88.9931  77.3851 0016613 139.3571 220.8865 14.24613953 51755 | 2024/12/29-04:09:58   82.9784    0.1192  220.7621  101.0800     7187.9279     7175.9866     7199.8692  19.435828  86.844807  -0.001331  -0.000994
1 62247U 24232L   24365.43789833  .00001630  00000-0  69474-3 0  9992 | 2 62247  88.9929  77.2396 0016703 135.6192 224.6342 14.24619192 51936 | 2024/12/30-10:30:34  179.5106    0.1191  224.4999  101.0796     7187.9103     7175.9043     7199.9162  19.656260  86.794975  -0.001403  -0.000906
1 62247U 24232L   24366.49148441  .00001537  00000-0  65469-3 0  9999 | 2 62247  88.9928  77.1183 0016767 132.5582 227.7030 14.24621802 52083 | 2024/12/31-11:47:44  199.9535    0.1193  227.5611  101.0795     7187.9015     7175.8495     7199.9535  19.839945  86.753069  -0.001457  -0.000830
1 62247U 24232L   25001.61530534  .00001712  00000-0  73015-3 0  9999 | 2 62247  88.9926  76.9889 0016843 129.2797 230.9893 14.24626590 52247 | 2025/01/01-14:46:02  245.7584    0.1192  230.8395  101.0791     7187.8854     7175.7788     7199.9919  20.035778  86.707845  -0.001510  -0.000745
1 62247U 24232L   25003.58381980  .00001317  00000-0  58573-3 0  9999 | 2 62247  88.9938  76.7654 0016937 119.8384 240.4493 14.22304192 52521 | 2025/01/03-14:00:42  236.5686    0.1190  240.2806  101.2442     7195.7077     7183.5204     7207.8951  20.374130  86.630198  -0.001623  -0.000484
1 62247U 24232L   25004.99149832  .00001321  00000-0  59686-3 0  9994 | 2 62247  88.9921  76.6012 0017119 119.1772 241.1134 14.21487102 52721 | 2025/01/04-23:47:45   24.8817    0.1190  240.9418  101.3024     7198.4649     7186.1419     7210.7880  20.621919  86.569800  -0.001647  -0.000465
1 62247U 24232L   25006.47134447  .00001054  00000-0  49823-3 0  9990 | 2 62247  88.9872  76.4237 0016819 113.2421 247.0542 14.18970635 52930 | 2025/01/06-11:18:44  199.2567    0.1190  246.8769  101.4820     7206.9731     7194.8517     7219.0945  20.888860  86.500736  -0.001658  -0.000282
1 62247U 24232L   25007.60061937  .00000826  00000-0  40160-3 0  9990 | 2 62247  88.9920  76.3029 0017805 111.1232 249.1862 14.17274769 53095 | 2025/01/07-14:24:53  247.0164    0.1188  248.9956  101.6034     7212.7211     7199.8788     7225.5633  21.072324  86.461166  -0.001766  -0.000230
1 62247U 24232L   25008.94206905  .00000521  00000-0  25052-3 0  9999 | 2 62247  88.9917  76.1504 0017810 107.5357 252.7780 14.17276847 53289 | 2025/01/08-22:36:34   11.4087    0.1189  252.5832  101.6033     7212.7140     7199.8682     7225.5599  21.302305  86.404482  -0.001777  -0.000115
1 62247U 24232L   25010.56592709  .00000645  00000-0  31200-3 0  9999 | 2 62247  88.9915  75.9654 0017834 102.9228 257.3953 14.17279303 53511 | 2025/01/10-13:34:56  237.7787    0.1188  257.1960  101.6031     7212.7057     7199.8425     7225.5688  21.581133  86.335055  -0.001783   0.000035
1 62247U 24232L   25011.90737356  .00000507  00000-0  24355-3 0  9997 | 2 62247  88.9913  75.8126 0017824  99.0965 261.2241 14.17280543 53708 | 2025/01/11-21:46:37    2.1720    0.1188  261.0223  101.6030     7212.7015     7199.8456     7225.5574  21.811250  86.277001  -0.001775   0.000158
1 62247U 24232L   25013.17821631  .00000485  00000-0  23275-3 0  9993 | 2 62247  88.9911  75.6678 0017832  95.4829 264.8394 14.17281781 53886 | 2025/01/13-04:16:37  101.0711    0.1188  264.6359  101.6029     7212.6973     7199.8356     7225.5590  22.029173  86.221409  -0.001762   0.000274
1 62247U 24232L   25014.44905771  .00000514  00000-0  24721-3 0  9992 | 2 62247  88.9910  75.5230 0017829  91.8484 268.4746 14.17283183 54061 | 2025/01/14-10:46:38  199.9707    0.1188  268.2704  101.6028     7212.6925     7199.8330     7225.5520  22.246980  86.165364  -0.001740   0.000390
1 62247U 24232L   25015.57869322  .00000464  00000-0  22251-3 0  9998 | 2 62247  88.9908  75.3942 0017811  88.6680 271.6549 14.17284173 54224 | 2025/01/15-13:53:19  247.8818    0.1189  271.4509  101.6028     7212.6892     7199.8426     7225.5357  22.440571  86.114942  -0.001713   0.000489
1 62247U 24232L   25016.84953200  .00000498  00000-0  23896-3 0  9991 | 2 62247  88.9906  75.2494 0017779  85.0371 275.2847 14.17285642 54407 | 2025/01/16-20:23:19  346.7822    0.1189  275.0818  101.6027     7212.6842     7199.8608     7225.5076  22.658081  86.057761  -0.001674   0.000600
1 62247U 24232L   25017.90856317  .00000521  00000-0  25066-3 0  9998 | 2 62247  88.9905  75.1286 0017732  82.0067 278.3133 14.17286907 54555 | 2025/01/17-21:48:19    9.1999    0.1189  278.1122  101.6026     7212.6799     7199.8904     7225.4694  22.839446  86.009702  -0.001634   0.000689
1 62247U 24232L   25019.17939932  .00000524  00000-0  25214-3 0  9992 | 2 62247  88.9904  74.9837 0017672  78.3690 281.9481 14.17288300 54731 | 2025/01/19-04:18:20  108.1013    0.1189  281.7499  101.6025     7212.6752     7199.9289     7225.4214  23.056864  85.951570  -0.001579   0.000793
1 62247U 24232L   25020.52083570  .00000603  00000-0  29104-3 0  9991 | 2 62247  88.9903  74.8307 0017614  74.5364 285.7768 14.17290219 54926 | 2025/01/20-12:30:00  232.4975    0.1188  285.5824  101.6023     7212.6687     7199.9643     7225.3730  23.286276  85.889597  -0.001516   0.000897
1 62247U 24232L   25021.57986340  .00000582  00000-0  28055-3 0  9994 | 2 62247  88.9902  74.7099 0017571  71.5246 288.7850 14.17291294 55076 | 2025/01/21-13:55:00  254.9157    0.1188  288.5942  101.6023     7212.6650     7199.9916     7225.3384  23.467284  85.840214  -0.001461   0.000977
1 62247U 24232L   25023.13310212  .00000553  00000-0  26632-3 0  9994 | 2 62247  88.9900  74.5328 0017495  67.0414 293.2618 14.17292937 55291 | 2025/01/23-03:11:40   95.7961    0.1189  293.0775  101.6021     7212.6594     7200.0409     7225.2780  23.732448  85.767074  -0.001371   0.001087
1 62247U 24232L   25024.47453375  .00000658  00000-0  31849-3 0  9992 | 2 62247  88.9899  74.3796 0017413  63.1479 297.1487 14.17294997 55489 | 2025/01/24-11:23:19  220.1934    0.1189  296.9710  101.6020     7212.6524     7200.0931     7225.2118  23.961664  85.703214  -0.001284   0.001176
1 62247U 24232L   25025.53355765  .00000582  00000-0  28062-3 0  9993 | 2 62247  88.9897  74.2588 0017329  60.0858 300.2049 14.17295805 55634 | 2025/01/25-12:48:19  242.6126    0.1189  300.0331  101.6019     7212.6497     7200.1509     7225.1485  24.142249  85.652312  -0.001211   0.001239
1 62247U 24232L   25026.59258067  .00000513  00000-0  24646-3 0  9995 | 2 62247  88.9895  74.1379 0017237  56.9833 303.3009 14.17296600 55784 | 2025/01/26-14:13:18  265.0321    0.1189  303.1356  101.6019     7212.6470     7200.2146     7225.0794  24.322876  85.600986  -0.001134   0.001298
1 62247U 24232L   25027.86340713  .00000490  00000-0  23509-3 0  9997 | 2 62247  88.9893  73.9928 0017130  53.2451 307.0308 14.17297802 55965 | 2025/01/27-20:43:18    3.9356    0.1190  306.8739  101.6018     7212.6429     7200.2877     7224.9982  24.539525  85.538922  -0.001037   0.001364
1 62247U 24232L   25028.92242812  .00000510  00000-0  24505-3 0  9996 | 2 62247  88.9892  73.8719 0017037  50.1287 310.1397 14.17298994 56114 | 2025/01/28-22:08:17   26.3554    0.1189  309.9902  101.6017     7212.6389     7200.3507     7224.9271  24.719938  85.486855  -0.000953   0.001412
1 62247U 24232L   25030.54625896  .00000465  00000-0  22296-3 0  9998 | 2 62247  88.9890  73.6865 0016899  45.3873 314.8691 14.17300347 56343 | 2025/01/30-13:06:36  252.7324    0.1190  314.7317  101.6016     7212.6343     7200.4457     7224.8229  24.996374  85.406226  -0.000821   0.001477
1 62247U 24232L   25031.88768301  .00000428  00000-0  20444-3 0  9997 | 2 62247  88.9889  73.5333 0016778  41.4081 318.8376 14.17301396 56534 | 2025/01/31-21:18:15   17.1311    0.1190  318.7109  101.6015     7212.6307     7200.5294     7224.7321  25.224619  85.338988  -0.000708   0.001521
1 62247U 24232L   25033.51151027  .00000443  00000-0  21203-3 0  9991 | 2 62247  88.9888  73.3478 0016606  36.4978 323.7339 14.17303048 56765 | 2025/02/02-12:16:34  243.5089    0.1189  323.6211  101.6014     7212.6251     7200.6478     7224.6024  25.500750  85.256779  -0.000564   0.001562
1 62247U 24232L   25034.78247899  .00000692  00000-0  33897-3 0  9992 | 2 62247  88.9885  73.2030 0016262  32.9801 327.2398 14.16706993 56948 | 2025/02/03-18:46:46  342.4670    0.1189  327.1388  101.6442     7214.6480     7202.9156     7226.3805  25.716045  85.191773  -0.000453   0.001562
1 62247U 24232L   25036.40854754  .00000685  00000-0  35090-3 0  9996 | 2 62247  88.9884  73.0173 0016188  28.9436 331.2645 14.14351069 57173 | 2025/02/05-09:48:18  209.6519    0.1188  331.1752  101.8135     7222.6576     7210.9655     7234.3496  25.991994  85.107882  -0.000335   0.001584
1 62247U 24232L   25037.54152721  .00000662  00000-0  35048-3 0  9995 | 2 62247  88.9875  72.8938 0015483  28.3581 331.8445 14.12481720 57339 | 2025/02/06-12:59:47  258.7703    0.1187  331.7606  101.9482     7229.0287     7217.8360     7240.2214  26.175117  85.050799  -0.000302   0.001519
1 62247U 24232L   25038.88834603  .00000597  00000-0  32494-3 0  9998 | 2 62247  88.9879  72.7363 0016204  20.6819 339.5018 14.10876261 57523 | 2025/02/07-21:19:13   25.1290    0.1186  339.4367  102.0642     7234.5117     7222.7889     7246.2345  26.408932  84.978907  -0.000097   0.001618
1 62247U 24232L   25040.59244732  .00000613  00000-0  34973-3 0  9990 | 2 62247  88.9881  72.5440 0015983  16.9584 343.2130 14.08346941 57767 | 2025/02/09-14:13:07  280.4897    0.1184  343.1600  102.2475     7243.1710     7231.5942     7254.7478  26.694055  84.889984   0.000014   0.001598
1 62247U 24232L   25041.80114331  .00000628  00000-0  37051-3 0  9992 | 2 62247  88.9878  72.4086 0015733  12.8971 347.2611 14.06639050 57937 | 2025/02/10-19:13:38  356.9602    0.1184  347.2213  102.3717     7249.0327     7237.6278     7260.4376  26.894499  84.826378   0.000129   0.001568
1 62247U 24232L   25042.93998142  .00000561  00000-0  33599-3 0  9996 | 2 62247  88.9880  72.2804 0015580   9.7931 350.3551 14.05604518 58093 | 2025/02/11-22:33:34   48.2026    0.1182  350.3251  102.4470     7252.5892     7241.2897     7263.8887  27.084293  84.766180   0.000215   0.001543
1 62247U 24232L   25044.43604289  .00000527  00000-0  32611-3 0  9995 | 2 62247  88.9899  72.1146 0016042 356.2501   3.8557 14.03780427 58300 | 2025/02/13-10:27:54  228.4675    0.1182    3.8681  102.5801     7258.8706     7247.2259     7270.5153  27.330055  84.689258   0.000591   0.001491
1 62247U 24232L   25045.50634556  .00000468  00000-0  30157-3 0  9991 | 2 62247  88.9873  71.9989 0014068   1.8540 358.2690 14.01384767 58452 | 2025/02/14-12:09:08  254.9299    0.1181  358.2641  102.7555     7267.1409     7256.9175     7277.3643  27.500213  84.631424   0.000391   0.001351
1 62247U 24232L   25046.79197838  .00000445  00000-0  29112-3 0  9994 | 2 62247  88.9877  71.8506 0015598 358.3983   1.7143 14.00428371 58632 | 2025/02/15-19:00:26  359.1836    0.1180    1.7197  102.8257     7270.4491     7259.1087     7281.7896  27.719299  84.560341   0.000527   0.001468
1 62247U 24232L   25048.50773858  .00000473  00000-0  32339-3 0  9993 | 2 62247  88.9914  71.6488 0014907 351.0800   9.0111 13.98070990 58870 | 2025/02/17-12:11:08  258.7717    0.1179    9.0379  102.9991     7278.6196     7267.7694     7289.4699  28.018119  84.465699   0.000683   0.001325
1 62247U 24232L   25049.58205932  .00000417  00000-0  29458-3 0  9991 | 2 62247  88.9877  71.5416 0015248 350.1167   9.9707 13.96049276 59022 | 2025/02/18-13:58:09  286.6970    0.1177   10.0010  103.1482     7285.6451     7274.5359     7296.7542  28.174933  84.409620   0.000724   0.001342
1 62247U 24232L   25050.58553863  .00000677  00000-0  48730-3 0  9994 | 2 62247  88.9879  71.4288 0017105 352.3463   7.7449 13.95663421 59164 | 2025/02/19-14:03:10  289.0476    0.1177    7.7714  103.1767     7286.9878     7274.5234     7299.4522  28.341122  84.354177   0.000756   0.001534
1 62247U 24232L   25051.87710148  .00000616  00000-0  46157-3 0  9992 | 2 62247  88.9839  71.2836 0013122 341.7006  18.3695 13.93319670 59340 | 2025/02/20-21:03:01   35.4496    0.1176   18.4170  103.3503     7295.1573     7285.5846     7304.7300  28.553519  84.278295   0.000790   0.001048
1 62247U 24232L   25053.09908800  .00000586  00000-0  45916-3 0  9990 | 2 62247  88.9880  71.1552 0014839 339.3089  20.7482 13.90709892 59516 | 2025/02/22-02:22:41  116.7106    0.1174   20.8085  103.5442     7304.2811     7293.4423     7315.1199  28.743639  84.217975   0.000945   0.001144
1 62247U 24232L   25054.46670485  .00000433  00000-0  35044-3 0  9999 | 2 62247  88.9872  71.0051 0013012 340.3422  19.7247 13.88344517 59709 | 2025/02/23-11:12:03  250.5409    0.1173   19.7751  103.7207     7312.5751     7303.0600     7322.0903  28.963909  84.141629   0.000813   0.001016
1 62247U 24232L   25055.47598731  .00000450  00000-0  37320-3 0  9992 | 2 62247  88.9874  70.8951 0014146 331.9985  28.0424 13.87033062 59840 | 2025/02/24-11:25:25  255.0134    0.1172   28.1187  103.8187     7317.1838     7306.8329     7327.5347  29.125461  84.086056   0.001036   0.000963
1 62247U 24232L   25056.77557662  .00000452  00000-0  38691-3 0  9998 | 2 62247  88.9875  70.7538 0014041 325.5807  34.4453 13.85241138 60025 | 2025/02/25-18:36:49    4.3027    0.1171   34.5364  103.9530     7323.4927     7313.2098     7333.7756  29.332774  84.014067   0.001131   0.000832
1 62247U 24232L   25057.78768145  .00000447  00000-0  39544-3 0  9992 | 2 62247  88.9886  70.6422 0014512 321.6888  38.3249 13.83206870 60160 | 2025/02/26-18:54:15    9.7819    0.1170   38.4282  104.1059     7330.6714     7320.0331     7341.3096  29.496725  83.957812   0.001226   0.000776
1 62247U 24232L   25059.16360086  .00000436  00000-0  40482-3 0  9999 | 2 62247  88.9875  70.4969 0013872 319.1274  40.8852 13.80436074 60358 | 2025/02/28-03:55:35  146.6155    0.1168   40.9894  104.3149     7340.4774     7330.2947     7350.6601  29.709176  83.881702   0.001206   0.000686
1 62247U 24232L   25061.55876219  .00000313  00000-0  30845-3 0  9991 | 2 62247  88.9852  70.2382 0013605 310.0620  49.9352 13.76243333 60689 | 2025/03/02-13:24:37  291.5084    0.1166   50.0546  104.6327     7355.3784     7345.3715     7365.3854  30.086834  83.744541   0.001276   0.000472
1 62247U 24232L   25062.57718256  .00000300  00000-0  29951-3 0  9992 | 2 62247  88.9879  70.1307 0013601 307.3453  52.6472 13.75215108 60821 | 2025/03/03-13:51:08  299.2558    0.1165   52.7712  104.7109     7359.0443     7349.0353     7369.0533  30.244823  83.690483   0.001297   0.000408
1 62247U 24232L   25063.74218352  .00000274  00000-0  28184-3 0  9991 | 2 62247  88.9876  70.0069 0013391 303.2322  56.7558 13.73295353 60983 | 2025/03/04-17:48:44  359.9327    0.1165   56.8843  104.8573     7365.9009     7356.0373     7375.7646  30.425481  83.624656   0.001304   0.000307
1 62247U 24232L   25065.71219130  .00000248  00000-0  26627-3 0  9996 | 2 62247  88.9877  69.7987 0013238 297.0457  62.9354 13.70431001 61250 | 2025/03/06-17:05:33  351.2923    0.1163   63.0706  105.0764     7376.1611     7366.3965     7385.9256  30.729187  83.513638   0.001314   0.000158
1 62247U 24232L   25066.73514576  .00000259  00000-0  28680-3 0  9994 | 2 62247  88.9882  69.6898 0013148 293.0335  66.9439 13.68750027 61399 | 2025/03/07-17:38:36    0.6768    0.1161   67.0826  105.2055     7382.1990     7372.4929     7391.9051  30.888037  83.455551   0.001313   0.000062
1 62247U 24232L   25067.83266529  .00000263  00000-0  30475-3 0  9998 | 2 62247  88.9893  69.5776 0012352 294.9351  65.0525 13.66110102 61544 | 2025/03/08-19:59:02   36.9676    0.1160   65.1809  105.4088     7391.7064     7382.5761     7400.8366  31.051789  83.395935   0.001231   0.000097
1 62247U 24232L   25068.93161468  .00000271  00000-0  31603-3 0  9999 | 2 62247  88.9883  69.4597 0012869 286.1077  73.8666 13.65628910 61693 | 2025/03/09-22:21:31   73.8038    0.1160   74.0083  105.4459     7393.4426     7383.9280     7402.9572  31.222980  83.330925   0.001283  -0.000099
1 62247U 24232L   25070.10489466  .00000253  00000-0  30431-3 0  9990 | 2 62247  88.9885  69.3367 0013019 283.6389  76.3319 13.63514280 61858 | 2025/03/11-02:31:02  137.4675    0.1158   76.4769  105.6095     7401.0848     7391.4493     7410.7203  31.401869  83.263892   0.001292  -0.000159
1 62247U 24232L   25072.23563555  .00000270  00000-0  33962-3 0  9999 | 2 62247  88.9887  69.1147 0012719 275.5142  84.4564 13.61089752 62141 | 2025/03/13-05:39:18  186.8566    0.1157   84.6015  105.7976     7409.8713     7400.4467     7419.2959  31.724321  83.141784   0.001226  -0.000337
1 62247U 24232L   25073.41187035  .00000275  00000-0  34672-3 0  9999 | 2 62247  88.9888  68.9929 0012704 271.5587  88.4115 13.61090093 62304 | 2025/03/14-09:53:05  251.5827    0.1157   88.5570  105.7976     7409.8701     7400.4566     7419.2836  31.901028  83.074249   0.001198  -0.000423
1 62247U 24232L   25074.44186419  .00000264  00000-0  34349-3 0  9997 | 2 62247  88.9884  68.8854 0012236 266.5637  93.4119 13.59007226 62444 | 2025/03/15-10:36:17  263.4978    0.1156   93.5519  105.9597     7417.4392     7408.3633     7426.5152  32.056694  83.013876   0.001113  -0.000508
1 62247U 24232L   25075.54715347  .00000243  00000-0  32508-3 0  9999 | 2 62247  88.9919  68.7641 0012189 267.0325  92.9434 13.57019677 62594 | 2025/03/16-13:07:54  302.6123    0.1154   93.0829  106.1149     7424.6801     7415.6301     7433.7300  32.233638  82.949086   0.001112  -0.000500
1 62247U 24232L   25077.53881169  .00000254  00000-0  35177-3 0  9993 | 2 62247  88.9897  68.5661 0012667 256.4703 103.5040 13.55056189 62861 | 2025/03/18-12:55:53  301.7720    0.1154  103.6451  106.2687     7431.8506     7422.4367     7441.2645  32.519292  82.835152   0.001038  -0.000726
1 62247U 24232L   25078.57259604  .00000179  00000-0  24307-3 0  9990 | 2 62247  88.9896  68.4604 0012694 252.7353 107.2411 13.55056967 63000 | 2025/03/19-13:44:32  315.0569    0.1153  107.3800  106.2686     7431.8478     7422.4138     7441.2818  32.672015  82.774926   0.000989  -0.000795
1 62247U 24232L   25079.97561180  .00000038  00000-0  37449-4 0  9996 | 2 62247  88.9896  68.3161 0012814 247.5734 112.4062 13.55031524 63198 | 2025/03/20-23:24:52  101.6665    0.1153  112.5419  106.2706     7431.9408     7422.4175     7441.4641  32.880381  82.692378   0.000920  -0.000892
1 62247U 24232L   25081.52632438  .00000404  00000-0  56981-3 0  9993 | 2 62247  88.9898  68.1570 0012871 242.5039 117.4807 13.55026362 63408 | 2025/03/22-12:37:54  301.6056    0.1154  117.6115  106.2710     7431.9597     7422.3940     7441.5254  33.109950  82.600943   0.000839  -0.000976
1 62247U 24232L   25082.56013446  .00000283  00000-0  39300-3 0  9991 | 2 62247  88.9899  68.0506 0012911 238.9546 121.0341 13.55024506 63541 | 2025/03/23-13:26:35  314.8985    0.1154  121.1608  106.2711     7431.9665     7422.3711     7441.5619  33.263323  82.539407   0.000777  -0.001031
1 62247U 24232L   25083.88931808  .00000010  00000-0 -32748-5 0  9998 | 2 62247  88.9901  67.9142 0012972 234.5765 125.4177 13.55024570 63727 | 2025/03/24-21:20:37   74.8456    0.1152  125.5387  106.2711     7431.9662     7422.3255     7441.6070  33.459799  82.460171   0.000697  -0.001094
1 62247U 24232L   25085.21855749  .00000003  00000-0 -13054-4 0  9996 | 2 62247  88.9904  67.7767 0012853 231.2334 128.7671 13.54820299 63901 | 2025/03/26-05:14:43  194.8132    0.1152  128.8818  106.2872     7432.7132     7423.1600     7442.2665  33.657706  82.379913   0.000623  -0.001124
1 62247U 24232L   25086.47526834  .00000233  00000-0  33071-3 0  9999 | 2 62247  88.9906  67.6491 0013014 226.3560 133.6514 13.53138689 64076 | 2025/03/27-11:24:23  288.5884    0.1152  133.7592  106.4192     7438.8700     7429.1890     7448.5509  33.841162  82.304937   0.000529  -0.001189
1 62247U 24232L   25087.51051765  .00000108  00000-0  14435-3 0  9995 | 2 62247  88.9908  67.5432 0013086 223.0897 136.9232 13.53138808 64210 | 2025/03/28-12:15:08  302.3990    0.1152  137.0255  106.4192     7438.8695     7429.1350     7448.6040  33.993305  82.242432   0.000461  -0.001225
1 62247U 24232L   25089.43407311  .00000197  00000-0  28552-3 0  9993 | 2 62247  88.9889  67.3372 0012890 217.1968 142.8291 13.51056645 64479 | 2025/03/30-10:25:03  276.9679    0.1150  142.9182  106.5832     7446.5104     7436.9119     7456.1090  34.288045  82.117929   0.000323  -0.001248
1 62247U 24232L   25090.54507500  .00000102  00000-0  13999-3 0  9993 | 2 62247  88.9913  67.2334 0013054 213.0741 146.9595 13.50934778 64621 | 2025/03/31-13:04:54  318.1197    0.1150  147.0409  106.5929     7446.9583     7437.2370     7456.6795  34.437687  82.057889   0.000234  -0.001284
1 62247U 24232L   25091.65607799  .00000111  00000-0  15400-3 0  9996 | 2 62247  88.9913  67.1203 0013155 209.5055 150.5355 13.50939447 64774 | 2025/04/01-15:44:45  359.2816    0.1150  150.6095  106.5925     7446.9411     7437.1447     7456.7376  34.599599  81.989751   0.000152  -0.001307
1 62247U 24232L   25092.76707832  .00000189  00000-0  27446-3 0  9996 | 2 62247  88.9916  67.0071 0013228 206.0885 153.9601 13.50939777 64927 | 2025/04/02-18:24:35   40.4423    0.1150  154.0265  106.5925     7446.9399     7437.0891     7456.7907  34.761637  81.921508   0.000071  -0.001321
1 62247U 24232L   25093.87807850  .00000206  00000-0  29993-3 0  9999 | 2 62247  88.9917  66.8939 0013330 202.6022 157.4543 13.50940125 65077 | 2025/04/03-21:04:25   81.6028    0.1150  157.5128  106.5924     7446.9386     7437.0118     7456.8654  34.923462  81.852761  -0.000012  -0.001333
1 62247U 24232L   25095.21127854  .00000152  00000-0  21743-3 0  9993 | 2 62247  88.9920  66.7582 0013448 198.3420 161.7248 13.50940332 65257 | 2025/04/05-05:04:14  202.9942    0.1150  161.7730  106.5924     7446.9379     7436.9232     7456.9525  35.117343  81.770094  -0.000115  -0.001340
1 62247U 24232L   25096.47041162  .00000135  00000-0  19079-3 0  9999 | 2 62247  88.9922  66.6301 0013563 194.5070 165.5693 13.50940573 65426 | 2025/04/06-11:17:23  297.6418    0.1150  165.6080  106.5924     7446.9370     7436.8367     7457.0372  35.300153  81.691559  -0.000209  -0.001340
1 62247U 24232L   25097.50734448  .00000122  00000-0  17118-3 0  9998 | 2 62247  88.9924  66.5246 0013667 191.2983 168.7863 13.50940813 65563 | 2025/04/07-12:10:34  312.0569    0.1150  168.8167  106.5924     7446.9361     7436.7584     7457.1138  35.450593  81.626605  -0.000288  -0.001336
1 62247U 24232L   25098.54427723  .00000112  00000-0  15567-3 0  9993 | 2 62247  88.9925  66.4191 0013773 188.1254 171.9676 13.50941035 65707 | 2025/04/08-13:03:45  326.4718    0.1150  171.9896  106.5924     7446.9353     7436.6786     7457.1919  35.600874  81.561283  -0.000367  -0.001327
1 62247U 24232L   25099.58120971  .00000119  00000-0  16558-3 0  9991 | 2 62247  88.9927  66.3136 0013878 185.0209 175.0805 13.50941337 65848 | 2025/04/09-13:56:56  340.8867    0.1150  175.0941  106.5923     7446.9342     7436.5993     7457.2690  35.751075  81.495775  -0.000444  -0.001315
1 62247U 24232L   25100.84034187  .00000121  00000-0  16819-3 0  9999 | 2 62247  88.9930  66.1856 0014010 181.2586 178.8532 13.50941665 66016 | 2025/04/10-20:10:05   75.5329    0.1150  178.8564  106.5923     7446.9330     7436.4998     7457.3661  35.933170  81.415977  -0.000537  -0.001294
1 62247U 24232L   25101.87727403  .00000125  00000-0  17464-3 0  9994 | 2 62247  88.9932  66.0802 0014119 178.1832 181.9373 13.50941938 66153 | 2025/04/11-21:03:16   89.9472    0.1150  181.9318  106.5923     7446.9320     7436.4176     7457.4463  36.082961  81.349921  -0.000613  -0.001272
1 62247U 24232L   25102.91420607  .00000125  00000-0  17489-3 0  9993 | 2 62247  88.9934  65.9748 0014228 175.1244 185.0048 13.50942174 66299 | 2025/04/12-21:56:27  104.3615    0.1150  184.9906  106.5923     7446.9311     7436.3356     7457.5266  36.232631  81.283588  -0.000688  -0.001246
1 62247U 24232L   25104.83993658  .00000134  00000-0  18904-3 0  9990 | 2 62247  88.9938  65.7791 0014434 169.5088 190.6367 13.50942626 66558 | 2025/04/14-20:09:30   79.7020    0.1150  190.6062  106.5922     7446.9294     7436.1805     7457.6783  36.510216  81.159723  -0.000822  -0.001187
1 62247U 24232L   25105.87686808  .00000143  00000-0  20332-3 0  9999 | 2 62247  88.9939  65.6738 0014542 166.5285 193.6257 13.50942915 66692 | 2025/04/15-21:02:41   94.1160    0.1150  193.5865  106.5922     7446.9284     7436.0990     7457.7577  36.659353  81.092577  -0.000891  -0.001149
1 62247U 24232L   25106.91379908  .00000217  00000-0  31807-3 0  9996 | 2 62247  88.9941  65.5684 0014657 163.5170 196.6460 13.50943612 66831 | 2025/04/16-21:55:52  108.5298    0.1150  196.5980  106.5922     7446.9258     7436.0108     7457.8408  36.808550  81.025184  -0.000960  -0.001108
1 62247U 24232L   25108.17292986  .00000156  00000-0  22335-3 0  9994 | 2 62247  88.9942  65.4406 0014792 159.9712 200.2023 13.50943543 67004 | 2025/04/18-04:09:01  203.1752    0.1151  200.1439  106.5922     7446.9261     7435.9106     7457.9415  36.989229  80.942971  -0.001038  -0.001053
1 62247U 24232L   25109.20986062  .00000145  00000-0  20652-3 0  9992 | 2 62247  88.9943  65.3353 0014897 157.0593 203.1227 13.50943790 67144 | 2025/04/19-05:02:11  217.5892    0.1151  203.0558  106.5921     7446.9251     7435.8315     7458.0188  37.137968  80.874945  -0.001100  -0.001004
1 62247U 24232L   25110.46899035  .00000161  00000-0  23047-3 0  9994 | 2 62247  88.9945  65.2074 0015033 153.5282 206.6640 13.50944223 67312 | 2025/04/20-11:15:20  312.2346    0.1150  206.5868  106.5921     7446.9236     7435.7286     7458.1185  37.318494  80.792023  -0.001173  -0.000941
1 62247U 24232L   25111.50592046  .00000161  00000-0  23066-3 0  9993 | 2 62247  88.9946  65.1022 0015138 150.6559 209.5445 13.50944553 67452 | 2025/04/21-12:08:31  326.6485    0.1150  209.4591  106.5921     7446.9223     7435.6492     7458.1955  37.466814  80.723458  -0.001228  -0.000885
1 62247U 24232L   25112.54285026  .00000149  00000-0  21219-3 0  9999 | 2 62247  88.9948  64.9969 0015228 147.7601 212.4484 13.50944849 67595 | 2025/04/22-13:01:42  341.0625    0.1150  212.3549  106.5921     7446.9213     7435.5811     7458.2614  37.615192  80.654645  -0.001281  -0.000824
1 62247U 24232L   25113.80197891  .00000153  00000-0  21832-3 0  9997 | 2 62247  88.9950  64.8692 0015358 144.3323 215.8857 13.50945249 67763 | 2025/04/23-19:14:50   75.7080    0.1150  215.7827  106.5920     7446.9198     7435.4828     7458.3568  37.794945  80.570790  -0.001341  -0.000749
1 62247U 24232L   25114.91297437  .00000159  00000-0  22776-3 0  9991 | 2 62247  88.9952  64.7564 0015465 141.3347 218.8914 13.50945634 67916 | 2025/04/24-21:54:40  116.8662    0.1150  218.7803  106.5920     7446.9184     7435.4017     7458.4350  37.953579  80.496407  -0.001389  -0.000680
1 62247U 24232L   25116.46836758  .00000162  00000-0  23227-3 0  9994 | 2 62247  88.9954  64.5987 0015611 137.1616 223.0754 13.50946104 68127 | 2025/04/26-11:14:26  318.4876    0.1150  222.9534  106.5920     7446.9166     7435.2913     7458.5420  38.175078  80.391820  -0.001450  -0.000579
1 62247U 24232L   25117.50529605  .00000168  00000-0  24182-3 0  9997 | 2 62247  88.9956  64.4935 0015713 134.3772 225.8669 13.50946454 68264 | 2025/04/27-12:07:37  332.9020    0.1150  225.7378  106.5919     7446.9154     7435.2140     7458.6167  38.322706  80.321772  -0.001487  -0.000508
1 62247U 24232L   25118.54222419  .00000166  00000-0  23758-3 0  9991 | 2 62247  88.9957  64.3883 0015810 131.6113 228.6395 13.50946748 68402 | 2025/04/28-13:00:48  347.3167    0.1150  228.5037  106.5919     7446.9143     7435.1407     7458.6878  38.470162  80.251363  -0.001520  -0.000436
1 62247U 24232L   25121.80113907  .00000184  00000-0  26619-3 0  9994 | 2 62247  88.9960  64.0578 0016078 123.0267 237.2432 13.50947846 68842 | 2025/05/01-19:13:38   84.0496    0.1151  237.0884  106.5918     7446.9102     7434.9371     7458.8834  38.932566  80.028391  -0.001596  -0.000198
1 62247U 24232L   25122.91213195  .00000175  00000-0  25231-3 0  9996 | 2 62247  88.9962  63.9452 0016164 120.1336 240.1419 13.50948214 68998 | 2025/05/02-21:53:28  125.2090    0.1150  239.9814  106.5918     7446.9089     7434.8717     7458.9461  39.089853  79.951904  -0.001612  -0.000115
1 62247U 24232L   25124.54158751  .00000166  00000-0  23881-3 0  9992 | 2 62247  88.9964  63.7801 0016284 115.9153 244.3678 13.50948706 69213 | 2025/05/04-12:59:53  353.5766    0.1150  244.1997  106.5918     7446.9071     7434.7805     7459.0336  39.320164  79.839113  -0.001628   0.000009
1 62247U 24232L   25125.87477772  .00000155  00000-0  22151-3 0  9993 | 2 62247  88.9965  63.6450 0016363 112.4703 247.8183 13.50949127 69390 | 2025/05/05-20:59:40  114.9687    0.1151  247.6448  106.5917     7446.9055     7434.7202     7459.0909  39.508354  79.746266  -0.001633   0.000111
1 62247U 24232L   25126.91170316  .00000140  00000-0  19724-3 0  9999 | 2 62247  88.9967  63.5399 0016426 109.8119 250.4804 13.50949402 69536 | 2025/05/06-21:52:51  129.3853    0.1150  250.3031  106.5917     7446.9045     7434.6722     7459.1368  39.654659  79.673839  -0.001632   0.000190
1 62247U 24232L   25128.17082649  .00000149  00000-0  21201-3 0  9992 | 2 62247  88.9968  63.4123 0016498 106.5971 253.6994 13.50949791 69705 | 2025/05/08-04:05:59  224.0342    0.1152  253.5181  106.5917     7446.9031     7434.6172     7459.1890  39.832042  79.585419  -0.001625   0.000286
1 62247U 24232L   25129.28181720  .00000167  00000-0  24038-3 0  9996 | 2 62247  88.9969  63.2997 0016554 103.7736 256.5258 13.50950199 69859 | 2025/05/09-06:45:49  265.1956    0.1150  256.3414  106.5916     7446.9016     7434.5740     7459.2292  39.988414  79.507075  -0.001613   0.000370
1 62247U 24232L   25130.54093962  .00000167  00000-0  24025-3 0  9993 | 2 62247  88.9971  63.1723 0016607 100.5642 259.7381 13.50950558 70020 | 2025/05/10-12:58:57  359.8452    0.1151  259.5509  106.5916     7446.9003     7434.5332     7459.2673  40.165193  79.418141  -0.001594   0.000465
1 62247U 24232L   25131.57786361  .00000159  00000-0  22760-3 0  9994 | 2 62247  88.9972  63.0673 0016653  97.9392 262.3650 13.50950847 70161 | 2025/05/11-13:52:07   14.2630    0.1151  262.1759  106.5916     7446.8992     7434.4979     7459.3005  40.310713  79.344490  -0.001575   0.000542
1 62247U 24232L   25132.83698514  .00000167  00000-0  23914-3 0  9997 | 2 62247  88.9974  62.9398 0016697  94.7523 265.5535 13.50951252 70331 | 2025/05/12-20:05:15  108.9137    0.1151  265.3628  106.5916     7446.8977     7434.4636     7459.3318  40.487268  79.254768  -0.001545   0.000634
1 62247U 24232L   25133.87390839  .00000157  00000-0  22450-3 0  9994 | 2 62247  88.9974  62.8348 0016726  92.1325 268.1742 13.50951550 70475 | 2025/05/13-20:58:25  123.3322    0.1151  267.9826  106.5915     7446.8966     7434.4409     7459.3523  40.632442  79.180438  -0.001515   0.000708
1 62247U 24232L   25134.91083126  .00000169  00000-0  24248-3 0  9998 | 2 62247  88.9974  62.7298 0016749  89.4955 270.8115 13.50951893 70611 | 2025/05/14-21:51:35  137.7512    0.1151  270.6196  106.5915     7446.8954     7434.4226     7459.3682  40.777480  79.105843  -0.001482   0.000780
1 62247U 24232L   25136.16995145  .00000165  00000-0  23712-3 0  9991 | 2 62247  88.9974  62.6024 0016773  86.3289 273.9780 13.50952282 70783 | 2025/05/16-04:04:43  232.4030    0.1151  273.7862  106.5915     7446.8939     7434.4033     7459.3846  40.953275  79.014976  -0.001437   0.000866
1 62247U 24232L   25137.20687357  .00000188  00000-0  27238-3 0  9992 | 2 62247  88.9974  62.4973 0016793  83.7389 276.5674 13.50952733 70926 | 2025/05/17-04:57:53  246.8227    0.1151  276.3762  106.5914     7446.8923     7434.3867     7459.3978  41.098146  78.939721  -0.001396   0.000933
1 62247U 24232L   25138.54005849  .00000189  00000-0  27457-3 0  9994 | 2 62247  88.9975  62.3623 0016812  80.4104 279.8946 13.50953189 71104 | 2025/05/18-12:57:41    8.2196    0.1151  279.7047  106.5914     7446.8906     7434.3709     7459.4103  41.284075  78.842756  -0.001339   0.001017
1 62247U 24232L   25139.57697982  .00000161  00000-0  22982-3 0  9991 | 2 62247  88.9975  62.2573 0016815  77.8056 282.4977 13.50953385 71243 | 2025/05/19-13:50:51   22.6400    0.1151  282.3095  106.5914     7446.8899     7434.3679     7459.4118  41.428493  78.766966  -0.001289   0.001079
1 62247U 24232L   25140.83609797  .00000154  00000-0  21903-3 0  9993 | 2 62247  88.9976  62.1299 0016801  74.6304 285.6702 13.50953795 71419 | 2025/05/20-20:03:58  117.2937    0.1151  285.4847  106.5914     7446.8884     7434.3769     7459.3999  41.603579  78.674742  -0.001224   0.001151
1 62247U 24232L   25142.53961008  .00000157  00000-0  22511-3 0  9997 | 2 62247  88.9977  61.9575 0016779  70.3451 289.9509 13.50954312 71647 | 2025/05/22-12:57:02   12.4141    0.1151  289.7700  106.5913     7446.8865     7434.3913     7459.3816  41.840166  78.549291  -0.001129   0.001241
1 62247U 24232L   25143.57653012  .00000149  00000-0  21169-3 0  9994 | 2 62247  88.9977  61.8525 0016762  67.7329 292.5598 13.50954574 71780 | 2025/05/23-13:50:12   26.8357    0.1152  292.3823  106.5913     7446.8855     7434.4030     7459.3680  41.984045  78.472483  -0.001068   0.001292
1 62247U 24232L   25144.61344987  .00000141  00000-0  19998-3 0  9997 | 2 62247  88.9977  61.7475 0016741  65.1367 295.1523 13.50954855 71929 | 2025/05/24-14:43:22   41.2575    0.1152  294.9785  106.5913     7446.8845     7434.4177     7459.3513  42.127782  78.395412  -0.001005   0.001339
1 62247U 24232L   25145.87256625  .00000154  00000-0  22013-3 0  9993 | 2 62247  88.9978  61.6200 0016710  61.9713 298.3126 13.50955256 72099 | 2025/05/25-20:56:29  135.9131    0.1152  298.1439  106.5912     7446.8830     7434.4393     7459.3268  42.302178  78.301559  -0.000925   0.001392
1 62247U 24232L   25147.87233845  .00000158  00000-0  22607-3 0  9997 | 2 62247  88.9977  61.4175 0016641  56.9226 303.3520 13.50955835 72361 | 2025/05/27-20:56:10  138.0139    0.1151  303.1925  106.5912     7446.8809     7434.4885     7459.2732  42.578606  78.151474  -0.000790   0.001465
1 62247U 24232L   25148.98332247  .00000160  00000-0  22983-3 0  9996 | 2 62247  88.9977  61.3051 0016600  54.1442 306.1248 13.50956187 72514 | 2025/05/28-23:35:59  179.1812    0.1152  305.9710  106.5912     7446.8796     7434.5178     7459.2414  42.731838  78.067795  -0.000713   0.001499
1 62247U 24232L   25150.53869945  .00000166  00000-0  23910-3 0  9997 | 2 62247  88.9977  61.1476 0016518  50.1486 310.1115 13.50956666 72728 | 2025/05/30-12:55:43   20.8164    0.1151  309.9665  106.5911     7446.8778     7434.5771     7459.1786  42.946276  77.950035  -0.000600   0.001539
1 62247U 24232L   25151.57561697  .00000167  00000-0  23957-3 0  9997 | 2 62247  88.9977  61.0426 0016461  47.4704 312.7834 13.50957009 72864 | 2025/05/31-13:48:53   35.2400    0.1152  312.6448  106.5911     7446.8766     7434.6183     7459.1349  43.089055  77.871201  -0.000523   0.001561
1 62247U 24232L   25152.83473060  .00000179  00000-0  25793-3 0  9996 | 2 62247  88.9976  60.9151 0016384  44.3055 315.9404 13.50957551 73035 | 2025/06/01-20:02:00  129.8974    0.1151  315.8096  106.5911     7446.8746     7434.6736     7459.0755  43.262186  77.775035  -0.000430   0.001581
1 62247U 24232L   25154.16790918  .00000180  00000-0  25971-3 0  9998 | 2 62247  88.9976  60.7802 0016297  40.9329 319.3043 13.50958072 73211 | 2025/06/03-04:01:47  251.2993    0.1152  319.1823  106.5910     7446.8727     7434.7365     7459.0088  43.445183  77.672961  -0.000331   0.001596
1 62247U 24232L   25155.20482554  .00000157  00000-0  22450-3 0  9991 | 2 62247  88.9976  60.6752 0016222  38.1716 322.0581 13.50958279 73353 | 2025/06/04-04:54:56  265.7237    0.1152  321.9436  106.5910     7446.8719     7434.7916     7458.9522  43.587453  77.593213  -0.000249   0.001603
1 62247U 24232L   25156.53800326  .00000158  00000-0  22579-3 0  9992 | 2 62247  88.9977  60.5402 0016120  34.6940 325.5260 13.50958696 73537 | 2025/06/05-12:54:43   27.1265    0.1153  325.4213  106.5910     7446.8704     7434.8660     7458.8747  43.770206  77.490384  -0.000147   0.001605
1 62247U 24232L   25157.57491891  .00000156  00000-0  22332-3 0  9995 | 2 62247  88.9977  60.4352 0016038  31.9796 328.2325 13.50959027 73673 | 2025/06/06-13:47:52   41.5510    0.1152  328.1356  106.5909     7446.8692     7434.9259     7458.8124  43.912141  77.410041  -0.000068   0.001602
1 62247U 24232L   25158.90809582  .00000149  00000-0  21188-3 0  9993 | 2 62247  88.9976  60.3001 0015925  28.4974 331.7044 13.50959403 73850 | 2025/06/07-21:47:39  162.9542    0.1151  331.6177  106.5909     7446.8678     7435.0086     7458.7269  44.094497  77.306197   0.000033   0.001592
1 62247U 24232L   25160.83380404  .00000100  00000-0  13665-3 0  9993 | 2 62247  88.9975  60.1051 0015697  23.1060 337.0793 13.50939705 74119 | 2025/06/09-20:00:40  138.3187    0.1151  337.0091  106.5925     7446.9402     7435.2507     7458.6296  44.357295  77.155592   0.000186   0.001559
1 62247U 24232L   25161.87073414  .00000125  00000-0  17446-3 0  9996 | 2 62247  88.9974  60.0001 0015598  20.3831 339.7940 13.50940054 74254 | 2025/06/10-20:53:51  152.7488    0.1153  339.7322  106.5924     7446.9389     7435.3231     7458.5546  44.498565  77.074087   0.000261   0.001538
1 62247U 24232L   25163.20392972  .00000140  00000-0  19873-3 0  9991 | 2 62247  88.9972  59.8650 0015467  16.7784 343.3876 13.50940415 74439 | 2025/06/12-04:53:39  274.1594    0.1152  343.3368  106.5924     7446.9375     7435.4194     7458.4557  44.680077  76.968775   0.000357   0.001505
1 62247U 24232L   25164.46305817  .00000187  00000-0  27163-3 0  9994 | 2 62247  88.9971  59.7374 0015336  13.3915 346.7640 13.50941064 74600 | 2025/06/13-11:06:48    8.8248    0.1152  346.7237  106.5924     7446.9352     7435.5145     7458.3558  44.851328  76.868993   0.000445   0.001468
1 62247U 24232L   25165.49998765  .00000151  00000-0  21571-3 0  9996 | 2 62247  88.9970  59.6323 0015232  10.5469 349.5999 13.50941103 74747 | 2025/06/14-11:59:58   23.2553    0.1152  349.5683  106.5924     7446.9350     7435.5918     7458.2782  44.992206  76.786505   0.000516   0.001433
1 62247U 24232L   25166.53691667  .00000135  00000-0  19058-3 0  9992 | 2 62247  88.9969  59.5273 0015132   7.6748 352.4632 13.50941337 74885 | 2025/06/15-12:53:09   37.6856    0.1152  352.4404  106.5923     7446.9342     7435.6655     7458.2029  45.132799  76.703838   0.000586   0.001395
1 62247U 24232L   25167.57384556  .00000125  00000-0  17488-3 0  9997 | 2 62247  88.9969  59.4222 0015021   4.8079 355.3214 13.50941564 75028 | 2025/06/16-13:46:20   52.1158    0.1152  355.3073  106.5923     7446.9333     7435.7473     7458.1194  45.273424  76.620920   0.000653   0.001353
1 62247U 24232L   25168.90703949  .00000117  00000-0  16214-3 0  9993 | 2 62247  88.9968  59.2871 0014871   1.1057 359.0124 13.50941873 75207 | 2025/06/17-21:46:08  173.5260    0.1152  359.0095  106.5923     7446.9322     7435.8579     7458.0065  45.453914  76.513869   0.000735   0.001293
1 62247U 24232L   25170.46243215  .00000109  00000-0  15034-3 0  9992 | 2 62247  88.9967  59.1294 0014695 356.7347   3.3706 13.50942203 75415 | 2025/06/19-11:05:54   15.1709    0.1152    3.3805  106.5923     7446.9310     7435.9877     7457.8742  45.664286  76.388387   0.000825   0.001216
1 62247U 24232L   25171.49936045  .00000105  00000-0  14422-3 0  9992 | 2 62247  88.9966  59.0243 0014579 353.7993   6.2975 13.50942382 75555 | 2025/06/20-11:59:04   29.6008    0.1152    6.3159  106.5923     7446.9303     7436.0734     7457.7872  45.804280  76.304409   0.000881   0.001162
1 62247U 24232L   25172.53628868  .00000089  00000-0  11872-3 0  9996 | 2 62247  88.9965  58.9191 0014464 350.7972   9.2912 13.50942504 75696 | 2025/06/21-12:52:15   44.0306    0.1152    9.3180  106.5922     7446.9299     7436.1586     7457.7011  45.944252  76.220094   0.000935   0.001103
1 62247U 24232L   25173.57321678  .00000100  00000-0  13660-3 0  9991 | 2 62247  88.9964  58.8139 0014349 347.7998  12.2804 13.50942712 75833 | 2025/06/22-13:45:25   58.4601    0.1152   12.3154  106.5922     7446.9291     7436.2435     7457.6147  46.084070  76.135522   0.000986   0.001043
1 62247U 24232L   25174.61014481  .00000095  00000-0  12948-3 0  9999 | 2 62247  88.9963  58.7087 0014233 344.7684  15.3037 13.50942869 75974 | 2025/06/23-14:38:36   72.8896    0.1152   15.3468  106.5922     7446.9285     7436.3293     7457.5277  46.223731  76.050694   0.001033   0.000979
1 62247U 24232L   25175.86927159  .00000100  00000-0  13649-3 0  9998 | 2 62247  88.9962  58.5810 0014093 341.0572  19.0053 13.50943079 76148 | 2025/06/24-20:51:45  167.5536    0.1152   19.0580  106.5922     7446.9278     7436.4328     7457.4227  46.393065  75.947397   0.001085   0.000899
1 62247U 24232L   25176.90619943  .00000096  00000-0  13093-3 0  9990 | 2 62247  88.9961  58.4758 0013975 337.9703  22.0846 13.50943228 76280 | 2025/06/25-21:44:55  181.9824    0.1152   22.1449  106.5922     7446.9272     7436.5201     7457.3343  46.532380  75.862002   0.001124   0.000830
1 62247U 24232L   25178.16532589  .00000116  00000-0  16163-3 0  9994 | 2 62247  88.9960  58.3480 0013835 334.1800  25.8659 13.50943533 76453 | 2025/06/27-03:58:04  276.6458    0.1152   25.9352  106.5922     7446.9261     7436.6233     7457.2289  46.701425  75.757937   0.001166   0.000744
1 62247U 24232L   25179.20225352  .00000094  00000-0  12766-3 0  9997 | 2 62247  88.9958  58.2428 0013725 331.0503  28.9885 13.50943638 76591 | 2025/06/28-04:51:14  291.0741    0.1151   29.0648  106.5922     7446.9257     7436.7048     7457.1466  46.840339  75.671891   0.001197   0.000672
1 62247U 24232L   25180.53544606  .00000085  00000-0  11358-3 0  9997 | 2 62247  88.9957  58.1075 0013592 326.9601  33.0699 13.50943807 76779 | 2025/06/29-12:51:02   52.4816    0.1151   33.1550  106.5921     7446.9251     7436.8032     7457.0469  47.018849  75.560985   0.001231   0.000576
1 62247U 24232L   25181.57237343  .00000087  00000-0  11634-3 0  9998 | 2 62247  88.9956  58.0023 0013487 323.7482  36.2754 13.50944018 76913 | 2025/06/30-13:44:13   66.9091    0.1152   36.3670  106.5921     7446.9243     7436.8806     7456.9680  47.157453  75.474442   0.001253   0.000500
1 62247U 24232L   25182.60930078  .00000088  00000-0  11790-3 0  9992 | 2 62247  88.9956  57.8970 0013378 320.5094  39.5081 13.50944222 77056 | 2025/07/01-14:37:23   81.3364    0.1152   39.6058  106.5921     7446.9236     7436.9611     7456.8861  47.296083  75.387647   0.001269   0.000422
1 62247U 24232L   25183.94249297  .00000084  00000-0  11112-3 0  9990 | 2 62247  88.9955  57.7617 0013255 316.3066  43.7035 13.50944422 77236 | 2025/07/02-22:37:11  202.7423    0.1152   43.8086  106.5921     7446.9228     7437.0519     7456.7937  47.473920  75.275666   0.001286   0.000322
1 62247U 24232L   25185.57195008  .00000078  00000-0  10257-3 0  9993 | 2 62247  88.9954  57.5963 0013110 311.0999  48.9019 13.50944636 77454 | 2025/07/04-13:43:36   71.1267    0.1151   49.0152  106.5921     7446.9220     7437.1591     7456.6850  47.690972  75.138222   0.001296   0.000198
1 62247U 24232L   25186.60887731  .00000071  00000-0  91535-4 0  9991 | 2 62247  88.9953  57.4910 0013020 307.7660  52.2311 13.50944763 77590 | 2025/07/05-14:36:46   85.5525    0.1152   52.3492  106.5921     7446.9216     7437.2257     7456.6175  47.828929  75.050363   0.001297   0.000119
1 62247U 24232L   25187.64580450  .00000073  00000-0  94987-4 0  9990 | 2 62247  88.9952  57.3857 0012937 304.4049  55.5878 13.50944914 77737 | 2025/07/06-15:29:57   99.9780    0.1151   55.7102  106.5921     7446.9210     7437.2869     7456.5551  47.966724  74.962250   0.001293   0.000040
1 62247U 24232L   25188.90493039  .00000079  00000-0  10422-3 0  9993 | 2 62247  88.9950  57.2578 0012853 300.3013  59.6866 13.50945051 77901 | 2025/07/07-21:43:05  194.6371    0.1152   59.8139  106.5920     7446.9205     7437.3490     7456.4920  48.133833  74.854820   0.001284  -0.000055
1 62247U 24232L   25190.16405621  .00000082  00000-0  10811-3 0  9990 | 2 62247  88.9948  57.1299 0012764 296.1511  63.8327 13.50945251 78073 | 2025/07/09-03:56:14  289.2955    0.1152   63.9641  106.5920     7446.9198     7437.4145     7456.4250  48.300701  74.747018   0.001268  -0.000149
1 62247U 24232L   25191.20098334  .00000092  00000-0  12402-3 0  9994 | 2 62247  88.9947  57.0246 0012710 292.7168  67.2639 13.50945412 78213 | 2025/07/10-04:49:24  303.7197    0.1151   67.3983  106.5920     7446.9192     7437.4542     7456.3842  48.437937  74.658039   0.001251  -0.000226
