# SPACE DATA - HISTORICAL TLEs
# ----------------------------
# NORAD_ID    : 61559
# OBJECT_NAME : QIANFAN-26
# --------------------------------------------------------------------+-----------------------------------------------------------------------+----------------------------------------------------------------------------------------------------------------------------------------
#                  LINE 1                                             |                 LINE 2                                                |      DERIVED PARAMETERS
# --------------------------------------------------------------------+-----------------------------------------------------------------------+----------------------------------------------------------------------------------------------------------------------------------------
# NORAD  COSPAR     TLE_EPOCH      MEANMOT1 MEANMOT2   BSTAR  #  REV  |   NORAD    INC     RAAN     ECC    ARGPER  MEANANOM   MEANMOT     REV |  CAL_DATE              LONG     ARGLAT     PERIOD        SMA         PERIGEE        APOGEE      INC_X      INC_Y      ECC_X      ECC_Y
# ------ ------   -------------- ----------  -------  ------- -- ----     -----  ------- -------- ------- -------- -------- -----------  ----   ------------------- ---------  --------  --------  ------------  ------------   ----------- ---------- ----------  ---------  ---------   
1 62578U 25007D   25013.45808752 -.00000210  00000-0  00000+0 0  9995 | 2 62578  54.9857 126.8736 0011965 295.4748 154.0177 14.75558154    46 | 2025/01/13-10:59:38   61.7246   89.5525  154.0777   97.5902     7021.5170     7013.1158     7029.9183 -32.994262  43.986428   0.000555   0.001060
1 62578U 25007D   25014.59284672  .00002793  00000-0  43656-3 0  9995 | 2 62578  54.9865 122.2400 0012324 301.7432  58.2366 14.75574016   213 | 2025/01/14-14:13:41  205.5026    0.1000   58.3568   97.5891     7021.4667     7012.8135     7030.1200 -29.333478  46.508733   0.000541   0.001108
1 62578U 25007D   25015.60896247  .00000646  00000-0  12457-3 0  9995 | 2 62578  54.9857 118.0902 0012472 305.2825  54.7008 14.75566610   364 | 2025/01/15-14:36:54  216.4521    0.1000   54.8175   97.5896     7021.4902     7012.7330     7030.2474 -25.890621  48.508792   0.000559   0.001115
1 62578U 25007D   25017.57344993  .00000790  00000-0  14545-3 0  9999 | 2 62578  54.9856 110.0683 0012613 310.5085  49.4815 14.75580563   657 | 2025/01/17-13:45:46  213.6191    0.1000   49.5915   97.5887     7021.4460     7012.5898     7030.3021 -18.867763  51.647108   0.000620   0.001099
1 62578U 25007D   25018.75175813  .00001020  00000-0  17893-3 0  9999 | 2 62578  54.9862 105.2541 0012339 310.6688 191.2962 14.75580378   820 | 2025/01/18-18:02:31  141.8107  141.9373  191.2685   97.5887     7021.4465     7012.7828     7030.1103 -14.466883  53.048954   0.000691   0.001022
1 62578U 25007D   25021.70574106  .00004343  00000-0  66352-3 0  9991 | 2 62578  54.9813  93.1913 0013034 323.1737  36.8366 14.75446538  1261 | 2025/01/21-16:56:16  282.1736    0.1000   36.9263   97.5976     7021.8712     7012.7188     7031.0235  -3.060803  54.896037   0.000722   0.001085
1 62578U 25007D   25023.33162963  .00004070  00000-0  62078-3 0  9994 | 2 62578  54.9817  86.5542 0014223 328.7122  31.3029 14.75651633  1506 | 2025/01/23-07:57:32  155.7283    0.0999   31.3877   97.5840     7021.2205     7011.2342     7031.2068   3.304637  54.882299   0.000810   0.001169
1 62578U 25007D   25024.48302231  .00004371  00000-0  65945-3 0  9995 | 2 62578  54.9815  81.8483 0014652 333.1468  26.8772 14.75975044  1672 | 2025/01/24-11:35:33  216.0616    0.1000   26.9532   97.5626     7020.1948     7009.9088     7030.4808   7.796075  54.425973   0.000841   0.001200
1 62578U 25007D   25025.56653258  .00003976  00000-0  60162-3 0  9999 | 2 62578  54.9816  77.4200 0014496 336.7041  23.3300 14.76052269  1836 | 2025/01/25-13:35:48  251.6114    0.1000   23.3959   97.5575     7019.9500     7009.7738     7030.1261  11.975134  53.661648   0.000850   0.001175
1 62578U 25007D   25027.12377175  .00003961  00000-0  59241-3 0  9994 | 2 62578  54.9885  71.0567 0017420 335.7665  24.2515 14.76533497  2060 | 2025/01/27-02:58:13  100.1318    0.1002   24.3337   97.5257     7018.4246     7006.1985     7030.6507  17.851044  52.010339   0.001192   0.001270
1 62578U 25007D   25028.27446392  .00004238  00000-0  62862-3 0  9990 | 2 62578  54.9814  66.3445 0015599 342.5186  17.5275 14.76765771  2232 | 2025/01/28-06:35:13  160.1993    0.1000   17.5814   97.5104     7017.6887     7006.7418     7028.6355  22.060544  50.361560   0.001026   0.001175
1 62578U 25007D   25029.56050063  .00003477  00000-0  52106-3 0  9993 | 2 62578  54.9812  61.0820 0015735 345.6790  14.3762 14.76775388  2428 | 2025/01/29-13:27:07  269.6935    0.1001   14.4211   97.5098     7017.6582     7006.6159     7028.7005  26.586566  48.125740   0.001078   0.001146
1 62578U 25007D   25030.57578662  .00003600  00000-0  53834-3 0  9993 | 2 62578  54.9812  56.9274 0015843 348.1338  11.9286 14.76783609  2575 | 2025/01/30-13:49:07  280.3445    0.1000   11.9662   97.5092     7017.6321     7006.5141     7028.7502  30.003311  46.073134   0.001119   0.001121
1 62578U 25007D   25031.59106794  .00003665  00000-0  54741-3 0  9998 | 2 62578  54.9814  52.7727 0015958 350.5334   9.5363 14.76791107  2722 | 2025/01/31-14:11:08  290.9939    0.1001    9.5667   97.5087     7017.6084     7006.4097     7028.8071  33.262569  43.778486   0.001161   0.001095
1 62578U 25007D   25032.80939808  .00003905  00000-0  58108-3 0  9991 | 2 62578  54.9816  47.7869 0016110 353.4719   6.6068 14.76800765  2906 | 2025/02/01-19:25:31   15.7704    0.1000    6.6281   97.5081     7017.5778     7006.2725     7028.8831  36.941584  40.722177   0.001211   0.001062
1 62578U 25007D   25033.82466720  .00003795  00000-0  56543-3 0  9990 | 2 62578  54.9818  43.6323 0016212 355.8531   4.2332 14.76808626  3058 | 2025/02/02-19:47:31   26.4150    0.1000    4.2469   97.5076     7017.5529     7006.1760     7028.9297  39.794891  37.938964   0.001251   0.001031
1 62578U 25007D   25034.83993071  .00003715  00000-0  55403-3 0  9992 | 2 62578  54.9820  39.4778 0016328 358.2534   1.8407 14.76816633  3206 | 2025/02/03-20:09:30   37.0573    0.1001    1.8467   97.5070     7017.5275     7006.0693     7028.9857  42.439010  34.956412   0.001291   0.000999
1 62578U 25007D   25036.19360646  .00003612  00000-0  53937-3 0  9995 | 2 62578  54.9822  33.9383 0016477   1.4387 358.6658 14.76827408  3402 | 2025/02/05-04:38:47  171.2439    0.1001  358.6614   97.5063     7017.4934     7005.9307     7029.0561  45.615392  30.696552   0.001343   0.000954
1 62578U 25007D   25037.61495698  .00003663  00000-0  54648-3 0  9995 | 2 62578  54.9821  28.1223 0016680   4.8113 355.3045 14.76837808  3612 | 2025/02/06-14:45:32  330.1357    0.1001  355.2888   97.5056     7017.4604     7005.7553     7029.1656  48.491104  25.916097   0.001400   0.000907
1 62578U 25007D   25038.83324936  .00003635  00000-0  54233-3 0  9995 | 2 62578  54.9823  23.1367 0016845   7.5624 352.5627 14.76846528  3791 | 2025/02/07-19:59:52   54.8981    0.1001  352.5377   97.5051     7017.4328     7005.6120     7029.2537  50.560074  21.603987   0.001448   0.000860
1 62578U 25007D   25039.91616996  .00003338  00000-0  50053-3 0  9991 | 2 62578  54.9823  18.7048 0016877   9.9814 350.1518 14.76853359  3950 | 2025/02/08-21:59:17   90.2407    0.1001  350.1187   97.5046     7017.4112     7005.5679     7029.2545  52.078323  17.632403   0.001481   0.000810
1 62578U 25007D   25040.93140315  .00003943  00000-0  58549-3 0  9992 | 2 62578  54.9824  14.5500 0016975  12.2796 347.8615 14.76861882  4102 | 2025/02/09-22:21:13  100.8722    0.1001  347.8205   97.5040     7017.3842     7005.4722     7029.2962  53.219047  13.812941   0.001515   0.000766
1 62578U 25007D   25042.14967548  .00003964  00000-0  58839-3 0  9997 | 2 62578  54.9826   9.5644 0017091  14.9954 345.1549 14.76871086  4285 | 2025/02/11-03:35:31  185.6274    0.1000  345.1046   97.5034     7017.3550     7005.3617     7029.3484  54.218313   9.135693   0.001554   0.000710
1 62578U 25007D   25043.16489623  .00003623  00000-0  54020-3 0  9993 | 2 62578  54.9828   5.4096 0017208  17.2850 342.8732 14.76878580  4435 | 2025/02/12-03:57:27  196.2544    0.1000  342.8150   97.5029     7017.3313     7005.2559     7029.4067  54.737917   5.183510   0.001588   0.000664
1 62578U 25007D   25044.18011198  .00003502  00000-0  52311-3 0  9991 | 2 62578  54.9830   1.2550 0017319  19.5488 340.6173 14.76885982  4587 | 2025/02/13-04:19:21  206.8794    0.1001  340.5513   97.5024     7017.3078     7005.1546     7029.4611  54.969811   1.204245   0.001619   0.000615
1 62578U 25007D   25045.19532212  .00004102  00000-0  60747-3 0  9997 | 2 62578  54.9831 357.1004 0017405  21.7673 338.4064 14.76895162  4734 | 2025/02/14-04:41:15  217.5027    0.1002  338.3329   97.5018     7017.2788     7005.0652     7029.4923  54.912706  -2.781373   0.001647   0.000563
1 62578U 25007D   25046.41356618  .00004681  00000-0  68862-3 0  9995 | 2 62578  54.9832 352.1151 0017547  24.5000 335.6831 14.76906804  4912 | 2025/02/15-09:55:32  302.2473    0.1001  335.6001   97.5011     7017.2419     7004.9287     7029.5550  54.463370  -7.542788   0.001681   0.000502
1 62578U 25007D   25047.56412031  .00004611  00000-0  67862-3 0  9996 | 2 62578  54.9831 347.4065 0017645  27.0037 333.1877 14.76918081  5081 | 2025/02/16-13:32:19    2.2811    0.1000  333.0963   97.5003     7017.2062     7004.8243     7029.5880  53.660289 -11.988104   0.001709   0.000439
1 62578U 25007D   25048.57930723  .00004838  00000-0  71033-3 0  9997 | 2 62578  54.9830 343.2518 0017749  29.2484 330.9506 14.76929068  5230 | 2025/02/17-13:54:12   12.8961    0.1001  330.8517   97.4996     7017.1714     7004.7166     7029.6261  52.650644 -15.844241   0.001733   0.000384
1 62578U 25007D   25049.59448594  .00004507  00000-0  66361-3 0  9991 | 2 62578  54.9829 339.0969 0017817  31.3868 328.8192 14.76939834  5382 | 2025/02/18-14:16:03   23.5089    0.1001  328.7133   97.4989     7017.1373     7004.6348     7029.6397  51.364210 -19.617269   0.001752   0.000324
1 62578U 25007D   25051.42200423  .00005063  00000-0  74921-3 0  9992 | 2 62578  54.9831 331.6182 0017490  35.3963 324.8194 14.76507578  5651 | 2025/02/20-10:07:41  330.6858    0.1000  324.7037   97.5274     7018.5067     7006.2314     7030.7821  48.374110 -26.135929   0.001736   0.000214
1 62578U 25007D   25052.84416375  .00003641  00000-0  55852-3 0  9996 | 2 62578  54.9823 325.8103 0016931  42.9682 317.2637 14.75642917  5868 | 2025/02/21-20:15:35  129.8567    0.1000  317.1318   97.5846     7021.2482     7009.3605     7033.1358  45.480347 -30.896461   0.001673   0.000258
1 62578U 25007D   25054.47017424  .00004314  00000-0  66094-3 0  9997 | 2 62578  54.9828 319.1688 0016587  46.2726 313.9644 14.75310223  6101 | 2025/02/23-11:17:03    3.4595    0.1000  313.8274   97.6066     7022.3037     7010.6558     7033.9516  41.602138 -35.949554   0.001651   0.000157
1 62578U 25007D   25055.55422113  .00004547  00000-0  69477-3 0  9998 | 2 62578  54.9825 314.7438 0016654  48.4762 311.7663 14.75320883  6268 | 2025/02/24-13:18:04   39.2044    0.1000  311.6238   97.6059     7022.2699     7010.5750     7033.9647  38.704264 -39.051956   0.001663   0.000094
1 62578U 25007D   25056.90926800  .00004489  00000-0  68614-3 0  9997 | 2 62578  54.9822 309.2122 0016740  51.2201 309.0291 14.75334498  6466 | 2025/02/25-21:49:20  173.8818    0.1000  308.8799   97.6050     7022.2267     7010.4714     7033.9819  34.759433 -42.600753   0.001674   0.000013
1 62578U 25007D   25058.12870461  .00004830  00000-0  73305-3 0  9997 | 2 62578  54.9820 304.2329 0016319  52.2980 307.9496 14.75506926  6646 | 2025/02/27-03:05:20  259.0618    0.1000  307.8020   97.5936     7021.6796     7010.2209     7033.1382  30.930575 -45.456791   0.001629  -0.000099
1 62578U 25007D   25059.48358140  .00004666  00000-0  70905-3 0  9992 | 2 62578  54.9815 298.7002 0016406  55.1289 305.1251 14.75519665  6841 | 2025/02/28-11:36:21   33.6792    0.1001  304.9712   97.5927     7021.6391     7010.1194     7033.1588  26.403577 -48.226720   0.001631  -0.000176
1 62578U 25007D   25060.49973284  .00003408  00000-0  52619-3 0  9992 | 2 62578  54.9811 294.5504 0016450  57.1219 303.1361 14.75525499  6990 | 2025/03/01-11:59:36   44.6410    0.1000  302.9781   97.5923     7021.6206     7010.0701     7033.1712  22.844291 -50.010596   0.001628  -0.000238
1 62578U 25007D   25061.51588056  .00002309  00000-0  36645-3 0  9995 | 2 62578  54.9811 290.4003 0016515  59.2967 300.9657 14.75529364  7140 | 2025/03/02-12:22:52   55.6015    0.1000  300.8033   97.5921     7021.6084     7010.0122     7033.2046  19.165144 -51.532694   0.001625  -0.000295
1 62578U 25007D   25062.80299602  .00002169  00000-0  34610-3 0  9998 | 2 62578  54.9808 285.1437 0016578  61.7357 298.5313 14.75535859  7336 | 2025/03/03-19:16:18  165.4837    0.0999  298.3642   97.5917     7021.5878     7009.9474     7033.2282  14.363229 -53.071518   0.001615  -0.000376
1 62578U 25007D   25063.81913671  .00002007  00000-0  32253-3 0  9991 | 2 62578  54.9806 280.9937 0016621  63.7000 296.5705 14.75539819  7487 | 2025/03/04-19:39:33  176.4424    0.1000  296.4000   97.5914     7021.5752     7009.9046     7033.2458  10.484859 -53.971605   0.001603  -0.000439
1 62578U 25007D   25064.90301704  .00001780  00000-0  28955-3 0  9991 | 2 62578  54.9808 276.5672 0016626  65.8971 294.3766 14.75543436  7642 | 2025/03/05-21:40:20  212.1309    0.1000  294.2029   97.5912     7021.5637     7009.8897     7033.2378   6.288069 -54.620038   0.001585  -0.000501
1 62578U 25007D   25066.52883230  .00001729  00000-0  28201-3 0  9997 | 2 62578  54.9806 269.9273 0016691  69.2163 291.0623 14.75549656  7888 | 2025/03/07-12:41:31   85.6619    0.1000  290.8837   97.5908     7021.5440     7009.8243     7033.2637  -0.069762 -54.980556   0.001560  -0.000594
1 62578U 25007D   25067.81593098  .00001722  00000-0  28093-3 0  9992 | 2 62578  54.9805 264.6705 0016743  71.7701 288.5119 14.75554661  8078 | 2025/03/08-19:34:56  195.5395    0.0999  288.3298   97.5904     7021.5281     7009.7720     7033.2843  -5.106767 -54.742820   0.001535  -0.000669
1 62578U 25007D   25068.83205778  .00001878  00000-0  30367-3 0  9999 | 2 62578  54.9805 260.5204 0016785  73.7178 286.5667 14.75559507  8220 | 2025/03/09-19:58:09  206.4943    0.1000  286.3822   97.5901     7021.5128     7009.7271     7033.2984  -9.055092 -54.229703   0.001512  -0.000730
1 62578U 25007D   25069.84818282  .00001709  00000-0  27911-3 0  9995 | 2 62578  54.9805 256.3702 0016822  75.6759 284.6107 14.75562326  8371 | 2025/03/10-20:21:22  217.4489    0.1000  284.4241   97.5899     7021.5038     7009.6922     7033.3154 -12.956023 -53.432170   0.001486  -0.000789
1 62578U 25007D   25070.86430471  .00001869  00000-0  30218-3 0  9990 | 2 62578  54.9799 252.2204 0016863  77.5692 282.7194 14.75566710  8520 | 2025/03/11-20:44:35  228.4021    0.1000  282.5308   97.5896     7021.4899     7009.6496     7033.3302 -16.788458 -52.353960   0.001457  -0.000849
1 62578U 25007D   25071.88042256  .00002276  00000-0  36125-3 0  9999 | 2 62578  54.9799 248.0702 0016881  79.5160 280.7741 14.75572555  8674 | 2025/03/12-21:07:48  239.3548    0.1000  280.5840   97.5892     7021.4714     7009.6184     7033.3243 -20.533360 -51.001672   0.001425  -0.000905
1 62578U 25007D   25072.89653611  .00002649  00000-0  41543-3 0  9998 | 2 62578  54.9799 243.9201 0016877  81.5201 278.7711 14.75578949  8820 | 2025/03/13-21:31:00  250.3062    0.1000  278.5799   97.5888     7021.4511     7009.6010     7033.3012 -24.170489 -49.381949   0.001390  -0.000957
1 62578U 25007D   25073.91264495  .00003218  00000-0  49782-3 0  9996 | 2 62578  54.9800 239.7699 0016894  83.4597 276.8325 14.75586621  8977 | 2025/03/14-21:54:12  261.2561    0.0999  276.6402   97.5883     7021.4267     7009.5647     7033.2887 -27.680996 -47.503293   0.001353  -0.001011
1 62578U 25007D   25075.06422787  .00003386  00000-0  52209-3 0  9998 | 2 62578  54.9804 235.0662 0016888  85.6097 274.6832 14.75595662  9146 | 2025/03/16-01:32:29  321.6640    0.1000  274.4903   97.5877     7021.3981     7009.5403     7033.2558 -31.483404 -45.073713   0.001306  -0.001070
1 62578U 25007D   25076.14806385  .00004071  00000-0  62135-3 0  9999 | 2 62578  54.9807 230.6395 0016857  87.6674 272.6255 14.75605824  9309 | 2025/03/17-03:33:12  357.3399    0.0999  272.4325   97.5870     7021.3658     7009.5299     7033.2017 -34.868630 -42.509481   0.001259  -0.001121
1 62578U 25007D   25077.50284835  .00004388  00000-0  66711-3 0  9995 | 2 62578  54.9808 225.1061 0016842  90.2637 270.0292 14.75618781  9503 | 2025/03/18-12:04:06  131.9311    0.0999  269.8362   97.5862     7021.3247     7009.4994     7033.1500 -38.805237 -38.949223   0.001199  -0.001183
1 62578U 25007D   25078.51892721  .00005611  00000-0  84403-3 0  9994 | 2 62578  54.9808 220.9560 0016850  92.0852 268.2077 14.75632255  9656 | 2025/03/19-12:27:15  142.8711    0.0999  268.0147   97.5853     7021.2820     7009.4511     7033.1128 -41.522225 -36.038774   0.001150  -0.001232
1 62578U 25007D   25079.53499734  .00005283  00000-0  79622-3 0  9996 | 2 62578  54.9807 216.8061 0016824  94.0993 266.1930 14.75643708  9801 | 2025/03/20-12:50:23  153.8083    0.1000  266.0007   97.5845     7021.2456     7009.4331     7033.0582 -44.021265 -32.939424   0.001102  -0.001272
1 62578U 25007D   25080.55105941  .00004924  00000-0  74408-3 0  9992 | 2 62578  54.9806 212.6561 0016785  96.0101 264.2812 14.75655015  9956 | 2025/03/21-13:13:31  164.7431    0.1000  264.0899   97.5838     7021.2098     7009.4247     7032.9949 -46.289512 -29.667279   0.001049  -0.001311
1 62578U 25007D   25081.56711170  .00007014  00000-0  10461-2 0  9992 | 2 62578  54.9804 208.5061 0016770  97.9098 262.3806 14.75671621 10104 | 2025/03/22-13:36:38  175.6743    0.1000  262.1902   97.5827     7021.1571     7009.3826     7032.9316 -48.314923 -26.239524   0.000996  -0.001350
1 62578U 25007D   25082.58315284  .00006559  00000-0  97998-3 0  9995 | 2 62578  54.9804 204.3558 0016715  99.8638 260.4250 14.75686891 10252 | 2025/03/23-13:59:44  186.6025    0.1000  260.2362   97.5817     7021.1087     7009.3729     7032.8445 -50.087258 -22.674014   0.000940  -0.001382
1 62578U 25007D   25083.59918471  .00005946  00000-0  89104-3 0  9993 | 2 62578  54.9807 200.2056 0016685 101.7871 258.5001 14.75699656 10403 | 2025/03/24-14:22:49  197.5272    0.0999  258.3128   97.5808     7021.0682     7009.3535     7032.7828 -51.597148 -18.989780   0.000884  -0.001415
1 62578U 25007D   25084.75067692  .00005728  00000-0  85929-3 0  9991 | 2 62578  54.9808 195.5019 0016632 103.9805 256.3046 14.75713865 10574 | 2025/03/25-18:00:58  257.9052    0.1000  256.1195   97.5799     7021.0231     7009.3457     7032.7005 -52.980686 -14.694737   0.000819  -0.001448
1 62578U 25007D   25085.76669045  .00005428  00000-0  81572-3 0  9990 | 2 62578  54.9810 191.3514 0016586 105.9522 254.3307 14.75725716 10720 | 2025/03/26-18:24:02  268.8242    0.1000  254.1478   97.5791     7020.9855     7009.3405     7032.6305 -53.905488 -10.821678   0.000761  -0.001474
1 62578U 25007D   25086.78269475  .00005816  00000-0  87149-3 0  9993 | 2 62578  54.9812 187.2011 0016525 107.8786 252.4017 14.75739264 10870 | 2025/03/27-18:47:04  279.7401    0.0999  252.2213   97.5782     7020.9426     7009.3404     7032.5447 -54.547525  -6.892019   0.000700  -0.001497
1 62578U 25007D   25088.20508924  .00004274  00000-0  64859-3 0  9997 | 2 62578  54.9812 181.3906 0016459 110.5990 249.6777 14.75751575 11086 | 2025/03/29-04:55:19   79.0182    0.1000  249.5010   97.5774     7020.9035     7009.3478     7032.4592 -54.965007  -1.334293   0.000616  -0.001526
1 62578U 25007D   25089.22107856  .00003457  00000-0  53051-3 0  9993 | 2 62578  54.9810 177.2402 0016384 112.5637 247.7098 14.75758642 11230 | 2025/03/30-05:18:21   89.9293    0.0999  247.5362   97.5769     7020.8811     7009.3781     7032.3841 -54.917231   2.647279   0.000555  -0.001542
1 62578U 25007D   25090.50799139  .00003375  00000-0  51854-3 0  9995 | 2 62578  54.9808 171.9828 0016332 115.0787 245.1910 14.75767714 11423 | 2025/03/31-12:11:30  199.7476    0.1000  245.0213   97.5763     7020.8523     7009.3859     7032.3188 -54.443431   7.668193   0.000479  -0.001561
1 62578U 25007D   25091.52396947  .00003052  00000-0  47171-3 0  9997 | 2 62578  54.9807 167.8322 0016265 117.0656 243.2006 14.75774241 11571 | 2025/04/01-12:34:30  210.6552    0.1000  243.0344   97.5759     7020.8316     7009.4122     7032.2510 -53.745531  11.588582   0.000418  -0.001572
1 62578U 25007D   25092.53994274  .00003228  00000-0  49710-3 0  9992 | 2 62578  54.9804 163.6816 0016206 119.0514 241.2111 14.75781806 11727 | 2025/04/02-12:57:31  221.5613    0.0999  241.0485   97.5754     7020.8076     7009.4297     7032.1855 -52.765521  15.448114   0.000357  -0.001581
1 62578U 25007D   25093.55591080  .00003467  00000-0  53157-3 0  9998 | 2 62578  54.9801 159.5310 0016114 120.9912 239.2673 14.75789606 11870 | 2025/04/03-13:20:30  232.4657    0.0999  239.1087   97.5749     7020.7829     7009.4696     7032.0962 -51.508741  19.226571   0.000294  -0.001584
1 62578U 25007D   25094.57187361  .00003173  00000-0  48908-3 0  9996 | 2 62578  54.9801 155.3802 0016051 122.9992 237.2553 14.75796567 12027 | 2025/04/04-13:43:29  243.3685    0.1000  237.1008   97.5744     7020.7608     7009.4918     7032.0298 -49.981980  22.904433   0.000234  -0.001588
1 62578U 25007D   25095.79102158  .00003211  00000-0  49435-3 0  9991 | 2 62578  54.9802 150.3994 0015958 125.3911 234.8582 14.75806028 12207 | 2025/04/05-18:59:04  328.4495    0.0999  234.7088   97.5738     7020.7308     7009.5271     7031.9345 -47.804721  27.157523   0.000161  -0.001588
1 62578U 25007D   25096.87470304  .00002767  00000-0  43019-3 0  9999 | 2 62578  54.9802 145.9720 0015875 127.5216 232.7229 14.75812915 12368 | 2025/04/06-20:59:34    4.0751    0.0999  232.5783   97.5733     7020.7090     7009.5636     7031.8543 -45.565621  30.766809   0.000097  -0.001585
1 62578U 25007D   25097.89065090  .00002300  00000-0  36287-3 0  9996 | 2 62578  54.9802 141.8213 0015796 129.5447 230.6951 14.75817299 12516 | 2025/04/07-21:22:32   14.9731    0.0999  230.5552   97.5731     7020.6951     7009.6052     7031.7850 -43.219206  33.984153   0.000038  -0.001579
1 62578U 25007D   25098.90659485  .00002156  00000-0  34204-3 0  9992 | 2 62578  54.9801 137.6704 0015723 131.5871 228.6479 14.75822561 12663 | 2025/04/08-21:45:29   25.8700    0.0999  228.5128   97.5727     7020.6784     7009.6398     7031.7170 -40.645870  37.023299  -0.000020  -0.001572
1 62578U 25007D   25099.92253551  .00002154  00000-0  34162-3 0  9990 | 2 62578  54.9799 133.5194 0015634 133.6124 226.6176 14.75827627 12819 | 2025/04/09-22:08:27   36.7660    0.1000  226.4876   97.5724     7020.6623     7009.6862     7031.6384 -37.859167  39.868194  -0.000078  -0.001561
1 62578U 25007D   25101.14166034  .00002196  00000-0  34766-3 0  9993 | 2 62578  54.9797 128.5382 0015545 136.0830 224.1408 14.75833470 12995 | 2025/04/11-03:23:59  121.8400    0.0999  224.0169   97.5720     7020.6438     7009.7302     7031.5574 -34.254348  43.004733  -0.000146  -0.001548
1 62578U 25007D   25102.15759436  .00001936  00000-0  31011-3 0  9990 | 2 62578  54.9795 124.3871 0015441 138.0926 222.1258 14.75837243 13144 | 2025/04/12-03:46:56  132.7341    0.0999  222.0073   97.5717     7020.6318     7009.7913     7031.4724 -31.051389  45.371320  -0.000202  -0.001531
1 62578U 25007D   25103.17352541  .00001898  00000-0  30465-3 0  9998 | 2 62578  54.9795 120.2360 0015363 140.1688 220.0442 14.75841447 13293 | 2025/04/13-04:09:52  143.6271    0.0999  219.9311   97.5715     7020.6185     7009.8327     7031.4043 -27.685636  47.500010  -0.000256  -0.001515
1 62578U 25007D   25104.18945453  .00001672  00000-0  27198-3 0  9999 | 2 62578  54.9802 116.0850 0015295 142.4190 217.7882 14.75844376 13448 | 2025/04/14-04:32:48  154.5197    0.1000  217.6810   97.5713     7020.6092     7009.8712     7031.3472 -24.175017  49.380066  -0.000305  -0.001499
1 62578U 25007D   25105.54402292  .00001582  00000-0  25890-3 0  9996 | 2 62578  54.9802 110.5503 0015168 145.1488 215.0508 14.75848916 13643 | 2025/04/15-13:03:23  289.0418    0.0999  214.9511   97.5710     7020.5948     7009.9460     7031.2436 -19.299675  51.481501  -0.000375  -0.001470
1 62578U 25007D   25106.55994598  .00001515  00000-0  24934-3 0  9997 | 2 62578  54.9802 106.3992 0015070 147.2242 212.9696 14.75852260 13798 | 2025/04/16-13:26:19  299.9323    0.1000  212.8758   97.5707     7020.5842     7010.0042     7031.1642 -15.522453  52.743491  -0.000425  -0.001446
1 62578U 25007D   25107.84677851  .00001449  00000-0  23972-3 0  9997 | 2 62578  54.9803 101.1412 0014952 149.9018 210.2843 14.75856328 13982 | 2025/04/17-20:19:21   49.7261    0.0998  210.1980   97.5705     7020.5713     7010.0741     7031.0684 -10.623708  53.944140  -0.000486  -0.001414
1 62578U 25007D   25108.86269668  .00001365  00000-0  22761-3 0  9995 | 2 62578  54.9804  96.9901 0014857 152.0136 208.1665 14.75859152 14131 | 2025/04/18-20:42:16   60.6151    0.0999  208.0863   97.5703     7020.5623     7010.1319     7030.9928  -6.690996  54.571741  -0.000532  -0.001387
1 62578U 25007D   25109.94633937  .00001524  00000-0  25055-3 0  9995 | 2 62578  54.9806  92.5621 0014766 154.2908 205.8828 14.75863653 14297 | 2025/04/19-22:42:43   96.2290    0.0999  205.8091   97.5700     7020.5481     7010.1815     7030.9146  -2.457753  54.925639  -0.000580  -0.001358
1 62578U 25007D   25110.96225170  .00001635  00000-0  26654-3 0  9994 | 2 62578  54.9807  88.4110 0014676 156.4692 203.6982 14.75867744 14448 | 2025/04/20-23:05:38  107.1161    0.0999  203.6307   97.5697     7020.5351     7010.2317     7030.8384   1.524600  54.959558  -0.000623  -0.001329
1 62578U 25007D   25112.18134150  .00002181  00000-0  34529-3 0  9994 | 2 62578  54.9806  83.4297 0014545 158.9195 201.2407 14.75874880 14623 | 2025/04/22-04:21:07  192.1785    0.0999  201.1804   97.5692     7020.5125     7010.3011     7030.7238   6.291002  54.619499  -0.000675  -0.001288
1 62578U 25007D   25113.73906037  .00002383  00000-0  37433-3 0  9998 | 2 62578  54.9808  77.0647 0014376 162.2340 197.9165 14.75882951 14850 | 2025/04/23-17:44:14   40.8674    0.0999  197.8659   97.5687     7020.4869     7010.3942     7030.5795  12.307486  53.585578  -0.000734  -0.001236
1 62578U 25007D   25114.89041130  .00002708  00000-0  42114-3 0  9993 | 2 62578  54.9811  72.3600 0014270 164.6575 195.4861 14.75890515 15021 | 2025/04/24-21:22:11  101.2001    0.1000  195.4425   97.5682     7020.4629     7010.4447     7030.4811  16.661212  52.395852  -0.000777  -0.001197
1 62578U 25007D   25115.90630493  .00002808  00000-0  43551-3 0  9999 | 2 62578  54.9814  68.2088 0014150 166.8231 193.3141 14.75896661 15170 | 2025/04/25-21:45:04  112.0807    0.0999  193.2768   97.5678     7020.4434     7010.5095     7030.3773  20.410483  51.052586  -0.000811  -0.001160
1 62578U 25007D   25116.92219375  .00003151  00000-0  48478-3 0  9999 | 2 62578  54.9817  64.0578 0014067 169.1088 191.0219 14.75903896 15321 | 2025/04/26-22:07:57  122.9595    0.0999  190.9911   97.5673     7020.4204     7010.5448     7030.2961  24.052527  49.441514  -0.000843  -0.001126
1 62578U 25007D   25118.14125391  .00003188  00000-0  49001-3 0  9992 | 2 62578  54.9820  59.0764 0013945 171.7455 188.3777 14.75912204 15508 | 2025/04/28-03:23:24  208.0116    0.1000  188.3545   97.5668     7020.3941     7010.6042     7030.1840  28.254955  47.166490  -0.000881  -0.001081
1 62578U 25007D   25119.15713239  .00002785  00000-0  43188-3 0  9990 | 2 62578  54.9823  54.9255 0013844 174.0475 186.0692 14.75917769 15654 | 2025/04/29-03:46:16  218.8866    0.1000  186.0525   97.5664     7020.3764     7010.6574     7030.0955  31.595088  44.997819  -0.000909  -0.001044
1 62578U 25007D   25121.79839567  .00002866  00000-0  44350-3 0  9998 | 2 62578  54.9827  44.1330 0013564 179.8479 180.2527 14.75935100 16045 | 2025/05/01-19:09:41  103.1533    0.0999  180.2520   97.5653     7020.3215     7010.7991     7029.8439  39.462478  38.285900  -0.000976  -0.000942
1 62578U 25007D   25122.94970540  .00003286  00000-0  50382-3 0  9992 | 2 62578  54.9827  39.4282 0013473 182.2160 177.8782 14.75944086 16219 | 2025/05/02-22:47:34  163.4708    0.0999  177.8839   97.5647     7020.2930     7010.8346     7029.7514  42.469796  34.920105  -0.001007  -0.000895
1 62578U 25007D   25124.16873243  .00002732  00000-0  42400-3 0  9997 | 2 62578  54.9826  34.4469 0013331 185.2799 174.8062 14.75951464 16399 | 2025/05/04-04:02:58  248.5115    0.0999  174.8200   97.5642     7020.2696     7010.9109     7029.6283  45.341443  31.100480  -0.001025  -0.000852
1 62578U 25007D   25125.18458393  .00002411  00000-0  37775-3 0  9998 | 2 62578  54.9828  30.2958 0013229 187.6999 172.3800 14.75956733 16546 | 2025/05/05-04:25:48  259.3766    0.1000  172.4001   97.5638     7020.2529     7010.9658     7029.5400  47.473938  27.736861  -0.001043  -0.000814
1 62578U 25007D   25126.47132423  .00002113  00000-0  33484-3 0  9996 | 2 62578  54.9829  25.0377 0013102 190.6537 169.4187 14.75962983 16736 | 2025/05/06-11:18:42    9.1370    0.0999  169.4462   97.5634     7020.2331     7011.0352     7029.4310  49.816130  23.269561  -0.001064  -0.000764
1 62578U 25007D   25127.48716835  .00002021  00000-0  32153-3 0  9993 | 2 62578  54.9830  20.8866 0012995 193.0796 166.9869 14.75967533 16888 | 2025/05/07-11:41:31   19.9991    0.1000  167.0204   97.5631     7020.2186     7011.0959     7029.3414  51.369951  19.602512  -0.001078  -0.000726
1 62578U 25007D   25128.50300967  .00002007  00000-0  31945-3 0  9994 | 2 62578  54.9831  16.7354 0012895 195.4865 164.5742 14.75972046 17034 | 2025/05/08-12:04:20   30.8603    0.0999  164.6134   97.5628     7020.2043     7011.1518     7029.2569  52.654278  15.832507  -0.001091  -0.000688
1 62578U 25007D   25129.51884852  .00001852  00000-0  29719-3 0  9999 | 2 62578  54.9832  12.5842 0012832 197.9789 162.0759 14.75975324 17183 | 2025/05/09-12:27:08   41.7206    0.1000  162.1211   97.5626     7020.1939     7011.1856     7029.2023  53.662332  11.979416  -0.001105  -0.000652
1 62578U 25007D   25130.53468405  .00001774  00000-0  28583-3 0  9996 | 2 62578  54.9832   8.4330 0012734 200.4062 159.6430 14.75979334 17334 | 2025/05/10-12:49:56   52.5794    0.0999  159.6937   97.5623     7020.1812     7011.2417     7029.1207  54.388723   8.063439  -0.001115  -0.000614
1 62578U 25007D   25131.61823887  .00001753  00000-0  28286-3 0  9992 | 2 62578  54.9832   4.0049 0012628 203.0811 156.9623 14.75983821 17493 | 2025/05/11-14:50:15   88.1611    0.0999  157.0188   97.5620     7020.1670     7011.3019     7029.0321  54.848935   3.840125  -0.001124  -0.000575
1 62578U 25007D   25132.63406928  .00001622  00000-0  26396-3 0  9993 | 2 62578  54.9831 359.8537 0012529 205.5724 154.4658 14.75987224 17644 | 2025/05/12-15:13:03   99.0177    0.1000  154.5276   97.5618     7020.1562     7011.3607     7028.9518  54.982921  -0.140395  -0.001132  -0.000538
1 62578U 25007D   25133.85306295  .00001545  00000-0  25292-3 0  9992 | 2 62578  54.9831 354.8721 0012413 208.6385 151.3934 14.75991321 17829 | 2025/05/13-20:28:24  184.0448    0.0999  151.4614   97.5615     7020.1432     7011.4291     7028.8573  54.763039  -4.914351  -0.001138  -0.000495
1 62578U 25007D   25134.86888807  .00001403  00000-0  23241-3 0  9993 | 2 62578  54.9830 350.7208 0012314 211.1984 148.8286 14.75994315 17970 | 2025/05/14-20:51:11  194.8993    0.0999  148.9015   97.5614     7020.1337     7011.4891     7028.7783  54.263510  -8.865764  -0.001142  -0.000460
1 62578U 25007D   25136.08787568  .00001328  00000-0  22155-3 0  9990 | 2 62578  54.9829 345.7392 0012203 214.3029 145.7184 14.75998081 18156 | 2025/05/16-02:06:32  279.9236    0.1000  145.7971   97.5611     7020.1218     7011.5551     7028.6884  53.288574 -13.544267  -0.001146  -0.000418
1 62578U 25007D   25137.17141716  .00001752  00000-0  28254-3 0  9997 | 2 62578  54.9828 341.3110 0012129 217.0507 142.9656 14.76003999 18310 | 2025/05/17-04:06:50  315.4997    0.0999  143.0492   97.5607     7020.1030     7011.5883     7028.6177  52.083657 -17.618201  -0.001151  -0.000382
1 62578U 25007D   25138.52584046  .00001607  00000-0  26165-3 0  9992 | 2 62578  54.9826 335.7757 0012005 220.6027 139.4079 14.76007786 18512 | 2025/05/18-12:37:12   89.9681    0.1000  139.4973   97.5605     7020.0910     7011.6634     7028.5186  50.141172 -22.559902  -0.001152  -0.000339
1 62578U 25007D   25139.54165598  .00001302  00000-0  21774-3 0  9995 | 2 62578  54.9825 331.6241 0011939 223.2183 136.7881 14.76009277 18665 | 2025/05/19-12:59:59  100.8187    0.1000  136.8817   97.5604     7020.0863     7011.7050     7028.4676  48.376273 -26.130662  -0.001154  -0.000306
1 62578U 25007D   25140.55746899  .00001272  00000-0  21348-3 0  9990 | 2 62578  54.9824 327.4725 0011851 225.9505 134.0519 14.76012395 18815 | 2025/05/20-13:22:45  111.6683    0.0999  134.1494   97.5602     7020.0764     7011.7569     7028.3959  46.357501 -29.564275  -0.001153  -0.000275
1 62578U 25007D   25141.57328003  .00001113  00000-0  19054-3 0  9991 | 2 62578  54.9824 323.3209 0011793 228.6235 131.3751 14.76014691 18967 | 2025/05/21-13:45:31  122.5169    0.0999  131.4764   97.5600     7020.0691     7011.7903     7028.3479  44.095532 -32.842782  -0.001154  -0.000244
1 62578U 25007D   25142.58908913  .00001234  00000-0  20790-3 0  9990 | 2 62578  54.9823 319.1693 0011728 231.3489 128.6462 14.76018416 19111 | 2025/05/22-14:08:17  133.3645    0.1000  128.7511   97.5598     7020.0573     7011.8242     7028.2904  41.602073 -35.948864  -0.001153  -0.000214
1 62578U 25007D   25143.87577763  .00001160  00000-0  19729-3 0  9996 | 2 62578  54.9823 313.9107 0011662 234.8283 125.1625 14.76021857 19307 | 2025/05/23-21:01:07  243.1034    0.1000  125.2717   97.5595     7020.0464     7011.8596     7028.2332  38.132225 -39.610437  -0.001153  -0.000177
1 62578U 25007D   25144.89158256  .00001152  00000-0  19610-3 0  9991 | 2 62578  54.9823 309.7593 0011598 237.6454 122.3424 14.76024605 19454 | 2025/05/24-21:23:52  253.9488    0.1000  122.4546   97.5593     7020.0377     7011.8958     7028.1795  35.164688 -42.266985  -0.001150  -0.000149
1 62578U 25007D   25145.90738520  .00001149  00000-0  19575-3 0  9998 | 2 62578  54.9822 305.6077 0011556 240.4526 119.5323 14.76027523 19606 | 2025/05/25-21:46:38  264.7935    0.1000  119.6474   97.5592     7020.0284     7011.9161     7028.1408  32.012409 -44.701767  -0.001149  -0.000122
1 62578U 25007D   25147.87126485  .00001231  00000-0  20742-3 0  9997 | 2 62578  54.9821 297.5814 0011501 245.8893 114.0904 14.76033556 19898 | 2025/05/27-20:54:37  261.7574    0.0999  114.2106   97.5588     7020.0093     7011.9356     7028.0830  25.457170 -48.733601  -0.001148  -0.000070
1 62578U 25007D   25149.15793997  .00001405  00000-0  23244-3 0  9991 | 2 62578  54.9821 292.3226 0011433 249.5466 110.4307 14.76038348 20083 | 2025/05/29-03:47:26   11.4898    0.1000  110.5534   97.5584     7019.9941     7011.9681     7028.0201  20.883360 -50.861740  -0.001143  -0.000037
1 62578U 25007D   25150.17373249  .00001612  00000-0  26217-3 0  9992 | 2 62578  54.9821 288.1710 0011401 252.3836 107.5919 14.76042981 20233 | 2025/05/30-04:10:10   22.3298    0.1000  107.7164   97.5581     7019.9794     7011.9759     7027.9829  17.146391 -52.240144  -0.001140  -0.000011
1 62578U 25007D   25151.18952366  .00001598  00000-0  26017-3 0  9998 | 2 62578  54.9819 284.0193 0011360 255.3728 104.6013 14.76046296 20389 | 2025/05/31-04:32:54   33.1689    0.1000  104.7272   97.5579     7019.9689     7011.9942     7027.9436  13.319295 -53.344219  -0.001136   0.000012
1 62578U 25007D   25152.54389956  .00003153  00000-0  48352-3 0  9993 | 2 62578  54.9821 278.4836 0011369 258.9556 101.0166 14.76061705 20584 | 2025/06/01-13:03:12  167.6168    0.1000  101.1444   97.5569     7019.9200     7011.9391     7027.9010   8.111307 -54.380493  -0.001136   0.000051
1 62578U 25007D   25153.55968759  .00002517  00000-0  39217-3 0  9992 | 2 62578  54.9816 274.3323 0011338 262.0335  97.9379 14.76059822 20734 | 2025/06/02-13:25:57  178.4538    0.1001   98.0666   97.5570     7019.9260     7011.9668     7027.8852   4.153358 -54.824501  -0.001132   0.000072
1 62578U 25007D   25154.57546532  .00002885  00000-0  44498-3 0  9991 | 2 62578  54.9815 270.1808 0011335 265.0126  94.9580 14.76066778 20888 | 2025/06/03-13:48:40  189.2872    0.1000   95.0874   97.5566     7019.9040     7011.9469     7027.8610   0.173497 -54.981226  -0.001130   0.000095
1 62578U 25007D   25155.59124141  .00001801  00000-0  28920-3 0  9991 | 2 62578  54.9814 266.0290 0011345 267.8930  92.0771 14.76068164 21030 | 2025/06/04-14:11:23  200.1201    0.1000   92.2070   97.5565     7019.8996     7011.9355     7027.8636  -3.807547 -54.849402  -0.001128   0.000120
1 62578U 25007D   25156.74245125  .00001576  00000-0  25692-3 0  9997 | 2 62578  54.9818 261.3239 0011374 270.9992  88.9704 14.76070853 21207 | 2025/06/05-17:49:07  260.3960    0.0999   89.1007   97.5563     7019.8910     7011.9066     7027.8755  -8.293921 -54.352638  -0.001127   0.000152
1 62578U 25007D   25157.89365742  .00001273  00000-0  21338-3 0  9999 | 2 62578  54.9817 256.6187 0011399 274.2902  85.6795 14.76074222 21376 | 2025/06/06-21:26:52  320.6700    0.1000   85.8098   97.5561     7019.8804     7011.8784     7027.8823 -12.724437 -53.489027  -0.001126   0.000180
1 62578U 25007D   25158.90942566  .00001124  00000-0  19193-3 0  9998 | 2 62578  54.9816 252.4670 0011425 277.1823  82.7878 14.76077247 21527 | 2025/06/07-21:49:34  331.4990    0.1000   82.9177   97.5559     7019.8708     7011.8506     7027.8910 -16.563485 -52.427353  -0.001124   0.000205
1 62578U 25007D   25160.87323962  .00000977  00000-0  17081-3 0  9999 | 2 62578  54.9814 244.4405 0011484 282.7703  77.2013 14.76082448 21817 | 2025/06/09-20:57:27  328.4327    0.1000   77.3297   97.5555     7019.8543     7011.7927     7027.9159 -23.721625 -49.600795  -0.001120   0.000254
1 62578U 25007D   25161.88900354  .00000835  00000-0  15033-3 0  9995 | 2 62578  54.9813 240.2887 0011527 285.6476  74.3252 14.76084296 21963 | 2025/06/10-21:20:09  339.2595    0.1000   74.4524   97.5554     7019.8484     7011.7566     7027.9402 -27.250380 -47.753116  -0.001118   0.000280
1 62578U 25007D   25162.90476595  .00000774  00000-0  14151-3 0  9996 | 2 62578  54.9812 236.1370 0011577 288.5348  71.4393 14.76086424 22115 | 2025/06/11-21:42:51  350.0855    0.0999   71.5651   97.5553     7019.8417     7011.7148     7027.9685 -30.636019 -45.654865  -0.001117   0.000306
1 62578U 25007D   25164.19139278  .00001511  00000-0  24737-3 0  9994 | 2 62578  54.9810 230.8781 0011627 292.0760  67.9005 14.76094473 22308 | 2025/06/13-04:35:36   99.7958    0.1000   68.0240   97.5547     7019.8162     7011.6542     7027.9781 -34.691493 -42.654551  -0.001112   0.000341
1 62578U 25007D   25165.20715284  .00001023  00000-0  17725-3 0  9991 | 2 62578  54.9809 226.7264 0011672 294.9595  65.0191 14.76093758 22459 | 2025/06/14-04:58:18  110.6202    0.0999   65.1404   97.5548     7019.8184     7011.6249     7028.0120 -37.688469 -40.030971  -0.001108   0.000367
1 62578U 25007D   25166.49377738  .00000822  00000-0  14838-3 0  9999 | 2 62578  54.9808 221.4677 0011761 298.5167  61.4648 14.76096019 22643 | 2025/06/15-11:51:02  220.3290    0.1000   61.5833   97.5546     7019.8113     7011.5553     7028.0673 -41.198716 -36.408161  -0.001105   0.000403
1 62578U 25007D   25167.50953192  .00000764  00000-0  14013-3 0  9996 | 2 62578  54.9806 217.3158 0011828 301.2801  58.7040 14.76098173 22794 | 2025/06/16-12:13:43  231.1511    0.1000   58.8199   97.5545     7019.8044     7011.5014     7028.1075 -43.726420 -33.329665  -0.001101   0.000432
1 62578U 25007D   25168.79615258  .00000648  00000-0  12349-3 0  9997 | 2 62578  54.9803 212.0568 0011914 304.8238  55.1641 14.76100569 22989 | 2025/06/17-19:06:27  340.8579    0.1001   55.2763   97.5543     7019.7968     7011.4334     7028.1602 -46.597033 -29.181328  -0.001096   0.000468
1 62578U 25007D   25169.81190479  .00000524  00000-0  10557-3 0  9996 | 2 62578  54.9802 207.9049 0011991 307.5789  52.4121 14.76101890 23130 | 2025/06/18-19:29:08  351.6787    0.1000   52.5211   97.5542     7019.7926     7011.3752     7028.2101 -48.587411 -25.731030  -0.001091   0.000498
1 62578U 25007D   25170.89537332  .00000350  00000-0  80626-4 0  9991 | 2 62578  54.9801 203.4761 0012072 310.4969  49.4979 14.76102651 23295 | 2025/06/19-21:29:20   27.2203    0.1001   49.6032   97.5542     7019.7902     7011.3159     7028.2645 -50.429195 -21.902230  -0.001085   0.000530
1 62578U 25007D   25171.91112450  .00000261  00000-0  67846-4 0  9995 | 2 62578  54.9800 199.3243 0012158 313.2486  46.7499 14.76103335 23446 | 2025/06/20-21:52:01   38.0400    0.1001   46.8515   97.5541     7019.7881     7011.2534     7028.3227 -51.882465 -18.193687  -0.001079   0.000560
1 62578U 25007D   25173.13002517  .00000230  00000-0  63427-4 0  9990 | 2 62578  54.9800 194.3419 0012257 316.5035  43.4997 14.76104375 23624 | 2025/06/22-03:07:14  123.0233    0.1000   43.5965   97.5541     7019.7848     7011.1806     7028.3889 -53.266540 -13.618963  -0.001070   0.000597
1 62578U 25007D   25174.55207519  .00000186  00000-0  57094-4 0  9999 | 2 62578  54.9800 188.5292 0012384 320.2711  39.7381 14.76105357 23831 | 2025/06/23-13:14:59  282.1697    0.1000   39.8289   97.5540     7019.7817     7011.0884     7028.4749 -54.371944  -8.154272  -0.001059   0.000642
1 62578U 25007D   25175.56782466  .00000171  00000-0  54889-4 0  9993 | 2 62578  54.9801 184.3774 0012483 322.9833  37.0304 14.76106139 23986 | 2025/06/24-13:37:40  292.9880    0.1000   37.1167   97.5540     7019.7792     7011.0164     7028.5420 -54.819720  -4.196397  -0.001051   0.000673
1 62578U 25007D   25176.58357373  .00000118  00000-0  47287-4 0  9996 | 2 62578  54.9801 180.2255 0012578 325.6050  34.4135 14.76106617 24133 | 2025/06/25-14:00:20  303.8059    0.1001   34.4951   97.5539     7019.7777     7010.9482     7028.6071 -54.979674  -0.216386  -0.001041   0.000706
1 62578U 25007D   25177.59932219  .00000122  00000-0  47934-4 0  9990 | 2 62578  54.9801 176.0735 0012674 328.2699  31.7536 14.76107404 24280 | 2025/06/26-14:23:01  314.6235    0.1000   31.8301   97.5539     7019.7752     7010.8783     7028.6720 -54.851046   3.764857  -0.001030   0.000739
1 62578U 25007D   25178.61507002  .00000142  00000-0  50807-4 0  9997 | 2 62578  54.9802 171.9216 0012767 330.7723  29.2561 14.76108262 24438 | 2025/06/27-14:45:42  325.4409    0.1000   29.3277   97.5538     7019.7724     7010.8103     7028.7346 -54.434615   7.726257  -0.001015   0.000774
1 62578U 25007D   25179.76625051  .00000134  00000-0  49688-4 0  9995 | 2 62578  54.9802 167.2161 0012877 333.6886  26.3458 14.76109046 24602 | 2025/06/28-18:23:24   25.7000    0.1000   26.4114   97.5538     7019.7700     7010.7306     7028.8093 -53.617327  12.165715  -0.000999   0.000812
1 62578U 25007D   25180.84971366  .00000197  00000-0  58750-4 0  9998 | 2 62578  54.9802 162.7874 0012986 336.4457  23.5947 14.76110225 24769 | 2025/06/29-20:23:35   61.2374    0.1001   23.6544   97.5537     7019.7662     7010.6504     7028.8821 -52.517819  16.269637  -0.000984   0.000848
1 62578U 25007D   25181.86545939  .00000303  00000-0  73985-4 0  9990 | 2 62578  54.9802 158.6355 0013077 339.0438  21.0024 14.76111749 24915 | 2025/06/30-20:46:15   72.0531    0.1000   21.0562   97.5536     7019.7614     7010.5816     7028.9411 -51.202055  20.029278  -0.000967   0.000880
1 62578U 25007D   25182.88124739  .00000435  00000-0  93313-4 0  9997 | 2 62578  54.9830 154.4861 0012341 338.5685  21.4796 14.75886790 25064 | 2025/07/01-21:08:59   82.8855    0.1000   21.5315   97.5685     7020.4747     7011.8107     7029.1387 -49.621103  23.682830  -0.000843   0.000902
1 62578U 25007D   25183.89732252  .00000443  00000-0  95252-4 0  9997 | 2 62578  54.9829 150.3361 0010954 336.0904  23.9586 14.75426276 25217 | 2025/07/02-21:32:08   93.8231    0.1000   24.0096   97.5989     7021.9354     7014.2436     7029.6273 -47.777034  27.211657  -0.000650   0.000881
1 62578U 25007D   25185.38819320  .00000433  00000-0  95500-4 0  9990 | 2 62578  54.9806 144.2505 0008266 326.0105  34.0363 14.74575132 25434 | 2025/07/04-09:18:59  278.0939    0.0999   34.0894   97.6552     7024.6373     7018.8307     7030.4438 -44.621105  32.122008  -0.000286   0.000775
1 62578U 25007D   25186.47303487  .00001099  00000-0  19741-3 0  9994 | 2 62578  54.9839 139.8214 0006698 296.9598  63.0717 14.73924181 25598 | 2025/07/05-11:21:10  314.1505    0.1000   63.1402   97.6984     7026.7054     7021.9989     7031.4119 -42.009737  35.474093   0.000153   0.000652
1 62578U 25007D   25187.82951512  .00001044  00000-0  19050-3 0  9995 | 2 62578  54.9829 134.3133 0007419 309.6767  50.3577 14.73576891 25795 | 2025/07/06-19:54:30   89.3256    0.0999   50.4232   97.7214     7027.8094     7022.5954     7033.0233 -38.410031  39.341947   0.000078   0.000738
1 62578U 25007D   25190.20495939  .00000828  00000-0  16277-3 0  9994 | 2 62578  54.9817 124.6478 0007522 257.2125 102.8033 14.72071042 26144 | 2025/07/09-04:55:08  236.5110    0.0998  102.8873   97.8214     7032.6013     7027.3114     7037.8912 -31.258760  45.231374   0.000698   0.000280
1 62578U 25007D   25192.31094487  .00000678  00000-0  14305-3 0  9994 | 2 62578  54.9813 116.1034 0010773 235.1404 124.8581 14.70733032 26459 | 2025/07/11-07:27:45  285.3033    0.0997  124.9593   97.9104     7036.8659     7029.2851     7044.4467 -24.191357  49.373288   0.001065  -0.000164
1 62578U 25007D   25193.33064964  .00000772  00000-0  16054-3 0  9992 | 2 62578  54.9816 111.9731 0009692 251.4889 108.5055 14.70079580 26608 | 2025/07/12-07:56:08  297.5364    0.0997  108.6108   97.9539     7038.9510     7032.1289     7045.7732 -20.572534  50.987716   0.000967   0.000059
1 62578U 25007D   25194.41884146  .00000775  00000-0  16299-3 0  9998 | 2 62578  54.9815 107.5699 0009202 269.3794  90.6149 14.69483219 26769 | 2025/07/13-10:03:07  334.7614    0.0997   90.7203   97.9936     7040.8553     7034.3763     7047.3343 -16.597216  52.416579   0.000880   0.000268
1 62578U 25007D   25195.43943433  .00000730  00000-0  15758-3 0  9996 | 2 62578  54.9905 103.4318 0009971 302.6364  57.3670 14.68873432 26914 | 2025/07/14-10:32:47  347.3097    0.0997   57.4633   98.0343     7042.8038     7035.7814     7049.8262 -12.773621  53.486351   0.000692   0.000718
1 62578U 25007D   25196.86903482  .00000695  00000-0  15473-3 0  9998 | 2 62578  54.9827  97.6723 0010043 301.2289  58.7723 14.67903385 27122 | 2025/07/15-20:51:24  149.1367    0.0997   58.8708   98.0991     7045.9062     7038.8300     7052.9824  -7.340579  54.490487   0.000782   0.000631
1 62578U 25007D   25197.95888855  .00000666  00000-0  15219-3 0  9991 | 2 62578  54.9823  93.2793 0008604 285.6309  74.3737 14.67097785 27289 | 2025/07/16-23:00:47  186.9479    0.0996   74.4687   98.1530     7048.4853     7042.4208     7054.5499  -3.145171  54.892269   0.000814   0.000279
1 62578U 25007D   25199.11742315  .00000657  00000-0  15272-3 0  9990 | 2 62578  54.9820  88.6131 0008309 268.2093  91.7951 14.66411782 27455 | 2025/07/18-02:49:05  249.8286    0.0996   91.8903   98.1989     7050.6834     7044.8250     7056.5418   1.330763  54.965893   0.000830  -0.000046
1 62578U 25007D   25200.14019662  .00000625  00000-0  14942-3 0  9996 | 2 62578  54.9820  84.5003 0008823 249.0245 110.9806 14.65588348 27607 | 2025/07/19-03:21:52  263.1473    0.0995  111.0750   98.2541     7053.3241     7047.1009     7059.5472   5.269505  54.728901   0.000790  -0.000393
1 62578U 25007D   25201.36817749  .00000594  00000-0  14605-3 0  9994 | 2 62578  54.9945  79.5675 0013120 244.2729 115.6912 14.64829955 27784 | 2025/07/20-08:50:10  351.4045    0.0995  115.8266   98.3049     7055.7584     7046.5012     7065.0155   9.958241  54.085381   0.001059  -0.000774
1 62578U 25007D   25202.39207470  .00000607  00000-0  15075-3 0  9999 | 2 62578  54.9870  75.4583 0009546 260.4460  99.5456 14.64044199 27932 | 2025/07/21-09:24:35    5.0984    0.0995   99.6535   98.3577     7058.2827     7051.5449     7065.0205  13.806387  53.225500   0.000871  -0.000390
1 62578U 25007D   25203.48478491  .00000703  00000-0  17157-3 0  9993 | 2 62578  54.9819  71.0797 0009153 279.1238  80.8721 14.63302442 28091 | 2025/07/22-11:38:05   43.9254    0.0995   80.9757   98.4075     7060.6678     7054.2051     7067.1304  17.828024  52.011257   0.000902  -0.000156
1 62578U 25007D   25204.57801551  .00000780  00000-0  18832-3 0  9997 | 2 62578  54.9820  66.7037 0009970 295.0763  64.9196 14.62783570 28259 | 2025/07/23-13:52:20   82.9420    0.0994   65.0231   98.4425     7062.3373     7055.2962     7069.3785  21.744622  50.499423   0.000997   0.000031
1 62578U 25007D   25205.60301991 -.00089383  00000-0 -17738-1 0  9995 | 2 62578  54.9777  62.6005 0012300 298.9281  60.6008 14.62390390 28404 | 2025/07/24-14:28:20   97.5241  359.6518   60.7237   98.4689     7063.6032     7054.9149     7072.2914  25.300300  48.810269   0.001230   0.000033
1 62578U 25007D   25206.69705013  .00000695  00000-0  17591-3 0  9994 | 2 62578  54.9810  58.2327 0010397 307.1602  52.8441 14.61635504 28563 | 2025/07/25-16:43:45  136.3457    0.0993   52.9391   98.5198     7066.0350     7058.6885     7073.3816  28.945883  46.744478   0.001035   0.000098
1 62578U 25007D   25208.54434898  .00000698  00000-0  18034-3 0  9996 | 2 62578  54.9822  50.8579 0012318 296.2667  63.7060 14.60599074 28835 | 2025/07/27-13:03:51   90.6004    0.0993   63.8326   98.5897     7069.3773     7060.6692     7078.0854  34.707286  42.643248   0.001201  -0.000274
1 62578U 25007D   25209.57088744  .00000758  00000-0  19245-3 0  9997 | 2 62578  54.9824  46.7643 0012363 298.8115  61.1636 14.60600762 28983 | 2025/07/28-13:42:04  105.2573    0.0993   61.2878   98.5896     7069.3718     7060.6320     7078.1117  37.663009  40.056985   0.001197  -0.000308
1 62578U 25007D   25210.87120602  .00000601  00000-0  16078-3 0  9990 | 2 62578  54.9827  41.5788 0012194 303.0015  56.9805 14.60534632 29173 | 2025/07/29-20:54:32  219.8322    0.0993   57.0978   98.5940     7069.5852     7060.9646     7078.2059  41.129462  36.489240   0.001176  -0.000324
1 62578U 25007D   25211.96645503  .00000610  00000-0  16478-3 0  9997 | 2 62578  55.0135  37.1804 0014633 300.5817  59.3732 14.59884068 29332 | 2025/07/30-23:11:41  259.6269    0.0993   59.5176   98.6380     7071.6853     7061.3374     7082.0333  43.831274  33.246121   0.001354  -0.000554
1 62578U 25007D   25213.61042862  .00000579  00000-0  16166-3 0  9998 | 2 62578  54.9953  30.7111 0027313 312.1765  47.6908 14.58813857 29576 | 2025/08/01-14:39:01  139.6347    0.0993   47.9228   98.7103     7075.1435     7055.8192     7094.4679  47.282393  28.086622   0.002610  -0.000804
1 62578U 25007D   25214.84423295  .00000509  00000-0  14964-3 0  9994 | 2 62578  54.9823  25.7637 0022696 294.8483  65.0149 14.57839752 29753 | 2025/08/02-20:15:41  229.9718    0.0992   65.2509   98.7763     7078.2948     7062.2299     7094.3597  49.516748  23.898640   0.001754  -0.001440
1 62578U 25007D   25215.87297050  .00000466  00000-0  14233-3 0  9997 | 2 62578  54.9835  21.6874 0025256 294.7533  65.0831 14.57158280 29909 | 2025/08/03-20:57:04  245.4344    0.0992   65.3459   98.8225     7080.5016     7062.6190     7098.3841  51.091430  20.318736   0.001830  -0.001740
1 62578U 25007D   25217.38258660  .00000426  00000-0  13580-3 0  9999 | 2 62578  54.9899  15.7156 0031305 297.8982  61.8840 14.56273474 30122 | 2025/08/05-09:10:55   76.4102    0.0992   62.2010   98.8825     7083.3693     7061.1948     7105.5437  52.934269  14.894705   0.002159  -0.002266
1 62578U 25007D   25218.61839948  .00000353  00000-0  12045-3 0  9994 | 2 62578  54.9835  10.8111 0030921 294.8159  64.9617 14.55835480 30301 | 2025/08/06-14:50:29  167.4300    0.0992   65.2833   98.9123     7084.7899     7062.8830     7106.6968  54.007594  10.313344   0.001801  -0.002513
1 62578U 25007D   25219.95402564 -.00339205  00000-0 -82051-1 0  9997 | 2 62578  54.9838   5.5354 0034933 297.2795 220.1646 14.54390634 30498 | 2025/08/07-22:53:47  137.1811  157.1868  219.9073   99.0105     7089.4813     7064.7156     7114.2470  54.727399   5.303778   0.001893  -0.002936
1 62578U 25007D   25221.09258593  .00000418  00000-0  14051-3 0  9992 | 2 62578  54.9968   1.0449 0041658 294.0432  65.6201 14.53653808 30665 | 2025/08/09-02:13:19  350.4563    0.0990   66.0558   99.0607     7091.8768     7062.3334     7121.4201  54.987655   1.002918   0.001766  -0.003773
1 62578U 25007D   25222.39954236  .00000414  00000-0  14225-3 0  9992 | 2 62578  54.9834 355.8943 0043055 297.1885  62.4718 14.52703559 30852 | 2025/08/10-09:35:20  107.4024    0.0989   62.9104   99.1255     7094.9691     7064.4217     7125.5165  54.842294  -3.936629   0.001688  -0.003961
1 62578U 25007D   25223.50076731  .00000419  00000-0  14527-3 0  9991 | 2 62578  54.9837 351.5622 0045804 297.5936  62.0405 14.51955584 31011 | 2025/08/11-12:01:06  149.2871    0.0990   62.5054   99.1766     7097.4055     7064.8966     7129.9145  54.388542  -8.068069   0.001503  -0.004327
1 62578U 25007D   25224.53368240  .00000378  00000-0  13686-3 0  9993 | 2 62578  54.9836 347.4991 0048340 299.2118  60.4041 14.51375044 31163 | 2025/08/12-12:48:30  166.2359    0.0990   60.8872   99.2163     7099.2980     7064.9800     7133.6160  53.680082 -11.901472   0.001390  -0.004630
1 62578U 25007D   25225.93201567 -.00078853  00000-0 -19723-1 0  9997 | 2 62578  54.9839 342.0087 0050618 302.8758 164.6499 14.50876584 31365 | 2025/08/13-22:22:06  208.5948  107.6783  164.8025   99.2503     7100.9239     7064.9805     7136.8674  52.295376 -16.983019   0.001300  -0.004892
1 62578U 25007D   25227.56539995  .00000311  00000-0  12345-3 0  9994 | 2 62578  54.9855 335.6018 0054270 302.6767  56.8993 14.49900624 31600 | 2025/08/15-13:34:10  192.5796    0.0989   57.4222   99.3172     7104.1101     7065.5561     7142.6641  50.075110 -22.713180   0.000781  -0.005370
1 62578U 25007D   25228.59978274  .00000279  00000-0  11683-3 0  9992 | 2 62578  54.9814 331.5534 0057007 304.1382  55.4207 14.49171456 31756 | 2025/08/16-14:23:41  210.0425    0.0989   55.9607   99.3671     7106.4929     7065.9809     7147.0049  48.343025 -26.189812   0.000565  -0.005673
1 62578U 25007D   25229.77265809  .00000267  00000-0  11514-3 0  9996 | 2 62578  54.9835 326.9567 0059657 304.7260  54.8117 14.48438372 31921 | 2025/08/17-18:32:37  278.0516    0.0988   55.3728   99.4174     7108.8905     7066.4810     7151.3000  46.090399 -29.981001   0.000175  -0.005963
1 62578U 25007D   25231.22216073  .00000250  00000-0  11160-3 0  9997 | 2 62578  54.9829 321.2888 0061154 306.9119  52.6274 14.47977086 32133 | 2025/08/19-05:19:54   86.9675    0.0988   53.1869   99.4491     7110.4003     7066.9173     7153.8832  42.903606 -34.386042  -0.000192  -0.006112
1 62578U 25007D   25232.25765697  .00000270  00000-0  11673-3 0  9993 | 2 62578  54.9834 317.2432 0061586 309.4612  50.0936 14.47977343 32283 | 2025/08/20-06:11:01  104.7969    0.0988   50.6376   99.4491     7110.3994     7066.6093     7154.1895  40.371118 -37.327565  -0.000354  -0.006148
1 62578U 25007D   25234.60477868  .00000223  00000-0  10442-3 0  9995 | 2 62578  54.9825 308.0701 0061759 314.7660  44.8311 14.47979014 32627 | 2025/08/22-14:30:52  241.2049    0.0988   45.3328   99.4490     7110.3939     7066.4809     7154.3070  33.903591 -43.285353  -0.000770  -0.006128
1 62578U 25007D   25235.91640446  .00000231  00000-0  10651-3 0  9995 | 2 62578  54.9828 302.9440 0061874 317.7111  41.9114 14.47980181 32812 | 2025/08/23-21:59:37  359.7837    0.0988   42.3877   99.4489     7110.3901     7066.3953     7154.3850  29.900695 -46.141703  -0.001005  -0.006105
1 62578U 25007D   25236.95189801  .00000262  00000-0  11458-3 0  9993 | 2 62578  54.9826 298.8970 0061958 320.0431  39.6005 14.47981181 32966 | 2025/08/24-22:50:43   17.6079    0.0989   40.0558   99.4488     7110.3868     7066.3323     7154.4414  26.569602 -48.136707  -0.001189  -0.006081
1 62578U 25007D   25238.60868652  .00000265  00000-0  11538-3 0  9997 | 2 62578  54.9822 292.4218 0062098 323.7736  35.9054 14.47982634 33206 | 2025/08/26-14:36:30  262.1246    0.0989   36.3253   99.4487     7110.3821     7066.2280     7154.5361  20.971427 -50.825599  -0.001482  -0.006030
1 62578U 25007D   25239.92030965  .00000367  00000-0  14212-3 0  9996 | 2 62578  54.9820 287.2956 0062224 326.7207  32.9874 14.47984350 33396 | 2025/08/27-22:05:14   20.6988    0.0989   33.3782   99.4486     7110.3765     7066.1329     7154.6201  16.346234 -52.495914  -0.001713  -0.005982
1 62578U 25007D   25240.95580089  .00000405  00000-0  15214-3 0  9994 | 2 62578  54.9818 283.2485 0062321 329.0431  30.6889 14.47985540 33549 | 2025/08/28-22:56:21   38.5195    0.0989   31.0558   99.4485     7110.3726     7066.0600     7154.6851  12.600449 -53.518474  -0.001896  -0.005937
1 62578U 25007D   25242.26742196  .00000478  00000-0  17106-3 0  9991 | 2 62578  54.9811 278.1221 0062436 331.9817  27.7814 14.47987267 33734 | 2025/08/30-06:25:05  157.0912    0.0989   28.1172   99.4484     7110.3669     7065.9726     7154.7612   7.767900 -54.429598  -0.002125  -0.005871
1 62578U 25007D   25243.30291127  .00000499  00000-0  17653-3 0  9990 | 2 62578  54.9809 274.0749 0062539 334.3014  25.4869 14.47988594 33886 | 2025/08/31-07:16:11  174.9100    0.0989   25.7975   99.4483     7110.3626     7065.8951     7154.8301   3.906969 -54.841909  -0.002305  -0.005814
1 62578U 25007D   25244.33839985  .00000623  00000-0  20884-3 0  9993 | 2 62578  54.9808 270.0277 0062638 336.6165  23.1976 14.47990479 34036 | 2025/09/01-08:07:17  192.7279    0.0989   23.4824   99.4482     7110.3564     7065.8186     7154.8943   0.026581 -54.980794  -0.002483  -0.005751
1 62578U 25007D   25245.58098451  .00000678  00000-0  22335-3 0  9999 | 2 62578  54.9806 265.1710 0062765 339.3925  20.4532 14.47992438 34211 | 2025/09/02-13:56:37  286.1082    0.0989   20.7064   99.4480     7110.3500     7065.7219     7154.9781  -4.628388 -54.785440  -0.002696  -0.005668
1 62578U 25007D   25246.89260006  .00000640  00000-0  21336-3 0  9990 | 2 62578  54.9806 260.0444 0062891 342.3143  17.5654 14.47994049 34408 | 2025/09/03-21:25:20   44.6752    0.0988   17.7845   99.4479     7110.3447     7065.6271     7155.0624  -9.505320 -54.152703  -0.002918  -0.005571
1 62578U 25007D   25248.27330788  .00000517  00000-0  18188-3 0  9993 | 2 62578  54.9809 254.6481 0063228 344.8016  15.1070 14.47836871 34608 | 2025/09/05-06:33:33  188.4583    0.0989   15.2973   99.4587     7110.8593     7065.8988     7155.8199 -14.556010 -53.019072  -0.003214  -0.005445
1 62578U 25007D   25249.30890468  .00000662  00000-0  21977-3 0  9995 | 2 62578  54.9808 250.6015 0063342 347.0881  12.8481 14.47838774 34758 | 2025/09/06-07:24:49  206.3129    0.0989   13.0108   99.4586     7110.8531     7065.8115     7155.8947 -18.261127 -51.859614  -0.003386  -0.005353
1 62578U 25007D   25254.83292743  .00000017  00000-0  51097-4 0  9992 | 2 62578  54.9807 229.0239 0064282 358.0397   2.0329 14.47506548 35555 | 2025/09/11-19:59:24   61.8470    0.0989    2.0592   99.4814     7111.9411     7066.2241     7157.6581 -36.053273 -41.509504  -0.004379  -0.004706
1 62578U 25007D   25255.93781622  .00000013  00000-0  50199-4 0  9991 | 2 62578  54.9804 224.7083 0064341   0.4802 359.6236 14.47508117 35716 | 2025/09/12-22:30:27  104.9804    0.0989  359.6187   99.4813     7111.9359     7066.1770     7157.6948 -39.074437 -38.678583  -0.004535  -0.004565
1 62578U 25007D   25257.31892653  .00000335  00000-0  13493-3 0  9994 | 2 62578  54.9811 219.3145 0064488   3.5425 356.6005 14.47509649 35914 | 2025/09/14-07:39:15  248.8960    0.0988  356.5563   99.4812     7111.9309     7066.0675     7157.7943 -42.537772 -34.834743  -0.004727  -0.004386
1 62578U 25007D   25258.63097935  .00000395  00000-0  15074-3 0  9993 | 2 62578  54.9813 214.1903 0064615   6.4155 353.7644 14.47511507 36100 | 2025/09/15-15:08:36    7.6155    0.0988  353.6833   99.4811     7111.9248     7065.9711     7157.8785 -45.479196 -30.896376  -0.004906  -0.004205
1 62578U 25007D   25260.28830725  .00000423  00000-0  15793-3 0  9999 | 2 62578  54.9815 207.7178 0064775  10.0472 350.1793 14.47513630 36345 | 2025/09/17-06:55:09  252.3130    0.0989  350.0517   99.4809     7111.9179     7065.8504     7157.9853 -48.672327 -25.572835  -0.005121  -0.003967
1 62578U 25007D   25261.32413564  .00000475  00000-0  17185-3 0  9997 | 2 62578  54.9815 203.6724 0064873  12.3174 347.9381 14.47515290 36497 | 2025/09/18-07:46:45  270.2486    0.0989  347.7815   99.4808     7111.9124     7065.7753     7158.0496 -50.355143 -22.075438  -0.005249  -0.003812
1 62578U 25007D   25262.63618324  .00000512  00000-0  18154-3 0  9992 | 2 62578  54.9815 198.5483 0064994  15.1875 345.1044 14.47517356 36686 | 2025/09/19-15:16:06   28.9667    0.0989  344.9114   99.4807     7111.9057     7065.6826     7158.1288 -52.125532 -17.489834  -0.005405  -0.003610
1 62578U 25007D   25264.01728343  .00000786  00000-0  25351-3 0  9999 | 2 62578  54.9815 193.1546 0065110  18.2057 342.1240 14.47520996 36885 | 2025/09/21-00:24:53  172.8799    0.0989  341.8932   99.4804     7111.8938     7065.5882     7158.1993 -53.538760 -12.512654  -0.005560  -0.003388
1 62578U 25007D   25265.32932573  .00001031  00000-0  31812-3 0  9999 | 2 62578  54.9815 188.0304 0065234  21.0735 339.2918 14.47524713 37074 | 2025/09/22-07:54:13  291.5969    0.0989  339.0254   99.4802     7111.8816     7065.4879     7158.2752 -54.442356  -7.680833  -0.005700  -0.003173
1 62578U 25007D   25266.98663654  .00001301  00000-0  38893-3 0  9999 | 2 62578  54.9816 181.5578 0065373  24.6868 335.7223 14.47530030 37312 | 2025/09/23-23:40:45  176.2912    0.0988  335.4120   99.4798     7111.8642     7065.3718     7158.3566 -54.961279  -1.494696  -0.005863  -0.002891
1 62578U 25007D   25268.22961589  .00001407  00000-0  41676-3 0  9996 | 2 62578  54.9816 176.7034 0065479  27.3782 333.0630 14.47533946 37498 | 2025/09/25-05:30:38  269.8112    0.0988  332.7206   99.4795     7111.8513     7065.2836     7158.4190 -54.890618   3.161705  -0.005978  -0.002672
1 62578U 25007D   25269.95596984  .00001351  00000-0  40193-3 0  9991 | 2 62578  54.9817 169.9611 0065620  31.1205 329.3643 14.47538938 37741 | 2025/09/26-22:56:35  179.6989    0.0989  328.9784   99.4792     7111.8350     7065.1671     7158.5028 -54.139910   9.584232  -0.006123  -0.002360
1 62578U 25007D   25270.99177882  .00001328  00000-0  39579-3 0  9999 | 2 62578  54.9816 165.9157 0065696  33.3667 327.1435 14.47542182 37897 | 2025/09/27-23:48:09  197.6310    0.0989  326.7322   99.4790     7111.8244     7065.1025     7158.5462 -53.328783  13.379731  -0.006201  -0.002169
1 62578U 25007D   25272.16569229  .00001285  00000-0  38451-3 0  9990 | 2 62578  54.9815 161.3309 0065794  35.9139 324.6244 14.47545950 38062 | 2025/09/29-03:58:35  265.9536    0.0989  324.1850   99.4787     7111.8120     7065.0206     7158.6035 -52.088541  17.599694  -0.006284  -0.001950
1 62578U 25007D   25273.47770880  .00001319  00000-0  39340-3 0  9998 | 2 62578  54.9808 156.2066 0065890  38.7436 321.8249 14.47550495 38250 | 2025/09/30-11:27:54   24.6669    0.0988  321.3552   99.4784     7111.7971     7064.9375     7158.6568 -50.307770  22.181448  -0.006366  -0.001700
1 62578U 25007D   25278.58808330  .00000478  00000-0  17298-3 0  9990 | 2 62578  54.9800 136.2510 0065762  49.1989 311.4676 14.47395923 38994 | 2025/10/05-14:06:50   89.2963    0.0987  310.8998   99.4890     7112.3035     7065.5315     7159.0754 -39.716234  38.018695  -0.006546  -0.000625
1 62578U 25007D   25295.86109192  .00000338  00000-0  14529-3 0  9999 | 2 62578  54.9820  68.8738 0051751  83.2823 277.4048 14.43988703 41490 | 2025/10/22-20:39:58  271.9611    0.0985  276.8162   99.7238     7123.4871     7086.6224     7160.3519  19.816799  51.286595  -0.004576   0.002417
1 62578U 25007D   25296.89970616  .00000323  00000-0  14271-3 0  9998 | 2 62578  54.9735  64.8554 0050649  83.8476 276.8276 14.43395476 41644 | 2025/10/23-21:35:34  290.9163    0.0985  276.2509   99.7648     7125.4388     7089.3492     7161.5284  23.358471  49.764119  -0.004328   0.002631
1 62578U 25007D   25298.49306782  .00000242  00000-0  12112-3 0  9995 | 2 62578  54.9822  58.6665 0045239  88.6947 271.9220 14.42509508 41872 | 2025/10/25-11:50:01  152.3443    0.0985  271.4038   99.8260     7128.3561     7096.1081     7160.6040  28.591767  46.963317  -0.003810   0.002440
1 62578U 25007D   25299.74052029  .00000232  00000-0  11870-3 0  9995 | 2 62578  54.9825  53.8357 0043814  91.1550 269.4454 14.42188311 42053 | 2025/10/26-17:46:20  247.5039    0.0984  268.9434   99.8483     7129.4144     7098.1776     7160.6512  32.445324  44.388920  -0.003589   0.002514
1 62578U 25007D   25300.78039484  .00000227  00000-0  11845-3 0  9998 | 2 62578  54.9830  49.8110 0041274  93.8014 266.7691 14.41610498 42208 | 2025/10/27-18:43:46  266.9383    0.0984  266.2970   99.8883     7131.3193     7101.8855     7160.7531  35.481137  42.002610  -0.003323   0.002449
1 62578U 25007D   25302.79204519  .00000184  00000-0  10792-3 0  9996 | 2 62578  54.9827  42.0392 0036104  99.5596 260.9470 14.40544096 42496 | 2025/10/29-19:00:32  280.9509    0.0983  260.5387   99.9622     7134.8383     7109.0787     7160.5979  40.834928  36.818554  -0.002829   0.002243
1 62578U 25007D   25304.59685553  .00000172  00000-0  10652-3 0  9999 | 2 62578  54.9824  35.0741 0032039 104.9079 255.5456 14.39502016 42750 | 2025/10/31-14:19:28  219.4797    0.0983  255.1904  100.0346     7138.2813     7115.4109     7161.1516  44.998122  31.594831  -0.002454   0.002060
1 62578U 25007D   25306.05531182  .00000138  00000-0  96498-4 0  9995 | 2 62578  54.9830  29.4519 0030373 110.4175 250.0074 14.39019858 42961 | 2025/11/02-01:19:38   31.6123    0.0983  249.6808  100.0681     7139.8757     7118.1897     7161.5616  47.877480  27.034741  -0.002322   0.001958
1 62578U 25007D   25307.72263395  .00000246  00000-0  13245-3 0  9996 | 2 62578  54.9882  23.0298 0028072 115.0787 245.3114 14.38516173 43206 | 2025/11/03-17:20:35  279.9486    0.0983  245.0196  100.1031     7141.5422     7121.4945     7161.5900  50.605723  21.511925  -0.002090   0.001874
1 62578U 25007D   25308.76517845  .00000230  00000-0  12877-3 0  9996 | 2 62578  54.9836  19.0245 0026188 118.5107 241.8517 14.38007340 43357 | 2025/11/04-18:21:51  300.3252    0.0982  241.5875  100.1386     7143.2268     7124.5201     7161.9335  51.980356  17.923138  -0.001932   0.001768
1 62578U 25007D   25310.15585701  .00000280  00000-0  14775-3 0  9992 | 2 62578  54.9828  13.6799 0023003 126.0643 234.2474 14.37063374 43552 | 2025/11/06-03:44:26   87.7355    0.0981  234.0338  100.2043     7146.3546     7129.9158     7162.7933  53.423056  13.003284  -0.001756   0.001486
1 62578U 25007D   25311.68642712  .00000328  00000-0  16578-3 0  9993 | 2 62578  54.9841   7.8058 0020787 134.6222 225.6460 14.36472580 43779 | 2025/11/07-16:28:27  286.1669    0.0982  225.4760  100.2456     7148.3139     7133.4547     7163.1731  54.474623   7.467713  -0.001648   0.001268
1 62578U 25007D   25314.88937017  .00000357  00000-0  18154-3 0  9997 | 2 62578  54.9828 355.5423 0015333 151.9868 208.1942 14.34821554 44232 | 2025/11/10-21:20:41   14.7341    0.0981  208.1113  100.3609     7153.7965     7142.8276     7164.7654  54.816476  -4.273432  -0.001294   0.000823
1 62578U 25007D   25316.84086979  .00000470  00000-0  22555-3 0  9993 | 2 62578  54.9833 348.0807 0010911 163.9365 196.1964 14.33817984 44515 | 2025/11/12-20:10:51    6.7071    0.0981  196.1616  100.4312     7157.1342     7149.3250     7164.9433  53.797831 -11.355909  -0.000964   0.000512
1 62578U 25007D   25318.02627788  .00000629  00000-0  28563-3 0  9995 | 2 62578  54.9841 343.5552 0009081 172.1871 187.9252 14.33260001 44689 | 2025/11/14-00:37:50   79.1685    0.0980  187.9109  100.4703     7158.9916     7152.4905     7165.4927  52.734861 -15.565529  -0.000828   0.000373
1 62578U 25007D   25319.63090667  .00000481  00000-0  23602-3 0  9998 | 2 62578  54.9795 337.4462 0004384 202.4362 157.6427 14.32380992 44917 | 2025/11/15-15:08:30  304.5589    0.0980  157.6618  100.5319     7161.9202     7158.7804     7165.0599  50.774656 -21.087430  -0.000438   0.000001
1 62578U 25007D   25320.81757801  .00000417  00000-0  21539-3 0  9996 | 2 62578  54.9829 332.9208 0003898 235.5483 124.5129 14.31685284 45085 | 2025/11/16-19:37:18   17.4733    0.0980  124.5497  100.5808     7164.2401     7161.4475     7167.0328  48.955571 -25.029409  -0.000343  -0.000186
1 62578U 25007D   25322.00482104  .00000279  00000-0  16587-3 0  9993 | 2 62578  54.9824 328.4015 0005165 270.7639  89.2749 14.31050017 45253 | 2025/11/18-00:06:56   90.5927    0.0980   89.3341  100.6254     7166.3602     7162.6588     7170.0616  46.830745 -28.808777  -0.000265  -0.000443
1 62578U 25007D   25323.05277297  .00000204  00000-0  13885-3 0  9990 | 2 62578  54.9827 324.4189 0006188 273.8266  86.2006 14.30567110 45406 | 2025/11/19-01:15:59  112.8825    0.0980   86.2714  100.6594     7167.9728     7163.5373     7172.4084  44.717031 -31.991944  -0.000326  -0.000526
1 62578U 25007D   25324.52057300  .00000194  00000-0  13679-3 0  9993 | 2 62578  54.9830 318.8474 0007468 254.8156 105.1997 14.29756980 45619 | 2025/11/20-12:29:37  288.3207    0.0979  105.2823  100.7164     7170.6803     7165.3252     7176.0353  41.399976 -36.182485  -0.000622  -0.000414
1 62578U 25007D   25325.77931351  .00000182  00000-0  13345-3 0  9995 | 2 62578  54.9829 314.0742 0009079 245.6562 114.3469 14.29286384 45793 | 2025/11/21-18:42:12   27.4933    0.0978  114.4416  100.7496     7172.2541     7165.7425     7178.7658  38.245520 -39.501892  -0.000855  -0.000307
1 62578U 25007D   25327.10861022  .00000150  00000-0  12221-3 0  9998 | 2 62578  54.9829 309.0384 0010252 240.0447 119.9514 14.28653540 45989 | 2025/11/23-02:36:23  152.3931    0.0978  120.0531  100.7942     7174.3720     7167.0169     7181.7272  34.630490 -42.706539  -0.001012  -0.000162
1 62578U 25007D   25328.22819440  .00000133  00000-0  11615-3 0  9996 | 2 62578  54.9826 304.7990 0009581 249.8309 110.1639 14.28344223 46143 | 2025/11/24-05:28:35  200.7877    0.0978  110.2669  100.8160     7175.4078     7168.5330     7182.2825  31.378528 -45.149466  -0.000927  -0.000242
1 62578U 25007D   25329.41811235  .00000117  00000-0  11109-3 0  9992 | 2 62578  54.9825 300.2969 0009058 267.7924  92.2017 14.27805237 46315 | 2025/11/25-10:02:04  274.8338    0.0978   92.3054  100.8541     7177.2134     7170.7123     7183.7145  27.737622 -47.473147  -0.000799  -0.000426
1 62578U 25007D   25331.65925817  .00000092  00000-0  10297-3 0  9992 | 2 62578  54.9810 291.8316 0009062 297.5064  62.4992 14.26727078 46632 | 2025/11/27-15:49:19   12.3090    0.0978   62.5914  100.9303     7180.8288     7174.3215     7187.3361  20.446327 -51.037810  -0.000590  -0.000687
1 62578U 25007D   25332.71046432  .00000128  00000-0  11923-3 0  9994 | 2 62578  54.9831 287.8594 0009095 285.1601  74.8370 14.26088586 46781 | 2025/11/28-17:03:04   35.7601    0.0977   74.9376  100.9755     7182.9720     7176.4391     7189.5049  16.862340 -52.333572  -0.000763  -0.000496
1 62578U 25007D   25334.11278882  .00000251  00000-0  17307-3 0  9995 | 2 62578  54.9851 282.5817 0008535 277.3440  82.6566 14.25232292 46985 | 2025/11/30-02:42:24  187.2533    0.0976   82.7536  101.0362     7185.8488     7179.7156     7191.9819  11.977488 -53.664709  -0.000802  -0.000291
1 62578U 25007D   25335.37556455  .00000335  00000-0  21082-3 0  9997 | 2 62578  54.9828 277.8239 0009156 249.7719 110.2273 14.24601856 47165 | 2025/12/01-09:00:48  287.8564    0.0976  110.3257  101.0809     7187.9686     7181.3873     7194.5499   7.484745 -54.470973  -0.000894   0.000197
1 62578U 25007D   25336.63897115  .00000396  00000-0  24006-3 0  9994 | 2 62578  55.0028 273.1331 0008365 255.2635 104.7415 14.23930173 47343 | 2025/12/02-15:20:07   28.6131    0.0977  104.8342  101.1286     7190.2288     7184.2142     7196.2435   3.006214 -54.920585  -0.000819   0.000168
1 62578U 25007D   25338.32444491  .00000499  00000-0  28964-3 0  9998 | 2 62578  54.9830 266.7454 0008893 284.3674  75.6314 14.22985784 47585 | 2025/12/04-07:47:12  283.4388    0.0975   75.7301  101.1957     7193.4098     7187.0127     7199.8069  -3.121547 -54.894319  -0.000873  -0.000171
1 62578U 25007D   25339.94069433  .00000342  00000-0  22431-3 0  9996 | 2 62578  54.9832 260.6858 0008639 281.9667  78.0339 14.22044941 47812 | 2025/12/05-22:34:35  152.9394    0.0975   78.1308  101.2626     7196.5823     7190.3651     7202.7994  -8.898943 -54.258281  -0.000863  -0.000040
1 62578U 25007D   25341.27661798  .00000253  00000-0  18659-3 0  9995 | 2 62578  54.9824 255.6838 0008514 264.8090  95.1913 14.21373196 48003 | 2025/12/07-06:38:19  280.1910    0.0975   95.2885  101.3105     7198.8495     7192.7204     7204.9786 -13.595662 -53.274969  -0.000803   0.000284
1 62578U 25007D   25342.47248000  .00000166  00000-0  14899-3 0  9990 | 2 62578  54.9759 251.2150 0007616 248.4853 111.5310 14.20599316 48171 | 2025/12/08-11:20:22  356.3328    0.0975  111.6122  101.3657     7201.4637     7195.9790     7206.9483 -17.703221 -52.047532  -0.000581   0.000493
1 62578U 25007D   25344.44330885 -.00000016  00000-0  65491-4 0  9992 | 2 62578  54.9800 243.8512 0008452 269.8047  90.1959 14.19734336 48451 | 2025/12/10-10:38:21  355.1533    0.0975   90.2928  101.4274     7204.3884     7198.2992     7210.4775 -24.229899 -49.352937  -0.000757   0.000375
1 62578U 25007D   25345.71097083 -.00000080  00000-0  35888-4 0  9991 | 2 62578  54.9826 239.1237 0009358 288.2396  71.7559 14.19019876 48635 | 2025/12/11-17:03:47   97.4936    0.0974   71.8578  101.4785     7206.8064     7200.0623     7213.5505 -28.216316 -47.190315  -0.000913   0.000205
1 62578U 25007D   25346.97910938 -.00000120  00000-0  16785-4 0  9993 | 2 62578  54.9819 234.3959 0009035 289.9982  70.0018 14.18751739 48818 | 2025/12/12-23:29:55  199.9968    0.0973   70.0991  101.4977     7207.7144     7201.2022     7214.2266 -32.009426 -44.703534  -0.000870   0.000243
1 62578U 25007D   25348.17694447 -.00000171  00000-0 -78034-5 0  9994 | 2 62578  54.9814 229.9330 0008819 289.6698  70.3324 14.18612823 48987 | 2025/12/14-04:14:48  276.8587    0.0974   70.4276  101.5076     7208.1849     7201.8280     7214.5418 -35.390590 -42.076840  -0.000827   0.000307
1 62578U 25007D   25349.23413343 -.00000223  00000-0 -33033-4 0  9993 | 2 62578  54.9812 225.9960 0008369 279.2263  80.7764 14.18144314 49139 | 2025/12/15-05:37:09  302.4253    0.0974   80.8711  101.5411     7209.7724     7203.7386     7215.8063 -38.195912 -39.547499  -0.000687   0.000477
1 62578U 25007D   25350.57381630 -.00000234  00000-0 -39185-4 0  9991 | 2 62578  54.9742 221.0175 0006435 261.3000  98.7244 14.17421502 49328 | 2025/12/16-13:46:17   70.9884    0.0973   98.7973  101.5929     7212.2233     7207.5822     7216.8643 -41.478538 -36.078991  -0.000344   0.000544
1 62578U 25007D   25351.91416821 -.00000229  00000-0 -37103-4 0  9993 | 2 62578  54.9826 216.0307 0008655 253.0166 106.9858 14.16623947 49519 | 2025/12/17-21:56:24  199.8450    0.0972  107.0806  101.6501     7214.9300     7208.6855     7221.1745 -44.464535 -32.341791  -0.000282   0.000818
1 62578U 25007D   25353.11394180 -.00000205  00000-0 -25797-4 0  9990 | 2 62578  54.9804 211.5789 0008858 256.9169 103.0815 14.16092558 49686 | 2025/12/19-02:44:04  277.4018    0.0972  103.1803  101.6883     7216.7348     7210.3422     7223.1274 -46.838894 -28.791708  -0.000281   0.000840
1 62578U 25007D   25354.45511355 -.00000181  00000-0 -13520-4 0  9997 | 2 62578  54.9801 206.6027 0008863 260.2657  99.7314 14.16092457 49873 | 2025/12/20-10:55:21   46.5231    0.0972   99.8315  101.6883     7216.7352     7210.3390     7223.1314 -49.159529 -24.620156  -0.000257   0.000848
1 62578U 25007D   25355.72606081 -.00000136  00000-0  92842-5 0  9993 | 2 62578  54.9801 201.8904 0008879 282.2131  77.7847 14.15425046 50054 | 2025/12/21-17:25:31  150.0284    0.0973   77.8842  101.7362     7219.0036     7212.5938     7225.4133 -51.015965 -20.498358  -0.000498   0.000735
1 62578U 25007D   25356.85616330 -.00000081  00000-0  37129-4 0  9991 | 2 62578  54.9797 197.7021 0008970 287.6125  72.3867 14.15099742 50216 | 2025/12/22-20:32:52  202.1661    0.0972   72.4847  101.7596     7220.1099     7213.6334     7226.5863 -52.376430 -16.717566  -0.000519   0.000732
1 62578U 25007D   25358.19856366 -.00000001  00000-0  79153-4 0  9990 | 2 62578  54.9735 192.7477 0008193 297.5475  62.4664 14.14537961 50408 | 2025/12/24-04:45:55  331.6930    0.0972   62.5497  101.8000     7222.0214     7216.1044     7227.9384 -53.618468 -12.130358  -0.000530   0.000625
1 62578U 25007D   25359.39987255  .00000079  00000-0  12058-3 0  9999 | 2 62578  54.9795 188.2870 0008581 281.4784  78.5224 14.14533983 50575 | 2025/12/25-09:35:48   49.8221    0.0972   78.6188  101.8003     7222.0349     7215.8377     7228.2322 -54.405432  -7.924288  -0.000290   0.000808
1 62578U 25007D   25360.53095852  .00000154  00000-0  16138-3 0  9997 | 2 62578  54.9824 184.1062 0008222 261.3539  98.6501 14.13826266 50730 | 2025/12/26-12:44:34  102.3055    0.0971   98.7432  101.8513     7224.4448     7218.5049     7230.3847 -54.841262  -3.937036   0.000065   0.000820
1 62578U 25007D   25361.87446411  .00000270  00000-0  22427-3 0  9993 | 2 62578  54.9796 179.1402 0008757 256.7342 103.2653 14.13351651 50926 | 2025/12/27-20:59:13  232.2622    0.0971  103.3629  101.8855     7226.0621     7219.7342     7232.3899 -54.973410   0.825012   0.000214   0.000849
1 62578U 25007D   25362.93554879  .00000334  00000-0  26041-3 0  9996 | 2 62578  54.9802 175.2226 0008816 258.5789 101.4192 14.12813910 51071 | 2025/12/28-22:27:11  259.2176    0.0971  101.5182  101.9243     7227.8955     7221.5234     7234.2676 -54.789187   4.579014   0.000246   0.000847
1 62578U 25007D   25363.99705103  .00000351  00000-0  27237-3 0  9998 | 2 62578  54.9802 171.3072 0008723 273.9543  86.0430 14.12285273 51228 | 2025/12/29-23:55:45  286.3208    0.0970   86.1427  101.9624     7229.6991     7223.3926     7236.0055 -54.348636   8.309521   0.000072   0.000869
1 62578U 25007D   25365.48389852  .00000305  00000-0  25140-3 0  9993 | 2 62578  54.9802 165.8289 0009207 292.8121  67.1877 14.11357729 51439 | 2025/12/31-11:36:48  108.5272    0.0971   67.2850  102.0294     7232.8663     7226.2070     7239.5256 -53.307095  13.460163  -0.000138   0.000910
1 62578U 25007D   26001.75896964  .00000233  00000-0  21334-3 0  9999 | 2 62578  54.9798 161.1438 0008923 283.6414  76.3563 14.10924304 51617 | 2026/01/01-18:12:54  213.4968    0.0971   76.4557  102.0608     7234.3475     7227.8923     7240.8027 -52.029183  17.769146   0.000081   0.000889
1 62578U 25007D   26002.82186810  .00000126  00000-0  15554-3 0  9998 | 2 62578  54.9810 157.2281 0008418 278.5855  81.4161 14.10502468 51765 | 2026/01/02-19:43:29  241.0997    0.0970   81.5115  102.0913     7235.7898     7229.6987     7241.8809 -50.695401  21.281134   0.000206   0.000816
1 62578U 25007D   26003.88514223  .00000007  00000-0  89704-4 0  9995 | 2 62578  54.9811 153.3226 0008392 263.8679  96.1335 14.09903903 51914 | 2026/01/03-21:14:36  268.8321    0.0970   96.2291  102.1346     7237.8376     7231.7636     7243.9116 -49.128282  24.684676   0.000455   0.000705
1 62578U 25007D   26004.94886766 -.00000078  00000-0  41879-4 0  9997 | 2 62578  54.9811 149.4179 0008938 252.6174 107.3818 14.09425367 52060 | 2026/01/04-22:46:22  296.7286    0.0969  107.4795  102.1693     7239.4758     7233.0051     7245.9464 -47.333285  27.972871   0.000664   0.000598
1 62578U 25007D   26006.50963107 -.00000094  00000-0  32795-4 0  9991 | 2 62578  54.9812 143.6948 0008656 266.1693  93.8286 14.08816595 52282 | 2026/01/06-12:13:52  145.8662    0.0969   93.9276  102.2134     7241.5611     7235.2929     7247.8294 -44.307950  32.553616   0.000558   0.000662
1 62578U 25007D   26007.85795048 -.00000040  00000-0  64604-4 0  9992 | 2 62578  54.9813 138.7539 0008850 282.9085  77.0896 14.08353073 52470 | 2026/01/07-20:35:26  277.5309    0.0970   77.1885  102.2471     7243.1500     7236.7398     7249.5602 -41.339597  36.248876   0.000420   0.000779
1 62578U 25007D   26008.92280388 -.00000003  00000-0  86491-4 0  9994 | 2 62578  54.9781 134.9134 0009984 298.1896  61.8063 14.07966382 52627 | 2026/01/08-22:08:50  305.7704    0.0968   61.9072  102.2752     7244.4761     7237.2432     7251.7090 -38.816585  38.934101   0.000290   0.000955
1 62578U 25007D   26010.84035717  .00000057  00000-0  12344-3 0  9995 | 2 62578  54.9817 127.8416 0008419 272.7698  87.2307 14.07190516 52891 | 2026/01/10-20:10:06  285.0468    0.0969   87.3271  102.3316     7247.1387     7241.0374     7253.2401 -33.730206  43.419587   0.000639   0.000548
1 62578U 25007D   26012.75900685 -.00000006  00000-0  87213-4 0  9995 | 2 62578  54.9822 120.8331 0008568 265.0419  94.9571 14.06413430 53168 | 2026/01/12-18:12:58  264.6618    0.0968   95.0549  102.3881     7249.8080     7243.5964     7256.0196 -28.180522  47.211233   0.000771   0.000374
1 62578U 25007D   26014.03850063 -.00000068  00000-0  49466-4 0  9998 | 2 62578  54.9822 116.1629 0008607 266.5192  93.4791 14.06214463 53347 | 2026/01/14-00:55:26   11.2116    0.0967   93.5775  102.4026     7250.4918     7244.2513     7256.7323 -24.243014  49.348947   0.000794   0.000332
1 62578U 25007D   26015.10476207 -.00000120  00000-0  18529-4 0  9996 | 2 62578  54.9823 112.2710 0008623 269.2953  90.7027 14.06214697 53496 | 2026/01/15-02:30:51   40.0088    0.0968   90.8015  102.4026     7250.4910     7244.2389     7256.7431 -20.837622  50.880712   0.000802   0.000317
1 62578U 25007D   26016.59769806 -.00000104  00000-0  28284-4 0  9991 | 2 62578  54.9823 106.8233 0008968 286.6068  73.3915 14.05753778 53701 | 2026/01/16-14:20:41  224.3847    0.0968   73.4900  102.4361     7252.0758     7245.5721     7258.5795 -15.913037  52.629161   0.000748   0.000494
1 62578U 25007D   26017.73563524 -.00000069  00000-0  49722-4 0  9997 | 2 62578  54.9822 102.6753 0008799 286.4256  73.5744 14.05251486 53868 | 2026/01/17-17:39:18  279.3100    0.0967   73.6711  102.4728     7253.8038     7247.4212     7260.1864 -12.064504  53.642241   0.000769   0.000428
1 62578U 25007D   26018.94507674 -.00000043  00000-0  65810-4 0  9993 | 2 62578  54.9824  98.2691 0008591 282.7848  77.2160 14.05011382 54039 | 2026/01/18-22:40:54    0.3064    0.0968   77.3120  102.4903     7254.6302     7248.3978     7260.8627  -7.907707  54.410775   0.000802   0.000309
1 62578U 25007D   26020.15499394  .00000001  00000-0  94370-4 0  9994 | 2 62578  54.9886  93.8669 0008434 257.9353 102.0669 14.04221731 54204 | 2026/01/20-03:43:11   81.4700    0.0967  102.1614  102.5479     7257.3497     7251.2288     7263.4705  -3.708371  54.863413   0.000835  -0.000120
1 62578U 25007D   26021.50791877  .00000030  00000-0  11383-3 0  9999 | 2 62578  54.9825  88.9469 0008790 256.1650 103.8339 14.03492744 54392 | 2026/01/21-12:11:24  214.7797    0.0967  103.9317  102.6012     7259.8625     7253.4811     7266.2439   1.010525  54.973213   0.000849  -0.000226
1 62578U 25007D   26022.64761162  .00000039  00000-0  12010-3 0  9996 | 2 62578  54.9826  84.8066 0008661 264.6772  95.3207 14.03172647 54551 | 2026/01/22-15:32:33  270.3338    0.0967   95.4195  102.6246     7260.9665     7254.6778     7267.2552   4.976907  54.756887   0.000852  -0.000158
1 62578U 25007D   26024.14387416  .00000023  00000-0  11080-3 0  9998 | 2 62578  54.9838  79.3824 0008619 278.1238  81.8750 14.02588313 54761 | 2026/01/24-03:27:10   95.8864    0.0966   81.9728  102.6673     7262.9831     7256.7231     7269.2430  10.130945  54.042411   0.000861  -0.000038
1 62578U 25007D   26027.56648380 -.00000016  00000-0  87247-4 0  9999 | 2 62578  54.9821  66.9717 0008329 272.5280  87.4733 14.01276474 55247 | 2026/01/27-13:35:44  263.8075    0.0967   87.5687  102.7634     7267.5153     7261.4622     7273.5684  21.508214  50.600673   0.000780  -0.000292
1 62578U 25007D   26028.63672795 -.00000003  00000-0  96735-4 0  9993 | 2 62578  54.9825  63.0991 0008476 267.3730  92.6265 14.00882369 55397 | 2026/01/28-15:16:53  294.0247    0.0965   92.7235  102.7924     7268.8783     7262.7172     7275.0394  24.876762  49.032867   0.000738  -0.000418
1 62578U 25007D   26030.49272293 -.00000012  00000-0  92425-4 0  9991 | 2 62578  54.9826  56.3909 0008498 267.1982  92.8011 13.99836843 55656 | 2026/01/30-11:49:31  250.7206    0.0966   92.8984  102.8691     7272.4972     7266.3170     7278.6773  30.434179  45.791342   0.000684  -0.000504
1 62578U 25007D   26031.63554479 -.00000043  00000-0  71959-4 0  9990 | 2 62578  54.9826  52.2653 0008483 268.3042  91.6951 13.99250582 55819 | 2026/01/31-15:15:11  307.3885    0.0965   91.7923  102.9122     7274.5284     7268.3574     7280.6994  33.649687  43.483156   0.000655  -0.000539
1 62578U 25007D   26032.85034425 -.00000056  00000-0  63026-4 0  9999 | 2 62578  54.9921  47.9031 0011766 286.7731  73.1943 13.98581768 55989 | 2026/02/01-20:24:29   30.3078    0.0965   73.3234  102.9614     7276.8474     7268.2854     7285.4093  36.865960  40.804804   0.001064  -0.000503
1 62578U 25007D   26034.13712131 -.00000055  00000-0  64681-4 0  9996 | 2 62578  54.9828  43.2489 0008927 285.5950  74.4029 13.97964861 56164 | 2026/02/03-03:17:27  139.4396    0.0965   74.5015  103.0069     7278.9880     7272.4901     7285.4860  40.048599  37.672510   0.000764  -0.000462
1 62578U 25007D   26035.13832065 -.00000050  00000-0  68393-4 0  9995 | 2 62578  54.9828  39.6449 0008756 286.8183  73.1821 13.97572829 56302 | 2026/02/04-03:19:10  144.4596    0.0965   73.2782  103.0358     7280.3492     7273.9745     7286.7238  42.337498  35.080544   0.000730  -0.000484
1 62578U 25007D   26036.56918132 -.00000027  00000-0  85123-4 0  9997 | 2 62578  54.9814  34.5086 0008564 280.6567  79.3432 13.96939591 56503 | 2026/02/05-13:39:37  306.1166    0.0964   79.4397  103.0825     7282.5491     7276.3124     7288.7859  45.306937  31.148609   0.000607  -0.000604
1 62578U 25007D   26037.57120054 -.00000042  00000-0  75552-4 0  9999 | 2 62578  54.9836  30.9023 0008695 262.5050  97.4926 13.96459714 56647 | 2026/02/06-13:42:31  311.4398    0.0964   97.5914  103.1179     7284.2174     7277.8838     7290.5511  47.178364  28.238241   0.000345  -0.000798
1 62578U 25007D   26039.14656177 -.00000053  00000-0  68542-4 0  9997 | 2 62578  54.9835  25.2484 0009226 293.4578  66.5414 13.95497248 56869 | 2026/02/08-03:31:02  165.7749    0.0962   66.6384  103.1890     7287.5663     7280.8428     7294.2898  49.730764  23.452854   0.000693  -0.000609
1 62578U 25007D   26040.29280821 -.00000050  00000-0  70878-4 0  9996 | 2 62578  54.9829  21.1343 0009133 292.5997  67.3999 13.95056357 57021 | 2026/02/09-07:01:38  223.6671    0.0963   67.4966  103.2216     7289.1016     7282.4445     7295.7588  51.284632  19.824373   0.000631  -0.000660
1 62578U 25007D   26041.43926814 -.00000048  00000-0  72020-4 0  9990 | 2 62578  54.9837  17.0327 0008951 294.7196  65.2834 13.95043697 57183 | 2026/02/10-10:32:32  281.6209    0.0962   65.3766  103.2226     7289.1457     7282.6212     7295.6703  52.571990  16.105685   0.000596  -0.000668
1 62578U 25007D   26042.58572659 -.00000047  00000-0  72892-4 0  9997 | 2 62578  54.9839  12.9252 0008985 297.6493  62.3557 13.95043954 57349 | 2026/02/11-14:03:26  339.5814    0.0963   62.4470  103.2226     7289.1448     7282.5956     7295.6941  53.590768  12.298734   0.000584  -0.000682
1 62578U 25007D   26043.58887747 -.00000019  00000-0  93556-4 0  9994 | 2 62578  54.9841   9.3312 0009015 300.1780  59.8290 13.95044302 57481 | 2026/02/12-14:07:59  345.2965    0.0964   59.9184  103.2225     7289.1436     7282.5725     7295.7148  54.256527   8.915187   0.000574  -0.000696
1 62578U 25007D   26045.38044462 -.00000017  00000-0  96149-4 0  9992 | 2 62578  54.9841   2.9145 0008294 291.7054  68.3025 13.94594945 57732 | 2026/02/14-09:07:50  278.4423    0.0962   68.3908  103.2558     7290.7093     7284.6624     7296.7562  54.912979   2.795704   0.000346  -0.000754
1 62578U 25007D   26046.38416490 -.00000005  00000-0  10547-3 0  9991 | 2 62578  54.9846 359.3232 0007882 278.8802  81.1268 13.94072824 57876 | 2026/02/15-09:13:11  284.3631    0.0963   81.2161  103.2945     7292.5296     7286.7816     7298.2776  54.980764  -0.649484   0.000112  -0.000780
1 62578U 25007D   26047.38826071 -.00000028  00000-0  89429-4 0  9993 | 2 62578  54.9839 355.7395 0007784 265.2698  94.7376 13.93484755 58018 | 2026/02/16-09:19:05  290.4106    0.0963   94.8265  103.3381     7294.5812     7288.9030     7300.2593  54.831957  -4.084822  -0.000122  -0.000769
1 62578U 25007D   26048.82336058 -.00000041  00000-0  80192-4 0  9997 | 2 62578  54.9926 350.6269 0009077 250.8578 109.1401 13.92714478 58212 | 2026/02/17-19:45:38   93.5831    0.0961  109.2383  103.3952     7297.2705     7290.6468     7303.8943  54.258379  -8.956246  -0.000433  -0.000798
1 62578U 25007D   26050.40285313 -.00000030  00000-0  89745-4 0  9992 | 2 62578  54.9739 345.0000 0009784 246.4098 113.5836 13.92004884 58436 | 2026/02/19-09:40:06  309.3887    0.0961  113.6863  103.4479     7299.7503     7292.6082     7306.8923  53.100710 -14.228292  -0.000610  -0.000765
1 62578U 25007D   26052.27071581 -.00000032  00000-0  89034-4 0  9992 | 2 62578  54.9847 338.3250 0008614 277.8080  82.1903 13.90973695 58695 | 2026/02/21-06:29:49  270.3304    0.0961   82.2881  103.5246     7303.3576     7297.0664     7309.6487  51.096942 -20.308121  -0.000206  -0.000836
1 62578U 25007D   26053.78033848 -.00000030  00000-0  92050-4 0  9993 | 2 62578  54.9938 332.9863 0009000 292.9302  67.0709 13.90131844 58903 | 2026/02/22-18:43:41  100.6184    0.0961   67.1659  103.5873     7306.3058     7299.7301     7312.8815  48.993863 -24.978378  -0.000064  -0.000898
1 62578U 25007D   26055.86648804 -.00000041  00000-0  83656-4 0  9992 | 2 62578  54.9829 325.5547 0007305 291.4297  68.5884 13.89194236 59196 | 2026/02/24-20:47:44  141.1031    0.0961   68.6664  103.6572     7309.5929     7304.2533     7314.9326  45.342559 -31.099383  -0.000165  -0.000712
1 62578U 25007D   26056.94613463 -.00000039  00000-0  86363-4 0  9990 | 2 62578  54.9842 321.7239 0008968 248.5123 111.4881 13.88479605 59341 | 2026/02/25-22:42:26  174.6885    0.0960  111.5837  103.7106     7312.1008     7305.5433     7318.6583  43.164512 -34.060052  -0.000775  -0.000452
1 62578U 25007D   26058.60245956 -.00000027  00000-0  97595-4 0  9999 | 2 62578  54.9878 315.8638 0009532 249.9543 110.0391 13.87652842 59577 | 2026/02/27-14:27:32   58.4651    0.0960  110.1417  103.7724     7315.0049     7308.0322     7321.9776  39.464000 -38.291655  -0.000858  -0.000415
1 62578U 25007D   26059.75528978 -.00000019  00000-0  10507-3 0  9992 | 2 62578  54.9832 311.7842 0009289 254.5364 105.4569 13.87010049 59731 | 2026/02/28-18:07:37  118.7000    0.0959  105.5595  103.8204     7317.2648     7310.4678     7324.0618  36.636784 -40.998761  -0.000833  -0.000412
1 62578U 25007D   26061.19702063 -.00000016  00000-0  10881-3 0  9994 | 2 62578  54.9830 306.6874 0008730 273.6081  86.3880 13.86367976 59933 | 2026/03/02-04:43:42  284.2381    0.0959   86.4878  103.8685     7319.5238     7313.1339     7325.9138  32.849528 -44.091255  -0.000666  -0.000565
1 62578U 25007D   26062.42308151 -.00000007  00000-0  11782-3 0  9992 | 2 62578  54.9800 302.3706 0008874 299.9929  60.0149 13.85791266 60108 | 2026/03/03-10:09:14   11.1336    0.0959   60.1030  103.9118     7321.5544     7315.0573     7328.0516  29.435933 -46.436260  -0.000412  -0.000786
1 62578U 25007D   26063.43312979  .00000001  00000-0  12542-3 0  9995 | 2 62578  54.9822 298.8006 0009243 296.4567  63.5443 13.85478411 60249 | 2026/03/04-10:23:42   19.3233    0.0959   63.6392  103.9352     7322.6566     7315.8882     7329.4249  26.488381 -48.180992  -0.000527  -0.000760
1 62578U 25007D   26064.51573615 -.00000012  00000-0  11508-3 0  9995 | 2 62578  54.9879 294.9894 0008847 280.8977  79.0986 13.84799091 60393 | 2026/03/05-12:22:39   53.9446    0.0959   79.1982  103.9862     7325.0511     7318.5707     7331.5316  23.229670 -49.840260  -0.000717  -0.000519
1 62578U 25007D   26066.10421140 -.00000026  00000-0  10374-3 0  9992 | 2 62578  54.9822 289.3955 0008377 262.3889  97.6118 13.84120505 60618 | 2026/03/07-02:30:03  272.9509    0.0958   97.7069  104.0372     7327.4451     7321.3069     7333.5833  18.258877 -51.861891  -0.000820  -0.000171
1 62578U 25007D   26068.84990842 -.00000026  00000-0  10446-3 0  9995 | 2 62578  54.9818 279.7459 0009286 250.8720 109.1232 13.83191957 60996 | 2026/03/09-20:23:52  193.7632    0.0957  109.2237  104.1070     7330.7240     7323.9167     7337.5314   9.307263 -54.188312  -0.000916   0.000151
1 62578U 25007D   26070.15085767 -.00000026  00000-0  10491-3 0  9993 | 2 62578  54.9815 275.1798 0008804 260.5367  99.4596 13.83010277 61179 | 2026/03/11-03:37:14  307.9522    0.0958   99.5591  104.1207     7331.3660     7324.9115     7337.8206   4.963811 -54.756971  -0.000878   0.000066
1 62578U 25007D   26071.16274155 -.00000018  00000-0  11207-3 0  9993 | 2 62578  54.9814 271.6265 0008760 262.8442  97.1519 13.83010282 61310 | 2026/03/12-03:54:20  316.7812    0.0957   97.2515  104.1207     7331.3660     7324.9437     7337.7883   1.560590 -54.959248  -0.000872   0.000084
1 62578U 25007D   26072.53645075 -.00000017  00000-0  11456-3 0  9993 | 2 62578  54.9861 266.8067 0009533 284.3913  75.5986 13.82317588 61506 | 2026/03/13-12:52:29   97.4966    0.0957   75.7044  104.1729     7333.8150     7326.8237     7340.8064  -3.062987 -54.900722  -0.000935  -0.000185
1 62578U 25007D   26073.54900023 -.00000021  00000-0  11092-3 0  9993 | 2 62578  54.9801 263.2551 0008876 292.0621  67.9393 13.82060100 61647 | 2026/03/14-13:10:33  106.5525    0.0957   68.0336  104.1923     7334.7259     7328.2156     7341.2362  -6.457358 -54.599578  -0.000856  -0.000234
1 62578U 25007D   26074.56165103 -.00000041  00000-0  92686-4 0  9999 | 2 62578  54.9848 259.7082 0008677 286.9280  73.0725 13.81692726 61785 | 2026/03/15-13:28:46  115.6527    0.0957   73.1677  104.2200     7336.0260     7329.6605     7342.3914  -9.823661 -54.100129  -0.000862  -0.000100
1 62578U 25007D   26075.86415622 -.00000050  00000-0  85337-4 0  9992 | 2 62578  54.9800 255.1478 0008073 270.1460  89.8571 13.81086204 61969 | 2026/03/16-20:44:23  230.3962    0.0956   89.9496  104.2658     7338.1736     7332.2495     7344.0977 -14.092830 -53.143133  -0.000781   0.000205
1 62578U 25007D   26077.23957612 -.00000059  00000-0  77489-4 0  9993 | 2 62578  54.9786 250.3361 0007894 260.1745  99.8320 13.80716111 62156 | 2026/03/18-05:44:59   11.7113    0.0956   99.9211  104.2937     7339.4849     7333.6911     7345.2787 -18.500409 -51.772399  -0.000687   0.000389
