# SPACE DATA - HISTORICAL TLEs
# ----------------------------
# NORAD_ID    : 61559
# OBJECT_NAME : QIANFAN-26
# --------------------------------------------------------------------+-----------------------------------------------------------------------+----------------------------------------------------------------------------------------------------------------------------------------
#                  LINE 1                                             |                 LINE 2                                                |      DERIVED PARAMETERS
# --------------------------------------------------------------------+-----------------------------------------------------------------------+----------------------------------------------------------------------------------------------------------------------------------------
# NORAD  COSPAR     TLE_EPOCH      MEANMOT1 MEANMOT2   BSTAR  #  REV  |   NORAD    INC     RAAN     ECC    ARGPER  MEANANOM   MEANMOT     REV |  CAL_DATE              LONG     ARGLAT     PERIOD        SMA         PERIGEE        APOGEE      INC_X      INC_Y      ECC_X      ECC_Y
# ------ ------   -------------- ----------  -------  ------- -- ----     -----  ------- -------- ------- -------- -------- -----------  ----   ------------------- ---------  --------  --------  ------------  ------------   ----------- ---------- ----------  ---------  ---------   
1 62584U 25007K   25013.45807082 -.00000209  00000-0  00000+0 0  9995 | 2 62584  54.9822 126.8746 0010937 287.3294 161.5121 14.75068358    44 | 2025/01/13-10:59:37   62.3685   88.8812  161.5518   97.6226     7023.0713     7015.3902     7030.7524 -32.992930  43.983052   0.000640   0.000887
1 62584U 25007K   25014.59332583  .00005238  00000-0  80061-3 0  9995 | 2 62584  54.9830 122.2423 0011423 291.8595  68.1189 14.75093375   212 | 2025/01/14-14:14:23  205.6747    0.0999   68.2404   97.6209     7022.9919     7014.9695     7031.0142 -29.333477  46.504595   0.000670   0.000925
1 62584U 25007K   25015.60976755  .00002120  00000-0  34250-3 0  9999 | 2 62584  54.9821 118.0948 0011474 295.9997  63.9820 14.75095361   362 | 2025/01/15-14:38:03  216.7398    0.0999   64.1002   97.6208     7022.9856     7014.9274     7031.0438 -25.892820  48.503538   0.000673   0.000929
1 62584U 25007K   25017.43935877  .00003112  00000-0  48809-3 0  9999 | 2 62584  54.9822 110.6284 0011655 301.0944  58.8911 14.75109529   632 | 2025/01/17-10:32:40  164.6585    0.0999   59.0055   97.6199     7022.9406     7014.7554     7031.1258 -19.370536  51.457017   0.000722   0.000915
1 62584U 25007K   25018.45579111  .00003613  00000-0  56156-3 0  9997 | 2 62584  54.9819 106.4803 0011674 304.0537  55.9353 14.75118251   786 | 2025/01/18-10:56:20  175.7206    0.0999   56.0462   97.6193     7022.9129     7014.7144     7031.1115 -15.597576  52.723097   0.000742   0.000901
1 62584U 25007K   25022.18264916  .00005023  00000-0  76777-3 0  9994 | 2 62584  54.9818  91.2704 0011974 314.4976  45.5044 14.75158518  1335 | 2025/01/22-04:23:00   96.2598    0.1000   45.6024   97.6166     7022.7851     7014.3760     7031.1942  -1.218993  54.968285   0.000835   0.000858
1 62584U 25007K   25023.53784488  .00004777  00000-0  73140-3 0  9991 | 2 62584  54.9821  85.7395 0012090 318.0775  41.9298 14.75172511  1532 | 2025/01/23-12:54:29  230.9916    0.1000   42.0225   97.6157     7022.7407     7014.2502     7031.2312   4.084689  54.830162   0.000872   0.000837
1 62584U 25007K   25024.55423304  .00005116  00000-0  78092-3 0  9990 | 2 62584  54.9822  81.5911 0012164 320.7299  39.2817 14.75183970  1688 | 2025/01/24-13:18:05  242.0372    0.1000   39.3701   97.6149     7022.7043     7014.1619     7031.2468   8.040415  54.391121   0.000899   0.000819
1 62584U 25007K   25025.57061443  .00004730  00000-0  72417-3 0  9991 | 2 62584  54.9823  77.4429 0012231 323.4088  36.6075 14.75193420  1833 | 2025/01/25-13:41:41  253.0798    0.1000   36.6912   97.6143     7022.6744     7014.0849     7031.2638  11.953837  53.667114   0.000925   0.000800
1 62584U 25007K   25026.58698947  .00004145  00000-0  63831-3 0  9998 | 2 62584  54.9822  73.2947 0012338 326.1276  33.8934 14.75201789  1985 | 2025/01/26-14:05:15  264.1201    0.0999   33.9723   97.6138     7022.6478     7013.9832     7031.3123  15.804585  52.661726   0.000953   0.000784
1 62584U 25007K   25027.87438930  .00004154  00000-0  63948-3 0  9994 | 2 62584  54.9821  68.0401 0012480 329.5049  30.5223 14.75213153  2179 | 2025/01/27-20:59:07   14.1014    0.0999   30.5950   97.6130     7022.6117     7013.8475     7031.3759  20.560973  50.992918   0.000990   0.000761
1 62584U 25007K   25028.89075016  .00004780  00000-0  73102-3 0  9997 | 2 62584  54.9820  63.8915 0012582 332.1197  27.9127 14.75223775  2329 | 2025/01/28-21:22:40   25.1365    0.1000   27.9803   97.6123     7022.5780     7013.7422     7031.4138  24.196060  49.371763   0.001018   0.000740
1 62584U 25007K   25029.90710401  .00004472  00000-0  68577-3 0  9992 | 2 62584  54.9819  59.7428 0012682 334.7321  25.3056 14.75232994  2470 | 2025/01/29-21:46:13   36.1690    0.0999   25.3678   97.6117     7022.5488     7013.6428     7031.4548  27.704419  47.491836   0.001045   0.000718
1 62584U 25007K   25031.12672024  .00003930  00000-0  60623-3 0  9999 | 2 62584  54.9819  54.7641 0012789 337.7865  22.2579 14.75243514  2652 | 2025/01/31-03:02:28  121.4050    0.1000   22.3135   97.6110     7022.5154     7013.5343     7031.4965  31.721489  44.908312   0.001078   0.000688
1 62584U 25007K   25032.14306053  .00004144  00000-0  63745-3 0  9994 | 2 62584  54.9820  50.6152 0012897 340.3415  19.7086 14.75252912  2800 | 2025/02/01-03:26:00  132.4324    0.1000   19.7585   97.6104     7022.4856     7013.4287     7031.5425  34.887481  42.495694   0.001106   0.000663
1 62584U 25007K   25033.15939389  .00005094  00000-0  77623-3 0  9995 | 2 62584  54.9823  46.4663 0012985 342.8797  17.1763 14.75264551  2953 | 2025/02/02-03:49:31  143.4572    0.1000   17.2203   97.6096     7022.4486     7013.3300     7031.5673  37.870769  39.860483   0.001132   0.000636
1 62584U 25007K   25034.17572014  .00005114  00000-0  77885-3 0  9999 | 2 62584  54.9825  42.3175 0013102 345.4371  14.6249 14.75274648  3104 | 2025/02/03-04:13:02  154.4792    0.1000   14.6629   97.6089     7022.4166     7013.2158     7031.6173  40.655463  37.016330   0.001159   0.000610
1 62584U 25007K   25035.19203934  .00004272  00000-0  65574-3 0  9990 | 2 62584  54.9827  38.1688 0013204 347.9229  12.1452 14.75283089  3254 | 2025/02/04-04:36:32  165.4984    0.1000   12.1771   97.6084     7022.3898     7013.1174     7031.6622  43.227043  33.978229   0.001186   0.000581
1 62584U 25007K   25036.20835196  .00004592  00000-0  70220-3 0  9993 | 2 62584  54.9828  34.0200 0013297 350.3902   9.6841 14.75293690  3407 | 2025/02/05-05:00:01  176.5153    0.1000    9.7098   97.6077     7022.3561     7013.0185     7031.6938  45.572072  30.761901   0.001211   0.000550
1 62584U 25007K   25037.49567277  .00004644  00000-0  70958-3 0  9993 | 2 62584  54.9829  28.7652 0013487 353.6396   6.4430 14.75305385  3597 | 2025/02/06-11:53:46  286.4661    0.1000    6.4604   97.6069     7022.3190     7012.8480     7031.7900  48.197962  26.458945   0.001247   0.000514
1 62584U 25007K   25038.78298336  .00004450  00000-0  68109-3 0  9993 | 2 62584  54.9829  23.5103 0013637 356.6518   3.4388 14.75316412  3780 | 2025/02/07-18:47:29   36.4137    0.1000    3.4482   97.6062     7022.2840     7012.7078     7031.8603  50.418680  21.933444   0.001280   0.000470
1 62584U 25007K   25039.79927415  .00004482  00000-0  68564-3 0  9992 | 2 62584  54.9830  19.3612 0013689 358.9500   1.1468 14.75325350  3935 | 2025/02/08-19:10:57   47.4230    0.0999    1.1499   97.6056     7022.2557     7012.6429     7031.8684  51.873567  18.228092   0.001300   0.000430
1 62584U 25007K   25040.81555991  .00004341  00000-0  66490-3 0  9993 | 2 62584  54.9831  15.2120 0013798   1.3486 358.7549 14.75333243  4086 | 2025/02/09-19:34:24   58.4300    0.1001  358.7515   97.6051     7022.2306     7012.5414     7031.9199  53.056578  14.427086   0.001323   0.000393
1 62584U 25007K   25041.83183877  .00004502  00000-0  68833-3 0  9998 | 2 62584  54.9832  11.0632 0013894   3.6621 356.4478 14.75342642  4238 | 2025/02/10-19:57:50   69.4345    0.1000  356.4379   97.6044     7022.2008     7012.4442     7031.9575  53.961399  10.550818   0.001344   0.000353
1 62584U 25007K   25042.91586320  .00003926  00000-0  60407-3 0  9996 | 2 62584  54.9834   6.6376 0014008   6.1827 353.9343 14.75350886  4398 | 2025/02/11-21:58:50  105.1703    0.1000  353.9173   97.6039     7022.1747     7012.3380     7032.0113  54.614853   6.355477   0.001366   0.000311
1 62584U 25007K   25043.93212998  .00003798  00000-0  58535-3 0  9992 | 2 62584  54.9836   2.4888 0014116   8.5039 351.6197 14.75359284  4543 | 2025/02/12-22:22:16  116.1702    0.1000  351.5961   97.6033     7022.1480     7012.2355     7032.0605  54.931736   2.387613   0.001386   0.000269
1 62584U 25007K   25044.94839108  .00004142  00000-0  63532-3 0  9999 | 2 62584  54.9838 358.3400 0014211  10.8522 349.2782 14.75368528  4697 | 2025/02/13-22:45:40  127.1679    0.1001  349.2479   97.6027     7022.1187     7012.1395     7032.0978  54.960725  -1.592793   0.001403   0.000227
1 62584U 25007K   25046.10014547  .00004883  00000-0  74313-3 0  9992 | 2 62584  54.9838 353.6382 0014328  13.4551 346.6828 14.75380379  4863 | 2025/02/15-02:24:12  187.6290    0.1000  346.6449   97.6019     7022.0811     7012.0198     7032.1423  54.645211  -6.092554   0.001422   0.000177
1 62584U 25007K   25047.11639092  .00005484  00000-0  83060-3 0  9999 | 2 62584  54.9839 349.4894 0014443  15.6928 344.4516 14.75392334  5017 | 2025/02/16-02:47:36  198.6213    0.1000  344.4072   97.6012     7022.0431     7011.9012     7032.1851  54.061335 -10.030022   0.001438   0.000130
1 62584U 25007K   25048.13262806  .00005481  00000-0  82993-3 0  9998 | 2 62584  54.9838 345.3406 0014520  17.9072 342.2436 14.75404025  5165 | 2025/02/17-03:10:59  209.6107    0.1000  342.1928   97.6004     7022.0060     7011.8101     7032.2020  53.193930 -13.914886   0.001450   0.000082
1 62584U 25007K   25049.21660501  .00005607  00000-0  84798-3 0  9997 | 2 62584  54.9836 340.9150 0014632  20.3526 339.8054 14.75417310  5323 | 2025/02/18-05:11:54  245.3292    0.1000  339.7474   97.5995     7021.9639     7011.6894     7032.2384  51.961401 -17.978015   0.001463   0.000032
1 62584U 25007K   25050.50381509  .00005555  00000-0  84005-3 0  9992 | 2 62584  54.9835 335.6594 0014740  23.0709 337.0949 14.75432651  5517 | 2025/02/19-12:05:29  355.2414    0.0999  337.0290   97.5985     7021.9152     7011.5649     7032.2655  50.096096 -22.662004   0.001474  -0.000033
1 62584U 25007K   25051.58777108  .00004986  00000-0  75707-3 0  9991 | 2 62584  54.9833 331.2336 0014855  25.5097 334.6633 14.75444695  5676 | 2025/02/20-14:06:23   30.9526    0.1000  334.5903   97.5977     7021.8770     7011.4460     7032.3080  48.197758 -26.460147   0.001483  -0.000084
1 62584U 25007K   25052.80721126  .00004446  00000-0  67823-3 0  9997 | 2 62584  54.9833 326.2545 0014963  28.1271 332.0534 14.75457309  5853 | 2025/02/21-19:22:23  116.1246    0.1000  331.9729   97.5969     7021.8370     7011.3302     7032.3438  45.719342 -30.543494   0.001489  -0.000146
1 62584U 25007K   25053.82340305  .00004513  00000-0  68776-3 0  9999 | 2 62584  54.9833 322.1052 0015029  30.2308 329.9555 14.75468217  6006 | 2025/02/22-19:45:42  127.0987    0.0999  329.8691   97.5961     7021.8024     7011.2493     7032.3554  43.389512 -33.771490   0.001489  -0.000200
1 62584U 25007K   25054.90733254  .00004875  00000-0  74015-3 0  9992 | 2 62584  54.9833 317.6795 0015135  32.5653 327.6277 14.75480798  6166 | 2025/02/23-21:46:33  162.8007    0.1000  327.5347   97.5953     7021.7625     7011.1350     7032.3899  40.654116 -37.018997   0.001492  -0.000256
1 62584U 25007K   25055.92350786  .00006017  00000-0  90586-3 0  9991 | 2 62584  54.9832 313.5304 0015226  34.5822 325.6165 14.75494693  6317 | 2025/02/24-22:09:51  173.7688    0.1000  325.5178   97.5944     7021.7184     7011.0271     7032.4096  37.869093 -39.863317   0.001490  -0.000314
1 62584U 25007K   25056.93967433  .00005418  00000-0  81860-3 0  9995 | 2 62584  54.9829 309.3809 0015282  36.6977 323.5066 14.75505822  6462 | 2025/02/25-22:33:07  184.7342    0.1000  323.4023   97.5937     7021.6831     7010.9525     7032.4136  34.885159 -42.498764   0.001483  -0.000368
1 62584U 25007K   25058.09131999  .00005505  00000-0  83100-3 0  9990 | 2 62584  54.9828 304.6780 0015383  39.1562 321.0547 14.75519697  6638 | 2025/02/27-02:11:30  245.1581    0.0999  320.9437   97.5927     7021.6390     7010.8377     7032.4404  31.283223 -45.215797   0.001477  -0.000428
1 62584U 25007K   25059.10746899  .00006205  00000-0  93240-3 0  9998 | 2 62584  54.9821 300.5286 0015460  41.1916 319.0247 14.75532876  6783 | 2025/02/28-02:34:45  256.1173    0.1000  318.9084   97.5919     7021.5972     7010.7418     7032.4526  27.929169 -47.360245   0.001468  -0.000485
1 62584U 25007K   25060.19135267  .00004431  00000-0  67470-3 0  9995 | 2 62584  54.9817 296.1024 0015550  43.4450 316.7772 14.75542112  6945 | 2025/03/01-04:35:32  291.8040    0.1000  316.6550   97.5913     7021.5679     7010.6494     7032.4865  24.190672 -49.374070   0.001457  -0.000543
1 62584U 25007K   25061.41071373  .00003464  00000-0  53409-3 0  9990 | 2 62584  54.9815 291.1223 0015649  46.0117 314.2170 14.75551250  7126 | 2025/03/02-09:51:25   16.9495    0.1000  314.0883   97.5906     7021.5389     7010.5509     7032.5270  19.813128 -51.287477   0.001442  -0.000608
1 62584U 25007K   25062.42684338  .00003152  00000-0  48876-3 0  9999 | 2 62584  54.9815 286.9723 0015694  48.0119 312.2215 14.75557385  7276 | 2025/03/03-10:14:39   27.9030    0.1000  312.0881   97.5902     7021.5195     7010.4999     7032.5391  16.049613 -52.586835   0.001422  -0.000664
1 62584U 25007K   25063.44296819  .00003146  00000-0  48778-3 0  9999 | 2 62584  54.9814 282.8223 0015755  49.9737 310.2642 14.75564241  7427 | 2025/03/04-10:37:52   38.8550    0.1000  310.1263   97.5898     7021.4977     7010.4354     7032.5601  12.201913 -53.610332   0.001401  -0.000720
1 62584U 25007K   25064.59457091  .00003047  00000-0  47332-3 0  9992 | 2 62584  54.9813 278.1189 0015825  52.3692 307.8741 14.75571264  7594 | 2025/03/05-14:16:10   99.2650    0.1000  307.7308   97.5893     7021.4755     7010.3640     7032.5869   7.764888 -54.430229   0.001377  -0.000780
1 62584U 25007K   25065.74616833  .00002898  00000-0  45157-3 0  9997 | 2 62584  54.9811 273.4155 0015897  54.7223 305.5261 14.75577984  7764 | 2025/03/06-17:54:28  159.6735    0.1000  305.3777   97.5889     7021.4541     7010.2921     7032.6161   3.275577 -54.883440   0.001350  -0.000839
1 62584U 25007K   25066.89776020  .00003038  00000-0  47182-3 0  9996 | 2 62584  54.9810 268.7122 0015965  56.9553 303.2978 14.75585420  7933 | 2025/03/07-21:32:46  220.0802    0.1000  303.1447   97.5884     7021.4305     7010.2208     7032.6403  -1.235668 -54.967113   0.001318  -0.000900
1 62584U 25007K   25068.11708579  .00003671  00000-0  56358-3 0  9995 | 2 62584  54.9808 263.7323 0016042  59.3898 300.8681 14.75594882  8111 | 2025/03/09-02:48:36  305.2143    0.0999  300.7101   97.5878     7021.4005     7010.1368     7032.6643  -6.002471 -54.652161   0.001283  -0.000963
1 62584U 25007K   25069.13318353  .00003966  00000-0  60612-3 0  9990 | 2 62584  54.9805 259.5821 0016094  61.3596 298.9020 14.75603798  8266 | 2025/03/10-03:11:47  316.1575    0.1000  298.7404   97.5872     7021.3722     7010.0721     7032.6724  -9.941927 -54.074148   0.001250  -0.001014
1 62584U 25007K   25070.21701575  .00003364  00000-0  51876-3 0  9997 | 2 62584  54.9804 255.1552 0016161  63.4193 296.8461 14.75610831  8429 | 2025/03/11-05:12:30  351.8285    0.1000  296.6807   97.5867     7021.3499     7010.0027     7032.6971 -14.086069 -53.145339   0.001212  -0.001069
1 62584U 25007K   25071.43631870  .00004021  00000-0  61395-3 0  9990 | 2 62584  54.9803 250.1749 0016177  65.8114 294.4575 14.75622163  8608 | 2025/03/12-10:28:17   76.9562    0.1000  294.2886   97.5860     7021.3140     7009.9556     7032.6724 -18.646572 -51.721743   0.001163  -0.001124
1 62584U 25007K   25072.45239650  .00005683  00000-0  85443-3 0  9998 | 2 62584  54.9803 246.0245 0016221  67.7545 292.5174 14.75634865  8754 | 2025/03/13-10:51:27   87.8931    0.1001  292.3456   97.5851     7021.2737     7009.8845     7032.6629 -22.341023 -50.236561   0.001122  -0.001171
1 62584U 25007K   25073.60394170  .00005293  00000-0  79770-3 0  9998 | 2 62584  54.9805 241.3208 0016263  69.8538 290.4210 14.75647298  8925 | 2025/03/14-14:29:40  148.2852    0.1000  290.2462   97.5843     7021.2343     7009.8156     7032.6529 -26.385419 -48.235516   0.001071  -0.001224
1 62584U 25007K   25074.62000192  .00005287  00000-0  79658-3 0  9997 | 2 62584  54.9808 237.1704 0016281  71.7665 288.5105 14.75659034  9074 | 2025/03/15-14:52:48  159.2165    0.1000  288.3335   97.5835     7021.1970     7009.7658     7032.6282 -29.807422 -46.199631   0.001023  -0.001266
1 62584U 25007K   25075.83927052  .00005088  00000-0  76787-3 0  9993 | 2 62584  54.9815 232.1905 0016356  74.0842 286.1958 14.75656020  9258 | 2025/03/16-20:08:32  244.3319    0.0999  286.0157   97.5837     7021.2066     7009.7227     7032.6905 -33.705752 -43.438320   0.000968  -0.001319
1 62584U 25007K   25076.85535561  .00006025  00000-0  90457-3 0  9998 | 2 62584  54.9814 228.0400 0016527  76.1368 284.1469 14.75606704  9403 | 2025/03/17-20:31:42  255.2708    0.1000  283.9632   97.5870     7021.3630     7009.7588     7032.9672 -36.761203 -40.884817   0.000928  -0.001367
1 62584U 25007K   25077.87152210  .00005862  00000-0  88373-3 0  9999 | 2 62584  54.9816 223.8906 0017120  78.2588 282.0332 14.75462222  9553 | 2025/03/18-20:54:59  266.2334    0.1000  281.8412   97.5965     7021.8214     7009.8000     7033.8428 -39.623307 -38.117842   0.000911  -0.001449
1 62584U 25007K   25078.88775013  .00006425  00000-0  96681-3 0  9990 | 2 62584  54.9816 219.7417 0017400  81.0295 279.2673 14.75400991  9700 | 2025/03/19-21:18:21  277.2213    0.0999  279.0704   97.6006     7022.0157     7009.7974     7034.2340 -42.277247 -35.151255   0.000890  -0.001495
1 62584U 25007K   25079.90405373  .00005565  00000-0  84401-3 0  9994 | 2 62584  54.9818 215.5925 0017947  82.8799 277.4241 14.75275523  9852 | 2025/03/20-21:41:50  288.2343    0.1000  277.2201   97.6089     7022.4138     7009.8107     7035.0169 -44.709933 -32.000316   0.000856  -0.001578
1 62584U 25007K   25081.53032231  .00008357  00000-0  12563-2 0  9996 | 2 62584  54.9811 208.9556 0017921  84.8950 275.4094 14.75105114 10094 | 2025/03/22-12:43:39  161.9304    0.0999  275.2049   97.6202     7022.9546     7010.3688     7035.5405 -48.108195 -26.618094   0.000725  -0.001639
1 62584U 25007K   25082.54675343  .00007654  00000-0  11529-2 0  9995 | 2 62584  54.9811 204.8076 0017887  86.8011 273.5034 14.75122507 10242 | 2025/03/23-13:07:19  172.9953    0.0999  273.2988   97.6190     7022.8994     7010.3376     7035.4613 -49.907545 -23.068557   0.000659  -0.001663
1 62584U 25007K   25083.56317386  .00006604  00000-0  99889-3 0  9998 | 2 62584  54.9811 200.6596 0017876  88.6473 271.6574 14.75137159 10396 | 2025/03/24-13:30:58  184.0563    0.0999  271.4526   97.6180     7022.8529     7010.2989     7035.4070 -51.445432 -19.398166   0.000591  -0.001687
1 62584U 25007K   25084.57958446  .00006469  00000-0  97879-3 0  9994 | 2 62584  54.9814 196.5114 0017869  90.6187 269.6860 14.75151198 10546 | 2025/03/25-13:54:36  195.1142    0.0999  269.4812   97.6171     7022.8084     7010.2593     7035.3574 -52.714143 -15.626050   0.000526  -0.001708
1 62584U 25007K   25085.59598541  .00006127  00000-0  92838-3 0  9994 | 2 62584  54.9816 192.3632 0017834  92.5277 267.7764 14.75164754 10690 | 2025/03/26-14:18:13  206.1691    0.0999  267.5722   97.6162     7022.7653     7010.2409     7035.2897 -53.706577 -11.772000   0.000458  -0.001724
1 62584U 25007K   25086.74789404  .00006429  00000-0  97224-3 0  9991 | 2 62584  54.9819 187.6619 0017808  94.7092 265.5941 14.75181853 10866 | 2025/03/27-17:56:58  266.6937    0.0999  265.3907   97.6151     7022.7111     7010.2050     7035.2171 -54.491026  -7.330582   0.000382  -0.001739
1 62584U 25007K   25087.76427500  .00005265  00000-0  80177-3 0  9996 | 2 62584  54.9820 183.5137 0017782  96.6804 263.6220 14.75192668 11014 | 2025/03/28-18:20:33  277.7417    0.0999  263.4195   97.6144     7022.6767     7010.1890     7035.1645 -54.878643  -3.369693   0.000315  -0.001750
1 62584U 25007K   25088.78064930  .00004102  00000-0  63147-3 0  9990 | 2 62584  54.9818 179.3655 0017747  98.6328 261.6683 14.75200846 11168 | 2025/03/29-18:44:08  288.7878    0.0999  261.4671   97.6138     7022.6508     7010.1877     7035.1139 -54.978429   0.608862   0.000247  -0.001757
1 62584U 25007K   25089.79701765  .00003881  00000-0  59898-3 0  9997 | 2 62584  54.9815 175.2171 0017723 100.5895 259.7102 14.75209414 11310 | 2025/03/30-19:07:42  299.8320    0.1000  259.5105   97.6133     7022.6236     7010.1774     7035.0698 -54.790043   4.584381   0.000179  -0.001763
1 62584U 25007K   25090.81338031  .00003870  00000-0  59735-3 0  9992 | 2 62584  54.9812 171.0688 0017677 102.5456 257.7522 14.75217856 11466 | 2025/03/31-19:31:16  310.8745    0.0999  257.5543   97.6127     7022.5968     7010.1830     7035.0106 -54.314579   8.535741   0.000111  -0.001764
1 62584U 25007K   25091.89749453  .00003458  00000-0  53701-3 0  9994 | 2 62584  54.9810 166.6438 0017643 104.6531 255.6426 14.75225644 11629 | 2025/04/01-21:32:23  346.6513    0.0999  255.4468   97.6122     7022.5721     7010.1822     7034.9620 -53.493915  12.700842   0.000040  -0.001764
1 62584U 25007K   25093.18487094  .00004543  00000-0  69544-3 0  9996 | 2 62584  54.9808 161.3890 0017577 107.2113 253.0812 14.75238901 11813 | 2025/04/03-04:26:12   96.6337    0.0999  252.8886   97.6113     7022.5300     7010.1865     7034.8735 -52.105698  17.546642  -0.000043  -0.001757
1 62584U 25007K   25094.20121388  .00004498  00000-0  68866-3 0  9996 | 2 62584  54.9807 157.2402 0017557 109.2422 251.0478 14.75247641 11961 | 2025/04/04-04:49:44  107.6702    0.0999  250.8577   97.6107     7022.5023     7010.1729     7034.8317 -50.699618  21.270311  -0.000108  -0.001752
1 62584U 25007K   25095.55632726  .00004373  00000-0  67029-3 0  9990 | 2 62584  54.9807 151.7088 0017475 111.8101 248.4759 14.75259908 12166 | 2025/04/05-13:21:06  242.3821    0.0999  248.2898   97.6099     7022.4633     7010.1916     7034.7351 -48.413264  26.058266  -0.000197  -0.001736
1 62584U 25007K   25096.84367409  .00003826  00000-0  59019-3 0  9998 | 2 62584  54.9809 146.4539 0017394 114.3116 245.9702 14.75270730 12351 | 2025/04/06-20:14:53  352.3549    0.0999  245.7883   97.6092     7022.4290     7010.2142     7034.6438 -45.823362  30.382871  -0.000279  -0.001717
1 62584U 25007K   25097.85999476  .00003078  00000-0  48085-3 0  9995 | 2 62584  54.9808 142.3053 0017348 116.3097 243.9687 14.75277288 12507 | 2025/04/07-20:38:23    3.3841    0.0999  243.7902   97.6088     7022.4082     7010.2257     7034.5907 -43.505213  33.618222  -0.000342  -0.001701
1 62584U 25007K   25098.87631042  .00003157  00000-0  49229-3 0  9999 | 2 62584  54.9807 138.1564 0017296 118.3486 241.9260 14.75284593 12650 | 2025/04/08-21:01:53   14.4121    0.0999  241.7513   97.6083     7022.3850     7010.2391     7034.5309 -40.958894  36.677601  -0.000404  -0.001682
1 62584U 25007K   25099.89262103  .00003516  00000-0  54462-3 0  9994 | 2 62584  54.9805 134.0076 0017220 120.3154 239.9552 14.75292674 12800 | 2025/04/09-21:25:22   25.4385    0.1000  239.7846   97.6078     7022.3594     7010.2669     7034.4519 -38.197910  39.544595  -0.000465  -0.001658
1 62584U 25007K   25100.90892646  .00003585  00000-0  55466-3 0  9991 | 2 62584  54.9803 129.8586 0017157 122.3483 237.9180 14.75300245 12957 | 2025/04/10-21:48:51   36.4635    0.0999  237.7516   97.6073     7022.3353     7010.2871     7034.3836 -35.236607  42.204442  -0.000524  -0.001634
1 62584U 25007K   25101.92522616  .00003576  00000-0  55321-3 0  9991 | 2 62584  54.9801 125.7096 0017096 124.4043 235.8576 14.75308075 13106 | 2025/04/11-22:12:19   47.4865    0.1000  235.6957   97.6067     7022.3105     7010.3052     7034.3158 -32.090635  44.643057  -0.000582  -0.001608
1 62584U 25007K   25103.14477870  .00003951  00000-0  60790-3 0  9991 | 2 62584  54.9799 120.7307 0017023 126.8272 233.4292 14.75318279 13287 | 2025/04/13-03:28:28  132.7118    0.0999  233.2727   97.6061     7022.2781     7010.3241     7034.2321 -28.094925  47.259545  -0.000650  -0.001573
1 62584U 25007K   25104.16106720  .00003345  00000-0  51937-3 0  9997 | 2 62584  54.9799 116.5814 0016960 128.8953 231.3562 14.75324273 13435 | 2025/04/14-03:51:56  143.7316    0.0999  231.2046   97.6057     7022.2591     7010.3493     7034.1688 -24.601790  49.168500  -0.000704  -0.001543
1 62584U 25007K   25105.51611103  .00003353  00000-0  52046-3 0  9994 | 2 62584  54.9800 111.0492 0016871 131.5741 228.6708 14.75333692 13635 | 2025/04/15-12:23:11  278.4218    0.0999  228.5258   97.6050     7022.2292     7010.3820     7034.0764 -19.747138  51.311314  -0.000776  -0.001498
1 62584U 25007K   25106.53238785  .00003731  00000-0  57547-3 0  9999 | 2 62584  54.9802 106.9002 0016806 133.6853 226.5542 14.75341635 13787 | 2025/04/16-12:46:38  289.4375    0.0999  226.4146   97.6045     7022.2040     7010.4025     7034.0055 -15.983048  52.605746  -0.000825  -0.001464
1 62584U 25007K   25107.81966375  .00003587  00000-0  55438-3 0  9990 | 2 62584  54.9806 101.6448 0016714 136.3059 223.9267 14.75351122 13971 | 2025/04/17-19:40:18   39.3879    0.0999  223.7940   97.6039     7022.1739     7010.4370     7033.9108 -11.097493  53.848974  -0.000887  -0.001417
1 62584U 25007K   25108.83592841  .00003190  00000-0  49633-3 0  9996 | 2 62584  54.9808  97.4958 0016621 138.3582 221.8687 14.75357963 14121 | 2025/04/18-20:03:44   50.3996    0.1000  221.7418   97.6034     7022.1522     7010.4807     7033.8237  -7.172439  54.510958  -0.000933  -0.001376
1 62584U 25007K   25109.85218798  .00003189  00000-0  49621-3 0  9990 | 2 62584  54.9810  93.3468 0016538 140.4330 219.7880 14.75365529 14271 | 2025/04/19-20:27:09   61.4096    0.0999  219.6669   97.6029     7022.1282     7010.5150     7033.7414  -3.209761  54.887228  -0.000977  -0.001334
1 62584U 25007K   25110.86844255  .00003152  00000-0  49074-3 0  9998 | 2 62584  54.9810  89.1976 0016475 142.6256 217.5893 14.75372592 14424 | 2025/04/20-20:50:33   72.4182    0.0999  217.4743   97.6025     7022.1058     7010.5369     7033.6747   0.769957  54.975608  -0.001018  -0.001295
1 62584U 25007K   25111.95244120  .00003970  00000-0  60983-3 0  9994 | 2 62584  54.9810  84.7717 0016409 144.8427 215.3659 14.75382848 14587 | 2025/04/21-22:51:30  108.1584    0.0999  215.2572   97.6018     7022.0732     7010.5507     7033.5958   5.010114  54.752252  -0.001063  -0.001250
1 62584U 25007K   25113.10418308  .00003539  00000-0  54694-3 0  9997 | 2 62584  54.9811  80.0692 0016308 147.2093 212.9922 14.75390812 14758 | 2025/04/23-02:30:01  168.6303    0.0999  212.8906   97.6013     7022.0480     7010.5964     7033.4995   9.481965  54.157305  -0.001106  -0.001198
1 62584U 25007K   25114.18816910  .00003226  00000-0  50125-3 0  9995 | 2 62584  54.9814  75.6432 0016187 149.4444 210.7501 14.75398432 14915 | 2025/04/24-04:30:57  204.3667    0.0998  210.6554   97.6008     7022.0238     7010.6572     7033.3903  13.633162  53.264353  -0.001143  -0.001146
1 62584U 25007K   25115.47554582  .00003714  00000-0  57502-3 0  9990 | 2 62584  54.9816  70.3880 0016687 151.6570 208.5341 14.75184354 15101 | 2025/04/25-11:24:47  314.3498    0.0999  208.4429   97.6149     7022.7031     7010.9843     7034.4219  18.454512  51.791962  -0.001239  -0.001118
1 62584U 25007K   25116.89847394  .00004182  00000-0  64344-3 0  9995 | 2 62584  54.9821  64.5802 0016551 154.6420 205.5395 14.75197861 15319 | 2025/04/26-21:33:48  113.8238    0.0999  205.4579   97.6140     7022.6603     7011.0371     7034.2835  23.600917  49.659118  -0.001282  -0.001047
1 62584U 25007K   25117.91494474  .00004196  00000-0  64971-3 0  9997 | 2 62584  54.9826  60.4321 0016926 154.9113 205.2713 14.74907015 15469 | 2025/04/27-21:57:31  124.9022    0.1000  205.1887   97.6333     7023.5835     7011.6953     7035.4716  27.131420  47.822300  -0.001381  -0.000979
1 62584U 25007K   25118.93162244  .00003619  00000-0  56844-3 0  9996 | 2 62584  54.9828  56.2856 0016785 155.0375 205.1440 14.74611412 15618 | 2025/04/28-22:21:32  136.0558    0.0999  205.0624   97.6528     7024.5221     7012.7314     7036.3127  30.518396  45.735498  -0.001434  -0.000873
1 62584U 25007K   25121.77953328  .00002987  00000-0  48103-3 0  9999 | 2 62584  54.9832  44.6822 0015977 163.1635 196.9897 14.74032697 16030 | 2025/05/01-18:42:31   95.7425    0.0998  196.9363   97.6912     7026.3605     7015.1345     7037.5865  39.094043  38.662748  -0.001413  -0.000746
1 62584U 25007K   25122.93232863  .00003592  00000-0  57194-3 0  9995 | 2 62584  54.9832  39.9859 0015869 165.6370 194.5083 14.74043053 16208 | 2025/05/02-22:22:33  156.5893    0.0998  194.4628   97.6905     7026.3276     7015.1775     7037.4777  42.128271  35.332153  -0.001431  -0.000686
1 62584U 25007K   25123.94949541  .00003120  00000-0  50086-3 0  9995 | 2 62584  54.9832  35.8417 0015779 167.9349 192.2030 14.74049846 16353 | 2025/05/03-22:47:16  167.9235    0.0998  192.1649   97.6900     7026.3060     7015.2192     7037.3928  44.571464  32.195293  -0.001444  -0.000636
1 62584U 25007K   25125.17008992  .00002667  00000-0  43274-3 0  9994 | 2 62584  54.9835  30.8690 0015646 170.6856 189.4436 14.74056858 16530 | 2025/05/05-04:04:55  253.5220    0.0998  189.4142   97.6896     7026.2837     7015.2904     7037.2771  47.194682  28.210765  -0.001455  -0.000575
1 62584U 25007K   25126.18724766  .00002495  00000-0  40681-3 0  9998 | 2 62584  54.9835  26.7249 0015546 172.8664 187.2559 14.74062657 16686 | 2025/05/06-04:29:38  264.8523    0.0998  187.2334   97.6892     7026.2653     7015.3423     7037.1884  49.109945  24.726476  -0.001465  -0.000521
1 62584U 25007K   25127.54393528  .00002122  00000-0  35801-3 0  9992 | 2 62584  54.9766  21.1789 0019943 172.7028 187.4264 14.73101920 16888 | 2025/05/07-13:03:16   40.1362    0.0997  187.3969   97.7529     7029.3199     7015.3014     7043.3385  51.263311  19.862012  -0.001936  -0.000478
1 62584U 25007K   25128.83337053  .00002048  00000-0  34879-3 0  9997 | 2 62584  54.9838  15.9587 0015123 178.9366 181.1667 14.72870129 17077 | 2025/05/08-20:00:03  150.8499    0.0998  181.1632   97.7683     7030.0574     7019.4259     7040.6890  52.864732  15.117487  -0.001461  -0.000389
1 62584U 25007K   25129.85134980  .00001722  00000-0  29830-3 0  9993 | 2 62584  54.9839  11.8194 0015039 181.3108 178.7853 14.72873087 17227 | 2025/05/09-20:25:56  162.4723    0.0997  178.7889   97.7681     7030.0480     7019.4755     7040.6205  53.818136  11.262214  -0.001465  -0.000342
1 62584U 25007K   25130.86932632  .00001596  00000-0  27876-3 0  9993 | 2 62584  54.9839   7.6798 0014930 183.6145 176.4748 14.72876611 17375 | 2025/05/10-20:51:49  174.0936    0.0998  176.4853   97.7679     7030.0368     7019.5409     7040.5326  54.490715   7.347872  -0.001464  -0.000292
1 62584U 25007K   25131.88730032  .00001513  00000-0  26602-3 0  9991 | 2 62584  54.9838   3.5403 0014809 185.9618 174.1206 14.72880032 17520 | 2025/05/11-21:17:42  185.7140    0.0998  174.1380   97.7676     7030.0259     7019.6151     7040.4367  54.878870   3.395282  -0.001461  -0.000244
1 62584U 25007K   25132.90527141  .00001567  00000-0  27423-3 0  9991 | 2 62584  54.9838 359.4006 0014714 188.3001 171.7756 14.72884124 17675 | 2025/05/12-21:43:35  197.3334    0.0998  171.7997   97.7674     7030.0129     7019.6689     7040.3568  54.980791  -0.575203  -0.001458  -0.000197
1 62584U 25007K   25133.92324057  .00001600  00000-0  27943-3 0  9990 | 2 62584  54.9837 355.2609 0014608 190.6938 169.3751 14.72887949 17827 | 2025/05/13-22:09:27  208.9521    0.0997  169.4059   97.7671     7030.0007     7019.7313     7040.2701  54.795724  -4.542677  -0.001453  -0.000152
1 62584U 25007K   25135.21267693  .00001451  00000-0  25642-3 0  9994 | 2 62584  54.9837 350.0173 0014420 193.4504 166.6112 14.72875934 18012 | 2025/05/15-05:06:15  319.6710    0.0998  166.6494   97.7679     7030.0389     7019.9016     7040.1763  54.151254  -9.531469  -0.001439  -0.000087
1 62584U 25007K   25136.50211111  .00001455  00000-0  25707-3 0  9997 | 2 62584  54.9836 344.7739 0014307 196.5598 163.4935 14.72880439 18205 | 2025/05/16-12:03:02   70.3900    0.0998  163.5400   97.7676     7030.0246     7019.9667     7040.0825  53.053508 -14.440274  -0.001430  -0.000033
1 62584U 25007K   25137.52008141  .00001959  00000-0  33486-3 0  9999 | 2 62584  54.9835 340.6343 0014225 199.0093 161.0376 14.72886978 18350 | 2025/05/17-12:28:55   82.0086    0.0998  161.0905   97.7672     7030.0038     7020.0036     7040.0040  51.872607 -18.232331  -0.001422   0.000009
1 62584U 25007K   25138.53805002  .00001891  00000-0  32433-3 0  9998 | 2 62584  54.9833 336.4945 0014148 201.4636 158.5771 14.72890260 18500 | 2025/05/18-12:54:47   93.6267    0.0998  158.6362   97.7670     7029.9934     7020.0473     7039.9394  50.420884 -21.929380  -0.001414   0.000050
1 62584U 25007K   25139.55601668  .00001540  00000-0  27004-3 0  9992 | 2 62584  54.9832 332.3547 0014044 203.9301 156.1046 14.72891966 18652 | 2025/05/19-13:20:39  105.2438    0.0998  156.1697   97.7668     7029.9879     7020.1150     7039.8608  48.706153 -25.512015  -0.001401   0.000091
1 62584U 25007K   25140.57398033  .00001518  00000-0  26660-3 0  9997 | 2 62584  54.9831 328.2148 0013933 206.4510 153.5779 14.72895629 18809 | 2025/05/20-13:46:31  116.8598    0.0998  153.6488   97.7666     7029.9763     7020.1814     7039.7711  46.737218 -28.961592  -0.001387   0.000130
1 62584U 25007K   25141.59194177  .00001318  00000-0  23578-3 0  9996 | 2 62584  54.9831 324.0750 0013860 208.9593 151.0637 14.72898217 18957 | 2025/05/21-14:12:23  128.4750    0.0997  151.1404   97.7664     7029.9680     7020.2245     7039.7116  44.524529 -32.260000  -0.001376   0.000168
1 62584U 25007K   25142.81349246  .00001354  00000-0  24128-3 0  9993 | 2 62584  54.9830 319.1072 0013741 212.0554 147.9609 14.72902623 19130 | 2025/05/22-19:31:25  214.4117    0.0997  148.0443   97.7661     7029.9540     7020.2942     7039.6139  41.563615 -35.994391  -0.001358   0.000211
1 62584U 25007K   25143.83144860  .00001408  00000-0  24954-3 0  9998 | 2 62584  54.9830 314.9675 0013679 214.6217 145.3892 14.72906340 19288 | 2025/05/23-19:57:17  226.0244    0.0998  145.4781   97.7659     7029.9422     7020.3259     7039.5584  38.856793 -38.900899  -0.001345   0.000247
1 62584U 25007K   25144.84940282  .00001373  00000-0  24418-3 0  9998 | 2 62584  54.9830 310.8277 0013614 217.2206 142.7849 14.72909523 19433 | 2025/05/24-20:23:08  237.6365    0.0997  142.8791   97.7657     7029.9321     7020.3615     7039.5026  35.947143 -41.604485  -0.001332   0.000282
1 62584U 25007K   25145.86735468  .00001370  00000-0  24374-3 0  9997 | 2 62584  54.9829 306.6879 0013514 219.8357 140.1651 14.72912801 19588 | 2025/05/25-20:48:59  249.2470    0.0999  140.2642   97.7655     7029.9216     7020.4214     7039.4219  32.849853 -44.090888  -0.001314   0.000315
1 62584U 25007K   25147.83538866  .00001368  00000-0  24332-3 0  9990 | 2 62584  54.9828 298.6841 0013371 224.9513 135.0404 14.72919260 19875 | 2025/05/27-20:02:57  247.6919    0.0998  135.1485   97.7650     7029.9011     7020.5014     7039.3008  26.390648 -48.235278  -0.001283   0.000377
1 62584U 25007K   25148.85333360  .00001449  00000-0  25583-3 0  9994 | 2 62584  54.9828 294.5442 0013313 227.6527 132.3345 14.72923063 20027 | 2025/05/28-20:28:48  259.2998    0.0998  132.4471   97.7648     7029.8890     7020.5301     7039.2479  22.839585 -50.014614  -0.001268   0.000407
1 62584U 25007K   25149.87127502  .00001620  00000-0  28221-3 0  9999 | 2 62584  54.9828 290.4043 0013245 230.3343 129.6488 14.72927692 20175 | 2025/05/29-20:54:38  270.9061    0.0998  129.7655   97.7645     7029.8743     7020.5632     7039.1853  19.169335 -51.532950  -0.001250   0.000437
1 62584U 25007K   25150.88921486  .00001843  00000-0  31665-3 0  9998 | 2 62584  54.9826 286.2643 0013153 233.1198 126.8595 14.72932150 20329 | 2025/05/30-21:20:28  282.5115    0.0998  126.9800   97.7642     7029.8601     7020.6137     7039.1064  15.398901 -52.782195  -0.001231   0.000463
1 62584U 25007K   25151.90715101  .00001733  00000-0  29970-3 0  9991 | 2 62584  54.9825 282.1245 0013107 235.8775 124.0980 14.72936163 20472 | 2025/05/31-21:46:17  294.1155    0.0998  124.2223   97.7639     7029.8473     7020.6333     7039.0613  11.548340 -53.756034  -0.001215   0.000491
1 62584U 25007K   25153.19653100  .00002297  00000-0  38669-3 0  9995 | 2 62584  54.9824 276.8808 0013044 239.3587 120.6126 14.72944157 20663 | 2025/06/02-04:43:00   44.8110    0.0998  120.7411   97.7634     7029.8219     7020.6522     7038.9916   6.587120 -54.586392  -0.001194   0.000526
1 62584U 25007K   25154.55376536  .00002994  00000-0  49427-3 0  9999 | 2 62584  54.9821 271.3608 0012983 243.0254 116.9419 14.72954094 20868 | 2025/06/03-13:17:25  180.2772    0.0998  117.0744   97.7627     7029.7902     7020.6635     7038.9170   1.305726 -54.966593  -0.001171   0.000561
1 62584U 25007K   25155.57168882  .00001830  00000-0  31451-3 0  9991 | 2 62584  54.9821 267.2209 0012945 245.8458 114.1187 14.72955523 21011 | 2025/06/04-13:43:13  191.8756    0.0998  114.2540   97.7626     7029.7857     7020.6856     7038.8858  -2.665831 -54.917435  -0.001154   0.000586
1 62584U 25007K   25156.72533235  .00001643  00000-0  28563-3 0  9999 | 2 62584  54.9825 262.5291 0012950 248.8720 111.0894 14.72958368 21184 | 2025/06/05-17:24:28  253.0193    0.0998  111.2278   97.7624     7029.7766     7020.6731     7038.8802  -7.148969 -54.515755  -0.001137   0.000620
1 62584U 25007K   25157.87897202  .00001340  00000-0  23873-3 0  9996 | 2 62584  54.9824 257.8372 0012915 252.0760 107.8830 14.72961918 21359 | 2025/06/06-21:05:43  314.1609    0.0998  108.0238   97.7622     7029.7654     7020.6864     7038.8443 -11.584250 -53.748204  -0.001117   0.000647
1 62584U 25007K   25158.89688734  .00001204  00000-0  21784-3 0  9995 | 2 62584  54.9822 253.6973 0012893 254.8832 105.0740 14.72965109 21506 | 2025/06/07-21:31:31  325.7555    0.0998  105.2166   97.7620     7029.7552     7020.6917     7038.8187 -15.434160 -52.771479  -0.001100   0.000672
1 62584U 25007K   25160.66126955  .00001120  00000-0  20475-3 0  9998 | 2 62584  54.9820 246.5214 0012866 259.8046 100.1501 14.72970361 21760 | 2025/06/09-15:52:13  249.8505    0.0998  100.2952   97.7616     7029.7385     7020.6940     7038.7830 -21.905187 -50.429982  -0.001071   0.000713
1 62584U 25007K   25162.49425066  .00000923  00000-0  17839-3 0  9996 | 2 62584  54.9822 239.0729 0010949 280.1151  79.8611 14.71920353 22034 | 2025/06/11-11:51:43  198.9574    0.0997   79.9846   97.8314     7033.0812     7025.3807     7040.7818 -28.257939 -47.164936  -0.001023   0.000389
1 62584U 25007K   25163.58100159 -.00076724  00000-0 -12418-1 0  9990 | 2 62584  54.9803 234.6648 0008720 282.5715  77.2673 14.71349951 22196 | 2025/06/12-13:56:38  235.8044  359.9363   77.3648   97.8693     7034.8988     7028.7644     7041.0332 -31.798347 -44.851963  -0.000804   0.000337
1 62584U 25007K   25164.60029708  .00001345  00000-0  25111-3 0  9995 | 2 62584  54.9817 230.5298 0008268 280.0836  79.9229 14.70806287 22343 | 2025/06/13-14:24:25  247.7227    0.0998   80.0162   97.9055     7036.6323     7030.8144     7042.4502 -34.950591 -42.443415  -0.000720   0.000406
1 62584U 25007K   25165.82402800  .00000983  00000-0  19568-3 0  9994 | 2 62584  54.9531 225.6582 0019985   3.2281 356.8841 14.70015994 22528 | 2025/06/14-19:46:36  334.2379    0.0997  356.8716   97.9581     7039.1540     7025.0863     7053.2218 -38.408768 -39.301524  -0.001314  -0.001506
1 62584U 25007K   25167.38846854  .00001244  00000-0  24403-3 0  9993 | 2 62584  54.9812 219.2446 0009720 251.0390 108.9554 14.69023397 22754 | 2025/06/16-09:19:23  185.5099    0.0997  109.0607   98.0243     7042.3245     7035.4794     7049.1696 -42.580315 -34.782885  -0.000337   0.000912
1 62584U 25007K   25168.47740756  .00000881  00000-0  18492-3 0  9995 | 2 62584  54.9815 214.8482 0011628 253.1820 106.7901 14.68406764 22911 | 2025/06/17-11:27:28  223.0200    0.0996  106.9176   98.0655     7044.2959     7036.1048     7052.4870 -45.121602 -31.416658  -0.000360   0.001106
1 62584U 25007K   25169.49877852  .00000797  00000-0  17302-3 0  9991 | 2 62584  54.9812 210.7261 0011775 262.3471  97.6188 14.67749447 23064 | 2025/06/18-11:58:14  235.8485    0.0996   97.7525   98.1094     7046.3989     7038.1018     7054.6960 -47.262918 -28.091795  -0.000461   0.001083
1 62584U 25007K   25170.52031236  .00000786  00000-0  17099-3 0  9996 | 2 62584  54.9811 206.6056 0011771 265.2199  94.7453 14.67751453 23214 | 2025/06/19-12:29:14  248.7288    0.0996   94.8797   98.1093     7046.3925     7038.0982     7054.6868 -49.159177 -24.623092  -0.000438   0.001093
1 62584U 25007K   25171.54184483  .00000809  00000-0  17504-3 0  9999 | 2 62584  54.9810 202.4850 0011770 268.0902  91.8746 14.67753415 23360 | 2025/06/20-13:00:15  261.6083    0.0996   92.0094   98.1091     7046.3862     7038.0926     7054.6798 -50.801327 -21.027019  -0.000414   0.001102
1 62584U 25007K   25172.56337617  .00000791  00000-0  17189-3 0  9990 | 2 62584  54.9810 198.3644 0011776 270.9697  88.9950 14.67755380 23517 | 2025/06/21-13:31:15  274.4872    0.0996   89.1299   98.1090     7046.3799     7038.0821     7054.6777 -52.180925 -17.322281  -0.000390   0.001111
1 62584U 25007K   25173.85731375  .00000759  00000-0  16625-3 0  9990 | 2 62584  54.9811 193.1450 0011795 274.5941  85.3708 14.67757851 23707 | 2025/06/22-20:34:31   26.7993    0.0996   85.5055   98.1088     7046.3720     7038.0608     7054.6832 -53.540466 -12.503593  -0.000359   0.001123
1 62584U 25007K   25174.87884204  .00000763  00000-0  16703-3 0  9995 | 2 62584  54.9811 189.0245 0011809 277.4358  82.5296 14.67759921 23850 | 2025/06/23-21:05:31   39.6763    0.0996   82.6638   98.1087     7046.3654     7038.0443     7054.6864 -54.300509  -8.624159  -0.000335   0.001133
1 62584U 25007K   25175.90036904  .00000789  00000-0  17148-3 0  9998 | 2 62584  54.9812 184.9040 0011829 280.2429  79.7233 14.67762075 24002 | 2025/06/24-21:36:31   52.5526    0.0996   79.8567   98.1085     7046.3585     7038.0233     7054.6936 -54.779932  -4.700149  -0.000309   0.001142
1 62584U 25007K   25176.98999630  .00000796  00000-0  17268-3 0  9992 | 2 62584  54.9812 180.5087 0011843 283.3045  76.6630 14.67764214 24160 | 2025/06/25-23:45:35   90.2864    0.0996   76.7951   98.1084     7046.3516     7038.0066     7054.6966 -54.979033  -0.488144  -0.000283   0.001150
1 62584U 25007K   25178.14772342  .00000799  00000-0  17324-3 0  9997 | 2 62584  54.9812 175.8388 0011881 286.4518  73.5172 14.67766596 24333 | 2025/06/27-03:32:43  152.8777    0.0996   73.6478   98.1082     7046.3440     7037.9722     7054.7158 -54.836261   3.989590  -0.000253   0.001161
1 62584U 25007K   25179.23734783  .00000718  00000-0  15921-3 0  9997 | 2 62584  54.9812 171.4434 0011904 289.4846  70.4864 14.67768204 24499 | 2025/06/28-05:41:46  190.6099    0.0996   70.6150   98.1081     7046.3389     7037.9509     7054.7268 -54.369224   8.180452  -0.000226   0.001169
1 62584U 25007K   25180.25886904  .00000715  00000-0  15859-3 0  9991 | 2 62584  54.9812 167.3229 0011936 292.3118  67.6612 14.67770212 24643 | 2025/06/29-06:12:46  203.4829    0.0996   67.7878   98.1080     7046.3324     7037.9219     7054.7429 -53.640887  12.065970  -0.000200   0.001177
1 62584U 25007K   25181.55279348  .00000817  00000-0  17638-3 0  9993 | 2 62584  54.9813 162.1035 0011986 295.8861  64.0899 14.67773445 24830 | 2025/06/30-13:16:01  315.7874    0.0996   64.2135   98.1078     7046.3221     7037.8764     7054.7678 -52.320930  16.895670  -0.000167   0.001187
1 62584U 25007K   25182.91481630  .00001024  00000-0  21227-3 0  9993 | 2 62584  54.9814 156.6093 0012028 299.6140  60.3658 14.67777597 25030 | 2025/07/01-21:57:20   92.9485    0.0997   60.4857   98.1075     7046.3088     7037.8335     7054.7841 -50.462978  21.827556  -0.000130   0.001196
1 62584U 25007K   25183.93633165  .00000987  00000-0  20587-3 0  9993 | 2 62584  54.9815 152.4887 0012077 302.3668  57.6158 14.67779796 25180 | 2025/07/02-22:28:19  105.8187    0.0996   57.7328   98.1074     7046.3018     7037.7919     7054.8116 -48.764178  25.397249  -0.000102   0.001203
1 62584U 25007K   25185.16214808  .00000970  00000-0  20298-3 0  9990 | 2 62584  54.9817 147.5440 0012132 305.6924  54.2942 14.67782505 25361 | 2025/07/04-03:53:29  193.2615    0.0996   54.4072   98.1072     7046.2931     7037.7445     7054.8416 -46.393768  29.506027  -0.000068   0.001211
1 62584U 25007K   25186.18365981  .00000975  00000-0  20383-3 0  9992 | 2 62584  54.9819 143.4235 0012182 308.4370  51.5532 14.67784986 25518 | 2025/07/05-04:24:28  206.1295    0.0996   51.6626   98.1070     7046.2851     7037.7014     7054.8689 -44.153872  32.763469  -0.000040   0.001218
1 62584U 25007K   25187.20517010  .00000885  00000-0  18810-3 0  9990 | 2 62584  54.9820 139.3030 0012235 311.1757  48.8183 14.67786891 25660 | 2025/07/06-04:55:26  218.9967    0.0996   48.9239   98.1069     7046.2790     7037.6579     7054.9002 -41.685619  35.851492  -0.000010   0.001223
1 62584U 25007K   25188.22667831  .00000945  00000-0  19861-3 0  9994 | 2 62584  54.9821 135.1826 0012297 313.9250  46.0730 14.67789680 25818 | 2025/07/07-05:26:25  231.8629    0.0996   46.1746   98.1067     7046.2701     7037.6053     7054.9349 -39.001922  38.754115   0.000019   0.001230
1 62584U 25007K   25189.52058727  .00000794  00000-0  17238-3 0  9994 | 2 62584  54.9822 129.9633 0012390 317.3982  42.6052 14.67791763 26006 | 2025/07/08-12:29:38  344.1594    0.0996   42.7014   98.1066     7046.2635     7037.5331     7054.9938 -35.314891  42.141438   0.000057   0.001238
1 62584U 25007K   25190.54209258  .00000703  00000-0  15650-3 0  9991 | 2 62584  54.9823 125.8428 0012460 320.1082  39.8998 14.67793537 26159 | 2025/07/09-13:00:36  357.0241    0.0997   39.9915   98.1064     7046.2578     7037.4781     7055.0374 -32.195621  44.570116   0.000088   0.001243
1 62584U 25007K   25191.56359655  .00000681  00000-0  15267-3 0  9990 | 2 62584  54.9824 121.7222 0012533 322.7241  37.2884 14.67795540 26302 | 2025/07/10-13:31:34    9.8884    0.0996   37.3755   98.1063     7046.2514     7037.4203     7055.0824 -28.909816  46.768439   0.000121   0.001247
1 62584U 25007K   25192.58509911  .00000676  00000-0  15176-3 0  9998 | 2 62584  54.9825 117.6015 0012607 325.3583  34.6590 14.67797600 26457 | 2025/07/11-14:02:32   22.7521    0.0996   34.7413   98.1062     7046.2448     7037.3616     7055.1280 -25.474450  48.725021   0.000155   0.001251
1 62584U 25007K   25193.81090011  .00000795  00000-0  17242-3 0  9999 | 2 62584  54.9825 112.6567 0012697 328.4711  31.5523 14.67800752 26635 | 2025/07/12-19:27:41  110.1874    0.0996   31.6285   98.1060     7046.2347     7037.2881     7055.1813 -21.179740  50.739471   0.000196   0.001255
1 62584U 25007K   25194.83239968  .00000781  00000-0  17001-3 0  9996 | 2 62584  54.9826 108.5360 0012772 331.0874  28.9413 14.67802673 26783 | 2025/07/13-19:58:39  123.0494    0.0996   29.0122   98.1058     7046.2285     7037.2291     7055.2280 -17.478993  52.130328   0.000230   0.001256
1 62584U 25007K   25196.19439672  .00000856  00000-0  18301-3 0  9998 | 2 62584  54.9828 103.0419 0012890 334.5026  25.5333 14.67805792 26989 | 2025/07/15-04:39:55  260.1977    0.0997   25.5971   98.1056     7046.2186     7037.1360     7055.3011 -12.407614  53.564535   0.000278   0.001259
1 62584U 25007K   25197.21589285  .00000831  00000-0  17867-3 0  9997 | 2 62584  54.9829  98.9213 0012971 337.0461  22.9954 14.67807737 27134 | 2025/07/16-05:10:53  273.0582    0.0997   23.0536   98.1055     7046.2123     7037.0727     7055.3520  -8.526619  54.317732   0.000315   0.001258
1 62584U 25007K   25198.57788452  .00000864  00000-0  18446-3 0  9994 | 2 62584  54.9830  93.4272 0013086 340.3902  19.6590 14.67811076 27338 | 2025/07/17-13:52:09   50.2040    0.0997   19.7095   98.1053     7046.2016     7036.9810     7055.4223  -3.286898  54.884666   0.000365   0.001257
1 62584U 25007K   25199.87177385  .00000937  00000-0  19701-3 0  9991 | 2 62584  54.9830  88.2076 0013196 343.5609  16.4957 14.67814569 27526 | 2025/07/18-20:55:21  162.4917    0.0996   16.5387   98.1050     7046.1905     7036.8923     7055.4886   1.719768  54.956098   0.000413   0.001253
1 62584U 25007K   25201.50615686  .00000887  00000-0  18839-3 0  9991 | 2 62584  54.9830  81.6146 0013365 347.4831  12.5832 14.67818111 27761 | 2025/07/20-12:08:51   39.0638    0.0997   12.6166   98.1048     7046.1791     7036.7619     7055.5964   8.018223  54.395206   0.000477   0.001249
1 62584U 25007K   25202.52764386  .00000957  00000-0  20061-3 0  9994 | 2 62584  54.9830  77.4938 0013455 349.8729  10.1994 14.67820920 27916 | 2025/07/21-12:39:48   51.9208    0.0996   10.2267   98.1046     7046.1701     7036.6895     7055.6508  11.906308  53.678395   0.000518   0.001242
1 62584U 25007K   25203.61722791  .00001053  00000-0  21725-3 0  9995 | 2 62584  54.9830  73.0982 0013549 352.4309   7.6480 14.67824142 28074 | 2025/07/22-14:48:48   89.6340    0.0996    7.6687   98.1044     7046.1598     7036.6130     7055.7067  15.985331  52.607979   0.000561   0.001233
1 62584U 25007K   25204.63871060  .00001138  00000-0  23191-3 0  9995 | 2 62584  54.9831  68.9773 0013635 354.8216   5.2637 14.67827312 28222 | 2025/07/23-15:19:44  102.4890    0.0997    5.2781   98.1042     7046.1497     7036.5423     7055.7571  19.724516  51.323335   0.000602   0.001223
1 62584U 25007K   25205.79638896  .00001072  00000-0  22046-3 0  9996 | 2 62584  54.9831  64.3071 0013743 357.5098   2.5827 14.67830015 28394 | 2025/07/24-19:06:48  165.0573    0.0996    2.5898   98.1040     7046.1410     7036.4575     7055.8245  23.837781  49.546962   0.000649   0.001211
1 62584U 25007K   25207.15836015  .00001110  00000-0  22701-3 0  9992 | 2 62584  54.9832  58.8128 0013871   0.6438 359.4573 14.67833954 28591 | 2025/07/26-03:48:02  302.1951    0.0996  359.4558   98.1037     7046.1284     7036.3547     7055.9021  28.472275  47.037026   0.000705   0.001195
1 62584U 25007K   25208.17983612  .00001111  00000-0  22726-3 0  9999 | 2 62584  54.9832  54.6920 0013983   2.9472 357.1604 14.67836770 28748 | 2025/07/27-04:18:57  315.0475    0.0996  357.1524   98.1036     7046.1194     7036.2668     7055.9720  31.778727  44.869420   0.000748   0.001181
1 62584U 25007K   25209.20131013  .00001111  00000-0  22717-3 0  9994 | 2 62584  54.9832  50.5713 0014070   5.2632 354.8509 14.67839672 28893 | 2025/07/28-04:49:53  327.8992    0.0996  354.8364   98.1034     7046.1101     7036.1963     7056.0240  34.920793  42.469878   0.000790   0.001164
1 62584U 25007K   25210.49517406  .00001140  00000-0  23211-3 0  9993 | 2 62584  54.9833  45.3515 0014185   8.1302 351.9921 14.67843631 29087 | 2025/07/29-11:53:03   80.1771    0.0996  351.9694   98.1031     7046.0975     7036.1026     7056.0924  38.639818  39.116848   0.000844   0.001140
1 62584U 25007K   25211.51664336  .00001179  00000-0  23895-3 0  9992 | 2 62584  54.9834  41.2305 0014282  10.3880 349.7408 14.67846740 29230 | 2025/07/30-12:23:57   93.0274    0.0996  349.7116   98.1029     7046.0875     7036.0243     7056.1507  41.351045  36.239003   0.000887   0.001120
1 62584U 25007K   25212.53811045  .00001222  00000-0  24645-3 0  9999 | 2 62584  54.9835  37.1095 0014368  12.6326 347.5027 14.67849969 29381 | 2025/07/31-12:54:52  105.8768    0.0996  347.4670   98.1027     7046.0772     7035.9534     7056.2010  43.848456  33.173757   0.000929   0.001096
1 62584U 25007K   25213.55957556  .00001214  00000-0  24505-3 0  9996 | 2 62584  54.9835  32.9886 0014450  14.8603 345.2815 14.67852911 29534 | 2025/08/01-13:25:47  118.7255    0.0997  345.2394   98.1025     7046.0678     7035.8862     7056.2493  46.119001  29.936985   0.000970   0.001071
1 62584U 25007K   25214.58103881  .00001131  00000-0  23060-3 0  9997 | 2 62584  54.9836  28.8677 0014556  17.0769 343.0714 14.67855306 29683 | 2025/08/02-13:56:41  131.5734    0.0996  343.0227   98.1023     7046.0601     7035.8039     7056.3163  48.151164  26.545465   0.001012   0.001046
1 62584U 25007K   25215.87488938  .00001048  00000-0  21621-3 0  9997 | 2 62584  54.9837  23.6478 0014675  19.8657 340.2908 14.67858528 29878 | 2025/08/03-20:59:50  243.8466    0.0997  340.2340   98.1021     7046.0498     7035.7097     7056.3899  50.366631  22.054698   0.001064   0.001010
1 62584U 25007K   25216.89634797  .00001084  00000-0  22244-3 0  9998 | 2 62584  54.9838  19.5270 0014758  22.0051 338.1576 14.67861615 30026 | 2025/08/04-21:30:44  256.6931    0.0997  338.0946   98.1019     7046.0399     7035.6414     7056.4385  51.821356  18.378392   0.001105   0.000979
1 62584U 25007K   25217.91780477  .00000964  00000-0  20149-3 0  9997 | 2 62584  54.9839  15.4062 0014857  24.1493 336.0197 14.67863873 30174 | 2025/08/05-22:01:38  269.5389    0.0997  335.9504   98.1017     7046.0327     7035.5644     7056.5010  53.008145  14.607047   0.001145   0.000946
1 62584U 25007K   25218.93926000  .00000984  00000-0  20495-3 0  9990 | 2 62584  54.9836  11.2854 0014943  26.2746 333.9006 14.67866637 30327 | 2025/08/06-22:32:32  282.3841    0.0997  333.8251   98.1016     7046.0238     7035.4950     7056.5527  53.920468  10.760085   0.001185   0.000911
1 62584U 25007K   25219.96071384  .00000998  00000-0  20738-3 0  9995 | 2 62584  54.9836   7.1645 0015026  28.3986 331.7826 14.67869120 30473 | 2025/08/07-23:03:25  295.2292    0.0997  331.7011   98.1014     7046.0159     7035.4286     7056.6032  54.554297   6.857472   0.001222   0.000874
1 62584U 25007K   25221.18645590  .00001043  00000-0  21524-3 0  9994 | 2 62584  54.9841   2.2194 0015111  30.8743 329.3138 14.67872408 30650 | 2025/08/09-04:28:29   22.6427    0.0996  329.2253   98.1012     7046.0054     7035.3582     7056.6526  54.942854   2.129323   0.001266   0.000825
1 62584U 25007K   25222.54838748  .00001212  00000-0  24448-3 0  9990 | 2 62584  54.9841 356.7249 0015232  33.6679 326.5282 14.67876839 30854 | 2025/08/10-13:09:40  159.7669    0.0997  326.4318   98.1009     7045.9912     7035.2587     7056.7236  54.894297  -3.141250   0.001314   0.000771
1 62584U 25007K   25223.56996902  .00001224  00000-0  24915-3 0  9992 | 2 62584  54.9845 352.6145 0015640  20.0872 340.0736 14.67387587 31006 | 2025/08/11-13:40:45  172.6889    0.0996  340.0124   98.1336     7047.5573     7036.5349     7058.5797  54.528333  -7.067962   0.001526   0.000344
1 62584U 25007K   25224.59199581  .00001147  00000-0  23947-3 0  9992 | 2 62584  54.9854 348.4851 0011287  32.1085 328.0596 14.66657194 31155 | 2025/08/12-14:12:28  185.7480    0.0996  327.9911   98.1825     7049.8969     7041.9396     7057.8541  53.878699 -10.976337   0.001057   0.000397
1 62584U 25007K   25225.90323216 -.00318502  00000-0 -60697-1 0  9991 | 2 62584  54.9837 343.2150 0009989  31.2827  53.4551 14.65829977 31341 | 2025/08/13-21:40:39  219.7859   84.8298   53.5471   98.2379     7052.5489     7045.5042     7059.5937  52.641127 -15.878257   0.000967   0.000250
1 62584U 25007K   25227.25131723  .00000968  00000-0  21405-3 0  9999 | 2 62584  54.9912 337.8037 0008683   8.3165 351.7972 14.65152531 31546 | 2025/08/15-06:01:53   76.4607    0.0995  351.7830   98.2833     7054.7227     7048.5971     7060.8483  50.916076 -20.774630   0.000843  -0.000208
1 62584U 25007K   25228.34321601  .00000853  00000-0  19622-3 0  9997 | 2 62584  54.9852 333.4096 0004886   5.5356 354.5692 14.64294558 31701 | 2025/08/16-08:14:13  115.0235    0.0995  354.5639   98.3409     7057.4782     7054.0299     7060.9264  49.169374 -24.611885   0.000456  -0.000176
1 62584U 25007K   25229.57225481  .00000804  00000-0  18986-3 0  9990 | 2 62584  54.9833 328.4780 0004000 351.4024   8.6901 14.63564422 31885 | 2025/08/17-13:44:02  203.6327    0.0994    8.6970   98.3899     7059.8252     7057.0012     7062.6491  46.869935 -28.746694   0.000306  -0.000258
1 62584U 25007K   25230.59695941  .00000744  00000-0  18095-3 0  9990 | 2 62584  54.9848 324.3809 0004809 309.8597  50.1973 14.62859351 32033 | 2025/08/18-14:19:37  217.6690    0.0994   50.2397   98.4374     7062.0934     7058.6973     7065.4896  44.697510 -32.022817   0.000036  -0.000480
1 62584U 25007K   25231.75884416  .00000702  00000-0  17488-3 0  9995 | 2 62584  54.9847 319.7327 0005728 293.2313  66.8077 14.62290033 32202 | 2025/08/19-18:12:44  281.7589    0.0994   66.8681   98.4757     7063.9263     7059.8801     7067.9725  41.955379 -35.539603  -0.000168  -0.000548
1 62584U 25007K   25232.94383200 -.00161358  00000-0 -33032-1 0  9990 | 2 62584  54.9826 314.9985 0006699 279.5806 199.2400 14.61561220 32375 | 2025/08/20-22:39:07  235.4751  118.7953  199.2147   98.5248     7066.2744     7061.5407     7071.0081  38.877551 -38.879587  -0.000388  -0.000546
1 62584U 25007K   25244.29950834  .00000706  00000-0  20358-3 0  9990 | 2 62584  54.9849 269.8811 0010066 276.0114  83.9729 14.54992190 34037 | 2025/09/01-07:11:17  178.6650    0.0990   84.0876   98.9696     7087.5271     7080.3928     7094.6614  -0.114104 -54.984782  -0.001001  -0.000103
1 62584U 25007K   25251.17904602  .00000295  00000-0  11733-3 0  9997 | 2 62584  54.9824 242.7787 0008001 273.2406  86.7667 14.50854412 35034 | 2025/09/08-04:17:49  169.1588    0.0988   86.8582   99.2519     7100.9963     7095.3148     7106.6778 -25.150519 -48.892900  -0.000731   0.000325
1 62584U 25007K   25255.65726080  .00000469  00000-0  16118-3 0  9991 | 2 62584  54.9818 225.1968 0008021 286.8400  73.1708 14.50861779 35680 | 2025/09/12-15:46:27    3.3084    0.0988   73.2588   99.2514     7100.9722     7095.2765     7106.6679 -38.744236 -39.011312  -0.000708   0.000376
1 62584U 25007K   25256.89737865  .00000490  00000-0  16650-3 0  9996 | 2 62584  54.9819 220.3278 0008046 290.5091  69.5034 14.50863587 35867 | 2025/09/13-21:32:13   95.8405    0.0989   69.5898   99.2512     7100.9663     7095.2529     7106.6798 -41.915694 -35.582073  -0.000703   0.000392
1 62584U 25007K   25258.27528407  .00000802  00000-0  24492-3 0  9990 | 2 62584  54.9821 214.9179 0008084 294.4122  65.6023 14.50867641 36062 | 2025/09/15-06:36:24  238.6524    0.0989   65.6867   99.2510     7100.9531     7095.2127     7106.6935 -45.083842 -31.471868  -0.000695   0.000412
1 62584U 25007K   25259.30871413  .00000600  00000-0  19417-3 0  9990 | 2 62584  54.9822 210.8605 0008130 297.4039  62.6122 14.50867730 36217 | 2025/09/16-07:24:32  255.7617    0.0989   62.6950   99.2509     7100.9528     7095.1797     7106.7259 -47.197751 -28.203096  -0.000691   0.000428
1 62584U 25007K   25261.03109322  .00000565  00000-0  18538-3 0  9999 | 2 62584  54.9823 204.0983 0008194 302.2761  57.7433 14.50870096 36465 | 2025/09/18-00:44:46  164.2747    0.0988   57.8227   99.2508     7100.9451     7095.1266     7106.7636 -50.190389 -22.449459  -0.000682   0.000454
1 62584U 25007K   25262.27120419  .00000595  00000-0  19289-3 0  9993 | 2 62584  54.9823 199.2296 0008250 305.7854  54.2368 14.50872180 36646 | 2025/09/19-06:30:32  256.8029    0.0990   54.3136   99.2506     7100.9383     7095.0800     7106.7966 -51.914637 -18.108667  -0.000676   0.000473
1 62584U 25007K   25263.30462848  .00000735  00000-0  22809-3 0  9991 | 2 62584  54.9823 195.1722 0008296 308.7237  51.3009 14.50874616 36795 | 2025/09/20-07:18:39  273.9092    0.0988   51.3751   99.2505     7100.9304     7095.0394     7106.8213 -53.065815 -14.390018  -0.000670   0.000489
1 62584U 25007K   25264.33805117  .00000928  00000-0  27654-3 0  9992 | 2 62584  54.9823 191.1148 0008341 311.5857  48.4416 14.50877478 36949 | 2025/09/21-08:06:47  291.0147    0.0989   48.5132   99.2503     7100.9210     7094.9981     7106.8439 -53.950992 -10.599237  -0.000664   0.000505
1 62584U 25007K   25265.50926120  .00001107  00000-0  32167-3 0  9995 | 2 62584  54.9824 186.5165 0008407 314.7468  45.2835 14.50880775 37117 | 2025/09/22-12:13:20  358.4000    0.0988   45.3520   99.2501     7100.9103     7094.9405     7106.8800 -54.627170  -6.239916  -0.000656   0.000526
1 62584U 25007K   25267.02494000  .00001369  00000-0  38752-3 0  9997 | 2 62584  54.9825 180.5657 0008498 318.8031  41.2315 14.50885952 37334 | 2025/09/24-00:35:54  191.4848    0.0988   41.2957   99.2497     7100.8934     7094.8590     7106.9277 -54.979820  -0.542851  -0.000645   0.000553
1 62584U 25007K   25268.19614339  .00001417  00000-0  39963-3 0  9994 | 2 62584  54.9825 175.9674 0008568 321.9605  38.0777 14.50889393 37509 | 2025/09/25-04:42:26  258.8671    0.0988   38.1383   99.2495     7100.8821     7094.7981     7106.9662 -54.846374   3.866592  -0.000636   0.000574
1 62584U 25007K   25269.22955524  .00001504  00000-0  42158-3 0  9990 | 2 62584  54.9832 171.9101 0008649 324.8363  35.2054 14.50893111 37657 | 2025/09/26-05:30:33  275.9677    0.0989   35.2626   99.2492     7100.8700     7094.7285     7107.0115 -54.436034   7.737605  -0.000630   0.000593
1 62584U 25007K   25270.67632771  .00001532  00000-0  42860-3 0  9998 | 2 62584  54.9832 166.2299 0008740 328.6124  31.4342 14.50898005 37869 | 2025/09/27-16:13:54   83.9071    0.0989   31.4865   99.2489     7100.8540     7094.6479     7107.0602 -53.402907  13.087466  -0.000616   0.000620
1 62584U 25007K   25273.84698404  .00001474  00000-0  42703-3 0  9996 | 2 62584  54.9825 153.7955 0007532 300.3709  59.6534 14.49351282 38321 | 2025/09/30-20:19:39  160.9252    0.0988   59.7279   99.3548     7105.9051     7100.5529     7111.2572 -49.331602  24.278970  -0.000055   0.000751
1 62584U 25007K   25274.95045922  .00001854  00000-0  52571-3 0  9996 | 2 62584  54.9826 149.4740 0007619 303.2415  56.7842 14.49356760 38481 | 2025/10/01-22:48:39  203.5840    0.0988   56.8573   99.3544     7105.8872     7100.4732     7111.3012 -47.361943  27.927274  -0.000036   0.000761
1 62584U 25007K   25276.19186416  .00001515  00000-0  43764-3 0  9996 | 2 62584  54.9820 144.6117 0007720 306.4164  53.6112 14.49360672 38662 | 2025/10/03-04:36:17  296.5738    0.0989   53.6825   99.3542     7105.8744     7100.3887     7111.3601 -44.823859  31.840885  -0.000014   0.000772
1 62584U 25007K   25277.36430042  .00001369  00000-0  39970-3 0  9994 | 2 62584  54.9820 140.0198 0007778 309.7771  50.2531 14.49363497 38839 | 2025/10/04-08:44:35    4.3958    0.0988   50.3217   99.3540     7105.8652     7100.3382     7111.3921 -42.130866  35.327191   0.000003   0.000778
1 62584U 25007K   25280.74519137  .00000822  00000-0  26216-3 0  9995 | 2 62584  54.9826 126.7918 0007777 294.8930  65.1249 14.48451048 39321 | 2025/10/07-17:53:04  158.0892    0.0988   65.2058   99.4165     7108.8491     7103.3205     7114.3776 -32.929574  44.031006   0.000369   0.000685
1 62584U 25007K   25296.35871019  .00000798  00000-0  28140-3 0  9999 | 2 62584  54.9897  65.8991 0008994 278.0284  81.9680 14.43775439 41585 | 2025/10/23-08:36:32   95.2596    0.0985   82.0701   99.7385     7124.1886     7117.7811     7130.5961  22.454758  50.196125   0.000864  -0.000249
1 62584U 25007K   25298.78307654  .00000679  00000-0  25201-3 0  9990 | 2 62584  54.9846  56.4851 0008982 272.1734  87.8222 14.42670817 41931 | 2025/10/25-18:47:37  259.8358    0.0985   87.9251   99.8149     7127.8247     7121.4225     7134.2269  30.359957  45.842985   0.000767  -0.000467
1 62584U 25007K   25299.89180138  .00000694  00000-0  25796-3 0  9995 | 2 62584  54.9851  52.1909 0008606 270.2593  89.7406 14.42419523 42097 | 2025/10/26-21:24:11  304.3595    0.0985   89.8392   99.8323     7128.6525     7122.5176     7134.7875  33.707656  43.441399   0.000682  -0.000524
1 62584U 25007K   25301.41693207  .00000667  00000-0  25345-3 0  9993 | 2 62584  54.9834  46.2943 0009751 269.3967  90.5900 14.41710375 42318 | 2025/10/28-10:00:22  140.8196    0.0984   90.7017   99.8814     7130.9900     7124.0365     7137.9434  37.991018  39.747412   0.000698  -0.000681
1 62584U 25007K   25303.77576285  .00000602  00000-0  23942-3 0  9990 | 2 62584  54.9831  38.4364 0008216 278.0973  81.9078 14.40477327 42657 | 2025/10/30-18:37:05  280.1631    0.0983   82.0010   99.9669     7135.0588     7129.1966     7140.9210  43.068190  34.179999   0.000596  -0.000565
1 62584U 25007K   25305.51116947  .00000515  00000-0  21641-3 0  9996 | 2 62584  54.9841  31.7386 0007426 268.4735  91.5398 14.39499358 42905 | 2025/11/01-12:16:05  193.3096    0.0984   91.6249  100.0348     7138.2901     7132.9892     7143.5909  46.761608  28.924096   0.000374  -0.000642
1 62584U 25007K   25307.73418787  .00000402  00000-0  18464-3 0  9993 | 2 62584  54.9836  23.1804 0007880 269.5683  90.4397 14.38299655 43227 | 2025/11/03-17:37:13  284.3509    0.0983   90.5300  100.1182     7142.2589     7136.6308     7147.8870  50.544777  21.643055   0.000305  -0.000727
1 62584U 25007K   25309.33319650  .00000416  00000-0  19277-3 0  9998 | 2 62584  54.9841  17.0328 0008554 271.8956  88.1046 14.37320807 43457 | 2025/11/05-07:59:48  147.7254    0.0982   88.2026  100.1864     7145.5013     7139.3890     7151.6135  52.572345  16.105894   0.000277  -0.000809
1 62584U 25007K   25311.62914228  .00000522  00000-0  23307-3 0  9992 | 2 62584  54.9840   8.2228 0008016 270.8867  89.1196 14.36236880 43789 | 2025/11/07-15:05:57  265.3328    0.0981   89.2114  100.2620     7149.0959     7143.3652     7154.8267  54.418731   7.863965   0.000127  -0.000791
1 62584U 25007K   25314.90240749  .00000540  00000-0  24751-3 0  9990 | 2 62584  54.9812 355.6936 0008538 273.0439  86.9565 14.34434767 44252 | 2025/11/10-21:39:28   19.4697    0.0981   87.0542  100.3880     7155.0824     7148.9734     7161.1914  54.825974  -4.128545  -0.000019  -0.000854
1 62584U 25007K   25316.92380133  .00000868  00000-0  36774-3 0  9997 | 2 62584  54.9837 347.9683 0009167 266.5930  93.4003 14.33819032 44547 | 2025/11/12-22:10:16   36.8962    0.0982   93.5052  100.4311     7157.1307     7150.5697     7163.6916  53.775841 -11.461508  -0.000244  -0.000884
1 62584U 25007K   25318.59744942  .00000715  00000-0  31796-3 0  9994 | 2 62584  54.9837 341.5779 0008987 264.7867  95.2087 14.33014181 44781 | 2025/11/14-14:20:19  287.4475    0.0979   95.3112  100.4875     7159.8103     7153.3758     7166.2448  52.166016 -17.375675  -0.000360  -0.000823
1 62584U 25007K   25319.71376139  .00000703  00000-0  31691-3 0  9999 | 2 62584  54.9838 337.3280 0008027 281.9713  78.0367 14.32471683 44949 | 2025/11/15-17:07:48  334.6574    0.0980   78.1267  100.5255     7161.6179     7155.8692     7167.3665  50.735013 -21.193789  -0.000149  -0.000789
1 62584U 25007K   25320.97017078  .00000612  00000-0  28683-3 0  9999 | 2 62584  54.9845 332.5395 0008905 270.4180  89.5779 14.31919255 45123 | 2025/11/16-23:17:02   73.0037    0.0979   89.6799  100.5643     7163.4597     7157.0806     7169.8388  48.789339 -25.355387  -0.000405  -0.000793
1 62584U 25007K   25322.01749206  .00000450  00000-0  22836-3 0  9995 | 2 62584  54.9827 328.5522 0008824 288.2894  71.7125 14.31520256 45272 | 2025/11/18-00:25:11   95.0530    0.0979   71.8085  100.5924     7164.7907     7158.4685     7171.1129  46.906612 -28.685659  -0.000201  -0.000859
1 62584U 25007K   25323.20476798  .00000364  00000-0  19790-3 0  9999 | 2 62584  54.9828 324.0366 0008659 271.3688  88.6300 14.31059936 45443 | 2025/11/19-04:54:51  168.1612    0.0980   88.7292  100.6247     7166.3271     7160.1218     7172.5324  44.502655 -32.289658  -0.000492  -0.000713
1 62584U 25007K   25324.60213926  .00000294  00000-0  17363-3 0  9992 | 2 62584  54.9830 318.7276 0007291 272.5542  87.4603 14.30420966 45648 | 2025/11/20-14:27:04  317.8855    0.0980   87.5438  100.6697     7168.4611     7163.2345     7173.6876  41.324232 -36.268970  -0.000456  -0.000569
1 62584U 25007K   25325.72045208  .00000292  00000-0  17413-3 0  9996 | 2 62584  54.9831 314.4821 0008744 272.5679  87.4299 14.29995524 45807 | 2025/11/21-17:17:27    5.8426    0.0979   87.5300  100.6996     7169.8828     7163.6134     7176.1521  38.525910 -39.228759  -0.000596  -0.000640
1 62584U 25007K   25326.97913968  .00000291  00000-0  17632-3 0  9993 | 2 62584  54.9806 309.7059 0008941 270.8596  89.1358 14.29208060 45983 | 2025/11/22-23:29:57  104.9893    0.0978   89.2382  100.7551     7172.5162     7166.1032     7178.9291  35.124194 -42.298433  -0.000679  -0.000581
1 62584U 25007K   25328.37826332  .00000293  00000-0  17897-3 0  9992 | 2 62584  54.9830 304.4075 0008744 266.7928  93.2050 14.28588060 46182 | 2025/11/24-09:04:41  255.3489    0.0978   93.3050  100.7988     7174.5913     7168.3178     7180.8647  31.069519 -45.363149  -0.000748  -0.000453
1 62584U 25007K   25329.42797892  .00000292  00000-0  17972-3 0  9990 | 2 62584  54.9828 300.4338 0008852 277.8781  82.1192 14.28260035 46337 | 2025/11/25-10:16:17  278.2554    0.0978   82.2197  100.8220     7175.6897     7169.3378     7182.0416  27.851124 -47.406995  -0.000695  -0.000549
1 62584U 25007K   25330.82842324  .00000201  00000-0  14650-3 0  9997 | 2 62584  54.9827 295.1412 0009527 266.4396  93.5492 14.27172568 46538 | 2025/11/26-19:52:55   69.0968    0.0978   93.6582  100.8988     7179.3344     7172.4946     7186.1741  23.359427 -49.773833  -0.000886  -0.000350
1 62584U 25007K   25332.22965610  .00000123  00000-0  11626-3 0  9990 | 2 62584  54.9808 289.8571 0008973 274.4809  85.5143 14.26362062 46730 | 2025/11/28-05:30:42  220.1994    0.0977   85.6168  100.9561     7182.0538     7175.6094     7188.4983  18.675626 -51.711791  -0.000818  -0.000370
1 62584U 25007K   25333.91225389  .00000201  00000-0  15170-3 0  9994 | 2 62584  54.9824 283.5051 0008631 274.8518  85.1473 14.25267775 46976 | 2025/11/29-21:53:38  113.9412    0.0977   85.2459  101.0336     7185.7295     7179.5275     7191.9315  12.840145 -53.462089  -0.000819  -0.000272
1 62584U 25007K   25335.31539176  .00000322  00000-0  20582-3 0  9999 | 2 62584  54.9830 278.2247 0009211 270.8328  89.1593 14.24468348 47179 | 2025/12/01-07:34:09  265.7412    0.0976   89.2648  101.0903     7188.4177     7181.7965     7195.0390   7.865627 -54.417481  -0.000910  -0.000145
1 62584U 25007K   25336.36825948  .00000454  00000-0  26506-3 0  9998 | 2 62584  54.9829 274.2665 0010582 265.9098  94.0669 14.23923063 47324 | 2025/12/02-08:50:17  289.7849    0.0976   94.1878  101.1291     7190.2528     7182.6441     7197.8615   4.090490 -54.830531  -0.001058  -0.000003
1 62584U 25007K   25337.56200325  .00000564  00000-0  31612-3 0  9993 | 2 62584  54.9828 269.7841 0008753 274.3265  85.6711 14.23376066 47492 | 2025/12/03-13:29:17    5.1708    0.0976   85.7711  101.1679     7192.0948     7185.7995     7198.3900  -0.207184 -54.982410  -0.000873  -0.000063
1 62584U 25007K   25338.68608238  .00000714  00000-0  38739-3 0  9996 | 2 62584  54.9849 265.5781 0010821 287.7645  72.2149 14.22599593 47657 | 2025/12/04-16:27:57   55.1714    0.0975   72.3330  101.2231     7194.7116     7186.9262     7202.4970  -4.239343 -54.821229  -0.001053  -0.000250
1 62584U 25007K   25339.95121348  .00000666  00000-0  37193-3 0  9998 | 2 62584  54.9831 260.8267 0009441 270.6626  89.3268 14.21770333 47834 | 2025/12/05-22:49:44  156.6070    0.0976   89.4350  101.2822     7197.5089     7190.7137     7204.3040  -8.765470 -54.279903  -0.000934   0.000140
1 62584U 25007K   25341.92040104  .00000533  00000-0  31740-3 0  9993 | 2 62584  54.9832 253.4593 0010051 270.5827  89.3996 14.20788400 48119 | 2025/12/07-22:05:22  154.8299    0.0975   89.5148  101.3522     7200.8247     7193.5872     7208.0623 -15.653517 -52.707871  -0.000966   0.000276
1 62584U 25007K   25343.11666668  .00000439  00000-0  27697-3 0  9996 | 2 62584  54.9832 248.9869 0011314 269.6199  90.3479 14.20236497 48288 | 2025/12/09-02:48:00  231.1516    0.0974   90.4775  101.3916     7202.6901     7194.5410     7210.8392 -19.715952 -51.326733  -0.001053   0.000413
1 62584U 25007K   25344.45420500  .00000385  00000-0  25400-3 0  9997 | 2 62584  54.9968 243.9923 0014116 271.7358  88.2000 14.19764228 48471 | 2025/12/10-10:54:03  359.0103    0.0975   88.3617  101.4253     7204.2873     7194.1177     7214.4568 -24.115653 -49.427556  -0.001287   0.000580
1 62584U 25007K   25346.00366772  .00000307  00000-0  22044-3 0  9995 | 2 62584  54.9834 238.2148 0012530 270.4476  89.5062 14.18955157 48692 | 2025/12/12-00:05:16  204.1036    0.0974   89.6498  101.4831     7207.0255     7197.9951     7216.0559 -28.961750 -46.737473  -0.001070   0.000652
1 62584U 25007K   25347.27177625  .00000275  00000-0  20577-3 0  9995 | 2 62584  54.9830 233.4887 0012005 274.0010  85.9591 14.18820492 48876 | 2025/12/13-06:31:21  306.5924    0.0973   86.0963  101.4928     7207.4816     7198.8290     7216.1341 -32.713858 -44.192011  -0.001012   0.000645
1 62584U 25007K   25348.32867934  .00000196  00000-0  16857-3 0  9999 | 2 62584  54.9828 229.5511 0012532 275.1495  84.8048 14.18651310 49021 | 2025/12/14-07:53:17  332.0626    0.0973   84.9478  101.5049     7208.0546     7199.0214     7217.0877 -35.671170 -41.841080  -0.001023   0.000724
1 62584U 25007K   25349.94983874  .00000111  00000-0  12971-3 0  9990 | 2 62584  54.9823 223.5146 0013091 274.0276  85.9201 14.17664585 49255 | 2025/12/15-22:47:46  203.3210    0.0973   86.0697  101.5755     7211.3988     7201.9584     7220.8393 -39.873106 -37.857479  -0.000966   0.000884
1 62584U 25007K   25351.92479352  .00000111  00000-0  13195-3 0  9991 | 2 62584  54.9827 216.1758 0009790 275.4688  84.5168 14.16734577 49535 | 2025/12/17-22:11:42  203.5522    0.0973   84.6285  101.6422     7214.5544     7207.4913     7221.6174 -44.382568 -32.454351  -0.000651   0.000732
1 62584U 25007K   25353.05378803  .00000126  00000-0  13998-3 0  9993 | 2 62584  54.9826 211.9838 0010096 272.8692  87.1125 14.16459033 49693 | 2025/12/19-01:17:27  255.2990    0.0973   87.2281  101.6620     7215.4900     7208.2052     7222.7748 -46.636125 -29.123154  -0.000577   0.000828
1 62584U 25007K   25354.18290348  .00000132  00000-0  14311-3 0  9992 | 2 62584  54.9825 207.7917 0010268 274.9658  85.0142 14.16458727 49852 | 2025/12/20-04:23:22  307.0872    0.0972   85.1314  101.6620     7215.4910     7208.0822     7222.8999 -48.640188 -25.636058  -0.000556   0.000864
1 62584U 25007K   25355.73570086  .00000175  00000-0  16591-3 0  9993 | 2 62584  54.9835 202.0277 0008790 272.9005  87.0961 14.15947551 50075 | 2025/12/21-17:39:24  153.3722    0.0972   87.1967  101.6987     7217.2275     7210.8836     7223.5715 -50.969850 -20.621826  -0.000370   0.000797
1 62584U 25007K   25356.93606263  .00000235  00000-0  19832-3 0  9991 | 2 62584  54.9831 197.5789 0009456 263.0872  96.9025 14.15388780 50242 | 2025/12/22-22:27:55  231.1413    0.0973   97.0101  101.7388     7219.1269     7212.3005     7225.9533 -52.415497 -16.605932  -0.000175   0.000929
1 62584U 25007K   25358.70209471  .00000288  00000-0  22874-3 0  9996 | 2 62584  54.9828 191.0395 0008375 269.2741  90.7272 14.14597990 50499 | 2025/12/24-16:51:00  155.1813    0.0973   90.8232  101.7957     7221.8171     7215.7688     7227.8653 -53.965366 -10.528419  -0.000150   0.000824
1 62584U 25007K   25360.25705412  .00000352  00000-0  26489-3 0  9993 | 2 62584  54.9833 185.2954 0009600 281.5944  78.3949 14.13985717 50710 | 2025/12/26-06:10:09    2.2554    0.0971   78.5027  101.8398     7223.9017     7216.9667     7230.8366 -54.748637  -5.074444  -0.000279   0.000919
1 62584U 25007K   25361.52986318  .00000392  00000-0  28919-3 0  9994 | 2 62584  54.9799 180.5782 0008032 260.5192  99.4872 14.13324744 50893 | 2025/12/27-12:43:00  106.4213    0.0972   99.5780  101.8874     7226.1538     7220.3497     7231.9578 -54.977100  -0.554820   0.000124   0.000794
1 62584U 25007K   25362.80319810  .00000379  00000-0  28518-3 0  9993 | 2 62584  54.9834 175.8821 0009226 276.1163  83.8757 14.12775640 51075 | 2025/12/28-19:16:36  210.7875    0.0971   83.9808  101.9270     7228.0261     7221.3575     7234.6946 -54.841455   3.948306  -0.000032   0.000922
1 62584U 25007K   25364.07698928  .00000365  00000-0  27979-3 0  9999 | 2 62584  54.9708 171.2186 0008417 277.0245  82.9768 14.12338633 51250 | 2025/12/30-01:50:51  315.2620    0.0970   83.0725  101.9586     7229.5170     7223.4319     7235.6021 -54.326432   8.392118   0.000026   0.000841
1 62584U 25007K   25365.49285253  .00000276  00000-0  23451-3 0  9991 | 2 62584  54.9829 165.9666 0008979 274.4012  85.5933 14.11667092 51451 | 2025/12/31-11:49:42  111.6271    0.0971   85.6959  102.0071     7231.8096     7225.3161     7238.3030 -53.341910  13.332665   0.000150   0.000885
1 62584U 25007K   26001.55517666  .00000204  00000-0  19671-3 0  9992 | 2 62584  54.9855 162.0576 0008391 274.2016  85.7995 14.11179813 51604 | 2026/01/01-13:19:27  139.0133    0.0970   85.8954  102.0423     7233.4742     7227.4046     7239.5438 -52.311373  16.938873   0.000199   0.000815
1 62584U 25007K   26002.61789294  .00000110  00000-0  14610-3 0  9992 | 2 62584  54.9863 158.1458 0009975 269.0081  90.9746 14.10540142 51755 | 2026/01/02-14:49:45  166.5688    0.0970   91.0889  102.0886     7235.6609     7228.4434     7242.8785 -51.034661  20.468430   0.000387   0.000919
1 62584U 25007K   26003.89370360  .00000002  00000-0  86562-4 0  9999 | 2 62584  54.9845 153.4603 0008725 273.4649  86.5323 14.10095164 51937 | 2026/01/03-21:26:55  271.7891    0.0970   86.6321  102.1208     7237.1831     7230.8686     7243.4975 -49.190507  24.568053   0.000342   0.000803
1 62584U 25007K   26004.95721936 -.00000046  00000-0  60024-4 0  9990 | 2 62584  54.9839 149.5528 0009024 260.5094  99.4856 14.09717457 52081 | 2026/01/04-22:58:23  299.6128    0.0970   99.5876  102.1481     7238.4757     7231.9437     7245.0077 -47.401428  27.862768   0.000579   0.000692
1 62584U 25007K   26006.02093023 -.00000028  00000-0  70448-4 0  9990 | 2 62584  54.9848 145.6516 0009148 270.4007  89.5914 14.09558760 52238 | 2026/01/06-00:30:08  327.5012    0.0969   89.6962  102.1596     7239.0190     7232.3968     7245.6413 -45.396659  31.023727   0.000511   0.000759
1 62584U 25007K   26007.43959186  .00000045  00000-0  11276-3 0  9998 | 2 62584  54.9847 140.4449 0008051 267.0185  92.9863 14.08902732 52430 | 2026/01/07-10:33:00  124.8117    0.0969   93.0784  102.2072     7241.2660     7235.4360     7247.0959 -42.393892  35.015356   0.000544   0.000593
1 62584U 25007K   26008.85877066  .00000151  00000-0  17520-3 0  9997 | 2 62584  54.9847 135.2499 0009526 265.5833  94.4047 14.08498090 52638 | 2026/01/08-20:36:37  282.3267    0.0968   94.5135  102.2366     7242.6528     7235.7534     7249.5522 -39.049262  38.710107   0.000721   0.000623
1 62584U 25007K   26010.49152376  .00000132  00000-0  16633-3 0  9993 | 2 62584  54.9876 129.2664 0008634 263.0345  96.9642 14.07662562 52866 | 2026/01/10-11:47:47  157.6999    0.0969   97.0624  102.2972     7245.5185     7239.2627     7251.7742 -34.803135  42.572033   0.000730   0.000461
1 62584U 25007K   26011.84100665  .00000075  00000-0  13425-3 0  9999 | 2 62584  54.9866 124.3331 0006837 273.2714  86.7472 14.07139391 53057 | 2026/01/11-20:11:02  289.7573    0.0968   86.8254  102.3353     7247.3143     7242.3593     7252.2693 -31.012618  45.406428   0.000542   0.000417
1 62584U 25007K   26012.97783877 -.00000002  00000-0  88993-4 0  9990 | 2 62584  54.9861 120.1822 0008287 266.5286  93.4734 14.06641142 53216 | 2026/01/12-23:28:05  344.3048    0.0968   93.5682  102.3715     7249.0256     7243.0183     7255.0328 -27.644340  47.531691   0.000740   0.000372
1 62584U 25007K   26014.61281096 -.00000058  00000-0  55957-4 0  9994 | 2 62584  54.9866 114.2154 0007529 272.5124  87.4982 14.05841227 53447 | 2026/01/14-14:42:26  220.4645    0.0968   87.5844  102.4298     7251.7751     7246.3152     7257.2349 -22.553754  50.148324   0.000672   0.000339
1 62584U 25007K   26015.75063234 -.00000054  00000-0  58527-4 0  9994 | 2 62584  54.9859 110.0668 0009350 267.4899  92.4999 14.05445462 53602 | 2026/01/15-18:00:54  275.3711    0.0968   92.6069  102.4586     7253.1364     7246.3547     7259.9181 -18.866513  51.647883   0.000891   0.000282
1 62584U 25007K   26017.52934034 -.00000003  00000-0  91628-4 0  9999 | 2 62584  54.9896 103.5860 0008169 264.6782  95.3253 14.04481540 53859 | 2026/01/17-12:42:15  203.9263    0.0967   95.4185  102.5289     7256.4546     7250.5268     7262.3824 -12.917311  53.450905   0.000808   0.000117
1 62584U 25007K   26018.81075597  .00000002  00000-0  95724-4 0  9991 | 2 62584  54.9903  98.9238 0007652 265.0151  94.9942 14.03834161 54036 | 2026/01/18-19:27:29  311.1553    0.0966   95.0815  102.5762     7258.6853     7253.1310     7264.2397  -8.530137  54.324671   0.000763   0.000053
1 62584U 25007K   26020.16400002  .00000087  00000-0  15069-3 0  9991 | 2 62584  54.9891  94.0117 0007677 265.2397  94.7693 14.03129005 54222 | 2026/01/20-03:56:09   84.5694    0.0967   94.8570  102.6278     7261.1171     7255.5427     7266.6914  -3.847047  54.854365   0.000768  -0.000010
1 62584U 25007K   26021.44664939  .00000149  00000-0  19258-3 0  9997 | 2 62584  54.9894  89.3520 0008163 266.5898  93.4135 14.02468859 54400 | 2026/01/21-10:43:10  192.2528    0.0967   93.5069  102.6761     7263.3955     7257.4663     7269.3246   0.621902  54.985883   0.000814  -0.000058
1 62584U 25007K   26022.65856908  .00000155  00000-0  19857-3 0  9992 | 2 62584  54.9874  84.9583 0006696 268.4804  91.5395 14.01896411 54578 | 2026/01/22-15:48:20  274.1155    0.0966   91.6162  102.7180     7265.3726     7260.5077     7270.2375   4.832334  54.774654   0.000665  -0.000077
1 62584U 25007K   26024.01376644  .00000134  00000-0  18680-3 0  9998 | 2 62584  54.9842  80.0475 0009090 267.4800  92.5125 14.01179640 54767 | 2026/01/24-00:19:49   48.2605    0.0966   92.6166  102.7705     7267.8501     7261.2436     7274.4566   9.503012  54.156763   0.000888  -0.000196
1 62584U 25007K   26027.65433744  .00000140  00000-0  19380-3 0  9991 | 2 62584  54.9864  66.8981 0008290 273.0064  86.9952 14.00188165 55274 | 2026/01/27-15:42:14  295.5947    0.0965   87.0901  102.8433     7271.2806     7265.2527     7277.3085  21.574883  50.576957   0.000779  -0.000285
1 62584U 25007K   26030.08240866  .00000107  00000-0  17382-3 0  9996 | 2 62584  54.9858  58.1330 0008150 267.8681  92.1351 13.99408567 55618 | 2026/01/30-01:58:40  100.8571    0.0965   92.2284  102.9006     7273.9809     7268.0526     7279.9092  29.029713  46.698115   0.000676  -0.000456
1 62584U 25007K   26031.15385829  .00000054  00000-0  13789-3 0  9992 | 2 62584  54.9867  54.2644 0008292 268.9146  91.0868 13.99408520 55764 | 2026/01/31-03:41:33  131.5054    0.0964   91.1818  102.9006     7273.9811     7267.9495     7280.0126  32.114744  44.633848   0.000664  -0.000497
1 62584U 25007K   26032.43976678  .00000013  00000-0  11078-3 0  9996 | 2 62584  54.9868  49.6255 0009865 271.5672  88.4162 13.98990889 55942 | 2026/02/01-10:33:15  240.3568    0.0964   88.5292  102.9313     7275.4286     7268.2514     7282.6058  35.619399  41.890411   0.000769  -0.000618
1 62584U 25007K   26033.51173021  .00000015  00000-0  11270-3 0  9993 | 2 62584  54.9866  45.7625 0009017 267.4092  92.5840 13.98573476 56092 | 2026/02/02-12:16:53  271.1734    0.0964   92.6872  102.9621     7276.8761     7270.3146     7283.4377  38.360531  39.395378   0.000617  -0.000658
1 62584U 25007K   26035.01301344  .00000012  00000-0  11165-3 0  9991 | 2 62584  54.9877  40.3544 0008685 246.0106 113.9949 13.98046513 56303 | 2026/02/04-00:18:44   98.5109    0.0964  114.0858  103.0009     7278.7046     7272.3830     7285.0262  41.903590  35.605284   0.000245  -0.000833
1 62584U 25007K   26036.01431911  .00000021  00000-0  11822-3 0  9996 | 2 62584  54.9871  36.7617 0009592 237.9789 122.0244 13.97585229 56446 | 2026/02/05-00:20:37  103.5628    0.0964  122.1175  103.0349     7280.3061     7273.3228     7287.2894  44.051904  32.909131   0.000079  -0.000956
1 62584U 25007K   26037.01592560  .00000026  00000-0  12348-3 0  9994 | 2 62584  54.9843  33.1475 0010203 245.4724 114.5177 13.96993917 56584 | 2026/02/06-00:22:55  108.7558    0.0964  114.6240  103.0785     7282.3603     7274.9301     7289.7905  46.036468  30.065210   0.000153  -0.001009
1 62584U 25007K   26038.01788831  .00000024  00000-0  12270-3 0  9995 | 2 62584  54.9854  29.5410 0010109 246.4642 113.5260 13.96399162 56729 | 2026/02/07-00:25:45  114.0563    0.0964  113.6322  103.1224     7284.4280     7277.0642     7291.7918  47.837469  27.110345   0.000106  -0.001005
1 62584U 25007K   26040.45255016  .00000018  00000-0  12060-3 0  9990 | 2 62584  54.9874  20.8152 0008655 276.9099  83.0880 13.95455771 57060 | 2026/02/09-10:51:40  281.6524    0.0964   83.1865  103.1921     7287.7107     7281.4032     7294.0182  51.398451  19.540045   0.000403  -0.000766
1 62584U 25007K   26041.45566083  .00000011  00000-0  11604-3 0  9996 | 2 62584  54.9891  17.2214 0009288 266.6560  93.3341 13.94896690 57200 | 2026/02/10-10:56:09  287.3626    0.0963   93.4403  103.2335     7289.6579     7282.8872     7296.4285  52.523820  16.280338   0.000223  -0.000902
1 62584U 25007K   26042.45916246  .00000009  00000-0  11572-3 0  9998 | 2 62584  54.9877  13.6291 0007688 278.4155  81.5937 13.94335810 57349 | 2026/02/11-11:01:11  293.1855    0.0964   81.6809  103.2750     7291.6126     7286.0068     7297.2184  53.439326  12.957067   0.000289  -0.000713
1 62584U 25007K   26043.96513830 -.00000010  00000-0  10249-3 0  9990 | 2 62584  54.9863   8.2428 0009122 267.4733  92.5185 13.93532646 57556 | 2026/02/12-23:09:47  122.2248    0.0962   92.6229  103.3345     7294.4140     7287.7601     7301.0680  54.418259   7.883290   0.000091  -0.000908
1 62584U 25007K   26045.25648739  .00000006  00000-0  11514-3 0  9991 | 2 62584  54.9882   3.6326 0009964 266.0350  93.9473 13.93306318 57737 | 2026/02/14-06:09:20  233.0030    0.0962   94.0612  103.3513     7295.2039     7287.9350     7302.4729  54.877720   3.483962  -0.000006  -0.000996
1 62584U 25007K   26046.26088990  .00000035  00000-0  13763-3 0  9990 | 2 62584  54.9883   0.0449 0009954 268.4133  91.5689 13.93306709 57871 | 2026/02/15-06:15:40  239.1657    0.0962   91.6829  103.3513     7295.2026     7287.9409     7302.4642  54.988283   0.043092  -0.000027  -0.000995
1 62584U 25007K   26047.26529233  .00000005  00000-0  11442-3 0  9990 | 2 62584  54.9883 356.4573 0009933 270.9077  89.0747 13.93306886 58019 | 2026/02/16-06:22:01  245.3280    0.0962   89.1885  103.3512     7295.2020     7287.9556     7302.4483  54.883219  -3.397858  -0.000046  -0.000992
1 62584U 25007K   26048.26969457  .00000013  00000-0  12037-3 0  9997 | 2 62584  54.9884 352.8695 0009923 273.4656  86.5171 13.93307220 58156 | 2026/02/17-06:28:21  251.4903    0.0962   86.6306  103.3512     7295.2008     7287.9618     7302.4398  54.563120  -6.825694  -0.000063  -0.000990
1 62584U 25007K   26049.48959023  .00000011  00000-0  11992-3 0  9997 | 2 62584  54.9735 348.5390 0009863 286.4940  73.4938 13.92769126 58329 | 2026/02/18-11:45:00  336.1805    0.0962   73.6022  103.3911     7297.0797     7289.8825     7304.2768  53.877338 -10.923283   0.000087  -0.000982
1 62584U 25007K   26050.78172220  .00000007  00000-0  11772-3 0  9999 | 2 62584  54.9887 343.9055 0012615 269.9120  90.0397 13.92412074 58500 | 2026/02/19-18:45:40   87.2912    0.0963   90.1843  103.4177     7298.3271     7289.1202     7307.5339  52.833460 -15.244101  -0.000352  -0.001212
1 62584U 25007K   26055.81208206 -.00000003  00000-0  11415-3 0  9993 | 2 62584  54.9887 326.0084 0012863 274.8987  85.0505 13.89776819 59204 | 2026/02/24-19:29:23  121.0785    0.0961   85.1974  103.6138     7307.5501     7298.1504     7316.9498  45.592206 -30.742607  -0.000625  -0.001124
1 62584U 25007K   26057.25086145  .00000004  00000-0  12044-3 0  9998 | 2 62584  54.9882 320.9011 0014200 275.2042  84.7298 13.89285814 59403 | 2026/02/26-06:01:14  285.5797    0.0961   84.8919  103.6504     7309.2717     7298.8926     7319.6509  42.674061 -34.678908  -0.000792  -0.001179
1 62584U 25007K   26058.69026276  .00000009  00000-0  12588-3 0  9994 | 2 62584  54.9914 315.8081 0012209 281.6683  78.2907 13.88633119 59609 | 2026/02/27-16:33:58   90.2509    0.0960   78.4277  103.6991     7311.5619     7302.6352     7320.4886  39.429338 -38.332511  -0.000656  -0.001029
1 62584U 25007K   26059.69821779  .00000015  00000-0  13178-3 0  9999 | 2 62584  54.9966 312.2463 0012761 280.7153  79.2370 13.88178053 59747 | 2026/02/28-16:45:26   97.6767    0.0960   79.3807  103.7331     7313.1597     7303.8274     7322.4920  36.975259 -40.711868  -0.000769  -0.001019
1 62584U 25007K   26060.77858402  .00000018  00000-0  13528-3 0  9995 | 2 62584  54.9816 308.4005 0012020 280.4041  79.5564 13.87592672 59891 | 2026/03/01-18:41:09  131.5110    0.0960   79.6919  103.7769     7315.2164     7306.4235     7324.0093  34.152075 -43.088422  -0.000792  -0.000904
1 62584U 25007K   26062.14760772  .00000030  00000-0  14639-3 0  9998 | 2 62584  54.9876 303.5610 0010119 277.1883  82.7926 13.87076378 60080 | 2026/03/03-03:32:33  270.5280    0.0960   82.9077  103.8155     7317.0315     7309.6274     7324.4356  30.398491 -45.821042  -0.000767  -0.000661
1 62584U 25007K   26063.15670435  .00000042  00000-0  15737-3 0  9999 | 2 62584  54.9873 299.9958 0011285 278.6025  81.3656 13.86749653 60222 | 2026/03/04-03:45:39  278.3754    0.0960   81.4935  103.8399     7318.1807     7309.9222     7326.4393  27.490159 -47.622414  -0.000882  -0.000704
1 62584U 25007K   26064.16612747  .00000030  00000-0  14904-3 0  9995 | 2 62584  54.9819 296.4350 0008377 283.4127  76.5897 13.86211252 60362 | 2026/03/05-03:59:13  286.2892    0.0958   76.6831  103.8803     7320.0755     7313.9435     7326.2075  24.476966 -49.232991  -0.000643  -0.000537
1 62584U 25007K   26066.04176211  .00000010  00000-0  13348-3 0  9994 | 2 62584  54.9849 289.8167 0010158 273.2929  86.6867 13.85148710 60629 | 2026/03/07-01:00:08  250.0075    0.0958   86.8029  103.9600     7323.8185     7316.3790     7331.2580  18.640549 -51.728804  -0.000934  -0.000399
1 62584U 25007K   26067.55768294  .00000014  00000-0  13866-3 0  9998 | 2 62584  54.9917 284.4824 0009623 272.2808  87.7048 13.84362166 60834 | 2026/03/08-13:23:03   82.5614    0.0958   87.8150  104.0190     7326.5923     7319.5419     7333.6427  13.752467 -53.244312  -0.000921  -0.000278
1 62584U 25007K   26068.93006225  .00000008  00000-0  13540-3 0  9992 | 2 62584  54.9869 279.6582 0008375 269.5934  90.4064 13.83558583 61029 | 2026/03/09-22:19:17  222.7807    0.0958   90.5024  104.0794     7329.4290     7323.2906     7335.5673   9.225164 -54.207523  -0.000827  -0.000135
1 62584U 25007K   26070.15856360  .00000005  00000-0  13321-3 0  9996 | 2 62584  54.9858 275.3401 0010367 277.4393  82.5386 13.83017149 61196 | 2026/03/11-03:48:19  310.5920    0.0957   82.6564  104.1202     7331.3417     7323.7413     7338.9422   5.117388 -54.747151  -0.001011  -0.000229
1 62584U 25007K   26071.60448332  .00000015  00000-0  14347-3 0  9993 | 2 62584  54.9895 270.2678 0008291 271.2036  88.7971 13.82297990 61399 | 2026/03/12-14:30:27  117.5978    0.0957   88.8921  104.1744     7333.8843     7327.8038     7339.9649   0.257020 -54.988899  -0.000829  -0.000021
1 62584U 25007K   26073.91947009  .00000007  00000-0  13856-3 0  9999 | 2 62584  54.9852 262.1556 0008669 273.5802  86.4163 13.81363366 61716 | 2026/03/14-22:04:02  241.3912    0.0957   86.5155  104.2448     7337.1920     7330.8314     7343.5526  -7.504561 -54.470669  -0.000865   0.000064
1 62584U 25007K   26075.29468454 -.00000015  00000-0  11860-3 0  9997 | 2 62584  54.9784 257.3419 0007650 270.8093  89.1986 13.80786129 61904 | 2026/03/16-07:04:20   22.6262    0.0956   89.2863  104.2884     7339.2368     7333.6222     7344.8513 -12.047568 -53.642153  -0.000749   0.000157
1 62584U 25007K   26077.25002375 -.00000030  00000-0  10569-3 0  9993 | 2 62584  54.9808 250.5086 0007587 268.7032  91.3054 13.79936224 62176 | 2026/03/18-06:00:02   15.3082    0.0955   91.3923  104.3526     7342.2499     7336.6794     7347.8205 -18.345189 -51.829937  -0.000709   0.000269
