# SPACE DATA - HISTORICAL TLEs
# ----------------------------
# NORAD_ID    : 61559
# OBJECT_NAME : QIANFAN-26
# --------------------------------------------------------------------+-----------------------------------------------------------------------+----------------------------------------------------------------------------------------------------------------------------------------
#                  LINE 1                                             |                 LINE 2                                                |      DERIVED PARAMETERS
# --------------------------------------------------------------------+-----------------------------------------------------------------------+----------------------------------------------------------------------------------------------------------------------------------------
# NORAD  COSPAR     TLE_EPOCH      MEANMOT1 MEANMOT2   BSTAR  #  REV  |   NORAD    INC     RAAN     ECC    ARGPER  MEANANOM   MEANMOT     REV |  CAL_DATE              LONG     ARGLAT     PERIOD        SMA         PERIGEE        APOGEE      INC_X      INC_Y      ECC_X      ECC_Y
# ------ ------   -------------- ----------  -------  ------- -- ----     -----  ------- -------- ------- -------- -------- -----------  ----   ------------------- ---------  --------  --------  ------------  ------------   ----------- ---------- ----------  ---------  ---------   
1 62580U 25007F   25013.45946155 -.00000210  00000-0  00000+0 0  9998 | 2 62580  54.9751 126.8679 0011516 294.0888 162.5064 14.75387394    45 | 2025/01/13-11:01:37   55.1236   96.6348  162.5460   97.6015     7022.0588     7013.9722     7030.1454 -32.983527  43.981230   0.000559   0.001007
1 62580U 25007F   25014.59301144  .00002494  00000-0  39459-3 0  9996 | 2 62580  54.9781 122.2411 0011726 299.5015  60.4815 14.75407258   218 | 2025/01/14-14:13:56  205.5578    0.1000   60.5985   97.6002     7021.9958     7013.7618     7030.2298 -29.329889  46.501065   0.000555   0.001033
1 62580U 25007F   25015.60924101  .00000758  00000-0  14139-3 0  9992 | 2 62580  54.9771 118.0909 0011803 303.0602  56.9264 14.75401089   361 | 2025/01/15-14:37:18  216.5487    0.1000   57.0398   97.6006     7022.0154     7013.7273     7030.3034 -25.887164  48.500889   0.000569   0.001034
1 62580U 25007F   25017.43845707  .00000919  00000-0  16489-3 0  9998 | 2 62580  54.9774 110.6227 0011950 308.0021  51.9898 14.75406335   635 | 2025/01/17-10:31:22  164.3323    0.0999   52.0978   97.6002     7021.9987     7013.6074     7030.3900 -19.363726  51.454452   0.000622   0.001020
1 62580U 25007F   25018.75263172 -.00000115  00000-0  13861-4 0  9995 | 2 62580  54.9789 105.2535 0011506 308.3610 194.8353 14.75405465   824 | 2025/01/18-18:03:47  140.8953  143.1626  194.8016   97.6003     7022.0015     7013.9220     7030.0810 -14.464407  53.042062   0.000683   0.000926
1 62580U 25007F   25023.12879059  .00004218  00000-0  64090-3 0  9995 | 2 62580  54.9769  87.3807 0013363 321.9098  38.0956 14.75743458  1475 | 2025/01/23-03:05:27   81.6896    0.1000   38.1902   97.5779     7020.9293     7011.5472     7030.3113   2.512416  54.919462   0.000872   0.001013
1 62580U 25007F   25024.41556148  .00005687  00000-0  84244-3 0  9993 | 2 62580  54.9771  82.1220 0014558 325.4572  34.5481 14.76293012  1665 | 2025/01/24-09:58:24  191.4542    0.1000   34.6428   97.5416     7019.1868     7008.9682     7029.4053   7.535393  54.458235   0.000982   0.001075
1 62580U 25007F   25025.49884752  .00005096  00000-0  75698-3 0  9994 | 2 62580  54.9772  77.6923 0014406 327.8232  32.1887 14.76360098  1827 | 2025/01/25-11:58:20  226.9280    0.1000   32.2768   97.5372     7018.9741     7008.8626     7029.0857  11.719033  53.713656   0.001009   0.001028
1 62580U 25007F   25026.64960279  .00004407  00000-0  64989-3 0  9997 | 2 62580  54.9772  72.9836 0014476 330.6393  29.3793 14.76943180  1996 | 2025/01/26-15:35:25  287.0361    0.1001   29.4608   97.4987     7017.1267     7006.9687     7027.2847  16.088826  52.570355   0.001048   0.000999
1 62580U 25007F   25028.40866658  .00003524  00000-0  51815-3 0  9992 | 2 62580  54.9769  65.7780 0015030 336.4505  23.5806 14.77576143  2259 | 2025/01/28-09:48:28  209.2260    0.1001   23.6496   97.4569     7015.1225     7004.5788     7025.6663  22.555550  50.136879   0.001113   0.001010
1 62580U 25007F   25029.55869889  .00003503  00000-0  51517-3 0  9994 | 2 62580  54.9768  61.0656 0015176 339.3684  20.6702 14.77585483  2429 | 2025/01/29-13:24:31  269.0761    0.1001   20.7317   97.4563     7015.0930     7004.4469     7025.7391  26.598211  48.114277   0.001155   0.000984
1 62580U 25007F   25030.57342751  .00003619  00000-0  53101-3 0  9991 | 2 62580  54.9767  56.9074 0015285 341.8843  18.1611 14.77593843  2577 | 2025/01/30-13:45:44  279.5299    0.1001   18.2158   97.4557     7015.0665     7004.3440     7025.7890  30.016935  46.058888   0.001191   0.000958
1 62580U 25007F   25031.58815104  .00003538  00000-0  51970-3 0  9992 | 2 62580  54.9768  52.7492 0015398 344.3680  15.6843 14.77601460  2729 | 2025/01/31-14:06:56  289.9819    0.1001   15.7321   97.4552     7015.0424     7004.2406     7025.8442  33.277738  43.761178   0.001228   0.000929
1 62580U 25007F   25032.80581214  .00003986  00000-0  58164-3 0  9999 | 2 62580  54.9771  47.7594 0015538 347.3423  12.7185 14.77611566  2909 | 2025/02/01-19:20:22   14.5214    0.1001   12.7578   97.4546     7015.0104     7004.1105     7025.9103  36.958100  40.701110   0.001271   0.000893
1 62580U 25007F   25033.82052333  .00003889  00000-0  56814-3 0  9999 | 2 62580  54.9773  43.6012 0015618 349.7436  10.3244 14.77619657  3056 | 2025/02/02-19:41:33   24.9685    0.1001   10.3565   97.4540     7014.9848     7004.0288     7025.9408  39.812220  37.914254   0.001305   0.000858
1 62580U 25007F   25034.83522894  .00003744  00000-0  54789-3 0  9994 | 2 62580  54.9775  39.4431 0015754 352.2352   7.8403 14.77627677  3209 | 2025/02/03-20:02:43   35.4133    0.1002    7.8650   97.4535     7014.9594     7003.9081     7026.0108  42.456698  34.927844   0.001341   0.000827
1 62580U 25007F   25035.84992842  .00003664  00000-0  53669-3 0  9997 | 2 62580  54.9777  35.2850 0015842 354.6213   5.4615 14.77636093  3357 | 2025/02/04-20:23:53   45.8560    0.1001    5.4788   97.4530     7014.9328     7003.8197     7026.0458  44.877683  31.757535   0.001373   0.000790
1 62580U 25007F   25036.93226924  .00004091  00000-0  59565-3 0  9995 | 2 62580  54.9778  30.8498 0015975 357.2351   2.8559 14.77645369  3518 | 2025/02/05-22:22:28   80.9925    0.1001    2.8650   97.4523     7014.9034     7003.6971     7026.1097  47.199239  28.192025   0.001409   0.000752
1 62580U 25007F   25037.94695846  .00003806  00000-0  55611-3 0  9991 | 2 62580  54.9778  26.6918 0016081 359.5932   0.5053 14.77652261  3666 | 2025/02/06-22:43:37   91.4313    0.1001    0.5069   97.4519     7014.8816     7003.6010     7026.1622  49.119128  24.695541   0.001442   0.000712
1 62580U 25007F   25039.16457877  .00003460  00000-0  50821-3 0  9991 | 2 62580  54.9779  21.7020 0016206   2.4319 357.6757 14.77660374  3840 | 2025/02/08-03:56:59  175.9554    0.1001  357.6682   97.4514     7014.8559     7003.4877     7026.2242  51.081048  20.329683   0.001479   0.000663
1 62580U 25007F   25040.24690232  .00003429  00000-0  50389-3 0  9990 | 2 62580  54.9779  17.2666 0016325   4.9408 355.1750 14.77667727  4008 | 2025/02/09-05:55:32  211.0859    0.1000  355.1592   97.4509     7014.8327     7003.3810     7026.2844  52.500265  16.318444   0.001511   0.000617
1 62580U 25007F   25041.46473027  .00004437  00000-0  65151-3 0  9999 | 2 62580  54.9767  12.2798 0016308   7.8250 352.3001 14.77106071  4181 | 2025/02/10-11:09:12  295.6818    0.1000  352.2750   97.4879     7016.6108     7005.1681     7028.0535  53.718867  11.692769   0.001531   0.000561
1 62580U 25007F   25042.95394142  .00003249  00000-0  49473-3 0  9993 | 2 62580  54.9785   6.1842 0015426  13.0741 347.0656 14.76267767  4408 | 2025/02/11-22:53:40  119.3467    0.1001  347.0260   97.5433     7019.2668     7008.4389     7030.0947  54.658564   5.922570   0.001456   0.000509
1 62580U 25007F   25044.37621593  .00003009  00000-0  46803-3 0  9992 | 2 62580  54.9783   0.3728 0014853  17.4697 342.6810 14.75556397  4611 | 2025/02/13-09:01:45  278.5678    0.0999  342.6302   97.5903     7021.5226     7011.0936     7031.9517  54.977136   0.357719   0.001414   0.000455
1 62580U 25007F   25045.39256248  .00003404  00000-0  53065-3 0  9993 | 2 62580  54.9787 356.2240 0014217  22.2727 337.8887 14.75120800  4761 | 2025/02/14-09:25:17  289.5924    0.1000  337.8273   97.6191     7022.9048     7012.9204     7032.8893  54.859349  -3.620674   0.001348   0.000451
1 62580U 25007F   25046.47674953  .00004265  00000-0  65689-3 0  9991 | 2 62580  54.9787 351.7992 0014328  24.6230 335.5450 14.75130396  4923 | 2025/02/15-11:26:31  325.3865    0.0999  335.4769   97.6185     7022.8744     7012.8120     7032.9368  54.416501  -7.842313   0.001374   0.000405
1 62580U 25007F   25047.56092864  .00004294  00000-0  66097-3 0  9993 | 2 62580  54.9787 347.3743 0014418  26.9227 333.2518 14.75140314  5088 | 2025/02/16-13:27:44    1.1780    0.1000  333.1773   97.6178     7022.8429     7012.7174     7032.9684  53.649250 -12.017297   0.001397   0.000356
1 62580U 25007F   25048.57733923  .00004641  00000-0  71159-3 0  9994 | 2 62580  54.9785 343.2258 0014506  29.1086 331.0719 14.75151088  5234 | 2025/02/17-13:51:22   12.2302    0.1000  330.9914   97.6171     7022.8087     7012.6214     7032.9960  52.639140 -15.866833   0.001417   0.000310
1 62580U 25007F   25049.59374238  .00004211  00000-0  64840-3 0  9999 | 2 62580  54.9784 339.0772 0014585  31.2312 328.9551 14.75160844  5385 | 2025/02/18-14:14:59   23.2799    0.1000  328.8688   97.6165     7022.7777     7012.5350     7033.0205  51.353259 -19.633321   0.001435   0.000261
1 62580U 25007F   25050.74565725  .00004618  00000-0  70787-3 0  9999 | 2 62580  54.9782 334.3755 0014701  33.6634 326.5296 14.75173470  5553 | 2025/02/19-17:53:44   83.7997    0.1000  326.4366   97.6156     7022.7377     7012.4135     7033.0618  49.570967 -23.776496   0.001456   0.000206
1 62580U 25007F   25051.96532210  .00003651  00000-0  56602-3 0  9993 | 2 62580  54.9782 329.3970 0014784  36.2624 323.9374 14.75183507  5735 | 2025/02/20-23:10:03  169.0529    0.0999  323.8375   97.6150     7022.7058     7012.3234     7033.0882  47.320582 -27.988659   0.001471   0.000146
1 62580U 25007F   25053.11721958  .00003595  00000-0  55768-3 0  9990 | 2 62580  54.9782 324.6949 0014882  38.7017 321.5046 14.75193985  5901 | 2025/02/22-02:48:47  229.5669    0.1000  321.3983   97.6143     7022.6726     7012.2214     7033.1237  44.866948 -31.773566   0.001486   0.000088
1 62580U 25007F   25054.13359306  .00003887  00000-0  60036-3 0  9995 | 2 62580  54.9782 320.5462 0014973  40.7106 319.5010 14.75203568  6053 | 2025/02/23-03:12:22  240.6066    0.1000  319.3894   97.6136     7022.6421     7012.1271     7033.1571  42.450715 -34.936217   0.001497   0.000033
1 62580U 25007F   25055.21771755  .00004638  00000-0  71006-3 0  9995 | 2 62580  54.9781 316.1209 0015062  43.0411 317.1764 14.75215214  6216 | 2025/02/24-05:13:30  276.3793    0.1000  317.0589   97.6129     7022.6052     7012.0277     7033.1826  39.628434 -38.107462   0.001506  -0.000022
1 62580U 25007F   25056.23407700  .00004896  00000-0  74766-3 0  9996 | 2 62580  54.9778 311.9721 0015126  45.0193 315.2029 14.75225633  6369 | 2025/02/25-05:37:04  287.4146    0.0999  315.0806   97.6122     7022.5721     7011.9498     7033.1945  36.767429 -40.874376   0.001511  -0.000079
1 62580U 25007F   25057.38592845  .00004710  00000-0  71842-3 0  9995 | 2 62580  54.9707 307.2784 0014192  48.6589 311.5629 14.75356258  6530 | 2025/02/26-09:15:44  347.9105    0.1000  311.4411   97.6035     7022.1576     7012.1918     7032.1235  33.295119 -43.740289   0.001416  -0.000101
1 62580U 25007F   25058.53761328  .00004743  00000-0  72133-3 0  9997 | 2 62580  54.9774 302.5670 0014799  47.0566 313.1672 14.75468084  6703 | 2025/02/27-12:54:09   48.3616    0.1000  313.0434   97.5961     7021.8028     7011.4112     7032.1944  29.593536 -46.332895   0.001456  -0.000267
1 62580U 25007F   25059.62154437  .00003757  00000-0  57772-3 0  9991 | 2 62580  54.9769 298.1403 0014860  49.1806 311.0479 14.75476318  6868 | 2025/02/28-14:55:01   84.0672    0.0999  310.9193   97.5956     7021.7767     7011.3423     7032.2110  25.928878 -48.478375   0.001450  -0.000326
1 62580U 25007F   25060.84095962  .00002963  00000-0  46201-3 0  9997 | 2 62580  54.9764 293.1601 0014940  51.6867 308.5473 14.75484397  7044 | 2025/03/01-20:10:58  169.2333    0.0999  308.4132   97.5951     7021.7510     7011.2605     7032.2415  21.622314 -50.545822   0.001442  -0.000391
1 62580U 25007F   25061.85713543  .00002226  00000-0  35484-3 0  9994 | 2 62580  54.9765 289.0097 0014998  53.7851 306.4532 14.75488310  7195 | 2025/03/02-20:34:16  180.2043    0.0999  306.3148   97.5948     7021.7386     7011.2074     7032.2698  17.907398 -51.978271   0.001433  -0.000444
1 62580U 25007F   25062.87330788  .00001816  00000-0  29507-3 0  9996 | 2 62580  54.9763 284.8594 0015059  55.7215 304.5208 14.75492440  7348 | 2025/03/03-20:57:33  191.1743    0.1000  304.3785   97.5945     7021.7255     7011.1515     7032.2995  14.098559 -53.137785   0.001420  -0.000501
1 62580U 25007F   25063.88947778  .00001796  00000-0  29213-3 0  9992 | 2 62580  54.9762 280.7091 0015111  57.6976 302.5485 14.75496658  7494 | 2025/03/04-21:20:50  202.1435    0.1000  302.4024   97.5943     7021.7121     7011.1016     7032.3226  10.215825 -54.018696   0.001405  -0.000556
1 62580U 25007F   25064.90564508  .00001750  00000-0  28551-3 0  9996 | 2 62580  54.9763 276.5591 0015126  59.7861 300.4634 14.75500441  7641 | 2025/03/05-21:44:07  213.1119    0.1000  300.3139   97.5940     7021.7001     7011.0791     7032.3212   6.279833 -54.616456   0.001386  -0.000607
1 62580U 25007F   25066.12504256  .00001493  00000-0  24807-3 0  9990 | 2 62580  54.9761 271.5787 0015198  62.2233 298.0306 14.75503974  7824 | 2025/03/07-03:00:03  298.2729    0.1000  297.8767   97.5938     7021.6889     7011.0174     7032.3605   1.514593 -54.955233   0.001364  -0.000671
1 62580U 25007F   25067.20894820  .00001675  00000-0  27448-3 0  9995 | 2 62580  54.9760 267.1517 0015252  64.3318 295.9255 14.75509035  7983 | 2025/03/08-05:00:53  333.9709    0.1000  295.7682   97.5934     7021.6729     7010.9634     7032.3823  -2.731853 -54.908083   0.001340  -0.000728
1 62580U 25007F   25068.56382482  .00001865  00000-0  30205-3 0  9997 | 2 62580  54.9760 261.6178 0015314  67.0077 293.2536 14.75515436  8184 | 2025/03/09-13:31:54  108.5918    0.0999  293.0922   97.5930     7021.6526     7010.8996     7032.4055  -8.014164 -54.388728   0.001307  -0.000797
1 62580U 25007F   25069.85095416  .00001681  00000-0  27530-3 0  9991 | 2 62580  54.9761 256.3607 0015370  69.4645 290.8002 14.75519244  8375 | 2025/03/10-20:25:22  218.4807    0.0999  290.6354   97.5928     7021.6405     7010.8482     7032.4327 -12.963845 -53.425746   0.001272  -0.000863
1 62580U 25007F   25070.86710547  .00001846  00000-0  29929-3 0  9990 | 2 62580  54.9754 252.2105 0015423  71.3508 288.9165 14.75523718  8520 | 2025/03/11-20:48:37  229.4444    0.1000  288.7492   97.5925     7021.6263     7010.7968     7032.4557 -16.796129 -52.346773   0.001241  -0.000916
1 62580U 25007F   25071.88325282  .00002257  00000-0  35895-3 0  9997 | 2 62580  54.9754 248.0599 0015448  73.3270 286.9424 14.75529514  8677 | 2025/03/12-21:11:53  240.4075    0.1000  286.7730   97.5921     7021.6079     7010.7609     7032.4549 -20.540847 -50.993806   0.001207  -0.000964
1 62580U 25007F   25072.89939590  .00002706  00000-0  42418-3 0  9990 | 2 62580  54.9753 243.9096 0015465  75.2658 285.0055 14.75536011  8829 | 2025/03/13-21:35:07  251.3689    0.1000  284.8342   97.5917     7021.5873     7010.7284     7032.4462 -24.177516 -49.373387   0.001170  -0.001011
1 62580U 25007F   25073.91553448  .00003234  00000-0  50073-3 0  9991 | 2 62580  54.9754 239.7591 0015503  77.0914 283.1816 14.75543467  8974 | 2025/03/14-21:58:22  262.3292    0.1000  283.0086   97.5912     7021.5636     7010.6781     7032.4492 -27.687633 -47.494101   0.001131  -0.001060
1 62580U 25007F   25074.93166717  .00003426  00000-0  52857-3 0  9998 | 2 62580  54.9757 235.6085 0015515  78.9631 281.3113 14.75551439  9125 | 2025/03/15-22:21:36  273.2877    0.1000  281.1369   97.5906     7021.5383     7010.6444     7032.4323 -31.052727 -45.365799   0.001089  -0.001105
1 62580U 25007F   25076.15101903  .00003922  00000-0  60041-3 0  9995 | 2 62580  54.9762 230.6280 0015509  81.2581 279.0175 14.75562065  9306 | 2025/03/17-03:37:28  358.4355    0.1000  278.8419   97.5899     7021.5046     7010.6150     7032.3943 -34.874307 -42.499003   0.001035  -0.001155
1 62580U 25007F   25077.50584324  .00004427  00000-0  67348-3 0  9995 | 2 62580  54.9764 225.0942 0015518  83.8207 276.4560 14.75575319  9501 | 2025/03/18-12:08:24  133.0403    0.1000  276.2793   97.5891     7021.4626     7010.5667     7032.3585 -38.810220 -38.938046   0.000975  -0.001207
1 62580U 25007F   25078.52195203  .00005454  00000-0  82228-3 0  9997 | 2 62580  54.9763 220.9438 0015516  85.6535 274.6237 14.75588395  9651 | 2025/03/19-12:31:36  143.9909    0.1000  274.4465   97.5882     7021.4211     7010.5267     7032.3155 -41.526498 -36.026983   0.000925  -0.001246
1 62580U 25007F   25079.53805247  .00005016  00000-0  75854-3 0  9996 | 2 62580  54.9763 216.7938 0015507  87.5004 272.7771 14.75599399  9806 | 2025/03/20-12:54:47  154.9383    0.1000  272.5996   97.5875     7021.3862     7010.4981     7032.2743 -44.024811 -32.927337   0.000874  -0.001281
1 62580U 25007F   25080.55414470  .00004794  00000-0  72617-3 0  9990 | 2 62580  54.9762 212.6434 0015499  89.3439 270.9336 14.75610893  9959 | 2025/03/21-13:17:58  165.8834    0.0999  270.7560   97.5867     7021.3497     7010.4674     7032.2321 -46.292382 -29.654644   0.000821  -0.001315
1 62580U 25007F   25081.63796602  .00006870  00000-0  10266-2 0  9998 | 2 62580  54.9760 208.2164 0015475  91.3799 268.8974 14.75627953 10113 | 2025/03/22-15:18:40  201.5545    0.1000  268.7201   97.5856     7021.2956     7010.4302     7032.1611 -48.443101 -25.992818   0.000764  -0.001346
1 62580U 25007F   25082.85725019  .00006220  00000-0  93213-3 0  9990 | 2 62580  54.9758 203.2356 0015447  93.6613 266.6153 14.75645884 10294 | 2025/03/23-20:34:26  286.6801    0.0999  266.4386   97.5844     7021.2387     7010.3930     7032.0845 -50.516734 -21.688664   0.000699  -0.001378
1 62580U 25007F   25083.87331069  .00005967  00000-0  89531-3 0  9996 | 2 62580  54.9761 199.0850 0015436  95.5180 264.7581 14.75658464 10446 | 2025/03/24-20:57:34  297.6145    0.1000  264.5820   97.5836     7021.1988     7010.3609     7032.0368 -51.954314 -17.975563   0.000643  -0.001403
1 62580U 25007F   25085.16030844  .00005926  00000-0  88902-3 0  9993 | 2 62580  54.9764 193.8278 0015378  97.9502 262.3244 14.75674051 10635 | 2025/03/26-03:50:50   47.4609    0.1000  262.1498   97.5825     7021.1494     7010.3523     7031.9465 -53.383098 -13.139614   0.000571  -0.001428
1 62580U 25007F   25086.24408532  .00006127  00000-0  91781-3 0  9999 | 2 62580  54.9767 189.4003 0015370  99.9659 260.3076 14.75687681 10793 | 2025/03/27-05:51:28   83.1174    0.0999  260.1340   97.5816     7021.1062     7010.3147     7031.8976 -54.238435  -8.979406   0.000510  -0.001450
1 62580U 25007F   25087.39558822  .00004509  00000-0  68351-3 0  9993 | 2 62580  54.9768 184.6963 0015298 102.1324 258.1391 14.75698365 10966 | 2025/03/28-09:29:38  143.4994    0.1000  257.9676   97.5809     7021.0723     7010.3314     7031.8131 -54.792225  -4.501179   0.000443  -0.001464
1 62580U 25007F   25088.75028698  .00003710  00000-0  56780-3 0  9993 | 2 62580  54.9767 179.1620 0015234 104.7352 255.5337 14.75709388 11165 | 2025/03/29-18:00:24  278.0631    0.0999  255.3647   97.5802     7021.0373     7010.3415     7031.7332 -54.970820   0.804053   0.000366  -0.001479
1 62580U 25007F   25089.83403936  .00003240  00000-0  49971-3 0  9997 | 2 62580  54.9765 174.7346 0015187 106.7072 253.5595 14.75717143 11327 | 2025/03/30-20:01:01  313.7118    0.0999  253.3927   97.5797     7021.0127     7010.3499     7031.6755 -54.744516   5.045153   0.000301  -0.001489
1 62580U 25007F   25090.85005220  .00003250  00000-0  50105-3 0  9997 | 2 62580  54.9762 170.5837 0015155 108.6338 251.6308 14.75724451 11471 | 2025/03/31-20:24:04  324.6308    0.0999  251.4661   97.5792     7020.9895     7010.3492     7031.6298 -54.235432   8.994470   0.000243  -0.001496
1 62580U 25007F   25091.93379389  .00003008  00000-0  46596-3 0  9997 | 2 62580  54.9761 166.1560 0015092 110.7515 249.5103 14.75731213 11636 | 2025/04/01-22:24:39    0.2765    0.0999  249.3484   97.5787     7020.9681     7010.3720     7031.5641 -53.379089  13.154635   0.000182  -0.001498
1 62580U 25007F   25093.22072941  .00003893  00000-0  59389-3 0  9991 | 2 62580  54.9757 160.8981 0015045 113.1825 247.0761 14.75742732 11820 | 2025/04/03-05:17:51  110.1029    0.0999  246.9174   97.5780     7020.9316     7010.3686     7031.4945 -51.948631  17.990756   0.000107  -0.001501
1 62580U 25007F   25094.50765691  .00003148  00000-0  48598-3 0  9997 | 2 62580  54.9756 155.6403 0014950 115.5853 244.6694 14.75750438 12013 | 2025/04/04-12:11:01  219.9269    0.1000  244.5147   97.5775     7020.9071     7010.4109     7031.4034 -50.081342  22.675444   0.000032  -0.001495
1 62580U 25007F   25095.52364577  .00003282  00000-0  50531-3 0  9997 | 2 62580  54.9757 151.4893 0014889 117.5087 242.7428 14.75758530 12164 | 2025/04/05-12:34:02  230.8385    0.1000  242.5913   97.5769     7020.8815     7010.4281     7031.3348 -48.308686  26.241159  -0.000026  -0.001489
1 62580U 25007F   25096.53962996  .00002757  00000-0  42932-3 0  9990 | 2 62580  54.9757 147.3383 0014826 119.4750 240.7730 14.75764726 12316 | 2025/04/06-12:57:04  241.7487    0.0999  240.6249   97.5765     7020.8618     7010.4527     7031.2709 -46.282487  29.669158  -0.000082  -0.001480
1 62580U 25007F   25097.55561022  .00002355  00000-0  37121-3 0  9996 | 2 62580  54.9757 143.1873 0014760 121.4565 238.7879 14.75769887 12468 | 2025/04/07-13:20:04  252.6576    0.0999  238.6434   97.5762     7020.8454     7010.4827     7031.2082 -44.013467  32.941498  -0.000138  -0.001470
1 62580U 25007F   25098.57158682  .00002158  00000-0  34263-3 0  9998 | 2 62580  54.9756 139.0361 0014694 123.4242 236.8166 14.75775079 12618 | 2025/04/08-13:43:05  263.5654    0.1000  236.6758   97.5758     7020.8290     7010.5126     7031.1454 -41.513328  36.041090  -0.000193  -0.001457
1 62580U 25007F   25099.58756027  .00002205  00000-0  34948-3 0  9990 | 2 62580  54.9755 134.8850 0014619 125.3867 234.8501 14.75780235 12761 | 2025/04/09-14:06:05  274.4723    0.1000  234.7133   97.5755     7020.8126     7010.5489     7031.0763 -38.795446  38.951495  -0.000247  -0.001441
1 62580U 25007F   25100.87445521  .00002105  00000-0  33499-3 0  9998 | 2 62580  54.9753 129.6267 0014510 127.8683 232.3632 14.75786044 12959 | 2025/04/10-20:59:12   24.2865    0.1000  232.2317   97.5751     7020.7942     7010.6070     7030.9814 -35.062311  42.342862  -0.000314  -0.001417
1 62580U 25007F   25101.89042132  .00001987  00000-0  31791-3 0  9992 | 2 62580  54.9751 125.4753 0014438 129.8703 230.3569 14.75790361 13107 | 2025/04/11-21:22:12   35.1914    0.0999  230.2296   97.5748     7020.7805     7010.6439     7030.9171 -31.904906  44.769840  -0.000365  -0.001397
1 62580U 25007F   25102.90638452  .00001882  00000-0  30268-3 0  9993 | 2 62580  54.9751 121.3239 0014368 131.8886 228.3342 14.75794505 13254 | 2025/04/12-21:45:11   46.0954    0.1000  228.2114   97.5746     7020.7674     7010.6799     7030.8548 -28.580207  46.962042  -0.000415  -0.001376
1 62580U 25007F   25103.92234554  .00001602  00000-0  26213-3 0  9996 | 2 62580  54.9757 117.1726 0014301 134.0437 226.1744 14.75797163 13400 | 2025/04/13-22:08:10   56.9987    0.1000  226.0563   97.5744     7020.7589     7010.7185     7030.7993 -25.105892  48.908299  -0.000460  -0.001354
1 62580U 25007F   25105.07376500  .00001589  00000-0  26034-3 0  9997 | 2 62580  54.9757 112.4677 0014219 136.3545 223.8582 14.75801575 13571 | 2025/04/15-01:46:13  117.3549    0.0999  223.7454   97.5741     7020.7449     7010.7621     7030.7277 -21.009653  50.802776  -0.000514  -0.001326
1 62580U 25007F   25106.15745098  .00001674  00000-0  27249-3 0  9993 | 2 62580  54.9758 108.0396 0014133 138.4971 221.7105 14.75806031 13730 | 2025/04/16-03:46:43  152.9832    0.1000  221.6029   97.5738     7020.7308     7010.8084     7030.6532 -17.024589  52.273339  -0.000563  -0.001296
1 62580U 25007F   25107.24113436  .00001561  00000-0  25614-3 0  9998 | 2 62580  54.9758 103.6115 0014050 140.5893 219.6131 14.75809215 13894 | 2025/04/17-05:47:14  188.6106    0.0999  219.5106   97.5736     7020.7207     7010.8566     7030.5848 -12.937850  53.431738  -0.000611  -0.001265
1 62580U 25007F   25108.52800537  .00001377  00000-0  22961-3 0  9992 | 2 62580  54.9759  98.3531 0013930 143.1827 217.0132 14.75812346 14083 | 2025/04/18-12:40:19  298.4175    0.0999  216.9172   97.5734     7020.7108     7010.9309     7030.4906  -7.986525  54.392693  -0.000664  -0.001225
1 62580U 25007F   25109.54395296  .00001505  00000-0  24813-3 0  9997 | 2 62580  54.9760  94.2016 0013844 145.2760 214.9146 14.75816334 14230 | 2025/04/19-13:03:17  309.3168    0.0999  214.8239   97.5731     7020.6981     7010.9787     7030.4176  -4.027874  54.828248  -0.000703  -0.001193
1 62580U 25007F   25110.55989781  .00001654  00000-0  26952-3 0  9999 | 2 62580  54.9762  90.0502 0013761 147.3375 212.8478 14.75820584 14382 | 2025/04/20-13:26:15  320.2150    0.0999  212.7624   97.5728     7020.6846     7011.0235     7030.3458  -0.048168  54.976179  -0.000742  -0.001159
1 62580U 25007F   25111.57583949  .00002093  00000-0  33297-3 0  9996 | 2 62580  54.9761  85.8989 0013653 149.2976 210.8825 14.75826124 14537 | 2025/04/21-13:49:12  331.1119    0.0999  210.8023   97.5725     7020.6671     7011.0818     7030.2524   3.931703  54.835329  -0.000779  -0.001121
1 62580U 25007F   25112.59177780  .00002187  00000-0  34648-3 0  9996 | 2 62580  54.9762  81.7475 0013558 151.2954 208.8795 14.75830827 14680 | 2025/04/22-14:12:09  342.0076    0.1000  208.8046   97.5722     7020.6522     7011.1336     7030.1708   7.891053  54.406928  -0.000815  -0.001083
1 62580U 25007F   25113.74317014  .00002299  00000-0  36259-3 0  9994 | 2 62580  54.9764  77.0425 0013445 153.7323 206.4362 14.75836744 14854 | 2025/04/23-17:50:09   42.3551    0.1000  206.3677   97.5718     7020.6334     7011.1942     7030.0726  12.327261  53.576517  -0.000850  -0.001042
1 62580U 25007F   25114.89455685  .00002734  00000-0  42537-3 0  9998 | 2 62580  54.9766  72.3375 0013367 156.1212 204.0410 14.75844482 15021 | 2025/04/24-21:28:09  102.7005    0.0999  203.9787   97.5713     7020.6089     7011.2244     7029.9933  16.680422  52.385018  -0.000886  -0.001000
1 62580U 25007F   25115.91048198  .00002831  00000-0  43925-3 0  9999 | 2 62580  54.9769  68.1859 0013286 158.2958 201.8607 14.75850659 15176 | 2025/04/25-21:51:05  113.5922    0.0999  201.8041   97.5708     7020.5893     7011.2617     7029.9168  20.429214  51.040247  -0.000915  -0.000963
1 62580U 25007F   25117.19731403  .00003030  00000-0  46785-3 0  9998 | 2 62580  54.9773  62.9276 0013125 160.9330 199.2164 14.75859198 15368 | 2025/04/27-04:44:07  223.3855    0.1000  199.1670   97.5703     7020.5622     7011.3477     7029.7767  25.021050  48.953555  -0.000946  -0.000909
1 62580U 25007F   25118.48413760  .00003142  00000-0  48397-3 0  9999 | 2 62580  54.9777  57.6693 0012999 163.6977 196.4443 14.75868453 15555 | 2025/04/28-11:37:09  333.1760    0.0999  196.4022   97.5697     7020.5328     7011.4068     7029.6588  29.402359  46.454804  -0.000976  -0.000859
1 62580U 25007F   25121.80275483  .00002895  00000-0  44807-3 0  9993 | 2 62580  54.9782  44.1084 0012718 170.8032 189.3203 14.75889563 16042 | 2025/05/01-19:15:58  104.7286    0.0999  189.2967   97.5683     7020.4659     7011.5373     7029.3945  39.475682  38.265821  -0.001043  -0.000728
1 62580U 25007F   25122.88637379  .00003286  00000-0  50443-3 0  9996 | 2 62580  54.9782  39.6801 0012629 173.0317 187.0861 14.75898164 16200 | 2025/05/02-21:16:22  140.3335    0.1000  187.0683   97.5677     7020.4386     7011.5725     7029.3047  42.312397  35.103611  -0.001063  -0.000682
1 62580U 25007F   25123.90226148  .00002865  00000-0  44367-3 0  9998 | 2 62580  54.9782  35.5287 0012504 175.4918 184.6196 14.75904518 16359 | 2025/05/03-21:39:15  151.2122    0.0999  184.6081   97.5673     7020.4185     7011.6401     7029.1968  44.742608  31.948419  -0.001072  -0.000644
1 62580U 25007F   25124.91814519  .00002671  00000-0  41568-3 0  9990 | 2 62580  54.9784  31.3774 0012389 177.7724 182.3333 14.75910266 16509 | 2025/05/04-22:02:07  162.0886    0.0999  182.3275   97.5669     7020.4002     7011.7027     7029.0978  46.938152  28.625764  -0.001082  -0.000603
1 62580U 25007F   25126.20492580  .00002238  00000-0  35321-3 0  9993 | 2 62580  54.9785  26.1190 0012255 180.6650 179.4335 14.75916704 16699 | 2025/05/06-04:55:05  271.8636    0.0999  179.4349   97.5665     7020.3798     7011.7763     7028.9833  49.364186  24.203567  -0.001094  -0.000552
1 62580U 25007F   25127.49170146  .00002013  00000-0  32065-3 0  9999 | 2 62580  54.9787  20.8604 0012132 183.5909 176.5005 14.75922264 16886 | 2025/05/07-11:48:03   21.6368    0.0999  176.5090   97.5661     7020.3622     7011.8451     7028.8793  51.374891  19.577488  -0.001104  -0.000502
1 62580U 25007F   25128.50757368  .00002018  00000-0  32137-3 0  9994 | 2 62580  54.9787  16.7089 0012024 185.9911 174.0946 14.75926809 17030 | 2025/05/08-12:10:54   32.5093    0.0999  174.1088   97.5658     7020.3478     7011.9065     7028.7890  52.657381  15.806888  -0.001109  -0.000464
1 62580U 25007F   25129.52344348  .00001857  00000-0  29815-3 0  9996 | 2 62580  54.9788  12.5575 0011957 188.4604 171.6196 14.75930063 17189 | 2025/05/09-12:33:45   43.3808    0.0999  171.6395   97.5656     7020.3375     7011.9432     7028.7317  53.663614  11.953451  -0.001116  -0.000429
1 62580U 25007F   25130.53930995  .00001758  00000-0  28395-3 0  9990 | 2 62580  54.9787   8.4059 0011860 190.8301 169.2445 14.75934022 17339 | 2025/05/10-12:56:36   54.2510    0.0999  169.2698   97.5653     7020.3249     7011.9988     7028.6510  54.388079   8.037056  -0.001120  -0.000391
1 62580U 25007F   25131.62289779  .00001741  00000-0  28136-3 0  9993 | 2 62580  54.9787   3.9776 0011756 193.4003 166.6686 14.75938511 17499 | 2025/05/11-14:56:58   89.8447    0.0999  166.6996   97.5650     7020.3107     7012.0576     7028.5637  54.846270   3.813678  -0.001122  -0.000351
1 62580U 25007F   25132.63875915  .00001622  00000-0  26420-3 0  9990 | 2 62580  54.9786 359.8261 0011656 195.7917 164.2721 14.75941949 17648 | 2025/05/12-15:19:48  100.7127    0.1000  164.3083   97.5648     7020.2998     7012.1169     7028.4826  54.978347  -0.166867  -0.001123  -0.000314
1 62580U 25007F   25133.85778991  .00001552  00000-0  25411-3 0  9992 | 2 62580  54.9786 354.8442 0011530 198.7664 161.2912 14.75946108 17828 | 2025/05/13-20:35:13  185.7534    0.0999  161.3335   97.5645     7020.2866     7012.1922     7028.3810  54.756158  -4.940613  -0.001121  -0.000271
1 62580U 25007F   25134.87364596  .00001403  00000-0  23268-3 0  9990 | 2 62580  54.9786 350.6927 0011422 201.2909 158.7617 14.75949077 17979 | 2025/05/14-20:58:03  196.6193    0.1000  158.8091   97.5643     7020.2772     7012.2586     7028.2957  54.254813  -8.891664  -0.001117  -0.000237
1 62580U 25007F   25136.09267069  .00001328  00000-0  22183-3 0  9994 | 2 62580  54.9784 345.7107 0011298 204.3424 155.7044 14.75952790 18157 | 2025/05/16-02:13:26  281.6576    0.1000  155.7576   97.5641     7020.2654     7012.3339     7028.1969  53.277470 -13.569661  -0.001112  -0.000197
1 62580U 25007F   25137.10852215  .00001343  00000-0  22401-3 0  9990 | 2 62580  54.9783 341.5590 0011216 206.8849 153.1571 14.75956197 18303 | 2025/05/17-02:36:16  292.5218    0.1000  153.2151   97.5639     7020.2546     7012.3807     7028.1285  52.155159 -17.391173  -0.001109  -0.000165
1 62580U 25007F   25138.53070947  .00001625  00000-0  26457-3 0  9990 | 2 62580  54.9781 335.7465 0011080 210.5266 149.5089 14.75962618 18512 | 2025/05/18-12:44:13   91.7301    0.0998  149.5732   97.5634     7020.2342     7012.4558     7028.0126  50.125565 -22.583604  -0.001101  -0.000121
1 62580U 25007F   25139.54655582  .00001313  00000-0  21953-3 0  9996 | 2 62580  54.9780 331.5947 0011007 213.0849 146.9463 14.75964114 18660 | 2025/05/19-13:07:02  102.5921    0.0999  147.0150   97.5633     7020.2295     7012.5023     7027.9567  48.358900 -26.153341  -0.001097  -0.000090
1 62580U 25007F   25140.56239962  .00001294  00000-0  21679-3 0  9993 | 2 62580  54.9779 327.4428 0010913 215.7453 144.2817 14.75967281 18810 | 2025/05/20-13:29:51  113.4532    0.0999  144.3546   97.5631     7020.2194     7012.5583     7027.8806  46.338377 -29.585880  -0.001090  -0.000061
1 62580U 25007F   25141.57824155  .00001114  00000-0  19091-3 0  9995 | 2 62580  54.9779 323.2908 0010839 218.3973 141.6256 14.75969476 18962 | 2025/05/21-13:52:40  124.3137    0.0999  141.7026   97.5630     7020.2125     7012.6033     7027.8217  44.074665 -32.863253  -0.001083  -0.000032
1 62580U 25007F   25142.59408144  .00001240  00000-0  20897-3 0  9990 | 2 62580  54.9779 319.1390 0010756 221.0988 138.9203 14.75973229 19116 | 2025/05/22-14:15:28  135.1729    0.1000  139.0012   97.5627     7020.2006     7012.6497     7027.7515  41.579729 -35.967981  -0.001076  -0.000004
1 62580U 25007F   25143.88080901  .00001169  00000-0  19878-3 0  9997 | 2 62580  54.9778 313.8800 0010666 224.5543 135.4600 14.75976631 19301 | 2025/05/23-21:08:21  244.9269    0.0999  135.5456   97.5625     7020.1898     7012.7021     7027.6775  38.107877 -39.627619  -0.001066   0.000029
1 62580U 25007F   25144.89664456  .00001155  00000-0  19679-3 0  9996 | 2 62580  54.9778 309.7281 0010608 227.3206 132.6900 14.75979480 19454 | 2025/05/24-21:31:10  255.7846    0.0999  132.7793   97.5623     7020.1808     7012.7338     7027.6278  35.138791 -42.282667  -0.001059   0.000055
1 62580U 25007F   25145.91247808  .00001138  00000-0  19434-3 0  9998 | 2 62580  54.9777 305.5762 0010537 230.1015 129.9059 14.75982274 19608 | 2025/05/25-21:53:58  266.6410    0.0999  129.9984   97.5621     7020.1719     7012.7747     7027.5691  31.985210 -44.715700  -0.001051   0.000079
1 62580U 25007F   25147.87641731  .00001212  00000-0  20487-3 0  9991 | 2 62580  54.9776 297.5492 0010421 235.6165 124.3849 14.75988273 19897 | 2025/05/27-21:02:02  263.6279    0.0999  124.4834   97.5618     7020.1529     7012.8372     7027.4686  25.427696 -48.743910  -0.001035   0.000124
1 62580U 25007F   25149.09540970  .00001360  00000-0  22619-3 0  9993 | 2 62580  54.9776 292.5670 0010374 239.0318 120.9663 14.75992651 20078 | 2025/05/29-02:17:23  348.6521    0.1000  121.0682   97.5615     7020.1390     7012.8563     7027.4217  21.098398 -50.768042  -0.001026   0.000152
1 62580U 25007F   25150.17895464  .00001621  00000-0  26375-3 0  9998 | 2 62580  54.9776 288.1383 0010314 242.0826 117.9130 14.75997779 20231 | 2025/05/30-04:17:41   24.2275    0.1000  118.0174   97.5611     7020.1227     7012.8822     7027.3633  17.115172 -52.245645  -0.001016   0.000175
1 62580U 25007F   25151.19477647  .00001536  00000-0  25157-3 0  9992 | 2 62580  54.9776 283.9864 0010269 244.9578 115.0356 14.76000645 20385 | 2025/05/31-04:40:28   35.0787    0.1000  115.1422   97.5609     7020.1137     7012.9047     7027.3226  13.287623 -53.347686  -0.001008   0.000197
1 62580U 25007F   25152.54919728  .00004169  00000-0  63017-3 0  9995 | 2 62580  54.9772 278.4505 0010195 248.9693 111.0216 14.76016050 20582 | 2025/06/01-13:10:50  169.5436    0.0999  111.1306   97.5599     7020.0648     7012.9078     7027.2218   8.079169 -54.380323  -0.000995   0.000222
1 62580U 25007F   25153.56501246  .00002454  00000-0  38349-3 0  9995 | 2 62580  54.9771 274.2987 0010173 251.8976 108.0916 14.76014458 20732 | 2025/06/02-13:33:37  180.3918    0.1000  108.2024   97.5600     7020.0699     7012.9283     7027.2114   4.120869 -54.822440  -0.000988   0.000243
1 62580U 25007F   25154.58082100  .00002860  00000-0  44179-3 0  9990 | 2 62580  54.9770 270.1469 0010149 254.8423 105.1454 14.76021367 20882 | 2025/06/03-13:56:22  191.2374    0.0999  105.2576   97.5596     7020.0479     7012.9233     7027.1726   0.140955 -54.976819  -0.000980   0.000263
1 62580U 25007F   25155.59662799  .00001739  00000-0  28053-3 0  9997 | 2 62580  54.9769 265.9948 0010151 257.8206 102.1657 14.76022624 21036 | 2025/06/04-14:19:08  202.0826    0.1000  102.2794   97.5595     7020.0440     7012.9179     7027.1700  -3.839972 -54.842631  -0.000975   0.000283
1 62580U 25007F   25156.68015268  .00001575  00000-0  25699-3 0  9992 | 2 62580  54.9774 261.5662 0010159 260.7980  99.1871 14.76025180 21197 | 2025/06/05-16:19:25  237.6493    0.1000   99.3020   97.5593     7020.0359     7012.9042     7027.1675  -8.063348 -54.382873  -0.000968   0.000308
1 62580U 25007F   25157.83139401  .00001309  00000-0  21870-3 0  9998 | 2 62580  54.9772 256.8607 0010152 264.2196  95.7646 14.76028677 21367 | 2025/06/06-19:57:12  297.9373    0.0999   95.8803   97.5591     7020.0248     7012.8980     7027.1515 -12.497380 -53.537912  -0.000960   0.000329
1 62580U 25007F   25158.84719314  .00001160  00000-0  19725-3 0  9998 | 2 62580  54.9771 252.7087 0010156 267.2023  92.7814 14.76031775 21513 | 2025/06/07-20:19:57  308.7787    0.0999   92.8976   97.5589     7020.0149     7012.8854     7027.1445 -16.340838 -52.492462  -0.000954   0.000349
1 62580U 25007F   25160.87878634  .00000990  00000-0  17284-3 0  9993 | 2 62580  54.9769 244.4048 0010190 273.1783  86.8051 14.76037222 21815 | 2025/06/09-21:05:27  330.4589    0.1000   86.9217   97.5585     7019.9977     7012.8443     7027.1511 -23.750581 -49.581947  -0.000942   0.000389
1 62580U 25007F   25162.16545922  .00000884  00000-0  15759-3 0  9995 | 2 62580  54.9768 239.1455 0010216 276.8969  83.0868 14.76039966 22006 | 2025/06/11-03:58:15   80.1883    0.0999   83.2030   97.5583     7019.9890     7012.8174     7027.1606 -28.195384 -47.196068  -0.000934   0.000415
1 62580U 25007F   25163.18125178  .00000930  00000-0  16407-3 0  9998 | 2 62580  54.9767 234.9935 0010246 279.8536  80.1307 14.76042701 22150 | 2025/06/12-04:21:00   91.0262    0.1000   80.2464   97.5582     7019.9803     7012.7876     7027.1730 -31.538448 -45.030699  -0.000927   0.000435
1 62580U 25007F   25164.19703964  .00001539  00000-0  25161-3 0  9998 | 2 62580  54.9766 230.8414 0010269 282.7553  77.2299 14.76049434 22307 | 2025/06/13-04:43:44  101.8623    0.1000   77.3447   97.5577     7019.9590     7012.7502     7027.1678 -34.716029 -42.628909  -0.000920   0.000457
1 62580U 25007F   25165.21283036  .00001035  00000-0  17927-3 0  9997 | 2 62580  54.9765 226.6895 0010301 285.7575  74.2288 14.76048674 22452 | 2025/06/14-05:06:28  112.6989    0.0999   74.3424   97.5578     7019.9614     7012.7301     7027.1926 -37.711224 -40.003489  -0.000913   0.000476
1 62580U 25007F   25166.49949369  .00000842  00000-0  15152-3 0  9999 | 2 62580  54.9763 221.4303 0010371 289.4713  70.5166 14.76050941 22644 | 2025/06/15-11:59:16  222.4235    0.1000   70.6287   97.5576     7019.9542     7012.6738     7027.2346 -41.219099 -36.378283  -0.000906   0.000504
1 62580U 25007F   25167.51527882  .00000758  00000-0  13935-3 0  9998 | 2 62580  54.9761 217.2782 0010417 292.3610  67.6285 14.76053087 22795 | 2025/06/16-12:22:00  233.2579    0.0999   67.7389   97.5575     7019.9474     7012.6347     7027.2601 -43.744702 -33.298237  -0.000899   0.000527
1 62580U 25007F   25168.86965710  .00000656  00000-0  12463-3 0  9995 | 2 62580  54.9759 211.7421 0010492 296.2244  63.7676 14.76055626 22994 | 2025/06/17-20:52:18    7.7026    0.0999   63.8755   97.5573     7019.9393     7012.5740     7027.3046 -46.752867 -28.922638  -0.000889   0.000557
1 62580U 25007F   25169.88543969  .00000552  00000-0  10973-3 0  9995 | 2 62580  54.9757 207.5899 0010556 299.0713  60.9229 14.76057094 23149 | 2025/06/18-21:15:01   18.5355    0.1000   61.0287   97.5572     7019.9347     7012.5244     7027.3449 -48.724151 -25.461435  -0.000882   0.000580
1 62580U 25007F   25170.90122169  .00000439  00000-0  93463-4 0  9995 | 2 62580  54.9756 203.4377 0010623 301.9590  58.0377 14.76058114 23297 | 2025/06/19-21:37:45   29.3680    0.1000   58.1410   97.5571     7019.9314     7012.4742     7027.3887 -50.439734 -21.866637  -0.000874   0.000603
1 62580U 25007F   25172.18787809  .00000323  00000-0  76860-4 0  9999 | 2 62580  54.9755 198.1781 0010699 305.5291  54.4711 14.76059136 23484 | 2025/06/21-04:30:32  139.0886    0.1001   54.5710   97.5571     7019.9282     7012.4176     7027.4388 -52.231748 -17.150805  -0.000862   0.000633
1 62580U 25007F   25173.47453354  .00000241  00000-0  64990-4 0  9997 | 2 62580  54.9755 192.9186 0010803 309.1825  50.8215 14.76060084 23679 | 2025/06/22-11:23:19  248.8084    0.1000   50.9175   97.5570     7019.9252     7012.3416     7027.5088 -53.583997 -12.290682  -0.000852   0.000664
1 62580U 25007F   25174.55803232  .00000191  00000-0  57846-4 0  9997 | 2 62580  54.9755 188.4897 0010885 312.1546  47.8529 14.76060854 23839 | 2025/06/23-13:23:33  284.3613    0.1001   47.9455   97.5570     7019.9227     7012.2816     7027.5639 -54.373102  -8.116122  -0.000842   0.000690
1 62580U 25007F   25175.57381199  .00000180  00000-0  56193-4 0  9995 | 2 62580  54.9756 184.3375 0010968 314.9722  45.0388 14.76061640 23987 | 2025/06/24-13:46:17  295.1919    0.1000   45.1278   97.5569     7019.9203     7012.2208     7027.6197 -54.818141  -4.157880  -0.000832   0.000715
1 62580U 25007F   25176.86046548  .00000141  00000-0  50669-4 0  9993 | 2 62580  54.9757 179.0781 0011078 318.4023  41.6133 14.76062462 24171 | 2025/06/25-20:39:04   44.9101    0.1000   41.6977   97.5568     7019.9176     7012.1410     7027.6943 -54.968584   0.884531  -0.000816   0.000749
1 62580U 25007F   25177.87624393  .00000145  00000-0  51275-4 0  9993 | 2 62580  54.9757 174.9258 0011161 321.0534  38.9661 14.76063249 24320 | 2025/06/26-21:01:47   55.7400    0.1000   39.0466   97.5568     7019.9152     7012.0802     7027.7501 -54.760250   4.862368  -0.000803   0.000776
1 62580U 25007F   25178.95974048  .00000153  00000-0  52392-4 0  9998 | 2 62580  54.9757 170.4968 0011250 323.9687  36.0553 14.76064096 24485 | 2025/06/27-23:02:01   91.2912    0.1000   36.1313   97.5567     7019.9125     7012.0151     7027.8099 -54.221234   9.076636  -0.000788   0.000803
1 62580U 25007F   25180.24639176  .00000176  00000-0  55699-4 0  9991 | 2 62580  54.9757 165.2373 0011363 327.3060  32.7235 14.76065174 24674 | 2025/06/29-05:54:48  201.0078    0.1000   32.7940   97.5567     7019.9091     7011.9323     7027.8858 -53.160924  14.008704  -0.000768   0.000837
1 62580U 25007F   25181.53304176  .00000287  00000-0  71665-4 0  9997 | 2 62580  54.9757 159.9778 0011482 330.7899  29.2457 14.76066904 24863 | 2025/06/30-12:47:34  310.7234    0.1000   29.3101   97.5566     7019.9036     7011.8433     7027.9638 -51.652970  18.822812  -0.000750   0.000870
1 62580U 25007F   25182.88745304  .00000443  00000-0  94447-4 0  9995 | 2 62580  54.9782 154.4441 0011192 331.1447  28.8933 14.75838298 25069 | 2025/07/01-21:17:55   85.1778    0.1000   28.9553   97.5717     7020.6285     7012.7710     7028.4860 -49.599399  23.717128  -0.000651   0.000910
1 62580U 25007F   25183.90355701  .00000449  00000-0  96192-4 0  9992 | 2 62580  54.9741 150.2910 0009735 327.2412  32.7983 14.75415393 25210 | 2025/07/02-21:41:07   96.1283    0.1000   32.8588   97.5996     7021.9700     7015.1341     7028.8059 -47.747957  27.244895  -0.000450   0.000863
1 62580U 25007F   25185.19102945  .00000446  00000-0  96785-4 0  9990 | 2 62580  54.9766 145.0363 0008021 317.6746  42.3634 14.74840307 25408 | 2025/07/04-04:35:04  206.1436    0.1000   42.4254   97.6377     7023.7952     7018.1615     7029.4290 -45.054163  31.504744  -0.000176   0.000782
1 62580U 25007F   25186.47900427  .00001082  00000-0  19362-3 0  9995 | 2 62580  54.9889 139.7468 0008522 258.3856 101.6186 14.74198391 25599 | 2025/07/05-11:29:45  316.4073    0.0998  101.7142   97.6802     7025.8340     7019.8466     7031.8214 -41.967330  35.531991   0.000670   0.000526
1 62580U 25007F   25187.90307482  .00000969  00000-0  17845-3 0  9993 | 2 62580  54.9739 133.9797 0006332 294.1613  65.8723 14.73742470 25804 | 2025/07/06-21:40:25  116.2140    0.0998   65.9385   97.7104     7027.2830     7022.8333     7031.7326 -38.174067  39.558442   0.000236   0.000588
1 62580U 25007F   25189.19206759  .00000985  00000-0  18348-3 0  9998 | 2 62580  54.9764 128.7370 0006986 272.6472  87.3727 14.73085101 25994 | 2025/07/08-04:36:34  226.7783    0.0999   87.4527   97.7540     7029.3734     7024.4627     7034.2842 -34.401290  42.883048   0.000524   0.000462
1 62580U 25007F   25190.41367815  .00000878  00000-0  16876-3 0  9991 | 2 62580  54.9767 123.7686 0007678 261.4032  98.6096 14.72602301 26170 | 2025/07/09-09:55:41  312.7377    0.0998   98.6966   97.7861     7030.9098     7025.5114     7036.3081 -30.558256  45.701538   0.000695   0.000327
1 62580U 25007F   25193.53759361  .00000782  00000-0  15839-3 0  9990 | 2 62580  54.9760 111.0864 0010072 237.5259 122.4766 14.71217573 26631 | 2025/07/12-12:54:08   13.1188    0.0998  122.5739   97.8781     7035.3208     7028.2348     7042.4068 -19.779010  51.294750   0.000987  -0.000199
1 62580U 25007F   25194.76083174  .00000817  00000-0  16605-3 0  9999 | 2 62580  54.9756 106.1188 0009471 254.4469 105.5483 14.70630731 26814 | 2025/07/13-18:15:35   99.6652    0.0997  105.6528   97.9172     7037.1923     7030.5273     7043.8572 -15.262870  52.814405   0.000947   0.000009
1 62580U 25007F   25196.12050461  .00000744  00000-0  15592-3 0  9997 | 2 62580  54.9772 100.6158 0009227 272.9113  87.0828 14.70091645 27013 | 2025/07/15-02:53:31  235.9916    0.0997   87.1884   97.9531     7038.9125     7032.4177     7045.4073 -10.128032  54.036242   0.000897   0.000216
1 62580U 25007F   25197.41275333  .00000746  00000-0  15872-3 0  9990 | 2 62580  54.9791  95.3857 0010036 297.5727  62.4250 14.69341518 27206 | 2025/07/16-09:54:21  347.7014    0.0997   62.5270   98.0031     7041.3080     7034.2413     7048.3746  -5.160329  54.736390   0.000842   0.000546
1 62580U 25007F   25199.38632277  .00000751  00000-0  16344-3 0  9993 | 2 62580  54.9828  87.4112 0010389 291.2905  68.6982 14.68205399 27499 | 2025/07/18-09:16:18  348.1151    0.0997   68.8092   98.0789     7044.9400     7037.6210     7052.2590   2.483447  54.926686   0.000984   0.000333
1 62580U 25007F   25200.47590205  .00000760  00000-0  16708-3 0  9994 | 2 62580  54.9732  83.0241 0007475 289.9654  70.0537 14.67579429 27653 | 2025/07/19-11:25:17   25.7943    0.0996   70.1342   98.1208     7046.9431     7041.6755     7052.2107   6.676596  54.566251   0.000728   0.000168
1 62580U 25007F   25201.83854763  .00000717  00000-0  16246-3 0  9996 | 2 62580  54.9788  77.5175 0008886 253.3987 106.6033 14.66725184 27858 | 2025/07/20-20:07:30  163.2135    0.0995  106.7008   98.1779     7049.6790     7043.4147     7055.9433  11.883195  53.679215   0.000777  -0.000432
1 62580U 25007F   25202.86102453  .00000719  00000-0  16496-3 0  9991 | 2 62580  54.9778  73.4076 0009093 246.8262 113.1776 14.66099096 28007 | 2025/07/21-20:39:52  176.4211    0.0995  113.2733   98.2198     7051.6859     7045.2738     7058.0980  15.699529  52.688550   0.000699  -0.000582
1 62580U 25007F   25203.88392561  .00000799  00000-0  18183-3 0  9998 | 2 62580  54.9772  69.2985 0010248 239.2757 120.7229 14.65450305 28158 | 2025/07/22-21:12:51  189.7880    0.0995  120.8238   98.2633     7053.7670     7046.5383     7060.9957  19.434404  51.427585   0.000639  -0.000801
1 62580U 25007F   25205.58932741 -.00166761  00000-0 -31612-1 0  9991 | 2 62580  54.9794  62.4456 0010227 242.5174 117.0930 14.65029436 28400 | 2025/07/24-14:08:37   92.6547  359.7147  117.1973   98.2915     7055.1179     7047.9026     7062.3331  25.432953  48.743198   0.000586  -0.000838
1 62580U 25007F   25206.74964987  .00000803  00000-0  18717-3 0  9992 | 2 62580  54.9773  57.7715 0009781 254.3457 105.6458 14.64229923 28578 | 2025/07/25-17:59:29  155.8074    0.0994  105.7537   98.3452     7057.6858     7050.7827     7064.5890  29.319236  46.506837   0.000656  -0.000726
1 62580U 25007F   25207.84221379  .00000864  00000-0  20201-3 0  9993 | 2 62580  54.9776  53.4046 0010920 272.2502  87.7241 14.63439279 28732 | 2025/07/26-20:12:47  194.5914    0.0993   87.8491   98.3983     7060.2276     7052.5179     7067.9374  32.775469  44.139610   0.000902  -0.000616
1 62580U 25007F   25208.86680287  .00000602  00000-0  15199-3 0  9993 | 2 62580  54.9779  49.3007 0010931 273.3744  86.5999 14.63370199 28886 | 2025/07/27-20:48:11  208.5573    0.0993   86.7249   98.4030     7060.4498     7052.7320     7068.1676  35.850492  41.681072   0.000869  -0.000663
1 62580U 25007F   25210.09631419  .00000581  00000-0  14787-3 0  9992 | 2 62580  54.9780  44.3752 0010943 277.0266  82.9483 14.63372123 29061 | 2025/07/29-02:18:41  297.3181    0.0994   83.0728   98.4029     7060.4436     7052.7174     7068.1699  39.296925  38.449085   0.000855  -0.000683
1 62580U 25007F   25211.25751744  .00000651  00000-0  16141-3 0  9999 | 2 62580  54.9781  39.7233 0010964 280.2975  79.6783 14.63374508 29234 | 2025/07/30-06:10:49    1.1468    0.0994   79.8019   98.4027     7060.4360     7052.6949     7068.1770  42.285841  35.135440   0.000840  -0.000704
1 62580U 25007F   25213.85486296  .00000592  00000-0  15556-3 0  9997 | 2 62580  54.9835  29.3329 0019197 279.3724  80.5099 14.61621935 29613 | 2025/08/01-20:31:00  229.2352    0.0994   80.7270   98.5207     7066.0788     7052.5140     7079.6435  47.933962  26.935489   0.001200  -0.001498
1 62580U 25007F   25215.08621443  .00000519  00000-0  14327-3 0  9993 | 2 62580  54.9774  24.4260 0021624 292.7678  67.1030 14.60808056 29795 | 2025/08/03-02:04:08  318.6538    0.0993   67.3315   98.5756     7068.7031     7053.4177     7083.9884  50.056709  22.734125   0.001586  -0.001469
1 62580U 25007F   25216.11281083  .00000531  00000-0  14740-3 0  9993 | 2 62580  54.9709  20.3273 0024321 283.2839  76.5441 14.60244640 29943 | 2025/08/04-02:42:26  333.3818    0.0992   76.8153   98.6136     7070.5212     7053.3250     7087.7174  51.547506  19.095928   0.001346  -0.002025
1 62580U 25007F   25217.41378619  .00000457  00000-0  13417-3 0  9996 | 2 62580  54.9796  15.1445 0027463 285.6994  74.0969 14.59465736 30130 | 2025/08/05-09:55:51   88.2298    0.0992   74.3998   98.6662     7073.0366     7053.6119     7092.4613  53.070159  14.363656   0.001408  -0.002358
1 62580U 25007F   25219.81224392  .00000318  00000-0  10831-3 0  9993 | 2 62580  54.9765   5.6124 0033852 288.5116  71.2199 14.57893034 30487 | 2025/08/07-19:29:37  243.6355    0.0993   71.5877   98.7727     7078.1224     7054.1615     7102.0832  54.712957   5.376607   0.001384  -0.003090
1 62580U 25007F   25220.84090611  .00000452  00000-0  13882-3 0  9991 | 2 62580  54.9805   1.5137 0036975 287.7795  71.9163 14.57222714 30630 | 2025/08/08-20:10:54  259.1022    0.0991   72.3196   98.8181     7080.2928     7054.1134     7106.4722  54.961314   1.452364   0.001222  -0.003490
1 62580U 25007F   25221.87003270  .00000411  00000-0  13141-3 0  9993 | 2 62580  54.9784 357.4473 0039141 291.1076  68.5732 14.56646353 30789 | 2025/08/09-20:52:50  274.6835    0.0991   68.9915   98.8572     7082.1604     7054.4401     7109.8807  54.923844  -2.448643   0.001246  -0.003711
1 62580U 25007F   25222.96825023  .00000455  00000-0  14293-3 0  9999 | 2 62580  54.9972 353.1814 0039972 284.7219  74.9343 14.55910372 30940 | 2025/08/10-23:14:16  315.4148    0.0991   75.3772   98.9072     7084.5469     7056.2286     7112.8653  54.608206  -6.529615   0.000550  -0.003959
1 62580U 25007F   25224.34176281  .00000415  00000-0  13599-3 0  9992 | 2 62580  54.9782 347.6579 0045793 293.0205  66.5959 14.55063404 31149 | 2025/08/12-08:12:08   96.7964    0.0991   67.0786   98.9648     7087.2959     7054.8410     7119.7507  53.707587 -11.751494   0.000849  -0.004500
1 62580U 25007F   25225.57843390  .00000345  00000-0  12097-3 0  9994 | 2 62580  54.9792 342.7708 0047150 295.5112  64.1006 14.54706801 31324 | 2025/08/13-13:52:56  188.1086    0.0991   64.5879   98.9890     7088.4541     7055.0320     7121.8761  52.512148 -16.284556   0.000679  -0.004666
1 62580U 25007F   25226.74670851  .00000374  00000-0  12825-3 0  9995 | 2 62580  54.9793 338.1565 0048526 297.5054  62.1008 14.54370022 31490 | 2025/08/14-17:55:15  254.4589    0.0990   62.5936   99.0119     7089.5483     7055.1456     7123.9510  51.031985 -20.456294   0.000479  -0.004829
1 62580U 25007F   25227.77784875  .00000329  00000-0  11913-3 0  9998 | 2 62580  54.9839 334.0769 0051048 296.0418  63.5321 14.53771981 31641 | 2025/08/15-18:40:06  270.7976    0.0990   64.0572   99.0527     7091.4925     7055.2918     7127.6931  49.451508 -24.037005   0.000011  -0.005105
1 62580U 25007F   25229.15338293  .00000309  00000-0  11634-3 0  9999 | 2 62580  54.9822 328.6621 0054307 299.3209  60.2360 14.52942034 31841 | 2025/08/17-03:40:52   52.7775    0.0989   60.7780   99.1093     7094.1927     7055.6663     7132.7192  46.961121 -28.595374  -0.000191  -0.005427
1 62580U 25007F   25230.18553909  .00000293  00000-0  11331-3 0  9993 | 2 62580  54.9790 324.5997 0056001 301.7386  57.8153 14.52491851 31997 | 2025/08/18-04:27:10   69.4365    0.0990   58.3604   99.1400     7095.6585     7055.9221     7135.3949  44.814744 -31.848534  -0.000358  -0.005589
1 62580U 25007F   25231.21801221  .00000271  00000-0  10882-3 0  9997 | 2 62580  54.9781 320.5363 0057743 303.4937  56.0542 14.52088905 32148 | 2025/08/19-05:13:56   86.2138    0.0990   56.6053   99.1675     7096.9711     7055.9911     7137.9511  42.444601 -34.943488  -0.000601  -0.005743
1 62580U 25007F   25232.25057181  .00000292  00000-0  11383-3 0  9990 | 2 62580  54.9787 316.4736 0057658 305.6335  53.9292 14.52090193 32299 | 2025/08/20-06:00:49  103.0009    0.0990   54.4655   99.1674     7096.9669     7056.0472     7137.8866  39.862698 -37.863211  -0.000792  -0.005711
1 62580U 25007F   25234.59103983  .00000294  00000-0  11443-3 0  9990 | 2 62580  54.9779 307.2649 0057824 310.9840  48.6155 14.52092258 32637 | 2025/08/22-14:11:05  237.0482    0.0990   49.1150   99.1673     7096.9602     7055.9227     7137.9976  33.289172 -43.753863  -0.001178  -0.005661
1 62580U 25007F   25241.96168030  .00001741  00000-0  48026-3 0  9998 | 2 62580  54.9766 278.3107 0065076 321.9272  37.7127 14.49959931 33702 | 2025/08/29-23:04:49   46.6574    0.0990   38.1718   99.3131     7103.9164     7057.6869     7150.1458   7.946372 -54.399280  -0.003230  -0.005649
1 62580U 25007F   25243.34058024  .00000541  00000-0  18172-3 0  9999 | 2 62580  54.9761 272.9051 0066477 323.7014  35.9473 14.49493139 33904 | 2025/08/31-08:10:26  189.8173    0.0989   36.3975   99.3451     7105.4415     7058.2066     7152.6763   2.786290 -54.905447  -0.003659  -0.005550
1 62580U 25007F   25246.16857337  .00000660  00000-0  21511-3 0  9999 | 2 62580  54.9767 261.8285 0069058 327.5353  32.1395 14.48606164 34313 | 2025/09/03-04:02:44  141.7327    0.0989   32.5636   99.4059     7108.3416     7059.2528     7157.4304  -7.814200 -54.418525  -0.004497  -0.005241
1 62580U 25007F   25247.27272678  .00000529  00000-0  18248-3 0  9998 | 2 62580  54.9761 257.5086 0069762 329.2027  30.4876 14.48333240 34471 | 2025/09/04-06:32:43  184.6207    0.0990   30.8963   99.4246     7109.2345     7059.6391     7158.8300 -11.890950 -53.674732  -0.004783  -0.005078
1 62580U 25007F   25249.27431740  .00000087  00000-0  69072-4 0  9998 | 2 62580  54.9763 249.6806 0070696 332.3940  27.3300 14.47940136 34768 | 2025/09/06-06:35:01  194.9605    0.0989   27.7049   99.4516     7110.5212     7060.2527     7160.7898 -19.090696 -51.555202  -0.005248  -0.004737
1 62580U 25007F   25254.86748206 -.00000027  00000-0  39562-4 0  9993 | 2 62580  54.9762 227.8314 0072293 343.7739  16.0934 14.47541719 35578 | 2025/09/11-20:49:10   75.7185    0.0990   16.3251   99.4790     7111.8259     7060.4124     7163.2394 -36.906320 -40.746854  -0.006157  -0.003789
1 62580U 25007F   25255.97234466 -.00000032  00000-0  38393-4 0  9991 | 2 62580  54.9760 223.5151 0072418 346.2277  13.6733 14.47542788 35737 | 2025/09/12-23:20:10  118.8407    0.0989   13.8712   99.4789     7111.8224     7060.3200     7163.3248 -39.868207 -37.853490  -0.006288  -0.003593
1 62580U 25007F   25257.28436796  .00000331  00000-0  13319-3 0  9998 | 2 62580  54.9767 218.3902 0072520 349.1532  10.7887 14.47544618 35923 | 2025/09/14-06:49:29  237.5463    0.0989   10.9457   99.4788     7111.8164     7060.2415     7163.3913 -43.090720 -34.141285  -0.006430  -0.003353
1 62580U 25007F   25258.59638951  .00000405  00000-0  15268-3 0  9997 | 2 62580  54.9769 213.2652 0072650 352.0596   7.9235 14.47546538 36118 | 2025/09/15-14:18:48  356.2510    0.0989    8.0393   99.4787     7111.8101     7060.1428     7163.4774 -45.968422 -30.155658  -0.006567  -0.003108
1 62580U 25007F   25260.32273162  .00000450  00000-0  16423-3 0  9994 | 2 62580  54.9770 206.5219 0072815 355.8917   4.1463 14.47548885 36361 | 2025/09/17-07:44:44  266.1241    0.0989    4.2072   99.4785     7111.8024     7060.0178     7163.5870 -49.191427 -24.549421  -0.006731  -0.002776
1 62580U 25007F   25261.98001691  .00000528  00000-0  18470-3 0  9993 | 2 62580  54.9771 200.0483 0072965 359.5548   0.5362 14.47551657 36607 | 2025/09/18-23:31:13  150.8009    0.0989    0.5441   99.4783     7111.7933     7059.9021     7163.6845 -51.645706 -18.846819  -0.006874  -0.002448
1 62580U 25007F   25263.29203229  .00000696  00000-0  22843-3 0  9995 | 2 62580  54.9769 194.9234 0073091   2.4538 357.6793 14.47554539 36799 | 2025/09/20-07:00:31  269.5024    0.0989  357.6451   99.4781     7111.7839     7059.8032     7163.7646 -53.122583 -14.158061  -0.006976  -0.002183
1 62580U 25007F   25264.32783196  .00000902  00000-0  28225-3 0  9996 | 2 62580  54.9769 190.8773 0073179   4.7413 355.4252 14.47557419 36949 | 2025/09/21-07:52:04  287.4240    0.0990  355.3577   99.4779     7111.7745     7059.7312     7163.8177 -53.989160 -10.374492  -0.007048  -0.001970
1 62580U 25007F   25265.50173581  .00001097  00000-0  33325-3 0  9991 | 2 62580  54.9770 186.2918 0073286   7.3201 352.8838 14.47560802 37115 | 2025/09/22-12:02:29  355.7345    0.0989  352.7788   99.4777     7111.7634     7059.6441     7163.8826 -54.645854  -6.025043  -0.007123  -0.001725
1 62580U 25007F   25267.02090066  .00001326  00000-0  39291-3 0  9999 | 2 62580  54.9771 180.3576 0073406  10.6438 349.6082 14.47565822 37330 | 2025/09/24-00:30:05  190.0173    0.0989  349.4551   99.4773     7111.7469     7059.5424     7163.9514 -54.976029  -0.343126  -0.007206  -0.001401
1 62580U 25007F   25268.19479771  .00001374  00000-0  40526-3 0  9998 | 2 62580  54.9772 175.7721 0073519  13.2323 347.0570 14.47569258 37508 | 2025/09/25-04:40:30  258.3255    0.0989  346.8666   99.4771     7111.7357     7059.4509     7164.0205 -54.827590   4.053130  -0.007261  -0.001151
1 62580U 25007F   25269.99016310  .00001323  00000-0  39185-3 0  9996 | 2 62580  54.9772 168.7590 0073693  17.1778 343.1678 14.47574681 37764 | 2025/09/26-23:45:50  193.3834    0.0989  342.9211   99.4767     7111.7179     7059.3095     7164.1263 -53.922513  10.717050  -0.007330  -0.000762
1 62580U 25007F   25271.16405179  .00001297  00000-0  38522-3 0  9997 | 2 62580  54.9771 164.1736 0073797  19.7307 340.6508 14.47578329 37932 | 2025/09/28-03:56:14  261.6899    0.0989  340.3682   99.4765     7111.7060     7059.2237     7164.1882 -52.893052  14.993551  -0.007363  -0.000502
1 62580U 25007F   25272.19983328  .00001265  00000-0  37671-3 0  9997 | 2 62580  54.9770 160.1274 0073899  21.9893 338.4237 14.47581492 38088 | 2025/09/29-04:47:45  279.6069    0.0989  338.1096   99.4763     7111.6956     7059.1409     7164.2503 -51.703163  18.688323  -0.007385  -0.000273
1 62580U 25007F   25273.51181874  .00001267  00000-0  37729-3 0  9996 | 2 62580  54.9762 155.0023 0074001  24.8568 335.5955 14.47585999 38273 | 2025/09/30-12:17:01   38.3006    0.0990  335.2422   99.4760     7111.6809     7059.0537     7164.3080 -49.826291  23.231946  -0.007400   0.000018
1 62580U 25007F   25278.62216465  .00001061  00000-0  32470-3 0  9998 | 2 62580  54.9757 135.0435 0074067  35.3970 325.1901 14.47417470 39015 | 2025/10/05-14:55:55  102.8861    0.0989  324.7019   99.4875     7112.2329     7059.5547     7164.9110 -38.903193  38.844165  -0.007304   0.001230
1 62580U 25007F   25280.00336837  .00000986  00000-0  30502-3 0  9998 | 2 62580  54.9758 129.6488 0074149  38.3678 322.2550 14.47414662 39212 | 2025/10/07-00:04:51  246.8398    0.0988  321.7310   99.4877     7112.2421     7059.5055     7164.9786 -35.078960  42.329720  -0.007253   0.001540
1 62580U 25007F   25283.66371666  .00000297  00000-0  12480-3 0  9992 | 2 62580  54.9758 115.3549 0074141  46.0025 314.7041 14.47325773 39749 | 2025/10/10-15:55:45  142.3831    0.0988  314.0963   99.4938     7112.5333     7059.8002     7165.2663 -23.541954  49.680127  -0.007025   0.002370
1 62580U 25007F   25284.90687061  .00000213  00000-0  10300-3 0  9996 | 2 62580  54.9755 110.5001 0074194  48.6814 312.0527 14.47326921 39924 | 2025/10/11-21:45:53  235.9712    0.0989  311.4175   99.4938     7112.5295     7059.7588     7165.3002 -19.252916  51.493988  -0.006935   0.002637
1 62580U 25007F   25285.94283117  .00000270  00000-0  11793-3 0  9995 | 2 62580  54.9755 106.4547 0074252  50.9074 309.8485 14.47328147 40079 | 2025/10/12-22:37:40  253.9616    0.0988  309.1914   99.4937     7112.5255     7059.7136     7165.3374 -15.572205  52.723923  -0.006853   0.002858
1 62580U 25007F   25287.18598282  .00000262  00000-0  11565-3 0  9993 | 2 62580  54.9755 101.6000 0074309  53.5731 307.2077 14.47329243 40259 | 2025/10/14-04:27:48  347.5513    0.0988  306.5257   99.4936     7112.5219     7059.6695     7165.3743 -11.054359  53.852639  -0.006744   0.003120
1 62580U 25007F   25288.63632500  .00000287  00000-0  12214-3 0  9995 | 2 62580  54.9757  95.9362 0074367  56.6906 304.1174 14.47330640 40469 | 2025/10/15-15:16:18  156.7407    0.0988  303.4082   99.4935     7112.5173     7059.6237     7165.4110  -5.685641  54.680902  -0.006604   0.003419
1 62580U 25007F   25289.94853751  .00000402  00000-0  15243-3 0  9997 | 2 62580  54.9762  90.8120 0074415  59.4940 301.3367 14.47332541 40650 | 2025/10/16-22:45:53  275.5320    0.0988  300.6048   99.4934     7112.5111     7059.5833     7165.4388  -0.779101  54.970679  -0.006464   0.003686
1 62580U 25007F   25295.61839574  .00000302  00000-0  13469-3 0  9992 | 2 62580  54.9773  68.7306 0061279  66.7032 294.0387 14.44008115 41474 | 2025/10/22-14:50:29  184.4397    0.0986  293.3954   99.7224     7123.4233     7079.7717     7167.0749  19.943213  51.232527  -0.004366   0.004300
1 62580U 25007F   25297.48796027  .00001186  00000-0  39432-3 0  9993 | 2 62580  54.9771  61.4764 0057636  69.0492 291.6648 14.43032159 41745 | 2025/10/24-11:42:39  146.6077    0.0986  291.0494   99.7899     7126.6348     7085.5597     7167.7098  26.252703  48.304007  -0.003745   0.004381
1 62580U 25007F   25298.52721860  .00001104  00000-0  37457-3 0  9997 | 2 62580  54.9778  57.4456 0055472  70.4459 290.2504 14.42512162 41898 | 2025/10/25-12:39:11  165.8136    0.0985  289.6526   99.8258     7128.3473     7088.8050     7167.8897  29.583561  46.339739  -0.003407   0.004378
1 62580U 25007F   25299.70536595  .00001079  00000-0  36965-3 0  9991 | 2 62580  54.9780  52.8853 0054051  72.4425 288.2454 14.42194746 42063 | 2025/10/26-16:55:43  235.6766    0.0984  287.6559   99.8478     7129.3932     7090.8581     7167.9283  33.174418  43.841059  -0.003126   0.004410
1 62580U 25007F   25300.95320304  .00001047  00000-0  36469-3 0  9994 | 2 62580  54.9780  48.0559 0051746  74.2803 286.3881 14.41613248 42246 | 2025/10/27-22:52:36  330.9768    0.0985  285.8182   99.8881     7131.3103     7094.4086     7168.2119  36.747584  40.892488  -0.002768   0.004372
1 62580U 25007F   25302.82620096  .00000934  00000-0  33739-3 0  9994 | 2 62580  54.9787  40.8194 0055954  79.9669 280.7622 14.40495772 42515 | 2025/10/29-19:49:43  294.2779    0.0984  280.1315   99.9656     7134.9979     7095.0747     7174.9211  41.606438  35.938305  -0.002864   0.004807
1 62580U 25007F   25304.49214524  .00000898  00000-0  33125-3 0  9992 | 2 62580  54.9784  34.3884 0059820  84.1588 276.6210 14.39631638 42754 | 2025/10/31-11:48:41  182.0402    0.0983  275.9395  100.0256     7137.8528     7095.1541     7180.5514  45.369708  31.051797  -0.002859   0.005255
1 62580U 25007F   25305.53382311  .00000822  00000-0  30960-3 0  9999 | 2 62580  54.9787  30.3738 0061489  86.6665 274.1350 14.39237211 42902 | 2025/11/01-12:48:42  202.0639    0.0984  273.4319  100.0530     7139.1568     7095.2589     7183.0548  47.432597  27.799392  -0.002795   0.005477
1 62580U 25007F   25307.68731980  .00000673  00000-0  26625-3 0  9994 | 2 62580  54.9780  22.0732 0060783  91.9321 268.8624 14.38553007 43213 | 2025/11/03-16:29:44  267.7529    0.0982  268.1661  100.1006     7141.4203     7098.0126     7184.8280  50.948360  20.660229  -0.002473   0.005553
1 62580U 25007F   25308.72984786  .00000616  00000-0  25071-3 0  9995 | 2 62580  54.9788  18.0673 0062879  93.6279 267.1897 14.37999024 43361 | 2025/11/04-17:30:58  288.0733    0.0982  266.4703  100.1392     7143.2543     7098.3383     7188.1704  52.267954  17.050790  -0.002324   0.005842
1 62580U 25007F   25311.58144109  .00000839  00000-0  33024-3 0  9994 | 2 62580  54.9758   7.1234 0068946 100.4917 260.3843 14.36503767 43772 | 2025/11/07-13:57:16  248.3430    0.0982  259.6065  100.2434     7148.2104     7098.9264     7197.4945  54.551462   6.817370  -0.002086   0.006571
1 62580U 25007F   25314.64504434  .00000875  00000-0  35260-3 0  9999 | 2 62580  54.9784 355.3757 0071669 105.9049 254.9846 14.34883119 44213 | 2025/11/10-15:28:51  285.9940    0.0981  254.1932  100.3566     7153.5918     7102.3228     7204.8609  54.799433  -4.432450  -0.001402   0.007028
1 62580U 25007F   25316.52663711  .00001111  00000-0  44306-3 0  9997 | 2 62580  54.9769 348.1837 0067099 109.6787 251.1450 14.33883917 44481 | 2025/11/12-12:38:21  252.4798    0.0980  250.4193  100.4265     7156.9148     7108.8926     7204.9370  53.811894 -11.257868  -0.000918   0.006647
1 62580U 25007F   25317.57244932  .00001378  00000-0  54055-3 0  9990 | 2 62580  54.9780 344.1874 0065494 112.0858 248.7093 14.33505568 44630 | 2025/11/13-13:44:19  274.0279    0.0979  248.0121  100.4530     7158.1740     7111.2923     7205.0558  52.897528 -14.981057  -0.000716   0.006510
1 62580U 25007F   25319.73509774  .00001074  00000-0  44509-3 0  9994 | 2 62580  54.9632 335.9869 0064399  92.1661 268.6694 14.32274843 44941 | 2025/11/15-17:38:32  342.8731    0.0979  267.9318  100.5394     7162.2740     7116.1497     7208.3983  50.206269 -22.367027   0.002396   0.005977
1 62580U 25007F   25320.78210667  .00000937  00000-0  40253-3 0  9990 | 2 62580  54.9796 331.9590 0056739 117.4650 243.2114 14.31662703 45095 | 2025/11/16-18:46:14    5.0153    0.0979  242.6329  100.5824     7164.3155     7123.6659     7204.9651  48.525623 -25.846090   0.000057   0.005674
1 62580U 25007F   25322.10911282  .00000664  00000-0  30770-3 0  9999 | 2 62580  54.9772 326.9010 0053725 121.9142 238.7079 14.30866658 45282 | 2025/11/18-02:37:07  129.1577    0.0979  238.1837  100.6383     7166.9724     7128.4678     7205.4770  46.055953 -30.022353   0.000111   0.005371
1 62580U 25007F   25323.15722118  .00000520  00000-0  25700-3 0  9991 | 2 62580  54.9749 322.9206 0052000 125.4009 235.1843 14.30306835 45438 | 2025/11/19-03:46:23  151.5271    0.0978  234.6969  100.6777     7168.8424     7131.5644     7206.1204  43.859017 -33.145532   0.000152   0.005198
1 62580U 25007F   25324.27565400  .00000456  00000-0  23553-3 0  9996 | 2 62580  54.9780 318.6739 0048766 126.4156 234.1334 14.29786917 45596 | 2025/11/20-06:36:56  199.5482    0.0978  233.6822  100.7143     7170.5802     7135.6121     7205.5482  41.286466 -36.304383   0.000417   0.004859
1 62580U 25007F   25325.53431272  .00000406  00000-0  21908-3 0  9992 | 2 62580  54.9760 313.9029 0045967 128.6782 231.8322 14.29230220 45775 | 2025/11/21-12:49:24  298.7155    0.0977  231.4195  100.7535     7172.4420     7139.4725     7205.4116  38.122464 -39.611088   0.000594   0.004558
1 62580U 25007F   25327.14337943  .00000383  00000-0  21265-3 0  9991 | 2 62580  54.9778 307.8025 0043581 132.6718 227.7945 14.28629457 46001 | 2025/11/23-03:26:27  165.7100    0.0977  227.4259  100.7959     7174.4527     7143.1857     7205.7196  33.698177 -43.439514   0.000721   0.004298
1 62580U 25007F   25328.19300344  .00000463  00000-0  24571-3 0  9994 | 2 62580  54.9779 303.8275 0042150 134.9432 225.4978 14.28325265 46151 | 2025/11/24-04:37:55  188.6095    0.0978  225.1546  100.8174     7175.4713     7145.2266     7205.7159  30.605889 -45.671097   0.000821   0.004134
1 62580U 25007F   25329.38292398  .00000878  00000-0  41420-3 0  9997 | 2 62580  54.9781 299.3244 0039657 137.4981 222.9079 14.27788780 46321 | 2025/11/25-09:11:24  262.6919    0.0977  222.5996  100.8553     7177.2686     7148.8057     7205.7315  26.925733 -47.933249   0.000904   0.003861
1 62580U 25007F   25330.43323012  .00000883  00000-0  41995-3 0  9996 | 2 62580  54.9778 295.3525 0037655 139.9061 220.4707 14.27355613 46479 | 2025/11/26-10:23:51  285.8384    0.0977  220.1916  100.8859     7178.7206     7151.6891     7205.7521  23.540729 -49.682920   0.000958   0.003642
1 62580U 25007F   25332.04444773  .00000771  00000-0  38193-3 0  9995 | 2 62580  54.9778 289.2674 0033609 143.8279 216.4980 14.26444318 46700 | 2025/11/28-01:04:00  153.6008    0.0976  216.2697  100.9503     7181.7777     7157.6405     7205.9150  18.141428 -51.898430   0.000977   0.003216
1 62580U 25007F   25333.93712458  .00000667  00000-0  34592-3 0  9995 | 2 62580  54.9800 282.1819 0027678 146.6545 213.6182 14.25515408 46975 | 2025/11/29-22:29:27  123.9687    0.0976  213.4431  101.0161     7184.8973     7165.0109     7204.7836  11.601661 -53.741994   0.000999   0.002581
1 62580U 25007F   25335.33998279  .00000559  00000-0  30520-3 0  9995 | 2 62580  54.9777 276.8467 0025805 152.3649 207.8705 14.24722819 47170 | 2025/12/01-08:09:34  275.7529    0.0976  207.7327  101.0723     7187.5617     7169.0142     7206.1092   6.554071 -54.585636   0.000916   0.002413
1 62580U 25007F   25336.39261516  .00000587  00000-0  32054-3 0  9994 | 2 62580  54.9777 272.8843 0024346 158.8104 201.3886 14.24167798 47325 | 2025/12/02-09:25:21  299.7369    0.0975  201.2871  101.1117     7189.4290     7171.9256     7206.9324   2.766438 -54.908053   0.000765   0.002311
1 62580U 25007F   25338.35868286  .00000916  00000-0  47208-3 0  9992 | 2 62580  54.9785 265.4932 0019468 164.4631 195.6946 14.23108637 47607 | 2025/12/04-08:36:30  296.8915    0.0975  195.6344  101.1869     7192.9958     7178.9924     7206.9991  -4.320068 -54.808507   0.000667   0.001829
1 62580U 25007F   25339.90449139  .00000814  00000-0  43457-3 0  9995 | 2 62580  54.9739 259.6927 0014477 167.9873 192.1451 14.22223051 47820 | 2025/12/05-21:42:28  140.7320    0.0976  192.1103  101.2499     7195.9814     7185.5638     7206.3990  -9.836346 -54.086745   0.000550   0.001339
1 62580U 25007F   25340.95897777  .00000856  00000-0  45877-3 0  9991 | 2 62580  54.9771 255.7565 0011651 176.2723 183.8341 14.21638070 47970 | 2025/12/06-23:00:55  165.3486    0.0975  183.8252  101.2916     7197.9553     7189.5690     7206.3416 -13.526749 -53.287040   0.000359   0.001108
1 62580U 25007F   25342.01388752  .00000805  00000-0  44048-3 0  9991 | 2 62580  54.9772 251.8065 0009986 183.5645 176.5261 14.21034547 48122 | 2025/12/08-00:19:59  190.1217    0.0975  176.5330  101.3346     7199.9932     7192.8032     7207.1831 -17.165374 -52.228751   0.000252   0.000966
1 62580U 25007F   25343.42109635  .00000970  00000-0  52263-3 0  9999 | 2 62580  54.9888 246.5426 0007050 198.0065 162.0660 14.20376978 48320 | 2025/12/09-10:06:22  343.3859    0.0974  162.0909  101.3815     7202.2152     7197.1376     7207.2927 -21.889233 -50.444322   0.000067   0.000702
1 62580U 25007F   25345.39237052  .00000940  00000-0  51845-3 0  9994 | 2 62580  54.9759 239.1841 0004975 242.9408 117.1059 14.19399615 48604 | 2025/12/11-09:25:00  342.3719    0.0974  117.1566  101.4513     7205.5210     7201.9362     7209.1057 -28.163121 -47.214280  -0.000265   0.000421
1 62580U 25007F   25346.94210442  .00000903  00000-0  50683-3 0  9998 | 2 62580  54.9770 233.4067 0006345 258.1547 101.8715 14.18775778 48820 | 2025/12/12-22:36:37  187.6015    0.0973  101.9426  101.4960     7207.6330     7203.0597     7212.2062 -32.773494 -44.140329  -0.000421   0.000475
1 62580U 25007F   25348.28091350  .00000818  00000-0  46799-3 0  9990 | 2 62580  54.9765 228.4187 0007129 255.0248 104.9937 14.18511409 49017 | 2025/12/14-06:44:30  315.8881    0.0974  105.0726  101.5149     7208.5285     7203.3895     7213.6674 -36.486920 -41.123232  -0.000393   0.000595
1 62580U 25007F   25349.90222732  .00000652  00000-0  39512-3 0  9991 | 2 62580  54.9772 222.3809 0008984 243.5334 116.4718 14.17588908 49244 | 2025/12/15-21:39:12  187.2102    0.0973  116.5639  101.5809     7211.6555     7205.1765     7218.1344 -40.610563 -37.057721  -0.000246   0.000864
1 62580U 25007F   25351.31280632  .00000594  00000-0  37017-3 0  9995 | 2 62580  54.9765 217.1391 0009145 252.8393 107.1579 14.17055504 49447 | 2025/12/17-07:30:26  341.6587    0.0973  107.2580  101.6192     7213.4651     7206.8684     7220.0618 -43.825732 -33.192179  -0.000312   0.000859
1 62580U 25007F   25352.58290312  .00000515  00000-0  33518-3 0  9996 | 2 62580  54.9772 212.4235 0009020 269.7898  90.2041 14.16407122 49621 | 2025/12/18-13:59:22   84.8644    0.0973   90.3075  101.6657     7215.6663     7209.1578     7222.1748 -46.406699 -29.477293  -0.000481   0.000763
1 62580U 25007F   25353.78284719  .00000434  00000-0  29617-3 0  9998 | 2 62580  54.9763 207.9696 0008867 285.3358  74.6634 14.16128913 49794 | 2025/12/19-18:47:17  162.4755    0.0972   74.7614  101.6857     7216.6113     7210.2123     7223.0103 -48.554879 -25.784051  -0.000608   0.000645
1 62580U 25007F   25354.91227567  .00000374  00000-0  26704-3 0  9999 | 2 62580  54.9758 203.7802 0008860 288.4300  71.5709 14.15860884 49951 | 2025/12/20-21:53:40  214.3707    0.0973   71.6673  101.7049     7217.5220     7211.1273     7223.9168 -50.308303 -22.167842  -0.000595   0.000656
1 62580U 25007F   25356.11267559  .00000362  00000-0  26326-3 0  9995 | 2 62580  54.9768 199.3280 0008541 282.4985  77.5032 14.15410268 50124 | 2025/12/22-02:42:15  292.1493    0.0973   77.5988  101.7373     7219.0538     7212.8880     7225.2196 -51.878270 -18.195978  -0.000450   0.000726
1 62580U 25007F   25357.59615470  .00000245  00000-0  20600-3 0  9996 | 2 62580  54.9757 193.8318 0008423 266.7525  93.2483 14.14646800 50337 | 2025/12/23-14:18:27  113.1610    0.0972   93.3447  101.7922     7221.6510     7215.5682     7227.7337 -53.381500 -13.143173  -0.000155   0.000828
1 62580U 25007F   25358.79756230  .00000170  00000-0  16834-3 0  9990 | 2 62580  54.9755 189.3870 0008600 261.3050  98.6948 14.14285235 50504 | 2025/12/24-19:08:29  191.2977    0.0972   98.7922  101.8182     7222.8817     7216.6700     7229.0934 -54.239334  -8.966620  -0.000010   0.000860
1 62580U 25007F   25360.63567052  .00000111  00000-0  13981-3 0  9993 | 2 62580  54.9739 182.5929 0008532 268.4578  91.5416 14.13508801 50769 | 2025/12/26-15:15:21  141.6229    0.0971   91.6393  101.8741     7225.5265     7219.3617     7231.6913 -54.917617  -2.486975  -0.000016   0.000853
1 62580U 25007F   25362.05033363  .00000148  00000-0  16093-3 0  9991 | 2 62580  54.9765 177.3652 0008503 270.8182  89.1815 14.12939467 50962 | 2025/12/28-01:12:28  297.5234    0.0971   89.2789  101.9152     7227.4673     7221.3218     7233.6128 -54.918381   2.527255   0.000027   0.000850
1 62580U 25007F   25363.32406808  .00000233  00000-0  20837-3 0  9996 | 2 62580  54.9770 172.6546 0008964 252.2013 107.7980 14.12361522 51148 | 2025/12/29-07:46:39   42.0342    0.0971  107.8958  101.9569     7229.4389     7222.9584     7235.9193 -54.525828   7.028838   0.000381   0.000811
1 62580U 25007F   25364.52757666  .00000394  00000-0  29908-3 0  9996 | 2 62580  54.9735 168.2340 0008683 276.8549  83.1434 14.11649209 51316 | 2025/12/30-12:39:42  120.9052    0.0971   83.2422  102.0083     7231.8706     7225.5912     7238.1501 -53.818428  11.209929   0.000074   0.000865
1 62580U 25007F   25365.94402484  .00000447  00000-0  32994-3 0  9996 | 2 62580  54.9766 163.0157 0008870 282.4827  77.5151 14.11339697 51511 | 2025/12/31-22:39:23  277.4414    0.0971   77.6144  102.0307     7232.9279     7226.5123     7239.3435 -52.578787  16.059195   0.000070   0.000884
1 62580U 25007F   26002.00662979  .00000567  00000-0  39935-3 0  9994 | 2 62580  54.9762 159.1059 0008758 272.0468  87.9500 14.10854152 51661 | 2026/01/02-00:09:32  304.9374    0.0971   88.0503  102.0658     7234.5873     7228.2512     7240.9233 -51.361031  19.606811   0.000283   0.000829
1 62580U 25007F   26003.21128772  .00000724  00000-0  48919-3 0  9993 | 2 62580  54.9762 154.6759 0008912 284.3198  75.6782 14.10554738 51838 | 2026/01/03-05:04:15   24.2304    0.0970   75.7772  102.0875     7235.6110     7229.1627     7242.0594 -49.693136  23.515416   0.000170   0.000875
1 62580U 25007F   26004.48734646  .00000646  00000-0  45232-3 0  9994 | 2 62580  54.9785 149.9887 0008835 291.9998  68.0033 14.09706353 52014 | 2026/01/04-11:41:46  129.5514    0.0970   68.0972  102.1489     7238.5137     7232.1185     7244.9090 -47.607355  27.498640   0.000123   0.000875
1 62580U 25007F   26005.62211107  .00000628  00000-0  44708-3 0  9990 | 2 62580  54.9762 145.8236 0008243 276.7872  83.2160 14.09119262 52171 | 2026/01/05-14:55:50  183.3501    0.0970   83.3098  102.1915     7240.5242     7234.5558     7246.4925 -45.482471  30.882477   0.000379   0.000732
1 62580U 25007F   26006.89925145  .00000476  00000-0  36268-3 0  9997 | 2 62580  54.9763 141.1410 0008460 268.1153  91.8847 14.08635635 52356 | 2026/01/06-21:34:55  289.0653    0.0969   91.9816  102.2266     7242.1813     7236.0544     7248.3082 -42.809622  34.492460   0.000552   0.000641
1 62580U 25007F   26008.46087206  .00000389  00000-0  31662-3 0  9995 | 2 62580  54.9768 135.4215 0008719 266.2596  93.7376 14.07929658 52579 | 2026/01/08-11:03:39  138.5102    0.0969   93.8373  102.2778     7244.6021     7238.2855     7250.9187 -39.159396  38.587436   0.000651   0.000580
1 62580U 25007F   26009.59693929 -.00000040  00000-0  65386-4 0  9991 | 2 62580  54.9768 131.2628 0008777 280.2687  79.7292 14.07538463 52731 | 2026/01/09-14:19:35  192.7722    0.0969   79.8282  102.3063     7245.9443     7239.5846     7252.3041 -36.257956  41.325648   0.000546   0.000687
1 62580U 25007F   26011.23067054 -.00000064  00000-0  51541-4 0  9993 | 2 62580  54.9827 125.3079 0010047 303.9980  56.0033 14.07090374 52963 | 2026/01/11-05:32:09   68.4772    0.0968   56.0988  102.3388     7247.4826     7240.2010     7254.7641 -31.778359  44.869067   0.000355   0.000940
1 62580U 25007F   26012.79406074 -.00000050  00000-0  60579-4 0  9990 | 2 62580  54.9774 119.5782 0008512 280.9177  79.0833 14.06426025 53189 | 2026/01/12-19:03:26  278.5686    0.0968   79.1791  102.3872     7249.7647     7243.5937     7255.9357 -27.137450  47.812899   0.000647   0.000553
1 62580U 25007F   26014.21564820 -.00000042  00000-0  65650-4 0  9999 | 2 62580  54.9775 114.3885 0008462 280.3223  79.6791 14.06295133 53382 | 2026/01/14-05:10:32   76.9306    0.0968   79.7745  102.3967     7250.2146     7244.0794     7256.3497 -22.701399  50.071668   0.000696   0.000482
1 62580U 25007F   26015.49508864 -.00000035  00000-0  69599-4 0  9994 | 2 62580  54.9775 109.7173 0008513 283.7010  76.3010 14.06295407 53560 | 2026/01/15-11:52:55  183.4608    0.0968   76.3958  102.3967     7250.2136     7244.0415     7256.3857 -18.548282  51.754099   0.000711   0.000469
1 62580U 25007F   26016.84584689 -.00000037  00000-0  68784-4 0  9990 | 2 62580  54.9774 104.7868 0008306 273.9186  86.0832 14.05832710 53754 | 2026/01/16-20:18:01  315.9959    0.0968   86.1782  102.4304     7251.8044     7245.7810     7257.8277 -14.031498  53.156670   0.000787   0.000266
1 62580U 25007F   26017.91262109 -.00000046  00000-0  64071-4 0  9994 | 2 62580  54.9772 100.8985 0008146 283.5705  76.4355 14.05376158 53904 | 2026/01/17-21:54:10  344.9701    0.0968   76.5263  102.4637     7253.3748     7247.4662     7259.2834 -10.394525  53.985613   0.000741   0.000337
1 62580U 25007F   26019.47759177 -.00000026  00000-0  76833-4 0  9990 | 2 62580  54.9777  95.1958 0008135 274.9821  85.0217 14.04913221 54121 | 2026/01/19-11:27:43  195.6070    0.0967   85.1146  102.4974     7254.9681     7249.0662     7260.8700  -4.978757  54.751799   0.000801   0.000144
1 62580U 25007F   26020.61618851  .00000068  00000-0  13571-3 0  9995 | 2 62580  54.9776  91.0484 0008352 265.4262  94.5751 14.04594430 54286 | 2026/01/20-14:47:18  250.7740    0.0967   94.6705  102.5207     7256.0658     7250.0056     7262.1261  -1.005926  54.968397   0.000834  -0.000051
1 62580U 25007F   26022.32465142  .00000065  00000-0  13548-3 0  9999 | 2 62580  54.9777  84.8331 0009312 246.9278 113.0707 14.03767783 54523 | 2026/01/22-07:47:29  153.7227    0.0966  113.1688  102.5811     7258.9142     7252.1547     7265.6737   4.951140  54.754303   0.000820  -0.000441
1 62580U 25007F   26023.60666694  .00000047  00000-0  12527-3 0  9992 | 2 62580  54.9776  80.1740 0009236 257.2939 102.6995 14.03229516 54709 | 2026/01/23-14:33:36  261.1761    0.0966  102.8027  102.6204     7260.7703     7254.0643     7267.4764   9.382293  54.171109   0.000853  -0.000354
1 62580U 25007F   26024.88918258  .00000043  00000-0  12333-3 0  9990 | 2 62580  54.9776  75.5188 0008604 270.7010  89.2970 14.02770528 54886 | 2026/01/24-21:20:25    8.7964    0.0966   89.3956  102.6540     7262.3541     7256.1056     7268.6026  13.747826  53.230948   0.000836  -0.000205
1 62580U 25007F   26026.10094403  .00000047  00000-0  12737-3 0  9996 | 2 62580  54.9770  71.1215 0009446 296.2523  63.7472 14.02067161 55056 | 2026/01/26-02:25:21   90.6207    0.0966   63.8443  102.7055     7264.7827     7257.9204     7271.6450  17.788489  52.019613   0.000937   0.000121
1 62580U 25007F   26027.17054958  .00000040  00000-0  12403-3 0  9998 | 2 62580  54.9760  67.2458 0009214 300.4609  59.5447 14.01552836 55205 | 2026/01/27-04:05:35  120.6025    0.0967   59.6358  102.7432     7266.5599     7259.8645     7273.2553  21.263538  50.697362   0.000913   0.000124
1 62580U 25007F   26029.52501774 -.00000004  00000-0  96350-4 0  9997 | 2 62580  54.9766  58.7254 0008085 273.5089  86.4952 14.00519344 55539 | 2026/01/29-12:36:01  259.0537    0.0966   86.5877  102.8190     7270.1343     7264.2564     7276.0122  28.540567  46.987898   0.000715  -0.000377
1 62580U 25007F   26030.59577494 -.00000012  00000-0  91638-4 0  9991 | 2 62580  54.9774  54.8540 0008425 263.2799  96.7208 14.00132511 55686 | 2026/01/30-14:17:54  289.4564    0.0966   96.8167  102.8474     7271.4733     7265.3471     7277.5995  31.648396  44.954350   0.000627  -0.000562
1 62580U 25007F   26032.16692445 -.00000017  00000-0  89744-4 0  9990 | 2 62580  54.9781  49.1811 0008729 255.3672 104.6325 13.99299172 55909 | 2026/02/01-04:00:22  142.2928    0.0965  104.7293  102.9087     7274.3600     7268.0102     7280.7098  35.937550  41.606298   0.000495  -0.000719
1 62580U 25007F   26033.31010961 -.00000023  00000-0  85609-4 0  9998 | 2 62580  54.9831  45.0483 0009090 250.7313 109.2669 13.98778547 56065 | 2026/02/02-07:26:33  199.1005    0.0965  109.3652  102.9470     7276.1649     7269.5509     7282.7789  38.846134  38.911684   0.000395  -0.000819
1 62580U 25007F   26035.16872920 -.00000038  00000-0  76616-4 0  9998 | 2 62580  54.9777  38.3535 0008732 270.0130  89.9834 13.97947223 56326 | 2026/02/04-04:02:58  156.7321    0.0965   90.0835  103.0082     7279.0492     7272.6932     7285.4053  43.113364  34.114298   0.000542  -0.000685
1 62580U 25007F   26036.52768043 -.00000013  00000-0  94985-4 0  9991 | 2 62580  54.9783  33.4688 0009196 292.0154  67.9832 13.97310772 56511 | 2026/02/05-12:39:51  292.1765    0.0963   68.0809  103.0551     7281.2594     7274.5636     7287.9552  45.862142  30.319588   0.000758  -0.000521
1 62580U 25007F   26037.52946295 -.00000013  00000-0  95592-4 0  9994 | 2 62580  54.9811  29.8639 0009326 297.2492  62.7521 13.96734936 56659 | 2026/02/06-12:42:25  297.4078    0.0964   62.8472  103.0976     7283.2605     7276.4681     7290.0529  47.680196  27.377368   0.000783  -0.000506
1 62580U 25007F   26038.53160326 -.00000019  00000-0  92258-4 0  9991 | 2 62580  54.9779  26.2694 0008233 283.0603  76.9441 13.96222833 56798 | 2026/02/07-12:45:30  302.7575    0.0963   77.0360  103.1354     7285.0413     7279.0435     7291.0391  49.299944  24.332797   0.000522  -0.000637
1 62580U 25007F   26039.67734104 -.00000029  00000-0  85559-4 0  9995 | 2 62580  54.9785  22.1572 0008215 271.2201  88.7821 13.95773862 56951 | 2026/02/08-16:15:22    0.4668    0.0963   88.8762  103.1686     7286.6034     7280.6175     7292.5894  50.918479  20.735089   0.000326  -0.000754
1 62580U 25007F   26040.89517937 -.00000029  00000-0  86279-4 0  9994 | 2 62580  54.9788  17.7910 0008512 258.9910 101.0095 13.95279395 57123 | 2026/02/09-21:29:03   84.4568    0.0962  101.1052  103.2051     7288.3248     7282.1210     7294.5287  52.349571  16.798538   0.000101  -0.000845
1 62580U 25007F   26042.11321054 -.00000083  00000-0  46246-4 0  9994 | 2 62580  54.9798  13.4325 0009054 268.0604  91.9322 13.94887474 57291 | 2026/02/11-02:43:01  168.5150    0.0963   92.0359  103.2341     7289.6900     7283.0899     7296.2901  53.475787  12.771789   0.000180  -0.000887
1 62580U 25007F   26043.83361454 -.00000081  00000-0  48396-4 0  9998 | 2 62580  54.9787   7.2694 0009675 246.7139 113.2806 13.94258038 57534 | 2026/02/12-20:00:24   75.7173    0.0963  113.3824  103.2807     7291.8838     7284.8289     7298.9387  54.536790   6.956721  -0.000267  -0.000930
1 62580U 25007F   26045.26763067 -.00000068  00000-0  58636-4 0  9996 | 2 62580  54.9794   2.1377 0009260 258.1791 101.8133 13.93942249 57736 | 2026/02/14-06:25:23  238.5104    0.0962  101.9171  103.3041     7292.9850     7286.2317     7299.7383  54.941138   2.050800  -0.000156  -0.000913
1 62580U 25007F   26046.27187650 -.00000070  00000-0  57210-4 0  9996 | 2 62580  54.9789 358.5495 0008757 279.9106  80.0868 13.93302450 57872 | 2026/02/15-06:31:30  244.6119    0.0963   80.1857  103.3516     7295.2174     7288.8290     7301.6059  54.961283  -1.391697   0.000129  -0.000866
1 62580U 25007F   26047.49178007 -.00000082  00000-0  48465-4 0  9992 | 2 62580  54.9842 354.1853 0009579 285.3077  74.6825 13.92689843 58048 | 2026/02/16-11:48:09  329.3510    0.0961   74.7884  103.3970     7297.3566     7290.3665     7304.3467  54.701292  -5.570534   0.000158  -0.000945
1 62580U 25007F   26048.99949938 -.00000074  00000-0  54830-4 0  9991 | 2 62580  54.9800 348.8133 0008357 278.6982  81.3033 13.91901536 58250 | 2026/02/17-23:59:16  158.9767    0.0962   81.3980  103.4556     7300.1116     7294.0109     7306.2123  53.935392 -10.666485  -0.000036  -0.000835
1 62580U 25007F   26050.29251487 -.00000075  00000-0  54456-4 0  9997 | 2 62580  54.9793 344.2100 0008191 264.2454  95.7573 13.91266028 58434 | 2026/02/19-07:01:13  270.3389    0.0961   95.8507  103.5029     7302.3345     7296.3531     7308.3158  52.904684 -14.960544  -0.000301  -0.000762
1 62580U 25007F   26051.65802436 -.00000075  00000-0  55360-4 0  9999 | 2 62580  54.9819 339.3616 0009343 263.3452  96.6446 13.90549679 58623 | 2026/02/20-15:47:33   48.1295    0.0961   96.7509  103.5562     7304.8421     7298.0172     7311.6671  51.453355 -19.379411  -0.000428  -0.000830
1 62580U 25007F   26052.80841734 -.00000077  00000-0  54071-4 0  9991 | 2 62580  54.9733 335.2584 0008991 253.9961 106.0009 13.89989762 58782 | 2026/02/21-19:24:07  107.5008    0.0960  106.0999  103.5979     7306.8037     7300.2342     7313.3733  49.927001 -23.007788  -0.000587  -0.000681
1 62580U 25007F   26055.83026670 -.00000078  00000-0  54204-4 0  9990 | 2 62580  54.9799 324.5371 0008544 275.2102  84.7883 13.88606813 59209 | 2026/02/24-19:55:35  129.0649    0.0960   84.8858  103.7011     7311.6543     7305.4072     7317.9013  44.780654 -31.898001  -0.000430  -0.000738
1 62580U 25007F   26056.98226926 -.00000078  00000-0  54263-4 0  9998 | 2 62580  54.9826 320.4804 0008799 276.1757  83.8200 13.88030465 59368 | 2026/02/25-23:34:28  188.9808    0.0960   83.9203  103.7441     7313.6781     7307.2428     7320.1134  42.413960 -34.987746  -0.000484  -0.000735
1 62580U 25007F   26057.99068045 -.00000070  00000-0  61790-4 0  9991 | 2 62580  54.9772 316.8865 0008278 272.0745  87.9267 13.87502322 59507 | 2026/02/26-23:46:34  196.5911    0.0960   88.0215  103.7836     7315.5339     7309.4781     7321.5897  40.133425 -37.573936  -0.000544  -0.000624
1 62580U 25007F   26058.99941365 -.00000066  00000-0  65674-4 0  9997 | 2 62580  54.9778 313.3160 0009062 288.6139  71.3836 13.87079328 59644 | 2026/02/27-23:59:09  204.3036    0.0959   71.4820  103.8153     7317.0211     7310.3904     7323.6518  37.715956 -40.000814  -0.000426  -0.000800
1 62580U 25007F   26060.15270219 -.00000060  00000-0  70949-4 0  9996 | 2 62580  54.9785 309.2402 0008603 276.6479  83.3501 13.86516419 59805 | 2026/03/01-03:39:53  264.6995    0.0959   83.4480  103.8574     7319.0014     7312.7049     7325.2979  34.777907 -42.580895  -0.000599  -0.000618
1 62580U 25007F   26061.16222175 -.00000049  00000-0  81008-4 0  9991 | 2 62580  54.9787 305.6770 0008706 264.3400  95.6566 13.86013202 59941 | 2026/03/02-03:53:35  272.6861    0.0959   95.7559  103.8951     7320.7728     7314.3994     7327.1463  32.064412 -44.660172  -0.000754  -0.000436
1 62580U 25007F   26062.24427222 -.00000052  00000-0  79025-4 0  9991 | 2 62580  54.9751 301.8529 0007858 275.7141  84.2921 13.85560957 60097 | 2026/03/03-05:51:45  307.1053    0.0958   84.3817  103.9290     7322.3657     7316.6118     7328.1196  29.012574 -46.696169  -0.000623  -0.000479
1 62580U 25007F   26063.47108610 -.00000050  00000-0  80986-4 0  9990 | 2 62580  54.9886 297.5538 0011356 294.8622  65.1155 13.84881032 60266 | 2026/03/04-11:18:21   34.2951    0.0958   65.2336  103.9801     7324.7622     7316.4442     7333.0802  25.436698 -48.751621  -0.000693  -0.000900
1 62580U 25007F   26064.62604139 -.00000056  00000-0  76096-4 0  9998 | 2 62580  54.9775 293.4688 0008848 291.4491  68.5523 13.84769946 60426 | 2026/03/05-15:01:29   95.2787    0.0958   68.6467  103.9884     7325.1539     7318.6726     7331.6352  21.894769 -50.429600  -0.000627  -0.000625
1 62580U 25007F   26066.86441916 -.00000043  00000-0  89033-4 0  9999 | 2 62580  54.9790 285.5889 0008039 273.1700  86.8338 13.83831763 60737 | 2026/03/07-20:44:45  191.1785    0.0958   86.9258  104.0589     7328.4643     7322.5730     7334.3557  14.774684 -52.956578  -0.000761  -0.000259
1 62580U 25007F   26067.94802264 -.00000052  00000-0  80627-4 0  9996 | 2 62580  54.9767 281.7804 0008227 267.4353  92.5663 13.83706364 60884 | 2026/03/08-22:45:09  226.1545    0.0958   92.6605  104.0683     7328.9071     7322.8776     7334.9366  11.224108 -53.818742  -0.000812  -0.000132
1 62580U 25007F   26068.95939656 -.00000092  00000-0  44311-4 0  9998 | 2 62580  54.9766 278.2250 0008240 269.6912  90.3101 13.83706620 61024 | 2026/03/09-23:01:31  234.8016    0.0957   90.4045  104.0683     7328.9062     7322.8672     7334.9452   7.864996 -54.411105  -0.000816  -0.000113
1 62580U 25007F   26070.04321538 -.00000087  00000-0  49395-4 0  9996 | 2 62580  54.9769 274.4159 0008423 260.3618  99.6388 13.83299717 61176 | 2026/03/11-01:02:13  269.8545    0.0957   99.7339  104.0989     7330.3433     7324.1690     7336.5177   4.232986 -54.813697  -0.000839   0.000077
1 62580U 25007F   26071.12714890 -.00000086  00000-0  49807-4 0  9990 | 2 62580  54.9764 270.6078 0008452 262.1995  97.8003 13.83299785 61325 | 2026/03/12-03:03:05  304.9478    0.0957   97.8962  104.0989     7330.3431     7324.1475     7336.5387   0.583185 -54.973307  -0.000839   0.000106
1 62580U 25007F   26073.80224169 -.00000085  00000-0  51760-4 0  9992 | 2 62580  54.9758 261.2199 0008608 272.5487  87.4484 13.82191982 61699 | 2026/03/14-19:15:13  200.0085    0.0956   87.5469  104.1823     7334.2593     7327.9460     7340.5727  -8.391649 -54.331564  -0.000856   0.000093
1 62580U 25007F   26075.82769484 -.00000104  00000-0  34378-4 0  9998 | 2 62580  54.9765 254.1213 0009513 298.1720  61.8276 13.81435507 61974 | 2026/03/16-19:51:52  218.2641    0.0958   61.9238  104.2394     7336.9366     7329.9570     7343.9162 -15.041662 -52.878767  -0.000929  -0.000203
1 62580U 25007F   26077.05806236 -.00000114  00000-0  24605-4 0  9995 | 2 62580  54.9759 249.8146 0008651 287.8134  72.1879 13.80936185 62140 | 2026/03/18-01:23:36  306.7141    0.0957   72.2823  104.2771     7338.7051     7332.3564     7345.0538 -18.969931 -51.599334  -0.000864   0.000036
