# SPACE DATA - HISTORICAL TLEs
# ----------------------------
# NORAD_ID    : 61559
# OBJECT_NAME : QIANFAN-26
# --------------------------------------------------------------------+-----------------------------------------------------------------------+----------------------------------------------------------------------------------------------------------------------------------------
#                  LINE 1                                             |                 LINE 2                                                |      DERIVED PARAMETERS
# --------------------------------------------------------------------+-----------------------------------------------------------------------+----------------------------------------------------------------------------------------------------------------------------------------
# NORAD  COSPAR     TLE_EPOCH      MEANMOT1 MEANMOT2   BSTAR  #  REV  |   NORAD    INC     RAAN     ECC    ARGPER  MEANANOM   MEANMOT     REV |  CAL_DATE              LONG     ARGLAT     PERIOD        SMA         PERIGEE        APOGEE      INC_X      INC_Y      ECC_X      ECC_Y
# ------ ------   -------------- ----------  -------  ------- -- ----     -----  ------- -------- ------- -------- -------- -----------  ----   ------------------- ---------  --------  --------  ------------  ------------   ----------- ---------- ----------  ---------  ---------   
1 62583U 25007J   25013.45889160 -.00000210  00000-0  00000+0 0  9993 | 2 62583  54.9837 126.8710 0010811 296.3758 157.0513 14.75278423    47 | 2025/01/13-11:00:48   58.0828   93.4753  157.0995   97.6087     7022.4046     7014.8127     7029.9965 -32.991066  43.986325   0.000487   0.000965
1 62583U 25007J   25014.59312297  .00001625  00000-0  26847-3 0  9992 | 2 62583  54.9826 122.2414 0010855 299.4748  60.5169 14.75295511   218 | 2025/01/14-14:14:05  205.5891    0.1001   60.6253   97.6076     7022.3504     7014.7276     7029.9731 -29.332534  46.504718   0.000514   0.000956
1 62583U 25007J   25015.60943027  .00000840  00000-0  15363-3 0  9995 | 2 62583  54.9817 118.0924 0010914 302.8801  57.1147 14.75291167   369 | 2025/01/15-14:37:34  216.6073    0.0999   57.2198   97.6079     7022.3642     7014.6999     7030.0284 -25.890600  48.504269   0.000530   0.000954
1 62583U 25007J   25017.64204353  .00000999  00000-0  17688-3 0  9990 | 2 62583  54.9818 109.7953 0011219 308.8750  51.1248 14.75298525   661 | 2025/01/17-15:24:32  238.6436    0.1000   51.2250   97.6074     7022.3408     7014.4624     7030.2192 -18.620177  51.732846   0.000583   0.000958
1 62583U 25007J   25018.68094900  .00000201  00000-0  60056-4 0  9994 | 2 62583  54.9829 105.5530 0010708 307.9380 172.1423 14.75297243   811 | 2025/01/18-16:20:33  137.8354  120.0971  172.1591   97.6074     7022.3449     7014.8253     7029.8644 -14.742545  52.969582   0.000637   0.000861
1 62583U 25007J   25021.70743901  .00001278  00000-0  21902-3 0  9994 | 2 62583  54.9821  93.2007 0010390 321.9393  38.0871 14.75043653  1263 | 2025/01/21-16:58:42  282.7610    0.0999   38.1606   97.6242     7023.1497     7015.8527     7030.4468  -3.069854  54.896332   0.000594   0.000853
1 62583U 25007J   25024.41938582  .00002610  00000-0  42882-3 0  9997 | 2 62583  54.9845  82.1587 0007839 319.8460  40.1959 14.73596918  1664 | 2025/01/24-10:03:54  192.7614    0.0999   40.2539   97.7201     7027.7457     7022.2367     7033.2548   7.501518  54.470382   0.000583   0.000525
1 62583U 25007J   25025.50475284  .00002405  00000-0  39827-3 0  9990 | 2 62583  54.9817  77.7293 0008949 323.4860  36.5527 14.73520112  1826 | 2025/01/25-12:06:50  228.9959    0.0998   36.6138   97.7252     7027.9899     7021.7006     7034.2793  11.685300  53.725609   0.000673   0.000590
1 62583U 25007J   25026.59011753  .00003180  00000-0  51641-3 0  9996 | 2 62583  54.9817  73.3111 0009097 326.5531  33.4892 14.73527959  1985 | 2025/01/26-14:09:46  265.2116    0.0999   33.5468   97.7246     7027.9650     7021.5716     7034.3583  15.789367  52.665769   0.000698   0.000583
1 62583U 25007J   25027.87898124  .00003182  00000-0  51654-3 0  9999 | 2 62583  54.9816  68.0641 0009205 329.9226  30.1243 14.73536911  2176 | 2025/01/27-21:05:43   15.7153    0.0999   30.1773   97.7241     7027.9365     7021.4673     7034.4057  20.539425  51.001062   0.000725   0.000567
1 62583U 25007J   25028.89649974  .00003449  00000-0  55719-3 0  9991 | 2 62583  54.9815  63.9219 0009342 332.7063  27.3444 14.73544472  2322 | 2025/01/28-21:30:57   27.1633    0.0999   27.3936   97.7236     7027.9125     7021.3470     7034.4779  24.169641  49.384145   0.000750   0.000557
1 62583U 25007J   25029.91401310  .00003178  00000-0  51579-3 0  9994 | 2 62583  54.9814  59.7794 0009433 335.3725  24.6823 14.73551178  2475 | 2025/01/29-21:56:10   38.6094    0.1000   24.7275   97.7231     7027.8911     7021.2617     7034.5205  27.673824  47.509092   0.000771   0.000543
1 62583U 25007J   25031.13502329  .00002901  00000-0  47346-3 0  9993 | 2 62583  54.9816  54.8082 0009540 338.4769  21.5828 14.73558641  2657 | 2025/01/31-03:14:26  124.3429    0.1000   21.6231   97.7226     7027.8674     7021.1628     7034.5720  31.686741  44.932469   0.000797   0.000524
1 62583U 25007J   25032.42369333  .00003430  00000-0  54786-3 0  9996 | 2 62583  54.9816  49.5596 0009994 339.5052  20.5544 14.74057279  2845 | 2025/02/01-10:10:07  234.7829    0.0999   20.5947   97.6896     7026.2824     7019.2603     7033.3045  35.664184  41.845458   0.000874   0.000486
1 62583U 25007J   25033.50842578  .00004014  00000-0  62730-3 0  9990 | 2 62583  54.9811  45.1366 0010429 340.8321  19.2284 14.74645202  3000 | 2025/02/02-12:12:07  270.7779    0.0999   19.2678   97.6506     7024.4148     7017.0890     7031.7405  38.784710  38.970087   0.000938   0.000457
1 62583U 25007J   25034.59294382  .00003380  00000-0  53267-3 0  9994 | 2 62583  54.9820  40.7151 0011103 348.3537  11.7203 14.74683051  3164 | 2025/02/03-14:13:50  306.6813    0.0999   11.7462   97.6481     7024.2946     7016.4955     7032.0936  41.674292  35.864659   0.000970   0.000539
1 62583U 25007J   25035.81301596  .00003406  00000-0  53642-3 0  9992 | 2 62583  54.9823  35.7392 0011251 351.3928   8.6877 14.74692291  3348 | 2025/02/04-19:30:44   32.0793    0.1000    8.7072   97.6475     7024.2652     7016.3622     7032.1682  44.628258  32.114979   0.001001   0.000513
1 62583U 25007J   25036.82973807  .00003432  00000-0  54008-3 0  9990 | 2 62583  54.9824  31.5928 0011368 353.8778   6.2080 14.74699253  3498 | 2025/02/05-19:54:49   43.2425    0.0999    6.2221   97.6470     7024.2431     7016.2580     7032.2283  46.833611  28.804118   0.001026   0.000489
1 62583U 25007J   25037.84645542  .00003342  00000-0  52675-3 0  9993 | 2 62583  54.9825  27.4462 0011468 356.2433   3.8478 14.74705758  3641 | 2025/02/06-20:18:53   54.4041    0.0999    3.8566   97.6466     7024.2225     7016.1671     7032.2778  48.793891  25.342287   0.001050   0.000461
1 62583U 25007J   25038.86316847  .00003028  00000-0  48015-3 0  9993 | 2 62583  54.9825  23.2997 0011607 358.7256   1.3712 14.74711347  3794 | 2025/02/07-20:42:57   65.5637    0.1000    1.3744   97.6462     7024.2047     7016.0517     7032.3577  50.498592  21.747816   0.001076   0.000435
1 62583U 25007J   25039.94765747  .00003088  00000-0  48891-3 0  9998 | 2 62583  54.9826  18.8766 0011703   1.2207 358.8819 14.74718301  3955 | 2025/02/08-22:44:37  101.4660    0.1000  358.8793   97.6458     7024.1826     7015.9622     7032.4030  52.025502  17.788576   0.001099   0.000402
1 62583U 25007J   25041.23548108  .00003728  00000-0  58367-3 0  9993 | 2 62583  54.9827  13.6242 0011836   4.1882 355.9214 14.74728785  4142 | 2025/02/10-05:39:05  211.5972    0.0999  355.9117   97.6451     7024.1493     7015.8356     7032.4631  53.435575  12.951319   0.001127   0.000362
1 62583U 25007J   25042.38773775  .00003557  00000-0  55822-3 0  9993 | 2 62583  54.9828   8.9245 0011978   6.9031 353.2131 14.74735837  4310 | 2025/02/11-09:18:20  272.2385    0.1000  353.1969   97.6446     7024.1269     7015.7134     7032.5404  54.317157   8.529637   0.001152   0.000327
1 62583U 25007J   25043.40442938  .00003323  00000-0  52344-3 0  9998 | 2 62583  54.9830   4.7778 0012083   9.1940 350.9279 14.74742602  4461 | 2025/02/12-09:42:22  283.3906    0.1000  350.9060   97.6442     7024.1055     7015.6182     7032.5927  54.791945   4.579629   0.001173   0.000292
1 62583U 25007J   25044.42091138  .00003192  00000-0  49901-3 0  9992 | 2 62583  54.9832   0.6301 0013174   8.8817 351.2413 14.75171479  4611 | 2025/02/13-10:06:06  294.4726    0.1000  351.2183   97.6158     7022.7440     7013.4922     7031.9957  54.979875   0.604656   0.001299   0.000218
1 62583U 25007J   25046.45324161  .00004312  00000-0  65675-3 0  9993 | 2 62583  54.9834 352.3316 0014667  13.1725 346.9655 14.75588571  4918 | 2025/02/15-10:52:40  316.3981    0.1000  346.9275   97.5882     7021.4206     7011.1222     7031.7189  54.491680  -7.336964   0.001460   0.000141
1 62583U 25007J   25047.53708457  .00004170  00000-0  63603-3 0  9998 | 2 62583  54.9834 347.9053 0014754  15.6772 344.4682 14.75598101  5073 | 2025/02/16-12:53:24  352.0688    0.1000  344.4228   97.5875     7021.3903     7011.0310     7031.7497  53.762913 -11.520568   0.001473   0.000092
1 62583U 25007J   25048.55317973  .00004630  00000-0  70258-3 0  9995 | 2 62583  54.9832 343.7556 0014836  17.9680 342.1841 14.75609178  5223 | 2025/02/17-13:16:34    3.0075    0.1000  342.1320   97.5868     7021.3552     7010.9383     7031.7721  52.788117 -15.380735   0.001483   0.000045
1 62583U 25007J   25049.56926764  .00004397  00000-0  66853-3 0  9997 | 2 62583  54.9831 339.6059 0014937  20.1786 339.9801 14.75619154  5370 | 2025/02/18-13:39:44   13.9438    0.1000  339.9214   97.5862     7021.3235     7010.8358     7031.8113  51.536643 -19.160265   0.001494  -0.000006
1 62583U 25007J   25050.58534785  .00004852  00000-0  73427-3 0  9990 | 2 62583  54.9830 335.4559 0015035  22.3917 337.7736 14.75630985  5523 | 2025/02/19-14:02:54   24.8776    0.1000  337.7083   97.5854     7021.2860     7010.7295     7031.8425  50.014836 -22.839581   0.001502  -0.000056
1 62583U 25007J   25052.14346597  .00005169  00000-0  78504-3 0  9999 | 2 62583  54.9829 329.0933 0015246  29.5935 330.5924 14.75360647  5759 | 2025/02/21-03:26:35  233.6778    0.1000  330.5065   97.6033     7022.1437     7011.4377     7032.8496  47.175595 -28.241504   0.001524  -0.000035
1 62583U 25007J   25053.15972554  .00003575  00000-0  55256-3 0  9997 | 2 62583  54.9828 324.9445 0015302  31.7784 328.4136 14.75368768  5900 | 2025/02/22-03:50:00  244.6757    0.1000  328.3216   97.6027     7022.1179     7011.3727     7032.8632  45.008703 -31.580451   0.001528  -0.000087
1 62583U 25007J   25054.17597855  .00004347  00000-0  66495-3 0  9992 | 2 62583  54.9827 320.7957 0015373  33.9128 326.2852 14.75379661  6057 | 2025/02/23-04:13:24  255.6712    0.1001  326.1873   97.6020     7022.0833     7011.2883     7032.8784  42.605932 -34.753875   0.001531  -0.000142
1 62583U 25007J   25055.19222523  .00004652  00000-0  70916-3 0  9994 | 2 62583  54.9827 316.6467 0015465  36.1041 324.1000 14.75389708  6200 | 2025/02/24-04:36:48  266.6646    0.1000  323.9959   97.6013     7022.0515     7011.1919     7032.9111  39.979815 -37.745353   0.001534  -0.000195
1 62583U 25007J   25056.34396296  .00004952  00000-0  75277-3 0  9999 | 2 62583  54.9825 311.9443 0015552  38.5215 321.6892 14.75401383  6379 | 2025/02/25-08:15:18  327.1212    0.1001  321.5786   97.6006     7022.0144     7011.0938     7032.9351  36.750734 -40.895707   0.001534  -0.000258
1 62583U 25007J   25057.76668570  .00004432  00000-0  67673-3 0  9997 | 2 62583  54.9822 306.1355 0015675  41.4041 318.8143 14.75414380  6581 | 2025/02/26-18:24:01  126.5048    0.0999  318.6958   97.5997     7021.9732     7010.9662     7032.9801  32.422831 -44.404981   0.001531  -0.000338
1 62583U 25007J   25058.78290836  .00004416  00000-0  67424-3 0  9992 | 2 62583  54.9819 301.9863 0015747  43.5200 316.7039 14.75423798  6735 | 2025/02/27-18:47:23  137.4902    0.1000  316.5800   97.5991     7021.9433     7010.8858     7033.0008  29.124818 -46.634261   0.001525  -0.000394
1 62583U 25007J   25059.79912488  .00003656  00000-0  56341-3 0  9999 | 2 62583  54.9815 297.8369 0015813  45.6002 314.6289 14.75431303  6883 | 2025/02/28-19:10:44  148.4740    0.1000  314.4998   97.5986     7021.9195     7010.8157     7033.0233  25.673954 -48.619064   0.001516  -0.000451
1 62583U 25007J   25060.81533615  .00002944  00000-0  45975-3 0  9995 | 2 62583  54.9812 293.6875 0015879  47.6632 312.5709 14.75437942  7036 | 2025/03/01-19:34:05  159.4561    0.0999  312.4367   97.5981     7021.8984     7010.7484     7033.0485  22.088587 -50.349048   0.001505  -0.000508
1 62583U 25007J   25061.83154413  .00002296  00000-0  36529-3 0  9998 | 2 62583  54.9811 289.5378 0015951  49.8414 310.3979 14.75442165  7184 | 2025/03/02-19:57:25  170.4371    0.0999  310.2585   97.5979     7021.8850     7010.6844     7033.0856  18.387257 -51.815347   0.001493  -0.000562
1 62583U 25007J   25062.84774895  .00002133  00000-0  34152-3 0  9992 | 2 62583  54.9809 285.3883 0016007  51.8154 308.4284 14.75447032  7335 | 2025/03/03-20:20:45  181.4175    0.0999  308.2845   97.5975     7021.8696     7010.6297     7033.1095  14.589690 -53.009813   0.001476  -0.000620
1 62583U 25007J   25063.86395184  .00002136  00000-0  34199-3 0  9999 | 2 62583  54.9812 281.2388 0016037  53.9057 306.3425 14.75450821  7482 | 2025/03/04-20:44:05  192.3972    0.1000  306.1943   97.5973     7021.8576     7010.5966     7033.1185  10.715759 -53.926847   0.001455  -0.000674
1 62583U 25007J   25064.88015083  .00001761  00000-0  28727-3 0  9992 | 2 62583  54.9810 277.0892 0016105  55.8890 304.3635 14.75454088  7632 | 2025/03/05-21:07:25  203.3758    0.1000  304.2110   97.5971     7021.8472     7010.5385     7033.1559   6.785448 -54.560682   0.001435  -0.000732
1 62583U 25007J   25066.30282601  .00001699  00000-0  27821-3 0  9997 | 2 62583  54.9808 271.2798 0016185  58.7587 301.4996 14.75459494  7840 | 2025/03/07-07:16:04    2.7447    0.1000  301.3413   97.5967     7021.8300     7010.4652     7033.1949   1.227989 -54.967085   0.001402  -0.000808
1 62583U 25007J   25067.52224363  .00002551  00000-0  40202-3 0  9999 | 2 62583  54.9805 266.3001 0016250  61.1045 299.1583 14.75479561  8022 | 2025/03/08-12:32:01   87.9121    0.1000  298.9955   97.5954     7021.7664     7010.3560     7033.1768  -3.547923 -54.865906   0.001369  -0.000875
1 62583U 25007J   25068.53842217  .00001789  00000-0  29117-3 0  9999 | 2 62583  54.9807 262.1502 0016250  63.2103 297.0557 14.75483960  8174 | 2025/03/09-12:55:19   98.8847    0.1000  296.8897   97.5951     7021.7524     7010.3421     7033.1628  -7.509080 -54.465504   0.001337  -0.000924
1 62583U 25007J   25069.55459944  .00001678  00000-0  27507-3 0  9991 | 2 62583  54.9807 258.0004 0016290  65.2292 295.0400 14.75486842  8324 | 2025/03/10-13:18:37  109.8567    0.0999  294.8707   97.5949     7021.7433     7010.3049     7033.1817 -11.430755 -53.779320   0.001305  -0.000975
1 62583U 25007J   25070.57077340  .00001730  00000-0  28263-3 0  9990 | 2 62583  54.9807 253.8506 0016318  67.2703 293.0019 14.75490962  8472 | 2025/03/11-13:41:54  120.8277    0.0999  292.8296   97.5946     7021.7302     7010.2722     7033.1883 -15.292493 -52.811145   0.001270  -0.001024
1 62583U 25007J   25071.58694413  .00001901  00000-0  30738-3 0  9998 | 2 62583  54.9800 249.7008 0016379  69.1842 291.0910 14.75495769  8623 | 2025/03/12-14:05:11  131.7976    0.1000  290.9158   97.5943     7021.7150     7010.2141     7033.2158 -19.073802 -51.565400   0.001234  -0.001077
1 62583U 25007J   25072.60311038  .00002455  00000-0  38795-3 0  9997 | 2 62583  54.9801 245.5509 0016411  71.1529 289.1248 14.75502443  8772 | 2025/03/13-14:28:28  142.7664    0.0999  288.9470   97.5939     7021.6938     7010.1705     7033.2171 -22.755422 -50.049997   0.001194  -0.001125
1 62583U 25007J   25073.61927261  .00002926  00000-0  45625-3 0  9993 | 2 62583  54.9801 241.4011 0016443  73.0850 287.1950 14.75509353  8920 | 2025/03/14-14:51:45  153.7339    0.0999  287.0149   97.5934     7021.6719     7010.1261     7033.2176 -26.317599 -48.272097   0.001152  -0.001173
1 62583U 25007J   25074.90640346  .00003432  00000-0  52972-3 0  9998 | 2 62583  54.9805 236.1448 0016464  75.4306 284.8518 14.75519366  9115 | 2025/03/15-21:45:13  263.6236    0.0999  284.6693   97.5928     7021.6401     7010.0797     7033.2005 -30.629414 -45.658454   0.001093  -0.001232
1 62583U 25007J   25075.92255338  .00003649  00000-0  56120-3 0  9993 | 2 62583  54.9807 231.9950 0016480  77.3831 282.9010 14.75527480  9268 | 2025/03/16-22:08:28  274.5872    0.0999  282.7168   97.5922     7021.6144     7010.0427     7033.1860 -33.853280 -43.322429   0.001046  -0.001274
1 62583U 25007J   25077.00643934  .00004233  00000-0  64578-3 0  9993 | 2 62583  54.9809 227.5686 0016492  79.4524 280.8333 14.75538119  9426 | 2025/03/18-00:09:16  310.2793    0.1000  280.6476   97.5915     7021.5806     7010.0006     7033.1606 -37.095997 -40.580615   0.000993  -0.001317
1 62583U 25007J   25078.15805914  .00004784  00000-0  72562-3 0  9991 | 2 62583  54.9810 222.8656 0016509  81.6125 278.6745 14.75550501  9593 | 2025/03/19-03:47:36   10.6992    0.0999  278.4874   97.5907     7021.5413     7009.9495     7033.1332 -40.298405 -37.402526   0.000935  -0.001361
1 62583U 25007J   25079.17418470  .00005481  00000-0  82644-3 0  9998 | 2 62583  54.9810 218.7158 0016507  83.5565 276.7313 14.75563943  9742 | 2025/03/20-04:10:49   21.6549    0.0999  276.5434   97.5898     7021.4987     7009.9083     7033.0891 -42.899363 -34.388298   0.000881  -0.001396
1 62583U 25007J   25080.19030213  .00004860  00000-0  73620-3 0  9991 | 2 62583  54.9809 214.5660 0016465  85.4391 274.8489 14.75574752  9892 | 2025/03/21-04:34:02   32.6083    0.1000  274.6609   97.5891     7021.4644     7009.9035     7033.0252 -45.275297 -31.193699   0.000823  -0.001426
1 62583U 25007J   25081.47737185  .00006804  00000-0  10176-2 0  9991 | 2 62583  54.9807 209.3095 0016491  87.9051 272.3837 14.75593706 10086 | 2025/03/22-11:27:24  142.4777    0.1000  272.1949   97.5878     7021.4043     7009.8253     7032.9833 -47.942517 -26.914539   0.000754  -0.001467
1 62583U 25007J   25082.56120658  .00006466  00000-0  96831-3 0  9990 | 2 62583  54.9806 204.8830 0016460  89.9547 270.3339 14.75609405 10247 | 2025/03/23-13:28:08  178.1532    0.1000  270.1453   97.5868     7021.3545     7009.7973     7032.9116 -49.876690 -23.134004   0.000691  -0.001494
1 62583U 25007J   25083.57729234  .00005774  00000-0  86784-3 0  9994 | 2 62583  54.9807 200.7332 0016432  91.8233 268.4648 14.75621781 10391 | 2025/03/24-13:51:18  189.0959    0.0999  268.2766   97.5860     7021.3152     7009.7778     7032.8526 -51.420098 -19.464093   0.000630  -0.001517
1 62583U 25007J   25084.79658362  .00005494  00000-0  82702-3 0  9997 | 2 62583  54.9809 195.7531 0016414  94.1081 266.1795 14.75636515 10573 | 2025/03/25-19:07:04  274.2232    0.1000  265.9919   97.5850     7021.2685     7009.7438     7032.7932 -52.915848 -14.926903   0.000558  -0.001544
1 62583U 25007J   25086.15133726  .00006124  00000-0  91788-3 0  9996 | 2 62583  54.9813 190.2198 0016387  96.5830 263.7036 14.75654460 10776 | 2025/03/27-03:37:55   48.8041    0.1000  263.5170   97.5838     7021.2115     7009.7059     7032.7172 -54.108986  -9.755049   0.000474  -0.001569
1 62583U 25007J   25087.23512969  .00004800  00000-0  72604-3 0  9991 | 2 62583  54.9815 185.7930 0016342  98.6778 261.6074 14.75664707 10938 | 2025/03/28-05:38:35   84.4658    0.1000  261.4222   97.5831     7021.1790     7009.7050     7032.6531 -54.700712  -5.549544   0.000408  -0.001582
1 62583U 25007J   25088.25117798  .00004134  00000-0  62957-3 0  9995 | 2 62583  54.9814 181.6430 0016306 100.6669 259.6168 14.75673875 11084 | 2025/03/29-06:01:41   95.3961    0.1000  259.4331   97.5825     7021.1500     7009.7013     7032.5986 -54.958796  -1.576417   0.000348  -0.001593
1 62583U 25007J   25089.53816506  .00003401  00000-0  52328-3 0  9997 | 2 62583  54.9812 176.3861 0016246 103.0704 257.2110 14.75682941 11277 | 2025/03/30-12:54:57  205.2392    0.0999  257.0295   97.5819     7021.1212     7009.7147     7032.5277 -54.871868   3.465610   0.000267  -0.001603
1 62583U 25007J   25090.55420199  .00003281  00000-0  50580-3 0  9994 | 2 62583  54.9809 172.2359 0016212 105.0024 255.2771 14.75689968 11424 | 2025/03/31-13:18:03  216.1660    0.0999  255.0975   97.5815     7021.0989     7009.7163     7032.4815 -54.476873   7.427632   0.000204  -0.001608
1 62583U 25007J   25091.57023420  .00003075  00000-0  47591-3 0  9992 | 2 62583  54.9808 168.0857 0016165 106.9646 253.3126 14.75696416 11571 | 2025/04/01-13:41:08  227.0916    0.0999  253.1353   97.5810     7021.0785     7009.7289     7032.4280 -53.796376  11.350698   0.000142  -0.001610
1 62583U 25007J   25092.65399641  .00003309  00000-0  50971-3 0  9999 | 2 62583  54.9804 163.6586 0016112 108.9753 251.2994 14.75704490 11730 | 2025/04/02-15:41:45  262.7438    0.0999  251.1246   97.5805     7021.0529     7009.7405     7032.3652 -52.759315  15.469294   0.000074  -0.001609
1 62583U 25007J   25093.67001800  .00003489  00000-0  53569-3 0  9994 | 2 62583  54.9803 159.5081 0016085 110.9377 249.3345 14.75712305 11885 | 2025/04/03-16:04:49  273.6660    0.0999  249.1622   97.5800     7021.0281     7009.7347     7032.3214 -51.501239  19.247226   0.000013  -0.001608
1 62583U 25007J   25094.68603433  .00003171  00000-0  48963-3 0  9996 | 2 62583  54.9803 155.3578 0016006 112.9191 247.3500 14.75719217 12037 | 2025/04/04-16:27:53  284.5867    0.1000  247.1809   97.5795     7021.0061     7009.7683     7032.2440 -49.973203  22.924056  -0.000048  -0.001600
1 62583U 25007J   25095.70204481  .00003187  00000-0  49181-3 0  9990 | 2 62583  54.9803 151.2074 0015958 114.8734 245.3927 14.75727263 12189 | 2025/04/05-16:50:56  295.5053    0.1000  245.2266   97.5790     7020.9806     7009.7765     7032.1847 -48.183025  26.480739  -0.000109  -0.001592
1 62583U 25007J   25096.85351782  .00002773  00000-0  43183-3 0  9990 | 2 62583  54.9804 146.5037 0015874 117.0802 243.1819 14.75734636 12351 | 2025/04/06-20:29:03  355.8782    0.0999  243.0197   97.5785     7020.9572     7009.8122     7032.1023 -45.849336  30.342755  -0.000177  -0.001577
1 62583U 25007J   25098.20818603  .00002288  00000-0  36167-3 0  9996 | 2 62583  54.9803 140.9697 0015806 119.7612 240.4962 14.75741197 12554 | 2025/04/08-04:59:47  130.4327    0.0999  240.3387   97.5781     7020.9364     7009.8391     7032.0337 -42.709414  34.622815  -0.000255  -0.001560
1 62583U 25007J   25099.22418301  .00002298  00000-0  36312-3 0  9993 | 2 62583  54.9802 136.8191 0015747 121.7377 238.5160 14.75746591 12709 | 2025/04/09-05:22:49  141.3474    0.1000  238.3623   97.5777     7020.9193     7009.8635     7031.9752 -40.091385  37.623174  -0.000312  -0.001543
1 62583U 25007J   25100.57884092  .00002265  00000-0  35827-3 0  9992 | 2 62583  54.9799 131.2848 0015654 124.3836 235.8646 14.75752821 12902 | 2025/04/10-13:53:31  275.8992    0.0999  235.7163   97.5773     7020.8996     7009.9090     7031.8901 -36.275867  41.314052  -0.000387  -0.001517
1 62583U 25007J   25101.86576080  .00002005  00000-0  32069-3 0  9997 | 2 62583  54.9798 126.0271 0015568 126.9503 233.2925 14.75757794 13093 | 2025/04/11-20:46:41   25.7219    0.0999  233.1496   97.5770     7020.8838     7009.9537     7031.8139 -32.337350  44.464302  -0.000456  -0.001489
1 62583U 25007J   25102.88174675  .00001898  00000-0  30510-3 0  9992 | 2 62583  54.9797 121.8765 0015486 128.9264 231.3118 14.75761897 13247 | 2025/04/12-21:09:42   36.6335    0.0999  231.1735   97.5767     7020.8708     7009.9983     7031.7433 -29.034234  46.688121  -0.000509  -0.001462
1 62583U 25007J   25103.96546241  .00001594  00000-0  26112-3 0  9990 | 2 62583  54.9803 117.4491 0015419 131.2268 229.0063 14.75764875 13409 | 2025/04/13-23:10:15   72.2718    0.0999  228.8731   97.5765     7020.8613     7010.0359     7031.6868 -25.343743  48.790656  -0.000561  -0.001436
1 62583U 25007J   25105.11690745  .00001570  00000-0  25764-3 0  9994 | 2 62583  54.9803 112.7449 0015335 133.4712 226.7566 14.75769210 13573 | 2025/04/15-02:48:20  132.6364    0.1000  226.6288   97.5762     7020.8476     7010.0811     7031.6140 -21.256971  50.704778  -0.000618  -0.001403
1 62583U 25007J   25106.20061732  .00001675  00000-0  27280-3 0  9994 | 2 62583  54.9804 108.3174 0015254 135.6292 224.5933 14.75773760 13734 | 2025/04/16-04:48:53  168.2729    0.0999  224.4707   97.5759     7020.8331     7010.1236     7031.5427 -17.279282  52.194547  -0.000670  -0.001370
1 62583U 25007J   25107.21659345  .00001625  00000-0  26554-3 0  9997 | 2 62583  54.9801 104.1665 0015154 137.4694 222.7482 14.75776416 13881 | 2025/04/17-05:11:53  179.1815    0.0999  222.6305   97.5758     7020.8247     7010.1854     7031.4641 -13.455858  53.308079  -0.000720  -0.001333
1 62583U 25007J   25108.23256713  .00001303  00000-0  21904-3 0  9999 | 2 62583  54.9805 100.0159 0015094 139.7162 220.4959 14.75778517 14032 | 2025/04/18-05:34:53  190.0895    0.0999  220.3837   97.5756     7020.8181     7010.2208     7031.4153  -9.562289  54.142571  -0.000761  -0.001304
1 62583U 25007J   25109.51946311  .00001484  00000-0  24518-3 0  9995 | 2 62583  54.9806  94.7581 0014983 142.3234 217.8818 14.75783659 14225 | 2025/04/19-12:28:01  299.9052    0.0999  217.7765   97.5753     7020.8018     7010.2825     7031.3210  -4.560591  54.791125  -0.000814  -0.001258
1 62583U 25007J   25110.80635497  .00001622  00000-0  26515-3 0  9992 | 2 62583  54.9809  89.5004 0014882 144.9716 215.2265 14.75788743 14419 | 2025/04/20-19:21:09   49.7195    0.0999  215.1283   97.5749     7020.7856     7010.3373     7031.2340   0.479409  54.978810  -0.000865  -0.001211
1 62583U 25007J   25111.89004901  .00002241  00000-0  35455-3 0  9993 | 2 62583  54.9807  85.0730 0014776 147.0986 213.0936 14.75795380 14572 | 2025/04/21-21:21:40   85.3508    0.0999  213.0013   97.5745     7020.7646     7010.3907     7031.1385   4.722096  54.777543  -0.000906  -0.001167
1 62583U 25007J   25112.90600883  .00002231  00000-0  35306-3 0  9991 | 2 62583  54.9808  80.9222 0014684 149.1702 211.0163 14.75799973 14729 | 2025/04/22-21:44:39   96.2542    0.0999  210.9297   97.5742     7020.7500     7010.4407     7031.0593   8.674622  54.292166  -0.000942  -0.001126
1 62583U 25007J   25113.92196501  .00002264  00000-0  35770-3 0  9992 | 2 62583  54.9810  76.7713 0014598 151.2767 208.9040 14.75805063 14872 | 2025/04/23-22:07:37  107.1565    0.1000  208.8233   97.5739     7020.7339     7010.4850     7030.9827  12.581770  53.522046  -0.000976  -0.001086
1 62583U 25007J   25115.20883665  .00002487  00000-0  38989-3 0  9991 | 2 62583  54.9813  71.5135 0014503 153.9270 206.2463 14.75812801 15060 | 2025/04/25-05:00:43  216.9639    0.0999  206.1729   97.5734     7020.7093     7010.5272     7030.8915  17.433537  52.144177  -0.001018  -0.001033
1 62583U 25007J   25116.36024240  .00002828  00000-0  43901-3 0  9994 | 2 62583  54.9816  66.8093 0014362 156.2780 203.8884 14.75820531 15236 | 2025/04/26-08:38:44  277.3160    0.0999  203.8219   97.5728     7020.6848     7010.6017     7030.7679  21.651354  50.539047  -0.001049  -0.000981
1 62583U 25007J   25117.51164187  .00003281  00000-0  50443-3 0  9990 | 2 62583  54.9819  62.1049 0014247 158.6884 201.4712 14.75829224 15403 | 2025/04/27-12:16:45  337.6658    0.0999  201.4115   97.5723     7020.6572     7010.6549     7030.6596  25.723515  48.593314  -0.001079  -0.000931
1 62583U 25007J   25118.86622157  .00003081  00000-0  47546-3 0  9993 | 2 62583  54.9824  56.5707 0014147 161.5623 198.5892 14.75838081 15608 | 2025/04/28-20:47:21  112.1920    0.0999  198.5376   97.5717     7020.6292     7010.6971     7030.5612  30.290222  45.886455  -0.001113  -0.000874
1 62583U 25007J   25121.77854095  .00002888  00000-0  44739-3 0  9990 | 2 62583  54.9829  44.6723 0013880 167.8539 192.2798 14.75856435 16034 | 2025/05/01-18:41:05   95.4137    0.0999  192.2460   97.5705     7020.5709     7010.8264     7030.3155  39.100509  38.655782  -0.001170  -0.000746
1 62583U 25007J   25122.79445690  .00003085  00000-0  47571-3 0  9997 | 2 62583  54.9830  40.5216 0013787 170.0806 190.0468 14.75864005 16185 | 2025/05/02-19:04:01  106.3017    0.0999  190.0193   97.5700     7020.5469     7010.8677     7030.2262  41.795936  35.724361  -0.001187  -0.000702
1 62583U 25007J   25123.81036813  .00002852  00000-0  44211-3 0  9993 | 2 62583  54.9829  36.3707 0013676 172.3304 187.7907 14.75870730 16336 | 2025/05/03-19:26:55  117.1883    0.0999  187.7695   97.5695     7020.5256     7010.9243     7030.1269  44.272075  32.605256  -0.001200  -0.000657
1 62583U 25007J   25124.82627532  .00002645  00000-0  41214-3 0  9999 | 2 62583  54.9830  32.2197 0013568 174.6455 185.4692 14.75876348 16481 | 2025/05/04-19:49:50  128.0736    0.0999  185.4544   97.5691     7020.5078     7010.9824     7030.0332  46.516162  29.315132  -0.001210  -0.000613
1 62583U 25007J   25125.84217860  .00002146  00000-0  34011-3 0  9994 | 2 62583  54.9831  28.0687 0013454 176.8870 183.2215 14.75881190 16633 | 2025/05/05-20:12:44  138.9573    0.0999  183.2129   97.5688     7020.4924     7011.0471     7029.9378  48.516210  25.871193  -0.001220  -0.000568
1 62583U 25007J   25126.85807888  .00002060  00000-0  32778-3 0  9994 | 2 62583  54.9832  23.9179 0013361 179.1523 180.9502 14.75885996 16789 | 2025/05/06-20:35:38  149.8395    0.1000  180.9477   97.5685     7020.4772     7011.0971     7029.8573  50.261646  22.291684  -0.001229  -0.000524
1 62583U 25007J   25127.87397601  .00001831  00000-0  29473-3 0  9997 | 2 62583  54.9833  19.7671 0013262 181.4979 178.5983 14.75890061 16933 | 2025/05/07-20:58:31  160.7209    0.0999  178.6020   97.5682     7020.4643     7011.1538     7029.7749  51.743416  18.595220  -0.001236  -0.000481
1 62583U 25007J   25128.88987022  .00002025  00000-0  32267-3 0  9992 | 2 62583  54.9833  15.6161 0013172 183.8216 176.2685 14.75895090 17080 | 2025/05/08-21:21:24  171.6013    0.0999  176.2783   97.5679     7020.4484     7011.2010     7029.6957  52.953699  14.800980  -0.001242  -0.000438
1 62583U 25007J   25129.90576194  .00001807  00000-0  29117-3 0  9997 | 2 62583  54.9834  11.4652 0013106 186.2392 173.8446 14.75898183 17230 | 2025/05/09-21:44:17  182.4808    0.0999  173.8607   97.5677     7020.4386     7011.2376     7029.6395  53.886240  10.929200  -0.001249  -0.000399
1 62583U 25007J   25130.92165037  .00001720  00000-0  27856-3 0  9993 | 2 62583  54.9832   7.3146 0012948 188.4956 171.5827 14.75902542 17382 | 2025/05/10-22:07:10  193.3580    0.1000  171.6044   97.5674     7020.4247     7011.3347     7029.5148  54.535748   7.000316  -0.001246  -0.000353
1 62583U 25007J   25132.20843862  .00001780  00000-0  28717-3 0  9998 | 2 62583  54.9833   2.0565 0012849 191.6305 168.4400 14.75907874 17570 | 2025/05/12-05:00:09  303.1360    0.1000  168.4695   97.5671     7020.4078     7011.3873     7029.4283  54.947887   1.973075  -0.001248  -0.000304
1 62583U 25007J   25133.22432229  .00001575  00000-0  25768-3 0  9997 | 2 62583  54.9833 357.9056 0012747 194.0384 166.0263 14.75910605 17722 | 2025/05/13-05:23:01  314.0121    0.0999  166.0615   97.5669     7020.3992     7011.4503     7029.3481  54.946570  -2.009422  -0.001247  -0.000264
1 62583U 25007J   25134.30792786  .00001535  00000-0  25184-3 0  9992 | 2 62583  54.9832 353.4780 0012642 196.6386 163.4200 14.75914547 17888 | 2025/05/14-07:23:24  349.6119    0.0999  163.4613   97.5666     7020.3867     7011.5115     7029.2618  54.627366  -6.245251  -0.001245  -0.000222
1 62583U 25007J   25135.59470684  .00001384  00000-0  23007-3 0  9998 | 2 62583  54.9831 348.2200 0012523 199.7527 160.2990 14.75918180 18075 | 2025/05/15-14:16:22   99.3855    0.1000  160.3473   97.5664     7020.3751     7011.5835     7029.1668  53.825085 -11.225039  -0.001240  -0.000174
1 62583U 25007J   25136.81375731  .00001340  00000-0  22369-3 0  9993 | 2 62583  54.9830 343.2386 0012399 202.8028 157.2423 14.75921973 18258 | 2025/05/16-19:31:48  184.4333    0.1000  157.2972   97.5661     7020.3631     7011.6586     7029.0677  52.646992 -15.856371  -0.001233  -0.000130
1 62583U 25007J   25137.82962929  .00001721  00000-0  27857-3 0  9996 | 2 62583  54.9829 339.0875 0012301 205.2978 154.7420 14.75927605 18400 | 2025/05/17-19:54:39  195.3049    0.0999  154.8021   97.5658     7020.3453     7011.7095     7028.9810  51.360991 -19.625695  -0.001226  -0.000094
1 62583U 25007J   25138.84549996  .00001570  00000-0  25681-3 0  9999 | 2 62583  54.9827 334.9362 0012228 207.8059 152.2288 14.75930124 18550 | 2025/05/18-20:17:31  206.1760    0.0999  152.2940   97.5656     7020.3373     7011.7528     7028.9217  49.805344 -23.292167  -0.001221  -0.000058
1 62583U 25007J   25140.13226642  .00001365  00000-0  22718-3 0  9994 | 2 62583  54.9826 329.6779 0012113 211.0571 148.9714 14.75933026 18742 | 2025/05/20-03:10:27  315.9447    0.1000  149.0429   97.5654     7020.3281     7011.8243     7028.8318  47.461029 -27.758549  -0.001211  -0.000016
1 62583U 25007J   25141.21585646  .00001218  00000-0  20599-3 0  9998 | 2 62583  54.9826 325.2498 0012013 213.8560 146.1674 14.75935699 18900 | 2025/05/21-05:10:49  351.5384    0.0999  146.2439   97.5652     7020.3196     7011.8861     7028.7531  45.176176 -31.340062  -0.001201   0.000019
1 62583U 25007J   25142.50261678  .00001236  00000-0  20865-3 0  9993 | 2 62583  54.9825 319.9916 0011904 217.1937 142.8239 14.75939690 19093 | 2025/05/22-12:03:46  101.3044    0.0999  142.9062   97.5650     7020.3069     7011.9500     7028.6639  42.113857 -35.348244  -0.001189   0.000058
1 62583U 25007J   25143.51847790  .00001148  00000-0  19589-3 0  9993 | 2 62583  54.9825 315.8404 0011845 219.8349 140.1782 14.75942189 19248 | 2025/05/23-12:26:36  112.1714    0.0999  140.2650   97.5648     7020.2990     7011.9835     7028.6146  39.444556 -38.304077  -0.001181   0.000089
1 62583U 25007J   25144.53433720  .00001168  00000-0  19883-3 0  9999 | 2 62583  54.9825 311.6892 0011767 222.5170 137.4919 14.75945183 19393 | 2025/05/24-12:49:26  123.0374    0.0999  137.5829   97.5646     7020.2895     7012.0287     7028.5503  36.568289 -41.058928  -0.001171   0.000119
1 62583U 25007J   25145.55019437  .00001210  00000-0  20490-3 0  9991 | 2 62583  54.9824 307.5380 0011705 225.2044 134.8004 14.75948335 19545 | 2025/05/25-13:12:16  133.9026    0.0999  134.8955   97.5644     7020.2795     7012.0623     7028.4968  33.500087 -43.598262  -0.001161   0.000148
1 62583U 25007J   25147.58190317  .00001197  00000-0  20295-3 0  9990 | 2 62583  54.9823 299.2355 0011568 230.7347 129.2627 14.75954007 19842 | 2025/05/27-13:57:56  155.6302    0.0999  129.3652   97.5640     7020.2615     7012.1405     7028.3826  26.853378 -47.978635  -0.001139   0.000201
1 62583U 25007J   25148.59775390  .00001374  00000-0  22840-3 0  9997 | 2 62583  54.9823 295.0842 0011491 233.5394 126.4547 14.75957976 19999 | 2025/05/28-14:20:45  166.4923    0.0999  126.5605   97.5638     7020.2489     7012.1820     7028.3159  23.309729 -49.796685  -0.001127   0.000227
1 62583U 25007J   25149.68132501  .00001602  00000-0  26117-3 0  9994 | 2 62583  54.9823 290.6562 0011436 236.4908 123.4999 14.75962731 20154 | 2025/05/29-16:21:06  202.0773    0.0999  123.6091   97.5634     7020.2339     7012.2055     7028.2622  19.395536 -51.447706  -0.001115   0.000254
1 62583U 25007J   25150.83261649  .00001519  00000-0  24932-3 0  9999 | 2 62583  54.9822 285.9513 0011380 239.6962 120.2912 14.75966228 20323 | 2025/05/30-19:58:58  262.3852    0.0999  120.4037   97.5632     7020.2228     7012.2338     7028.2118  15.110220 -52.865145  -0.001102   0.000282
1 62583U 25007J   25151.84845910  .00001558  00000-0  25481-3 0  9993 | 2 62583  54.9822 281.8000 0011334 242.5217 117.4631 14.75970014 20474 | 2025/05/31-20:21:46  273.2437    0.1000  117.5783   97.5630     7020.2108     7012.2541     7028.1675  11.243643 -53.820283  -0.001091   0.000306
1 62583U 25007J   25152.86429777  .00002162  00000-0  34179-3 0  9991 | 2 62583  54.9819 277.6489 0011245 245.5321 114.4507 14.75976918 20629 | 2025/06/01-20:44:35  284.1000    0.1000  114.5679   97.5625     7020.1889     7012.2947     7028.0831   7.318218 -54.492688  -0.001076   0.000325
1 62583U 25007J   25154.15102072  .00002563  00000-0  39949-3 0  9996 | 2 62583  54.9817 272.3904 0011224 249.1088 110.8710 14.75984794 20816 | 2025/06/03-03:37:28   33.8500    0.0999  110.9911   97.5620     7020.1639     7012.2845     7028.0433   2.293190 -54.933857  -0.001064   0.000356
1 62583U 25007J   25155.16685137  .00001635  00000-0  26590-3 0  9993 | 2 62583  54.9816 268.2391 0011205 252.0257 107.9522 14.75987138 20968 | 2025/06/04-04:00:15   44.7035    0.1000  108.0743   97.5618     7020.1565     7012.2904     7028.0226  -1.689511 -54.955636  -0.001055   0.000378
1 62583U 25007J   25156.25040034  .00001552  00000-0  25388-3 0  9997 | 2 62583  54.9816 263.8110 0011194 255.1088 104.8672 14.75992168 21121 | 2025/06/05-06:00:34   80.2791    0.0999  104.9911   97.5615     7020.1405     7012.2822     7027.9989  -5.927483 -54.661150  -0.001044   0.000403
1 62583U 25007J   25157.40167006  .00001359  00000-0  22603-3 0  9996 | 2 62583  54.9819 259.1063 0011199 258.2109 101.7635 14.75994137 21293 | 2025/06/06-09:38:24  140.5773    0.1000  101.8891   97.5614     7020.1343     7012.2724     7027.9961 -10.390890 -53.991099  -0.001033   0.000432
1 62583U 25007J   25158.55293601  .00001245  00000-0  20967-3 0  9999 | 2 62583  54.9818 254.4015 0011186 261.5352  98.4380 14.75997918 21468 | 2025/06/07-13:16:13  200.8738    0.1000   98.5648   97.5611     7020.1223     7012.2696     7027.9750 -14.784309 -52.956799  -0.001021   0.000456
1 62583U 25007J   25159.70419977  .00001091  00000-0  18750-3 0  9999 | 2 62583  54.9817 249.6966 0011181 264.9088  95.0636 14.76001000 21631 | 2025/06/08-16:54:02  261.1692    0.1000   95.1912   97.5609     7020.1125     7012.2633     7027.9617 -19.078172 -51.565596  -0.001010   0.000479
1 62583U 25007J   25160.92318224  .00000973  00000-0  17042-3 0  9999 | 2 62583  54.9815 244.7150 0011185 268.4797  91.4921 14.76004058 21813 | 2025/06/09-22:09:22  346.1865    0.0999   91.6202   97.5607     7020.1028     7012.2508     7027.9548 -23.483762 -49.713964  -0.000998   0.000504
1 62583U 25007J   25162.20988420  .00000878  00000-0  15685-3 0  9998 | 2 62583  54.9814 239.4564 0011206 272.1528  87.8189 14.76006849 22007 | 2025/06/11-05:02:13   95.9262    0.1000   87.9472   97.5605     7020.0940     7012.2273     7027.9607 -27.941211 -47.352329  -0.000986   0.000533
1 62583U 25007J   25163.22569968  .00000919  00000-0  16263-3 0  9992 | 2 62583  54.9813 235.3050 0011229 275.0376  84.9342 14.76009581 22150 | 2025/06/12-05:25:00  106.7723    0.1000   85.0624   97.5603     7020.0853     7012.2025     7027.9682 -31.295783 -45.205279  -0.000976   0.000556
1 62583U 25007J   25164.51239483  .00001231  00000-0  20753-3 0  9998 | 2 62583  54.9812 230.0465 0011249 278.6235  81.3490 14.76015081 22344 | 2025/06/13-12:17:50  216.5086    0.1000   81.4765   97.5600     7020.0679     7012.1710     7027.9648 -35.307040 -42.146711  -0.000961   0.000585
1 62583U 25007J   25165.52820705  .00000960  00000-0  16852-3 0  9996 | 2 62583  54.9811 225.8951 0011273 281.5562  78.4172 14.76015894 22490 | 2025/06/14-12:40:37  227.3527    0.1000   78.5438   97.5599     7020.0653     7012.1516     7027.9790 -38.265428 -39.480101  -0.000950   0.000607
1 62583U 25007J   25166.54401674  .00000827  00000-0  14947-3 0  9994 | 2 62583  54.9810 221.7437 0011316 284.4477  75.5267 14.76017784 22648 | 2025/06/15-13:03:23  238.1958    0.1000   75.6523   97.5598     7020.0593     7012.1154     7028.0032 -41.023006 -36.606329  -0.000940   0.000630
1 62583U 25007J   25167.55982496  .00000748  00000-0  13798-3 0  9997 | 2 62583  54.9808 217.5923 0011363 287.3373  72.6383 14.76019861 22798 | 2025/06/16-13:26:08  249.0382    0.0999   72.7626   97.5597     7020.0527     7012.0758     7028.0296 -43.565226 -33.540415  -0.000930   0.000653
1 62583U 25007J   25168.77879320  .00000665  00000-0  12609-3 0  9991 | 2 62583  54.9805 212.6104 0011416 290.8071  69.1705 14.76022196 22979 | 2025/06/17-18:41:27  334.0481    0.0999   69.2928   97.5595     7020.0453     7012.0312     7028.0594 -46.313076 -29.630294  -0.000917   0.000680
1 62583U 25007J   25169.86231942  .00000551  00000-0  10962-3 0  9998 | 2 62583  54.9804 208.1820 0011469 293.8462  66.1336 14.76023724 23132 | 2025/06/18-20:41:44    9.6118    0.1001   66.2539   97.5594     7020.0405     7011.9892     7028.0918 -48.462576 -25.965806  -0.000904   0.000706
1 62583U 25007J   25170.87812460  .00000433  00000-0  92746-4 0  9991 | 2 62583  54.9803 204.0304 0011524 296.6972  63.2847 14.76024742 23284 | 2025/06/19-21:04:29   20.4524    0.0999   63.4027   97.5593     7020.0372     7011.9474     7028.1271 -50.215131 -22.389149  -0.000892   0.000729
1 62583U 25007J   25171.89392910  .00000342  00000-0  79636-4 0  9999 | 2 62583  54.9802 199.8788 0011583 299.5149  60.4696 14.76025591 23434 | 2025/06/20-21:27:15   31.2922    0.1001   60.5852   97.5593     7020.0346     7011.9032     7028.1659 -51.704150 -18.695006  -0.000879   0.000754
1 62583U 25007J   25173.18061418  .00000266  00000-0  68714-4 0  9999 | 2 62583  54.9802 194.6201 0011665 303.0778  56.9101 14.76026640 23625 | 2025/06/22-04:20:05  141.0223    0.1000   57.0222   97.5592     7020.0312     7011.8424     7028.2201 -53.199979 -13.877488  -0.000863   0.000785
1 62583U 25007J   25174.53501880  .00000180  00000-0  56284-4 0  9995 | 2 62583  54.9802 189.0847 0011761 306.8645  53.1276 14.76027430 23822 | 2025/06/23-12:50:25  275.4742    0.1000   53.2355   97.5592     7020.0287     7011.7725     7028.2850 -54.290529  -8.681065  -0.000845   0.000818
1 62583U 25007J   25175.55082166  .00000172  00000-0  55118-4 0  9995 | 2 62583  54.9803 184.9331 0011836 309.5926  50.4027 14.76028224 23972 | 2025/06/24-13:13:10  286.3128    0.0999   50.5073   97.5591     7020.0262     7011.7173     7028.3351 -54.776641  -4.727894  -0.000830   0.000844
1 62583U 25007J   25176.56683499  .00000370  00000-0  84383-4 0  9999 | 2 62583  54.9803 180.7828 0010621 304.6523  55.3475 14.75570859 24121 | 2025/06/25-13:36:14  297.2249    0.1000   55.4477   97.5893     7021.4767     7014.0192     7028.9343 -54.975169  -0.751142  -0.000616   0.000865
1 62583U 25007J   25177.58295199  .00000095  00000-0  44381-4 0  9996 | 2 62583  54.9803 176.6327 0010682 307.5333  52.4695 14.75571665 24271 | 2025/06/26-13:59:27  308.1756    0.1000   52.5667   97.5893     7021.4742     7013.9738     7028.9745 -54.885377   3.229358  -0.000600   0.000884
1 62583U 25007J   25178.59906843  .00000141  00000-0  51137-4 0  9992 | 2 62583  54.9803 172.4829 0010759 310.2684  49.7374 14.75572554 24425 | 2025/06/27-14:22:39  319.1259    0.1000   49.8316   97.5892     7021.4714     7013.9170     7029.0258 -54.507792   7.192637  -0.000582   0.000905
1 62583U 25007J   25179.61518464  .00000133  00000-0  49954-4 0  9999 | 2 62583  54.9803 168.3330 0010828 313.1017  46.9076 14.75573222 24572 | 2025/06/28-14:45:51  330.0756    0.1000   46.9983   97.5892     7021.4692     7013.8664     7029.0721 -53.844377  11.118296  -0.000565   0.000924
1 62583U 25007J   25180.83452308  .00000176  00000-0  56233-4 0  9994 | 2 62583  54.9804 163.3531 0010925 316.3393  43.6742 14.75574436 24753 | 2025/06/29-20:01:42   55.2150    0.1000   43.7607   97.5891     7021.4654     7013.7944     7029.1363 -52.676083  15.750384  -0.000541   0.000949
1 62583U 25007J   25181.85063758  .00000290  00000-0  72772-4 0  9997 | 2 62583  54.9804 159.2032 0011000 319.1664  40.8511 14.75575935 24905 | 2025/06/30-20:24:55   66.1637    0.1000   40.9336   97.5890     7021.4606     7013.7370     7029.1842 -51.398180  19.521052  -0.000523   0.000968
1 62583U 25007J   25182.86678306  .00000409  00000-0  90387-4 0  9994 | 2 62583  54.9837 155.0560 0010137 317.3793  42.6420 14.75354100 25059 | 2025/07/01-20:48:10   77.1210    0.1001   42.7208   97.6037     7022.1645     7015.0461     7029.2828 -49.854843  23.188399  -0.000387   0.000937
1 62583U 25007J   25183.88320223  .00000430  00000-0  94333-4 0  9998 | 2 62583  54.9847 150.9130 0010064 315.0287  44.9897 14.74941818 25206 | 2025/07/02-21:11:48   88.1796    0.1000   45.0713   97.6310     7023.4730     7016.4045     7030.5414 -48.050170  26.730103  -0.000276   0.000968
1 62583U 25007J   25185.03553692  .00000396  00000-0  90224-4 0  9991 | 2 62583  54.9823 146.1988 0007952 302.6695  57.3536 14.74381237 25374 | 2025/07/04-00:51:10  148.8654    0.0999   57.4304   97.6681     7025.2531     7019.6667     7030.8396 -45.688797  30.587369   0.000016   0.000795
1 62583U 25007J   25186.52743217  .00001078  00000-0  19521-3 0  9998 | 2 62583  54.9821 140.1221 0007129 286.1957  73.8257 14.73679796 25595 | 2025/07/05-12:39:30  333.4966    0.0999   73.9042   97.7146     7027.4822     7022.4723     7032.4921 -42.193952  35.251975   0.000286   0.000653
1 62583U 25007J   25187.88411540  .00000963  00000-0  17924-3 0  9996 | 2 62583  54.9844 134.6063 0006916 271.2199  88.8007 14.73305766 25792 | 2025/07/06-21:13:07  108.7564    0.0998   88.8799   97.7394     7028.6715     7023.8105     7033.5326 -38.611769  39.146080   0.000482   0.000496
1 62583U 25007J   25189.10567486  .00000873  00000-0  16819-3 0  9996 | 2 62583  54.9815 129.6380 0008144 256.4228 103.5863 14.72514823 25979 | 2025/07/08-02:32:10  194.7016    0.0998  103.6770   97.7919     7031.1882     7025.4620     7036.9144 -35.074616  42.340721   0.000732   0.000358
1 62583U 25007J   25190.19202575  .00000782  00000-0  15605-3 0  9993 | 2 62583  54.9818 125.2255 0009299 243.8607 116.1435 14.71900078 26132 | 2025/07/09-04:36:31  231.2761    0.0998  116.2391   97.8327     7033.1458     7026.6057     7039.6860 -31.713279  44.913988   0.000918   0.000147
1 62583U 25007J   25191.21092151  .00000676  00000-0  14128-3 0  9995 | 2 62583  54.9816 121.0901 0010647 233.7526 126.2488 14.71216405 26289 | 2025/07/10-05:03:43  243.2210    0.0997  126.3471   97.8782     7035.3245     7027.8340     7042.8150 -28.391694  47.083841   0.001060  -0.000096
1 62583U 25007J   25192.50209855  .00000601  00000-0  13103-3 0  9999 | 2 62583  54.9878 115.8595 0011408 257.4126 102.5595 14.70578628 26476 | 2025/07/11-12:03:01  354.5773    0.0997  102.6871   97.9206     7037.3585     7029.3303     7045.3867 -23.983799  49.481669   0.001110   0.000262
1 62583U 25007J   25193.79399654  .00000689  00000-0  14802-3 0  9991 | 2 62583  54.9804 110.6245 0009365 277.8010  82.1924 14.69704251 26668 | 2025/07/12-19:03:21  106.1476    0.0997   82.2987   97.9789     7040.1494     7033.5563     7046.7425 -19.366399  51.456651   0.000824   0.000446
1 62583U 25007J   25194.81442149  .00000643  00000-0  14229-3 0  9996 | 2 62583  54.9765 106.4988 0009530 287.6435  72.3521 14.69061202 26818 | 2025/07/13-19:32:46  118.6299    0.0997   72.4562   98.0218     7042.2037     7035.4925     7048.9149 -15.613066  52.712880   0.000789   0.000535
1 62583U 25007J   25196.10765300  .00000593  00000-0  13634-3 0  9990 | 2 62583  54.9816 101.2780 0009212 294.2472  65.7561 14.68157757 27002 | 2025/07/15-02:35:01  230.6810    0.0996   65.8524   98.0821     7045.0924     7038.6024     7051.5823 -10.752730  53.919896   0.000750   0.000535
1 62583U 25007J   25197.26538958  .00000592  00000-0  13820-3 0  9991 | 2 62583  54.9821  96.6038 0008568 273.3248  86.6767 14.67397396 27175 | 2025/07/16-06:22:09  293.2833    0.0995   86.7747   98.1329     7047.5259     7041.4875     7053.5642  -6.323108  54.617301   0.000844   0.000148
1 62583U 25007J   25198.35559875  .00000662  00000-0  15260-3 0  9991 | 2 62583  54.9778  92.2218 0007172 270.7673  89.2500 14.66728816 27337 | 2025/07/17-08:32:03  331.1993    0.0995   89.3322   98.1777     7049.6674     7044.6113     7054.7234  -2.131380  54.936470   0.000716   0.000037
1 62583U 25007J   25199.44629454  .00000605  00000-0  14458-3 0  9998 | 2 62583  54.9802  87.8282 0008969 242.7534 117.2548 14.65994031 27490 | 2025/07/18-10:42:39    9.3276    0.0995  117.3461   98.2269     7052.0228     7045.6978     7058.3477   2.083529  54.940707   0.000781  -0.000441
1 62583U 25007J   25200.46933973  .00000618  00000-0  14900-3 0  9993 | 2 62583  54.9798  83.7179 0009413 239.0501 120.9570 14.65313342 27645 | 2025/07/19-11:15:50   22.7436    0.0995  121.0494   98.2725     7054.2066     7047.5664     7060.8467   6.016097  54.649657   0.000749  -0.000570
1 62583U 25007J   25201.76589777  .00000604  00000-0  14931-3 0  9995 | 2 62583  54.9803  78.5055 0009182 261.0813  98.9142 14.64383756 27836 | 2025/07/20-18:22:53  136.0064    0.0994   99.0181   98.3349     7057.1916     7050.7116     7063.6715  10.956137  53.877606   0.000861  -0.000320
1 62583U 25007J   25202.85832511  .00000613  00000-0  15326-3 0  9992 | 2 62583  54.9821  74.1260 0009438 284.4958  75.4988 14.63646339 27992 | 2025/07/21-20:35:59  174.7374    0.0993   75.6035   98.3844     7059.5617     7052.8989     7066.2246  15.038856  52.885387   0.000944  -0.000023
1 62583U 25007J   25203.88298659  .00000693  00000-0  17104-3 0  9999 | 2 62583  54.9827  70.0221 0010454 304.2829  55.7175 14.62914272 28148 | 2025/07/22-21:11:30  188.7236    0.0995   55.8166   98.4337     7061.9167     7054.5342     7069.2992  18.785261  51.674087   0.001013   0.000258
1 62583U 25007J   25205.59135170 -.00197576  00000-0 -39854-1 0  9990 | 2 62583  54.9824  63.1839 0009858 301.3445  58.3116 14.62462686 28399 | 2025/07/24-14:11:32   92.6014  359.7523   58.4078   98.4641     7063.3704     7056.4073     7070.3334  24.804119  49.069543   0.000983   0.000078
1 62583U 25007J   25206.68535951  .00000699  00000-0  17677-3 0  9990 | 2 62583  54.9806  58.8120 0008381 286.4902  73.5170 14.61596112 28552 | 2025/07/25-16:26:55  131.5433    0.0993   73.6091   98.5224     7066.1620     7060.2398     7072.0841  28.471586  47.034404   0.000811  -0.000213
1 62583U 25007J   25207.84830010  .00000696  00000-0  17907-3 0  9996 | 2 62583  54.9820  54.1719 0010625 281.3713  78.6086 14.60813918 28725 | 2025/07/26-20:21:33  196.0156    0.0993   78.7280   98.5752     7068.6841     7061.1737     7076.1946  32.184010  44.578132   0.000967  -0.000440
1 62583U 25007J   25208.87481630  .00000695  00000-0  17960-3 0  9998 | 2 62583  54.9822  50.0779 0011467 283.8430  76.1286 14.60619643 28876 | 2025/07/27-20:59:44  210.6755    0.0992   76.2562   98.5883     7069.3109     7061.2045     7077.4173  35.284579  42.166821   0.001030  -0.000504
1 62583U 25007J   25210.10664498  .00000513  00000-0  14241-3 0  9990 | 2 62583  54.9822  45.1651 0011506 287.4692  72.5043 14.60621298 29055 | 2025/07/29-02:33:34  300.2589    0.0993   72.6301   98.5882     7069.3056     7061.1716     7077.4395  38.766096  38.990154   0.001022  -0.000529
1 62583U 25007J   25211.33847180  .00000561  00000-0  15218-3 0  9995 | 2 62583  54.9824  40.2524 0011551 290.7854  69.1901 14.60623510 29233 | 2025/07/30-08:07:23   29.8414    0.0993   69.3139   98.5880     7069.2984     7061.1327     7077.4642  41.962865  35.527205   0.001011  -0.000559
1 62583U 25007J   25213.32387703 -.00300863  00000-0 -66324-1 0  9998 | 2 62583  54.9848  32.3467 0016771 287.6960  70.0126 14.59081746 29528 | 2025/08/01-07:46:22   36.7168  357.8893   70.1933   98.6922     7074.2775     7062.4132     7086.1418  46.452590  29.419129   0.001286  -0.001077
1 62583U 25007J   25214.48925680  .00000487  00000-0  14371-3 0  9992 | 2 62583  54.9906  27.7312 0021591 289.4770  70.3889 14.58303744 29696 | 2025/08/02-11:44:31   99.8603    0.0992   70.6222   98.7449     7076.7934     7061.5138     7092.0729  48.674400  25.588452   0.001584  -0.001467
1 62583U 25007J   25215.51769299  .00000452  00000-0  13814-3 0  9992 | 2 62583  54.9825  23.6281 0024103 287.5426  72.2933 14.57551724 29845 | 2025/08/03-12:25:28  115.2441    0.0993   72.5567   98.7958     7079.2273     7062.1643     7096.2904  50.373112  22.036898   0.001587  -0.001814
1 62583U 25007J   25216.61520953  .00000452  00000-0  14012-3 0  9997 | 2 62583  54.9832  19.2737 0027134 288.7430  71.0617 14.56822909 30006 | 2025/08/04-14:45:54  155.8175    0.0991   71.3561   98.8452     7081.5882     7062.3730     7100.8033  51.901533  18.148917   0.001671  -0.002138
1 62583U 25007J   25217.78192601  .00000309  00000-0  11020-3 0  9998 | 2 62583  54.9809  14.6511 0030635 286.4788  73.2837 14.56057290 30179 | 2025/08/05-18:45:58  221.6502    0.0991   73.6203   98.8972     7084.0704     7062.3683     7105.7724  53.193140  13.906447   0.001584  -0.002622
1 62583U 25007J   25219.91073078  .00000294  00000-0  10829-3 0  9990 | 2 62583  54.9830   6.2306 0033399 292.4280  67.3174 14.55331674 30488 | 2025/08/07-21:51:27  278.5557    0.0991   67.6711   98.9465     7086.4249     7062.7569     7110.0928  54.658223   5.967321   0.001602  -0.002931
1 62583U 25007J   25221.00986905  .00000410  00000-0  13537-3 0  9994 | 2 62583  54.9833   1.8865 0034737 294.3539  65.3827 14.55003314 30645 | 2025/08/09-00:14:12  319.6818    0.0991   65.7452   98.9688     7087.4910     7062.8712     7112.1108  54.953499   1.810033   0.001536  -0.003116
1 62583U 25007J   25222.52166252  .00000403  00000-0  13539-3 0  9991 | 2 62583  54.9831 355.9149 0037278 295.9481  63.7670 14.54348093 30864 | 2025/08/10-12:31:11  151.4106    0.0991   64.1510   99.0134     7089.6196     7063.1909     7116.0482  54.843407  -3.916889   0.001388  -0.003460
1 62583U 25007J   25223.55273528  .00000415  00000-0  13943-3 0  9992 | 2 62583  54.9834 351.8453 0039197 297.4039  62.2966 14.53867003 31014 | 2025/08/11-13:15:56  167.6973    0.0991   62.6952   99.0462     7091.1835     7063.3881     7118.9788  54.427446  -7.799194   0.001292  -0.003701
1 62583U 25007J   25224.58426124  .00000376  00000-0  13145-3 0  9998 | 2 62583  54.9834 347.7775 0041278 298.2645  61.4181 14.53364692 31162 | 2025/08/12-14:01:20  184.1491    0.0990   61.8345   99.0804     7092.8173     7063.5395     7122.0950  53.737082 -11.640459   0.001141  -0.003967
1 62583U 25007J   25225.61603383  .00000321  00000-0  11920-3 0  9996 | 2 62583  54.9834 343.7118 0042619 299.8751  59.8007 14.53036187 31314 | 2025/08/13-14:47:05  200.6767    0.0990   60.2239   99.1028     7093.8863     7063.6528     7124.1197  52.776535 -15.421141   0.001001  -0.004143
1 62583U 25007J   25226.71686245  .00000348  00000-0  12638-3 0  9992 | 2 62583  54.9832 339.3761 0043889 301.5358  58.1348 14.52708945 31475 | 2025/08/14-17:12:16  242.4009    0.0990   58.5632   99.1252     7094.9516     7063.8125     7126.0906  51.459475 -19.366847   0.000831  -0.004310
1 62583U 25007J   25227.74921111  .00000299  00000-0  11592-3 0  9993 | 2 62583  54.9833 335.3131 0046501 302.2145  57.4340 14.52056530 31626 | 2025/08/15-17:58:51  259.1490    0.0990   57.8845   99.1697     7097.0766     7064.0745     7130.0787  49.958029 -22.964289   0.000609  -0.004610
1 62583U 25007J   25228.98864193  .00000273  00000-0  11091-3 0  9992 | 2 62583  54.9943 330.4413 0051243 301.6153  57.9841 14.51308760 31803 | 2025/08/16-23:43:38  351.4867    0.0990   58.4837   99.2208     7099.5142     7063.1341     7135.8942  47.836833 -27.129512   0.000184  -0.005121
1 62583U 25007J   25230.09094727  .00000257  00000-0  10811-3 0  9996 | 2 62583  54.9832 326.1128 0051542 304.4469  55.1654 14.50740303 31969 | 2025/08/18-02:10:57   33.7187    0.0989   55.6520   99.2597     7101.3686     7064.7668     7137.9705  45.643581 -30.656415   0.000050  -0.005154
1 62583U 25007J   25232.93925069  .00024036  00000-0  61006-2 0  9995 | 2 62583  54.9826 314.9481 0055147 308.3024 165.7788 14.49783225 32374 | 2025/08/20-22:32:31  238.6111  114.2354  165.9330   99.3252     7104.4936     7065.3145     7143.6728  38.843336 -38.913771  -0.000648  -0.005476
1 62583U 25007J   25240.63973686  .00000538  00000-0  18275-3 0  9991 | 2 62583  54.9816 284.7649 0057376 324.2444  35.4708 14.49246026 33506 | 2025/08/28-15:21:13  282.9253    0.0990   35.8546   99.3620     7106.2491     7065.4763     7147.0220  14.012249 -53.166091  -0.002055  -0.005357
1 62583U 25007J   25253.61753904  .00000134  00000-0  81985-4 0  9993 | 2 62583  54.9805 234.0379 0062572 347.4235  12.5188 14.47538960 35386 | 2025/09/10-14:49:15  338.2255    0.0989   12.6754   99.4792     7111.8349     7067.3347     7156.3351 -32.287297 -44.501526  -0.004689  -0.004143
1 62583U 25007J   25255.62010492  .00000305  00000-0  12691-3 0  9991 | 2 62583  54.9805 226.2163 0062769 351.8716   8.1248 14.47541171 35679 | 2025/09/12-14:52:57  348.8906    0.0989    8.2273   99.4790     7111.8277     7067.1874     7156.4679 -38.043087 -39.693563  -0.004940  -0.003872
1 62583U 25007J   25256.93212948  .00000297  00000-0  12478-3 0  9999 | 2 62583  54.9802 221.0918 0062898 354.7808   5.2516 14.47542406 35863 | 2025/09/13-22:22:15  107.6011    0.0989    5.3181   99.4790     7111.8236     7067.0917     7156.5556 -41.436238 -36.136693  -0.005097  -0.003686
1 62583U 25007J   25258.31320567  .00000518  00000-0  18304-3 0  9990 | 2 62583  54.9809 215.6978 0063039 357.8411   2.2295 14.47545292 36067 | 2025/09/15-07:31:00  251.5056    0.0989    2.2578   99.4788     7111.8142     7066.9820     7156.6463 -44.650315 -32.081907  -0.005254  -0.003483
1 62583U 25007J   25259.55617424  .00000416  00000-0  15613-3 0  9995 | 2 62583  54.9806 210.8432 0063173   0.5870 359.5181 14.47545934 36241 | 2025/09/16-13:20:53  345.0195    0.0990  359.5120   99.4787     7111.8121     7066.8846     7156.7395 -47.204891 -28.188024  -0.005390  -0.003294
1 62583U 25007J   25261.00630170  .00000451  00000-0  16536-3 0  9995 | 2 62583  54.9816 205.1795 0063309   3.7775 356.3677 14.47547912 36457 | 2025/09/18-00:09:04  154.1183    0.0989  356.3214   99.4786     7111.8056     7066.7815     7156.8297 -49.757212 -23.392225  -0.005539  -0.003065
1 62583U 25007J   25262.31831987  .00000519  00000-0  18324-3 0  9991 | 2 62583  54.9812 200.0553 0063439   6.6666 353.5150 14.47550031 36646 | 2025/09/19-07:38:22  272.8258    0.0988  353.4322   99.4784     7111.7987     7066.6821     7156.9152 -51.647254 -18.854535  -0.005666  -0.002853
1 62583U 25007J   25263.97560255  .00000773  00000-0  25018-3 0  9991 | 2 62583  54.9807 193.5825 0063582  10.3106 349.9169 14.47553964 36881 | 2025/09/20-23:24:52  157.5080    0.0989  349.7883   99.4782     7111.7858     7066.5676     7157.0039 -53.443042 -12.911955  -0.005813  -0.002575
1 62583U 25007J   25265.28761505  .00001020  00000-0  31522-3 0  9991 | 2 62583  54.9807 188.4583 0063707  13.1814 347.0820 14.47557618 37076 | 2025/09/22-06:54:09  276.2140    0.0989  346.9175   99.4779     7111.7738     7066.4668     7157.0808 -54.382685  -8.087087  -0.005922  -0.002349
1 62583U 25007J   25267.01394119  .00001277  00000-0  38266-3 0  9993 | 2 62583  54.9813 181.7157 0063856  16.9593 343.3509 14.47563106 37326 | 2025/09/24-00:20:04  186.0887    0.0989  343.1396   99.4775     7111.7558     7066.3430     7157.1687 -54.956652  -1.646148  -0.006049  -0.002045
1 62583U 25007J   25268.25689242  .00001392  00000-0  41295-3 0  9998 | 2 62583  54.9808 176.8612 0063978  19.6822 340.6613 14.47566933 37508 | 2025/09/25-06:09:55  279.5975    0.0989  340.4167   99.4773     7111.7433     7066.2438     7157.2428 -54.898319   3.010474  -0.006133  -0.001822
1 62583U 25007J   25269.98320723  .00001326  00000-0  39556-3 0  9999 | 2 62583  54.9808 170.1187 0064122  23.4429 336.9459 14.47571884 37754 | 2025/09/26-23:35:49  189.4696    0.0989  336.6560   99.4769     7111.7271     7066.1253     7157.3289 -54.165181   9.435122  -0.006233  -0.001504
1 62583U 25007J   25271.22614954  .00001340  00000-0  39911-3 0  9992 | 2 62583  54.9807 165.2641 0064224  26.1394 334.2812 14.47575993 37936 | 2025/09/28-05:25:39  282.9767    0.0989  333.9595   99.4766     7111.7136     7066.0394     7157.3879 -53.172306  13.985109  -0.006296  -0.001270
1 62583U 25007J   25272.81434821  .00001350  00000-0  40180-3 0  9992 | 2 62583  54.9806 159.0609 0064351  29.5991 330.8613 14.47581241 38161 | 2025/09/29-19:32:39  142.4570    0.0988  330.4997   99.4763     7111.6964     7065.9320     7157.4609 -51.349726  19.648716  -0.006362  -0.000969
1 62583U 25007J   25273.85012521  .00001908  00000-0  54837-3 0  9999 | 2 62583  54.9804 155.0153 0064475  31.8450 328.6410 14.47587614 38319 | 2025/09/30-20:24:10  160.3777    0.0989  328.2539   99.4758     7111.6756     7065.8230     7157.5281 -49.835368  23.222414  -0.006401  -0.000770
1 62583U 25007J   25275.85281117  .00003762  00000-0  10395-2 0  9990 | 2 62583  54.9804 147.1953 0064163  35.6317 324.8928 14.47412844 38603 | 2025/10/02-20:28:02  171.1000    0.0989  324.4672   99.4879     7112.2480     7066.6137     7157.8823 -46.212245  29.787125  -0.006408  -0.000316
1 62583U 25007J   25278.82240272  .00002278  00000-0  64854-3 0  9998 | 2 62583  54.9796 135.5969 0064239  41.9503 318.6380 14.47382807 39038 | 2025/10/05-19:44:15  174.6146    0.0989  318.1486   99.4899     7112.3464     7066.6574     7158.0354 -39.279341  38.469336  -0.006418   0.000275
1 62583U 25007J   25280.27269436  .00000529  00000-0  18650-3 0  9993 | 2 62583  54.9797 129.9356 0064382  44.9904 315.6273 14.47382351 39248 | 2025/10/07-06:32:40  343.7809    0.0988  315.1084   99.4900     7112.3479     7066.5572     7158.1386 -35.292909  42.156589  -0.006413   0.000569
1 62583U 25007J   25283.72586465  .00000049  00000-0  59828-4 0  9990 | 2 62583  54.9801 116.4522 0064382  52.1898 308.4893 14.47326649 39744 | 2025/10/10-17:25:14  163.7479    0.0987  307.9089   99.4938     7112.5304     7066.7385     7158.3223 -24.490943  49.224030  -0.006312   0.001268
1 62583U 25007J   25284.96901678  .00000239  00000-0  11020-3 0  9996 | 2 62583  54.9801 111.5982 0064456  54.8481 305.8522 14.47328083 39923 | 2025/10/11-23:15:23  257.3407    0.0988  305.2507   99.4937     7112.5257     7066.6812     7158.3702 -20.237919  51.119840  -0.006266   0.001511
1 62583U 25007J   25286.21216740  .00000295  00000-0  12497-3 0  9996 | 2 62583  54.9801 106.7442 0064522  57.4897 303.2303 14.47329589 40107 | 2025/10/13-05:05:31  350.9346    0.0988  302.6091   99.4936     7112.5208     7066.6294     7158.4122 -15.839730  52.648973  -0.006209   0.001753
1 62583U 25007J   25287.93876377  .00000292  00000-0  12405-3 0  9990 | 2 62583  54.9801 100.0025 0064585  61.1810 299.5641 14.47331130 40351 | 2025/10/14-22:31:49  260.9277    0.0988  298.9178   99.4935     7112.5157     7066.5795     7158.4519  -9.549557  54.144412  -0.006113   0.002083
1 62583U 25007J   25289.18191149  .00000380  00000-0  14736-3 0  9993 | 2 62583  54.9800  95.1486 0064602  63.8332 296.9280 14.47332746 40537 | 2025/10/16-04:21:57  354.5240    0.0988  296.2656   99.4934     7112.5104     7066.5622     7158.4587  -4.933858  54.758172  -0.006030   0.002317
1 62583U 25007J   25295.61144493  .00000317  00000-0  13908-3 0  9998 | 2 62583  54.9831  70.1113 0051046  72.6504 288.0056 14.44050235 41461 | 2025/10/22-14:40:28  180.6357    0.0986  287.4482   99.7195     7123.2848     7086.9233     7159.6463  18.704926  51.703646  -0.004064   0.003089
1 62583U 25007J   25296.85763760  .00000274  00000-0  12831-3 0  9995 | 2 62583  54.9820  65.2674 0048800  74.8595 285.7781 14.43479055 41647 | 2025/10/23-20:34:59  275.3557    0.0986  285.2391   99.7590     7125.1638     7090.3930     7159.9346  23.003585  49.938516  -0.003745   0.003129
1 62583U 25007J   25297.89660809  .00000249  00000-0  12227-3 0  9991 | 2 62583  54.9822  61.2385 0046332  76.3926 284.2213 14.42907639 41789 | 2025/10/24-21:31:06  294.4617    0.0985  283.7059   99.7985     7127.0448     7094.0237     7160.0658  26.455495  48.199057  -0.003423   0.003122
1 62583U 25007J   25298.93593901  .00000227  00000-0  11659-3 0  9999 | 2 62583  54.9836  57.2095 0044641  78.4859 282.1133 14.42476451 41934 | 2025/10/25-22:27:45  313.6890    0.0985  281.6126   99.8283     7128.4650     7096.6428     7160.2872  29.777404  46.222316  -0.003195   0.003118
1 62583U 25007J   25300.25276777  .00000252  00000-0  12502-3 0  9993 | 2 62583  54.9827  52.1082 0043022  83.2904 277.2974 14.41995554 42120 | 2025/10/27-06:03:59   74.1580    0.0985  276.8081   99.8616     7130.0498     7099.3749     7160.7247  33.768849  43.390807  -0.003063   0.003021
1 62583U 25007J   25301.57023342  .00000211  00000-0  11463-3 0  9997 | 2 62583  54.9823  47.0174 0042984  85.1444 275.4446 14.41117052 42311 | 2025/10/28-13:41:08  194.8338    0.0984  274.9540   99.9225     7132.9471     7102.2868     7163.6074  37.485625  40.222894  -0.002885   0.003186
1 62583U 25007J   25302.81899914  .00000189  00000-0  10923-3 0  9995 | 2 62583  54.9830  42.1922 0045060  89.4698 271.1448 14.40534970 42497 | 2025/10/29-19:39:21  290.4199    0.0983  270.6285   99.9629     7134.8685     7102.7187     7167.0182  40.736687  36.927668  -0.002995   0.003366
1 62583U 25007J   25305.52656382  .00000145  00000-0  97716-4 0  9994 | 2 62583  54.9829  31.7504 0049224  99.2725 261.3829 14.39286074 42885 | 2025/11/01-12:38:15  198.2129    0.0982  260.8257  100.0496     7138.9952     7103.8543     7174.1362  46.754629  28.933094  -0.003231   0.003714
1 62583U 25007J   25307.74947596  .00000096  00000-0  83259-4 0  9992 | 2 62583  54.9839  23.1869 0048334 105.9723 254.6592 14.38521821 43209 | 2025/11/03-17:59:14  289.2396    0.0982  254.1259  100.1028     7141.5235     7107.0057     7176.0414  50.542597  21.648907  -0.003052   0.003748
1 62583U 25007J   25309.34817229  .00000098  00000-0  85062-4 0  9995 | 2 62583  54.9834  17.0389 0051863 110.1746 250.4825 14.37676938 43434 | 2025/11/05-08:21:22  152.4685    0.0982  249.9236  100.1616     7144.3212     7107.2686     7181.3738  52.569961  16.111286  -0.003137   0.004130
1 62583U 25007J   25310.66954161  .00000161  00000-0  10672-3 0  9994 | 2 62583  54.9830  11.9638 0054346 113.8698 246.7992 14.37037982 43629 | 2025/11/06-16:04:08  274.5270    0.0981  246.2283  100.2061     7146.4388     7107.6007     7185.2768  53.788701  11.397627  -0.003182   0.004406
1 62583U 25007J   25311.71317735  .00000165  00000-0  10910-3 0  9990 | 2 62583  54.9830   7.9588 0056410 116.6502 244.0272 14.36525522 43776 | 2025/11/07-17:06:58  295.2611    0.0981  243.4479  100.2419     7148.1383     7107.8156     7188.4609  54.453398   7.613000  -0.003204   0.004643
1 62583U 25007J   25314.63744759  .00000171  00000-0  11402-3 0  9998 | 2 62583  54.9830 356.7555 0058352 123.6938 236.9626 14.34996223 44191 | 2025/11/10-15:17:55  282.1050    0.0981  236.4043  100.3487     7153.2159     7111.4755     7194.9564  54.894868  -3.111870  -0.002957   0.005030
1 62583U 25007J   25315.75224156  .00000209  00000-0  12862-3 0  9999 | 2 62583  54.9838 352.4920 0055830 126.1633 234.4531 14.34429588 44357 | 2025/11/11-18:03:13  328.8332    0.0980  233.9347  100.3883     7155.0996     7115.1527     7195.0465  54.512403  -7.184437  -0.002677   0.004899
1 62583U 25007J   25317.07668226  .00000331  00000-0  17371-3 0  9992 | 2 62583  54.9837 347.4333 0052513 129.2018 231.3643 14.33691944 44541 | 2025/11/13-01:50:25   92.0462    0.0980  230.8962  100.4400     7157.5536     7119.9672     7195.1401  53.666476 -11.963134  -0.002354   0.004694
1 62583U 25007J   25318.54127042  .00000261  00000-0  15174-3 0  9992 | 2 62583  54.9830 341.8395 0049317 132.1808 228.3376 14.32905505 44750 | 2025/11/14-12:59:25  266.3830    0.0979  227.9171  100.4951     7160.1723     7124.8605     7195.4841  52.244140 -17.137098  -0.002007   0.004505
1 62583U 25007J   25320.56508499  .00000201  00000-0  13313-3 0  9993 | 2 62583  54.9824 334.1306 0043924 136.9920 223.4507 14.31787082 45047 | 2025/11/16-13:33:43  284.7357    0.0979  223.1059  100.5736     7163.9005     7132.4338     7195.3673  49.472665 -23.989992  -0.001583   0.004097
1 62583U 25007J   25322.03165405  .00000109  00000-0  10096-3 0  9995 | 2 62583  54.9823 328.5514 0040033 140.3590 220.0328 14.30934347 45258 | 2025/11/18-00:45:34   99.7761    0.0979  219.7389  100.6335     7166.7464     7138.0557     7195.4370  46.905870 -28.686105  -0.001297   0.003787
1 62583U 25007J   25323.07968946  .00000051  00000-0  80076-4 0  9993 | 2 62583  54.9773 324.5677 0039164 144.7354 215.6228 14.30456662 45402 | 2025/11/19-01:54:45  122.1192    0.0978  215.3624  100.6672     7168.3418     7140.2677     7196.4159  44.795565 -31.872573  -0.001295   0.003696
1 62583U 25007J   25324.47770369  .00000015  00000-0  67520-4 0  9997 | 2 62583  54.9824 319.2613 0034463 146.3841 213.9334 14.29684875 45604 | 2025/11/20-11:27:53  272.1293    0.0978  213.7137  100.7215     7170.9214     7146.2082     7195.6345  41.659819 -35.882082  -0.000929   0.003319
1 62583U 25007J   25325.52669466  .00000013  00000-0  67444-4 0  9992 | 2 62583  54.9866 315.2776 0032661 150.8023 209.4790 14.29146296 45758 | 2025/11/21-12:38:26  294.8199    0.0978  209.2955  100.7595     7172.7228     7149.2960     7196.1497  39.069322 -38.692560  -0.000905   0.003138
1 62583U 25007J   25327.13587671  .00000053  00000-0  83788-4 0  9991 | 2 62583  54.9823 309.1890 0029381 152.8405 207.4117 14.28574218 45985 | 2025/11/23-03:15:39  161.8293    0.0977  207.2572  100.7998     7174.6376     7153.5578     7195.7174  34.742244 -42.614901  -0.000612   0.002874
1 62583U 25007J   25328.18553862  .00000102  00000-0  10380-3 0  9994 | 2 62583  54.9823 305.2151 0028003 155.3618 204.8705 14.28290513 46131 | 2025/11/24-04:27:10  184.7359    0.0978  204.7360  100.8198     7175.5876     7155.4939     7195.6814  31.705414 -44.920152  -0.000514   0.002753
1 62583U 25007J   25329.44548391  .00000165  00000-0  13007-3 0  9993 | 2 62583  54.9821 300.4479 0025559 158.7665 201.4380 14.27765467 46317 | 2025/11/25-10:41:29  284.3531    0.0978  201.3313  100.8569     7177.3467     7159.0021     7195.6913  27.862435 -47.399536  -0.000409   0.002523
1 62583U 25007J   25330.77593132  .00000123  00000-0  11407-3 0  9990 | 2 62583  54.9823 295.4180 0023656 162.2389 197.9420 14.27357509 46509 | 2025/11/26-18:37:20   49.6790    0.0976  197.8587  100.8857     7178.7142     7161.7323     7195.6962  23.599443 -49.660041  -0.000315   0.002345
1 62583U 25007J   25331.82678529  .00000032  00000-0  78229-4 0  9996 | 2 62583  54.9864 291.4536 0020580 167.9848 192.1624 14.26617764 46650 | 2025/11/27-19:50:34   73.0203    0.0976  192.1128  100.9380     7181.1956     7166.4167     7195.9745  20.111145 -51.176616  -0.000337   0.002030
1 62583U 25007J   25334.42073495 -.00000137  00000-0  87565-5 0  9997 | 2 62583  54.9806 281.6725 0013847 179.9566 180.1414 14.25116421 47024 | 2025/11/30-10:05:51  299.2292    0.0976  180.1410  101.0444     7186.2383     7176.2875     7196.1890  11.123525 -53.843603  -0.000279   0.001356
1 62583U 25007J   25335.47313595 -.00000122  00000-0  15365-4 0  9993 | 2 62583  54.9641 277.7472 0008838 181.6338 178.4611 14.24526390 47171 | 2025/12/01-11:21:18  323.0593    0.0976  178.4638  101.0862     7188.2225     7181.8695     7194.5754   7.409298 -54.462414  -0.000144   0.000872
1 62583U 25007J   25337.36848426  .00000017  00000-0  76226-4 0  9994 | 2 62583  54.9820 270.5877 0007974 207.3290 152.7268 14.23535818 47440 | 2025/12/03-08:50:37  294.4514    0.0976  152.7686  101.1566     7191.5567     7185.8221     7197.2912   0.563957 -54.979108  -0.000373   0.000705
1 62583U 25007J   25339.47603996  .00000251  00000-0  18197-3 0  9991 | 2 62583  54.9971 262.6763 0003739 265.2400  94.8148 14.22411750 47747 | 2025/12/05-11:25:29  343.1612    0.0975   94.8575  101.2365     7195.3450     7192.6546     7198.0353  -7.010749 -54.548423  -0.000366   0.000078
1 62583U 25007J   25340.60074119  .00000352  00000-0  22993-3 0  9998 | 2 62583  54.9836 258.4664 0007370 263.2588  96.7548 14.21711011 47905 | 2025/12/06-14:25:04   33.4133    0.0975   96.8387  101.2864     7197.7091     7192.4044     7203.0138 -10.993562 -53.873350  -0.000700   0.000231
1 62583U 25007J   25341.79628523  .00000419  00000-0  26351-3 0  9999 | 2 62583  54.9827 253.9908 0008415 248.5471 111.4607 14.21030090 48075 | 2025/12/07-19:06:39  109.4689    0.0975  111.5504  101.3349     7200.0082     7193.9494     7206.0670 -15.163772 -52.850329  -0.000668   0.000512
1 62583U 25007J   25342.99236890  .00000421  00000-0  26772-3 0  9994 | 2 62583  54.9823 249.5212 0010175 238.0811 121.9174 14.20384528 48249 | 2025/12/08-23:49:00  185.7169    0.0974  122.0163  101.3810     7202.1896     7194.8614     7209.5179 -19.236150 -51.507512  -0.000621   0.000806
1 62583U 25007J   25344.11855803  .00000442  00000-0  28003-3 0  9993 | 2 62583  54.9825 245.3149 0009243 251.6172 108.3798 14.19916741 48404 | 2025/12/10-02:50:43  236.4628    0.0975  108.4803  101.4144     7203.7714     7197.1129     7210.4298 -22.962385 -49.958024  -0.000675   0.000631
1 62583U 25007J   25345.24515641  .00000467  00000-0  29431-3 0  9994 | 2 62583  54.9832 241.1089 0008860 266.0691  93.9271 14.19456102 48561 | 2025/12/11-05:53:01  287.3554    0.0975   94.0284  101.4473     7205.3298     7198.9459     7211.7137 -26.564934 -48.139968  -0.000745   0.000480
1 62583U 25007J   25347.00624535  .00000448  00000-0  28842-3 0  9997 | 2 62583  54.9823 234.5460 0009100 289.2521  70.7468 14.18822103 48813 | 2025/12/13-00:08:59  209.6434    0.0974   70.8453  101.4926     7207.4761     7200.9173     7214.0349 -31.892437 -44.787563  -0.000874   0.000254
1 62583U 25007J   25348.27450284  .00000420  00000-0  27614-3 0  9991 | 2 62583  54.9819 229.8209 0008882 287.8200  72.1805 14.18646863 48997 | 2025/12/14-06:35:17  312.1897    0.0974   72.2774  101.5052     7208.0696     7201.6674     7214.4718 -35.473169 -42.007899  -0.000821   0.000338
1 62583U 25007J   25349.89568431  .00000384  00000-0  26352-3 0  9991 | 2 62583  54.9823 223.7820 0008372 268.9845  91.0169 14.17677799 49224 | 2025/12/15-21:29:47  183.4509    0.0973   91.1128  101.5746     7211.3540     7205.3167     7217.3914 -39.695991 -38.043155  -0.000568   0.000615
1 62583U 25007J   25351.30623972  .00000381  00000-0  26473-3 0  9993 | 2 62583  54.9871 218.5306 0007759 250.1196 109.8941 14.17029680 49426 | 2025/12/17-07:20:59  337.8803    0.0973  109.9777  101.6210     7213.5527     7207.9557     7219.1497 -43.015065 -34.253253  -0.000248   0.000735
1 62583U 25007J   25352.64697073  .00000364  00000-0  26019-3 0  9991 | 2 62583  54.9818 213.5643 0008621 266.8976  93.1010 14.16250392 49613 | 2025/12/18-15:31:38  106.8463    0.0972   93.1996  101.6769     7216.1986     7209.9776     7222.4197 -45.814458 -30.397923  -0.000437   0.000743
1 62583U 25007J   25353.70577823  .00000351  00000-0  25452-3 0  9995 | 2 62583  54.9821 209.6357 0008619 266.9696  93.0290 14.16095809 49767 | 2025/12/19-16:56:19  132.9893    0.0972   93.1276  101.6880     7216.7238     7210.5037     7222.9439 -47.789726 -27.187743  -0.000386   0.000771
1 62583U 25007J   25354.90586192  .00000330  00000-0  24529-3 0  9998 | 2 62583  54.9820 205.1838 0008732 279.6107  80.3879 14.15771642 49931 | 2025/12/20-21:44:26  210.6541    0.0973   80.4866  101.7113     7217.8253     7211.5227     7224.1279 -49.755818 -23.396130  -0.000498   0.000717
1 62583U 25007J   25356.03571404  .00000311  00000-0  23741-3 0  9998 | 2 62583  54.9823 200.9967 0008679 283.3542  76.6462 14.15381492 50090 | 2025/12/22-00:51:25  262.6998    0.0972   76.7430  101.7394     7219.1517     7212.8862     7225.4172 -51.331534 -19.700938  -0.000490   0.000717
1 62583U 25007J   25357.51917389  .00000234  00000-0  20037-3 0  9997 | 2 62583  54.9837 195.5012 0008949 274.5527  85.4423 14.14749010 50302 | 2025/12/23-12:27:36   83.7085    0.0972   85.5445  101.7848     7221.3031     7214.8408     7227.7655 -52.983660 -14.694864  -0.000307   0.000841
1 62583U 25007J   25358.79121416  .00000156  00000-0  16090-3 0  9993 | 2 62583  54.9819 190.7948 0008493 270.2929  89.7069 14.14346357 50489 | 2025/12/24-18:59:20  187.5983    0.0971   89.8042  101.8138     7222.6736     7216.5394     7228.8078 -54.008954 -10.297679  -0.000163   0.000833
1 62583U 25007J   25361.83170974 -.00000055  00000-0  52117-4 0  9995 | 2 62583  54.9820 179.5591 0008576 265.5686  94.4306 14.12999112 50915 | 2025/12/27-19:57:39  216.4099    0.0972   94.5286  101.9109     7227.2639     7221.0658     7233.4620 -54.980372   0.423091   0.000073   0.000855
1 62583U 25007J   25362.96380557 -.00000118  00000-0  18541-4 0  9993 | 2 62583  54.9815 175.3814 0008597 275.3235  84.6755 14.12573399 51075 | 2025/12/28-23:07:52  269.2582    0.0971   84.7736  101.9416     7228.7159     7222.5014     7234.9305 -54.802964   4.427248  -0.000011   0.000860
1 62583U 25007J   25364.02552463 -.00000165  00000-0 -67157-5 0  9990 | 2 62583  54.9838 171.4665 0008990 263.1761  96.8187 14.12054757 51220 | 2025/12/30-00:36:45  296.4426    0.0971   96.9210  101.9790     7230.4859     7223.9857     7236.9861 -54.375089   8.158917   0.000238   0.000867
1 62583U 25007J   25365.93751338 -.00000195  00000-0 -23389-4 0  9994 | 2 62583  54.9842 164.4270 0008882 284.0431  75.9552 14.11414973 51497 | 2025/12/31-22:30:01  273.6791    0.0971   76.0540  102.0253     7232.6707     7226.2467     7239.0948 -52.965685  14.761383   0.000024   0.000888
1 62583U 25007J   26002.00007086 -.00000155  00000-0 -19075-5 0  9999 | 2 62583  54.9836 160.5170 0008878 288.3818  71.6186 14.10937568 51649 | 2026/01/02-00:00:06  301.1550    0.0970   71.7152  102.0598     7234.3021     7227.8795     7240.7248 -51.835266  18.338524   0.000017   0.000888
1 62583U 25007J   26003.20460721 -.00000075  00000-0  42782-4 0  9991 | 2 62583  54.9831 156.0880 0008752 286.7628  73.2381 14.10734571 51817 | 2026/01/03-04:54:38   20.4038    0.0970   73.3342  102.0745     7234.9961     7228.6640     7241.3282 -50.263850  22.286468   0.000109   0.000868
1 62583U 25007J   26004.40967823 -.00000004  00000-0  83328-4 0  9992 | 2 62583  54.9795 151.6441 0008568 244.2430 115.7656 14.09891876 51980 | 2026/01/04-09:49:56   99.8534    0.0970  115.8540  102.1355     7237.8787     7231.6773     7244.0802 -48.382751  26.112349   0.000694   0.000502
1 62583U 25007J   26005.47346875  .00000052  00000-0  11616-3 0  9990 | 2 62583  54.9824 147.7571 0008863 258.4463 101.5512 14.09193278 52137 | 2026/01/05-11:21:47  127.7646    0.0970  101.6507  102.1861     7240.2706     7233.8536     7246.6877 -46.503781  29.333644   0.000613   0.000640
1 62583U 25007J   26006.60858719  .00000088  00000-0  13834-3 0  9994 | 2 62583  54.9851 143.5990 0008658 259.2962 100.7033 14.08742676 52298 | 2026/01/06-14:36:21  181.6821    0.0970  100.8008  102.2188     7241.8145     7235.5445     7248.0844 -44.256596  32.629969   0.000634   0.000589
1 62583U 25007J   26007.81504760  .00000077  00000-0  13244-3 0  9995 | 2 62583  54.9830 139.1748 0009224 253.6963 106.2992 14.08292142 52468 | 2026/01/07-19:33:40  261.6252    0.0969  106.4006  102.2515     7243.3589     7236.6776     7250.0402 -41.606054  35.945328   0.000775   0.000501
1 62583U 25007J   26008.95092454  .00000018  00000-0  98941-4 0  9996 | 2 62583  54.9834 135.0164 0008817 265.5429  94.4532 14.07957994 52623 | 2026/01/08-22:49:19  315.8183    0.0968   94.5539  102.2758     7244.5049     7238.1174     7250.8924 -38.890262  38.868005   0.000670   0.000573
1 62583U 25007J   26010.72645430 -.00000060  00000-0  53726-4 0  9992 | 2 62583  54.9837 128.5227 0009127 290.0236  69.9750 14.07272191 52872 | 2026/01/10-17:26:05  243.2503    0.0969   70.0733  102.3256     7246.8583     7240.2441     7253.4725 -34.245204  43.017128   0.000476   0.000779
1 62583U 25007J   26011.79213624 -.00000092  00000-0  34666-4 0  9993 | 2 62583  54.9838 124.6286 0009272 294.5561  65.4441 14.06823638 53029 | 2026/01/11-19:00:40  271.8387    0.0969   65.5408  102.3582     7248.3986     7241.6779     7255.1194 -31.244795  45.243575   0.000475   0.000796
1 62583U 25007J   26012.85812392 -.00000109  00000-0  25055-4 0  9999 | 2 62583  54.9840 120.7359 0008820 289.2306  70.7708 14.06521216 53174 | 2026/01/12-20:35:41  300.5364    0.0969   70.8663  102.3803     7249.4376     7243.0436     7255.8316 -28.101309  47.260519   0.000567   0.000675
1 62583U 25007J   26014.13752977 -.00000082  00000-0  41272-4 0  9993 | 2 62583  54.9842 116.0652 0008656 287.1128  72.8892 14.06328619 53355 | 2026/01/14-03:18:02   47.0537    0.0968   72.9840  102.3943     7250.0995     7243.8238     7256.3752 -24.159708  49.392011   0.000631   0.000592
1 62583U 25007J   26015.20370532 -.00000022  00000-0  77577-4 0  9996 | 2 62583  54.9842 112.1731 0008691 289.7918  70.2112 14.06328909 53500 | 2026/01/15-04:53:20   75.8188    0.0967   70.3049  102.3943     7250.0985     7243.7974     7256.3995 -20.751370  50.918002   0.000646   0.000581
1 62583U 25007J   26016.55434812  .00000006  00000-0  95127-4 0  9999 | 2 62583  54.9846 107.2431 0008307 280.5534  79.4498 14.05879938 53693 | 2026/01/16-13:18:15  208.3113    0.0968   79.5434  102.4270     7251.6419     7245.6180     7257.6659 -16.298896  52.513353   0.000735   0.000387
1 62583U 25007J   26017.90559510  .00000021  00000-0  10519-3 0  9990 | 2 62583  54.9845 102.3175 0007907 263.0911  96.9157 14.05167421 53887 | 2026/01/17-21:44:03  341.0141    0.0967   97.0056  102.4789     7254.0931     7248.3573     7259.8289 -11.729777  53.718782   0.000787   0.000075
1 62583U 25007J   26018.97281572  .00000021  00000-0  10619-3 0  9999 | 2 62583  54.9811  98.4226 0008877 243.6958 116.3098 14.04763212 54032 | 2026/01/18-23:20:51   10.1615    0.0967  116.4009  102.5084     7255.4846     7249.0439     7261.9253  -8.053259  54.388109   0.000845  -0.000273
1 62583U 25007J   26020.18277496  .00000113  00000-0  16488-3 0  9997 | 2 62583  54.9882  94.0389 0009241 259.7018 100.2907 14.04177328 54200 | 2026/01/20-04:23:11   91.3362    0.0967  100.3949  102.5512     7257.5027     7250.7960     7264.2093  -3.873024  54.851635   0.000919  -0.000101
1 62583U 25007J   26021.46444315  .00000297  00000-0  28231-3 0  9997 | 2 62583  54.9843  89.3672 0008650 266.7123  93.2854 14.03734230 54388 | 2026/01/21-11:08:47  198.6665    0.0967   93.3844  102.5835     7259.0298     7252.7508     7265.3089   0.607259  54.980947   0.000863  -0.000059
1 62583U 25007J   26023.60140220  .00000269  00000-0  26806-3 0  9998 | 2 62583  54.9849  81.6054 0008744 284.9710  75.0289 14.02941595 54687 | 2026/01/23-14:26:01  257.8377    0.0967   75.1257  102.6415     7261.7637     7255.4140     7268.1134   8.027234  54.395797   0.000869   0.000100
1 62583U 25007J   26025.45454921  .00000231  00000-0  24744-3 0  9997 | 2 62583  54.9852  74.8829 0008374 278.9034  81.0984 14.02044686 54949 | 2026/01/25-10:54:33  213.5177    0.0966   81.1932  102.7071     7264.8604     7258.7768     7270.9440  14.339736  53.082428   0.000832  -0.000091
1 62583U 25007J   26027.09485183  .00000233  00000-0  25268-3 0  9997 | 2 62583  54.9831  68.9429 0008301 271.3057  88.6957 14.01152313 55173 | 2026/01/27-02:16:35   91.5838    0.0965   88.7908  102.7726     7267.9446     7261.9115     7273.9777  19.755327  51.311484   0.000781  -0.000281
1 62583U 25007J   26029.30729736  .00000191  00000-0  22882-3 0  9990 | 2 62583  54.9840  60.9364 0008771 280.4396  79.5581 14.00127925 55487 | 2026/01/29-07:22:30  178.2551    0.0966   79.6570  102.8477     7271.4892     7265.1114     7277.8670  26.710137  48.060471   0.000831  -0.000280
1 62583U 25007J   26030.44979801  .00000157  00000-0  20712-3 0  9999 | 2 62583  54.9837  56.8169 0008915 288.4598  71.5397 13.99657554 55640 | 2026/01/30-10:47:42  234.7992    0.0964   71.6366  102.8823     7273.1182     7266.6342     7279.6022  30.093480  46.017276   0.000862  -0.000227
1 62583U 25007J   26031.44981638  .00000121  00000-0  18431-3 0  9997 | 2 62583  54.9845  53.2063 0008422 278.2619  81.7391 13.99212035 55780 | 2026/01/31-10:47:44  239.4005    0.0965   81.8346  102.9151     7274.6620     7268.5353     7280.7887  32.932172  44.031435   0.000740  -0.000402
1 62583U 25007J   26034.95241706  .00000131  00000-0  19555-3 0  9990 | 2 62583  54.9836  40.5851 0008492 274.5711  85.4283 13.97712876 56275 | 2026/02/03-22:51:28   76.4119    0.0964   85.5253  103.0255     7279.8628     7273.6808     7286.0449  41.756774  35.771051   0.000602  -0.000599
1 62583U 25007J   26036.52613785  .00000173  00000-0  22766-3 0  9999 | 2 62583  54.9849  34.9263 0008501 269.8809  90.1181 13.97109003 56495 | 2026/02/05-12:37:38  290.1617    0.0964   90.2155  103.0700     7281.9604     7275.7700     7288.1508  45.081524  31.480080   0.000485  -0.000698
1 62583U 25007J   26037.59962745  .00000137  00000-0  20421-3 0  9996 | 2 62583  54.9787  31.0930 0008742 269.3520  90.6442 13.96482115 56646 | 2026/02/06-14:23:27  321.5122    0.0964   90.7444  103.1163     7284.1395     7277.7717     7290.5073  47.079920  28.392579   0.000443  -0.000754
1 62583U 25007J   26039.10318215  .00000106  00000-0  18400-3 0  9992 | 2 62583  54.9852  25.6734 0008549 260.9777  99.0219 13.95812664 56859 | 2026/02/08-02:28:34  149.6900    0.0963   99.1186  103.1657     7286.4684     7280.2392     7292.6976  49.556965  23.821827   0.000245  -0.000819
1 62583U 25007J   26040.17765317  .00000113  00000-0  19063-3 0  9994 | 2 62583  54.9857  21.8211 0008586 253.8263 106.1755 13.95210477 57001 | 2026/02/09-04:15:49  181.4088    0.0963  106.2700  103.2102     7288.5648     7282.3069     7294.8228  51.045920  20.438720   0.000084  -0.000854
1 62583U 25007J   26041.18067697  .00000100  00000-0  18119-3 0  9999 | 2 62583  54.9856  18.2257 0008910 254.1502 105.8479 13.95217690 57149 | 2026/02/10-04:20:10  187.0851    0.0963  105.9461  103.2097     7288.5397     7282.0456     7295.0338  52.227075  17.197351   0.000037  -0.000890
1 62583U 25007J   26042.25534719  .00000103  00000-0  18334-3 0  9994 | 2 62583  54.9857  14.3745 0008879 256.9420 103.0552 13.95218137 57297 | 2026/02/11-06:07:41  218.8777    0.0963  103.1543  103.2097     7288.5382     7282.0667     7295.0097  53.264304  13.650683   0.000020  -0.000888
1 62583U 25007J   26043.25837269 -.00000010  00000-0  10004-3 0  9995 | 2 62583  54.9858  10.7800 0008865 259.4752 100.5213 13.95218186 57437 | 2026/02/12-06:12:03  224.5507    0.0964  100.6212  103.2097     7288.5380     7282.0767     7294.9993  54.015444  10.284457   0.000004  -0.000886
1 62583U 25007J   26044.26139813 -.00000007  00000-0  10228-3 0  9991 | 2 62583  54.9859   7.1856 0008833 262.0849  97.9111 13.95218429 57572 | 2026/02/13-06:16:24  230.2234    0.0962   98.0113  103.2096     7288.5372     7282.0992     7294.9751  54.554050   6.877850  -0.000011  -0.000883
1 62583U 25007J   26045.26458771 -.00000005  00000-0  10415-3 0  9995 | 2 62583  54.9864   3.5918 0008820 277.4197  82.5764 13.94808024 57714 | 2026/02/14-06:21:00  235.9541    0.0963   82.6766  103.2400     7289.9668     7283.5370     7296.3965  54.878390   3.444771   0.000168  -0.000866
1 62583U 25007J   26046.26813203 -.00000003  00000-0  10692-3 0  9996 | 2 62583  54.9860   0.0004 0009274 295.1859  64.8142 13.94270107 57857 | 2026/02/15-06:26:06  241.8066    0.0963   64.9104  103.2798     7291.8417     7285.0792     7298.6041  54.986000   0.000384   0.000395  -0.000839
1 62583U 25007J   26047.27203656 -.00000021  00000-0  94312-4 0  9995 | 2 62583  54.9856 356.4112 0008594 288.2114  71.7912 13.93767985 57992 | 2026/02/16-06:31:43  247.7884    0.0962   71.8848  103.3171     7293.5929     7287.3248     7299.8610  54.877772  -3.441847   0.000217  -0.000832
1 62583U 25007J   26048.92211244 -.00000026  00000-0  91669-4 0  9997 | 2 62583  54.9855 350.5149 0008196 263.5933  96.4095 13.92885319 58223 | 2026/02/17-22:07:50  129.3382    0.0961   96.5028  103.3825     7296.6738     7290.6935     7302.6542  54.233765  -9.061122  -0.000224  -0.000788
1 62583U 25007J   26050.28599541 -.00000025  00000-0  93355-4 0  9991 | 2 62583  54.9864 345.6504 0008945 250.1912 109.8086 13.92256915 58418 | 2026/02/19-06:51:50  266.5479    0.0962  109.9050  103.4292     7298.8693     7292.3404     7305.3981  53.270909 -13.627707  -0.000502  -0.000740
1 62583U 25007J   26051.72238472 -.00000032  00000-0  88591-4 0  9998 | 2 62583  54.9863 340.5311 0008871 254.4125 105.5857 13.91439836 58613 | 2026/02/20-17:20:14   70.1848    0.0961  105.6836  103.4899     7301.7264     7295.2490     7308.2037  51.842323 -18.326667  -0.000510  -0.000726
1 62583U 25007J   26052.94389584 -.00000033  00000-0  88599-4 0  9993 | 2 62583  54.9868 336.1826 0008648 273.1424  86.8548 13.90874112 58787 | 2026/02/21-22:39:12  155.4822    0.0962   86.9538  103.5320     7303.7062     7297.3899     7310.0224  50.303963 -22.204942  -0.000305  -0.000809
1 62583U 25007J   26053.95027219 -.00000024  00000-0  96230-4 0  9990 | 2 62583  54.9867 332.6061 0008755 289.2018  70.7996 13.90312612 58921 | 2026/02/22-22:48:23  162.3420    0.0962   70.8944  103.5738     7305.6725     7299.2764     7312.0686  48.820732 -25.299670  -0.000125  -0.000867
1 62583U 25007J   26055.82022412 -.00000032  00000-0  91566-4 0  9994 | 2 62583  54.9851 325.9655 0008453 268.5421  91.4571 13.89381044 59182 | 2026/02/24-19:41:07  124.0106    0.0960   91.5539  103.6433     7308.9377     7302.7595     7315.1160  45.566191 -30.774720  -0.000491  -0.000688
1 62583U 25007J   26056.89960141 -.00000035  00000-0  89411-4 0  9991 | 2 62583  54.9862 322.1423 0008835 278.4563  81.5396 13.88885695 59339 | 2026/02/25-21:35:25  157.4768    0.0961   81.6398  103.6802     7310.6755     7304.2165     7317.1344  43.413660 -33.745167  -0.000434  -0.000770
1 62583U 25007J   26058.19541727 -.00000019  00000-0  10329-3 0  9994 | 2 62583  54.9854 317.5445 0008543 269.4621  90.5360 13.88259107 59517 | 2026/02/27-04:41:24  269.8433    0.0960   90.6339  103.7270     7312.8751     7306.6277     7319.1225  40.568329 -37.116101  -0.000583  -0.000625
1 62583U 25007J   26059.20369589 -.00000014  00000-0  10857-3 0  9992 | 2 62583  54.9851 313.9747 0008811 286.4739  73.5252 13.87761927 59659 | 2026/02/28-04:53:19  277.3862    0.0960   73.6221  103.7642     7314.6216     7308.1767     7321.0665  38.178391 -39.569833  -0.000435  -0.000766
1 62583U 25007J   26060.28441197 -.00000009  00000-0  11341-3 0  9991 | 2 62583  54.9872 310.1477 0008938 282.6887  77.3073 13.87243341 59808 | 2026/03/01-06:49:33  311.3393    0.0959   77.4072  103.8030     7316.4444     7309.9049     7322.9838  35.453559 -42.031385  -0.000540  -0.000712
1 62583U 25007J   26061.65393076 -.00000004  00000-0  11921-3 0  9994 | 2 62583  54.9770 305.3046 0006771 236.4814 123.5499 13.86432671 59994 | 2026/03/02-15:41:39   90.5237    0.0959  123.6145  103.8637     7319.2961     7314.3402     7324.2520  31.772481 -44.866246  -0.000677  -0.000021
1 62583U 25007J   26062.95200300  .00000003  00000-0  12623-3 0  9993 | 2 62583  54.9856 300.7296 0008757 255.8445 104.1541 13.85892004 60170 | 2026/03/03-22:50:53  203.7169    0.0959  104.2514  103.9042     7321.1996     7314.7884     7327.6108  28.096930 -47.264984  -0.000839  -0.000250
1 62583U 25007J   26064.61140700 -.00000004  00000-0  12111-3 0  9999 | 2 62583  54.9994 294.9168 0009480 268.3562  91.6311 13.85069057 60403 | 2026/03/05-14:40:25   88.5620    0.0959   91.7397  103.9659     7324.0993     7317.1560     7331.0425  23.171344 -49.880085  -0.000871  -0.000375
1 62583U 25007J   26065.98301515 -.00000022  00000-0  10709-3 0  9994 | 2 62583  54.9692 290.0843 0010435 254.6880 105.2924 13.84306478 60590 | 2026/03/06-23:35:32  228.5323    0.0957  105.4077  104.0232     7326.7888     7319.1433     7334.4343  18.876553 -51.626434  -0.001040  -0.000087
1 62583U 25007J   26067.93342673 -.00000020  00000-0  10993-3 0  9994 | 2 62583  54.9840 283.1927 0009358 295.7956  64.2035 13.83267270 60865 | 2026/03/08-22:24:08  219.4757    0.0957   64.3001  104.1014     7330.4580     7323.5981     7337.3178  12.548824 -53.532862  -0.000727  -0.000589
1 62583U 25007J   26068.94527712 -.00000022  00000-0  10890-3 0  9993 | 2 62583  54.9841 279.6400 0008981 292.1760  67.8244 13.82921817 61008 | 2026/03/09-22:41:11  228.2906    0.0957   67.9197  104.1274     7331.6787     7325.0941     7338.2632   9.207476 -54.207690  -0.000763  -0.000473
1 62583U 25007J   26070.17423803 -.00000022  00000-0  10892-3 0  9999 | 2 62583  54.9833 275.3287 0008599 288.1034  71.8986 13.82673301 61177 | 2026/03/11-04:10:54  316.2376    0.0957   71.9923  104.1461     7332.5572     7326.2519     7338.8624   5.106263 -54.745679  -0.000789  -0.000342
1 62583U 25007J   26071.54791108 -.00000012  00000-0  11896-3 0  9991 | 2 62583  54.9747 270.5049 0006526 273.0050  87.0160 13.82417449 61366 | 2026/03/12-13:08:59   96.9186    0.0957   87.0907  104.1654     7333.4618     7328.6760     7338.2477   0.484440 -54.972566  -0.000651  -0.000040
1 62583U 25007J   26073.86281959 -.00000020  00000-0  11304-3 0  9999 | 2 62583  54.9837 262.3968 0008580 255.7577 104.2427 13.81372307 61683 | 2026/03/14-20:42:27  220.6961    0.0957  104.3380  104.2442     7337.1604     7330.8651     7343.4556  -7.274990 -54.500292  -0.000796   0.000319
1 62583U 25007J   26075.81727153 -.00000045  00000-0  90762-4 0  9990 | 2 62583  54.9926 255.5603 0009989 250.1260 109.8621 13.80522842 61951 | 2026/03/16-19:36:52  213.0740    0.0957  109.9697  104.3083     7340.1699     7332.8378     7347.5020 -13.713007 -53.255417  -0.000825   0.000563
1 62583U 25007J   26077.26572588 -.00000056  00000-0  81113-4 0  9993 | 2 62583  54.9832 250.4973 0008576 266.0363  93.9613 13.80070962 62150 | 2026/03/18-06:22:38   20.9987    0.0956   94.0593  104.3425     7341.7720     7335.4757     7348.0683 -18.356212 -51.828581  -0.000787   0.000342
