# SPACE DATA - HISTORICAL TLEs
# ----------------------------
# NORAD_ID    : 58275
# OBJECT_NAME : FLOCK 4Q 12
# --------------------------------------------------------------------+-----------------------------------------------------------------------+----------------------------------------------------------------------------------------------------------------------------------------
#                  LINE 1                                             |                 LINE 2                                                |      DERIVED PARAMETERS
# --------------------------------------------------------------------+-----------------------------------------------------------------------+----------------------------------------------------------------------------------------------------------------------------------------
# NORAD  COSPAR     TLE_EPOCH      MEANMOT1 MEANMOT2   BSTAR  #  REV  |   NORAD    INC     RAAN     ECC    ARGPER  MEANANOM   MEANMOT     REV |  CAL_DATE              LONG     ARGLAT     PERIOD        SMA         PERIGEE        APOGEE      INC_X      INC_Y      ECC_X      ECC_Y
# ------ ------   -------------- ----------  -------  ------- -- ----     -----  ------- -------- ------- -------- -------- -----------  ----   ------------------- ---------  --------  --------  ------------  ------------   ----------- ---------- ----------  ---------  ---------   
1 62622U 25009P   25043.79959982  .00010217  00000-0  51704-3 0  9997 | 2 62622  97.4372 125.9663 0005282 239.4367 120.6346 15.17196280  4382 | 2025/02/12-19:11:25  304.9035    0.1234  120.6867   94.9119     6892.4559     6888.8153     6896.0965 -57.225774  78.862023   0.000526   0.000050
1 62622U 25009P   25044.92079388  .00011366  00000-0  57435-3 0  9999 | 2 62622  97.4366 127.0666 0005383 235.2882 124.7845 15.17220028  4555 | 2025/02/13-22:05:56  348.5368    0.1233  124.8351   94.9104     6892.3840     6888.6738     6896.0941 -58.729223  77.748115   0.000538   0.000022
1 62622U 25009P   25046.76741988  .00013971  00000-0  70391-3 0  9995 | 2 62622  97.4361 128.8793 0005440 228.1342 131.9428 15.17272302  4836 | 2025/02/15-18:25:05  293.3253    0.1233  131.9891   94.9072     6892.2257     6888.4763     6895.9750 -61.158872  75.851078   0.000543  -0.000028
1 62622U 25009P   25048.81181333  .00015402  00000-0  77390-3 0  9992 | 2 62622  97.4356 130.8861 0005483 218.8229 141.2611 15.17344947  5144 | 2025/02/17-19:29:00  309.3082    0.1233  141.3004   94.9026     6892.0057     6888.2268     6895.7846 -63.777195  73.662511   0.000539  -0.000098
1 62622U 25009P   25050.06478461  .00012694  00000-0  63804-3 0  9998 | 2 62622  97.4352 132.1163 0005600 214.4237 145.6634 15.17378542  5334 | 2025/02/19-01:33:17   40.3795    0.1233  145.6996   94.9005     6891.9039     6888.0445     6895.7634 -65.343716  72.275978   0.000545  -0.000130
1 62622U 25009P   25051.71338619  .00012940  00000-0  64939-3 0  9995 | 2 62622  97.4349 133.7351 0005703 209.2360 150.8556 15.17426160  5587 | 2025/02/20-17:07:16  273.8777    0.1234  150.8874   94.8975     6891.7598     6887.8294     6895.6901 -67.359200  70.400980   0.000545  -0.000167
1 62622U 25009P   25053.16411379  .00013420  00000-0  67250-3 0  9994 | 2 62622  97.4352 135.1594 0005777 203.3424 156.7548 15.17468293  5807 | 2025/02/22-03:56:19   76.1397    0.1233  156.7809   94.8949     6891.6322     6887.6509     6895.6135 -69.088499  68.705149   0.000538  -0.000212
1 62622U 25009P   25054.48292108  .00014948  00000-0  74768-3 0  9995 | 2 62622  97.4354 136.4543 0005842 197.6590 162.4442 15.17509315  6000 | 2025/02/23-11:35:24  190.9093    0.1234  162.4644   94.8923     6891.5080     6887.4820     6895.5340 -70.623623  67.126455   0.000526  -0.000255
1 62622U 25009P   25055.53794088  .00016274  00000-0  81276-3 0  9992 | 2 62622  97.4353 137.4903 0005918 193.7188 166.3886 15.17544097  6162 | 2025/02/24-12:54:38  210.7161    0.1233  166.4045   94.8902     6891.4027     6887.3244     6895.4810 -71.825693  65.838495   0.000519  -0.000285
1 62622U 25009P   25056.92261641  .00016156  00000-0  80578-3 0  9993 | 2 62622  97.4350 138.8499 0006005 189.7723 170.3395 15.17590986  6373 | 2025/02/25-22:08:34  349.2001    0.1233  170.3510   94.8872     6891.2607     6887.1225     6895.3989 -73.367414  64.115535   0.000513  -0.000313
1 62622U 25009P   25058.50505057  .00018714  00000-0  93101-3 0  9999 | 2 62622  97.4347 140.4035 0006110 184.3232 175.7950 15.17647667  6619 | 2025/02/27-12:07:16  198.8761    0.1233  175.8001   94.8837     6891.0892     6886.8787     6895.2996 -75.078520  62.102629   0.000499  -0.000353
1 62622U 25009P   25059.55997327  .00017244  00000-0  85739-3 0  9995 | 2 62622  97.4345 141.4394 0006199 180.0295 180.0939 15.17685075  6773 | 2025/02/28-13:26:21  218.6469    0.1233  180.0938   94.8813     6890.9759     6886.7042     6895.2476 -76.188840  60.735019   0.000485  -0.000386
1 62622U 25009P   25060.74673143  .00014454  00000-0  71870-3 0  9996 | 2 62622  97.4339 142.6048 0006279 175.4926 184.6365 15.17722673  6952 | 2025/03/01-17:55:17  285.8785    0.1233  184.6307   94.8790     6890.8621     6886.5353     6895.1889 -77.407872  59.172512   0.000467  -0.000419
1 62622U 25009P   25061.80160701  .00010395  00000-0  51770-3 0  9992 | 2 62622  97.4333 143.6408 0006365 172.2361 187.8973 15.17745653  7113 | 2025/03/02-19:14:18  305.6331    0.1234  187.8873   94.8776     6890.7926     6886.4066     6895.1786 -78.464611  57.762901   0.000457  -0.000443
1 62622U 25009P   25063.18610829  .00010534  00000-0  52415-3 0  9998 | 2 62622  97.4327 145.0004 0006432 168.7169 191.4210 15.17774319  7324 | 2025/03/04-04:27:59   84.0541    0.1233  191.4064   94.8758     6890.7058     6886.2737     6895.1379 -79.812586  55.884544   0.000445  -0.000465
1 62622U 25009P   25064.76836189  .00013099  00000-0  65000-3 0  9995 | 2 62622  97.4327 146.5542 0006579 163.4966 196.6483 15.17813182  7563 | 2025/03/05-18:26:26  293.6642    0.1233  196.6267   94.8733     6890.5882     6886.0549     6895.1215 -81.298582  53.699829   0.000423  -0.000504
1 62622U 25009P   25066.15280081  .00009388  00000-0  46665-3 0  9996 | 2 62622  97.4330 147.9139 0006709 158.2803 201.8717 15.17842458  7771 | 2025/03/07-03:40:01   72.0599    0.1234  201.8431   94.8715     6890.4996     6885.8767     6895.1224 -82.550189  51.755733   0.000396  -0.000541
1 62622U 25009P   25067.20759249  .00009765  00000-0  48487-3 0  9993 | 2 62622  97.4328 148.9501 0006794 154.5095 205.6475 15.17866220  7932 | 2025/03/08-04:58:55   91.7834    0.1233  205.6138   94.8700     6890.4277     6885.7463     6895.1090 -83.472474  50.254319   0.000375  -0.000567
1 62622U 25009P   25068.78974604  .00015328  00000-0  75765-3 0  9992 | 2 62622  97.4325 150.5041 0006844 150.3454 209.8169 15.17912177  8172 | 2025/03/09-18:57:14  301.3588    0.1233  209.7779   94.8671     6890.2886     6885.5729     6895.0043 -84.804364  47.971990   0.000351  -0.000588
1 62622U 25009P   25070.50369509  .00012733  00000-0  62938-3 0  9992 | 2 62622  97.4324 152.1874 0006897 145.4529 214.7154 15.17954210  8431 | 2025/03/11-12:05:19  198.3805    0.1233  214.6704   94.8645     6890.1614     6885.4092     6894.9135 -86.176852  45.460122   0.000320  -0.000611
1 62622U 25009P   25071.75616412  .00014157  00000-0  69854-3 0  9994 | 2 62622  97.4326 153.4175 0006986 141.0867 219.0871 15.17990334  8629 | 2025/03/12-18:08:52  289.2683    0.1234  219.0367   94.8623     6890.0521     6885.2387     6894.8655 -87.133093  43.599721   0.000290  -0.000636
1 62622U 25009P   25072.81084711  .00015852  00000-0  78074-3 0  9990 | 2 62622  97.4326 154.4535 0007074 137.6895 222.4886 15.18028824  8789 | 2025/03/13-19:27:37  308.9534    0.1234  222.4339   94.8599     6889.9356     6885.0617     6894.8095 -87.907160  42.017173   0.000267  -0.000655
1 62622U 25009P   25074.19507922  .00016544  00000-0  81347-3 0  9993 | 2 62622  97.4320 155.8131 0007110 133.8770 226.3053 15.18078462  8996 | 2025/03/15-04:40:54   87.2775    0.1234  226.2464   94.8568     6889.7854     6884.8868     6894.6840 -88.878817  39.919301   0.000240  -0.000669
1 62622U 25009P   25075.77700535  .00016299  00000-0  80025-3 0  9992 | 2 62622  97.4315 157.3669 0007056 129.7713 230.4143 15.18132735  9231 | 2025/03/16-18:38:53  296.7731    0.1233  230.3520   94.8534     6889.6212     6884.7599     6894.4825 -89.928111  37.494428   0.000208  -0.000674
1 62622U 25009P   25077.22704749  .00020854  00000-0  10205-2 0  9999 | 2 62622  97.4311 158.7912 0007050 125.1366 235.0529 15.18196369  9457 | 2025/03/18-05:26:56   98.7893    0.1233  234.9867   94.8494     6889.4287     6884.5716     6894.2857 -90.831921  35.247431   0.000170  -0.000684
1 62622U 25009P   25078.74293541  .00022156  00000-0  10816-2 0  9995 | 2 62622  97.4303 160.2804 0007130 120.1719 240.0222 15.18266596  9683 | 2025/03/19-17:49:49  284.5092    0.1234  239.9515   94.8450     6889.2162     6884.3042     6894.1283 -91.716517  32.874669   0.000129  -0.000701
1 62622U 25009P   25080.19285318  .00017799  00000-0  86864-3 0  9994 | 2 62622  97.4297 161.7051 0007047 115.6137 244.5826 15.18323112  9907 | 2025/03/21-04:37:42   86.4818    0.1234  244.5097   94.8415     6889.0453     6884.1906     6893.9000 -92.504962  30.583957   0.000090  -0.000699
1 62622U 25009P   25081.77451447  .00025854  00000-0  12560-2 0  9999 | 2 62622  97.4302 163.2594 0007095 112.0957 248.1031 15.18403812 10149 | 2025/03/22-18:35:18  295.8821    0.1234  248.0277   94.8364     6888.8012     6883.9136     6893.6888 -93.300975  28.063713   0.000066  -0.000706
1 62622U 25009P   25082.96070407  .00021381  00000-0  10383-2 0  9996 | 2 62622  97.4305 164.4253 0007108 108.3402 251.8606 15.18457033 10328 | 2025/03/23-23:03:24    2.9116    0.1234  251.7832   94.8331     6888.6402     6883.7438     6893.5367 -93.852971  26.159553   0.000034  -0.000710
1 62622U 25009P   25084.47633430  .00018801  00000-0  91212-3 0  9999 | 2 62622  97.4306 165.9145 0007122 104.0108 256.1919 15.18518727 10555 | 2025/03/25-11:25:55  188.5412    0.1235  256.1127   94.8293     6888.4536     6883.5477     6893.3596 -94.501216  23.711642  -0.000001  -0.000712
1 62622U 25009P   25086.18958647  .00020334  00000-0  98417-3 0  9997 | 2 62622  97.4303 167.5981 0007059  98.9740 261.2293 15.18584687 10819 | 2025/03/27-04:33:00   85.3165    0.1234  261.1494   94.8251     6888.2542     6883.3918     6893.1166 -95.156779  20.924883  -0.000042  -0.000705
1 62622U 25009P   25088.16632596  .00015953  00000-0  77179-3 0  9992 | 2 62622  97.4301 169.5407 0007022  93.2783 266.9255 15.18652176 11110 | 2025/03/29-03:59:30   76.9480    0.1235  266.8452   94.8209     6888.0501     6883.2133     6892.8869 -95.811212  17.687171  -0.000088  -0.000697
1 62622U 25009P   25089.48410766  .00013518  00000-0  65403-3 0  9993 | 2 62622  97.4299 170.8363 0007004  89.4035 270.8002 15.18688366 11315 | 2025/03/30-11:37:06  191.3528    0.1234  270.7199   94.8187     6887.9407     6883.1164     6892.7650 -96.186437  15.516272  -0.000119  -0.000690
1 62622U 25009P   25090.73597301  .00012951  00000-0  62618-3 0  9999 | 2 62622  97.4293 172.0670 0006967  86.0992 274.1039 15.18719929 11504 | 2025/03/31-17:39:48  282.0281    0.1235  274.0243   94.8167     6887.8452     6883.0465     6892.6440 -96.496915  13.446706  -0.000143  -0.000682
1 62622U 25009P   25091.79015461  .00012230  00000-0  59113-3 0  9994 | 2 62622  97.4286 173.1031 0006861  82.9490 277.2525 15.18746018 11660 | 2025/04/01-18:57:49  301.5380    0.1235  277.1745   94.8151     6887.7664     6883.0407     6892.4920 -96.723591  11.699531  -0.000165  -0.000666
1 62622U 25009P   25093.50315462  .00016858  00000-0  81184-3 0  9992 | 2 62622  97.4282 174.7871 0006752  78.0802 282.1189 15.18801732 11922 | 2025/04/03-12:04:32  198.2248    0.1234  282.0432   94.8116     6887.5979     6882.9474     6892.2484 -97.025234   8.852014  -0.000199  -0.000645
1 62622U 25009P   25094.75492037  .00018339  00000-0  88151-3 0  9991 | 2 62622  97.4283 176.0176 0006780  74.3178 285.8804 15.18847699 12110 | 2025/04/04-18:07:05  288.8647    0.1235  285.8057   94.8087     6887.4589     6882.7892     6892.1286 -97.193053   6.766399  -0.000228  -0.000638
1 62622U 25009P   25095.80900821  .00017676  00000-0  84887-3 0  9998 | 2 62622  97.4286 177.0542 0006759  71.5668 288.6300 15.18887496 12278 | 2025/04/05-19:24:58  308.3401    0.1234  288.5566   94.8062     6887.3386     6882.6835     6891.9938 -97.299857   5.006979  -0.000246  -0.000629
1 62622U 25009P   25097.19245927  .00015030  00000-0  72159-3 0  9992 | 2 62622  97.4286 178.4143 0006626  67.4451 292.7484 15.18932639 12489 | 2025/04/07-04:37:08   86.3892    0.1235  292.6784   94.8034     6887.2022     6882.6387     6891.7656 -97.391290   2.696059  -0.000271  -0.000605
1 62622U 25009P   25098.77350319  .00015468  00000-0  74156-3 0  9993 | 2 62622  97.4288 179.9690 0006492  62.3801 297.8092 15.18976994 12728 | 2025/04/08-18:33:50  295.5729    0.1235  297.7434   94.8006     6887.0681     6882.5970     6891.5392 -97.428786   0.052714  -0.000301  -0.000575
1 62622U 25009P   25100.48623812  .00016502  00000-0  78948-3 0  9999 | 2 62622  97.4293 181.6530 0006451  57.6643 302.5216 15.19037257 12984 | 2025/04/10-11:40:10  192.1650    0.1235  302.4592   94.7969     6886.8859     6882.4432     6891.3287 -97.388756  -2.810474  -0.000329  -0.000555
1 62622U 25009P   25101.93542709  .00014332  00000-0  68544-3 0  9995 | 2 62622  97.4289 183.0780 0006335  53.5496 306.6322 15.19079694 13204 | 2025/04/11-22:27:00  353.8806    0.1235  306.5739   94.7942     6886.7577     6882.3949     6891.1204 -97.288345  -5.231484  -0.000348  -0.000529
1 62622U 25009P   25103.18696540  .00017710  00000-0  84483-3 0  9990 | 2 62622  97.4284 184.3086 0006176  49.0397 311.1371 15.19122005 13395 | 2025/04/13-04:29:13   84.4423    0.1235  311.0838   94.7916     6886.6298     6882.3766     6890.8830 -97.153054  -7.319640  -0.000369  -0.000495
1 62622U 25009P   25104.70194288  .00015099  00000-0  72011-3 0  9993 | 2 62622  97.4282 185.7985 0006058  44.2236 315.9482 15.19165773 13624 | 2025/04/14-16:50:47  269.8426    0.1235  315.8999   94.7889     6886.4975     6882.3257     6890.6694 -96.929694  -9.843196  -0.000389  -0.000464
1 62622U 25009P   25105.75581533  .00013140  00000-0  62677-3 0  9994 | 2 62622  97.4281 186.8350 0006020  41.4884 318.6806 15.19192940 13781 | 2025/04/15-18:08:22  289.2417    0.1234  318.6350   94.7872     6886.4154     6882.2698     6890.5611 -96.735678 -11.594968  -0.000400  -0.000450
1 62622U 25009P   25107.20485314  .00016704  00000-0  79442-3 0  9993 | 2 62622  97.4276 188.2602 0005928  37.1757 322.9887 15.19241980 14000 | 2025/04/17-04:54:59   90.9029    0.1235  322.9478   94.7841     6886.2672     6882.1851     6890.3494 -96.416869 -13.997306  -0.000416  -0.000422
1 62622U 25009P   25109.24661222  .00012792  00000-0  60858-3 0  9997 | 2 62622  97.4271 190.2683 0005693  29.2001 330.9551 15.19292479 14310 | 2025/04/19-05:55:07  105.9498    0.1235  330.9234   94.7810     6886.1147     6882.1944     6890.0349 -95.866689 -17.367144  -0.000439  -0.000362
1 62622U 25009P   25110.69556259  .00012194  00000-0  57973-3 0  9991 | 2 62622  97.4273 191.6940 0005569  24.6959 335.4541 15.19327461 14539 | 2025/04/20-16:41:36  267.5795    0.1235  335.4276   94.7788     6886.0090     6882.1741     6889.8438 -95.405103 -19.747028  -0.000448  -0.000330
1 62622U 25009P   25112.21033694  .00012788  00000-0  60710-3 0  9996 | 2 62622  97.4276 193.1837 0005445  20.0909 340.0539 15.19366770 14762 | 2025/04/22-05:02:53   92.9068    0.1235  340.0326   94.7763     6885.8902     6882.1408     6889.6395 -94.859781 -22.220692  -0.000455  -0.000299
1 62622U 25009P   25113.65921572  .00010870  00000-0  51616-3 0  9991 | 2 62622  97.4277 194.6094 0005346  14.6790 345.4599 15.19400021 14988 | 2025/04/23-15:49:16  254.5115    0.1235  345.4445   94.7743     6885.7897     6882.1086     6889.4709 -94.277648 -24.574005  -0.000466  -0.000262
1 62622U 25009P   25115.50318899  .00013931  00000-0  65933-3 0  9997 | 2 62622  97.4278 196.4232 0005203   7.7199 352.4114 15.19455279 15269 | 2025/04/25-12:04:35  198.3532    0.1234  352.4035   94.7708     6885.6228     6882.0402     6889.2054 -93.452704 -27.545750  -0.000475  -0.000213
1 62622U 25009P   25116.75441800  .00013065  00000-0  61797-3 0  9996 | 2 62622  97.4281 197.6543 0005096   3.5766 356.5504 15.19492205 15454 | 2025/04/26-18:06:21  288.8021    0.1235  356.5469   94.7685     6885.5112     6882.0024     6889.0201 -92.839595 -29.547323  -0.000475  -0.000185
1 62622U 25009P   25118.66413232  .00012299  00000-0  58110-3 0  9999 | 2 62622  97.4275 199.5331 0004939 356.3460   3.7738 15.19545145 15742 | 2025/04/28-15:56:21  256.3099    0.1235    3.7775   94.7652     6885.3513     6881.9506     6888.7520 -91.820400 -32.575018  -0.000475  -0.000135
1 62622U 25009P   25121.82490631  .00012818  00000-0  60406-3 0  9997 | 2 62622  97.4270 202.6438 0004686 343.4253  16.6828 15.19624949 16224 | 2025/05/01-19:47:51  314.2050    0.1235   16.6982   94.7602     6885.1102     6881.8839     6888.3366 -89.916954 -37.509489  -0.000466  -0.000050
1 62622U 25009P   25122.87845778  .00014419  00000-0  67837-3 0  9993 | 2 62622  97.4268 203.6806 0004560 339.5319  20.5732 15.19657602 16388 | 2025/05/02-21:04:58  333.4881    0.1235   20.5916   94.7582     6885.0116     6881.8720     6888.1512 -89.223331 -39.130277  -0.000455  -0.000026
1 62622U 25009P   25124.45874653  .00010306  00000-0  48548-3 0  9992 | 2 62622  97.4265 205.2358 0004477 331.8778  28.2215 15.19695564 16623 | 2025/05/04-11:00:35  182.4003    0.1236   28.2458   94.7558     6884.8969     6881.8146     6887.9793 -88.128196 -41.537259  -0.000447   0.000023
1 62622U 25009P   25126.76327351  .00009625  00000-0  45305-3 0  9996 | 2 62622  97.4271 207.5039 0004339 321.7392  38.3535 15.19743333 16971 | 2025/05/06-18:19:06  292.0400    0.1236   38.3844   94.7528     6884.7527     6881.7654     6887.7400 -86.415831 -44.992711  -0.000426   0.000081
1 62622U 25009P   25127.94843147  .00007997  00000-0  37682-3 0  9992 | 2 62622  97.4274 208.6703 0004252 316.7454  43.3446 15.19763427 17155 | 2025/05/07-22:45:44  358.7013    0.1235   43.3781   94.7516     6884.6920     6881.7646     6887.6194 -85.482311 -46.742622  -0.000411   0.000107
1 62622U 25009P   25129.19941417  .00009127  00000-0  42927-3 0  9995 | 2 62622  97.4274 209.9016 0004208 310.9748  49.1123 15.19787102 17342 | 2025/05/09-04:47:09   89.0597    0.1236   49.1488   94.7501     6884.6205     6881.7234     6887.5175 -84.458140 -48.568723  -0.000398   0.000138
1 62622U 25009P   25130.71373848  .00008644  00000-0  40644-3 0  9999 | 2 62622  97.4273 211.3920 0004178 303.5837  56.4998 15.19812325 17577 | 2025/05/10-17:07:47  274.2222    0.1234   56.5397   94.7485     6884.5443     6881.6680     6887.4207 -83.166236 -50.748950  -0.000379   0.000177
1 62622U 25009P   25131.76716545  .00008303  00000-0  39036-3 0  9995 | 2 62622  97.4275 212.4288 0004148 298.5257  61.5560 15.19830750 17736 | 2025/05/11-18:24:43  293.4592    0.1235   61.5978   94.7474     6884.4887     6881.6330     6887.3444 -82.234508 -52.245607  -0.000363   0.000201
1 62622U 25009P   25132.95225524  .00008255  00000-0  38788-3 0  9998 | 2 62622  97.4275 213.5952 0004077 292.9611  67.1193 15.19851711 17913 | 2025/05/12-22:51:14    0.0945    0.1235   67.1624   94.7461     6884.4254     6881.6186     6887.2322 -81.153951 -53.908757  -0.000340   0.000225
1 62622U 25009P   25134.46651540  .00007834  00000-0  36801-3 0  9993 | 2 62622  97.4270 215.0859 0004075 285.7444  74.3341 15.19875390 18143 | 2025/05/14-11:11:46  185.2319    0.1235   74.3791   94.7446     6884.3539     6881.5485     6887.1592 -79.723656 -56.001419  -0.000316   0.000257
1 62622U 25009P   25136.17826085  .00007845  00000-0  36826-3 0  9990 | 2 62622  97.4266 216.7712 0004125 277.5197  82.5569 15.19901302 18409 | 2025/05/16-04:16:41   81.4641    0.1235   82.6038   94.7430     6884.2756     6881.4359     6887.1154 -78.041860 -58.321612  -0.000288   0.000295
1 62622U 25009P   25137.49496580  .00011182  00000-0  52293-3 0  9994 | 2 62622  97.4265 218.0674 0004111 271.0887  88.9877 15.19928916 18604 | 2025/05/17-11:52:45  195.4797    0.1235   89.0348   94.7413     6884.1922     6881.3622     6887.0223 -76.702517 -60.072013  -0.000260   0.000319
1 62622U 25009P   25138.81164841  .00008827  00000-0  41331-3 0  9996 | 2 62622  97.4263 219.3636 0004116 264.6679  95.4087 15.19951132 18800 | 2025/05/18-19:28:46  309.4868    0.1236   95.4557   94.7399     6884.1252     6881.2917     6886.9587 -75.323844 -61.791605  -0.000230   0.000341
1 62622U 25009P   25140.19414594  .00006616  00000-0  31049-3 0  9992 | 2 62622  97.4262 220.7248 0004184 258.1825 101.8941 15.19969459 19016 | 2025/05/20-04:39:34   87.1874    0.1235  101.9410   94.7387     6884.0698     6881.1895     6886.9501 -73.834641 -63.563434  -0.000202   0.000366
1 62622U 25009P   25142.16911239  .00007621  00000-0  35684-3 0  9995 | 2 62622  97.4266 222.6692 0004298 249.3560 110.7215 15.19999090 19318 | 2025/05/22-04:03:31   78.1766    0.1236  110.7676   94.7369     6883.9804     6881.0216     6886.9391 -71.635737 -66.032292  -0.000161   0.000398
1 62622U 25009P   25143.22241160  .00006714  00000-0  31463-3 0  9995 | 2 62622  97.4271 223.7062 0004323 244.5177 115.5611 15.20014360 19477 | 2025/05/23-05:20:16   97.3642    0.1235  115.6058   94.7359     6883.9343     6880.9583     6886.9102 -70.429308 -67.318291  -0.000135   0.000411
1 62622U 25009P   25144.47319188  .00006065  00000-0  28443-3 0  9992 | 2 62622  97.4277 224.9375 0004384 239.3312 120.7492 15.20030340 19665 | 2025/05/24-11:21:23  187.6450    0.1236  120.7924   94.7350     6883.8860     6880.8681     6886.9039 -68.966896 -68.816597  -0.000108   0.000425
1 62622U 25009P   25147.17219966  .00006898  00000-0  32269-3 0  9990 | 2 62622  97.4277 227.5953 0004598 228.0067 132.0777 15.20066364 20079 | 2025/05/27-04:07:58   79.2863    0.1235  132.1168   94.7327     6883.7772     6880.6121     6886.9424 -65.701632 -71.940616  -0.000045   0.000458
1 62622U 25009P   25148.48876362  .00008302  00000-0  38739-3 0  9994 | 2 62622  97.4274 228.8918 0004710 221.9215 138.1660 15.20088392 20279 | 2025/05/28-11:43:49  193.2474    0.1235  138.2020   94.7313     6883.7107     6880.4685     6886.9530 -64.056868 -73.408555  -0.000007   0.000471
1 62622U 25009P   25149.80530701  .00009035  00000-0  42096-3 0  9990 | 2 62622  97.4269 230.1882 0004820 216.6561 143.4345 15.20113278 20479 | 2025/05/29-19:19:38  307.2012    0.1235  143.4674   94.7298     6883.6356     6880.3177     6886.9535 -62.379318 -74.838637   0.000027   0.000481
1 62622U 25009P   25151.18765562  .00007646  00000-0  35657-3 0  9990 | 2 62622  97.4265 231.5498 0004969 211.5997 148.4940 15.20135931 20683 | 2025/05/31-04:30:13   84.8445    0.1234  148.5237   94.7284     6883.5672     6880.1468     6886.9877 -60.583128 -76.299460   0.000059   0.000493
1 62622U 25009P   25152.76745566  .00023825  00000-0  11004-2 0  9993 | 2 62622  97.4264 233.1058 0005095 205.8749 154.2232 15.20183606 20922 | 2025/06/01-18:25:08  293.5692    0.1235  154.2486   94.7254     6883.4233     6879.9162     6886.9304 -58.488894 -77.916319   0.000097   0.000500
1 62622U 25009P   25154.14975373  .00011112  00000-0  51554-3 0  9999 | 2 62622  97.4267 234.4671 0005220 200.0582 160.0449 15.20198480 21137 | 2025/06/03-03:35:38   71.1927    0.1235  160.0653   94.7245     6883.3784     6879.7853     6886.9715 -56.621508 -79.284089   0.000139   0.000503
1 62622U 25009P   25155.20291618  .00005644  00000-0  26350-3 0  9999 | 2 62622  97.4268 235.5044 0005304 196.2977 163.8089 15.20210238 21295 | 2025/06/04-04:52:11   90.3284    0.1235  163.8258   94.7237     6883.3429     6879.6920     6886.9938 -55.176981 -80.296215   0.000166   0.000504
1 62622U 25009P   25156.71682019  .00006036  00000-0  28139-3 0  9998 | 2 62622  97.4271 236.9953 0005434 191.5663 168.5448 15.20231719 21521 | 2025/06/05-17:12:13  275.3306    0.1235  168.5572   94.7224     6883.2781     6879.5377     6887.0184 -53.069304 -81.704888   0.000199   0.000506
1 62622U 25009P   25157.96742217  .00006405  00000-0  29825-3 0  9996 | 2 62622  97.4273 238.2269 0005549 187.2082 172.9075 15.20248097 21715 | 2025/06/06-23:13:05    5.5438    0.1235  172.9153   94.7214     6883.2286     6879.4091     6887.0481 -51.300999 -82.826845   0.000231   0.000505
1 62622U 25009P   25159.48129024  .00006713  00000-0  31222-3 0  9996 | 2 62622  97.4274 239.7177 0005709 181.8205 178.3011 15.20269178 21943 | 2025/06/08-11:33:03  190.5317    0.1235  178.3030   94.7201     6883.1650     6879.2354     6887.0946 -49.128826 -84.133565   0.000272   0.000502
1 62622U 25009P   25160.73186270  .00006171  00000-0  28718-3 0  9996 | 2 62622  97.4275 240.9495 0005833 177.9387 182.1873 15.20284270 22137 | 2025/06/09-17:33:52  280.7342    0.1235  182.1848   94.7191     6883.1195     6879.1045     6887.1344 -47.308876 -85.170347   0.000301   0.000499
1 62622U 25009P   25162.17987847  .00005788  00000-0  26939-3 0  9991 | 2 62622  97.4275 242.3759 0005967 173.1916 186.9401 15.20301166 22357 | 2025/06/11-04:19:01   82.0150    0.1234  186.9318   94.7181     6883.0685     6878.9613     6887.1756 -45.174087 -86.321606   0.000337   0.000492
1 62622U 25009P   25163.75951058  .00007315  00000-0  33937-3 0  9995 | 2 62622  97.4273 243.9319 0006105 168.3830 191.7547 15.20325107 22592 | 2025/06/12-18:13:41  290.6776    0.1235  191.7405   94.7166     6882.9962     6878.7941     6887.1983 -42.813367 -87.516252   0.000373   0.000483
1 62622U 25009P   25165.47074266  .00008610  00000-0  39840-3 0  9991 | 2 62622  97.4269 245.6179 0006259 162.8084 197.3364 15.20360866 22859 | 2025/06/14-11:17:52  186.7147    0.1234  197.3150   94.7144     6882.8883     6878.5803     6887.1963 -40.219763 -88.737655   0.000415   0.000468
1 62622U 25009P   25166.78705245  .00005815  00000-0  27005-3 0  9998 | 2 62622  97.4264 246.9149 0006356 159.0939 201.0557 15.20378708 23054 | 2025/06/15-18:53:21  300.5818    0.1235  201.0296   94.7132     6882.8344     6878.4597     6887.2092 -38.200687 -89.624834   0.000441   0.000457
1 62622U 25009P   25168.62986271  .00006780  00000-0  31407-3 0  9996 | 2 62622  97.4263 248.7304 0006493 153.3750 206.7820 15.20403506 23337 | 2025/06/17-15:07:00  243.9870    0.1235  206.7485   94.7117     6882.7596     6878.2906     6887.2286 -35.342057 -90.789994   0.000482   0.000435
1 62622U 25009P   25169.68288389  .00006211  00000-0  28786-3 0  9993 | 2 62622  97.4265 249.7675 0006584 150.4323 209.7286 15.20416363 23497 | 2025/06/18-16:23:21  263.0715    0.1235  209.6912   94.7109     6882.7208     6878.1892     6887.2524 -33.693054 -91.414993   0.000503   0.000425
1 62622U 25009P   25170.93333658  .00005296  00000-0  24585-3 0  9998 | 2 62622  97.4269 250.9995 0006668 146.7183 213.4473 15.20428711 23686 | 2025/06/19-22:24:00  353.2303    0.1235  213.4052   94.7101     6882.6835     6878.0941     6887.2729 -31.719900 -92.118667   0.000527   0.000408
1 62622U 25009P   25172.18377912  .00004754  00000-0  22097-3 0  9992 | 2 62622  97.4271 252.2313 0006756 143.1194 217.0507 15.20440234 23872 | 2025/06/21-04:24:38   83.3858    0.1235  217.0041   94.7094     6882.6487     6877.9988     6887.2987 -29.732327 -92.779462   0.000551   0.000391
1 62622U 25009P   25174.55301056  .00004654  00000-0  21621-3 0  9992 | 2 62622  97.4275 254.5651 0006897 136.6290 223.5489 15.20463474 24239 | 2025/06/23-13:16:20  216.3027    0.1235  223.4945   94.7080     6882.5786     6877.8317     6887.3255 -25.929678 -93.913628   0.000590   0.000357
1 62622U 25009P   25175.73761329  .00004368  00000-0  20307-3 0  9998 | 2 62622  97.4278 255.7324 0006939 133.0433 227.1385 15.20474145 24411 | 2025/06/24-17:42:09  282.7561    0.1235  227.0802   94.7073     6882.5464     6877.7706     6887.3222 -24.011179 -94.422664   0.000608   0.000334
1 62622U 25009P   25177.64612325  .00005285  00000-0  24489-3 0  9995 | 2 62622  97.4276 257.6130 0007054 127.4995 232.6883 15.20492656 24707 | 2025/06/26-15:30:25  249.8142    0.1235  232.6240   94.7061     6882.4905     6877.6356     6887.3455 -20.899557 -95.159580   0.000639   0.000299
1 62622U 25009P   25179.48879744  .00004871  00000-0  22581-3 0  9990 | 2 62622  97.4269 259.4288 0007116 122.5144 237.6780 15.20511626 24984 | 2025/06/28-11:43:52  193.1728    0.1235  237.6091   94.7050     6882.4333     6877.5358     6887.3308 -17.873671 -95.773340   0.000660   0.000266
1 62622U 25009P   25180.73917037  .00003960  00000-0  18415-3 0  9997 | 2 62622  97.4269 260.6610 0007150 119.1681 241.0270 15.20522889 25171 | 2025/06/29-17:44:24  283.3045    0.1235  240.9554   94.7043     6882.3993     6877.4784     6887.3202 -15.810000 -96.135554   0.000673   0.000243
1 62622U 25009P   25182.45018926  .00005995  00000-0  27692-3 0  9994 | 2 62622  97.4268 262.3470 0007195 114.2895 245.9093 15.20544666 25437 | 2025/07/01-10:48:16  179.2681    0.1236  245.8341   94.7029     6882.3336     6877.3818     6887.2854 -12.974642 -96.558998   0.000689   0.000206
1 62622U 25009P   25183.50311298  .00006201  00000-0  28620-3 0  9992 | 2 62622  97.4268 263.3845 0007226 111.5201 248.6806 15.20557093 25597 | 2025/07/02-12:04:28  198.3191    0.1236  248.6035   94.7021     6882.2961     6877.3230     6887.2693 -11.224140 -96.778097   0.000698   0.000186
1 62622U 25009P   25184.68764032  .00006311  00000-0  29110-3 0  9997 | 2 62622  97.4269 264.5515 0007224 108.4515 251.7507 15.20572686 25774 | 2025/07/03-16:30:12  264.7479    0.1236  251.6721   94.7012     6882.2491     6877.2773     6887.2208  -9.250782 -96.986720   0.000704   0.000163
1 62622U 25009P   25185.80634886  .00006214  00000-0  28653-3 0  9998 | 2 62622  97.4269 265.6536 0007222 105.1865 255.0169 15.20587834 25940 | 2025/07/04-19:21:08  307.4824    0.1235  254.9370   94.7002     6882.2033     6877.2330     6887.1737  -7.383620 -97.146709   0.000709   0.000136
1 62622U 25009P   25187.18826727  .00006634  00000-0  30551-3 0  9994 | 2 62622  97.4270 267.0152 0007206 101.3838 258.8208 15.20607544 26152 | 2025/07/06-04:31:06   84.9723    0.1236  258.7398   94.6990     6882.1439     6877.1846     6887.1031  -5.073124 -97.294829   0.000713   0.000105
1 62622U 25009P   25188.76758216  .00006316  00000-0  29085-3 0  9993 | 2 62622  97.4271 268.5714 0007215  97.2816 262.9240 15.20628319 26393 | 2025/07/07-18:25:19  293.5251    0.1236  262.8420   94.6977     6882.0812     6877.1158     6887.0466  -2.428974 -97.396817   0.000718   0.000074
1 62622U 25009P   25190.47848230  .00004900  00000-0  22624-3 0  9999 | 2 62622  97.4274 270.2573 0007195  92.5781 267.6278 15.20647636 26650 | 2025/07/09-11:29:00  189.4493    0.1235  267.5454   94.6965     6882.0229     6877.0713     6886.9745   0.437519 -97.426418   0.000719   0.000036
1 62622U 25009P   25191.79454287  .00006355  00000-0  29229-3 0  9994 | 2 62622  97.4249 271.5521 0007037  88.7126 271.4888 15.20666380 26853 | 2025/07/10-19:04:08  303.2379    0.1208  271.4082   94.6953     6881.9664     6877.1235     6886.8092   2.638845 -97.389156   0.000704   0.000003
1 62622U 25009P   25193.50541426  .00005601  00000-0  25792-3 0  9991 | 2 62622  97.4269 273.2406 0007122  84.2044 276.0003 15.20678434 27114 | 2025/07/12-12:07:47  199.1462    0.1235  275.9191   94.6946     6881.9300     6877.0287     6886.8313   5.507444 -97.271110   0.000711  -0.000032
1 62622U 25009P   25194.68984704  .00006032  00000-0  27740-3 0  9995 | 2 62622  97.4265 274.4079 0007078  81.1278 279.0758 15.20693528 27294 | 2025/07/13-16:33:22  265.5432    0.1235  278.9957   94.6936     6881.8844     6877.0135     6886.7554   7.487860 -97.138328   0.000706  -0.000055
1 62622U 25009P   25195.74266651  .00005056  00000-0  23296-3 0  9994 | 2 62622  97.4263 275.4457 0007044  78.2090 281.9935 15.20704916 27456 | 2025/07/14-17:49:26  284.5592    0.1235  281.9145   94.6929     6881.8501     6877.0025     6886.6977   9.245986 -96.986575   0.000700  -0.000078
1 62622U 25009P   25196.79547802  .00005214  00000-0  24008-3 0  9998 | 2 62622  97.4260 276.4833 0006997  75.2744 284.9267 15.20716984 27618 | 2025/07/15-19:05:29  303.5729    0.1236  284.8492   94.6922     6881.8137     6876.9985     6886.6289  11.000722 -96.802942   0.000692  -0.000100
1 62622U 25009P   25198.17728080  .00006502  00000-0  29839-3 0  9999 | 2 62622  97.4258 277.8449 0006925  71.3998 288.7989 15.20734711 27826 | 2025/07/17-04:15:17   81.0246    0.1236  288.7238   94.6911     6881.7602     6876.9946     6886.5258  13.297836 -96.514010   0.000680  -0.000129
1 62622U 25009P   25199.69066652  .00005558  00000-0  25546-3 0  9998 | 2 62622  97.4260 279.3361 0006845  67.3831 292.8127 15.20750999 28053 | 2025/07/18-16:34:33  265.8468    0.1235  292.7404   94.6901     6881.7111     6877.0005     6886.4216  15.804988 -96.135466   0.000666  -0.000157
1 62622U 25009P   25201.20403351  .00004948  00000-0  22765-3 0  9992 | 2 62622  97.4263 280.8274 0006767  62.9280 297.2645 15.20768377 28286 | 2025/07/20-04:53:48   90.6626    0.1235  297.1955   94.6890     6881.6586     6877.0018     6886.3155  18.301632 -95.691871   0.000650  -0.000189
1 62622U 25009P   25202.78318211  .00005445  00000-0  25009-3 0  9993 | 2 62622  97.4266 282.3835 0006659  58.1755 302.0128 15.20786185 28528 | 2025/07/21-18:47:46  299.1607    0.1236  301.9481   94.6879     6881.6049     6877.0225     6886.1874  20.893530 -95.159880   0.000628  -0.000222
1 62622U 25009P   25204.49390344  .00007908  00000-0  36141-3 0  9995 | 2 62622  97.4267 284.0695 0006537  53.4035 306.7801 15.20811696 28789 | 2025/07/23-11:51:13  195.0252    0.1236  306.7201   94.6863     6881.5280     6877.0295     6886.0264  23.684303 -94.504051   0.000604  -0.000250
1 62622U 25009P   25205.94141153  .00007431  00000-0  33960-3 0  9995 | 2 62622  97.4267 285.4964 0006448  49.0549 311.1244 15.20835312 29003 | 2025/07/24-22:35:37  356.1323    0.1236  311.0687   94.6848     6881.4567     6877.0196     6885.8939  26.030254 -93.884971   0.000582  -0.000277
1 62622U 25009P   25207.71787133  .00006795  00000-0  31060-3 0  9997 | 2 62622  97.4263 287.2478 0006280  43.3149 316.8579 15.20859832 29271 | 2025/07/26-17:13:44  275.6639    0.1236  316.8087   94.6833     6881.3828     6877.0612     6885.7043  28.887376 -93.045169   0.000547  -0.000309
1 62622U 25009P   25208.77057472  .00007140  00000-0  32607-3 0  9993 | 2 62622  97.4259 288.2855 0006195  40.2077 319.9616 15.20874847 29434 | 2025/07/27-18:29:37  294.6405    0.1236  319.9159   94.6823     6881.3375     6877.0745     6885.6005  30.567588 -92.506370   0.000528  -0.000324
1 62622U 25009P   25210.48119539  .00007272  00000-0  33178-3 0  9997 | 2 62622  97.4254 289.9717 0006090  34.9478 325.2156 15.20899697 29690 | 2025/07/29-11:32:55  190.4697    0.1236  325.1758   94.6808     6881.2625     6877.0718     6885.4532  33.276226 -91.566377   0.000498  -0.000350
1 62622U 25009P   25211.86283006  .00007722  00000-0  35193-3 0  9990 | 2 62622  97.4253 291.3335 0005945  30.2658 329.8920 15.20920542 29906 | 2025/07/30-20:42:28  327.8638    0.1236  329.8578   94.6795     6881.1996     6877.1088     6885.2905  35.442926 -90.749590   0.000466  -0.000369
1 62622U 25009P   25213.17865451  .00007933  00000-0  36124-3 0  9995 | 2 62622  97.4252 292.6304 0005827  25.6360 334.5163 15.20941169 30106 | 2025/08/01-04:17:15   81.5661    0.1236  334.4876   94.6782     6881.1374     6877.1278     6885.1471  37.487766 -89.924062   0.000435  -0.000388
1 62622U 25009P   25215.21814709  .00006789  00000-0  30935-3 0  9994 | 2 62622  97.4254 294.6403 0005651  19.4820 340.6630 15.20971570 30417 | 2025/08/03-05:14:07   95.7911    0.1235  340.6415   94.6763     6881.0457     6877.1572     6884.9342  40.618619 -88.554144   0.000393  -0.000406
1 62622U 25009P   25216.66550696  .00006103  00000-0  27829-3 0  9994 | 2 62622  97.4255 296.0669 0005510  14.6258 345.5136 15.20989126 30639 | 2025/08/04-15:58:19  256.8462    0.1236  345.4978   94.6752     6880.9928     6877.2013     6884.7842  42.810743 -87.515532   0.000359  -0.000418
1 62622U 25009P   25218.77072722  .00006300  00000-0  28695-3 0  9998 | 2 62622  97.4257 298.1420 0005320   7.0334 353.0976 15.21015341 30950 | 2025/08/06-18:29:50  294.7338    0.1237  353.0903   94.6736     6880.9137     6877.2531     6884.5744  45.951649 -85.908166   0.000306  -0.000435
1 62622U 25009P   25220.48119323  .00005378  00000-0  24532-3 0  9998 | 2 62622  97.4256 299.8282 0005169   0.9732 359.1513 15.21033837 31212 | 2025/08/08-11:32:55  190.5078    0.1236  359.1504   94.6725     6880.8579     6877.3012     6884.4146  48.459591 -84.518729   0.000265  -0.000444
1 62622U 25009P   25222.19163583  .00006828  00000-0  31036-3 0  9993 | 2 62622  97.4253 301.5145 0005005 354.3981   5.7198 15.21057628 31474 | 2025/08/10-04:35:57   86.2733    0.1236    5.7255   94.6710     6880.7862     6877.3423     6884.2300  50.925600 -83.055839   0.000219  -0.000450
1 62622U 25009P   25223.70469857  .00006549  00000-0  29766-3 0  9991 | 2 62622  97.4248 303.0062 0004866 348.6851  11.4274 15.21077042 31706 | 2025/08/11-16:54:45  270.9810    0.1236   11.4385   94.6698     6880.7276     6877.3795     6884.0758  53.070190 -81.701570   0.000180  -0.000452
1 62622U 25009P   25225.08617321  .00005730  00000-0  26075-3 0  9996 | 2 62622  97.4243 304.3682 0004739 343.4515  16.6566 15.21093675 31916 | 2025/08/13-02:04:05   48.3159    0.1237   16.6722   94.6687     6880.6775     6877.4167     6883.9382  54.996891 -80.416641   0.000145  -0.000451
1 62622U 25009P   25226.46763294  .00005916  00000-0  26896-3 0  9997 | 2 62622  97.4239 305.7299 0004600 337.7610  22.3425 15.21110865 32122 | 2025/08/14-11:13:23  185.6459    0.1235   22.3625   94.6677     6880.6256     6877.4605     6883.7907  56.892140 -79.086666   0.000107  -0.000447
1 62622U 25009P   25227.65173005  .00005671  00000-0  25787-3 0  9990 | 2 62622  97.4239 306.8969 0004497 332.6217  27.4781 15.21124008 32304 | 2025/08/15-15:38:29  251.9247    0.1236   27.5019   94.6668     6880.5860     6877.4918     6883.6802  58.491065 -77.911563   0.000074  -0.000444
1 62622U 25009P   25229.09894617  .00005419  00000-0  24644-3 0  9990 | 2 62622  97.4240 308.3232 0004364 326.5166  33.5793 15.21139463 32520 | 2025/08/17-02:22:28   52.9265    0.1236   33.6070   94.6659     6880.5394     6877.5367     6883.5421  60.412306 -76.431597   0.000037  -0.000435
1 62622U 25009P   25230.48036632  .00004861  00000-0  22132-3 0  9990 | 2 62622  97.4242 309.6849 0004278 320.5417  39.5506 15.21153010 32732 | 2025/08/18-11:31:43  190.2413    0.1235   39.5818   94.6650     6880.4985     6877.5551     6883.4420  62.211687 -74.974534   0.000002  -0.000428
1 62622U 25009P   25231.79599305  .00005329  00000-0  24219-3 0  9994 | 2 62622  97.4243 310.9818 0004209 314.8446  45.2448 15.21167108 32930 | 2025/08/19-19:06:13  303.8696    0.1237   45.2791   94.6642     6880.4560     6877.5600     6883.3520  63.892733 -73.547352  -0.000031  -0.000420
1 62622U 25009P   25234.16408730  .00005674  00000-0  25749-3 0  9991 | 2 62622  97.4246 313.3165 0004082 303.3815  56.7029 15.21195156 33293 | 2025/08/22-03:56:17   76.3880    0.1235   56.7420   94.6624     6880.3715     6877.5629     6883.1800  66.835995 -70.883725  -0.000094  -0.000397
1 62622U 25009P   25235.94012991  .00005401  00000-0  24510-3 0  9991 | 2 62622  97.4244 315.0675 0004041 295.0825  64.9991 15.21215478 33568 | 2025/08/23-22:33:47  355.7657    0.1236   65.0411   94.6611     6880.3102     6877.5298     6883.0905  68.970565 -68.808248  -0.000137  -0.000380
1 62622U 25009P   25237.45303631  .00006463  00000-0  29247-3 0  9994 | 2 62622  97.4238 316.5591 0004015 288.0117  72.0681 15.21234768 33795 | 2025/08/25-10:52:22  180.4134    0.1236   72.1119   94.6599     6880.2520     6877.4896     6883.0144  70.737864 -66.989189  -0.000172  -0.000363
1 62622U 25009P   25238.70281269  .00008396  00000-0  37870-3 0  9993 | 2 62622  97.4234 317.7913 0004027 281.8416  78.2368 15.21255085 33984 | 2025/08/26-16:52:03  270.3339    0.1236   78.2820   94.6587     6880.1908     6877.4201     6882.9614  72.161765 -65.452262  -0.000204  -0.000347
1 62622U 25009P   25239.75524198  .00008953  00000-0  40338-3 0  9992 | 2 62622  97.4231 318.8288 0004007 276.9302  83.1478 15.21274373 34142 | 2025/08/27-18:07:32  289.2087    0.1236   83.1934   94.6575     6880.1326     6877.3757     6882.8895  73.334840 -64.134715  -0.000225  -0.000331
1 62622U 25009P   25241.20230829  .00010030  00000-0  45106-3 0  9997 | 2 62622  97.4225 320.2552 0004021 270.3029  89.7746 15.21304516 34363 | 2025/08/29-04:51:19   90.1529    0.1236   89.8207   94.6556     6880.0417     6877.2753     6882.8082  74.908147 -62.288948  -0.000255  -0.000311
1 62622U 25009P   25242.71511944  .00011666  00000-0  52352-3 0  9991 | 2 62622  97.4224 321.7464 0004126 263.4677  96.6089 15.21338652 34598 | 2025/08/30-17:09:46  274.7657    0.1236   96.6559   94.6535     6879.9388     6877.1001     6882.7775  76.503670 -60.318425  -0.000291  -0.000293
1 62622U 25009P   25243.76748877  .00012804  00000-0  57373-3 0  9997 | 2 62622  97.4226 322.7839 0004135 259.4966 100.5804 15.21365425 34759 | 2025/08/31-18:25:11  293.6181    0.1236  100.6270   94.6518     6879.8581     6877.0133     6882.7029  77.583461 -58.923421  -0.000306  -0.000278
1 62622U 25009P   25245.74063240  .00016061  00000-0  71746-3 0  9990 | 2 62622  97.4227 324.7293 0004126 249.6178 110.4615 15.21418779 35057 | 2025/09/02-17:46:30  283.9469    0.1236  110.5058   94.6485     6879.6972     6876.8587     6882.5358  79.539106 -56.255783  -0.000341  -0.000233
1 62622U 25009P   25246.79294504  .00013776  00000-0  61547-3 0  9993 | 2 62622  97.4227 325.7666 0004200 245.3876 114.6922 15.21448058 35211 | 2025/09/03-19:01:50  302.7789    0.1235  114.7359   94.6467     6879.6090     6876.7195     6882.4984  80.544487 -54.806642  -0.000359  -0.000217
1 62622U 25009P   25248.17408084  .00010932  00000-0  48883-3 0  9996 | 2 62622  97.4231 327.1283 0004326 240.0560 120.0247 15.21475717 35424 | 2025/09/05-04:10:40   79.9865    0.1236  120.0676   94.6450     6879.5256     6876.5495     6882.5017  81.824498 -52.877330  -0.000385  -0.000198
1 62622U 25009P   25249.75248949  .00011356  00000-0  50716-3 0  9992 | 2 62622  97.4231 328.6848 0004354 232.4415 127.6426 15.21510289 35664 | 2025/09/06-18:03:35  288.2094    0.1236  127.6821   94.6428     6879.4214     6876.4261     6882.4167  83.230598 -50.635244  -0.000406  -0.000157
1 62622U 25009P   25251.19933379  .00007917  00000-0  35438-3 0  9993 | 2 62622  97.4224 330.1117 0004435 226.5435 133.5432 15.21535321 35880 | 2025/09/08-04:47:02   89.0700    0.1235  133.5800   94.6412     6879.3459     6876.2949     6882.3969  84.465077 -48.546625  -0.000425  -0.000127
1 62622U 25009P   25252.77768739  .00006910  00000-0  30957-3 0  9997 | 2 62622  97.4222 331.6684 0004589 220.4391 139.6504 15.21556355 36122 | 2025/09/09-18:39:52  297.2734    0.1235  139.6844   94.6399     6879.2825     6876.1256     6882.4394  85.752555 -46.234018  -0.000449  -0.000096
1 62622U 25009P   25254.02720125  .00006124  00000-0  27459-3 0  9994 | 2 62622  97.4217 332.9006 0004677 215.2455 144.8472 15.21572621 36316 | 2025/09/11-00:39:10   27.0946    0.1235  144.8780   94.6389     6879.2335     6876.0161     6882.4509  86.726510 -44.379051  -0.000463  -0.000066
1 62622U 25009P   25255.47398887  .00005860  00000-0  26275-3 0  9991 | 2 62622  97.4213 334.3270 0004763 209.4397 150.6572 15.21592526 36533 | 2025/09/12-11:22:32  187.9336    0.1236  150.6839   94.6377     6879.1735     6875.8970     6882.4501  87.803994 -42.206260  -0.000475  -0.000031
1 62622U 25009P   25256.78923582  .00006580  00000-0  29446-3 0  9995 | 2 62622  97.4210 335.6237 0004887 204.3840 155.7165 15.21609955 36732 | 2025/09/13-18:56:29  301.4186    0.1235  155.7395   94.6366     6879.1210     6875.7592     6882.4828  88.736352 -40.208345  -0.000489  -0.000000
1 62622U 25009P   25258.17022888  .00011475  00000-0  51048-3 0  9991 | 2 62622  97.4211 336.9852 0005015 199.0947 161.0102 15.21637390 36940 | 2025/09/15-04:05:07   78.5713    0.1236  161.0289   94.6349     6879.0383     6875.5885     6882.4881  89.666760 -38.088619  -0.000500   0.000034
1 62622U 25009P   25259.48544279  .00009060  00000-0  40363-3 0  9994 | 2 62622  97.4214 338.2819 0005147 193.8276 166.2820 15.21653278 37144 | 2025/09/16-11:39:02  192.0433    0.1236  166.2960   94.6339     6878.9904     6875.4498     6882.5310  90.506012 -36.049840  -0.000510   0.000071
1 62622U 25009P   25260.73487656  .00006867  00000-0  30660-3 0  9990 | 2 62622  97.4216 339.5139 0005258 189.1586 170.9555 15.21671600 37337 | 2025/09/17-17:38:13  281.8344    0.1236  170.9650   94.6328     6878.9352     6875.3182     6882.5521  91.260378 -34.095625  -0.000516   0.000103
1 62622U 25009P   25261.78702006  .00007009  00000-0  31270-3 0  9992 | 2 62622  97.4218 340.5517 0005346 185.8660 174.2514 15.21686727 37490 | 2025/09/18-18:53:18  300.6020    0.1235  174.2575   94.6318     6878.8896     6875.2121     6882.5671  91.863137 -32.437187  -0.000520   0.000126
1 62622U 25009P   25263.75975759  .00009671  00000-0  42973-3 0  9997 | 2 62622  97.4218 342.4972 0005489 179.3201 180.8044 15.21722554 37796 | 2025/09/20-18:14:03  290.7794    0.1236  180.8035   94.6296     6878.7816     6875.0059     6882.5574  92.911390 -29.299841  -0.000521   0.000171
1 62622U 25009P   25265.20639822  .00012570  00000-0  55683-3 0  9991 | 2 62622  97.4214 343.9243 0005583 174.6415 185.4882 15.21757471 38012 | 2025/09/22-04:57:12   91.5636    0.1236  185.4821   94.6274     6878.6764     6874.8360     6882.5168  93.611900 -26.976682  -0.000520   0.000204
1 62622U 25009P   25266.65300265  .00015674  00000-0  69242-3 0  9991 | 2 62622  97.4210 345.3512 0005666 170.5431 189.5913 15.21799502 38233 | 2025/09/23-15:40:19  252.3354    0.1236  189.5805   94.6248     6878.5498     6874.6524     6882.4471  94.254245 -24.637136  -0.000517   0.000231
1 62622U 25009P   25267.83655742  .00014801  00000-0  65343-3 0  9994 | 2 62622  97.4204 346.5182 0005741 166.7533 193.3855 15.21834530 38415 | 2025/09/24-20:04:38  318.4103    0.1236  193.3703   94.6226     6878.4442     6874.4953     6882.3931  94.735886 -22.712249  -0.000513   0.000258
1 62622U 25009P   25269.87483519  .00013549  00000-0  59744-3 0  9997 | 2 62622  97.4198 348.5281 0005844 159.7683 200.3786 15.21895075 38728 | 2025/09/26-20:59:45  332.1813    0.1236  200.3553   94.6189     6878.2618     6874.2421     6882.2814  95.473583 -19.375563  -0.000497   0.000307
1 62622U 25009P   25271.18981353  .00015106  00000-0  66489-3 0  9998 | 2 62622  97.4194 349.8249 0005884 156.1438 204.0072 15.21932174 38928 | 2025/09/28-04:33:19   85.5687    0.1236  203.9798   94.6166     6878.1500     6874.1029     6882.1971  95.887234 -17.209819  -0.000488   0.000329
1 62622U 25009P   25272.70199504  .00019453  00000-0  85347-3 0  9999 | 2 62622  97.4196 351.3167 0005946 151.4828 208.6734 15.21985490 39157 | 2025/09/29-16:50:52  269.9475    0.1235  208.6407   94.6133     6877.9894     6873.8997     6882.0790  96.302970 -14.707700  -0.000474   0.000359
1 62622U 25009P   25273.95113567  .00020014  00000-0  87637-3 0  9991 | 2 62622  97.4197 352.5488 0006063 147.1603 213.0011 15.22046440 39344 | 2025/09/30-22:49:38  359.6321    0.1236  212.9633   94.6095     6877.8057     6873.6357     6881.9758  96.597056 -12.633553  -0.000462   0.000392
1 62622U 25009P   25275.46318877  .00019272  00000-0  84236-3 0  9996 | 2 62622  97.4199 354.0404 0006121 143.0502 217.1157 15.22115533 39570 | 2025/10/02-11:06:59  183.9654    0.1236  217.0734   94.6052     6877.5976     6873.3878     6881.8074  96.893380 -10.114834  -0.000448   0.000417
1 62622U 25009P   25276.64649539  .00018050  00000-0  78831-3 0  9996 | 2 62622  97.4199 355.2077 0006146 139.9063 220.2628 15.22157308 39756 | 2025/10/03-15:30:57  249.9517    0.1236  220.2173   94.6026     6877.4718     6873.2449     6881.6987  97.079329  -8.138841  -0.000435   0.000434
1 62622U 25009P   25279.67037453  .00010414  00000-0  45548-3 0  9993 | 2 62622  97.4199 358.1918 0006305 130.6701 229.5084 15.22234987 40216 | 2025/10/06-16:05:20  258.5351    0.1236  229.4535   94.5977     6877.2378     6872.9017     6881.5739  97.371390  -3.073969  -0.000396   0.000491
1 62622U 25009P   25281.18226044  .00013557  00000-0  59116-3 0  9995 | 2 62622  97.4195 359.6838 0006305 126.6448 233.5369 15.22273906 40442 | 2025/10/08-04:22:27   82.8090    0.1236  233.4788   94.5953     6877.1206     6872.7846     6881.4566  97.418016  -0.537629  -0.000374   0.000508
1 62622U 25009P   25282.89130258  .00009534  00000-0  41636-3 0  9993 | 2 62622  97.4189   1.3703 0006402 121.6538 238.5324 15.22312743 40708 | 2025/10/09-21:23:28  338.0577    0.1237  238.4699   94.5929     6877.0036     6872.6010     6881.4063  97.391040   2.329672  -0.000349   0.000537
1 62622U 25009P   25284.20592156  .00009569  00000-0  41752-3 0  9996 | 2 62622  97.4184   2.6673 0006475 117.7603 242.4291 15.22341644 40903 | 2025/10/11-04:56:31   91.3161    0.1237  242.3634   94.5911     6876.9166     6872.4638     6881.3694  97.312857   4.533497  -0.000328   0.000558
1 62622U 25009P   25285.25759722  .00013647  00000-0  59335-3 0  9994 | 2 62622  97.4179   3.7049 0006455 115.0109 245.1798 15.22371297 41063 | 2025/10/12-06:10:56  109.9170    0.1236  245.1127   94.5893     6876.8273     6872.3883     6881.2663  97.214306   6.294916  -0.000310   0.000566
1 62622U 25009P   25286.30925222  .00015724  00000-0  68233-3 0  9996 | 2 62622  97.4181   4.7428 0006391 111.7533 248.4384 15.22403439 41220 | 2025/10/13-07:25:19  128.5105    0.1236  248.3703   94.5873     6876.7305     6872.3356     6881.1254  97.084531   8.054818  -0.000285   0.000572
1 62622U 25009P   25287.88669651  .00010788  00000-0  46889-3 0  9999 | 2 62622  97.4186   6.2994 0006493 107.5585 252.6361 15.22441034 41464 | 2025/10/14-21:16:50  336.3857    0.1236  252.5651   94.5849     6876.6173     6872.1523     6881.0823  96.830397  10.689149  -0.000263   0.000594
1 62622U 25009P   25289.46410426  .00011199  00000-0  48611-3 0  9991 | 2 62622  97.4187   7.8560 0006492 103.1579 257.0383 15.22475485 41702 | 2025/10/16-11:08:18  184.2491    0.1237  256.9658   94.5828     6876.5135     6872.0493     6880.9778  96.504398  13.315563  -0.000233   0.000606
1 62622U 25009P   25290.91002932  .00016719  00000-0  72288-3 0  9992 | 2 62622  97.4192   9.2833 0006413  99.0497 261.1465 15.22514257 41924 | 2025/10/17-21:50:26  344.7800    0.1236  261.0739   94.5804     6876.3968     6871.9870     6880.8066  96.143279  15.715293  -0.000202   0.000609
1 62622U 25009P   25292.15874925  .00018768  00000-0  80987-3 0  9990 | 2 62622  97.4194  10.5159 0006467  95.4255 264.7719 15.22556907 42114 | 2025/10/19-03:48:35   74.3162    0.1236  264.6981   94.5777     6876.2684     6871.8215     6880.7153  95.783173  17.779857  -0.000178   0.000622
1 62622U 25009P   25293.21027232  .00016898  00000-0  72882-3 0  9996 | 2 62622  97.4192  11.5541 0006503  92.5621 267.6360 15.22595316 42272 | 2025/10/20-05:02:47   92.8620    0.1236  267.5615   94.5754     6876.1527     6871.6812     6880.6243  95.445099  19.512395  -0.000159   0.000631
1 62622U 25009P   25294.59036224  .00014509  00000-0  62569-3 0  9997 | 2 62622  97.4188  12.9167 0006391  88.3282 271.8686 15.22634393 42487 | 2025/10/21-14:10:07  229.6933    0.1236  271.7954   94.5729     6876.0351     6871.6406     6880.4296  94.953723  21.776435  -0.000125   0.000627
1 62622U 25009P   25295.90470292  .00013163  00000-0  56748-3 0  9997 | 2 62622  97.4186  14.2143 0006357  84.8630 275.3332 15.22667397 42683 | 2025/10/22-21:42:46  342.8545    0.1237  275.2607   94.5709     6875.9357     6871.5647     6880.3068  94.436041  23.921072  -0.000100   0.000628
1 62622U 25009P   25296.95615313  .00012728  00000-0  54841-3 0  9996 | 2 62622  97.4184  15.2522 0006387  81.9816 278.2145 15.22695899 42840 | 2025/10/23-22:56:51    1.3751    0.1237  278.1421   94.5691     6875.8499     6871.4583     6880.2415  93.987053  25.627689  -0.000080   0.000634
1 62622U 25009P   25298.20472542  .00012761  00000-0  54927-3 0  9993 | 2 62622  97.4178  16.4848 0006379  78.5613 281.6340 15.22729106 43031 | 2025/10/25-04:54:48   90.8600    0.1237  281.5624   94.5671     6875.7500     6871.3639     6880.1360  93.413446  27.643369  -0.000056   0.000635
1 62622U 25009P   25299.78183451  .00011328  00000-0  48753-3 0  9993 | 2 62622  97.4171  18.0415 0006233  73.9246 286.2676 15.22764079 43279 | 2025/10/26-18:45:50  298.6201    0.1236  286.1990   94.5649     6875.6447     6871.3591     6879.9303  92.627339  30.170638  -0.000021   0.000623
1 62622U 25009P   25300.83322028  .00012004  00000-0  51603-3 0  9997 | 2 62622  97.4170  19.0794 0006207  70.6973 289.4934 15.22788358 43437 | 2025/10/27-19:59:50  317.1189    0.1236  289.4263   94.5634     6875.5716     6871.3039     6879.8393  92.065543  31.843487   0.000002   0.000621
1 62622U 25009P   25302.21313776  .00012971  00000-0  55674-3 0  9996 | 2 62622  97.4173  20.4415 0006218  66.8735 293.3156 15.22823127 43648 | 2025/10/29-05:06:55   93.8888    0.1236  293.2501   94.5612     6875.4670     6871.1918     6879.7421  91.282861  34.023074   0.000029   0.000621
1 62622U 25009P   25303.65873027  .00013376  00000-0  57336-3 0  9992 | 2 62622  97.4172  21.8688 0006112  62.6957 297.4902 15.22861284 43861 | 2025/10/30-15:48:34  254.3029    0.1237  297.4280   94.5588     6875.3521     6871.1499     6879.5543  90.406983  36.286200   0.000058   0.000608
1 62622U 25009P   25305.49851733  .00011053  00000-0  47375-3 0  9998 | 2 62622  97.4180  23.6855 0006010  57.2025 302.9790 15.22911620 44148 | 2025/11/01-11:57:51  196.6273    0.1237  302.9212   94.5557     6875.2006     6871.0686     6879.3326  89.211925  39.134373   0.000095   0.000593
1 62622U 25009P   25307.46965947  .00010042  00000-0  43019-3 0  9998 | 2 62622  97.4182  25.6323 0005933  51.8831 308.2940 15.22955225 44448 | 2025/11/03-11:16:18  186.2389    0.1237  308.2406   94.5530     6875.0694     6870.9904     6879.1483  87.831158  42.142537   0.000128   0.000579
1 62622U 25009P   25308.65231692  .00010191  00000-0  43617-3 0  9992 | 2 62622  97.4180  26.8004 0005814  48.0888 312.0844 15.22982685 44629 | 2025/11/04-15:39:20  251.9971    0.1237  312.0349   94.5513     6874.9867     6870.9896     6878.9838  86.953619  43.924195   0.000152   0.000561
1 62622U 25009P   25310.16345949  .00013316  00000-0  56815-3 0  9998 | 2 62622  97.4176  28.2929 0005732  43.4266 316.7421 15.23021911 44858 | 2025/11/06-03:55:22   76.0098    0.1237  316.6971   94.5489     6874.8687     6870.9280     6878.8094  85.779713  46.173906   0.000180   0.000544
1 62622U 25009P   25312.20014123  .00013329  00000-0  56760-3 0  9995 | 2 62622  97.4169  30.3042 0005614  37.3768 322.7858 15.23087466 45161 | 2025/11/08-04:48:12   89.2175    0.1237  322.7469   94.5448     6874.6714     6870.8120     6878.5309  84.105715  49.155682   0.000213   0.000519
1 62622U 25009P   25314.17104819  .00012353  00000-0  52551-3 0  9995 | 2 62622  97.4162  32.2504 0005447  30.6931 329.4623 15.23141592 45468 | 2025/11/10-04:06:18   78.7476    0.1237  329.4306   94.5414     6874.5085     6870.7640     6878.2531  82.387228  51.983274   0.000248   0.000485
1 62622U 25009P   25315.22216990  .00014927  00000-0  63355-3 0  9999 | 2 62622  97.4161  33.2885 0005384  27.9171 332.2353 15.23174221 45620 | 2025/11/11-05:19:55   97.1524    0.1236  332.2065   94.5394     6874.4104     6870.7092     6878.1116  81.431827  53.467318   0.000259   0.000472
1 62622U 25009P   25316.66741177  .00029577  00000-0  12470-2 0  9996 | 2 62622  97.4167  34.7164 0005265  23.2176 336.9298 15.23255090 45841 | 2025/11/12-16:01:04  257.4411    0.1237  336.9061   94.5344     6874.1671     6870.5478     6877.7863  80.074682  55.480255   0.000280   0.000446
1 62622U 25009P   25318.17824968  .00024480  00000-0  10306-2 0  9998 | 2 62622  97.4168  36.2089 0005162  17.1936 342.9475 15.23345724 46071 | 2025/11/14-04:16:40   81.3457    0.1237  342.9301   94.5288     6873.8944     6870.3461     6877.4427  78.602553  57.547125   0.000308   0.000414
1 62622U 25009P   25320.21452100  .00015185  00000-0  64028-3 0  9994 | 2 62622  97.4168  38.2206 0004994  11.1071 349.0276 15.23396020 46386 | 2025/11/16-05:08:54   94.4051    0.1238  349.0167   94.5257     6873.7431     6870.3104     6877.1758  76.533999  60.270888   0.000325   0.000379
1 62622U 25009P   25321.46251874  .00014540  00000-0  61261-3 0  9997 | 2 62622  97.4170  39.4542 0004931   6.2156 353.9142 15.23431980 46577 | 2025/11/17-11:06:01  183.6857    0.1238  353.9082   94.5234     6873.6349     6870.2455     6877.0243  75.218860  61.904725   0.000345   0.000353
1 62622U 25009P   25322.64480745  .00011240  00000-0  47408-3 0  9990 | 2 62622  97.4169  40.6226 0004833   1.3433 358.7816 15.23459038 46758 | 2025/11/18-15:28:31  249.3114    0.1237  358.7804   94.5217     6873.5535     6870.2316     6876.8755  73.940845  63.425577   0.000359   0.000323
1 62622U 25009P   25323.69571286  .00009821  00000-0  41439-3 0  9997 | 2 62622  97.4167  41.6611 0004725 358.1568   1.9651 15.23482138 46916 | 2025/11/19-16:41:49  267.6377    0.1238    1.9670   94.5203     6873.4841     6870.2363     6876.7318  72.779009  64.755149   0.000363   0.000303
1 62622U 25009P   25326.19155111  .00011908  00000-0  50086-3 0  9997 | 2 62622  97.4159  44.1273 0004485 349.2318  10.8822 15.23540018 47299 | 2025/11/22-04:35:50   86.1412    0.1237   10.8919   94.5167     6873.3100     6870.2273     6876.3927  69.924610  67.826296   0.000375   0.000247
1 62622U 25009P   25328.16188608  .00011096  00000-0  46637-3 0  9998 | 2 62622  97.4154  46.0743 0004342 341.6669  18.4411 15.23581213 47597 | 2025/11/24-03:53:06   75.4628    0.1237   18.4568   94.5142     6873.1861     6870.2017     6876.1704  67.579495  70.162469   0.000384   0.000202
1 62622U 25009P   25329.73811034  .00012058  00000-0  50591-3 0  9991 | 2 62622  97.4148  47.6319 0004220 335.6691  24.4346 15.23621281 47830 | 2025/11/25-17:42:52  282.9038    0.1237   24.4546   94.5117     6873.0656     6870.1651     6875.9660  65.646971  71.973040   0.000388   0.000167
1 62622U 25009P   25331.18294836  .00011300  00000-0  47390-3 0  9990 | 2 62622  97.4145  49.0596 0004143 328.8974  31.2017 15.23653940 48055 | 2025/11/27-04:23:26   83.0465    0.1237   31.2263   94.5096     6872.9674     6870.1199     6875.8148  63.833151  73.586096   0.000394   0.000128
1 62622U 25009P   25333.21880416  .00010859  00000-0  45494-3 0  9992 | 2 62622  97.4151  51.0717 0003957 320.7794  39.3156 15.23700086 48364 | 2025/11/29-05:15:04   95.9533    0.1237   39.3443   94.5068     6872.8286     6870.1090     6875.5482  61.210523  75.782410   0.000387   0.000081
1 62622U 25009P   25334.79490760  .00010042  00000-0  42052-3 0  9996 | 2 62622  97.4153  52.6299 0003886 313.7468  46.3447 15.23735058 48604 | 2025/11/30-19:04:40  303.3493    0.1237   46.3769   94.5046     6872.7234     6870.0527     6875.3942  59.127306  77.419005   0.000386   0.000043
1 62622U 25009P   25336.17396712  .00012452  00000-0  52006-3 0  9999 | 2 62622  97.4158  53.9931 0003877 306.6949  53.3931 15.23769746 48811 | 2025/12/02-04:10:30   79.8103    0.1237   53.4288   94.5025     6872.6191     6869.9546     6875.2836  57.269061  78.804142   0.000388   0.000005
1 62622U 25009P   25338.20965908  .00021553  00000-0  89510-3 0  9996 | 2 62622  97.4158  56.0059 0003736 298.5377  61.5484 15.23839082 49124 | 2025/12/04-05:01:54   92.6550    0.1237   61.5860   94.4982     6872.4107     6869.8431     6874.9782  54.465907  80.766967   0.000372  -0.000036
1 62622U 25009P   25339.78561089  .00016776  00000-0  69672-3 0  9990 | 2 62622  97.4152  57.5638 0003750 290.9504  69.1332 15.23892361 49362 | 2025/12/05-18:51:16  299.9955    0.1238   69.1734   94.4949     6872.2505     6869.6734     6874.8276  52.249631  82.217378   0.000367  -0.000075
1 62622U 25009P   25340.90187781  .00015384  00000-0  63861-3 0  9997 | 2 62622  97.4149  58.6674 0003752 285.8964  74.1860 15.23926571 49537 | 2025/12/06-21:38:42  341.8495    0.1238   74.2274   94.4927     6872.1476     6869.5692     6874.7261  50.656254  83.208213   0.000362  -0.000100
1 62622U 25009P   25341.95245781  .00015698  00000-0  65086-3 0  9997 | 2 62622  97.4145  59.7059 0003700 281.3040  78.7782 15.23961540 49696 | 2025/12/07-22:51:32    0.0555    0.1238   78.8198   94.4906     6872.0425     6869.4998     6874.5852  49.139645  84.112306   0.000350  -0.000120
1 62622U 25009P   25343.19999174  .00013064  00000-0  54177-3 0  9991 | 2 62622  97.4141  60.9390 0003686 275.7204  84.3613 15.23998099 49882 | 2025/12/09-04:47:59   89.1647    0.1237   84.4033   94.4883     6871.9326     6869.3996     6874.4656  47.317975  85.149963   0.000338  -0.000146
1 62622U 25009P   25344.97275681  .00015457  00000-0  63931-3 0  9994 | 2 62622  97.4133  62.6915 0003696 266.8795  93.2019 15.24048197 50159 | 2025/12/10-23:20:46    7.3553    0.1237   93.2442   94.4852     6871.7820     6869.2422     6874.3218  44.691408  86.556508   0.000319  -0.000187
1 62622U 25009P   25346.22021531  .00015564  00000-0  64283-3 0  9997 | 2 62622  97.4135  63.9249 0003678 260.5927  99.4895 15.24093769 50349 | 2025/12/12-05:17:06   96.4357    0.1238   99.5311   94.4824     6871.6450     6869.1176     6874.1724  42.817993  87.498626   0.000299  -0.000213
1 62622U 25009P   25347.46764150  .00015652  00000-0  64571-3 0  9993 | 2 62622  97.4137  65.1588 0003713 255.4669 104.6156 15.24132725 50533 | 2025/12/13-11:13:24  185.5044    0.1237  104.6568   94.4800     6871.5279     6868.9765     6874.0793  40.923957  88.400558   0.000287  -0.000236
1 62622U 25009P   25348.78069504  .00008952  00000-0  37060-3 0  9998 | 2 62622  97.4140  66.4574 0003790 249.4974 110.5856 15.24156373 50733 | 2025/12/14-18:44:12  298.1988    0.1237  110.6263   94.4785     6871.4569     6868.8526     6874.0611  38.910152  89.305585   0.000272  -0.000263
1 62622U 25009P   25350.15938119  .00007821  00000-0  32400-3 0  9996 | 2 62622  97.4142  67.8210 0003796 242.7330 117.3521 15.24178014 50948 | 2025/12/16-03:49:30   74.5190    0.1237  117.3907   94.4772     6871.3918     6868.7834     6874.0002  36.773998  90.206427   0.000247  -0.000288
1 62622U 25009P   25351.20979438  .00008193  00000-0  33907-3 0  9998 | 2 62622  97.4141  68.8599 0003846 237.9376 122.1488 15.24196255 51102 | 2025/12/17-05:02:06   92.6629    0.1237  122.1861   94.4760     6871.3370     6868.6943     6873.9797  35.132363  90.858263   0.000230  -0.000308
1 62622U 25009P   25352.78539231  .00008044  00000-0  33271-3 0  9994 | 2 62622  97.4139  70.4183 0003948 230.5926 129.4963 15.24221835 51347 | 2025/12/18-18:50:57  299.8703    0.1238  129.5312   94.4744     6871.2601     6868.5473     6873.9729  32.648333  91.779923   0.000203  -0.000338
1 62622U 25009P   25354.22966794  .00007337  00000-0  30355-3 0  9997 | 2 62622  97.4137  71.8467 0004039 224.1867 135.9048 15.24243700 51565 | 2025/12/20-05:30:43   99.8020    0.1237  135.9370   94.4731     6871.1944     6868.4191     6873.9697  30.350263  92.565061   0.000177  -0.000363
1 62622U 25009P   25355.47698071  .00007390  00000-0  30554-3 0  9995 | 2 62622  97.4130  73.0799 0004111 218.4597 141.6348 15.24262087 51754 | 2025/12/21-11:26:51  188.8278    0.1237  141.6640   94.4719     6871.1391     6868.3144     6873.9639  28.350869  93.196142   0.000151  -0.000382
1 62622U 25009P   25356.72427482  .00009899  00000-0  40786-3 0  9994 | 2 62622  97.4125  74.3134 0004213 213.7449 146.3521 15.24288198 51949 | 2025/12/22-17:22:57  277.8471    0.1237  146.3788   94.4703     6871.0607     6868.1659     6873.9554  26.337933  93.784372   0.000131  -0.000401
1 62622U 25009P   25358.16848205  .00010767  00000-0  44285-3 0  9998 | 2 62622  97.4122  75.7417 0004309 207.9796 152.1210 15.24320773 52162 | 2025/12/24-04:02:36   77.7533    0.1237  152.1441   94.4683     6870.9628     6868.0021     6873.9235  23.992011  94.411441   0.000102  -0.000419
1 62622U 25009P   25359.80958747  .00010430  00000-0  42862-3 0  9999 | 2 62622  97.4121  77.3650 0004427 201.1331 158.9724 15.24359723 52419 | 2025/12/25-19:25:48  308.5406    0.1237  158.9906   94.4659     6870.8457     6867.8040     6873.8875  21.307860  95.053103   0.000065  -0.000438
1 62622U 25009P   25361.18808548  .00012086  00000-0  49560-3 0  9997 | 2 62622  97.4118  78.7281 0004541 196.4747 163.6343 15.24392366 52627 | 2025/12/27-04:30:50   84.7920    0.1237  163.6490   94.4639     6870.7476     6867.6276     6873.8677  19.040616  95.532789   0.000041  -0.000452
1 62622U 25009P   25362.76347324  .00013216  00000-0  54090-3 0  9992 | 2 62622  97.4118  80.2864 0004651 190.4615 169.6526 15.24434448 52865 | 2025/12/28-18:19:24  291.9210    0.1237  169.6622   94.4613     6870.6212     6867.4257     6873.8167  16.435645  96.015251   0.000006  -0.000465
1 62622U 25009P   25364.20753387  .00015442  00000-0  63042-3 0  9993 | 2 62622  97.4122  81.7154 0004753 185.2010 174.9179 15.24483235 53088 | 2025/12/30-04:58:50   91.7723    0.1237  174.9227   94.4582     6870.4746     6867.2091     6873.7402  14.036146  96.395660  -0.000026  -0.000475
1 62622U 25009P   25365.71718703  .00016376  00000-0  66732-3 0  9999 | 2 62622  97.4122  83.2091 0004887 180.9115 179.2114 15.24532072 53318 | 2025/12/31-17:12:44  275.2377    0.1237  179.2122   94.4552     6870.3279     6866.9704     6873.6854  11.518628  96.728785  -0.000050  -0.000486
1 62622U 25009P   26001.76735082  .00018108  00000-0  73660-3 0  9994 | 2 62622  97.4124  84.2482 0004961 177.0675 183.0593 15.24569655 53474 | 2026/01/01-18:24:59  293.2888    0.1238  183.0563   94.4529     6870.2150     6866.8067     6873.6233   9.762604  96.921965  -0.000075  -0.000490
1 62622U 25009P   26002.94875473  .00017052  00000-0  69306-3 0  9993 | 2 62622  97.4124  85.4168 0004991 172.9681 187.1628 15.24609884 53655 | 2026/01/02-22:46:12  358.5860    0.1238  187.1557   94.4504     6870.0941     6866.6653     6873.5230   7.783899  97.100909  -0.000100  -0.000489
1 62622U 25009P   26004.19575912  .00014947  00000-0  60734-3 0  9993 | 2 62622  97.4117  86.6504 0005056 168.8583 191.2768 15.24649335 53849 | 2026/01/04-04:41:53   87.4988    0.1238  191.2655   94.4479     6869.9756     6866.5022     6873.4491   5.691595  97.245283  -0.000127  -0.000490
1 62622U 25009P   26006.16465868  .00012657  00000-0  51413-3 0  9990 | 2 62622  97.4108  88.5981 0005181 162.5785 197.5631 15.24698497 54148 | 2026/01/06-03:57:06   76.2891    0.1237  197.5452   94.4449     6869.8279     6866.2687     6873.3872   2.383187  97.381643  -0.000167  -0.000490
1 62622U 25009P   26007.21471220  .00009830  00000-0  39979-3 0  9998 | 2 62622  97.4105  89.6368 0005302 158.5532 201.5929 15.24721381 54309 | 2026/01/07-05:09:11   94.3002    0.1238  201.5706   94.4435     6869.7592     6866.1169     6873.4015   0.617485  97.408543  -0.000197  -0.000492
1 62622U 25009P   26008.46163242  .00010909  00000-0  44298-3 0  9997 | 2 62622  97.4100  90.8705 0005375 154.8150 205.3350 15.24746737 54490 | 2026/01/08-11:04:45  183.1829    0.1237  205.3087   94.4419     6869.6830     6865.9906     6873.3755  -1.479902  97.398758  -0.000221  -0.000490
1 62622U 25009P   26010.95540796  .00010178  00000-0  41287-3 0  9990 | 2 62622  97.4095  93.3379 0005540 147.4660 212.6920 15.24798351 54871 | 2026/01/10-22:55:47    0.9247    0.1237  212.6577   94.4387     6869.5280     6865.7223     6873.3337  -5.671609  97.244247  -0.000270  -0.000484
1 62622U 25009P   26012.85849461  .00008551  00000-0  34700-3 0  9996 | 2 62622  97.4100  95.2213 0005671 141.7069 218.4573 15.24836121 55160 | 2026/01/12-20:36:13  326.0220    0.1238  218.4169   94.4364     6869.4146     6865.5189     6873.3102  -8.864583  97.005811  -0.000309  -0.000475
1 62622U 25009P   26014.17094703  .00005883  00000-0  23961-3 0  9996 | 2 62622  97.4102  96.5201 0005762 138.0487 222.1193 15.24851352 55362 | 2026/01/14-04:06:09   78.4959    0.1237  222.0750   94.4354     6869.3688     6865.4107     6873.3270 -11.061100  96.780159  -0.000334  -0.000469
1 62622U 25009P   26015.74587242  .00005261  00000-0  21449-3 0  9994 | 2 62622  97.4104  98.0789 0005854 133.5229 226.6496 15.24869297 55607 | 2026/01/15-17:54:03  285.4581    0.1237  226.6008   94.4343     6869.3149     6865.2936     6873.3362 -13.689730  96.443648  -0.000364  -0.000459
1 62622U 25009P   26016.86143190  .00008433  00000-0  34169-3 0  9995 | 2 62622  97.4104  99.1827 0005893 130.4247 229.7505 15.24888984 55778 | 2026/01/16-20:40:27  327.0525    0.1237  229.6990   94.4331     6869.2558     6865.2078     6873.3039 -15.545056  96.162037  -0.000382  -0.000449
1 62622U 25009P   26017.97697654  .00010073  00000-0  40729-3 0  9999 | 2 62622  97.4101 100.2867 0005939 127.1647 233.0134 15.24909850 55942 | 2026/01/17-23:26:50    8.6412    0.1238  232.9591   94.4318     6869.1932     6865.1135     6873.2728 -17.394894  95.844380  -0.000402  -0.000438
1 62622U 25009P   26019.15812325  .00010117  00000-0  40875-3 0  9996 | 2 62622  97.4096 101.4551 0006011 124.1170 236.0639 15.24933884 56126 | 2026/01/19-03:47:41   73.8470    0.1238  236.0068   94.4303     6869.1210     6864.9919     6873.2500 -19.345542  95.469263  -0.000421  -0.000429
1 62622U 25009P   26020.73293696  .00033565  00000-0  13420-2 0  9993 | 2 62622  97.4087 103.0136 0006122 118.2911 241.8945 15.25014065 56365 | 2026/01/20-17:35:25  280.7690    0.1237  241.8326   94.4254     6868.8802     6864.6751     6873.0853 -21.934718  94.906917  -0.000460  -0.000404
1 62622U 25009P   26021.78276095  .00017380  00000-0  69681-3 0  9991 | 2 62622  97.4082 104.0524 0006065 117.2701 242.9155 15.25060403 56524 | 2026/01/21-18:47:10  298.7016    0.1237  242.8536   94.4225     6868.7411     6864.5752     6872.9070 -23.651605  94.493169  -0.000455  -0.000400
1 62622U 25009P   26022.96378900  .00011710  00000-0  47037-3 0  9992 | 2 62622  97.4081 105.2211 0006093 113.1050 247.0830 15.25088567 56709 | 2026/01/22-23:07:51    3.8647    0.1237  247.0187   94.4207     6868.6565     6864.4714     6872.8416 -25.573965  93.991012  -0.000478  -0.000378
1 62622U 25009P   26024.21040279  .00016363  00000-0  65492-3 0  9991 | 2 62622  97.4080 106.4547 0006135 109.3758 250.8144 15.25128722 56890 | 2026/01/24-05:02:58   92.6385    0.1238  250.7480   94.4183     6868.5359     6864.3221     6872.7498 -27.591515  93.418557  -0.000497  -0.000359
1 62622U 25009P   26025.45698543  .00015141  00000-0  60569-3 0  9994 | 2 62622  97.4074 107.6884 0006114 105.8317 254.3595 15.25164701 57087 | 2026/01/25-10:58:03  181.4023    0.1237  254.2920   94.4160     6868.4279     6864.2286     6872.6273 -29.596282  92.802272  -0.000510  -0.000338
1 62622U 25009P   26027.16278467  .00015611  00000-0  62338-3 0  9991 | 2 62622  97.4075 109.3770 0006119 101.0616 259.1311 15.25218240 57342 | 2026/01/27-03:54:24   75.4812    0.1238  259.0622   94.4127     6868.2672     6864.0645     6872.4699 -32.318101  91.889942  -0.000528  -0.000310
1 62622U 25009P   26028.73731711  .00014715  00000-0  58699-3 0  9990 | 2 62622  97.4077 110.9361 0006116  95.5913 264.6023 15.25264435 57586 | 2026/01/28-17:41:44  282.3048    0.1238  264.5325   94.4099     6868.1285     6863.9280     6872.3290 -34.806356  90.976797  -0.000547  -0.000273
1 62622U 25009P   26030.18059365  .00015172  00000-0  60429-3 0  9992 | 2 62622  97.4079 112.3648 0006040  91.9878 268.2052 15.25310222 57801 | 2026/01/30-04:20:03   81.8789    0.1238  268.1360   94.4070     6867.9911     6863.8428     6872.1393 -37.063930  90.080875  -0.000550  -0.000249
1 62622U 25009P   26031.95183708  .00009396  00000-0  37516-3 0  9999 | 2 62622  97.4076 114.1179 0006111  88.0134 272.1803 15.25349780 58077 | 2026/01/31-22:50:38  359.5185    0.1237  272.1103   94.4046     6867.8723     6863.6754     6872.0693 -39.802267  88.904556  -0.000566  -0.000230
1 62622U 25009P   26033.19824133  .00010328  00000-0  41170-3 0  9999 | 2 62622  97.4067 115.3515 0006118  84.5412 275.6524 15.25377663 58261 | 2026/02/02-04:45:28   88.2191    0.1238  275.5826   94.4029     6867.7886     6863.5869     6871.9903 -41.706658  88.026245  -0.000575  -0.000208
1 62622U 25009P   26035.16619787  .00012400  00000-0  49283-3 0  9991 | 2 62622  97.4058 117.2994 0006063  79.1475 281.0445 15.25428215 58567 | 2026/02/04-03:59:19   76.6768    0.1238  280.9763   94.3997     6867.6369     6863.4730     6871.8007 -44.674220  86.556940  -0.000581  -0.000172
1 62622U 25009P   26036.67491784  .00016700  00000-0  66146-3 0  9997 | 2 62622  97.4052 118.7927 0006035  75.5012 284.6895 15.25475074 58797 | 2026/02/05-16:11:52  259.8111    0.1238  284.6226   94.3968     6867.4962     6863.3517     6871.6408 -46.914437  85.362805  -0.000585  -0.000149
1 62622U 25009P   26038.18359684  .00013321  00000-0  52787-3 0  9999 | 2 62622  97.4052 120.2862 0005905  70.5865 289.6011 15.25510971 59027 | 2026/02/07-04:24:22   82.9321    0.1238  289.5373   94.3946     6867.3885     6863.3333     6871.4437 -49.123357  84.111050  -0.000580  -0.000111
1 62622U 25009P   26039.69224172  .00010306  00000-0  40882-3 0  9992 | 2 62622  97.4049 121.7799 0005839  66.5812 293.6040 15.25542738 59259 | 2026/02/08-16:36:49  266.0400    0.1239  293.5427   94.3926     6867.2932     6863.2834     6871.3030 -51.299032  82.801714  -0.000578  -0.000085
1 62622U 25009P   26040.80730492  .00010005  00000-0  39669-3 0  9991 | 2 62622  97.4049 122.8840 0005825  63.7759 296.4077 15.25567459 59429 | 2026/02/09-19:22:31  307.4593    0.1238  296.3479   94.3911     6867.2190     6863.2188     6871.2191 -52.885013  81.797860  -0.000579  -0.000068
1 62622U 25009P   26041.85676061  .00009946  00000-0  39413-3 0  9997 | 2 62622  97.4047 123.9231 0005751  60.9530 299.2283 15.25588839 59589 | 2026/02/10-20:33:44  325.2609    0.1238  299.1708   94.3898     6867.1548     6863.2055     6871.1041 -54.359586  80.825188  -0.000573  -0.000049
1 62622U 25009P   26043.16855782  .00011955  00000-0  47261-3 0  9995 | 2 62622  97.4048 125.2219 0005673  57.2437 302.9347 15.25620696 59782 | 2026/02/12-04:02:43   77.5050    0.1238  302.8801   94.3878     6867.0592     6863.1636     6870.9549 -56.177693  79.572369  -0.000567  -0.000024
1 62622U 25009P   26044.21797659  .00010256  00000-0  40566-3 0  9994 | 2 62622  97.4049 126.2609 0005661  53.9483 306.2279 15.25643501 59947 | 2026/02/13-05:13:53   95.2933    0.1238  306.1755   94.3864     6866.9908     6863.1034     6870.8782 -57.611400  78.540697  -0.000566  -0.000002
1 62622U 25009P   26046.18559966  .00008726  00000-0  34528-3 0  9999 | 2 62622  97.4049 128.2090 0005506  47.7479 312.4226 15.25678511 60242 | 2026/02/15-04:27:15   83.6346    0.1239  312.3760   94.3842     6866.8858     6863.1048     6870.6667 -60.248031  76.536849  -0.000549   0.000039
1 62622U 25009P   26048.21875248  .00011270  00000-0  44433-3 0  9993 | 2 62622  97.4045 130.2222 0005371  42.1711 317.9939 15.25727750 60551 | 2026/02/17-05:15:00   95.5659    0.1238  317.9527   94.3812     6866.7380     6863.0499     6870.4261 -62.899305  74.372805  -0.000532   0.000071
1 62622U 25009P   26049.46485056  .00008353  00000-0  32996-3 0  9994 | 2 62622  97.4038 131.4560 0005254  38.2735 321.8875 15.25748599 60741 | 2026/02/18-11:09:23  184.1596    0.1238  321.8503   94.3799     6866.6755     6863.0677     6870.2832 -64.485669  73.000676  -0.000517   0.000094
1 62622U 25009P   26050.77651383  .00009494  00000-0  37434-3 0  9997 | 2 62622  97.4033 132.7545 0005117  34.5578 325.5992 15.25773285 60948 | 2026/02/19-18:38:10  296.3567    0.1239  325.5661   94.3784     6866.6014     6863.0877     6870.1150 -66.123050  71.520243  -0.000499   0.000112
1 62622U 25009P   26052.15373858  .00009079  00000-0  35784-3 0  9994 | 2 62622  97.4025 134.1180 0005002  30.0897 330.0628 15.25797290 61151 | 2026/02/21-03:41:23   72.1561    0.1239  330.0342   94.3769     6866.5294     6863.0947     6869.9640 -67.805617  69.925998  -0.000481   0.000136
1 62622U 25009P   26053.72767971  .00011423  00000-0  44894-3 0  9999 | 2 62622  97.4020 135.6765 0004893  25.3297 334.8181 15.25831906 61394 | 2026/02/22-17:27:51  278.7725    0.1239  334.7942   94.3747     6866.4255     6863.0658     6869.7853 -69.681996  68.055632  -0.000463   0.000159
1 62622U 25009P   26055.17042608  .00010245  00000-0  40260-3 0  9997 | 2 62622  97.4020 137.1055 0004813  19.7062 340.4361 15.25864141 61617 | 2026/02/24-04:05:24   78.1597    0.1238  340.4176   94.3728     6866.3288     6863.0240     6869.6336 -71.357508  66.296725  -0.000442   0.000190
1 62622U 25009P   26056.21967682  .00009792  00000-0  38470-3 0  9996 | 2 62622  97.4022 138.1442 0004662  17.0106 343.1287 15.25886999 61771 | 2026/02/25-05:16:20   95.8885    0.1238  343.1132   94.3713     6866.2602     6863.0592     6869.4613 -72.547741  64.992414  -0.000423   0.000196
1 62622U 25009P   26057.46564344  .00010162  00000-0  39881-3 0  9992 | 2 62622  97.4024 139.3782 0004531  12.7625 347.3727 15.25912138 61967 | 2026/02/26-11:10:31  184.4346    0.1238  347.3613   94.3698     6866.1848     6863.0738     6869.2959 -73.930725  63.415105  -0.000401   0.000212
1 62622U 25009P   26059.17061308  .00011483  00000-0  44966-3 0  9991 | 2 62622  97.4026 141.0665 0004378   6.4285 353.7009 15.25952920 62227 | 2026/02/28-04:05:40   78.2217    0.1239  353.6954   94.3673     6866.0625     6863.0565     6869.0684 -75.767131  61.209545  -0.000369   0.000235
1 62622U 25009P   26060.80996546  .00011720  00000-0  45834-3 0  9993 | 2 62622  97.4024 142.6898 0004230   1.1128 359.0118 15.25991193 62477 | 2026/03/01-19:26:21  308.3859    0.1238  359.0110   94.3649     6865.9477     6863.0434     6868.8520 -77.470517  59.038517  -0.000341   0.000250
1 62622U 25009P   26062.18698916  .00011613  00000-0  45378-3 0  9990 | 2 62622  97.4019 144.0533 0004123 355.3115   4.8084 15.26023618 62683 | 2026/03/03-04:29:15   84.1129    0.1239    4.8124   94.3629     6865.8504     6863.0196     6868.6812 -78.853017  57.178071  -0.000313   0.000269
