# SPACE DATA - HISTORICAL TLEs
# ----------------------------
# NORAD_ID    : 58275
# OBJECT_NAME : FLOCK 4Q 12
# --------------------------------------------------------------------+-----------------------------------------------------------------------+----------------------------------------------------------------------------------------------------------------------------------------
#                  LINE 1                                             |                 LINE 2                                                |      DERIVED PARAMETERS
# --------------------------------------------------------------------+-----------------------------------------------------------------------+----------------------------------------------------------------------------------------------------------------------------------------
# NORAD  COSPAR     TLE_EPOCH      MEANMOT1 MEANMOT2   BSTAR  #  REV  |   NORAD    INC     RAAN     ECC    ARGPER  MEANANOM   MEANMOT     REV |  CAL_DATE              LONG     ARGLAT     PERIOD        SMA         PERIGEE        APOGEE      INC_X      INC_Y      ECC_X      ECC_Y
# ------ ------   -------------- ----------  -------  ------- -- ----     -----  ------- -------- ------- -------- -------- -----------  ----   ------------------- ---------  --------  --------  ------------  ------------   ----------- ---------- ----------  ---------  ---------   
1 62642U 25009AK  25043.78259699  .00009331  00000-0  46142-3 0  9991 | 2 62642  97.4429 126.0089 0003216 202.6102 157.4991 15.18039904  4389 | 2025/02/12-18:46:56  298.6851    0.1234  157.5132   94.8592     6889.9021     6887.6863     6892.1179 -57.287744  78.824064   0.000275  -0.000167
1 62642U 25009AK  25045.56232353  .00010168  00000-0  50196-3 0  9991 | 2 62642  97.4422 127.7595 0003134 190.7764 169.3403 15.18074311  4653 | 2025/02/14-13:29:44  219.3829    0.1233  169.3469   94.8570     6889.7980     6887.6387     6891.9572 -59.668573  77.036639   0.000235  -0.000208
1 62642U 25009AK  25046.74878066  .00010824  00000-0  53365-3 0  9999 | 2 62642  97.4417 128.9264 0003273 185.6413 174.4785 15.18102685  4837 | 2025/02/15-17:58:14  286.5069    0.1234  174.4821   94.8552     6889.7121     6887.4571     6891.9671 -61.224723  75.805133   0.000230  -0.000233
1 62642U 25009AK  25047.80339111  .00010305  00000-0  50787-3 0  9999 | 2 62642  97.4411 129.9636 0003360 181.9871 178.1350 15.18126954  4990 | 2025/02/16-19:16:52  306.1666    0.1234  178.1363   94.8537     6889.6387     6887.3238     6891.9536 -62.586498  74.683989   0.000225  -0.000250
1 62642U 25009AK  25050.11029102  .00012083  00000-0  59385-3 0  9991 | 2 62642  97.4406 132.2329 0003528 176.7140 183.4118 15.18183141  5349 | 2025/02/19-02:38:49   56.6514    0.1234  183.4094   94.8502     6889.4687     6887.0381     6891.8993 -65.494296  72.146849   0.000222  -0.000274
1 62642U 25009AK  25051.69211407  .00010894  00000-0  53520-3 0  9999 | 2 62642  97.4406 133.7891 0003630 170.3299 189.8006 15.18223674  5586 | 2025/02/20-16:36:38  266.1059    0.1234  189.7935   94.8477     6889.3461     6886.8453     6891.8469 -67.429466  70.341579   0.000204  -0.000301
1 62642U 25009AK  25053.14208531  .00009739  00000-0  47845-3 0  9994 | 2 62642  97.4407 135.2155 0003770 165.2759 194.8586 15.18254602  5805 | 2025/02/22-03:24:36   68.0943    0.1234  194.8475   94.8458     6889.2525     6886.6553     6891.8498 -69.159641  68.641344   0.000191  -0.000325
1 62642U 25009AK  25054.19659014  .00010517  00000-0  51596-3 0  9990 | 2 62642  97.4405 136.2530 0003834 162.9279 197.2085 15.18279509  5964 | 2025/02/23-04:43:05   87.7160    0.1234  197.1955   94.8442     6889.1772     6886.5359     6891.8185 -70.391034  67.377692   0.000187  -0.000335
1 62642U 25009AK  25055.51469601  .00014113  00000-0  69022-3 0  9997 | 2 62642  97.4405 137.5497 0003871 159.8992 200.2395 15.18315209  6168 | 2025/02/24-12:21:09  202.2343    0.1234  200.2242   94.8420     6889.0692     6886.4024     6891.7359 -71.897748  65.767506   0.000178  -0.000344
1 62642U 25009AK  25056.83277004  .00013535  00000-0  66143-3 0  9995 | 2 62642  97.4407 138.8462 0003949 155.5682 204.5740 15.18352590  6368 | 2025/02/25-19:59:11  316.7401    0.1234  204.5552   94.8396     6888.9561     6886.2357     6891.6766 -73.367565  64.124024   0.000163  -0.000360
1 62642U 25009AK  25057.88720397  .00014903  00000-0  72715-3 0  9991 | 2 62642  97.4406 139.8835 0004046 151.9248 208.2205 15.18386152  6525 | 2025/02/26-21:17:34  336.3352    0.1234  208.1986   94.8375     6888.8546     6886.0674     6891.6418 -74.516322  62.785255   0.000150  -0.000376
1 62642U 25009AK  25059.46881210  .00015495  00000-0  75474-3 0  9991 | 2 62642  97.4399 141.4396 0004147 147.6968 212.4520 15.18436045  6760 | 2025/02/28-11:15:05  185.7135    0.1233  212.4265   94.8344     6888.7037     6885.8470     6891.5604 -76.193274  60.738119   0.000136  -0.000392
1 62642U 25009AK  25060.58908904  .00012629  00000-0  61548-3 0  9999 | 2 62642  97.4393 142.5417 0004137 145.5564 214.5939 15.18464562  6939 | 2025/03/01-14:08:17  229.0137    0.1234  214.5670   94.8326     6888.6174     6885.7676     6891.4673 -77.346945  59.261010   0.000129  -0.000393
1 62642U 25009AK  25061.77524409  .00009918  00000-0  48388-3 0  9999 | 2 62642  97.4388 143.7086 0004159 142.4209 217.7317 15.18488696  7114 | 2025/03/02-18:36:21  296.0295    0.1234  217.7025   94.8311     6888.5445     6885.6795     6891.4094 -78.537342  57.673266   0.000116  -0.000400
1 62642U 25009AK  25063.15906880  .00008899  00000-0  43426-3 0  9995 | 2 62642  97.4385 145.0703 0004294 138.3100 221.8462 15.18514280  7325 | 2025/03/04-03:49:03   74.2051    0.1234  221.8134   94.8295     6888.4671     6885.5092     6891.4250 -79.885460  55.790453   0.000099  -0.000418
1 62642U 25009AK  25064.21339549  .00010821  00000-0  52683-3 0  9998 | 2 62642  97.4383 146.1077 0004382 135.2806 224.8782 15.18537099  7484 | 2025/03/05-05:07:17   93.7619    0.1234  224.8428   94.8281     6888.3981     6885.3796     6891.4166 -80.882289  54.334866   0.000087  -0.000430
1 62642U 25009AK  25065.66307197  .00008601  00000-0  41926-3 0  9993 | 2 62642  97.4379 147.5340 0004442 131.6899 228.4716 15.18561485  7704 | 2025/03/06-15:54:49  255.6453    0.1234  228.4335   94.8266     6888.3243     6885.2645     6891.3841 -82.209344  52.304571   0.000071  -0.000438
1 62642U 25009AK  25066.78325932  .00009440  00000-0  45949-3 0  9995 | 2 62642  97.4380 148.6364 0004438 129.2277 230.9352 15.18582710  7878 | 2025/03/07-18:47:53  298.9130    0.1234  230.8957   94.8253     6888.2601     6885.2031     6891.3172 -83.200518  50.713289   0.000061  -0.000440
1 62642U 25009AK  25068.16699711  .00011771  00000-0  57145-3 0  9999 | 2 62642  97.4380 149.9981 0004488 125.7998 234.3654 15.18613994  8089 | 2025/03/09-04:00:28   77.0585    0.1234  234.3236   94.8233     6888.1655     6885.0741     6891.2570 -84.382168  48.721798   0.000045  -0.000447
1 62642U 25009AK  25069.22125137  .00011312  00000-0  54889-3 0  9996 | 2 62642  97.4385 151.0353 0004591 122.9172 237.2505 15.18641386  8240 | 2025/03/10-05:18:36   96.5895    0.1235  237.2063   94.8216     6888.0827     6884.9204     6891.2450 -85.250720  47.186608   0.000032  -0.000458
1 62642U 25009AK  25070.53904645  .00010115  00000-0  49084-3 0  9992 | 2 62642  97.4383 152.3318 0004604 119.6899 240.4794 15.18668525  8449 | 2025/03/11-12:56:13  210.9965    0.1234  240.4335   94.8199     6888.0007     6884.8294     6891.1719 -86.296375  45.245530   0.000016  -0.000460
1 62642U 25009AK  25071.79092771  .00012439  00000-0  60219-3 0  9993 | 2 62642  97.4379 153.5635 0004558 116.8741 243.2960 15.18699915  8636 | 2025/03/12-18:58:56  301.6751    0.1235  243.2494   94.8179     6887.9057     6884.7662     6891.0453 -87.248656  43.379908   0.000003  -0.000456
1 62642U 25009AK  25073.56986283  .00015428  00000-0  74452-3 0  9995 | 2 62642  97.4377 155.3138 0004516 112.5186 247.6526 15.18758145  8909 | 2025/03/14-13:40:36  222.0938    0.1233  247.6047   94.8143     6887.7297     6884.6192     6890.8402 -88.532751  40.694684  -0.000017  -0.000451
1 62642U 25009AK  25074.75578196  .00014679  00000-0  70784-3 0  9998 | 2 62642  97.4376 156.4807 0004568 108.9030 251.2700 15.18796570  9086 | 2025/03/15-18:08:19  289.0249    0.1234  251.2204   94.8119     6887.6135     6884.4673     6890.7598 -89.343040  38.883250  -0.000037  -0.000455
1 62642U 25009AK  25075.94167205  .00014042  00000-0  67662-3 0  9990 | 2 62642  97.4370 157.6479 0004564 106.2936 253.8800 15.18832477  9266 | 2025/03/16-22:36:00  355.9464    0.1234  253.8298   94.8097     6887.5050     6884.3615     6890.6484 -90.116002  37.055029  -0.000048  -0.000454
1 62642U 25009AK  25077.06165236  .00016239  00000-0  78092-3 0  9996 | 2 62642  97.4365 158.7502 0004497 103.9722 256.2012 15.18870672  9431 | 2025/03/18-01:28:46   39.1411    0.1234  256.1512   94.8073     6887.3895     6884.2922     6890.4868 -90.811708  35.314377  -0.000057  -0.000446
1 62642U 25009AK  25078.18160318  .00017182  00000-0  82500-3 0  9993 | 2 62642  97.4362 159.8526 0004439 101.2291 258.9443 15.18911938  9601 | 2025/03/19-04:21:30   82.3249    0.1235  258.8944   94.8047     6887.2647     6884.2075     6890.3220 -91.474042  33.560581  -0.000069  -0.000439
1 62642U 25009AK  25079.76265477  .00017175  00000-0  82316-3 0  9997 | 2 62642  97.4360 161.4086 0004386  96.3448 263.8286 15.18974836  9840 | 2025/03/20-18:18:13  291.5058    0.1234  263.7786   94.8008     6887.0746     6884.0539     6890.0953 -92.351427  31.064258  -0.000093  -0.000429
1 62642U 25009AK  25080.88252992  .00017592  00000-0  84206-3 0  9993 | 2 62642  97.4361 162.5108 0004379  93.4152 266.7584 15.19015002 10016 | 2025/03/21-21:10:50  334.6622    0.1235  266.7083   94.7983     6886.9532     6883.9374     6889.9690 -92.931981  29.282084  -0.000106  -0.000425
1 62642U 25009AK  25082.79282223  .00017602  00000-0  84046-3 0  9999 | 2 62642  97.4359 164.3913 0004246  88.0988 272.0733 15.19099795 10306 | 2025/03/23-19:01:39  302.3713    0.1235  272.0247   94.7930     6886.6969     6883.7728     6889.6210 -93.842632  26.216694  -0.000128  -0.000405
1 62642U 25009AK  25084.11021298  .00019397  00000-0  92442-3 0  9992 | 2 62642  97.4361 165.6883 0004184  83.8334 276.3377 15.19145729 10500 | 2025/03/25-02:38:42   56.6345    0.1234  276.2900   94.7901     6886.5581     6883.6768     6889.4394 -94.412197  24.085900  -0.000146  -0.000392
1 62642U 25009AK  25085.16409591  .00018844  00000-0  89723-3 0  9998 | 2 62642  97.4361 166.7256 0004197  80.7811 279.3899 15.19184476 10667 | 2025/03/26-03:56:17   76.0339    0.1235  279.3424   94.7877     6886.4410     6883.5508     6889.3313 -94.832760  22.372780  -0.000161  -0.000388
1 62642U 25009AK  25086.48141108  .00019347  00000-0  91970-3 0  9997 | 2 62642  97.4361 168.0225 0004189  77.7119 282.4584 15.19234050 10868 | 2025/03/27-11:33:13  190.2696    0.1234  282.4115   94.7846     6886.2912     6883.4065     6889.1759 -95.314835  20.220676  -0.000172  -0.000382
1 62642U 25009AK  25087.66695863  .00013571  00000-0  64589-3 0  9999 | 2 62642  97.4359 169.1897 0004112  74.8194 285.3495 15.19270749 11048 | 2025/03/28-16:00:25  257.0694    0.1235  285.3041   94.7823     6886.1803     6883.3487     6889.0119 -95.706759  18.274872  -0.000180  -0.000370
1 62642U 25009AK  25088.78661920  .00012034  00000-0  57276-3 0  9998 | 2 62642  97.4352 170.2916 0003964  71.4700 288.6965 15.19298995 11216 | 2025/03/29-18:52:43  300.1513    0.1235  288.6535   94.7806     6886.0950     6883.3653     6888.8246 -96.039807  16.430877  -0.000188  -0.000349
1 62642U 25009AK  25090.16970236  .00012185  00000-0  57936-3 0  9996 | 2 62642  97.4347 171.6533 0003863  67.6358 292.5286 15.19333134 11422 | 2025/03/31-04:04:22   78.0649    0.1235  292.4877   94.7784     6885.9918     6883.3318     6888.6519 -96.402652  14.143883  -0.000197  -0.000332
1 62642U 25009AK  25091.48689541  .00011596  00000-0  55105-3 0  9999 | 2 62642  97.4343 172.9504 0003913  64.7077 295.4562 15.19364724 11622 | 2025/04/01-11:41:07  192.2561    0.1234  295.4157   94.7765     6885.8964     6883.2019     6888.5908 -96.697724  11.957968  -0.000209  -0.000331
1 62642U 25009AK  25092.80406166  .00012906  00000-0  61225-3 0  9992 | 2 62642  97.4339 174.2478 0003834  61.4752 298.6869 15.19397320 11823 | 2025/04/02-19:17:50  306.4386    0.1235  298.6483   94.7744     6885.7979     6883.1579     6888.4379 -96.943288   9.765436  -0.000216  -0.000317
1 62642U 25009AK  25094.18705107  .00015600  00000-0  73821-3 0  9991 | 2 62642  97.4337 175.6097 0003678  57.1902 302.9687 15.19439935 12038 | 2025/04/04-04:29:21   84.3192    0.1235  302.9333   94.7718     6885.6691     6883.1366     6888.2017 -97.147803   7.458572  -0.000222  -0.000293
1 62642U 25009AK  25095.50414513  .00018072  00000-0  85326-3 0  9995 | 2 62642  97.4338 176.9071 0003587  52.9682 307.1880 15.19487649 12231 | 2025/04/05-12:05:58  198.4766    0.1234  307.1552   94.7688     6885.5250     6883.0551     6887.9948 -97.291874   5.257048  -0.000231  -0.000274
1 62642U 25009AK  25096.75534795  .00013207  00000-0  62414-3 0  9996 | 2 62642  97.4344 178.1389 0003582  49.7476 310.4071 15.19525230 12423 | 2025/04/06-18:07:42  288.9125    0.1234  310.3758   94.7664     6885.4115     6882.9451     6887.8778 -97.383003   3.164339  -0.000240  -0.000266
1 62642U 25009AK  25097.94067173  .00011400  00000-0  53886-3 0  9995 | 2 62642  97.4345 179.3064 0003473  47.1528 312.9998 15.19554784 12607 | 2025/04/07-22:34:34  355.6320    0.1235  312.9707   94.7646     6885.3222     6882.9309     6887.7134 -97.427361   1.179475  -0.000239  -0.000252
1 62642U 25009AK  25099.19182169  .00014511  00000-0  68407-3 0  9998 | 2 62642  97.4345 180.5388 0003347  43.5663 316.5836 15.19590353 12793 | 2025/04/09-04:36:13   86.0495    0.1235  316.5572   94.7624     6885.2147     6882.9103     6887.5192 -97.430192  -0.916244  -0.000240  -0.000233
1 62642U 25009AK  25100.77217872  .00013788  00000-0  64936-3 0  9993 | 2 62642  97.4344 182.0952 0003205  37.9805 322.1655 15.19636101 13036 | 2025/04/10-18:31:56  294.9832    0.1235  322.1430   94.7595     6885.0765     6882.8699     6887.2832 -97.369261  -3.562201  -0.000245  -0.000206
1 62642U 25009AK  25102.48418141  .00013641  00000-0  64165-3 0  9997 | 2 62642  97.4346 183.7809 0003133  33.6308 326.5125 15.19681550 13294 | 2025/04/12-11:37:13  191.3086    0.1235  326.4927   94.7567     6884.9393     6882.7822     6887.0963 -97.222534  -6.424961  -0.000249  -0.000190
1 62642U 25009AK  25103.66938309  .00012707  00000-0  59746-3 0  9992 | 2 62642  97.4341 184.9486 0003021  30.2444 329.8965 15.19713467 13474 | 2025/04/13-16:03:54  257.9841    0.1235  329.8791   94.7547     6884.8429     6882.7630     6886.9228 -97.070913  -8.404863  -0.000247  -0.000174
1 62642U 25009AK  25104.72287707  .00011943  00000-0  56137-3 0  9991 | 2 62642  97.4336 185.9863 0002892  25.3565 334.7811 15.19737626 13638 | 2025/04/14-17:20:56  277.2459    0.1235  334.7670   94.7532     6884.7699     6882.7788     6886.7610 -96.902281 -10.161414  -0.000247  -0.000150
1 62642U 25009AK  25105.77635528  .00011800  00000-0  55435-3 0  9997 | 2 62642  97.4333 187.0241 0002827  21.6169 338.5184 15.19760598 13791 | 2025/04/15-18:37:57  296.5009    0.1234  338.5065   94.7518     6884.7005     6882.7542     6886.6468 -96.702044 -11.914809  -0.000248  -0.000136
1 62642U 25009AK  25107.75157058  .00011429  00000-0  53617-3 0  9991 | 2 62642  97.4327 188.9698 0002673  16.0165 344.1154 15.19816268 14093 | 2025/04/17-18:02:15  287.5830    0.1235  344.1070   94.7483     6884.5324     6882.6922     6886.3726 -96.241162 -15.191107  -0.000242  -0.000113
1 62642U 25009AK  25109.20002112  .00010765  00000-0  50475-3 0  9994 | 2 62642  97.4324 190.3965 0002554   9.6410 350.4873 15.19850067 14311 | 2025/04/19-04:48:01   89.0297    0.1235  350.4825   94.7462     6884.4303     6882.6721     6886.1886 -95.832803 -17.582560  -0.000240  -0.000088
1 62642U 25009AK  25111.17513045  .00011587  00000-0  54228-3 0  9998 | 2 62642  97.4324 192.3433 0002411   0.3745 359.7491 15.19895678 14612 | 2025/04/21-04:12:11   80.0738    0.1235  359.7490   94.7433     6884.2926     6882.6328     6885.9524 -95.180182 -20.827998  -0.000235  -0.000053
1 62642U 25009AK  25113.67684667  .00010601  00000-0  49562-3 0  9995 | 2 62642  97.4343 194.8106 0002267 350.7956   9.3237 15.19956038 14997 | 2025/04/23-16:14:39  260.6944    0.1235    9.3279   94.7396     6884.1104     6882.5497     6885.6710 -94.197154 -24.906606  -0.000226  -0.000022
1 62642U 25009AK  25115.19099586  .00011469  00000-0  53532-3 0  9999 | 2 62642  97.4334 196.2998 0002059 342.6382  17.4782 15.19992938 15225 | 2025/04/25-04:35:02   85.7942    0.1235   17.4853   94.7373     6883.9989     6882.5815     6885.4164 -93.517188 -27.345985  -0.000206   0.000004
1 62642U 25009AK  25116.77093443  .00012611  00000-0  58747-3 0  9993 | 2 62642  97.4335 197.8565 0001994 333.8353  26.2780 15.20036869 15466 | 2025/04/26-18:30:08  294.5758    0.1234   26.2881   94.7345     6883.8663     6882.4937     6885.2389 -92.739883 -29.876430  -0.000197   0.000029
1 62642U 25009AK  25118.67996721  .00011975  00000-0  55721-3 0  9996 | 2 62642  97.4332 199.7378 0001851 325.2894  34.8220 15.20088553 15756 | 2025/04/28-16:19:09  261.8298    0.1235   34.8341   94.7313     6883.7103     6882.4361     6884.9844 -91.708799 -32.904780  -0.000179   0.000048
1 62642U 25009AK  25121.77380302  .00012343  00000-0  57313-3 0  9992 | 2 62642  97.4324 202.7871 0001827 305.7324  54.3741 15.20155256 16227 | 2025/05/01-18:34:16  295.6157    0.1235   54.3911   94.7272     6883.5089     6882.2513     6884.7665 -89.827838 -37.736350  -0.000156   0.000095
1 62642U 25009AK  25123.48521600  .00014039  00000-0  65029-3 0  9997 | 2 62642  97.4324 204.4742 0001651 296.5189  63.5876 15.20207895 16480 | 2025/05/03-11:38:42  191.7242    0.1234   63.6045   94.7239     6883.3500     6882.2135     6884.4864 -88.677896 -40.364631  -0.000128   0.000104
1 62642U 25009AK  25124.93330007  .00008709  00000-0  40462-3 0  9998 | 2 62642  97.4322 205.9016 0001647 286.2465  73.8589 15.20231833 16705 | 2025/05/04-22:23:57  353.0354    0.1235   73.8770   94.7224     6883.2777     6882.1441     6884.4114 -87.644705 -42.561007  -0.000111   0.000122
1 62642U 25009AK  25126.77627823  .00009651  00000-0  44749-3 0  9996 | 2 62642  97.4326 207.7180 0001752 275.3173  84.7862 15.20268792 16982 | 2025/05/06-18:37:50  296.5096    0.1235   84.8062   94.7201     6883.1662     6881.9602     6884.3721 -86.251970 -45.317868  -0.000096   0.000147
1 62642U 25009AK  25128.68503335  .00008244  00000-0  38244-3 0  9999 | 2 62642  97.4332 209.5992 0001762 262.9501  97.1533 15.20301501 17270 | 2025/05/08-16:26:26  263.6617    0.1234   97.1733   94.7181     6883.0674     6881.8546     6884.2802 -84.718345 -48.125154  -0.000068   0.000163
1 62642U 25009AK  25129.73812417  .00007046  00000-0  32724-3 0  9996 | 2 62642  97.4332 210.6373 0001808 256.2272 103.8762 15.20315481 17437 | 2025/05/09-17:42:53  282.7743    0.1235  103.8963   94.7172     6883.0253     6881.7808     6884.2697 -83.832544 -49.652120  -0.000052   0.000173
1 62642U 25009AK  25131.18610733  .00006681  00000-0  31027-3 0  9994 | 2 62642  97.4331 212.0649 0001898 246.9562 113.1473 15.20335338 17655 | 2025/05/11-04:27:59   84.0477    0.1235  113.1673   94.7159     6882.9653     6881.6589     6884.2717 -82.569418 -51.725238  -0.000030   0.000187
1 62642U 25009AK  25132.76570062  .00008075  00000-0  37400-3 0  9999 | 2 62642  97.4328 213.6220 0002040 237.8740 122.2298 15.20362356 17892 | 2025/05/12-18:22:36  292.7008    0.1236  122.2496   94.7143     6882.8838     6881.4797     6884.2879 -81.133139 -53.949645  -0.000005   0.000204
1 62642U 25009AK  25134.47690101  .00006711  00000-0  31121-3 0  9995 | 2 62642  97.4326 215.3091 0002093 228.4458 131.6598 15.20384156 18154 | 2025/05/14-11:26:44  188.7307    0.1235  131.6777   94.7129     6882.8180     6881.3774     6884.2586 -79.509464 -56.314800   0.000023   0.000208
1 62642U 25009AK  25136.18807544  .00006643  00000-0  30786-3 0  9996 | 2 62642  97.4322 216.9963 0002264 220.9800 139.1266 15.20407213 18417 | 2025/05/16-04:30:49   84.7519    0.1236  139.1436   94.7115     6882.7484     6881.1901     6884.3066 -77.816601 -58.631137   0.000047   0.000221
1 62642U 25009AK  25137.50434247  .00010582  00000-0  48796-3 0  9996 | 2 62642  97.4322 218.2942 0002402 215.5786 144.5290 15.20434136 18619 | 2025/05/17-12:06:15  198.6065    0.1236  144.5450   94.7098     6882.6671     6881.0139     6884.3204 -76.468601 -60.378694   0.000067   0.000231
1 62642U 25009AK  25138.75477474  .00010077  00000-0  46451-3 0  9998 | 2 62642  97.4322 219.5272 0002464 210.2157 149.8936 15.20458816 18808 | 2025/05/18-18:06:52  288.7599    0.1235  149.9078   94.7083     6882.5927     6880.8968     6884.2885 -75.151651 -62.010184   0.000085   0.000231
1 62642U 25009AK  25140.46586821  .00006083  00000-0  28162-3 0  9997 | 2 62642  97.4320 221.2145 0002619 202.1548 157.9575 15.20478092 19067 | 2025/05/20-11:10:51  184.7498    0.1236  157.9688   94.7071     6882.5345     6880.7320     6884.3370 -73.293045 -64.195982   0.000117   0.000234
1 62642U 25009AK  25142.50598657  .00006411  00000-0  29638-3 0  9998 | 2 62642  97.4325 223.2261 0002809 194.6881 165.4273 15.20504289 19370 | 2025/05/22-12:08:37  199.1885    0.1235  165.4354   94.7054     6882.4554     6880.5222     6884.3887 -70.994846 -66.729483   0.000149   0.000238
1 62642U 25009AK  25143.95379264  .00005521  00000-0  25559-3 0  9998 | 2 62642  97.4329 224.6537 0002978 190.5085 169.6089 15.20520127 19597 | 2025/05/23-22:53:27    0.3961    0.1236  169.6151   94.7044     6882.4076     6880.3581     6884.4572 -69.310613 -68.477799   0.000170   0.000244
1 62642U 25009AK  25145.46739262  .00004702  00000-0  21805-3 0  9994 | 2 62642  97.4331 226.1461 0003110 185.4049 174.7153 15.20534779 19828 | 2025/05/25-11:13:02  185.2888    0.1235  174.7186   94.7035     6882.3634     6880.2230     6884.5038 -67.503781 -70.259865   0.000193   0.000244
1 62642U 25009AK  25147.17839976  .00005509  00000-0  25480-3 0  9996 | 2 62642  97.4332 227.8333 0003271 179.9930 180.1306 15.20554240 20086 | 2025/05/27-04:16:53   81.2472    0.1235  180.1305   94.7023     6882.3047     6880.0535     6884.5559 -65.405925 -72.216988   0.000220   0.000242
1 62642U 25009AK  25148.49454196  .00007377  00000-0  33986-3 0  9994 | 2 62642  97.4330 229.1314 0003376 175.8350 184.2914 15.20574522 20282 | 2025/05/28-11:52:08  195.0548    0.1235  184.2885   94.7010     6882.2435     6879.9201     6884.5670 -63.752992 -73.680021   0.000239   0.000239
1 62642U 25009AK  25149.81066618  .00007780  00000-0  35797-3 0  9999 | 2 62642  97.4326 230.4293 0003518 171.1816 188.9482 15.20596038 20481 | 2025/05/29-19:27:21  308.8554    0.1235  188.9419   94.6997     6882.1786     6879.7574     6884.5997 -62.067478 -75.104859   0.000263   0.000234
1 62642U 25009AK  25150.86355300  .00006545  00000-0  30157-3 0  9998 | 2 62642  97.4323 231.4679 0003616 168.3474 191.7845 15.20610258 20648 | 2025/05/30-20:43:30  327.8918    0.1234  191.7760   94.6988     6882.1357     6879.6471     6884.6243 -60.695743 -76.217320   0.000278   0.000232
1 62642U 25009AK  25152.17964653  .00007934  00000-0  36465-3 0  9992 | 2 62642  97.4322 232.7659 0003727 166.3536 193.7800 15.20631222 20848 | 2025/06/01-04:18:41   81.6829    0.1234  193.7698   94.6975     6882.0724     6879.5075     6884.6374 -58.953600 -77.572589   0.000289   0.000235
1 62642U 25009AK  25154.48274815  .00011746  00000-0  53713-3 0  9993 | 2 62642  97.4324 235.0374 0003892 158.3388 201.8012 15.20688470 21191 | 2025/06/03-11:35:09  190.7917    0.1234  201.7846   94.6940     6881.8997     6879.2213     6884.5781 -55.832819 -79.848412   0.000325   0.000214
1 62642U 25009AK  25155.79877813  .00007007  00000-0  32173-3 0  9997 | 2 62642  97.4325 236.3356 0004004 155.0408 205.1021 15.20703871 21391 | 2025/06/04-19:10:14  304.5585    0.1234  205.0826   94.6930     6881.8532     6879.0977     6884.6087 -54.009504 -81.092944   0.000342   0.000208
1 62642U 25009AK  25156.85159119  .00006301  00000-0  28955-3 0  9996 | 2 62642  97.4326 237.3740 0004080 152.7410 207.4040 15.20716616 21556 | 2025/06/05-20:26:17  323.5684    0.1235  207.3825   94.6922     6881.8148     6879.0070     6884.6226 -52.531081 -82.058498   0.000353   0.000205
1 62642U 25009AK  25158.49659440  .00006225  00000-0  28596-3 0  9996 | 2 62642  97.4330 238.9962 0004122 148.3220 211.8264 15.20736414 21804 | 2025/06/07-11:55:05  195.7654    0.1235  211.8015   94.6910     6881.7551     6878.9184     6884.5917 -50.187244 -83.513053   0.000366   0.000189
1 62642U 25009AK  25159.68098361  .00005290  00000-0  24338-3 0  9998 | 2 62642  97.4332 240.1646 0004257 145.3952 214.7561 15.20748946 21982 | 2025/06/08-16:20:36  262.1416    0.1235  214.7283   94.6902     6881.7173     6878.7877     6884.6468 -48.473993 -84.519232   0.000384   0.000184
1 62642U 25009AK  25160.73376475  .00005359  00000-0  24643-3 0  9996 | 2 62642  97.4332 241.2032 0004318 142.7372 217.4164 15.20761550 22142 | 2025/06/09-17:36:37  281.1395    0.1235  217.3863   94.6894     6881.6792     6878.7077     6884.6507 -46.934033 -85.383985   0.000395   0.000175
1 62642U 25009AK  25161.78653921  .00004396  00000-0  20267-3 0  9994 | 2 62642  97.4331 242.2416 0004393 140.1925 219.9634 15.20770403 22301 | 2025/06/10-18:52:36  300.1353    0.1236  219.9311   94.6888     6881.6525     6878.6294     6884.6756 -45.378907 -86.220437   0.000406   0.000168
1 62642U 25009AK  25163.76046747  .00006753  00000-0  30935-3 0  9998 | 2 62642  97.4328 244.1889 0004496 135.5707 224.5889 15.20797855 22609 | 2025/06/12-18:15:04  290.7441    0.1234  224.5527   94.6871     6881.5697     6878.4758     6884.6637 -42.422778 -87.712362   0.000423   0.000152
1 62642U 25009AK  25165.20798497  .00008632  00000-0  39410-3 0  9990 | 2 62642  97.4326 245.6171 0004561 131.4130 228.7498 15.20828664 22824 | 2025/06/14-04:59:29   91.8457    0.1235  228.7105   94.6852     6881.4768     6878.3381     6884.6154 -40.223355 -88.742286   0.000436   0.000134
1 62642U 25009AK  25166.45809487  .00005426  00000-0  24888-3 0  9991 | 2 62642  97.4324 246.8507 0004623 128.7597 231.4052 15.20844689 23017 | 2025/06/15-10:59:39  181.8818    0.1235  231.3638   94.6842     6881.4284     6878.2472     6884.6097 -38.303446 -89.587491   0.000445   0.000124
1 62642U 25009AK  25168.49772195  .00006417  00000-0  29349-3 0  9990 | 2 62642  97.4323 248.8630 0004666 124.6415 235.5261 15.20870810 23322 | 2025/06/17-11:56:43  196.1429    0.1235  235.4820   94.6826     6881.3496     6878.1388     6884.5605 -35.134010 -90.877139   0.000454   0.000109
1 62642U 25009AK  25169.55041919  .00005786  00000-0  26485-3 0  9997 | 2 62642  97.4323 249.9016 0004725 121.7315 238.4382 15.20883165 23485 | 2025/06/18-13:12:36  215.1108    0.1236  238.3921   94.6818     6881.3124     6878.0610     6884.5638 -33.480999 -91.499048   0.000463   0.000095
1 62642U 25009AK  25170.93207342  .00005022  00000-0  23023-3 0  9993 | 2 62642  97.4325 251.2645 0004761 118.5826 241.5889 15.20896350 23692 | 2025/06/19-22:22:11  352.5034    0.1235  241.5409   94.6810     6881.2726     6877.9964     6884.5488 -31.295301 -92.269693   0.000469   0.000081
1 62642U 25009AK  25172.18213232  .00004306  00000-0  19781-3 0  9997 | 2 62642  97.4327 252.4978 0004810 115.3073 244.8661 15.20906129 23881 | 2025/06/21-04:22:16   82.5215    0.1235  244.8162   94.6804     6881.2431     6877.9332     6884.5530 -29.302146 -92.922092   0.000477   0.000065
1 62642U 25009AK  25174.55063912  .00004096  00000-0  18822-3 0  9999 | 2 62642  97.4331 254.8344 0004823 110.5927 249.5826 15.20926927 24242 | 2025/06/23-13:12:55  215.1800    0.1235  249.5308   94.6791     6881.1804     6877.8616     6884.4992 -25.489448 -94.039869   0.000480   0.000046
1 62642U 25009AK  25175.93225389  .00004152  00000-0  19065-3 0  9993 | 2 62642  97.4333 256.1976 0004861 106.6612 253.5158 15.20938698 24453 | 2025/06/24-22:22:26  352.5582    0.1236  253.4624   94.6784     6881.1449     6877.7999     6884.4898 -23.245065 -94.619844   0.000485   0.000024
1 62642U 25009AK  25177.51122989  .00004804  00000-0  22000-3 0  9998 | 2 62642  97.4332 257.7558 0004909 102.9829 257.1955 15.20952615 24693 | 2025/06/26-12:16:10  200.9863    0.1236  257.1407   94.6775     6881.1029     6877.7250     6884.4808 -20.663511 -95.216846   0.000491   0.000006
1 62642U 25009AK  25178.69545086  .00004982  00000-0  22796-3 0  9994 | 2 62642  97.4328 258.9244 0004882 100.2879 259.8907 15.20964513 24875 | 2025/06/27-16:41:26  267.3042    0.1235  259.8356   94.6768     6881.0670     6877.7077     6884.4263 -18.717236 -95.618071   0.000488  -0.000007
1 62642U 25009AK  25179.81387306  .00004166  00000-0  19111-3 0  9999 | 2 62642  97.4324 260.0281 0004859  97.6685 262.5103 15.20974381 25047 | 2025/06/28-19:31:58  309.9347    0.1236  262.4551   94.6762     6881.0372     6877.6938     6884.3807 -16.871898 -95.960469   0.000486  -0.000020
1 62642U 25009AK  25181.19544328  .00004189  00000-0  19207-3 0  9993 | 2 62642  97.4322 261.3914 0004821  94.4007 265.7780 15.20987317 25256 | 2025/06/30-04:41:26   87.2985    0.1236  265.7229   94.6753     6880.9982     6877.6809     6884.3156 -14.584017 -96.334522   0.000481  -0.000035
1 62642U 25009AK  25182.70857823  .00005279  00000-0  24107-3 0  9994 | 2 62642  97.4321 262.8845 0004807  91.0650 269.1136 15.21003638 25489 | 2025/07/01-17:00:21  272.0255    0.1235  269.0585   94.6743     6880.9490     6877.6413     6884.2567 -12.068907 -96.681723   0.000478  -0.000051
1 62642U 25009AK  25183.76118454  .00005234  00000-0  23897-3 0  9997 | 2 62642  97.4321 263.9232 0004812  88.3132 271.8655 15.21014249 25645 | 2025/07/02-18:16:06  290.9625    0.1236  271.8104   94.6737     6880.9170     6877.6059     6884.2281 -10.314302 -96.884618   0.000477  -0.000065
1 62642U 25009AK  25184.81378248  .00004973  00000-0  22718-3 0  9993 | 2 62642  97.4321 264.9615 0004756  85.8275 274.3504 15.21025330 25800 | 2025/07/03-19:31:50  309.8977    0.1236  274.2961   94.6730     6880.8836     6877.6110     6884.1561  -8.556986 -97.055613   0.000469  -0.000076
1 62642U 25009AK  25186.19530325  .00006488  00000-0  29522-3 0  9995 | 2 62642  97.4324 266.3248 0004678  82.5268 277.6498 15.21045040 26012 | 2025/07/05-04:41:14   87.2449    0.1235  277.5967   94.6718     6880.8241     6877.6053     6884.0430  -6.245452 -97.232026   0.000459  -0.000090
1 62642U 25009AK  25187.77414821  .00013754  00000-0  62090-3 0  9993 | 2 62642  97.4326 267.8823 0004556  78.8597 281.3150 15.21091711 26256 | 2025/07/06-18:34:46  295.6297    0.1235  281.2638   94.6688     6880.6834     6877.5486     6883.8182  -3.600371 -97.366056   0.000443  -0.000104
1 62642U 25009AK  25189.48452641  .00006219  00000-0  28255-3 0  9998 | 2 62642  97.4329 269.5704 0004539  73.9149 286.2586 15.21114381 26511 | 2025/07/08-11:37:43  191.3648    0.1236  286.2087   94.6674     6880.6150     6877.4919     6883.7381  -0.730539 -97.430161   0.000435  -0.000129
1 62642U 25009AK  25190.73440761  .00004026  00000-0  18402-3 0  9995 | 2 62642  97.4328 270.8039 0004450  71.3013 288.8706 15.21121706 26702 | 2025/07/09-17:37:32  281.3220    0.1236  288.8223   94.6670     6880.5929     6877.5311     6883.6548   1.367006 -97.423210   0.000423  -0.000137
1 62642U 25009AK  25191.78692822  .00007812  00000-0  35369-3 0  9995 | 2 62642  97.4296 271.8417 0004823  60.3478 299.8224 15.21145928 26860 | 2025/07/10-18:53:10  300.2308    0.1222  299.7744   94.6655     6880.5199     6877.2014     6883.8384   3.131211 -97.379271   0.000427  -0.000225
1 62642U 25009AK  25193.16836313  .00005305  00000-0  24131-3 0  9994 | 2 62642  97.4326 273.2064 0004320  65.5071 294.6614 15.21144196 27072 | 2025/07/12-04:02:26   77.5459    0.1235  294.6164   94.6656     6880.5251     6877.5527     6883.4975   5.449701 -97.280071   0.000403  -0.000157
1 62642U 25009AK  25194.28665305  .00005502  00000-0  25004-3 0  9998 | 2 62642  97.4324 274.3103 0004259  62.7317 297.4352 15.21156460 27245 | 2025/07/13-06:52:46  120.1302    0.1236  297.3919   94.6648     6880.4881     6877.5577     6883.4185   7.322823 -97.156826   0.000392  -0.000166
1 62642U 25009AK  25195.73383793  .00004655  00000-0  21194-3 0  9991 | 2 62642  97.4319 275.7388 0004209  59.0091 301.1557 15.21171308 27464 | 2025/07/14-17:36:43  281.1168    0.1235  301.1144   94.6639     6880.4434     6877.5474     6883.3393   9.742563 -96.943579   0.000381  -0.000180
1 62642U 25009AK  25196.78632772  .00005182  00000-0  23551-3 0  9996 | 2 62642  97.4316 276.7775 0004129  56.1244 304.0384 15.21182531 27629 | 2025/07/15-18:52:18  300.0138    0.1236  303.9992   94.6632     6880.4095     6877.5686     6883.2504  11.498295 -96.750741   0.000368  -0.000188
1 62642U 25009AK  25198.16771017  .00005378  00000-0  24421-3 0  9990 | 2 62642  97.4315 278.1408 0004020  52.6963 307.4639 15.21196198 27833 | 2025/07/17-04:01:30   77.3124    0.1236  307.4273   94.6623     6880.3683     6877.6024     6883.1342  13.796903 -96.449690   0.000351  -0.000196
1 62642U 25009AK  25199.48329925  .00004826  00000-0  21937-3 0  9999 | 2 62642  97.4317 279.4392 0003919  49.5413 310.6164 15.21209436 28034 | 2025/07/18-11:35:57  190.9252    0.1236  310.5823   94.6615     6880.3284     6877.6320     6883.0248  15.978887 -96.112493   0.000336  -0.000202
1 62642U 25009AK  25200.60153970  .00004656  00000-0  21169-3 0  9999 | 2 62642  97.4318 280.5427 0003853  46.6329 313.5227 15.21221859 28202 | 2025/07/19-14:26:13  233.4926    0.1236  313.4907   94.6607     6880.2909     6877.6400     6882.9419  17.826926 -95.787036   0.000324  -0.000209
1 62642U 25009AK  25201.65399370  .00004863  00000-0  22088-3 0  9992 | 2 62642  97.4321 281.5813 0003741  43.5861 316.5670 15.21233063 28361 | 2025/07/20-15:41:45  252.3773    0.1236  316.5375   94.6601     6880.2572     6877.6833     6882.8311  19.560293 -95.448463   0.000307  -0.000214
1 62642U 25009AK  25202.70643994  .00005308  00000-0  24075-3 0  9996 | 2 62642  97.4322 282.6199 0003647  40.6972 319.4536 15.21244939 28522 | 2025/07/21-16:57:16  271.2590    0.1236  319.4264   94.6593     6880.2213     6877.7121     6882.7306  21.287200 -95.078329   0.000292  -0.000218
1 62642U 25009AK  25204.48242242  .00007237  00000-0  32678-3 0  9995 | 2 62642  97.4324 284.3727 0003478  35.2689 324.8776 15.21270144 28799 | 2025/07/23-11:34:41  190.6147    0.1236  324.8547   94.6577     6880.1454     6877.7524     6882.5383  24.185484 -94.382916   0.000265  -0.000225
1 62642U 25009AK  25205.60061798  .00006441  00000-0  29110-3 0  9998 | 2 62642  97.4323 285.4765 0003391  32.2227 327.9215 15.21285587 28969 | 2025/07/24-14:24:53  233.1657    0.1236  327.9009   94.6568     6880.0988     6877.7657     6882.4318  25.999139 -93.899403   0.000251  -0.000228
1 62642U 25009AK  25206.78457801  .00005908  00000-0  26715-3 0  9997 | 2 62642  97.4320 286.6453 0003257  28.0359 332.1051 15.21300254 29149 | 2025/07/25-18:49:47  299.3927    0.1235  332.0876   94.6559     6880.0546     6877.8137     6882.2954  27.909003 -93.349248   0.000229  -0.000232
1 62642U 25009AK  25208.49472069  .00006596  00000-0  29769-3 0  9996 | 2 62642  97.4317 288.3337 0003114  22.8417 337.2956 15.21324428 29402 | 2025/07/27-11:52:23  195.0449    0.1235  337.2818   94.6544     6879.9817     6877.8393     6882.1241  30.647222 -92.486128   0.000205  -0.000234
1 62642U 25009AK  25210.46792870  .00006672  00000-0  30084-3 0  9998 | 2 62642  97.4311 290.2815 0002967  15.9668 344.1661 15.21351719 29701 | 2025/07/29-11:13:49  185.4013    0.1236  344.1568   94.6527     6879.8994     6877.8581     6881.9407  33.772815 -91.390460   0.000175  -0.000239
1 62642U 25009AK  25211.78338225  .00007351  00000-0  33091-3 0  9990 | 2 62642  97.4307 291.5799 0002852  11.6296 348.5005 15.21370356 29904 | 2025/07/30-18:48:04  298.9656    0.1236  348.4940   94.6515     6879.8432     6877.8811     6881.8054  35.834851 -90.601351   0.000156  -0.000239
1 62642U 25009AK  25213.23036029  .00007753  00000-0  34859-3 0  9998 | 2 62642  97.4306 293.0080 0002702   6.3883 353.7386 15.21393416 30128 | 2025/08/01-05:31:43   99.8790    0.1235  353.7352   94.6501     6879.7737     6877.9148     6881.6326  38.081690 -89.680024   0.000133  -0.000235
1 62642U 25009AK  25215.53232920  .00005515  00000-0  24872-3 0  9999 | 2 62642  97.4308 295.2799 0002453 357.0873   3.0348 15.21423307 30473 | 2025/08/03-12:46:33  208.5896    0.1236    3.0363   94.6482     6879.6836     6877.9960     6881.3712  41.606915 -88.100088   0.000093  -0.000227
1 62642U 25009AK  25216.65041316  .00006370  00000-0  28664-3 0  9993 | 2 62642  97.4311 296.3835 0002388 351.7898   8.3298 15.21437954 30649 | 2025/08/04-15:36:35  251.1008    0.1236    8.3338   94.6473     6879.6394     6877.9966     6881.2823  43.296161 -87.282654   0.000074  -0.000227
1 62642U 25009AK  25218.75501451  .00005683  00000-0  25591-3 0  9999 | 2 62642  97.4313 298.4609 0002177 342.9278  17.1884 15.21462461 30968 | 2025/08/06-18:07:13  288.7577    0.1236   17.1958   94.6458     6879.5656     6878.0679     6881.0632  46.431755 -85.656000   0.000043  -0.000213
1 62642U 25009AK  25219.80730252  .00005412  00000-0  24376-3 0  9999 | 2 62642  97.4314 299.4997 0002132 338.0366  22.0778 15.21474171 31122 | 2025/08/07-19:22:30  307.5815    0.1236   22.0870   94.6451     6879.5303     6878.0635     6880.9970  47.977073 -84.800225   0.000028  -0.000211
1 62642U 25009AK  25221.25418575  .00006354  00000-0  28552-3 0  9998 | 2 62642  97.4312 300.9281 0002047 329.8781  30.2337 15.21491736 31340 | 2025/08/09-06:06:01  108.4598    0.1236   30.2455   94.6440     6879.4773     6878.0691     6880.8855  50.075936 -83.577744   0.000003  -0.000205
1 62642U 25009AK  25223.09564392  .00007766  00000-0  34789-3 0  9998 | 2 62642  97.4307 302.7463 0001912 320.5329  39.5768 15.21521284 31625 | 2025/08/11-02:17:43   51.3837    0.1237   39.5908   94.6421     6879.3882     6878.0729     6880.7036  52.702230 -81.946423  -0.000022  -0.000190
1 62642U 25009AK  25224.67401062  .00006637  00000-0  29764-3 0  9990 | 2 62642  97.4300 304.3048 0001816 310.9570  49.1508 15.21542267 31868 | 2025/08/12-16:10:34  259.5948    0.1235   49.1665   94.6408     6879.3250     6878.0757     6880.5743  54.911086 -80.482157  -0.000046  -0.000176
1 62642U 25009AK  25225.79200724  .00005928  00000-0  26607-3 0  9991 | 2 62642  97.4297 305.4084 0001810 302.4966  57.6094 15.21555614 32038 | 2025/08/13-19:00:29  302.0737    0.1235   57.6269   94.6400     6879.2848     6878.0396     6880.5299  56.450833 -79.409381  -0.000068  -0.000168
1 62642U 25009AK  25227.17304773  .00006775  00000-0  30347-3 0  9991 | 2 62642  97.4294 306.7715 0001770 294.5906  65.5146 15.21575046 32240 | 2025/08/15-04:09:11   79.2472    0.1237   65.5331   94.6388     6879.2262     6878.0086     6880.4438  58.323697 -78.043798  -0.000085  -0.000155
1 62642U 25009AK  25228.22525679  .00006280  00000-0  28140-3 0  9997 | 2 62642  97.4294 307.8099 0001761 287.3597  72.7447 15.21589148 32403 | 2025/08/16-05:24:22   98.0420    0.1237   72.7640   94.6379     6879.1837     6877.9723     6880.3951  59.728468 -76.974010  -0.000101  -0.000145
1 62642U 25009AK  25229.47474236  .00006036  00000-0  27048-3 0  9992 | 2 62642  97.4295 309.0434 0001741 280.2528  79.8512 15.21605768 32593 | 2025/08/17-11:23:37  187.8552    0.1236   79.8708   94.6369     6879.1336     6877.9359     6880.3313  61.371707 -75.670477  -0.000114  -0.000132
1 62642U 25009AK  25231.18454497  .00006547  00000-0  29293-3 0  9991 | 2 62642  97.4298 310.7311 0001757 269.1471  90.9564 15.21627602 32850 | 2025/08/19-04:25:44   83.3823    0.1236   90.9765   94.6355     6879.0678     6877.8591     6880.2764  63.573901 -73.830380  -0.000135  -0.000113
1 62642U 25009AK  25232.30247800  .00008804  00000-0  39250-3 0  9996 | 2 62642  97.4299 311.8346 0001843 261.8472  98.2555 15.21646768 33022 | 2025/08/20-07:15:34  125.8373    0.1236   98.2764   94.6343     6879.0100     6877.7422     6880.2778  64.984041 -72.592423  -0.000153  -0.000102
1 62642U 25009AK  25233.81495517  .00006343  00000-0  28357-3 0  9995 | 2 62642  97.4301 313.3278 0001885 252.0400 108.0631 15.21667044 33256 | 2025/08/21-19:33:32  310.3263    0.1236  108.0836   94.6331     6878.9489     6877.6522     6880.2456  66.853747 -70.874543  -0.000170  -0.000081
1 62642U 25009AK  25235.65620565  .00006341  00000-0  28326-3 0  9996 | 2 62642  97.4299 315.1460 0002044 241.3888 118.7143 15.21690445 33532 | 2025/08/23-15:44:56  253.1731    0.1236  118.7348   94.6316     6878.8784     6877.4724     6880.2844  69.068672 -68.717567  -0.000196  -0.000058
1 62642U 25009AK  25236.77409404  .00007137  00000-0  31827-3 0  9991 | 2 62642  97.4296 316.2496 0002088 235.6023 124.5016 15.21706112 33707 | 2025/08/24-18:34:41  295.6103    0.1236  124.5213   94.6306     6878.8312     6877.3949     6880.2675  70.379162 -67.374332  -0.000204  -0.000043
1 62642U 25009AK  25238.54953769  .00008329  00000-0  37054-3 0  9998 | 2 62642  97.4290 318.0027 0002212 226.5833 133.5220 15.21734913 33974 | 2025/08/26-13:11:20  214.7655    0.1237  133.5404   94.6288     6878.7444     6877.2228     6880.2660  72.406929 -65.189314  -0.000220  -0.000018
1 62642U 25009AK  25239.79890192  .00009955  00000-0  44188-3 0  9998 | 2 62642  97.4284 319.2364 0002301 221.1547 138.9516 15.21759743 34163 | 2025/08/27-19:10:25  304.5334    0.1236  138.9689   94.6273     6878.6696     6877.0868     6880.2523  73.793246 -63.614856  -0.000230  -0.000002
1 62642U 25009AK  25240.91673629  .00011347  00000-0  50277-3 0  9992 | 2 62642  97.4281 320.3399 0002466 218.0447 142.0615 15.21783530 34333 | 2025/08/28-22:00:06  346.9521    0.1236  142.0789   94.6258     6878.5979     6876.9016     6880.2941  75.004457 -62.181718  -0.000247   0.000007
1 62642U 25009AK  25242.03455190  .00011890  00000-0  52624-3 0  9999 | 2 62642  97.4281 321.4434 0002542 212.9684 147.1394 15.21810240 34504 | 2025/08/30-00:49:45   29.3624    0.1236  147.1552   94.6241     6878.5174     6876.7689     6880.2659  76.188075 -60.725711  -0.000253   0.000025
1 62642U 25009AK  25243.21809751  .00012904  00000-0  57025-3 0  9993 | 2 62642  97.4281 322.6117 0002603 207.3277 152.7823 15.21843431 34685 | 2025/08/31-05:14:03   95.4349    0.1236  152.7959   94.6221     6878.4174     6876.6269     6880.2078  77.410389 -59.159668  -0.000256   0.000045
1 62642U 25009AK  25244.46736981  .00013197  00000-0  58255-3 0  9996 | 2 62642  97.4279 323.8451 0002721 204.1548 155.9561 15.21875287 34872 | 2025/09/01-11:13:00  185.1700    0.1236  155.9688   94.6201     6878.3214     6876.4498     6880.1930  78.665718 -57.479567  -0.000266   0.000057
1 62642U 25009AK  25245.97960852  .00018373  00000-0  80813-3 0  9995 | 2 62642  97.4280 325.3379 0002864 200.6166 159.4955 15.21924175 35109 | 2025/09/02-23:30:38    9.5724    0.1236  159.5070   94.6171     6878.1741     6876.2042     6880.1440  80.136520 -55.410769  -0.000278   0.000070
1 62642U 25009AK  25247.16306375  .00012708  00000-0  55975-3 0  9999 | 2 62642  97.4285 326.5068 0002910 196.3464 163.7679 15.21959200 35283 | 2025/09/04-03:54:48   75.6117    0.1236  163.7772   94.6149     6878.0686     6876.0671     6880.0701  81.250626 -53.764750  -0.000278   0.000086
1 62642U 25009AK  25248.74096969  .00011396  00000-0  50180-3 0  9994 | 2 62642  97.4286 328.0651 0003083 190.8532 169.2638 15.21995311 35522 | 2025/09/05-17:46:59  283.6521    0.1236  169.2704   94.6126     6877.9598     6875.8393     6880.0803  82.682747 -51.535380  -0.000288   0.000111
1 62642U 25009AK  25249.79288640  .00013541  00000-0  59507-3 0  9995 | 2 62642  97.4283 329.1041 0003175 187.9388 172.1798 15.22021375 35680 | 2025/09/06-19:01:45  302.3383    0.1235  172.1847   94.6110     6877.8813     6875.6975     6880.0650  83.603385 -50.027469  -0.000292   0.000124
1 62642U 25009AK  25251.17350362  .00009576  00000-0  42163-3 0  9994 | 2 62642  97.4281 330.4677 0003266 184.0921 176.0289 15.22046666 35891 | 2025/09/08-04:09:50   79.3553    0.1236  176.0315   94.6095     6877.8051     6875.5588     6880.0514  84.770042 -48.023688  -0.000295   0.000140
1 62642U 25009AK  25252.81706690  .00006808  00000-0  30051-3 0  9993 | 2 62642  97.4274 332.0908 0003453 178.7005 181.4241 15.22071102 36149 | 2025/09/09-19:36:34  311.0314    0.1236  181.4231   94.6079     6877.7315     6875.3566     6880.1063  86.095666 -45.603010  -0.000301   0.000169
1 62642U 25009AK  25254.19763962  .00006564  00000-0  28970-3 0  9997 | 2 62642  97.4269 333.4543 0003562 173.8023 186.3257 15.22091418 36356 | 2025/09/11-04:44:36   88.0314    0.1235  186.3212   94.6067     6877.6703     6875.2204     6880.1201  87.155979 -43.541201  -0.000300   0.000193
1 62642U 25009AK  25255.44671259  .00006939  00000-0  30588-3 0  9997 | 2 62642  97.4266 334.6877 0003666 170.4066 189.7241 15.22110723 36543 | 2025/09/12-10:43:15  177.6927    0.1236  189.7170   94.6055     6877.6121     6875.0908     6880.1334  88.072749 -41.654932  -0.000301   0.000210
1 62642U 25009AK  25256.76150816  .00008470  00000-0  37233-3 0  9990 | 2 62642  97.4265 335.9858 0003778 166.5263 193.6075 15.22134731 36740 | 2025/09/13-18:16:34  291.0139    0.1236  193.5973   94.6040     6877.5398     6874.9414     6880.1381  88.993713 -39.648985  -0.000300   0.000230
1 62642U 25009AK  25258.47071490  .00010591  00000-0  46426-3 0  9991 | 2 62642  97.4266 337.6735 0003914 161.5230 198.6149 15.22165886 37007 | 2025/09/15-11:17:49  186.3212    0.1236  198.6006   94.6020     6877.4459     6874.7541     6880.1378  90.122929 -37.010810  -0.000296   0.000256
1 62642U 25009AK  25260.17988010  .00009490  00000-0  41596-3 0  9995 | 2 62642  97.4266 339.3615 0004029 157.0802 203.0615 15.22201757 37261 | 2025/09/17-04:19:01   81.6135    0.1236  203.0434   94.5998     6877.3379     6874.5670     6880.1088  91.174044 -34.340008  -0.000292   0.000278
1 62642U 25009AK  25261.88900601  .00009914  00000-0  43389-3 0  9997 | 2 62642  97.4274 341.0491 0004067 151.2923 208.8538 15.22237274 37523 | 2025/09/18-21:20:10  336.8914    0.1236  208.8313   94.5976     6877.2309     6874.4339     6880.0279  92.146565 -31.640305  -0.000274   0.000301
1 62642U 25009AK  25263.72955964  .00011121  00000-0  48574-3 0  9998 | 2 62642  97.4274 342.8679 0004266 147.6325 212.5174 15.22275930 37806 | 2025/09/20-17:30:33  279.4822    0.1236  212.4911   94.5952     6877.1145     6874.1807     6880.0483  93.104364 -28.699751  -0.000277   0.000324
1 62642U 25009AK  25265.17567436  .00014879  00000-0  64780-3 0  9992 | 2 62642  97.4271 344.2965 0004284 144.5024 215.6498 15.22313451 38028 | 2025/09/22-04:12:58   80.0780    0.1236  215.6212   94.5929     6877.0015     6874.0554     6879.9476  93.790654 -26.369546  -0.000268   0.000334
1 62642U 25009AK  25266.68747078  .00020086  00000-0  87128-3 0  9999 | 2 62642  97.4267 345.7900 0004368 140.1158 220.0400 15.22374336 38258 | 2025/09/23-16:29:57  264.3177    0.1236  220.0078   94.5891     6876.8181     6873.8143     6879.8219  94.445689 -23.915973  -0.000256   0.000354
1 62642U 25009AK  25268.13348241  .00018323  00000-0  79400-3 0  9995 | 2 62642  97.4260 347.2181 0004361 136.4577 223.7005 15.22427960 38472 | 2025/09/25-03:12:12   64.8767    0.1237  223.6660   94.5858     6876.6566     6873.6577     6879.6556  95.011715 -21.554570  -0.000242   0.000363
1 62642U 25009AK  25269.71089414  .00017109  00000-0  74056-3 0  9997 | 2 62642  97.4255 348.7762 0004356 131.9417 228.2191 15.22481619 38718 | 2025/09/26-17:03:41  272.7389    0.1236  228.1819   94.5824     6876.4951     6873.4997     6879.4905  95.562178 -18.963076  -0.000223   0.000374
1 62642U 25009AK  25271.15680656  .00017726  00000-0  76597-3 0  9990 | 2 62642  97.4253 350.2043 0004448 128.9335 231.2299 15.22530694 38938 | 2025/09/28-03:45:48   73.2619    0.1237  231.1902   94.5794     6876.3473     6873.2887     6879.4059  96.004904 -16.575506  -0.000217   0.000389
1 62642U 25009AK  25272.20834875  .00018770  00000-0  80987-3 0  9999 | 2 62642  97.4253 351.2428 0004521 126.6430 233.5223 15.22570046 39094 | 2025/09/29-05:00:01   91.8131    0.1237  233.4807   94.5769     6876.2288     6873.1201     6879.3376  96.289553 -14.832767  -0.000211   0.000400
1 62642U 25009AK  25273.98274286  .00021370  00000-0  91872-3 0  9994 | 2 62642  97.4253 352.9965 0004443 121.6123 238.5547 15.22665645 39369 | 2025/09/30-23:35:08   10.5885    0.1236  238.5113   94.5710     6875.9410     6872.8860     6878.9960  96.698381 -11.879064  -0.000185   0.000404
1 62642U 25009AK  25275.16560962  .00023857  00000-0  10230-2 0  9995 | 2 62642  97.4259 354.1656 0004445 118.6570 241.5114 15.22730450 39541 | 2025/10/02-03:58:28   76.4159    0.1236  241.4666   94.5670     6875.7459     6872.6896     6878.8022  96.921220  -9.903693  -0.000172   0.000410
1 62642U 25009AK  25276.21700963  .00024507  00000-0  10491-2 0  9991 | 2 62642  97.4259 355.2047 0004499 116.1520 244.0179 15.22781000 39708 | 2025/10/03-05:12:29   94.9157    0.1236  243.9716   94.5638     6875.5938     6872.5004     6878.6871  97.084882  -8.144425  -0.000164   0.000419
1 62642U 25009AK  25279.96241010  .00013924  00000-0  59620-3 0  9998 | 2 62642  97.4260 358.9070 0004508 107.7281 252.4448 15.22896073 40270 | 2025/10/06-23:05:52    3.2462    0.1237  252.3956   94.5567     6875.2474     6872.1480     6878.3468  97.408273  -1.858429  -0.000129   0.000432
1 62642U 25009AK  25281.21081629  .00015250  00000-0  65181-3 0  9990 | 2 62642  97.4256   0.1412 0004549 104.5033 255.6709 15.22935390 40468 | 2025/10/08-05:03:34   92.6674    0.1237  255.6204   94.5542     6875.1291     6872.0016     6878.2566  97.425304   0.240096  -0.000115   0.000440
1 62642U 25009AK  25283.18192056  .00012704  00000-0  54282-3 0  9996 | 2 62642  97.4249   2.0900 0004437  99.9331 260.2407 15.22990136 40766 | 2025/10/10-04:21:57   82.2593    0.1237  260.1906   94.5508     6874.9643     6871.9139     6878.0147  97.360090   3.553017  -0.000092   0.000434
1 62642U 25009AK  25284.49595314  .00015463  00000-0  65907-3 0  9996 | 2 62642  97.4244   3.3886 0004475  96.8625 263.3121 15.23027223 40960 | 2025/10/11-11:54:10  195.3068    0.1237  263.2612   94.5485     6874.8527     6871.7762     6877.9292  97.254064   5.758538  -0.000080   0.000440
1 62642U 25009AK  25285.94134887  .00016776  00000-0  71369-3 0  9998 | 2 62642  97.4242   4.8170 0004469  93.6834 266.4914 15.23074412 41181 | 2025/10/12-22:35:32  355.6454    0.1237  266.4403   94.5456     6874.7107     6871.6384     6877.7830  97.080097   8.181052  -0.000066   0.000442
1 62642U 25009AK  25287.18960713  .00014641  00000-0  62268-3 0  9998 | 2 62642  97.4239   6.0506 0004464  90.6690 269.5058 15.23115071 41377 | 2025/10/14-04:33:02   85.0151    0.1236  269.4546   94.5431     6874.5883     6871.5195     6877.6572  96.881170  10.269134  -0.000052   0.000443
1 62642U 25009AK  25288.50353285  .00014568  00000-0  61895-3 0  9998 | 2 62642  97.4244   7.3497 0004351  87.0628 273.1107 15.23149859 41571 | 2025/10/15-12:05:05  198.0256    0.1237  273.0609   94.5409     6874.4837     6871.4926     6877.4748  96.623947  12.463012  -0.000033   0.000434
1 62642U 25009AK  25290.14589802  .00014869  00000-0  63083-3 0  9992 | 2 62642  97.4247   8.9737 0004309  83.1607 277.0120 15.23193922 41821 | 2025/10/17-03:30:05   69.2727    0.1237  276.9630   94.5382     6874.3511     6871.3889     6877.3133  96.232226  15.196410  -0.000016   0.000431
1 62642U 25009AK  25291.26268002  .00014631  00000-0  62030-3 0  9990 | 2 62642  97.4247  10.0781 0004272  80.2887 279.8832 15.23222746 41996 | 2025/10/18-06:18:15  111.3113    0.1237  279.8350   94.5364     6874.2644     6871.3277     6877.2011  95.921450  17.048388  -0.000003   0.000427
1 62642U 25009AK  25292.90493829  .00022718  00000-0  95800-3 0  9995 | 2 62642  97.4248  11.7024 0004173  75.9734 284.1966 15.23309981 42240 | 2025/10/19-21:43:06  342.5206    0.1236  284.1502   94.5310     6874.0019     6871.1334     6876.8704  95.399759  19.760508   0.000017   0.000417
1 62642U 25009AK  25294.15300333  .00017067  00000-0  72004-3 0  9993 | 2 62642  97.4247  12.9366 0004154  72.7531 287.4160 15.23353396 42432 | 2025/10/21-03:40:19   71.8209    0.1237  287.3706   94.5283     6873.8713     6871.0159     6876.7267  94.951904  21.810734   0.000031   0.000414
1 62642U 25009AK  25295.20398128  .00013042  00000-0  55081-3 0  9994 | 2 62642  97.4243  13.9764 0004104  70.2564 289.9115 15.23380812 42592 | 2025/10/22-04:53:43   90.1702    0.1237  289.8673   94.5266     6873.7888     6870.9678     6876.6099  94.540082  23.530132   0.000041   0.000408
1 62642U 25009AK  25297.17450921  .00015905  00000-0  66960-3 0  9990 | 2 62642  97.4238  15.9255 0003966  64.8269 295.3379 15.23441034 42899 | 2025/10/24-04:11:17   79.5565    0.1237  295.2968   94.5229     6873.6077     6870.8816     6876.3338  93.684605  26.731846   0.000064   0.000391
1 62642U 25009AK  25298.22542438  .00015920  00000-0  66957-3 0  9995 | 2 62642  97.4235  16.9648 0003914  61.9489 298.2143 15.23474986 43050 | 2025/10/25-05:24:36   97.8841    0.1237  298.1748   94.5208     6873.5056     6870.8153     6876.1959  93.184038  28.426632   0.000075   0.000384
1 62642U 25009AK  25299.80175827  .00012597  00000-0  53005-3 0  9991 | 2 62642  97.4227  18.5237 0003805  57.8881 302.2725 15.23515643 43296 | 2025/10/26-19:14:31  305.3617    0.1237  302.2356   94.5182     6873.3833     6870.7680     6875.9986  92.375456  30.950889   0.000089   0.000370
1 62642U 25009AK  25301.11533885  .00013533  00000-0  56857-3 0  9990 | 2 62642  97.4225  19.8228 0003664  53.4586 306.6988 15.23548679 43491 | 2025/10/28-02:46:05   58.2496    0.1237  306.6651   94.5162     6873.2839     6870.7656     6875.8023  91.649817  33.037168   0.000105   0.000351
1 62642U 25009AK  25302.16618049  .00016275  00000-0  68226-3 0  9991 | 2 62642  97.4227  20.8624 0003684  51.0319 309.1246 15.23582248 43658 | 2025/10/29-03:59:17   76.5496    0.1237  309.0918   94.5141     6873.1830     6870.6509     6875.7151  91.035510  34.694645   0.000114   0.000350
1 62642U 25009AK  25303.21699890  .00016462  00000-0  68938-3 0  9999 | 2 62642  97.4230  21.9016 0003613  49.1699 310.9851 15.23616256 43817 | 2025/10/30-05:12:28   94.8423    0.1237  310.9538   94.5120     6873.0807     6870.5975     6875.5639  90.391577  36.340113   0.000117   0.000342
1 62642U 25009AK  25305.18721610  .00014233  00000-0  59546-3 0  9992 | 2 62642  97.4232  23.8508 0003450  42.8918 317.2588 15.23680988 44113 | 2025/11/01-04:29:35   84.1176    0.1238  317.2320   94.5080     6872.8860     6870.5149     6875.2572  89.103406  39.393691   0.000136   0.000317
1 62642U 25009AK  25307.94539901  .00013707  00000-0  57236-3 0  9997 | 2 62642  97.4237  26.5803 0003224  35.8855 324.2598 15.23755581 44534 | 2025/11/03-22:41:22  357.0578    0.1237  324.2382   94.5033     6872.6617     6870.4460     6874.8775  87.126808  43.592393   0.000149   0.000286
1 62642U 25009AK  25309.19310281  .00012095  00000-0  50500-3 0  9990 | 2 62642  97.4236  27.8152 0003105  31.9059 328.2366 15.23788452 44726 | 2025/11/05-04:38:04   86.2289    0.1238  328.2179   94.5013     6872.5629     6870.4290     6874.6968  86.167006  45.459926   0.000157   0.000268
1 62642U 25009AK  25310.50644682  .00016773  00000-0  69796-3 0  9996 | 2 62642  97.4233  29.1149 0002990  26.5863 333.5527 15.23828015 44928 | 2025/11/06-12:09:17  199.0310    0.1237  333.5374   94.4989     6872.4439     6870.3891     6874.4988  85.113449  47.402533   0.000168   0.000247
1 62642U 25009AK  25312.21373090  .00016201  00000-0  67303-3 0  9996 | 2 62642  97.4227  30.8042 0002865  21.9599 338.1761 15.23892329 45187 | 2025/11/08-05:07:46   93.6498    0.1238  338.1639   94.4949     6872.2506     6870.2817     6874.2195  83.678535  49.890733   0.000173   0.000228
1 62642U 25009AK  25314.18359304  .00013970  00000-0  57987-3 0  9993 | 2 62642  97.4217  32.7531 0002693  14.5305 345.6009 15.23953697 45489 | 2025/11/10-04:24:22   82.7975    0.1237  345.5932   94.4911     6872.0661     6870.2154     6873.9167  81.932599  52.707086   0.000183   0.000198
1 62642U 25009AK  25316.21902865  .00028974  00000-0  11940-2 0  9993 | 2 62642  97.4219  34.7674 0002564   7.8508 352.2769 15.24042768 45798 | 2025/11/12-05:15:24   95.5499    0.1238  352.2730   94.4855     6871.7983     6870.0364     6873.5603  80.029538  55.554474   0.000189   0.000174
1 62642U 25009AK  25317.46647861  .00024164  00000-0  99465-3 0  9999 | 2 62642  97.4221  36.0020 0002382   2.8167 357.3083 15.24119035 45983 | 2025/11/13-11:11:43  184.6295    0.1237  357.3070   94.4808     6871.5691     6869.9323     6873.2059  78.814136  57.266025   0.000186   0.000149
1 62642U 25009AK  25320.22384385  .00018072  00000-0  74306-3 0  9994 | 2 62642  97.4229  38.7324 0002251 351.1763   8.9434 15.24217249 46407 | 2025/11/16-05:22:20   97.2737    0.1237    8.9474   94.4747     6871.2739     6869.7272     6872.8206  75.997336  60.955938   0.000195   0.000112
1 62642U 25009AK  25321.47116648  .00017403  00000-0  71480-3 0  9994 | 2 62642  97.4227  39.9674 0002185 345.9862  14.1315 15.24261092 46595 | 2025/11/17-11:18:28  186.3063    0.1238   14.1376   94.4720     6871.1421     6869.6408     6872.6435  74.665736  62.579631   0.000196   0.000096
1 62642U 25009AK  25323.17797948  .00012070  00000-0  49634-3 0  9992 | 2 62642  97.4227  41.6577 0002108 335.9800  24.1339 15.24304627 46851 | 2025/11/19-04:16:17   80.7548    0.1238   24.1438   94.4693     6871.0113     6869.5629     6872.4597  72.787334  64.754818   0.000201   0.000064
1 62642U 25009AK  25324.49087970  .00011759  00000-0  48319-3 0  9997 | 2 62642  97.4224  42.9579 0001988 331.0522  29.0605 15.24337129 47053 | 2025/11/20-11:46:52  193.3939    0.1238   29.0716   94.4673     6870.9136     6869.5477     6872.2796  71.299034  66.389546   0.000193   0.000048
1 62642U 25009AK  25326.19760492  .00014069  00000-0  57651-3 0  9999 | 2 62642  97.4218  44.6480 0001816 323.2409  36.8703 15.24387519 47315 | 2025/11/22-04:44:33   87.8086    0.1237   36.8828   94.4642     6870.7622     6869.5145     6872.0099  69.309528  68.463103   0.000180   0.000025
1 62642U 25009AK  25328.16684124  .00013105  00000-0  53650-3 0  9990 | 2 62642  97.4210  46.5979 0001687 312.0345  48.0749 15.24435804 47611 | 2025/11/24-04:00:15   76.7266    0.1238   48.0893   94.4612     6870.6171     6869.4581     6871.7762  66.939347  70.781178   0.000169  -0.000004
1 62642U 25009AK  25329.87345953  .00013124  00000-0  53656-3 0  9990 | 2 62642  97.4206  48.2872 0001674 300.8210  59.2862 15.24481008 47874 | 2025/11/25-20:57:46  331.1042    0.1237   59.3027   94.4584     6870.4813     6869.3312     6871.6314  64.823388  72.723460   0.000164  -0.000032
1 62642U 25009AK  25331.18620702  .00012940  00000-0  52855-3 0  9990 | 2 62642  97.4203  49.5872 0001711 291.9022  68.2034 15.24516584 48070 | 2025/11/27-04:28:08   83.6888    0.1238   68.2216   94.4562     6870.3744     6869.1989     6871.5499  63.156608  74.175183   0.000162  -0.000054
1 62642U 25009AK  25332.49892529  .00013616  00000-0  55539-3 0  9996 | 2 62642  97.4206  50.8875 0001606 283.6581  76.4478 15.24551473 48273 | 2025/11/28-11:58:27  196.2606    0.1238   76.4657   94.4540     6870.2696     6869.1662     6871.3730  61.457308  75.589500   0.000145  -0.000069
1 62642U 25009AK  25334.46794412  .00013113  00000-0  53416-3 0  9991 | 2 62642  97.4210  52.8381 0001654 271.2933  88.8115 15.24605044 48571 | 2025/11/30-11:13:50  185.0987    0.1237   88.8304   94.4507     6870.1087     6868.9724     6871.2450  58.849036  77.637891   0.000134  -0.000097
1 62642U 25009AK  25336.17437149  .00014381  00000-0  58459-3 0  9992 | 2 62642  97.4213  54.5286 0001738 261.3676  98.7365 15.24653125 48833 | 2025/12/02-04:11:05   79.4046    0.1238   98.7562   94.4477     6869.9642     6868.7702     6871.1582  56.533240  79.340421   0.000125  -0.000121
1 62642U 25009AK  25337.22445238  .00015868  00000-0  64396-3 0  9995 | 2 62642  97.4216  55.5689 0001690 253.8936 106.2115 15.24687051 48996 | 2025/12/03-05:23:12   97.4275    0.1237  106.2301   94.4456     6869.8623     6868.7013     6871.0233  55.083613  80.353990   0.000107  -0.000130
1 62642U 25009AK  25338.47138815  .00025848  00000-0  10440-2 0  9992 | 2 62642  97.4213  56.8045 0001708 246.4707 113.6351 15.24745314 49180 | 2025/12/04-11:18:47  186.3171    0.1237  113.6530   94.4420     6869.6873     6868.5140     6870.8607  53.337918  81.522857   0.000094  -0.000143
1 62642U 25009AK  25339.78390486  .00017886  00000-0  72306-3 0  9994 | 2 62642  97.4208  58.1050 0001844 241.7911 118.3140 15.24791321 49380 | 2025/12/05-18:48:49  298.8170    0.1237  118.3326   94.4392     6869.5491     6868.2824     6870.8159  51.473668  82.711993   0.000092  -0.000160
1 62642U 25009AK  25340.83389284  .00015039  00000-0  60812-3 0  9993 | 2 62642  97.4204  59.1451 0001866 235.8748 124.2313 15.24820937 49540 | 2025/12/06-20:00:48  316.8065    0.1238  124.2490   94.4373     6869.4602     6868.1783     6870.7420  49.963579  83.632381   0.000079  -0.000169
1 62642U 25009AK  25341.94947986  .00013845  00000-0  55957-3 0  9992 | 2 62642  97.4200  60.2502 0001894 229.7199 130.3874 15.24855186 49712 | 2025/12/07-22:47:15  358.4111    0.1238  130.4039   94.4352     6869.3573     6868.0563     6870.6584  48.341117  84.580097   0.000065  -0.000178
1 62642U 25009AK  25343.19628523  .00011865  00000-0  47962-3 0  9991 | 2 62642  97.4194  61.4853 0001992 224.9748 135.1328 15.24887624 49902 | 2025/12/09-04:42:39   87.2545    0.1237  135.1489   94.4332     6869.2599     6867.8915     6870.6283  46.506484  85.601907   0.000056  -0.000191
1 62642U 25009AK  25345.16486428  .00017119  00000-0  68886-3 0  9992 | 2 62642  97.4193  63.4358 0002180 217.1263 142.9824 15.24954533 50205 | 2025/12/11-03:57:24   75.9317    0.1237  142.9974   94.4290     6869.0590     6867.5615     6870.5564  43.565941  87.135118   0.000040  -0.000214
1 62642U 25009AK  25346.21473116  .00017812  00000-0  71562-3 0  9994 | 2 62642  97.4195  64.4761 0002211 210.1259 149.9852 15.24999581 50366 | 2025/12/12-05:09:12   93.8759    0.1238  149.9979   94.4263     6868.9237     6867.4050     6870.4424  41.976850  87.911905   0.000018  -0.000220
1 62642U 25009AK  25347.65825620  .00014193  00000-0  57027-3 0  9993 | 2 62642  97.4195  65.9067 0002335 205.2165 154.8960 15.25047051 50585 | 2025/12/13-15:47:53  253.5357    0.1238  154.9073   94.4233     6868.7812     6867.1773     6870.3850  39.768950  88.932500   0.000005  -0.000233
1 62642U 25009AK  25348.77368034  .00010413  00000-0  41903-3 0  9995 | 2 62642  97.4199  67.0122 0002454 202.4749 157.6381 15.25073586 50752 | 2025/12/14-18:34:05  295.0818    0.1237  157.6488   94.4217     6868.7015     6867.0159     6870.3871  38.045892  89.683594  -0.000002  -0.000245
1 62642U 25009AK  25350.21714843  .00008352  00000-0  33649-3 0  9997 | 2 62642  97.4201  68.4429 0002580 194.5790 165.5374 15.25098686 50970 | 2025/12/16-05:12:41   94.7190    0.1238  165.5448   94.4201     6868.6261     6866.8540     6870.3982  35.794900  90.605745  -0.000031  -0.000256
1 62642U 25009AK  25351.52936921  .00009328  00000-0  37511-3 0  9991 | 2 62642  97.4201  69.7437 0002673 190.0001 170.1184 15.25124860 51170 | 2025/12/17-12:42:17  207.1089    0.1238  170.1237   94.4185     6868.5475     6866.7116     6870.3835  33.728808  91.394986  -0.000048  -0.000263
1 62642U 25009AK  25353.16961808  .00009132  00000-0  36698-3 0  9993 | 2 62642  97.4197  71.3695 0002795 184.4301 175.6913 15.25153207 51429 | 2025/12/19-04:04:15   77.5865    0.1238  175.6937   94.4167     6868.4624     6866.5427     6870.3822  31.122066  92.314760  -0.000069  -0.000271
1 62642U 25009AK  25354.94105325  .00006501  00000-0  26198-3 0  9995 | 2 62642  97.4193  73.1252 0002954 178.7285 181.3961 15.25178366 51697 | 2025/12/20-22:35:07  355.2903    0.1238  181.3953   94.4152     6868.3869     6866.3580     6870.4158  28.279005  93.224556  -0.000092  -0.000281
1 62642U 25009AK  25356.18759956  .00011501  00000-0  46061-3 0  9995 | 2 62642  97.4186  74.3608 0003066 174.4079 185.7194 15.25205807 51884 | 2025/12/22-04:30:08   84.0373    0.1238  185.7159   94.4135     6868.3045     6866.1987     6870.4103  26.261982  93.812003  -0.000111  -0.000286
1 62642U 25009AK  25357.69654079  .00011819  00000-0  47267-3 0  9993 | 2 62642  97.4180  75.8563 0003211 169.7096 190.4208 15.25244947 52116 | 2025/12/23-16:43:01  267.2449    0.1237  190.4141   94.4111     6868.1870     6865.9816     6870.3924  23.804543  94.464864  -0.000133  -0.000292
1 62642U 25009AK  25358.74621838  .00011285  00000-0  45115-3 0  9994 | 2 62642  97.4171  76.8965 0003199 166.4626 193.6699 15.25269705 52276 | 2025/12/24-17:54:33  285.1211    0.1238  193.6612   94.4095     6868.1127     6865.9156     6870.3098  22.085509  94.880565  -0.000143  -0.000286
1 62642U 25009AK  25360.18949936  .00009258  00000-0  37040-3 0  9992 | 2 62642  97.4172  78.3268 0003318 162.8720 197.2630 15.25297852 52491 | 2025/12/26-04:32:52   84.6920    0.1237  197.2517   94.4078     6868.0282     6865.7494     6870.3070  19.710348  95.402374  -0.000160  -0.000291
1 62642U 25009AK  25361.96075714  .00011870  00000-0  47335-3 0  9994 | 2 62642  97.4177  80.0828 0003482 157.7652 202.3738 15.25340854 52765 | 2025/12/27-23:03:29    2.3307    0.1238  202.3586   94.4051     6867.8991     6865.5077     6870.2905  16.777746  95.962053  -0.000185  -0.000295
1 62642U 25009AK  25363.20716706  .00013632  00000-0  54248-3 0  9995 | 2 62642  97.4179  81.3187 0003577 153.3679 206.7743 15.25375167 52955 | 2025/12/29-04:58:19   91.0277    0.1237  206.7558   94.4030     6867.7961     6865.3395     6870.2527  14.704082  96.301803  -0.000207  -0.000292
1 62642U 25009AK  25364.51914416  .00015707  00000-0  62370-3 0  9998 | 2 62642  97.4181  82.6194 0003578 150.6013 209.5427 15.25416613 53158 | 2025/12/30-12:27:34  203.3301    0.1238  209.5225   94.4004     6867.6717     6865.2145     6870.1290  12.514311  96.610963  -0.000214  -0.000287
1 62642U 25009AK  25365.76548529  .00016787  00000-0  66536-3 0  9991 | 2 62642  97.4181  83.8553 0003582 147.4869 212.6590 15.25462739 53345 | 2025/12/31-18:22:17  292.0035    0.1238  212.6369   94.3976     6867.5333     6865.0733     6869.9932  10.427612  96.858408  -0.000224  -0.000280
1 62642U 25009AK  26002.20857387  .00016824  00000-0  66583-3 0  9998 | 2 62642  97.4179  85.2869 0003692 143.2268 216.9224 15.25512161 53567 | 2026/01/02-05:00:20   91.5029    0.1238  216.8970   94.3945     6867.3849     6864.8495     6869.9204   8.004476  97.088494  -0.000245  -0.000277
1 62642U 25009AK  26003.45484178  .00018023  00000-0  71209-3 0  9994 | 2 62642  97.4176  86.5227 0003688 140.3869 219.7639 15.25553734 53759 | 2026/01/03-10:54:58  180.1503    0.1238  219.7369   94.3920     6867.2602     6864.7275     6869.7928   5.908678  97.238245  -0.000252  -0.000269
1 62642U 25009AK  26004.76666966  .00011903  00000-0  47115-3 0  9995 | 2 62642  97.4170  87.8226 0003775 136.7148 223.4387 15.25585935 53954 | 2026/01/04-18:24:00  292.3988    0.1238  223.4090   94.3900     6867.1635     6864.5712     6869.7559   3.701228  97.346663  -0.000269  -0.000265
1 62642U 25009AK  26006.20964620  .00011142  00000-0  44076-3 0  9992 | 2 62642  97.4160  89.2528 0003919 132.5166 227.6404 15.25623281 54176 | 2026/01/06-05:01:53   91.8589    0.1238  227.6072   94.3877     6867.0515     6864.3603     6869.7427   1.270376  97.407716  -0.000292  -0.000261
1 62642U 25009AK  26007.71818082  .00008577  00000-0  33979-3 0  9997 | 2 62642  97.4158  90.7484 0003873 129.1395 231.0188 15.25651288 54408 | 2026/01/07-17:14:10  274.9213    0.1238  230.9843   94.3859     6866.9674     6864.3079     6869.6270  -1.272413  97.407490  -0.000297  -0.000248
1 62642U 25009AK  26009.16109973  .00009254  00000-0  36600-3 0  9997 | 2 62642  97.4158  92.1789 0003955 125.7523 234.4084 15.25681112 54623 | 2026/01/09-03:51:59   74.3614    0.1239  234.3716   94.3841     6866.8779     6864.1621     6869.5938  -3.703731  97.345367  -0.000312  -0.000243
1 62642U 25009AK  26010.66957555  .00008823  00000-0  34880-3 0  9990 | 2 62642  97.4159  93.6752 0004021 121.7131 238.4500 15.25710917 54854 | 2026/01/10-16:04:11  257.4009    0.1238  238.4107   94.3822     6866.7885     6864.0274     6869.5497  -6.244395  97.215560  -0.000328  -0.000233
1 62642U 25009AK  26011.71893288  .00009831  00000-0  38804-3 0  9999 | 2 62642  97.4157  94.7160 0004035 119.5153 240.6488 15.25732527 55011 | 2026/01/11-17:15:15  275.1620    0.1238  240.6085   94.3809     6866.7237     6863.9530     6869.4944  -8.009209  97.085896  -0.000334  -0.000227
1 62642U 25009AK  26012.76827497  .00009019  00000-0  35601-3 0  9994 | 2 62642  97.4158  95.7568 0004082 117.2394 242.9261 15.25753918 55177 | 2026/01/12-18:26:18  292.9172    0.1239  242.8845   94.3796     6866.6595     6863.8565     6869.4625  -9.771403  96.924495  -0.000342  -0.000222
1 62642U 25009AK  26014.14552127  .00005456  00000-0  21649-3 0  9991 | 2 62642  97.4155  97.1225 0004093 113.7978 246.3689 15.25768996 55388 | 2026/01/14-03:29:33   68.7165    0.1237  246.3259   94.3786     6866.6143     6863.8038     6869.4248 -12.078660  96.663776  -0.000351  -0.000210
1 62642U 25009AK  26015.19484307  .00004919  00000-0  19539-3 0  9999 | 2 62642  97.4156  98.1631 0004134 111.3975 248.7704 15.25779328 55541 | 2026/01/15-04:40:34   86.4648    0.1238  248.7263   94.3780     6866.5833     6863.7446     6869.4219 -13.832183  96.428574  -0.000360  -0.000204
1 62642U 25009AK  26016.96555088  .00009347  00000-0  36820-3 0  9992 | 2 62642  97.4157  99.9190 0004154 107.4905 252.6788 15.25810548 55818 | 2026/01/16-23:10:23    3.9076    0.1239  252.6334   94.3761     6866.4896     6863.6373     6869.3419 -16.780416  95.959555  -0.000369  -0.000191
1 62642U 25009AK  26018.14600169  .00009628  00000-0  37895-3 0  9990 | 2 62642  97.4154 101.0898 0004147 104.6758 255.4940 15.25832479 55999 | 2026/01/18-03:30:14   68.8621    0.1238  255.4480   94.3747     6866.4238     6863.5763     6869.2713 -18.737586  95.596355  -0.000373  -0.000180
1 62642U 25009AK  26019.19527742  .00009474  00000-0  37272-3 0  9999 | 2 62642  97.4150 102.1305 0004160 102.1628 258.0077 15.25851460 56154 | 2026/01/19-04:41:11   86.5942    0.1239  257.9611   94.3735     6866.3669     6863.5104     6869.2233 -20.470694  95.239870  -0.000379  -0.000171
1 62642U 25009AK  26020.63799488  .00024403  00000-0  95187-3 0  9996 | 2 62642  97.4146 103.5611 0004177  98.7717 261.3994 15.25916475 56378 | 2026/01/20-15:18:42  245.9633    0.1238  261.3521   94.3695     6866.1718     6863.3038     6869.0398 -22.841986  94.698722  -0.000386  -0.000159
1 62642U 25009AK  26022.21178180  .00012956  00000-0  50638-3 0  9994 | 2 62642  97.4143 105.1215 0004107  94.3559 265.8149 15.25988095 56617 | 2026/01/22-05:04:57   92.5177    0.1239  265.7680   94.3651     6865.9570     6863.1371     6868.7768 -25.412155  94.041311  -0.000387  -0.000137
1 62642U 25009AK  26023.45766678  .00014426  00000-0  56288-3 0  9997 | 2 62642  97.4135 106.3574 0004080  91.7424 268.4281 15.26017515 56809 | 2026/01/23-10:59:02  181.0286    0.1238  268.3814   94.3633     6865.8687     6863.0675     6868.6700 -27.434381  93.470555  -0.000388  -0.000127
1 62642U 25009AK  26025.16251175  .00017183  00000-0  66855-3 0  9992 | 2 62642  97.4133 108.0486 0004053  86.9116 273.2586 15.26075488 57066 | 2026/01/25-03:54:01   74.7623    0.1238  273.2122   94.3597     6865.6948     6862.9122     6868.4775 -30.180939  92.619987  -0.000392  -0.000105
1 62642U 25009AK  26026.21161409  .00015284  00000-0  59452-3 0  9994 | 2 62642  97.4132 109.0891 0004029  84.6368 275.5330 15.26109441 57220 | 2026/01/26-05:04:43   92.4331    0.1238  275.4870   94.3576     6865.5930     6862.8269     6868.3592 -31.857830  92.056560  -0.000391  -0.000096
1 62642U 25009AK  26027.85079108  .00014534  00000-0  56467-3 0  9999 | 2 62642  97.4133 110.7153 0003961  80.5467 279.6219 15.26160004 57470 | 2026/01/27-20:25:08  322.5275    0.1238  279.5771   94.3545     6865.4414     6862.7220     6868.1608 -34.457483  91.115492  -0.000388  -0.000077
1 62642U 25009AK  26030.21110543  .00016659  00000-0  64507-3 0  9996 | 2 62642  97.4137 113.0571 0003848  74.7282 285.4382 15.26242381 57833 | 2026/01/30-05:03:59   92.2275    0.1239  285.3957   94.3494     6865.1943     6862.5526     6867.8361 -38.151909  89.631807  -0.000381  -0.000052
1 62642U 25009AK  26031.78458489  .00010995  00000-0  42653-3 0  9998 | 2 62642  97.4132 114.6181 0003747  70.6749 289.4894 15.26279765 58078 | 2026/01/31-18:49:48  298.6721    0.1238  289.4489   94.3471     6865.0822     6862.5099     6867.6546 -40.579222  88.558784  -0.000373  -0.000035
1 62642U 25009AK  26033.22690657  .00012165  00000-0  47102-3 0  9999 | 2 62642  97.4129 116.0488 0003742  67.3619 292.8015 15.26316978 58299 | 2026/02/02-05:26:44   97.8997    0.1239  292.7620   94.3448     6864.9706     6862.4018     6867.5395 -42.777561  87.517732  -0.000374  -0.000022
1 62642U 25009AK  26034.47251943  .00011742  00000-0  45435-3 0  9995 | 2 62642  97.4124 117.2845 0003666  65.5740 294.5881 15.26348303 58482 | 2026/02/03-11:20:25  186.3137    0.1239  294.5499   94.3428     6864.8767     6862.3601     6867.3934 -44.654735  86.574421  -0.000366  -0.000018
1 62642U 25009AK  26036.17700165  .00014462  00000-0  55798-3 0  9994 | 2 62642  97.4112 118.9751 0003528  61.2256 298.9337 15.26393767 58742 | 2026/02/05-04:14:52   79.9195    0.1239  298.8983   94.3400     6864.7404     6862.3185     6867.1623 -47.188857  85.218271  -0.000353  -0.000001
1 62642U 25009AK  26037.75032212  .00012261  00000-0  47302-3 0  9997 | 2 62642  97.4105 120.5364 0003472  56.3911 303.7658 15.26436681 58984 | 2026/02/06-18:00:27  286.3067    0.1238  303.7327   94.3374     6864.6117     6862.2283     6866.9951 -49.492878  83.900301  -0.000347   0.000019
1 62642U 25009AK  26039.19249752  .00011354  00000-0  43784-3 0  9998 | 2 62642  97.4106 121.9675 0003320  52.4350 307.7189 15.26470091 59203 | 2026/02/08-04:37:11   85.4832    0.1238  307.6888   94.3353     6864.5116     6862.2326     6866.7906 -51.572887  82.638141  -0.000330   0.000032
1 62642U 25009AK  26040.76574505  .00010899  00000-0  42001-3 0  9994 | 2 62642  97.4105 123.5285 0003166  49.4159 310.7355 15.26504547 59447 | 2026/02/09-18:22:40  291.8445    0.1239  310.7080   94.3332     6864.4083     6862.2350     6866.5816 -53.804856  81.202481  -0.000314   0.000039
1 62642U 25009AK  26041.81455686  .00009691  00000-0  37359-3 0  9997 | 2 62642  97.4106 124.5692 0003102  47.2850 312.8650 15.26526318 59604 | 2026/02/10-19:32:57  309.4112    0.1239  312.8389   94.3318     6864.3430     6862.2137     6866.4723 -55.270889  80.211931  -0.000307   0.000044
1 62642U 25009AK  26043.19109582  .00013704  00000-0  52627-3 0  9996 | 2 62642  97.4107 125.9352 0002991  43.1370 317.0103 15.26564848 59813 | 2026/02/12-04:35:10   84.9587    0.1239  316.9869   94.3294     6864.2275     6862.1744     6866.2806 -57.167408  78.871617  -0.000294   0.000057
1 62642U 25009AK  26045.22307896  .00011104  00000-0  42656-3 0  9993 | 2 62642  97.4111 127.9516 0002849  36.8542 323.2892 15.26605787 60122 | 2026/02/14-05:21:14   96.4630    0.1239  323.2697   94.3269     6864.1048     6862.1492     6866.0604 -59.907397  76.811628  -0.000275   0.000075
1 62642U 25009AK  26046.79618916  .00012093  00000-0  46380-3 0  9990 | 2 62642  97.4109 129.5127 0002789  31.5846 328.5560 15.26639337 60361 | 2026/02/15-19:06:30  302.7749    0.1239  328.5393   94.3248     6864.0042     6862.0899     6865.9186 -61.977611  75.150909  -0.000264   0.000090
1 62642U 25009AK  26048.17262691  .00013421  00000-0  51377-3 0  9997 | 2 62642  97.4107 130.8787 0002638  26.8650 333.2725 15.26675973 60574 | 2026/02/17-04:08:34   78.2862    0.1239  333.2589   94.3226     6863.8944     6862.0837     6865.7051 -63.751385  73.651921  -0.000244   0.000100
1 62642U 25009AK  26049.22132144  .00009917  00000-0  38028-3 0  9996 | 2 62642  97.4102 131.9194 0002511  24.6261 335.5097 15.26697138 60739 | 2026/02/18-05:18:42   95.8109    0.1239  335.4978   94.3213     6863.8310     6862.1075     6865.5545 -65.078248  72.481506  -0.000230   0.000100
1 62642U 25009AK  26050.46662693  .00010311  00000-0  39494-3 0  9999 | 2 62642  97.4094 133.1550 0002413  20.4094 339.7241 15.26723345 60926 | 2026/02/19-11:11:56  184.1150    0.1239  339.7145   94.3196     6863.7524     6862.0962     6865.4087 -66.625532  71.060746  -0.000216   0.000107
1 62642U 25009AK  26051.77745330  .00010271  00000-0  39311-3 0  9997 | 2 62642  97.4092 134.4556 0002311  15.5128 344.6181 15.26749558 61129 | 2026/02/20-18:39:31  296.0065    0.1239  344.6111   94.3180     6863.6739     6862.0877     6865.2601 -68.221151  69.530043  -0.000200   0.000116
1 62642U 25009AK  26053.67810754  .00013135  00000-0  50111-3 0  9994 | 2 62642  97.4082 136.3420 0002052  10.4348 349.6933 15.26795350 61412 | 2026/02/22-16:16:28  260.2318    0.1239  349.6891   94.3152     6863.5366     6862.1282     6864.9450 -70.472241  67.245971  -0.000172   0.000112
1 62642U 25009AK  26055.18547867  .00011249  00000-0  42915-3 0  9991 | 2 62642  97.4081 137.8379 0001869   4.5298 355.5958 15.26833731 61647 | 2026/02/24-04:27:05   82.8778    0.1240  355.5942   94.3128     6863.4216     6862.1388     6864.7044 -72.203634  65.383279  -0.000148   0.000114
1 62642U 25009AK  26057.21709583  .00012290  00000-0  46786-3 0  9999 | 2 62642  97.4083 139.8544 0001693 356.6304   3.4923 15.26884128 61950 | 2026/02/26-05:12:37   94.2488    0.1239    3.4935   94.3097     6863.2706     6862.1086     6864.4325 -74.459734  62.802268  -0.000123   0.000117
1 62642U 25009AK  26059.18307707  .00019577  00000-0  74079-3 0  9990 | 2 62642  97.4081 141.8055 0001656 345.3432  14.7759 15.26978204 62259 | 2026/02/28-04:23:37   81.9923    0.1239   14.7807   94.3039     6862.9887     6861.8522     6864.1252 -76.554609  60.230638  -0.000100   0.000132
1 62642U 25009AK  26060.23155135  .00025119  00000-0  94744-3 0  9994 | 2 62642  97.4083 142.8465 0001579 340.1062  20.0115 15.27034225 62414 | 2026/03/01-05:33:26   99.4369    0.1239   20.0177   94.3004     6862.8208     6861.7372     6863.9045 -77.636396  58.829983  -0.000086   0.000132
1 62642U 25009AK  26061.47656560  .00025757  00000-0  96942-3 0  9999 | 2 62642  97.4080 144.0821 0001446 332.4678  27.6484 15.27100751 62602 | 2026/03/02-11:26:15  187.6351    0.1239   27.6561   94.2963     6862.6215     6861.6292     6863.6139 -78.886688  57.142007  -0.000065   0.000129
1 62642U 25009AK  26062.72152707  .00030156  00000-0  11315-2 0  9991 | 2 62642  97.4076 145.3180 0001449 322.7729  37.3409 15.27168522 62796 | 2026/03/03-17:18:59  275.8148    0.1239   37.3510   94.2921     6862.4185     6861.4241     6863.4129 -80.100495  55.426991  -0.000045   0.000138
