# SPACE DATA - HISTORICAL TLEs
# ----------------------------
# NORAD_ID    : 58275
# OBJECT_NAME : FLOCK 4Q 12
# --------------------------------------------------------------------+-----------------------------------------------------------------------+----------------------------------------------------------------------------------------------------------------------------------------
#                  LINE 1                                             |                 LINE 2                                                |      DERIVED PARAMETERS
# --------------------------------------------------------------------+-----------------------------------------------------------------------+----------------------------------------------------------------------------------------------------------------------------------------
# NORAD  COSPAR     TLE_EPOCH      MEANMOT1 MEANMOT2   BSTAR  #  REV  |   NORAD    INC     RAAN     ECC    ARGPER  MEANANOM   MEANMOT     REV |  CAL_DATE              LONG     ARGLAT     PERIOD        SMA         PERIGEE        APOGEE      INC_X      INC_Y      ECC_X      ECC_Y
# ------ ------   -------------- ----------  -------  ------- -- ----     -----  ------- -------- ------- -------- -------- -----------  ----   ------------------- ---------  --------  --------  ------------  ------------   ----------- ---------- ----------  ---------  ---------   
1 62647U 25009AQ  25043.77962639  .00009924  00000-0  48815-3 0  9997 | 2 62647  97.4359 125.9875 0001471 236.0416 124.0679 15.18208758  4396 | 2025/02/12-18:42:39  297.6340    0.1235  124.0819   94.8486     6889.3912     6888.3778     6890.4046 -57.254186  78.839792   0.000147   0.000005
1 62647U 25009AQ  25044.90007444  .00010039  00000-0  49347-3 0  9997 | 2 62647  97.4356 127.0888 0001520 229.8117 130.2984 15.18229687  4564 | 2025/02/13-21:36:06  340.9978    0.1234  130.3117   94.8473     6889.3279     6888.2807     6890.3751 -58.758740  77.724556   0.000152  -0.000008
1 62647U 25009AQ  25046.74547700  .00010900  00000-0  53480-3 0  9995 | 2 62647  97.4350 128.9024 0001624 217.8071 142.3049 15.18272918  4843 | 2025/02/15-17:53:29  285.3461    0.1234  142.3163   94.8446     6889.1971     6888.0783     6890.3159 -61.188757  75.825558   0.000158  -0.000037
1 62647U 25009AQ  25047.79996847  .00010121  00000-0  49649-3 0  9998 | 2 62647  97.4344 129.9391 0001712 213.4846 146.6280 15.18297492  5001 | 2025/02/16-19:11:57  304.9651    0.1234  146.6388   94.8431     6889.1228     6887.9434     6890.3022 -62.550255  74.705608   0.000164  -0.000049
1 62647U 25009AQ  25050.10660904  .00012181  00000-0  59574-3 0  9995 | 2 62647  97.4339 132.2066 0001902 207.9824 152.1308 15.18354466  5352 | 2025/02/19-02:33:31   55.3611    0.1234  152.1410   94.8395     6888.9504     6887.6402     6890.2607 -65.456671  72.171941   0.000179  -0.000064
1 62647U 25009AQ  25051.75415366  .00010580  00000-0  51735-3 0  9999 | 2 62647  97.4340 133.8263 0002024 198.2503 161.8659 15.18396966  5607 | 2025/02/20-18:05:58  288.4784    0.1234  161.8731   94.8369     6888.8219     6887.4276     6890.2162 -67.470551  70.293023   0.000179  -0.000095
1 62647U 25009AQ  25053.20395752  .00010176  00000-0  49727-3 0  9996 | 2 62647  97.4339 135.2516 0002122 192.4691 167.6491 15.18430423  5824 | 2025/02/22-04:53:41   90.4095    0.1234  167.6543   94.8348     6888.7207     6887.2589     6890.1825 -69.198046  68.592968   0.000179  -0.000113
1 62647U 25009AQ  25054.39013605  .00012793  00000-0  62356-3 0  9991 | 2 62647  97.4338 136.4179 0002219 190.4940 169.6248 15.18461674  6008 | 2025/02/23-09:21:47  157.4360    0.1234  169.6294   94.8328     6888.6262     6887.0976     6890.1548 -70.579805  67.170206   0.000186  -0.000121
1 62647U 25009AQ  25055.44449689  .00014056  00000-0  68408-3 0  9991 | 2 62647  97.4338 137.4544 0002252 188.5438 171.5758 15.18490495  6160 | 2025/02/24-10:40:04  177.0078    0.1234  171.5796   94.8310     6888.5390     6886.9877     6890.0903 -71.783321  65.882472   0.000187  -0.000126
1 62647U 25009AQ  25056.49883556  .00015718  00000-0  76370-3 0  9995 | 2 62647  97.4339 138.4909 0002337 183.3775 176.7444 15.18524248  6329 | 2025/02/25-11:58:19  196.5701    0.1234  176.7459   94.8289     6888.4369     6886.8271     6890.0468 -72.963422  64.573245   0.000184  -0.000144
1 62647U 25009AQ  25057.55315218  .00014932  00000-0  72508-3 0  9994 | 2 62647  97.4339 139.5275 0002419 178.7919 181.3322 15.18555370  6480 | 2025/02/26-13:16:32  216.1245    0.1235  181.3316   94.8270     6888.3428     6886.6765     6890.0091 -74.119682  63.242689   0.000181  -0.000161
1 62647U 25009AQ  25058.87101684  .00015604  00000-0  75663-3 0  9992 | 2 62647  97.4334 140.8232 0002519 174.8898 185.2362 15.18596003  6684 | 2025/02/27-20:54:15  330.5571    0.1234  185.2336   94.8244     6888.2200     6886.4848     6889.9551 -75.530405  61.550185   0.000180  -0.000176
1 62647U 25009AQ  25060.18884621  .00015337  00000-0  74289-3 0  9994 | 2 62647  97.4327 142.1188 0002595 172.9756 187.1515 15.18636213  6888 | 2025/03/01-04:31:56   84.9779    0.1234  187.1478   94.8219     6888.0984     6886.3109     6889.8858 -76.902227  59.826236   0.000184  -0.000183
1 62647U 25009AQ  25061.77020306  .00009753  00000-0  47349-3 0  9994 | 2 62647  97.4320 143.6737 0002677 168.9780 191.1514 15.18669270  7121 | 2025/03/02-18:29:05  294.2679    0.1235  191.1455   94.8199     6887.9984     6886.1545     6889.8423 -78.496719  57.717066   0.000181  -0.000197
1 62647U 25009AQ  25063.21975185  .00009082  00000-0  44086-3 0  9999 | 2 62647  97.4318 145.0991 0002863 164.3113 195.8210 15.18695866  7341 | 2025/03/04-05:16:26   96.1059    0.1234  195.8121   94.8182     6887.9180     6885.9460     6889.8900 -79.907998  55.746458   0.000182  -0.000221
1 62647U 25009AQ  25064.47161382  .00010704  00000-0  51850-3 0  9994 | 2 62647  97.4315 146.3299 0002936 160.3495 199.7853 15.18722025  7538 | 2025/03/05-11:19:07  186.7768    0.1234  199.7739   94.8166     6887.8389     6885.8166     6889.8612 -81.086738  54.017017   0.000175  -0.000235
1 62647U 25009AQ  25065.72345773  .00008697  00000-0  42174-3 0  9998 | 2 62647  97.4312 147.5609 0003007 158.0937 202.0427 15.18741582  7723 | 2025/03/06-17:21:46  277.4419    0.1235  202.0298   94.8153     6887.7798     6885.7086     6889.8509 -82.228237  52.262374   0.000175  -0.000244
1 62647U 25009AQ  25066.77762798  .00009401  00000-0  45535-3 0  9992 | 2 62647  97.4312 148.5976 0003053 156.0150 204.1227 15.18760843  7886 | 2025/03/07-18:39:47  296.9442    0.1234  204.1084   94.8141     6887.7215     6885.6187     6889.8244 -83.160352  50.766077   0.000173  -0.000251
1 62647U 25009AQ  25068.16120432  .00011419  00000-0  55176-3 0  9994 | 2 62647  97.4313 149.9581 0003134 151.8602 208.2802 15.18791232  8093 | 2025/03/09-03:52:08   75.0322    0.1234  208.2632   94.8122     6887.6297     6885.4711     6889.7882 -84.342333  48.777342   0.000165  -0.000266
1 62647U 25009AQ  25069.21533556  .00011041  00000-0  53319-3 0  9994 | 2 62647  97.4317 150.9947 0003257 148.5564 211.5865 15.18818690  8253 | 2025/03/10-05:10:04   94.5193    0.1234  211.5670   94.8105     6887.5466     6885.3034     6889.7899 -85.211315  47.243708   0.000161  -0.000283
1 62647U 25009AQ  25070.66474055  .00009665  00000-0  46686-3 0  9991 | 2 62647  97.4313 152.4199 0003339 145.6292 214.5159 15.18847295  8478 | 2025/03/11-15:57:13  256.3063    0.1234  214.4942   94.8087     6887.4602     6885.1604     6889.7599 -86.359639  45.109543   0.000157  -0.000295
1 62647U 25009AQ  25071.78471452  .00012500  00000-0  60214-3 0  9998 | 2 62647  97.4313 153.5211 0003345 143.4642 216.6821 15.18875491  8644 | 2025/03/12-18:49:59  299.4985    0.1234  216.6592   94.8070     6887.3749     6885.0711     6889.6788 -87.210622  43.441519   0.000152  -0.000298
1 62647U 25009AQ  25073.49756388  .00016454  00000-0  78977-3 0  9999 | 2 62647  97.4310 155.2058 0003415 138.7865 221.3627 15.18936105  8907 | 2025/03/14-11:56:29  196.1249    0.1233  221.3368   94.8032     6887.1917     6884.8397     6889.5437 -88.449804  40.858682   0.000139  -0.000312
1 62647U 25009AQ  25074.81509986  .00014466  00000-0  69414-3 0  9993 | 2 62647  97.4307 156.5013 0003512 135.7048 224.4468 15.18974192  9104 | 2025/03/15-19:33:44  310.4386    0.1234  224.4186   94.8008     6887.0766     6884.6578     6889.4953 -89.350686  38.848374   0.000133  -0.000325
1 62647U 25009AQ  25076.19847479  .00014921  00000-0  71494-3 0  9995 | 2 62647  97.4299 157.8616 0003441 133.5718 226.5803 15.19016945  9311 | 2025/03/17-04:45:48   88.4563    0.1235  226.5517   94.7982     6886.9473     6884.5775     6889.3171 -90.247005  36.715985   0.000126  -0.000320
1 62647U 25009AQ  25077.77942359  .00018842  00000-0  90005-3 0  9998 | 2 62647  97.4291 159.4162 0003408 130.4367 229.7166 15.19074658  9554 | 2025/03/18-18:42:22  297.6003    0.1235  229.6868   94.7946     6886.7729     6884.4259     6889.1199 -91.209127  34.253828   0.000116  -0.000321
1 62647U 25009AQ  25079.16270270  .00019471  00000-0  92841-3 0  9998 | 2 62647  97.4291 160.7763 0003490 126.5533 233.6024 15.19129311  9765 | 2025/03/20-03:54:17   75.5817    0.1235  233.5702   94.7911     6886.6077     6884.2043     6889.0112 -91.996478  32.079238   0.000104  -0.000333
1 62647U 25009AQ  25080.21659766  .00015589  00000-0  74359-3 0  9997 | 2 62647  97.4291 161.8129 0003496 123.5879 236.5689 15.19164249  9925 | 2025/03/21-05:11:54   94.9850    0.1234  236.5355   94.7890     6886.5021     6884.0946     6888.9097 -92.561771  30.409671   0.000093  -0.000337
1 62647U 25009AQ  25081.46806440  .00021950  00000-0  10433-2 0  9999 | 2 62647  97.4288 163.0444 0003477 121.5147 238.6428 15.19215215 10117 | 2025/03/22-11:14:00  185.5143    0.1235  238.6088   94.7858     6886.3481     6883.9537     6888.7425 -93.193671  28.413215   0.000087  -0.000337
1 62647U 25009AQ  25082.78535224  .00017250  00000-0  81997-3 0  9996 | 2 62647  97.4289 164.3407 0003372 118.4096 241.7478 15.19263825 10315 | 2025/03/23-18:50:54  299.7401    0.1234  241.7138   94.7827     6886.2012     6883.8792     6888.5233 -93.812702  26.297671   0.000074  -0.000329
1 62647U 25009AQ  25084.69534560  .00017391  00000-0  82494-3 0  9999 | 2 62647  97.4295 166.2197 0003437 114.4097 245.7497 15.19334221 10604 | 2025/03/25-16:41:17  267.3393    0.1235  245.7138   94.7784     6885.9885     6883.6218     6888.3552 -94.625112  23.207662   0.000063  -0.000338
1 62647U 25009AQ  25085.94667306  .00019039  00000-0  90139-3 0  9999 | 2 62647  97.4299 167.4508 0003481 110.4679 249.6929 15.19381112 10792 | 2025/03/26-22:43:12  357.8180    0.1234  249.6555   94.7754     6885.8468     6883.4499     6888.2438 -95.102279  21.169362   0.000048  -0.000345
1 62647U 25009AQ  25087.19796365  .00013519  00000-0  64071-3 0  9999 | 2 62647  97.4294 168.6819 0003437 108.1923 251.9686 15.19419568 10986 | 2025/03/28-04:45:04   88.2848    0.1235  251.9312   94.7730     6885.7307     6883.3640     6888.0973 -95.534662  19.121096   0.000041  -0.000341
1 62647U 25009AQ  25088.77850165  .00012032  00000-0  57009-3 0  9995 | 2 62647  97.4284 170.2367 0003332 104.8075 255.3529 15.19459412 11221 | 2025/03/29-18:41:02  297.2820    0.1235  255.3160   94.7705     6885.6103     6883.3160     6887.9046 -96.017317  16.521740   0.000029  -0.000332
1 62647U 25009AQ  25090.49070208  .00012188  00000-0  57664-3 0  9998 | 2 62647  97.4277 171.9213 0003381 100.3098 259.8518 15.19505025 11488 | 2025/03/31-11:46:36  193.6760    0.1235  259.8137   94.7677     6885.4725     6883.1445     6887.8005 -96.460825  13.691824   0.000013  -0.000338
1 62647U 25009AQ  25091.74189540  .00011352  00000-0  53691-3 0  9995 | 2 62647  97.4275 173.1526 0003367  97.7976 262.3641 15.19534438 11672 | 2025/04/01-17:48:19  284.1074    0.1235  262.3259   94.7659     6885.3836     6883.0653     6887.7019 -96.732571  11.615832   0.000006  -0.000337
1 62647U 25009AQ  25092.79551191  .00014493  00000-0  68372-3 0  9997 | 2 62647  97.4271 174.1896 0003257  96.1246 264.0360 15.19564251 11831 | 2025/04/02-19:05:32  303.4120    0.1235  263.9989   94.7640     6885.2936     6883.0510     6887.5361 -96.926554   9.863216   0.000002  -0.000326
1 62647U 25009AQ  25094.77098167  .00017213  00000-0  80966-3 0  9992 | 2 62647  97.4270 176.1339 0003172  91.5569 268.6029 15.19628540 12135 | 2025/04/04-18:30:12  294.5847    0.1235  268.5666   94.7600     6885.0994     6882.9154     6887.2833 -97.205290   6.569014  -0.000013  -0.000317
1 62647U 25009AQ  25096.15376015  .00015730  00000-0  73933-3 0  9995 | 2 62647  97.4275 177.4949 0003315  88.7861 271.3753 15.19674969 12347 | 2025/04/06-03:41:24   72.3853    0.1234  271.3373   94.7571     6884.9592     6882.6768     6887.2415 -97.334392   4.258392  -0.000022  -0.000331
1 62647U 25009AQ  25097.20727885  .00013512  00000-0  63515-3 0  9998 | 2 62647  97.4276 178.5316 0003249  85.8243 274.3363 15.19704849 12505 | 2025/04/07-04:58:28   91.6545    0.1235  274.2992   94.7552     6884.8689     6882.6320     6887.1058 -97.395606   2.496642  -0.000032  -0.000323
1 62647U 25009AQ  25098.45830770  .00013514  00000-0  63467-3 0  9992 | 2 62647  97.4274 179.7629 0003139  83.0676 277.0915 15.19736516 12690 | 2025/04/08-10:59:57  182.0282    0.1234  277.0558   94.7533     6884.7733     6882.6121     6886.9344 -97.426566   0.403171  -0.000039  -0.000311
1 62647U 25009AQ  25100.17019799  .00018226  00000-0  85290-3 0  9998 | 2 62647  97.4235 181.4516 0003764  71.2455 288.9189 15.19792579 12954 | 2025/04/10-04:05:05   78.3020    0.1236  288.8781   94.7498     6884.6039     6882.0126     6887.1953 -97.392235  -2.467980  -0.000112  -0.000359
1 62647U 25009AQ  25101.94786549  .00013149  00000-0  61587-3 0  9990 | 2 62647  97.4277 183.1974 0003009  74.8722 285.2846 15.19836538 13220 | 2025/04/11-22:44:55  358.2762    0.1235  285.2513   94.7470     6884.4712     6882.3997     6886.5427 -97.276034  -5.434147  -0.000062  -0.000294
1 62647U 25009AQ  25103.46213221  .00015151  00000-0  70808-3 0  9992 | 2 62647  97.4271 184.6879 0002953  71.8128 288.3428 15.19879851 13458 | 2025/04/13-11:05:28  183.4155    0.1235  288.3107   94.7443     6884.3404     6882.3075     6886.3733 -97.101174  -7.962525  -0.000069  -0.000287
1 62647U 25009AQ  25104.64718377  .00012961  00000-0  60592-3 0  9990 | 2 62647  97.4264 185.8542 0002812  68.6349 291.5186 15.19906789 13631 | 2025/04/14-15:31:56  250.0379    0.1235  291.4886   94.7427     6884.2591     6882.3232     6886.1949 -96.918289  -9.937237  -0.000075  -0.000271
1 62647U 25009AQ  25105.76637785  .00012087  00000-0  56489-3 0  9996 | 2 62647  97.4266 186.9561 0002747  66.0219 294.1304 15.19933941 13801 | 2025/04/15-18:23:35  292.9502    0.1236  294.1017   94.7410     6884.1771     6882.2860     6886.0682 -96.709466 -11.799220  -0.000080  -0.000263
1 62647U 25009AQ  25107.21471357  .00014636  00000-0  68228-3 0  9995 | 2 62647  97.4257 188.3818 0002806  62.4668 297.6851 15.19977037 14020 | 2025/04/17-05:09:11   94.3533    0.1234  297.6566   94.7383     6884.0469     6882.1153     6885.9786 -96.385066 -14.201625  -0.000092  -0.000265
1 62647U 25009AQ  25109.18966070  .00010501  00000-0  49008-3 0  9996 | 2 62647  97.4255 190.3265 0002534  56.9199 303.2279 15.20019124 14329 | 2025/04/19-04:33:06   85.3403    0.1235  303.2036   94.7357     6883.9199     6882.1755     6885.6643 -95.847425 -17.464228  -0.000098  -0.000234
1 62647U 25009AQ  25110.76957783  .00011529  00000-0  53711-3 0  9990 | 2 62647  97.4254 191.8821 0002425  53.8848 306.2611 15.20056210 14564 | 2025/04/20-18:28:11  294.1140    0.1235  306.2387   94.7333     6883.8079     6882.1386     6885.4772 -95.337901 -20.059741  -0.000100  -0.000221
1 62647U 25009AQ  25112.21780012  .00012504  00000-0  58154-3 0  9991 | 2 62647  97.4261 193.3080 0002367  50.2550 309.8893 15.20093135 14784 | 2025/04/22-05:13:37   95.4771    0.1235  309.8685   94.7310     6883.6964     6882.0671     6885.3258 -94.809892 -22.426087  -0.000105  -0.000212
1 62647U 25009AQ  25113.66598807  .00010288  00000-0  47877-3 0  9997 | 2 62647  97.4262 194.7340 0002268  47.0062 313.1363 15.20125463 15007 | 2025/04/23-15:59:01  256.8280    0.1235  313.1173   94.7290     6883.5988     6882.0376     6885.1600 -94.222534 -24.778589  -0.000107  -0.000200
1 62647U 25009AQ  25114.91667041  .00013483  00000-0  62560-3 0  9999 | 2 62647  97.4264 195.9654 0002135  42.4119 317.7281 15.20157507 15198 | 2025/04/24-22:00:00  347.0775    0.1235  317.7116   94.7270     6883.5021     6882.0325     6884.9717 -93.668466 -26.797795  -0.000112  -0.000182
1 62647U 25009AQ  25116.75973147  .00011715  00000-0  54338-3 0  9990 | 2 62647  97.4270 197.7806 0002006  37.0934 323.0440 15.20205102 15479 | 2025/04/26-18:14:00  290.5835    0.1236  323.0302   94.7241     6883.3584     6881.9776     6884.7392 -92.773189 -29.751566  -0.000115  -0.000164
1 62647U 25009AQ  25118.66855407  .00011468  00000-0  53121-3 0  9994 | 2 62647  97.4264 199.6603 0001854  32.0374 328.0974 15.20254862 15767 | 2025/04/28-16:02:43  257.7639    0.1236  328.0862   94.7210     6883.2082     6881.9321     6884.4844 -91.746820 -32.778414  -0.000115  -0.000145
1 62647U 25009AQ  25121.76204590  .00012242  00000-0  56564-3 0  9995 | 2 62647  97.4255 202.7071 0001573  21.8901 338.2401 15.20326263 16238 | 2025/05/01-18:17:20  291.4279    0.1235  338.2334   94.7165     6882.9927     6881.9100     6884.0754 -89.874075 -37.608226  -0.000112  -0.000110
1 62647U 25009AQ  25122.88092643  .00015230  00000-0  70191-3 0  9995 | 2 62647  97.4253 203.8093 0001508  18.7518 341.3773 15.20364015 16402 | 2025/05/02-21:08:32  334.2266    0.1236  341.3718   94.7142     6882.8788     6881.8408     6883.9167 -89.133837 -39.329990  -0.000111  -0.000102
1 62647U 25009AQ  25123.93396906  .00010776  00000-0  49747-3 0  9994 | 2 62647  97.4251 204.8467 0001371  13.0638 347.0633 15.20388682 16566 | 2025/05/03-22:24:54  353.3245    0.1236  347.0598   94.7126     6882.8043     6881.8607     6883.7480 -88.406974 -40.937232  -0.000108  -0.000084
1 62647U 25009AQ  25125.18444104  .00009586  00000-0  44268-3 0  9997 | 2 62647  97.4253 206.0784 0001245   3.9426 356.1819 15.20409433 16753 | 2025/05/05-04:25:35   83.4978    0.1235  356.1809   94.7113     6882.7417     6881.8848     6883.5986 -87.506758 -42.828219  -0.000108  -0.000062
1 62647U 25009AQ  25126.76395587  .00009483  00000-0  43758-3 0  9991 | 2 62647  97.4256 207.6342 0001123 358.0737   2.0493 15.20440310 16997 | 2025/05/06-18:20:05  292.1257    0.1235    2.0498   94.7094     6882.6485     6881.8756     6883.4214 -86.311958 -45.188422  -0.000101  -0.000049
1 62647U 25009AQ  25127.94857087  .00007624  00000-0  35231-3 0  9992 | 2 62647  97.4259 208.8011 0001033 355.7823   4.3403 15.20460494 17178 | 2025/05/07-22:45:56  358.5882    0.1235    4.3412   94.7081     6882.5876     6881.8766     6883.2986 -85.374066 -46.936924  -0.000094  -0.000043
1 62647U 25009AQ  25129.19898225  .00008651  00000-0  39905-3 0  9993 | 2 62647  97.4260 210.0328 0000968 349.8558  10.2657 15.20482191 17367 | 2025/05/09-04:46:32   88.7382    0.1235   10.2677   94.7068     6882.5221     6881.8559     6883.1884 -84.345491 -48.761293  -0.000091  -0.000033
1 62647U 25009AQ  25130.64680506  .00008832  00000-0  40702-3 0  9994 | 2 62647  97.4262 211.4591 0000845 336.0972  24.0224 15.20506983 17581 | 2025/05/10-15:31:23  249.9570    0.1235   24.0263   94.7053     6882.4473     6881.8657     6883.0289 -83.105808 -50.845738  -0.000084  -0.000011
1 62647U 25009AQ  25131.76556141  .00007917  00000-0  36502-3 0  9991 | 2 62647  97.4262 212.5612 0000757 328.0049  32.1140 15.20524638 17758 | 2025/05/11-18:22:24  292.7106    0.1235   32.1186   94.7042     6882.3940     6881.8730     6882.9150 -82.112463 -52.434797  -0.000076  -0.000001
1 62647U 25009AQ  25133.47657616  .00006378  00000-0  29454-3 0  9998 | 2 62647  97.4259 214.2468 0000645 316.1457  43.9727 15.20548628 18015 | 2025/05/13-11:26:16  188.6773    0.1235   43.9778   94.7027     6882.3216     6881.8777     6882.7656 -80.534312 -54.827279  -0.000064   0.000011
1 62647U 25009AQ  25134.72691698  .00006301  00000-0  29089-3 0  9995 | 2 62647  97.4255 215.4787 0000625 298.9491  61.1682 15.20564964 18205 | 2025/05/14-17:26:45  278.8016    0.1236   61.1745   94.7016     6882.2724     6881.8422     6882.7025 -79.336638 -56.545786  -0.000056   0.000027
1 62647U 25009AQ  25136.17466319  .00006862  00000-0  31630-3 0  9993 | 2 62647  97.4252 216.9052 0000608 282.0090  78.1077 15.20584843 18421 | 2025/05/16-04:11:30   79.9913    0.1235   78.1145   94.7004     6882.2124     6881.7939     6882.6308 -77.904129 -58.503131  -0.000046   0.000040
1 62647U 25009AQ  25137.49077736  .00009668  00000-0  44386-3 0  9999 | 2 62647  97.4251 218.2020 0000565 265.6947  94.4224 15.20609706 18623 | 2025/05/17-11:46:43  193.7924    0.1236   94.4289   94.6989     6882.1374     6881.7485     6882.5262 -76.560083 -60.251172  -0.000032   0.000047
1 62647U 25009AQ  25138.93848094  .00007766  00000-0  35703-3 0  9992 | 2 62647  97.4250 219.6286 0000638 249.0317 111.0850 15.20630799 18840 | 2025/05/18-22:31:24  354.9664    0.1235  111.0918   94.6975     6882.0737     6881.6346     6882.5128 -75.036245 -62.138495  -0.000020   0.000060
1 62647U 25009AQ  25140.18875557  .00005982  00000-0  27566-3 0  9992 | 2 62647  97.4250 220.8606 0000728 238.9756 121.1408 15.20644934 19033 | 2025/05/20-04:31:48   85.0659    0.1235  121.1479   94.6967     6882.0311     6881.5300     6882.5321 -73.682871 -63.737470  -0.000012   0.000072
1 62647U 25009AQ  25142.16284680  .00006784  00000-0  31195-3 0  9997 | 2 62647  97.4256 222.8057 0000898 224.5308 135.5856 15.20671892 19335 | 2025/05/22-03:54:29   75.7394    0.1236  135.5928   94.6950     6881.9497     6881.3317     6882.5677 -71.477487 -66.202088   0.000004   0.000090
1 62647U 25009AQ  25143.21568067  .00005857  00000-0  26969-3 0  9991 | 2 62647  97.4256 223.8432 0000989 219.6269 140.4894 15.20685129 19497 | 2025/05/23-05:10:34   94.7599    0.1235  140.4966   94.6942     6881.9098     6881.2292     6882.5904 -70.267060 -67.485463   0.000011   0.000098
1 62647U 25009AQ  25144.79491547  .00005730  00000-0  26377-3 0  9996 | 2 62647  97.4259 225.3994 0001103 211.0939 149.0231 15.20704226 19736 | 2025/05/24-19:04:40  303.2841    0.1235  149.0296   94.6930     6881.8522     6881.0931     6882.6112 -68.408620 -69.369062   0.000026   0.000107
1 62647U 25009AQ  25147.62432966  .00005909  00000-0  27160-3 0  9990 | 2 62647  97.4260 228.1876 0001386 198.5505 161.5680 15.20738083 20163 | 2025/05/27-14:59:02  241.8723    0.1235  161.5730   94.6909     6881.7500     6880.7962     6882.7038 -64.953309 -72.614689   0.000055   0.000127
1 62647U 25009AQ  25148.94031250  .00006572  00000-0  30155-3 0  9992 | 2 62647  97.4258 229.4846 0001496 193.4849 166.6347 15.20757073 20366 | 2025/05/28-22:34:03  355.6251    0.1236  166.6387   94.6897     6881.6927     6880.6632     6882.7222 -63.292906 -74.066150   0.000068   0.000133
1 62647U 25009AQ  25150.19047958  .00008248  00000-0  37733-3 0  9995 | 2 62647  97.4253 230.7169 0001608 189.6231 170.4974 15.20779330 20551 | 2025/05/30-04:34:17   85.6843    0.1235  170.5004   94.6883     6881.6256     6880.5190     6882.7322 -61.685081 -75.409813   0.000080   0.000140
1 62647U 25009AQ  25151.76961532  .00006914  00000-0  31665-3 0  9998 | 2 62647  97.4251 232.2734 0001757 184.2705 175.8516 15.20802015 20790 | 2025/05/31-18:28:14  294.1716    0.1236  175.8531   94.6869     6881.5572     6880.3481     6882.7663 -59.613864 -77.057364   0.000097   0.000147
1 62647U 25009AQ  25154.20404877  .00011190  00000-0  50937-3 0  9999 | 2 62647  97.4251 234.6731 0001975 175.6538 184.4715 15.20862219 21164 | 2025/06/03-04:53:49   90.5642    0.1235  184.4697   94.6831     6881.3756     6880.0165     6882.7346 -56.335161 -79.485846   0.000126   0.000152
1 62647U 25009AQ  25155.78310016  .00007799  00000-0  35588-3 0  9999 | 2 62647  97.4254 236.2293 0002082 174.3605 185.7654 15.20884154 21404 | 2025/06/04-18:47:39  299.0223    0.1235  185.7630   94.6818     6881.3094     6879.8767     6882.7421 -54.155915 -80.986699   0.000132   0.000161
1 62647U 25009AQ  25157.49371332  .00006052  00000-0  27676-3 0  9997 | 2 62647  97.4258 237.9154 0002252 169.4427 190.6856 15.20905785 21669 | 2025/06/06-11:50:56  194.8406    0.1235  190.6808   94.6804     6881.2441     6879.6945     6882.7938 -51.749747 -82.545443   0.000153   0.000166
1 62647U 25009AQ  25158.67796949  .00005948  00000-0  27195-3 0  9992 | 2 62647  97.4260 239.0827 0002327 166.9319 193.1977 15.20920737 21843 | 2025/06/07-16:16:16  261.1715    0.1235  193.1916   94.6795     6881.1990     6879.5978     6882.8003 -50.057509 -83.582721   0.000162   0.000167
1 62647U 25009AQ  25160.78328730  .00006282  00000-0  28682-3 0  9990 | 2 62647  97.4262 241.1581 0002500 161.4505 198.6822 15.20946359 22169 | 2025/06/09-18:47:56  299.0825    0.1235  198.6730   94.6779     6881.1218     6879.4015     6882.8420 -46.997852 -85.340883   0.000184   0.000169
1 62647U 25009AQ  25162.49383342  .00005274  00000-0  24120-3 0  9993 | 2 62647  97.4260 242.8444 0002678 157.1843 202.9512 15.20964037 22423 | 2025/06/11-11:51:07  194.8760    0.1235  202.9392   94.6768     6881.0684     6879.2257     6882.9112 -44.466060 -86.686764   0.000205   0.000172
1 62647U 25009AQ  25163.80962239  .00006010  00000-0  27426-3 0  9998 | 2 62647  97.4257 244.1415 0002764 154.4551 205.6821 15.20981236 22629 | 2025/06/12-19:25:51  308.5581    0.1235  205.6684   94.6757     6881.0166     6879.1147     6882.9185 -42.492230 -87.670847   0.000216   0.000172
1 62647U 25009AQ  25165.19118103  .00007861  00000-0  35741-3 0  9999 | 2 62647  97.4254 245.5037 0002855 151.4140 208.7253 15.21006129 22839 | 2025/06/14-04:35:18   85.9166    0.1236  208.7096   94.6742     6880.9415     6878.9770     6882.9060 -40.395930 -88.655950   0.000228   0.000171
1 62647U 25009AQ  25166.63850597  .00005922  00000-0  26991-3 0  9992 | 2 62647  97.4252 246.9308 0002943 148.2277 211.9137 15.21026719 23055 | 2025/06/15-15:19:26  246.9510    0.1236  211.8959   94.6729     6880.8794     6878.8544     6882.9044 -38.175344 -89.634328   0.000241   0.000169
1 62647U 25009AQ  25168.67789008  .00005554  00000-0  25318-3 0  9999 | 2 62647  97.4251 248.9416 0003068 143.4431 216.7014 15.21050892 23364 | 2025/06/17-16:16:09  261.1255    0.1235  216.6804   94.6714     6880.8065     6878.6955     6882.9175 -35.006722 -90.918532   0.000259   0.000164
1 62647U 25009AQ  25170.19096263  .00005657  00000-0  25768-3 0  9996 | 2 62647  97.4251 250.4332 0003155 140.8775 219.2689 15.21067272 23599 | 2025/06/19-04:34:59   85.8294    0.1235  219.2460   94.6704     6880.7571     6878.5862     6882.9280 -32.628215 -91.798963   0.000270   0.000164
1 62647U 25009AQ  25171.63823504  .00005538  00000-0  25223-3 0  9996 | 2 62647  97.4254 251.8600 0003247 137.9229 222.2256 15.21081794 23812 | 2025/06/20-15:19:03  246.8451    0.1235  222.2006   94.6695     6880.7133     6878.4791     6882.9475 -30.332418 -92.583222   0.000282   0.000161
1 62647U 25009AQ  25173.48019773  .00004641  00000-0  21180-3 0  9998 | 2 62647  97.4257 253.6759 0003350 133.1085 227.0431 15.21099117 24090 | 2025/06/22-11:31:29  189.9482    0.1235  227.0150   94.6684     6880.6611     6878.3560     6882.9661 -27.383481 -93.498193   0.000299   0.000151
1 62647U 25009AQ  25174.86165688  .00004297  00000-0  19627-3 0  9998 | 2 62647  97.4262 255.0380 0003410 130.1071 230.0464 15.21110644 24304 | 2025/06/23-20:40:47  327.2711    0.1236  230.0165   94.6677     6880.6263     6878.2800     6882.9726 -25.153337 -94.123186   0.000309   0.000145
1 62647U 25009AQ  25176.17732272  .00004398  00000-0  20072-3 0  9991 | 2 62647  97.4261 256.3354 0003473 127.7138 232.4413 15.21121633 24505 | 2025/06/25-04:15:20   80.9086    0.1236  232.4098   94.6670     6880.5932     6878.2035     6882.9828 -23.015731 -94.668480   0.000317   0.000142
1 62647U 25009AQ  25177.49297761  .00005133  00000-0  23365-3 0  9992 | 2 62647  97.4260 257.6330 0003545 124.8459 235.3111 15.21135234 24707 | 2025/06/26-11:49:53  194.5416    0.1236  235.2777   94.6661     6880.5521     6878.1130     6882.9913 -20.865996 -95.165307   0.000328   0.000136
1 62647U 25009AQ  25178.80861995  .00004871  00000-0  22178-3 0  9993 | 2 62647  97.4256 258.9305 0003557 123.2456 236.9121 15.21148673 24902 | 2025/06/27-19:24:24  308.1714    0.1236  236.8780   94.6653     6880.5116     6878.0642     6882.9590 -18.705674 -95.612998   0.000329   0.000134
1 62647U 25009AQ  25180.19003246  .00004174  00000-0  19045-3 0  9990 | 2 62647  97.4253 260.2928 0003614 120.5575 239.6018 15.21161226 25110 | 2025/06/29-04:33:38   85.4776    0.1236  239.5661   94.6645     6880.4738     6877.9872     6882.9604 -16.427196 -96.030393   0.000338   0.000129
1 62647U 25009AQ  25181.76877471  .00004978  00000-0  22640-3 0  9990 | 2 62647  97.4247 261.8496 0003622 116.8617 243.2989 15.21178120 25359 | 2025/06/30-18:27:02  293.8228    0.1235  243.2618   94.6635     6880.4228     6877.9307     6882.9149 -13.812099 -96.440645   0.000343   0.000116
1 62647U 25009AQ  25183.47905733  .00004876  00000-0  22169-3 0  9996 | 2 62647  97.4247 263.5360 0003666 112.9390 247.2233 15.21197549 25612 | 2025/07/02-11:29:50  189.5222    0.1236  247.1846   94.6623     6880.3642     6877.8419     6882.8866 -10.967967 -96.805350   0.000352   0.000104
1 62647U 25009AQ  25184.72886590  .00005492  00000-0  24921-3 0  9997 | 2 62647  97.4251 264.7683 0003687 110.3252 249.8380 15.21212357 25807 | 2025/07/03-17:29:34  279.4520    0.1235  249.7983   94.6613     6880.3196     6877.7828     6882.8564  -8.883567 -97.019237   0.000356   0.000096
1 62647U 25009AQ  25185.78132727  .00006113  00000-0  27691-3 0  9998 | 2 62647  97.4253 265.8061 0003692 108.5379 251.6258 15.21225184 25960 | 2025/07/04-18:45:06  298.3371    0.1236  251.5857   94.6605     6880.2809     6877.7407     6882.8211  -7.124909 -97.164421   0.000358   0.000091
1 62647U 25009AQ  25186.89955729  .00005776  00000-0  26170-3 0  9991 | 2 62647  97.4257 266.9086 0003720 106.5849 253.5796 15.21238432 26133 | 2025/07/05-21:35:21  340.8988    0.1236  253.5387   94.6597     6880.2410     6877.6815     6882.8004  -5.254064 -97.283924   0.000362   0.000087
1 62647U 25009AQ  25188.21510856  .00006029  00000-0  27288-3 0  9990 | 2 62647  97.4258 268.2059 0003718 104.0677 256.0973 15.21255932 26339 | 2025/07/07-05:09:45   94.4961    0.1236  256.0559   94.6586     6880.1882     6877.6301     6882.7463  -3.050191 -97.378041   0.000363   0.000079
1 62647U 25009AQ  25189.46486945  .00005188  00000-0  23521-3 0  9990 | 2 62647  97.4258 269.4383 0003705 101.2284 258.9368 15.21269502 26529 | 2025/07/08-11:09:24  184.4093    0.1235  258.8951   94.6578     6880.1473     6877.5982     6882.6964  -0.955100 -97.421118   0.000364   0.000069
1 62647U 25009AQ  25190.78039590  .00004572  00000-0  20757-3 0  9991 | 2 62647  97.4257 270.7358 0003658  98.3998 261.7652 15.21282382 26721 | 2025/07/09-18:43:46  297.9981    0.1235  261.7237   94.6570     6880.1085     6877.5917     6882.6252   1.251119 -97.417666   0.000361   0.000058
1 62647U 25009AQ  25192.16168820  .00004048  00000-0  18408-3 0  9992 | 2 62647  97.4255 272.0981 0003694  95.4226 264.7432 15.21293606 26931 | 2025/07/11-03:52:49   75.2617    0.1236  264.7010   94.6563     6880.0746     6877.5331     6882.6161   3.566803 -97.360187   0.000366   0.000048
1 62647U 25009AQ  25193.47719343  .00004789  00000-0  21713-3 0  9994 | 2 62647  97.4253 273.3957 0003673  92.7479 267.4177 15.21307506 27137 | 2025/07/12-11:27:09  188.8428    0.1236  267.3757   94.6554     6880.0327     6877.5057     6882.5597   5.770642 -97.254248   0.000365   0.000039
1 62647U 25009AQ  25194.66113863  .00004998  00000-0  22638-3 0  9990 | 2 62647  97.4251 274.5635 0003654  90.3303 269.8352 15.21319566 27310 | 2025/07/13-15:52:02  255.0624    0.1236  269.7933   94.6547     6879.9963     6877.4824     6882.5103   7.751522 -97.116240   0.000364   0.000031
1 62647U 25009AQ  25196.50281132  .00005948  00000-0  26861-3 0  9998 | 2 62647  97.4246 276.3800 0003595  86.9158 273.2489 15.21340674 27595 | 2025/07/15-12:04:02  198.0641    0.1236  273.2078   94.6534     6879.9327     6877.4594     6882.4060  10.826020 -96.821227   0.000359   0.000021
1 62647U 25009AQ  25197.75250346  .00005166  00000-0  23364-3 0  9996 | 2 62647  97.4244 277.6124 0003580  84.3354 275.8290 15.21353580 27789 | 2025/07/16-18:03:36  287.9529    0.1236  275.7882   94.6526     6879.8938     6877.4308     6882.3568  12.905899 -96.565788   0.000358   0.000012
1 62647U 25009AQ  25199.46259031  .00004901  00000-0  22171-3 0  9997 | 2 62647  97.4245 279.2988 0003529  80.8522 279.3113 15.21371512 28045 | 2025/07/18-11:06:07  183.5842    0.1236  279.2714   94.6514     6879.8397     6877.4118     6882.2676  15.742158 -96.144254   0.000353   0.000001
1 62647U 25009AQ  25200.64648404  .00005389  00000-0  24334-3 0  9990 | 2 62647  97.4247 280.4663 0003499  78.3818 281.7810 15.21385594 28223 | 2025/07/19-15:30:56  249.7861    0.1235  281.7417   94.6506     6879.7973     6877.3900     6882.2045  17.697895 -95.803740   0.000350  -0.000007
1 62647U 25009AQ  25202.48807378  .00005559  00000-0  25076-3 0  9994 | 2 62647  97.4250 282.2824 0003391  74.3524 285.8086 15.21408215 28504 | 2025/07/21-11:42:49  192.7592    0.1236  285.7712   94.6492     6879.7291     6877.3962     6882.0620  20.725245 -95.195036   0.000339  -0.000020
1 62647U 25009AQ  25204.46117526  .00007477  00000-0  33587-3 0  9990 | 2 62647  97.4252 284.2285 0003287  69.9539 290.2050 15.21436074 28807 | 2025/07/23-11:04:05  183.0765    0.1235  290.1696   94.6474     6879.6451     6877.3838     6881.9064  23.946099 -94.436508   0.000327  -0.000033
1 62647U 25009AQ  25205.90809232  .00007804  00000-0  35021-3 0  9991 | 2 62647  97.4250 285.6557 0003190  66.7822 293.3750 15.21458202 29028 | 2025/07/24-21:47:39  343.9673    0.1236  293.3414   94.6460     6879.5784     6877.3838     6881.7730  26.290724 -93.810599   0.000316  -0.000042
1 62647U 25009AQ  25207.81535952  .00006840  00000-0  30712-3 0  9999 | 2 62647  97.4248 287.5375 0003109  62.3396 297.8156 15.21486224 29318 | 2025/07/26-19:34:07  310.5836    0.1237  297.7841   94.6443     6879.4939     6877.3551     6881.6328  29.357009 -92.896489   0.000306  -0.000055
1 62647U 25009AQ  25209.52529421  .00006277  00000-0  28192-3 0  9996 | 2 62647  97.4242 289.2241 0002986  58.4563 301.6964 15.21509116 29572 | 2025/07/28-12:36:25  206.1614    0.1236  301.6673   94.6429     6879.4249     6877.3707     6881.4791  32.078267 -91.991628   0.000292  -0.000064
1 62647U 25009AQ  25210.77484636  .00007477  00000-0  33500-3 0  9995 | 2 62647  97.4238 290.4565 0002871  55.0755 305.0750 15.21526983 29762 | 2025/07/29-18:35:46  296.0016    0.1236  305.0481   94.6418     6879.3711     6877.3960     6881.3461  34.049242 -91.280041   0.000278  -0.000072
1 62647U 25009AQ  25212.48473375  .00007692  00000-0  34425-3 0  9999 | 2 62647  97.4237 292.1431 0002785  51.8978 308.2508 15.21554160 30022 | 2025/07/31-11:38:00  191.5617    0.1235  308.2257   94.6401     6879.2892     6877.3733     6881.2050  36.721051 -90.238250   0.000268  -0.000077
1 62647U 25009AQ  25213.60272020  .00007155  00000-0  32032-3 0  9994 | 2 62647  97.4238 293.2459 0002709  49.4290 310.7181 15.21571476 30193 | 2025/08/01-14:27:55  234.0375    0.1236  310.6946   94.6390     6879.2370     6877.3734     6881.1005  38.451041 -89.514883   0.000259  -0.000081
1 62647U 25009AQ  25215.18103350  .00007075  00000-0  31654-3 0  9998 | 2 62647  97.4238 294.8025 0002539  44.2130 315.9308 15.21594252 30438 | 2025/08/03-04:20:41   82.2326    0.1236  315.9106   94.6376     6879.1683     6877.4217     6880.9149  40.868475 -88.437348   0.000237  -0.000091
1 62647U 25009AQ  25216.69355855  .00009042  00000-0  40327-3 0  9997 | 2 62647  97.4242 296.2944 0002343  39.8234 320.3173 15.21622710 30663 | 2025/08/04-16:38:43  266.7436    0.1236  320.3002   94.6358     6879.0825     6877.4708     6880.6943  43.157320 -87.343692   0.000214  -0.000095
1 62647U 25009AQ  25218.79790489  .00006491  00000-0  29025-3 0  9993 | 2 62647  97.4241 298.3700 0002248  35.8541 324.2845 15.21648742 30983 | 2025/08/06-19:08:58  304.3090    0.1236  324.2695   94.6342     6879.0041     6877.4577     6880.5505  46.292382 -85.723221   0.000202  -0.000098
1 62647U 25009AQ  25220.77069975  .00006277  00000-0  28063-3 0  9996 | 2 62647  97.4242 300.3165 0002054  29.4631 330.6720 15.21670304 31283 | 2025/08/08-18:29:48  294.5166    0.1236  330.6605   94.6329     6878.9391     6877.5262     6880.3520  49.177422 -84.101462   0.000177  -0.000103
1 62647U 25009AQ  25222.48042540  .00007386  00000-0  32934-3 0  9999 | 2 62647  97.4238 302.0035 0001943  25.0007 335.1323 15.21697987 31542 | 2025/08/10-11:31:48  190.0181    0.1236  335.1229   94.6311     6878.8557     6877.5191     6880.1922  51.631795 -82.616914   0.000163  -0.000106
1 62647U 25009AQ  25223.66406335  .00006843  00000-0  30520-3 0  9992 | 2 62647  97.4231 303.1713 0001847  21.4939 338.6374 15.21716110 31721 | 2025/08/11-15:56:15  256.1283    0.1236  338.6297   94.6300     6878.8011     6877.5305     6880.0716  53.304466 -81.546884   0.000151  -0.000107
1 62647U 25009AQ  25224.71617561  .00007775  00000-0  34618-3 0  9991 | 2 62647  97.4227 304.2092 0001717  16.8121 343.3171 15.21731746 31882 | 2025/08/12-17:11:17  274.8900    0.1236  343.3115   94.6290     6878.7539     6877.5729     6879.9350  54.772618 -80.567629   0.000133  -0.000108
1 62647U 25009AQ  25225.76827760  .00006825  00000-0  30417-3 0  9999 | 2 62647  97.4224 305.2471 0001637  13.8711 346.2570 15.21745129 32048 | 2025/08/13-18:26:19  293.6469    0.1236  346.2525   94.6282     6878.7136     6877.5876     6879.8396  56.222843 -79.562026   0.000124  -0.000107
1 62647U 25009AQ  25227.47792090  .00006420  00000-0  28611-3 0  9990 | 2 62647  97.4223 306.9336 0001478   9.0052 351.1210 15.21769518 32306 | 2025/08/15-11:28:12  189.1190    0.1236  351.1184   94.6267     6878.6401     6877.6234     6879.6568  58.539996 -77.872802   0.000106  -0.000103
1 62647U 25009AQ  25228.66150425  .00006025  00000-0  26856-3 0  9992 | 2 62647  97.4222 308.1010 0001371   3.5612 356.5634 15.21785524 32484 | 2025/08/16-15:52:33  255.2098    0.1237  356.5625   94.6257     6878.5919     6877.6488     6879.5349  60.114330 -76.663892   0.000091  -0.000102
1 62647U 25009AQ  25229.77932278  .00006764  00000-0  30099-3 0  9993 | 2 62647  97.4224 309.2036 0001273 358.5183   1.6049 15.21800285 32652 | 2025/08/17-18:42:13  297.6250    0.1236    1.6053   94.6248     6878.5474     6877.6718     6879.4230  61.578555 -75.493083   0.000078  -0.000101
1 62647U 25009AQ  25231.22589491  .00006976  00000-0  31014-3 0  9994 | 2 62647  97.4227 310.6306 0001138 351.1103   9.0113 15.21820189 32875 | 2025/08/19-05:25:17   98.3914    0.1236    9.0133   94.6235     6878.4874     6877.7046     6879.2702  63.439678 -73.936390   0.000060  -0.000097
1 62647U 25009AQ  25232.47519024  .00008050  00000-0  35717-3 0  9996 | 2 62647  97.4230 311.8630 0001022 343.8609  16.2594 15.21840773 33069 | 2025/08/20-11:24:16  188.1380    0.1236   16.2627   94.6223     6878.4254     6877.7224     6879.1284  65.015411 -72.555064   0.000044  -0.000092
1 62647U 25009AQ  25234.44773407  .00006479  00000-0  28789-3 0  9996 | 2 62647  97.4231 313.8093 0000881 326.2599  33.8581 15.21864423 33362 | 2025/08/22-10:44:44  178.2540    0.1236   33.8637   94.6208     6878.3541     6877.7481     6878.9601  67.442146 -70.305173   0.000015  -0.000087
1 62647U 25009AQ  25235.76274502  .00006720  00000-0  29833-3 0  9994 | 2 62647  97.4228 315.1069 0000810 314.5324  45.5846 15.21882198 33569 | 2025/08/23-18:18:21  291.6575    0.1236   45.5912   94.6197     6878.3006     6877.7434     6878.8577  69.016731 -68.759674  -0.000001  -0.000081
1 62647U 25009AQ  25237.47223443  .00007220  00000-0  32006-3 0  9994 | 2 62647  97.4222 316.7937 0000743 301.2107  58.9056 15.21907985 33823 | 2025/08/25-11:20:01  187.0725    0.1236   58.9129   94.6181     6878.2229     6877.7118     6878.7339  71.010394 -66.697893  -0.000015  -0.000073
1 62647U 25009AQ  25238.58996114  .00009153  00000-0  40458-3 0  9996 | 2 62647  97.4218 317.8965 0000770 287.9183  72.1969 15.21928389 33995 | 2025/08/26-14:09:32  229.4541    0.1236   72.2053   94.6168     6878.1614     6877.6318     6878.6910  72.280632 -65.318583  -0.000032  -0.000070
1 62647U 25009AQ  25239.77341959  .00010557  00000-0  46576-3 0  9996 | 2 62647  97.4213 319.0641 0000791 276.9314  83.1832 15.21952556 34177 | 2025/08/27-18:33:43  295.4986    0.1236   83.1922   94.6153     6878.0886     6877.5445     6878.6326  73.596247 -63.831827  -0.000044  -0.000066
1 62647U 25009AQ  25241.21983858  .00012317  00000-0  54220-3 0  9999 | 2 62647  97.4211 320.4911 0000817 262.7640  97.3503 15.21989630 34394 | 2025/08/29-05:16:34   96.2084    0.1236   97.3596   94.6130     6877.9769     6877.4150     6878.5388  75.162889 -61.979116  -0.000060  -0.000056
1 62647U 25009AQ  25242.79771206  .00012957  00000-0  56952-3 0  9999 | 2 62647  97.4207 322.0477 0000951 250.6519 109.4614 15.22028526 34638 | 2025/08/30-19:08:42  304.2425    0.1236  109.4717   94.6106     6877.8597     6877.2056     6878.5138  76.818466 -59.914240  -0.000080  -0.000051
1 62647U 25009AQ  25244.17831675  .00013001  00000-0  57082-3 0  9996 | 2 62647  97.4208 323.4098 0001105 243.1681 116.9443 15.22064124 34842 | 2025/09/01-04:16:46   81.2598    0.1237  116.9556   94.6084     6877.7525     6876.9925     6878.5125  78.221054 -58.071326  -0.000099  -0.000049
1 62647U 25009AQ  25245.49314854  .00017827  00000-0  78018-3 0  9999 | 2 62647  97.4210 324.7070 0001129 233.8409 126.2723 15.22103866 35044 | 2025/09/02-11:50:08  194.5972    0.1236  126.2827   94.6059     6877.6328     6876.8563     6878.4092  79.515817 -56.285753  -0.000107  -0.000036
1 62647U 25009AQ  25246.74220075  .00016051  00000-0  70201-3 0  9993 | 2 62647  97.4212 325.9397 0001212 227.1459 132.9675 15.22148029 35236 | 2025/09/03-17:48:46  284.2542    0.1236  132.9777   94.6032     6877.4997     6876.6662     6878.3333  80.708457 -54.562214  -0.000118  -0.000027
1 62647U 25009AQ  25248.18843695  .00011902  00000-0  52111-3 0  9992 | 2 62647  97.4216 327.3667 0001401 223.0118 137.1009 15.22180831 35452 | 2025/09/05-04:31:20   84.8984    0.1236  137.1118   94.6011     6877.4009     6876.4374     6878.3644  82.042541 -52.535603  -0.000138  -0.000025
1 62647U 25009AQ  25249.76611414  .00013089  00000-0  57209-3 0  9990 | 2 62647  97.4216 328.9240 0001547 215.2280 144.8854 15.22218499 35691 | 2025/09/06-18:23:12  292.8592    0.1236  144.8956   94.5988     6877.2875     6876.2235     6878.3514  83.439981 -50.286557  -0.000154  -0.000011
1 62647U 25009AQ  25251.21228389  .00008968  00000-0  39279-3 0  9995 | 2 62647  97.4212 330.3517 0001621 207.2828 152.8324 15.22247985 35911 | 2025/09/08-05:05:41   93.4763    0.1237  152.8409   94.5969     6877.1987     6876.0839     6878.3134  84.666644 -48.191800  -0.000162   0.000007
1 62647U 25009AQ  25252.78989763  .00007007  00000-0  30742-3 0  9997 | 2 62647  97.4203 331.9087 0001823 202.9851 157.1304 15.22270343 36159 | 2025/09/09-18:57:27  301.4149    0.1236  157.1385   94.5955     6877.1313     6875.8776     6878.3850  85.944030 -45.873069  -0.000182   0.000016
1 62647U 25009AQ  25254.76187846  .00008039  00000-0  35186-3 0  9992 | 2 62647  97.4196 333.8545 0001994 197.8167 162.2999 15.22303372 36450 | 2025/09/11-18:17:06  291.3247    0.1235  162.3068   94.5935     6877.0318     6875.6606     6878.4031  87.451424 -42.928159  -0.000197   0.000029
1 62647U 25009AQ  25255.94504914  .00006418  00000-0  28144-3 0  9997 | 2 62647  97.4196 335.0222 0002060 189.5631 170.5566 15.22318433 36631 | 2025/09/12-22:40:52  357.2616    0.1236  170.5605   94.5926     6876.9865     6875.5698     6878.4031  88.308088 -41.137089  -0.000199   0.000055
1 62647U 25009AQ  25257.19393672  .00006469  00000-0  28353-3 0  9991 | 2 62647  97.4193 336.2546 0002179 186.2177 173.9033 15.22336457 36823 | 2025/09/14-04:39:16   86.8584    0.1237  173.9060   94.5914     6876.9322     6875.4337     6878.4307  89.172153 -39.228142  -0.000208   0.000066
1 62647U 25009AQ  25258.44280726  .00014758  00000-0  64163-3 0  9994 | 2 62647  97.4195 337.4869 0002294 183.5972 176.5248 15.22369478 37015 | 2025/09/15-10:37:38  176.4494    0.1236  176.5264   94.5894     6876.8328     6875.2552     6878.4103  89.995356 -37.301406  -0.000217   0.000074
1 62647U 25009AQ  25259.49447522  .00010124  00000-0  44121-3 0  9994 | 2 62647  97.4196 338.5246 0002391 179.4088 180.7152 15.22381189 37178 | 2025/09/16-11:52:02  195.0468    0.1237  180.7149   94.5887     6876.7975     6875.1532     6878.4417  90.656229 -35.665483  -0.000222   0.000090
1 62647U 25009AQ  25260.80903753  .00008137  00000-0  35508-3 0  9994 | 2 62647  97.4199 339.8219 0002486 175.1523 184.9738 15.22404299 37373 | 2025/09/17-19:25:00  308.2855    0.1236  184.9713   94.5872     6876.7279     6875.0183     6878.4375  91.440747 -33.603967  -0.000225   0.000105
1 62647U 25009AQ  25262.45221356  .00008596  00000-0  37459-3 0  9995 | 2 62647  97.4202 341.4437 0002598 172.6440 187.4835 15.22432521 37626 | 2025/09/19-10:51:11  179.8252    0.1236  187.4796   94.5855     6876.6429     6874.8564     6878.4295  92.355461 -31.002648  -0.000234   0.000114
1 62647U 25009AQ  25263.76673043  .00011381  00000-0  49437-3 0  9999 | 2 62647  97.4200 342.7416 0002715 169.3868 190.7426 15.22461684 37820 | 2025/09/20-18:24:05  293.0472    0.1236  190.7368   94.5837     6876.5551     6874.6881     6878.4221  93.033807 -28.902720  -0.000240   0.000127
1 62647U 25009AQ  25265.21266893  .00013449  00000-0  58287-3 0  9992 | 2 62647  97.4199 344.1693 0002833 164.2255 195.9070 15.22497877 38045 | 2025/09/22-05:06:14   93.5794    0.1236  195.8981   94.5814     6876.4461     6874.4980     6878.3942  93.724954 -26.575738  -0.000241   0.000148
1 62647U 25009AQ  25266.46140090  .00018631  00000-0  80469-3 0  9995 | 2 62647  97.4193 345.4021 0002887 162.1683 197.9656 15.22541547 38236 | 2025/09/23-11:04:25  183.1195    0.1237  197.9554   94.5787     6876.3146     6874.3294     6878.2998  94.274450 -24.552965  -0.000244   0.000155
1 62647U 25009AQ  25267.77582020  .00016078  00000-0  69427-3 0  9997 | 2 62647  97.4188 346.6996 0002931 160.8832 199.2515 15.22580941 38437 | 2025/09/24-18:37:10  296.3077    0.1236  199.2404   94.5763     6876.1960     6874.1806     6878.2114  94.805762 -22.411831  -0.000247   0.000157
1 62647U 25009AQ  25269.74737558  .00015749  00000-0  67876-3 0  9994 | 2 62647  97.4184 348.6454 0003049 154.7009 205.4378 15.22649769 38737 | 2025/09/26-17:56:13  286.0611    0.1237  205.4228   94.5720     6875.9888     6873.8923     6878.0853  95.511677 -19.179786  -0.000245   0.000182
1 62647U 25009AQ  25270.79883925  .00014801  00000-0  63762-3 0  9999 | 2 62647  97.4180 349.6836 0003074 152.7708 207.3690 15.22679009 38895 | 2025/09/27-19:10:19  304.5851    0.1236  207.3528   94.5702     6875.9008     6873.7871     6878.0144  95.843123 -17.445988  -0.000244   0.000187
1 62647U 25009AQ  25272.17884915  .00017972  00000-0  77214-3 0  9992 | 2 62647  97.4177 351.0459 0003108 149.6482 210.4935 15.22728528 39104 | 2025/09/29-04:17:32   81.3847    0.1236  210.4754   94.5671     6875.7517     6873.6147     6877.8887  96.230504 -15.162400  -0.000240   0.000197
1 62647U 25009AQ  25274.67586383  .00020475  00000-0  87576-3 0  9991 | 2 62647  97.4181 353.5109 0003264 143.1511 216.9951 15.22853023 39482 | 2025/10/01-16:13:14  260.3016    0.1237  216.9726   94.5594     6875.3770     6873.1328     6877.6211  96.793979 -11.009628  -0.000237   0.000224
1 62647U 25009AQ  25275.72718374  .00019732  00000-0  84319-3 0  9991 | 2 62647  97.4183 354.5490 0003267 141.3802 218.7669 15.22892627 39641 | 2025/10/02-17:27:08  278.7740    0.1237  218.7435   94.5569     6875.2578     6873.0116     6877.5039  96.977755  -9.254197  -0.000235   0.000227
1 62647U 25009AQ  25279.66942883  .00010310  00000-0  44114-3 0  9994 | 2 62647  97.4186 358.4432 0003383 131.9726 228.1799 15.23000689 40249 | 2025/10/06-16:03:58  257.9683    0.1236  228.1510   94.5502     6874.9325     6872.6068     6877.2583  97.382641  -2.646663  -0.000219   0.000258
1 62647U 25009AQ  25281.18055452  .00013804  00000-0  58865-3 0  9990 | 2 62647  97.4180 359.9357 0003320 130.0092 230.1437 15.23040233 40478 | 2025/10/08-04:19:59   81.9701    0.1237  230.1145   94.5477     6874.8135     6872.5311     6877.0960  97.417939  -0.109327  -0.000213   0.000255
1 62647U 25009AQ  25282.49454292  .00011399  00000-0  48629-3 0  9994 | 2 62647  97.4175   1.2335 0003398 126.0354 234.1198 15.23074572 40679 | 2025/10/09-11:52:08  195.0010    0.1237  234.0883   94.5456     6874.7102     6872.3742     6877.0462  97.394925   2.097104  -0.000206   0.000270
1 62647U 25009AQ  25284.20268292  .00011210  00000-0  47762-3 0  9997 | 2 62647  97.4164   2.9203 0003481 121.9922 238.1653 15.23119911 40933 | 2025/10/11-04:51:51   89.9259    0.1236  238.1314   94.5428     6874.5738     6872.1807     6876.9668  97.289892   4.963052  -0.000199   0.000285
1 62647U 25009AQ  25285.25381994  .00016183  00000-0  68703-3 0  9990 | 2 62647  97.4162   3.9583 0003487 120.0696 240.0887 15.23154515 41095 | 2025/10/12-06:05:30  108.3325    0.1237  240.0541   94.5406     6874.4697     6872.0725     6876.8668  97.183819   6.724682  -0.000195   0.000289
1 62647U 25009AQ  25286.96186657  .00013263  00000-0  56297-3 0  9999 | 2 62647  97.4166   5.6452 0003502 117.0826 243.0769 15.23206882 41358 | 2025/10/13-23:05:05    3.2247    0.1237  243.0411   94.5374     6874.3121     6871.9047     6876.7195  96.944140   9.582675  -0.000189   0.000295
1 62647U 25009AQ  25288.21002334  .00010981  00000-0  46637-3 0  9999 | 2 62647  97.4168   6.8782 0003538 113.6220 246.5389 15.23234669 41549 | 2025/10/15-05:02:26   92.5570    0.1237  246.5017   94.5357     6874.2285     6871.7964     6876.6606  96.715689  11.666549  -0.000180   0.000305
1 62647U 25009AQ  25289.45815830  .00010974  00000-0  46571-3 0  9998 | 2 62647  97.4172   8.1114 0003532 111.0954 249.0661 15.23260573 41733 | 2025/10/16-10:59:44  181.8820    0.1237  249.0283   94.5341     6874.1506     6871.7226     6876.5785  96.442600  13.745393  -0.000172   0.000308
1 62647U 25009AQ  25290.96902726  .00016850  00000-0  71208-3 0  9991 | 2 62647  97.4174   9.6040 0003478 108.0417 252.1199 15.23302064 41966 | 2025/10/17-23:15:23    5.7913    0.1237  252.0820   94.5315     6874.0257     6871.6350     6876.4165  96.052036  16.252883  -0.000161   0.000308
1 62647U 25009AQ  25292.21709826  .00023593  00000-0  99342-3 0  9998 | 2 62647  97.4175  10.8373 0003495 104.5201 255.6424 15.23355252 42159 | 2025/10/19-05:12:37   95.0928    0.1237  255.6036   94.5282     6873.8657     6871.4633     6876.2682  95.680064  18.316512  -0.000150   0.000316
1 62647U 25009AQ  25293.79355128  .00015458  00000-0  65161-3 0  9997 | 2 62647  97.4172  12.3953 0003422 101.2580 258.9042 15.23405734 42390 | 2025/10/20-19:02:42  302.6120    0.1237  258.8657   94.5250     6873.7139     6871.3617     6876.0661  95.146394  20.911109  -0.000137   0.000313
1 62647U 25009AQ  25294.91017481  .00016236  00000-0  68347-3 0  9993 | 2 62647  97.4171  13.4989 0003392  98.4572 261.7050 15.23440966 42560 | 2025/10/21-21:50:39  344.5935    0.1237  261.6665   94.5229     6873.6079     6871.2764     6875.9394  94.725894  22.739752  -0.000127   0.000315
1 62647U 25009AQ  25296.22381531  .00015834  00000-0  66584-3 0  9993 | 2 62647  97.4168  14.7971 0003398  95.5091 264.6533 15.23483824 42761 | 2025/10/23-05:22:17   97.5005    0.1236  264.6145   94.5202     6873.4790     6871.1434     6875.8146  94.186100  24.879941  -0.000118   0.000319
1 62647U 25009AQ  25297.80013653  .00014862  00000-0  62435-3 0  9996 | 2 62647  97.4161  16.3546 0003391  92.9233 267.2392 15.23532070 43000 | 2025/10/24-19:12:11  304.9722    0.1237  267.2004   94.5172     6873.3339     6871.0031     6875.6646  93.474391  27.430545  -0.000112   0.000320
1 62647U 25009AQ  25298.91666951  .00013444  00000-0  56468-3 0  9998 | 2 62647  97.4159  17.4581 0003326  90.5948 269.5670 15.23561209 43171 | 2025/10/25-22:00:00  346.9218    0.1237  269.5289   94.5154     6873.2462     6870.9602     6875.5323  92.928592  29.225576  -0.000103   0.000316
1 62647U 25009AQ  25300.16453561  .00011568  00000-0  48598-3 0  9990 | 2 62647  97.4155  18.6911 0003347  87.5105 272.6515 15.23590351 43365 | 2025/10/27-03:56:55   76.1503    0.1237  272.6132   94.5136     6873.1586     6870.8582     6875.4590  92.277813  31.218341  -0.000093   0.000321
1 62647U 25009AQ  25301.47805208  .00012883  00000-0  54029-3 0  9991 | 2 62647  97.4155  19.9891 0003375  84.6833 275.4789 15.23623197 43564 | 2025/10/28-11:28:23  189.0127    0.1237  275.4404   94.5116     6873.0598     6870.7402     6875.3795  91.546963  33.300648  -0.000085   0.000326
1 62647U 25009AQ  25302.85721321  .00013702  00000-0  57375-3 0  9995 | 2 62647  97.4155  21.3520 0003219  81.1255 279.0346 15.23659499 43773 | 2025/10/29-20:34:23  325.5093    0.1237  278.9982   94.5093     6872.9507     6870.7382     6875.1631  90.729014  35.468658  -0.000070   0.000314
1 62647U 25009AQ  25304.17066372  .00016655  00000-0  69559-3 0  9997 | 2 62647  97.4158  22.6502 0003158  77.9574 282.2017 15.23705549 43970 | 2025/10/31-04:05:45   78.3489    0.1237  282.1663   94.5064     6872.8122     6870.6417     6874.9826  89.902427  37.515219  -0.000058   0.000310
1 62647U 25009AQ  25305.48407749  .00011947  00000-0  49954-3 0  9995 | 2 62647  97.4161  23.9484 0003192  75.6995 284.4597 15.23741284 44173 | 2025/11/01-11:37:04  191.1741    0.1238  284.4243   94.5042     6872.7047     6870.5110     6874.8985  89.029683  39.542534  -0.000053   0.000315
1 62647U 25009AQ  25307.45415160  .00010652  00000-0  44526-3 0  9992 | 2 62647  97.4165  25.8958 0003030  70.8926 289.2639 15.23782893 44470 | 2025/11/03-10:53:58  180.3979    0.1237  289.2311   94.5017     6872.5796     6870.4972     6874.6620  87.634889  42.545278  -0.000036   0.000301
1 62647U 25009AQ  25308.50483092  .00012270  00000-0  51188-3 0  9998 | 2 62647  97.4167  26.9351 0003022  68.7702 291.3858 15.23813087 44635 | 2025/11/04-12:06:57  198.6392    0.1238  291.3536   94.4998     6872.4888     6870.4120     6874.5657  86.848955  44.127909  -0.000030   0.000301
1 62647U 25009AQ  25309.68682497  .00011430  00000-0  47672-3 0  9998 | 2 62647  97.4163  28.1036 0002952  65.7269 294.4276 15.23840481 44817 | 2025/11/05-16:29:01  264.1551    0.1237  294.3968   94.4981     6872.4065     6870.3777     6874.4352  85.930652  45.889634  -0.000020   0.000295
1 62647U 25009AQ  25311.19711458  .00013633  00000-0  56713-3 0  9990 | 2 62647  97.4156  29.5968 0002891  62.6693 297.4838 15.23885098 45043 | 2025/11/07-04:43:50   87.8562    0.1237  297.4544   94.4953     6872.2723     6870.2855     6874.2591  84.705058  48.112913  -0.000011   0.000289
1 62647U 25009AQ  25314.67716955  .00013658  00000-0  56641-3 0  9990 | 2 62647  97.4144  33.0364 0002680  53.6985 306.4500 15.23989365 45577 | 2025/11/10-16:15:07  260.6711    0.1238  306.4253   94.4888     6871.9589     6870.1172     6873.8005  81.664867  53.107577   0.000015   0.000268
1 62647U 25009AQ  25316.18731047  .00013849  00000-0  57353-3 0  9990 | 2 62647  97.4142  34.5295 0002512  49.6424 310.5032 15.24034784 45800 | 2025/11/12-04:29:43   84.3201    0.1237  310.4813   94.4860     6871.8223     6870.0961     6873.5485  80.253174  55.217338   0.000026   0.000250
1 62647U 25009AQ  25317.50041198  .00022586  00000-0  92996-3 0  9998 | 2 62647  97.4145  35.8280 0002418  47.1421 313.0019 15.24123490 46005 | 2025/11/13-12:00:35  197.0340    0.1237  312.9816   94.4805     6871.5557     6869.8941     6873.2172  78.981520  57.021964   0.000030   0.000240
1 62647U 25009AQ  25320.19211476  .00016276  00000-0  66960-3 0  9996 | 2 62647  97.4150  38.4906 0002242  38.0604 322.0792 15.24219919 46417 | 2025/11/16-04:36:38   86.0419    0.1238  322.0634   94.4746     6871.2659     6869.7253     6872.8064  76.247722  60.629755   0.000052   0.000218
1 62647U 25009AQ  25321.50508264  .00017482  00000-0  71793-3 0  9996 | 2 62647  97.4152  39.7895 0002128  32.1189 328.0178 15.24266057 46617 | 2025/11/17-12:07:19  198.7084    0.1238  328.0049   94.4717     6871.1272     6869.6650     6872.5894  74.853919  62.342698   0.000066   0.000202
1 62647U 25009AQ  25322.68672582  .00012114  00000-0  49832-3 0  9997 | 2 62647  97.4152  40.9585 0002066  30.8081 329.3278 15.24294064 46797 | 2025/11/18-16:28:53  264.0964    0.1238  329.3157   94.4700     6871.0430     6869.6235     6872.4626  73.566456  63.856853   0.000065   0.000196
1 62647U 25009AQ  25324.19657015  .00009997  00000-0  41143-3 0  9991 | 2 62647  97.4150  42.4521 0001977  27.3847 332.7495 15.24328761 47021 | 2025/11/20-04:43:03   87.6367    0.1238  332.7391   94.4678     6870.9388     6869.5804     6872.2972  71.876867  65.752553   0.000068   0.000186
1 62647U 25009AQ  25326.16588034  .00013525  00000-0  55451-3 0  9993 | 2 62647  97.4146  44.4004 0001788  21.6959 338.4354 15.24379838 47326 | 2025/11/22-03:58:52   76.5840    0.1238  338.4279   94.4646     6870.7853     6869.5568     6872.0138  69.599594  68.157910   0.000072   0.000163
1 62647U 25009AQ  25327.21615215  .00011588  00000-0  47527-3 0  9994 | 2 62647  97.4143  45.4393 0001699  20.6252 339.5054 15.24404929 47487 | 2025/11/23-05:11:15   94.6788    0.1238  339.4986   94.4631     6870.7099     6869.5426     6871.8772  68.352156  69.408419   0.000069   0.000155
1 62647U 25009AQ  25328.66024735  .00012390  00000-0  50739-3 0  9996 | 2 62647  97.4132  46.8673 0001529  14.6535 345.4747 15.24440266 47704 | 2025/11/24-15:50:45  254.5509    0.1238  345.4703   94.4609     6870.6037     6869.5532     6871.6542  66.600468  71.089445   0.000073   0.000134
1 62647U 25009AQ  25329.77611480  .00013926  00000-0  56927-3 0  9999 | 2 62647  97.4129  47.9710 0001439   8.7371 351.3891 15.24471267 47875 | 2025/11/25-18:37:36  296.2613    0.1237  351.3866   94.4590     6870.5106     6869.5219     6871.4992  65.218585  72.358892   0.000079   0.000120
1 62647U 25009AQ  25331.22014733  .00011272  00000-0  46102-3 0  9996 | 2 62647  97.4132  49.3999 0001365   6.6092 353.5163 15.24506622 48094 | 2025/11/27-05:17:00   96.1081    0.1237  353.5145   94.4568     6870.4044     6869.4665     6871.3422  63.394128  73.962937   0.000076   0.000113
1 62647U 25009AQ  25333.18923086  .00011151  00000-0  45551-3 0  9996 | 2 62647  97.4133  51.3480 0001260 353.7003   6.4218 15.24550844 48398 | 2025/11/29-04:32:29   84.9743    0.1237    6.4234   94.4540     6870.2715     6869.4058     6871.1371  60.843239  76.075300   0.000089   0.000089
1 62647U 25009AQ  25334.50191729  .00013814  00000-0  56279-3 0  9991 | 2 62647  97.4138  52.6470 0001169 347.4863  12.6345 15.24588663 48590 | 2025/11/30-12:02:45  197.5376    0.1237   12.6374   94.4517     6870.1579     6869.3548     6870.9610  59.103288  77.435456   0.000089   0.000075
1 62647U 25009AQ  25336.20836145  .00013446  00000-0  54708-3 0  9994 | 2 62647  97.4141  54.3360 0001001 340.6458  19.4741 15.24637279 48853 | 2025/12/02-05:00:02   91.8513    0.1237   19.4779   94.4487     6870.0118     6869.3241     6870.6995  56.795425  79.144087   0.000082   0.000057
1 62647U 25009AQ  25337.78349310  .00016687  00000-0  67702-3 0  9999 | 2 62647  97.4139  55.8949 0001015 325.4573  34.6598 15.24685057 49096 | 2025/12/03-18:48:13  298.8952    0.1237   34.6664   94.4457     6869.8683     6869.1710     6870.5656  54.621211  80.659725   0.000095   0.000037
1 62647U 25009AQ  25339.22730958  .00018691  00000-0  75644-3 0  9993 | 2 62647  97.4136  57.3238 0000908 315.5441  44.5723 15.24745232 49312 | 2025/12/05-05:27:19   98.6640    0.1237   44.5796   94.4420     6869.6876     6869.0638     6870.3113  52.592699  81.996448   0.000089   0.000020
1 62647U 25009AQ  25340.53982555  .00017085  00000-0  69087-3 0  9991 | 2 62647  97.4131  58.6229 0000797 310.6603  49.4565 15.24791024 49513 | 2025/12/06-12:57:20  211.1639    0.1237   49.4634   94.4392     6869.5500     6869.0025     6870.0975  50.719927  83.167308   0.000079   0.000013
1 62647U 25009AQ  25341.78668445  .00015547  00000-0  62841-3 0  9990 | 2 62647  97.4125  59.8568 0000836 298.7640  61.3514 15.24826133 49704 | 2025/12/07-18:52:49  300.0296    0.1238   61.3598   94.4370     6869.4446     6868.8703     6870.0189  48.916944  84.239704   0.000084  -0.000002
1 62647U 25009AQ  25342.96789613  .00011782  00000-0  47680-3 0  9993 | 2 62647  97.4122  61.0255 0000823 287.8100  72.3048 15.24850872 49885 | 2025/12/08-23:13:46    5.2619    0.1238   72.3138   94.4355     6869.3703     6868.8049     6869.9356  47.188449  85.219640   0.000081  -0.000016
1 62647U 25009AQ  25344.21470246  .00015615  00000-0  62992-3 0  9994 | 2 62647  97.4120  62.2596 0000734 278.9885  81.1270 15.24891854 50079 | 2025/12/10-05:09:10   94.1063    0.1238   81.1353   94.4329     6869.2472     6868.7430     6869.7514  45.341997  86.216014   0.000070  -0.000024
1 62647U 25009AQ  25345.46147121  .00021031  00000-0  84550-3 0  9998 | 2 62647  97.4118  63.4937 0000800 267.5626  92.5520 15.24943672 50260 | 2025/12/11-11:04:31  182.9388    0.1238   92.5612   94.4297     6869.0916     6868.5421     6869.6411  43.474517  87.172387   0.000070  -0.000039
1 62647U 25009AQ  25346.77381735  .00017173  00000-0  69033-3 0  9995 | 2 62647  97.4121  64.7929 0000900 258.2546 101.8591 15.24989527 50461 | 2025/12/12-18:34:17  295.3786    0.1238  101.8692   94.4269     6868.9539     6868.3357     6869.5721  41.486977  88.135963   0.000072  -0.000054
1 62647U 25009AQ  25347.95489344  .00014124  00000-0  56784-3 0  9993 | 2 62647  97.4123  65.9622 0000852 243.6211 116.4939 15.25029339 50644 | 2025/12/13-22:55:02    0.5595    0.1237  116.5026   94.4244     6868.8343     6868.2491     6869.4196  39.679853  88.964405   0.000054  -0.000066
1 62647U 25009AQ  25349.20155907  .00007739  00000-0  31245-3 0  9997 | 2 62647  97.4122  67.1965 0000899 233.7791 126.3364 15.25053972 50834 | 2025/12/15-04:50:14   89.3531    0.1238  126.3447   94.4229     6868.7604     6868.1429     6869.3779  37.754231  89.798412   0.000046  -0.000077
1 62647U 25009AQ  25350.77626812  .00010100  00000-0  40641-3 0  9995 | 2 62647  97.4123  68.7557 0001033 225.1050 135.0104 15.25085288 51074 | 2025/12/16-18:37:49  296.2414    0.1238  135.0188   94.4209     6868.6663     6867.9568     6869.3759  35.296891  90.792542   0.000042  -0.000094
1 62647U 25009AQ  25352.21972413  .00009462  00000-0  38062-3 0  9990 | 2 62647  97.4122  70.1850 0001145 214.5224 145.5939 15.25112421 51291 | 2025/12/18-05:16:24   95.8781    0.1237  145.6013   94.4193     6868.5849     6867.7984     6869.3713  33.021200  91.644624   0.000029  -0.000111
1 62647U 25009AQ  25353.46632663  .00007587  00000-0  30566-3 0  9995 | 2 62647  97.4120  71.4194 0001235 207.5373 152.5799 15.25130931 51480 | 2025/12/19-11:11:30  184.6484    0.1237  152.5864   94.4181     6868.5293     6867.6810     6869.3776  31.039202  92.334531   0.000019  -0.000122
1 62647U 25009AQ  25355.04096117  .00007255  00000-0  29223-3 0  9999 | 2 62647  97.4117  72.9786 0001370 199.7175 160.4010 15.25153463 51727 | 2025/12/21-00:58:59   31.5083    0.1238  160.4063   94.4167     6868.4617     6867.5207     6869.4026  28.515216  93.144628   0.000006  -0.000137
1 62647U 25009AQ  25356.22191648  .00012243  00000-0  49043-3 0  9990 | 2 62647  97.4113  74.1478 0001452 195.6682 164.4511 15.25183916 51900 | 2025/12/22-05:19:33   96.6463    0.1238  164.4556   94.4148     6868.3702     6867.3729     6869.3675  26.608556  93.706702  -0.000000  -0.000145
1 62647U 25009AQ  25358.19012305  .00012978  00000-0  51885-3 0  9992 | 2 62647  97.4107  76.0961 0001635 188.7797 171.3413 15.25235480 52200 | 2025/12/24-04:33:46   85.1906    0.1238  171.3441   94.4117     6868.2154     6867.0925     6869.3384  23.407218  94.556579  -0.000015  -0.000163
1 62647U 25009AQ  25359.69903881  .00012156  00000-0  48569-3 0  9999 | 2 62647  97.4105  77.5902 0001734 184.4219 175.7004 15.25271364 52431 | 2025/12/25-16:46:36  268.3921    0.1238  175.7019   94.4094     6868.1077     6866.9168     6869.2986  20.933748  95.134556  -0.000024  -0.000172
1 62647U 25009AQ  25360.94550443  .00013491  00000-0  53807-3 0  9995 | 2 62647  97.4103  78.8244 0001834 178.3492 181.7753 15.25306344 52624 | 2025/12/26-22:41:31  357.1119    0.1238  181.7746   94.4073     6868.0027     6866.7431     6869.2623  18.879732  95.563185  -0.000041  -0.000179
1 62647U 25009AQ  25362.19194004  .00016039  00000-0  63820-3 0  9998 | 2 62647  97.4103  80.0588 0001925 175.5064 184.6192 15.25346224 52816 | 2025/12/28-04:36:23   85.8218    0.1238  184.6174   94.4048     6867.8830     6866.5609     6869.2051  16.816663  95.947727  -0.000048  -0.000186
1 62647U 25009AQ  25364.22552326  .00018426  00000-0  73089-3 0  9999 | 2 62647  97.4103  82.0728 0002110 169.9581 190.1699 15.25420709 53122 | 2025/12/30-05:24:45   97.8997    0.1237  190.1656   94.4002     6867.6594     6866.2103     6869.1085  13.434318  96.479457  -0.000065  -0.000201
1 62647U 25009AQ  25365.73425120  .00015705  00000-0  62273-3 0  9997 | 2 62647  97.4108  83.5677 0002203 166.3073 193.8225 15.25466475 53356 | 2025/12/31-17:37:19  281.0322    0.1238  193.8165   94.3974     6867.5221     6866.0091     6869.0350  10.912848  96.797591  -0.000076  -0.000207
1 62647U 25009AQ  26001.78377431  .00015476  00000-0  61316-3 0  9993 | 2 62647  97.4108  84.6074 0002245 164.8655 195.2651 15.25497374 53513 | 2026/01/01-18:48:38  298.8544    0.1238  195.2583   94.3954     6867.4293     6865.8876     6868.9711   9.154641  96.979671  -0.000079  -0.000210
1 62647U 25009AQ  26003.16123949  .00016365  00000-0  64729-3 0  9999 | 2 62647  97.4108  85.9720 0002252 161.3228 198.8093 15.25541752 53723 | 2026/01/03-03:52:11   74.7335    0.1238  198.8010   94.3927     6867.2961     6865.7496     6868.8427   6.842521  97.170180  -0.000087  -0.000208
1 62647U 25009AQ  26004.21071080  .00011938  00000-0  47280-3 0  9998 | 2 62647  97.4103  87.0111 0002313 157.3357 202.7984 15.25569778 53880 | 2026/01/04-05:03:25   92.5365    0.1238  202.7881   94.3910     6867.2120     6865.6236     6868.8004   5.079216  97.277788  -0.000100  -0.000209
1 62647U 25009AQ  26005.45693503  .00012381  00000-0  48976-3 0  9991 | 2 62647  97.4096  88.2453 0002377 154.7667 205.3688 15.25600075 54076 | 2026/01/05-10:57:59  181.1699    0.1238  205.3571   94.3891     6867.1211     6865.4888     6868.7534   2.982731  97.363923  -0.000108  -0.000212
1 62647U 25009AQ  26006.76871972  .00011425  00000-0  45176-3 0  9991 | 2 62647  97.4090  89.5447 0002490 152.1201 208.0171 15.25635778 54276 | 2026/01/06-18:26:57  293.4043    0.1238  208.0037   94.3869     6867.0140     6865.3041     6868.7239   0.774051  97.405924  -0.000118  -0.000219
1 62647U 25009AQ  26008.21165309  .00011923  00000-0  47080-3 0  9992 | 2 62647  97.4082  90.9729 0002487 147.8304 212.3087 15.25669326 54491 | 2026/01/08-05:04:46   92.8524    0.1239  212.2935   94.3848     6866.9133     6865.2055     6868.6211  -1.653942  97.394157  -0.000129  -0.000213
1 62647U 25009AQ  26009.65455381  .00011260  00000-0  44439-3 0  9992 | 2 62647  97.4080  92.4022 0002524 145.5745 214.5657 15.25702799 54712 | 2026/01/09-15:42:33  252.2885    0.1238  214.5493   94.3827     6866.8129     6865.0797     6868.5461  -4.082761  97.322400  -0.000134  -0.000214
1 62647U 25009AQ  26010.96625786  .00010212  00000-0  40305-3 0  9990 | 2 62647  97.4085  93.7022 0002687 143.5101 216.6320 15.25726851 54912 | 2026/01/10-23:11:24    4.4929    0.1237  216.6136   94.3812     6866.7407     6864.8956     6868.5858  -6.289728  97.205222  -0.000146  -0.000226
1 62647U 25009AQ  26012.14677216  .00010127  00000-0  39942-3 0  9997 | 2 62647  97.4085  94.8722 0002816 138.9702 221.1748 15.25751829 55098 | 2026/01/12-03:31:21   69.4687    0.1238  221.1536   94.3797     6866.6658     6864.7321     6868.5994  -8.273243  97.056526  -0.000166  -0.000227
1 62647U 25009AQ  26013.19610504  .00006236  00000-0  24708-3 0  9990 | 2 62647  97.4085  95.9120 0002842 137.3437 222.8022 15.25764055 55255 | 2026/01/13-04:42:23   87.2221    0.1238  222.7801   94.3789     6866.6291     6864.6776     6868.5806 -10.033160  96.890410  -0.000170  -0.000228
1 62647U 25009AQ  26015.16357813  .00006104  00000-0  24171-3 0  9998 | 2 62647  97.4086  97.8613 0002955 133.2412 226.9073 15.25790530 55558 | 2026/01/15-03:55:33   75.4998    0.1238  226.8826   94.3773     6866.5496     6864.5206     6868.5787 -13.323108  96.493161  -0.000186  -0.000230
1 62647U 25009AQ  26016.21288273  .00007436  00000-0  29363-3 0  9995 | 2 62647  97.4086  98.9008 0002994 130.8570 229.2928 15.25807472 55716 | 2026/01/16-05:06:33   93.2429    0.1238  229.2668   94.3763     6866.4988     6864.4430     6868.5546 -15.071466  96.235577  -0.000193  -0.000229
1 62647U 25009AQ  26017.45891470  .00012001  00000-0  47150-3 0  9999 | 2 62647  97.4083 100.1354 0003071 128.1968 231.9548 15.25836374 55903 | 2026/01/17-11:00:50  181.8061    0.1239  231.9271   94.3745     6866.4121     6864.3034     6868.5208 -17.141422  95.888209  -0.000204  -0.000229
1 62647U 25009AQ  26018.96723891  .00010594  00000-0  41623-3 0  9991 | 2 62647  97.4080 101.6296 0003107 125.2758 234.8771 15.25867133 56139 | 2026/01/18-23:12:49    4.7940    0.1238  234.8480   94.3726     6866.3198     6864.1865     6868.4532 -19.635890  95.408334  -0.000212  -0.000227
1 62647U 25009AQ  26020.21321978  .00019211  00000-0  75075-3 0  9995 | 2 62647  97.4073 102.8639 0003144 122.2649 237.8894 15.25907381 56322 | 2026/01/20-05:07:02   93.3395    0.1238  237.8589   94.3701     6866.1991     6864.0404     6868.3578 -21.686363  94.962539  -0.000222  -0.000223
1 62647U 25009AQ  26021.78700517  .00017075  00000-0  66579-3 0  9993 | 2 62647  97.4061 104.4228 0003094 119.9996 240.1550 15.26007530 56563 | 2026/01/21-18:53:17  299.8943    0.1239  240.1243   94.3639     6865.8987     6863.7744     6868.0230 -24.261454  94.336261  -0.000221  -0.000217
1 62647U 25009AQ  26023.16393857  .00051389  00000-0  19809-2 0  9991 | 2 62647  97.4075 105.7889 0003183 114.3525 245.8046 15.26142826 56774 | 2026/01/23-03:56:04   75.5789    0.1238  245.7713   94.3555     6865.4929     6863.3076     6867.6782 -26.503980  93.732386  -0.000243  -0.000205
1 62647U 25009AQ  26024.21301873  .00045286  00000-0  17455-2 0  9999 | 2 62647  97.4017 106.8287 0004141 107.6804 252.4887 15.26176872 56937 | 2026/01/24-05:06:44   93.2300    0.1239  252.4435   94.3534     6865.3908     6862.5478     6868.2337 -28.198892  93.230433  -0.000341  -0.000235
1 62647U 25009AQ  26025.45877354  .00039148  00000-0  15104-2 0  9997 | 2 62647  97.4044 108.0577 0003579 109.7533 250.4091 15.26181203 57120 | 2026/01/25-11:00:38  181.7073    0.1238  250.3705   94.3531     6865.3778     6862.9207     6867.8349 -30.192890  92.606730  -0.000283  -0.000219
1 62647U 25009AQ  26028.80249839  .00014437  00000-0  55904-3 0  9997 | 2 62647  97.4057 111.3763 0003213 101.8945 258.2654 15.26274089 57635 | 2026/01/28-19:15:35  305.4278    0.1239  258.2294   94.3474     6865.0993     6862.8935     6867.3050 -35.503562  90.704837  -0.000269  -0.000176
1 62647U 25009AQ  26030.17925742  .00015031  00000-0  58104-3 0  9990 | 2 62647  97.4060 112.7408 0003166 100.6481 259.5114 15.26322147 57846 | 2026/01/30-04:18:07   81.0540    0.1238  259.4757   94.3444     6864.9551     6862.7817     6867.1286 -37.653544  89.833955  -0.000264  -0.000174
1 62647U 25009AQ  26031.22819397  .00010374  00000-0  40184-3 0  9999 | 2 62647  97.4059 113.7804 0003187  98.7808 261.3791 15.26345862 58008 | 2026/01/31-05:28:35   98.6650    0.1238  261.3430   94.3430     6864.8840     6862.6962     6867.0719 -39.277203  89.135911  -0.000269  -0.000172
1 62647U 25009AQ  26032.73601438  .00008693  00000-0  33698-3 0  9994 | 2 62647  97.4053 115.2749 0003175  95.5486 264.6114 15.26374956 58237 | 2026/02/01-17:39:51  281.4720    0.1238  264.5752   94.3412     6864.7968     6862.6172     6866.9764 -41.588339  88.080659  -0.000273  -0.000163
1 62647U 25009AQ  26034.17824700  .00012023  00000-0  46427-3 0  9999 | 2 62647  97.4050 116.7043 0003158  92.3340 267.8261 15.26411168 58451 | 2026/02/03-04:16:40   80.6677    0.1239  267.7899   94.3389     6864.6882     6862.5204     6866.8561 -43.772448  87.015555  -0.000276  -0.000153
1 62647U 25009AQ  26036.66929550  .00015466  00000-0  59499-3 0  9991 | 2 62647  97.4041 119.1735 0003006  85.8877 274.2705 15.26478148 58838 | 2026/02/05-16:03:47  257.4332    0.1238  274.2361   94.3348     6864.4874     6862.4240     6866.5509 -47.480200  85.048159  -0.000272  -0.000127
1 62647U 25009AQ  26037.78367824  .00012065  00000-0  46460-3 0  9991 | 2 62647  97.4034 120.2778 0002965  84.3174 275.8402 15.26502477 59001 | 2026/02/06-18:48:29  298.6057    0.1238  275.8064   94.3333     6864.4145     6862.3792     6866.4498 -49.110118  84.116697  -0.000270  -0.000123
1 62647U 25009AQ  26039.22579229  .00011551  00000-0  44452-3 0  9994 | 2 62647  97.4032 121.7073 0002994  81.9178 278.2400 15.26536447 59225 | 2026/02/08-05:25:08   97.7584    0.1238  278.2060   94.3312     6864.3126     6862.2575     6866.3678 -51.193179  82.865203  -0.000274  -0.000120
1 62647U 25009AQ  26040.47122951  .00011546  00000-0  44397-3 0  9991 | 2 62647  97.4031 122.9421 0002950  78.3689 281.7881 15.26563704 59412 | 2026/02/09-11:18:34  186.1094    0.1239  281.7550   94.3295     6864.2309     6862.2060     6866.2559 -52.966953  81.742680  -0.000275  -0.000107
1 62647U 25009AQ  26041.84774086  .00010000  00000-0  38467-3 0  9990 | 2 62647  97.4029 124.3066 0002877  76.0110 284.1449 15.26590181 59621 | 2026/02/10-20:20:44  321.6468    0.1239  284.1129   94.3279     6864.1516     6862.1768     6866.1264 -54.898340  80.458046  -0.000270  -0.000100
1 62647U 25009AQ  26043.22422165  .00013431  00000-0  51486-3 0  9999 | 2 62647  97.4032 125.6712 0002797  73.8372 286.3175 15.26629625 59832 | 2026/02/12-05:22:52   97.1733    0.1239  286.2867   94.3254     6864.0333     6862.1135     6865.9532 -56.799014  79.128094  -0.000264  -0.000093
1 62647U 25009AQ  26044.73175935  .00010091  00000-0  38729-3 0  9990 | 2 62647  97.4030 127.1656 0002725  71.6036 288.5499 15.26663053 60061 | 2026/02/13-17:33:44  279.8795    0.1239  288.5203   94.3234     6863.9331     6862.0627     6865.8036 -58.843176  77.619747  -0.000258  -0.000088
1 62647U 25009AQ  26046.17372479  .00009208  00000-0  35338-3 0  9993 | 2 62647  97.4031 128.5953 0002637  67.7409 292.4110 15.26689860 60281 | 2026/02/15-04:10:09   78.9803    0.1240  292.3831   94.3217     6863.8528     6862.0428     6865.6628 -60.761562  76.127501  -0.000253  -0.000074
1 62647U 25009AQ  26047.22240562  .00012521  00000-0  47891-3 0  9996 | 2 62647  97.4032 129.6348 0002633  64.5044 295.6467 15.26720563 60442 | 2026/02/16-05:20:15   96.5003    0.1239  295.6195   94.3198     6863.7608     6861.9535     6865.5680 -62.132709  75.012731  -0.000255  -0.000064
1 62647U 25009AQ  26048.46769252  .00011528  00000-0  44084-3 0  9992 | 2 62647  97.4029 130.8690 0002651  61.5211 298.6295 15.26748099 60632 | 2026/02/17-11:13:28  184.7973    0.1239  298.6028   94.3181     6863.6782     6861.8587     6865.4978 -63.733811  73.656814  -0.000259  -0.000057
1 62647U 25009AQ  26049.77849773  .00009987  00000-0  38206-3 0  9999 | 2 62647  97.4018 132.1690 0002462  58.7613 301.3867 15.26773511 60835 | 2026/02/18-18:41:02  296.6817    0.1239  301.3626   94.3165     6863.6021     6861.9123     6865.2919 -65.387745  72.191090  -0.000242  -0.000047
1 62647U 25009AQ  26051.22036030  .00008156  00000-0  31237-3 0  9990 | 2 62647  97.4013 133.5984 0002380  58.0341 302.1129 15.26797381 61057 | 2026/02/20-05:17:19   95.7450    0.1239  302.0898   94.3151     6863.5305     6861.8970     6865.1641 -67.167870  70.537156  -0.000233  -0.000048
1 62647U 25009AQ  26052.72773311  .00010213  00000-0  38997-3 0  9993 | 2 62647  97.4010 135.0926 0002273  54.8595 305.2857 15.26830426 61288 | 2026/02/21-17:27:56  278.3926    0.1239  305.2644   94.3130     6863.4315     6861.8715     6864.9916 -68.984128  68.761507  -0.000224  -0.000039
1 62647U 25009AQ  26054.03846150  .00015026  00000-0  57140-3 0  9999 | 2 62647  97.4005 136.3924 0002142  52.4369 307.7064 15.26869862 61487 | 2026/02/23-00:55:23   30.2488    0.1239  307.6870   94.3106     6863.3133     6861.8432     6864.7835 -70.525791  67.178644  -0.000212  -0.000033
1 62647U 25009AQ  26055.21809050  .00011200  00000-0  42647-3 0  9994 | 2 62647  97.4005 137.5619 0002078  51.9826 308.1600 15.26898214 61665 | 2026/02/24-05:14:03   94.9092    0.1239  308.1413   94.3088     6863.2284     6861.8022     6864.6545 -71.882230  65.725204  -0.000205  -0.000034
1 62647U 25009AQ  26056.52876622  .00009864  00000-0  37568-3 0  9997 | 2 62647  97.4004 138.8617 0001911  49.0721 311.0683 15.26924472 61865 | 2026/02/25-12:41:25  206.7467    0.1239  311.0518   94.3072     6863.1497     6861.8381     6864.4612 -73.354559  64.077661  -0.000189  -0.000026
1 62647U 25009AQ  26058.16707626  .00011538  00000-0  43839-3 0  9995 | 2 62647  97.4007 140.4862 0001758  43.6554 316.4823 15.26963271 62116 | 2026/02/27-04:00:35   76.5313    0.1238  316.4684   94.3048     6863.0334     6861.8269     6864.2399 -75.141850  61.972564  -0.000175  -0.000013
1 62647U 25009AQ  26059.21557059  .00011091  00000-0  42116-3 0  9996 | 2 62647  97.4010 141.5264 0001753  42.2545 317.8828 15.26990978 62279 | 2026/02/28-05:10:25   93.9829    0.1238  317.8693   94.3031     6862.9504     6861.7473     6864.1535 -76.254747  60.598419  -0.000175  -0.000012
1 62647U 25009AQ  26060.46063615  .00012454  00000-0  47210-3 0  9999 | 2 62647  97.4008 142.7608 0001658  39.0676 321.0683 15.27020681 62467 | 2026/03/01-11:03:18  182.2007    0.1240  321.0564   94.3013     6862.8614     6861.7235     6863.9993 -77.542343  58.941503  -0.000166  -0.000005
1 62647U 25009AQ  26061.77120210  .00013961  00000-0  52821-3 0  9997 | 2 62647  97.4003 144.0601 0001537  35.0982 325.0357 15.27058308 62663 | 2026/03/02-18:30:31  293.9989    0.1238  325.0256   94.2990     6862.7487     6861.6939     6863.8035 -78.858507  57.167773  -0.000154   0.000002
