# SPACE DATA - HISTORICAL TLEs
# ----------------------------
# NORAD_ID    : 58275
# OBJECT_NAME : FLOCK 4Q 12
# --------------------------------------------------------------------+-----------------------------------------------------------------------+----------------------------------------------------------------------------------------------------------------------------------------
#                  LINE 1                                             |                 LINE 2                                                |      DERIVED PARAMETERS
# --------------------------------------------------------------------+-----------------------------------------------------------------------+----------------------------------------------------------------------------------------------------------------------------------------
# NORAD  COSPAR     TLE_EPOCH      MEANMOT1 MEANMOT2   BSTAR  #  REV  |   NORAD    INC     RAAN     ECC    ARGPER  MEANANOM   MEANMOT     REV |  CAL_DATE              LONG     ARGLAT     PERIOD        SMA         PERIGEE        APOGEE      INC_X      INC_Y      ECC_X      ECC_Y
# ------ ------   -------------- ----------  -------  ------- -- ----     -----  ------- -------- ------- -------- -------- -----------  ----   ------------------- ---------  --------  --------  ------------  ------------   ----------- ---------- ----------  ---------  ---------   
1 62641U 25009AJ  25043.78261491  .00010065  00000-0  49755-3 0  9992 | 2 62641  97.4352 125.9782 0002156 207.5714 152.5406 15.18032327  4385 | 2025/02/12-18:46:57  298.7196    0.1234  152.5520   94.8596     6889.9250     6888.4395     6891.4105 -57.240977  78.848518   0.000193  -0.000096
1 62641U 25009AJ  25045.16685861  .00009815  00000-0  48494-3 0  9997 | 2 62641  97.4348 127.3383 0002213 202.2728 157.8410 15.18056170  4592 | 2025/02/14-04:00:16   77.0498    0.1234  157.8506   94.8582     6889.8529     6888.3281     6891.3776 -59.096156  77.467313   0.000191  -0.000112
1 62641U 25009AJ  25046.74881651  .00011226  00000-0  55346-3 0  9990 | 2 62641  97.4342 128.8923 0002350 194.4352 165.6815 15.18093625  4838 | 2025/02/15-17:58:17  286.5570    0.1234  165.6882   94.8558     6889.7395     6888.1204     6891.3586 -61.174887  75.835721   0.000188  -0.000140
1 62641U 25009AJ  25048.79212208  .00010952  00000-0  53936-3 0  9991 | 2 62641  97.4333 130.9003 0002506 188.9805 171.1385 15.18140596  5144 | 2025/02/17-19:00:39  302.1507    0.1234  171.1429   94.8529     6889.5974     6887.8709     6891.3240 -63.793944  73.644964   0.000192  -0.000161
1 62641U 25009AJ  25050.11034868  .00012344  00000-0  60680-3 0  9995 | 2 62641  97.4331 132.1958 0002586 186.7802 173.3398 15.18173908  5349 | 2025/02/19-02:38:54   56.7151    0.1234  173.3432   94.8508     6889.4966     6887.7150     6891.2783 -65.442528  72.183686   0.000195  -0.000170
1 62641U 25009AJ  25051.69218247  .00010457  00000-0  51408-3 0  9995 | 2 62641  97.4332 133.7502 0002711 179.3262 180.7976 15.18212619  5583 | 2025/02/20-16:36:44  266.1762    0.1234  180.7972   94.8484     6889.3795     6887.5118     6891.2472 -67.376576  70.381997   0.000185  -0.000198
1 62641U 25009AJ  25053.14216346  .00010177  00000-0  49996-3 0  9993 | 2 62641  97.4332 135.1752 0002839 174.0552 186.0716 15.18245014  5802 | 2025/02/22-03:24:42   68.1705    0.1234  186.0682   94.8464     6889.2815     6887.3257     6891.2374 -69.106024  68.684684   0.000180  -0.000220
1 62641U 25009AJ  25054.19667454  .00010688  00000-0  52445-3 0  9999 | 2 62641  97.4331 136.2117 0002906 172.0103 188.1177 15.18270599  5960 | 2025/02/23-04:43:12   87.7962    0.1233  188.1130   94.8448     6889.2041     6887.2021     6891.2061 -70.337106  67.423293   0.000180  -0.000228
1 62641U 25009AJ  25055.51478835  .00014139  00000-0  69171-3 0  9998 | 2 62641  97.4331 137.5071 0002970 169.4586 190.6711 15.18306113  6166 | 2025/02/24-12:21:17  202.3192    0.1234  190.6648   94.8425     6889.0967     6887.0506     6891.1428 -71.843373  65.815946   0.000179  -0.000237
1 62641U 25009AJ  25056.56925659  .00014448  00000-0  70615-3 0  9993 | 2 62641  97.4331 138.5432 0003032 166.0005 194.1313 15.18336540  6329 | 2025/02/25-13:39:43  221.9289    0.1233  194.1228   94.8406     6889.0047     6886.9159     6891.0934 -73.021735  64.506087   0.000172  -0.000250
1 62641U 25009AJ  25057.88731255  .00014618  00000-0  71362-3 0  9995 | 2 62641  97.4332 139.8385 0003114 161.0084 199.1267 15.18374624  6524 | 2025/02/26-21:17:43  336.4296    0.1234  199.1150   94.8383     6888.8895     6886.7443     6891.0347 -74.461333  62.838988   0.000160  -0.000267
1 62641U 25009AJ  25059.46893280  .00014973  00000-0  72977-3 0  9995 | 2 62641  97.4325 141.3929 0003233 156.7408 203.3973 15.18423766  6761 | 2025/02/28-11:15:15  185.8144    0.1234  203.3826   94.8352     6888.7408     6886.5137     6890.9680 -76.137960  60.795584   0.000152  -0.000285
1 62641U 25009AJ  25060.78691425  .00012105  00000-0  59030-3 0  9999 | 2 62641  97.4317 142.6883 0003264 154.6856 205.4538 15.18456832  6965 | 2025/03/01-18:53:09  300.2901    0.1233  205.4377   94.8331     6888.6408     6886.3924     6890.8893 -77.492275  59.058305   0.000150  -0.000290
1 62641U 25009AJ  25062.17076790  .00009377  00000-0  45781-3 0  9991 | 2 62641  97.4312 144.0484 0003312 151.0864 209.0554 15.18483538  7172 | 2025/03/03-04:05:54   78.4789    0.1234  209.0370   94.8315     6888.5601     6886.2786     6890.8416 -78.871846  57.202017   0.000141  -0.000300
1 62641U 25009AJ  25063.22511671  .00009000  00000-0  43932-3 0  9999 | 2 62641  97.4310 145.0847 0003428 147.8812 212.2632 15.18502718  7331 | 2025/03/04-05:24:10   98.0448    0.1234  212.2422   94.8303     6888.5021     6886.1407     6890.8634 -79.893329  55.766081   0.000134  -0.000316
1 62641U 25009AJ  25064.47713884  .00009598  00000-0  46794-3 0  9998 | 2 62641  97.4307 146.3154 0003529 144.1974 215.9497 15.18526199  7522 | 2025/03/05-11:27:04  188.7734    0.1234  215.9260   94.8288     6888.4310     6886.0001     6890.8620 -81.072400  54.037092   0.000124  -0.000331
1 62641U 25009AJ  25065.72914225  .00008339  00000-0  40680-3 0  9999 | 2 62641  97.4302 147.5460 0003610 141.3905 218.7588 15.18547275  7715 | 2025/03/06-17:29:57  279.4959    0.1234  218.7329   94.8275     6888.3673     6885.8806     6890.8540 -82.213799  52.283220   0.000117  -0.000341
1 62641U 25009AJ  25066.78344628  .00009398  00000-0  45770-3 0  9991 | 2 62641  97.4305 148.5822 0003621 139.7941 220.3562 15.18567627  7875 | 2025/03/07-18:48:09  299.0473    0.1234  220.3293   94.8262     6888.3058     6885.8115     6890.8000 -83.146107  50.788062   0.000114  -0.000344
1 62641U 25009AJ  25068.16719829  .00011818  00000-0  57400-3 0  9997 | 2 62641  97.4306 149.9425 0003693 136.4673 223.6853 15.18598698  8080 | 2025/03/09-04:00:45   77.1993    0.1234  223.6561   94.8243     6888.2118     6885.6680     6890.7556 -84.328443  48.799954   0.000104  -0.000354
1 62641U 25009AJ  25069.22146414  .00011002  00000-0  53427-3 0  9999 | 2 62641  97.4310 150.9789 0003779 133.0536 227.1015 15.18624735  8245 | 2025/03/10-05:18:54   96.7353    0.1234  227.0698   94.8226     6888.1331     6885.5300     6890.7361 -85.197672  47.266865   0.000092  -0.000367
1 62641U 25009AJ  25070.47338411  .00009085  00000-0  44156-3 0  9995 | 2 62641  97.4309 152.2093 0003838 130.2351 229.9220 15.18649110  8439 | 2025/03/11-11:21:40  187.4280    0.1235  229.8884   94.8211     6888.0594     6885.4157     6890.7030 -86.192895  45.426480   0.000083  -0.000375
1 62641U 25009AJ  25071.79116936  .00012333  00000-0  59742-3 0  9994 | 2 62641  97.4305 153.5045 0003833 127.6740 232.4842 15.18682947  8639 | 2025/03/12-18:59:17  301.8333    0.1234  232.4494   94.8190     6887.9571     6885.3169     6890.5972 -87.197316  43.466428   0.000074  -0.000376
1 62641U 25009AJ  25072.91126011  .00014369  00000-0  69457-3 0  9999 | 2 62641  97.4302 154.6056 0003759 125.2717 234.8869 15.18718684  8807 | 2025/03/13-21:52:12  345.0684    0.1234  234.8517   94.8168     6887.8490     6885.2599     6890.4381 -88.016222  41.782633   0.000064  -0.000370
1 62641U 25009AJ  25074.16309445  .00015740  00000-0  75946-3 0  9996 | 2 62641  97.4302 155.8361 0003818 122.1584 238.0021 15.18761845  8996 | 2025/03/15-03:54:51   75.7303    0.1234  237.9650   94.8141     6887.7185     6885.0888     6890.3482 -88.893192  39.882883   0.000053  -0.000378
1 62641U 25009AJ  25075.81019464  .00013707  00000-0  66103-3 0  9994 | 2 62641  97.4296 157.4553 0003870 117.2718 242.8911 15.18811826  9246 | 2025/03/16-19:26:40  308.6882    0.1234  242.8516   94.8110     6887.5674     6884.9019     6890.2329 -89.984098  37.354907   0.000032  -0.000386
1 62641U 25009AJ  25077.19371399  .00016814  00000-0  80865-3 0  9998 | 2 62641  97.4286 158.8152 0003787 114.1600 246.0030 15.18860586  9456 | 2025/03/18-04:38:56   86.7588    0.1234  245.9634   94.8079     6887.4200     6884.8117     6890.0282 -90.844346  35.208477   0.000020  -0.000378
1 62641U 25009AJ  25079.17009146  .00019514  00000-0  93560-3 0  9992 | 2 62641  97.4281 160.7583 0003732 110.3329 249.8306 15.18936381  9754 | 2025/03/20-04:04:55   78.2591    0.1234  249.7905   94.8032     6887.1909     6884.6206     6889.7612 -91.985452  32.107808   0.000007  -0.000373
1 62641U 25009AJ  25080.22412054  .00015426  00000-0  73997-3 0  9996 | 2 62641  97.4281 161.7945 0003769 107.7000 252.4646 15.18970453  9916 | 2025/03/21-05:22:44   97.7112    0.1234  252.4234   94.8011     6887.0879     6884.4921     6889.6836 -92.551051  30.439082  -0.000003  -0.000377
1 62641U 25009AJ  25081.67336860  .00020325  00000-0  97168-3 0  9996 | 2 62641  97.4281 163.2196 0003766 103.1353 257.0302 15.19027928 10136 | 2025/03/22-16:09:39  259.4430    0.1235  256.9882   94.7975     6886.9141     6884.3205     6889.5078 -93.279447  28.127911  -0.000024  -0.000376
1 62641U 25009AJ  25082.92494238  .00017428  00000-0  83276-3 0  9994 | 2 62641  97.4282 164.4508 0003707 100.9617 259.2035 15.19078942 10320 | 2025/03/23-22:11:55  350.0122    0.1235  259.1618   94.7943     6886.7600     6884.2070     6889.3129 -93.862388  26.117163  -0.000030  -0.000370
1 62641U 25009AJ  25084.70343347  .00017364  00000-0  82823-3 0  9992 | 2 62641  97.4284 166.1999 0003562  96.7550 263.4090 15.19141368 10592 | 2025/03/25-16:52:56  270.2741    0.1235  263.3685   94.7904     6886.5713     6884.1183     6889.0243 -94.616019  23.240098  -0.000044  -0.000354
1 62641U 25009AJ  25086.48184913  .00018605  00000-0  88538-3 0  9999 | 2 62641  97.4287 167.9487 0003665  92.1485 268.0169 15.19207363 10863 | 2025/03/27-11:33:51  190.5064    0.1234  267.9749   94.7863     6886.3719     6883.8480     6888.8957 -95.281474  20.341885  -0.000063  -0.000361
1 62641U 25009AJ  25087.93087544  .00014030  00000-0  66804-3 0  9992 | 2 62641  97.4277 169.3734 0003543  89.3022 270.8619 15.19250936 11083 | 2025/03/28-22:20:27  352.1607    0.1235  270.8213   94.7836     6886.2402     6883.8004     6888.6800 -95.756800  17.966415  -0.000070  -0.000347
1 62641U 25009AJ  25089.18227660  .00012203  00000-0  58107-3 0  9993 | 2 62641  97.4275 170.6044 0003394  86.0429 274.1194 15.19282562 11275 | 2025/03/30-04:22:28   82.6694    0.1235  274.0806   94.7816     6886.1446     6883.8075     6888.4818 -96.120481  15.905059  -0.000078  -0.000330
1 62641U 25009AJ  25090.76296089  .00011871  00000-0  56479-3 0  9990 | 2 62641  97.4271 172.1591 0003349  82.4811 277.6804 15.19318143 11518 | 2025/03/31-18:18:39  291.7198    0.1235  277.6424   94.7794     6886.0371     6883.7310     6888.3432 -96.516226  13.291275  -0.000089  -0.000323
1 62641U 25009AJ  25091.94844784  .00011802  00000-0  56106-3 0  9993 | 2 62641  97.4266 173.3254 0003412  79.2212 280.9407 15.19347272 11691 | 2025/04/01-22:45:45  358.4969    0.1235  280.9023   94.7775     6885.9491     6883.5996     6888.2986 -96.766269  11.323937  -0.000102  -0.000325
1 62641U 25009AJ  25093.19976756  .00015151  00000-0  71827-3 0  9995 | 2 62641  97.4263 174.5565 0003351  76.6673 283.4935 15.19385556 11882 | 2025/04/03-04:47:39   88.9753    0.1235  283.4562   94.7752     6885.8334     6883.5260     6888.1409 -96.986930   9.242262  -0.000108  -0.000317
1 62641U 25009AJ  25094.78034083  .00015996  00000-0  75706-3 0  9996 | 2 62641  97.4265 176.1110 0003186  72.6370 287.5213 15.19430463 12124 | 2025/04/04-18:43:41  297.9876    0.1235  287.4865   94.7724     6885.6977     6883.5040     6887.8915 -97.202158   6.607830  -0.000115  -0.000297
1 62641U 25009AJ  25096.49256965  .00015838  00000-0  74845-3 0  9999 | 2 62641  97.4267 177.7960 0003176  68.8016 291.3558 15.19485826 12385 | 2025/04/06-11:49:18  194.3935    0.1235  291.3219   94.7689     6885.5305     6883.3436     6887.7173 -97.354627   3.746794  -0.000126  -0.000291
1 62641U 25009AJ  25097.74377791  .00011705  00000-0  55377-3 0  9997 | 2 62641  97.4269 179.0268 0003107  65.6869 294.4690 15.19516791 12576 | 2025/04/07-17:51:02  284.8325    0.1235  294.4366   94.7670     6885.4369     6883.2976     6887.5763 -97.412846   1.654769  -0.000133  -0.000281
1 62641U 25009AJ  25099.19251209  .00014591  00000-0  68847-3 0  9995 | 2 62641  97.4270 180.4522 0002978  62.2336 297.9200 15.19557394 12797 | 2025/04/09-04:37:13   86.3816    0.1234  297.8898   94.7644     6885.3143     6883.2638     6887.3647 -97.423966  -0.768923  -0.000137  -0.000265
1 62641U 25009AJ  25100.77290439  .00013712  00000-0  64641-3 0  9992 | 2 62641  97.4270 182.0071 0002831  57.5871 302.5638 15.19602283 13037 | 2025/04/10-18:32:58  295.3283    0.1236  302.5365   94.7616     6885.1787     6883.2295     6887.1279 -97.367228  -3.412219  -0.000143  -0.000244
1 62641U 25009AJ  25102.22155395  .00015175  00000-0  71399-3 0  9998 | 2 62641  97.4269 183.4323 0002804  54.5474 305.6022 15.19648049 13251 | 2025/04/12-05:19:02   96.8461    0.1235  305.5761   94.7588     6885.0405     6883.1099     6886.9710 -97.252139  -5.832862  -0.000149  -0.000238
1 62641U 25009AJ  25103.47262736  .00015935  00000-0  74871-3 0  9996 | 2 62641  97.4266 184.6632 0002733  51.3587 308.7892 15.19685473 13447 | 2025/04/13-11:20:35  187.2365    0.1235  308.7648   94.7564     6884.9274     6883.0458     6886.8091 -97.104099  -7.920624  -0.000153  -0.000227
1 62641U 25009AJ  25104.72367564  .00012935  00000-0  60811-3 0  9996 | 2 62641  97.4262 185.8942 0002576  47.4714 312.6738 15.19712822 13636 | 2025/04/14-17:22:05  277.6187    0.1235  312.6521   94.7547     6884.8448     6883.0713     6886.6184 -96.911129 -10.004876  -0.000154  -0.000207
1 62641U 25009AJ  25105.77716778  .00013611  00000-0  63911-3 0  9993 | 2 62641  97.4259 186.9309 0002442  43.2436 316.8990 15.19742150 13798 | 2025/04/15-18:39:07  296.8801    0.1235  316.8799   94.7529     6884.7562     6883.0750     6886.4375 -96.713951 -11.756600  -0.000156  -0.000188
1 62641U 25009AJ  25107.22568288  .00016593  00000-0  77704-3 0  9993 | 2 62641  97.4256 188.3564 0002428  41.2397 318.9021 15.19791050 14019 | 2025/04/17-05:24:59   98.3486    0.1235  318.8838   94.7499     6884.6086     6882.9370     6886.2801 -96.391253 -14.158881  -0.000157  -0.000185
1 62641U 25009AJ  25109.20087446  .00010390  00000-0  48760-3 0  9994 | 2 62641  97.4251 190.3005 0002284  35.1271 325.0114 15.19831204 14311 | 2025/04/19-04:49:15   89.4236    0.1235  324.9964   94.7474     6884.4873     6882.9149     6886.0597 -95.854946 -17.420660  -0.000160  -0.000163
1 62641U 25009AJ  25110.64931499  .00010645  00000-0  49904-3 0  9994 | 2 62641  97.4248 191.7263 0002136  28.4578 331.6773 15.19860526 14536 | 2025/04/20-15:35:00  250.8674    0.1235  331.6657   94.7455     6884.3988     6882.9283     6885.8693 -95.391508 -19.800301  -0.000163  -0.000138
1 62641U 25009AJ  25112.16355984  .00012729  00000-0  59528-3 0  9990 | 2 62641  97.4251 193.2166 0002011  24.6386 335.4945 15.19898695 14762 | 2025/04/22-03:55:31   75.9998    0.1235  335.4849   94.7432     6884.2835     6882.8991     6885.6679 -94.844572 -22.274586  -0.000159  -0.000123
1 62641U 25009AJ  25113.67776613  .00010859  00000-0  50792-3 0  9999 | 2 62641  97.4251 194.7069 0001897  22.5814 337.5504 15.19934891 14992 | 2025/04/23-16:15:58  261.1175    0.1235  337.5421   94.7409     6884.1742     6882.8683     6885.4801 -94.233180 -24.733742  -0.000151  -0.000115
1 62641U 25009AJ  25115.19193255  .00011729  00000-0  54763-3 0  9992 | 2 62641  97.4259 196.1973 0001740  13.9608 346.1675 15.19975876 15222 | 2025/04/25-04:36:22   86.2230    0.1235  346.1627   94.7383     6884.0505     6882.8526     6885.2483 -93.558757 -27.176551  -0.000150  -0.000087
1 62641U 25009AJ  25116.77189220  .00013050  00000-0  60811-3 0  9994 | 2 62641  97.4261 197.7525 0001594   5.8255 354.2999 15.20017237 15465 | 2025/04/26-18:31:31  295.0134    0.1236  354.2981   94.7358     6883.9256     6882.8283     6885.0229 -92.786912 -29.705788  -0.000146  -0.000064
1 62641U 25009AJ  25118.68094973  .00011190  00000-0  52129-3 0  9992 | 2 62641  97.4256 199.6317 0001409   0.7492 359.3745 15.20066797 15753 | 2025/04/28-16:20:34  262.2783    0.1235  359.3743   94.7327     6883.7759     6882.8060     6884.7459 -91.762417 -32.732345  -0.000132  -0.000049
1 62641U 25009AJ  25121.84065535  .00011107  00000-0  51645-3 0  9996 | 2 62641  97.4248 202.7426 0001201 341.0057  19.1134 15.20133050 16233 | 2025/05/01-20:10:32  319.7804    0.1236   19.1179   94.7286     6883.5759     6882.7492     6884.4026 -89.850110 -37.663634  -0.000120  -0.000008
1 62641U 25009AJ  25122.89385494  .00014819  00000-0  68700-3 0  9994 | 2 62641  97.4248 203.7795 0001128 336.8882  23.2302 15.20166965 16390 | 2025/05/02-21:27:09  338.9341    0.1235   23.2353   94.7264     6883.4735     6882.6971     6884.2500 -89.153824 -39.283424  -0.000113  -0.000001
1 62641U 25009AJ  25124.21032478  .00010030  00000-0  46587-3 0  9993 | 2 62641  97.4248 205.0761 0001018 329.4948  30.6228 15.20199148 16597 | 2025/05/04-05:02:52   92.8650    0.1235   30.6287   94.7244     6883.3764     6882.6757     6884.0771 -88.242091 -41.290739  -0.000101   0.000010
1 62641U 25009AJ  25125.79005989  .00010309  00000-0  47832-3 0  9997 | 2 62641  97.4246 206.6317 0000970 314.4967  45.6189 15.20229015 16836 | 2025/05/05-18:57:41  301.5731    0.1235   45.6268   94.7226     6883.2862     6882.6186     6883.9539 -87.088470 -43.670940  -0.000092   0.000031
1 62641U 25009AJ  25127.76468321  .00008225  00000-0  38194-3 0  9994 | 2 62641  97.4252 208.5757 0000895 296.2500  63.8643 15.20264919 17131 | 2025/05/07-18:21:08  292.4411    0.1235   63.8735   94.7203     6883.1779     6882.5618     6883.7939 -85.557439 -46.600368  -0.000073   0.000052
1 62641U 25009AJ  25129.21270890  .00009836  00000-0  45566-3 0  9998 | 2 62641  97.4255 210.0016 0000932 285.2949  74.8183 15.20295300 17350 | 2025/05/09-05:06:18   93.7328    0.1235   74.8286   94.7184     6883.0862     6882.4447     6883.7277 -84.371598 -48.715106  -0.000066   0.000066
1 62641U 25009AJ  25130.46325700  .00010030  00000-0  46426-3 0  9992 | 2 62641  97.4254 211.2331 0000953 272.2357  87.8769 15.20317826 17547 | 2025/05/10-11:07:05  183.9318    0.1235   87.8878   94.7170     6883.0182     6882.3622     6883.6741 -83.305035 -50.517123  -0.000053   0.000079
1 62641U 25009AJ  25131.77960548  .00007934  00000-0  36778-3 0  9990 | 2 62641  97.4252 212.5294 0001001 261.1497  98.9624 15.20336426 17746 | 2025/05/11-18:42:37  297.8189    0.1234   98.9737   94.7159     6882.9620     6882.2730     6883.6510 -82.140709 -52.388677  -0.000040   0.000092
1 62641U 25009AJ  25133.49083223  .00006727  00000-0  31214-3 0  9996 | 2 62641  97.4252 214.2147 0001040 247.3589 112.7536 15.20360785 18005 | 2025/05/13-11:46:47  193.8615    0.1235  112.7646   94.7144     6882.8885     6882.1727     6883.6043 -80.564438 -54.781757  -0.000021   0.000102
1 62641U 25009AJ  25134.87295749  .00006531  00000-0  30297-3 0  9990 | 2 62641  97.4252 215.5761 0001155 237.8367 122.2756 15.20379397 18218 | 2025/05/14-20:57:03  331.4277    0.1235  122.2868   94.7132     6882.8323     6882.0374     6883.6273 -79.240154 -56.680398  -0.000007   0.000115
1 62641U 25009AJ  25136.25506692  .00006370  00000-0  29544-3 0  9990 | 2 62641  97.4250 216.9374 0001249 228.6924 131.4204 15.20397027 18425 | 2025/05/16-06:07:17  108.9876    0.1235  131.4311   94.7121     6882.7791     6881.9195     6883.6388 -77.871078 -58.546784   0.000010   0.000125
1 62641U 25009AJ  25137.70297124  .00010591  00000-0  48851-3 0  9990 | 2 62641  97.4247 218.3635 0001362 220.7945 139.3188 15.20424678 18644 | 2025/05/17-16:52:16  270.2336    0.1235  139.3290   94.7104     6882.6957     6881.7583     6883.6331 -76.389635 -60.466485   0.000026   0.000134
1 62641U 25009AJ  25138.75597481  .00009831  00000-0  45343-3 0  9993 | 2 62641  97.4247 219.4007 0001467 215.6373 144.4764 15.20444780 18804 | 2025/05/18-18:08:36  289.3152    0.1235  144.4862   94.7091     6882.6350     6881.6253     6883.6447 -75.282581 -61.839350   0.000038   0.000142
1 62641U 25009AJ  25140.46708465  .00005783  00000-0  26800-3 0  9999 | 2 62641  97.4243 221.0861 0001605 206.4766 153.6388 15.20463052 19061 | 2025/05/20-11:12:36  185.3142    0.1236  153.6470   94.7080     6882.5799     6881.4752     6883.6845 -73.430921 -64.026511   0.000061   0.000148
1 62641U 25009AJ  25142.17817215  .00006296  00000-0  29134-3 0  9996 | 2 62641  97.4248 222.7715 0001783 200.5866 159.5297 15.20484044 19322 | 2025/05/22-04:16:34   81.3059    0.1234  159.5368   94.7067     6882.5165     6881.2894     6883.7437 -71.516403 -66.158868   0.000080   0.000159
1 62641U 25009AJ  25143.49437696  .00005845  00000-0  27055-3 0  9992 | 2 62641  97.4251 224.0680 0001905 195.3308 164.7869 15.20499490 19526 | 2025/05/23-11:51:54  195.1391    0.1234  164.7926   94.7057     6882.4699     6881.1588     6883.7810 -70.001382 -67.760288   0.000097   0.000164
1 62641U 25009AJ  25144.54733066  .00005491  00000-0  25431-3 0  9992 | 2 62641  97.4255 225.1051 0001993 191.9080 168.2108 15.20511991 19683 | 2025/05/24-13:08:09  214.2021    0.1235  168.2155   94.7049     6882.4322     6881.0605     6883.8039 -68.763748 -69.016484   0.000109   0.000167
1 62641U 25009AJ  25145.66608471  .00005604  00000-0  25936-3 0  9993 | 2 62641  97.4256 226.2072 0002102 188.1254 171.9947 15.20525515 19851 | 2025/05/25-15:59:09  256.9528    0.1235  171.9981   94.7041     6882.3914     6880.9447     6883.8381 -67.423627 -70.326397   0.000123   0.000171
1 62641U 25009AJ  25147.17967864  .00005924  00000-0  27384-3 0  9999 | 2 62641  97.4255 227.6982 0002239 183.9909 176.1308 15.20543157 20083 | 2025/05/27-04:18:44   81.8459    0.1234  176.1325   94.7030     6882.3382     6880.7972     6883.8791 -65.570844 -72.056869   0.000139   0.000176
1 62641U 25009AJ  25148.29840835  .00007695  00000-0  35448-3 0  9998 | 2 62641  97.4253 228.8005 0002327 180.5037 179.6196 15.20561539 20259 | 2025/05/28-07:09:42  124.5874    0.1235  179.6198   94.7019     6882.2827     6880.6812     6883.8842 -64.172379 -73.304808   0.000152   0.000176
1 62641U 25009AJ  25149.81196193  .00008931  00000-0  41055-3 0  9993 | 2 62641  97.4250 230.2915 0002465 174.9478 185.1782 15.20588816 20487 | 2025/05/29-19:29:13  309.4648    0.1235  185.1757   94.7002     6882.2004     6880.5039     6883.8968 -62.243074 -74.949519   0.000174   0.000175
1 62641U 25009AJ  25150.86485201  .00007600  00000-0  34972-3 0  9993 | 2 62641  97.4248 231.3290 0002594 172.8801 187.2472 15.20606248 20649 | 2025/05/30-20:45:23  328.5042    0.1236  187.2435   94.6991     6882.1478     6880.3626     6883.9330 -60.875649 -76.064098   0.000186   0.000181
1 62641U 25009AJ  25152.18095044  .00007869  00000-0  36174-3 0  9995 | 2 62641  97.4246 232.6257 0002714 170.9756 189.1529 15.20625607 20842 | 2025/06/01-04:20:34   82.2989    0.1236  189.1480   94.6979     6882.0894     6880.2216     6883.9572 -59.138627 -77.422061   0.000197   0.000187
1 62641U 25009AJ  25154.48406000  .00010934  00000-0  50039-3 0  9991 | 2 62641  97.4248 234.8949 0002885 163.6923 196.4405 15.20683256 21197 | 2025/06/03-11:37:02  191.4149    0.1234  196.4311   94.6943     6881.9154     6879.9300     6883.9009 -56.026866 -79.703086   0.000226   0.000180
1 62641U 25009AJ  25155.73429300  .00006223  00000-0  28619-3 0  9993 | 2 62641  97.4249 236.1271 0003005 159.7511 200.3844 15.20697093 21382 | 2025/06/04-17:37:22  281.4962    0.1235  200.3724   94.6934     6881.8737     6879.8057     6883.9417 -54.300008 -80.889556   0.000243   0.000176
1 62641U 25009AJ  25156.85291039  .00005989  00000-0  27544-3 0  9997 | 2 62641  97.4251 237.2292 0003077 158.1928 201.9439 15.20711470 21556 | 2025/06/05-20:28:11  324.1977    0.1235  201.9307   94.6925     6881.8303     6879.7128     6883.9479 -52.734234 -81.919171   0.000251   0.000178
1 62641U 25009AJ  25157.97151967  .00005659  00000-0  26037-3 0  9996 | 2 62641  97.4253 238.3313 0003138 155.2250 204.9137 15.20723241 21724 | 2025/06/06-23:18:59    6.8955    0.1236  204.8986   94.6918     6881.7948     6879.6353     6883.9543 -51.148944 -82.918482   0.000262   0.000173
1 62641U 25009AJ  25159.48491412  .00006724  00000-0  30854-3 0  9992 | 2 62641  97.4255 239.8224 0003228 151.3142 208.8271 15.20744856 21952 | 2025/06/08-11:38:16  191.7155    0.1235  208.8093   94.6904     6881.7296     6879.5082     6883.9510 -48.974047 -84.221558   0.000276   0.000167
1 62641U 25009AJ  25160.73509489  .00005958  00000-0  27362-3 0  9994 | 2 62641  97.4257 241.0544 0003323 148.8839 211.2594 15.20760035 22149 | 2025/06/09-17:38:32  281.7788    0.1235  211.2396   94.6895     6881.6838     6879.3970     6883.9706 -47.151992 -85.255245   0.000288   0.000166
1 62641U 25009AJ  25161.78787089  .00004577  00000-0  21092-3 0  9994 | 2 62641  97.4256 242.0918 0003422 145.9787 214.1668 15.20768630 22305 | 2025/06/10-18:54:32  300.7762    0.1235  214.1448   94.6890     6881.6579     6879.3030     6884.0128 -45.600665 -86.094871   0.000302   0.000161
1 62641U 25009AJ  25163.76180008  .00007404  00000-0  33887-3 0  9999 | 2 62641  97.4253 244.0371 0003521 141.5718 218.5769 15.20798469 22609 | 2025/06/12-18:16:59  291.3878    0.1235  218.5517   94.6871     6881.5679     6879.1449     6883.9909 -42.651732 -87.592916   0.000318   0.000152
1 62641U 25009AJ  25165.20931846  .00008060  00000-0  36826-3 0  9999 | 2 62641  97.4249 245.4637 0003620 138.1378 222.0135 15.20826895 22824 | 2025/06/14-05:01:25   92.4920    0.1235  221.9857   94.6853     6881.4821     6878.9910     6883.9732 -40.457606 -88.627272   0.000332   0.000145
1 62641U 25009AJ  25166.78840551  .00004981  00000-0  22872-3 0  9999 | 2 62641  97.4246 247.0202 0003696 134.8462 225.3074 15.20845737 23068 | 2025/06/15-18:55:18  300.9610    0.1235  225.2773   94.6842     6881.4253     6878.8819     6883.9686 -38.035204 -89.693232   0.000343   0.000138
1 62641U 25009AJ  25168.82803151  .00006247  00000-0  28583-3 0  9993 | 2 62641  97.4245 249.0304 0003772 130.3264 229.8302 15.20871696 23378 | 2025/06/17-19:52:21  315.2235    0.1236  229.7972   94.6825     6881.3470     6878.7513     6883.9426 -34.865555 -90.972118   0.000356   0.000125
1 62641U 25009AJ  25170.14390145  .00005288  00000-0  24232-3 0  9996 | 2 62641  97.4248 250.3272 0003847 127.1762 232.9825 15.20886210 23575 | 2025/06/19-03:27:13   68.9347    0.1235  232.9473   94.6816     6881.3032     6878.6560     6883.9504 -32.797891 -91.738160   0.000367   0.000116
1 62641U 25009AJ  25172.11768647  .00004464  00000-0  20498-3 0  9996 | 2 62641  97.4251 252.2726 0003924 122.8312 237.3302 15.20903644 23876 | 2025/06/21-02:49:28   59.4947    0.1236  237.2924   94.6806     6881.2506     6878.5504     6883.9508 -29.664833 -92.798964   0.000379   0.000102
1 62641U 25009AJ  25173.17036201  .00004865  00000-0  22304-3 0  9990 | 2 62641  97.4252 253.3100 0003958 120.6841 239.4785 15.20914246 24032 | 2025/06/22-04:05:19   78.4569    0.1235  239.4394   94.6799     6881.2186     6878.4950     6883.9422 -27.979869 -93.320933   0.000384   0.000096
1 62641U 25009AJ  25174.22303068  .00004466  00000-0  20493-3 0  9999 | 2 62641  97.4254 254.3475 0003973 118.7296 241.4339 15.20923314 24190 | 2025/06/23-05:21:09   97.4167    0.1235  241.3939   94.6793     6881.1913     6878.4574     6883.9252 -26.285592 -93.812452   0.000387   0.000090
1 62641U 25009AJ  25175.73623082  .00004211  00000-0  19334-3 0  9997 | 2 62641  97.4256 255.8392 0004025 115.0455 245.1199 15.20936434 24420 | 2025/06/24-17:40:10  282.1667    0.1236  245.0781   94.6785     6881.1517     6878.3820     6883.9214 -23.834595 -94.465124   0.000395   0.000076
1 62641U 25009AJ  25177.70995094  .00005075  00000-0  23225-3 0  9994 | 2 62641  97.4253 257.7847 0004029 111.6899 248.4766 15.20954849 24720 | 2025/06/26-17:02:19  272.7047    0.1236  248.4337   94.6774     6881.0962     6878.3238     6883.8686 -20.613809 -95.219536   0.000397   0.000066
1 62641U 25009AJ  25178.76259117  .00005120  00000-0  23422-3 0  9990 | 2 62641  97.4250 258.8225 0004067 108.8700 251.2976 15.20965414 24882 | 2025/06/27-18:18:07  291.6538    0.1235  251.2535   94.6767     6881.0643     6878.2658     6883.8628 -18.885750 -95.576980   0.000403   0.000054
1 62641U 25009AJ  25180.47311583  .00003775  00000-0  17343-3 0  9996 | 2 62641  97.4247 260.5088 0004070 105.3281 254.8404 15.20979888 25140 | 2025/06/29-11:21:17  187.4415    0.1235  254.7954   94.6758     6881.0206     6878.2201     6883.8212 -16.064955 -96.091047   0.000405   0.000041
1 62641U 25009AJ  25181.78889149  .00004779  00000-0  21863-3 0  9996 | 2 62641  97.4246 261.8059 0004057 102.7923 257.3766 15.20994568 25343 | 2025/06/30-18:56:00  301.1201    0.1235  257.3312   94.6749     6880.9764     6878.1848     6883.7680 -13.885637 -96.429984   0.000404   0.000033
1 62641U 25009AJ  25183.17044448  .00004978  00000-0  22752-3 0  9995 | 2 62641  97.4244 263.1677 0004080  99.4187 260.7510 15.21008172 25558 | 2025/07/02-04:05:26   78.4783    0.1236  260.7049   94.6740     6880.9353     6878.1279     6883.7428 -11.589970 -96.732550   0.000408   0.000018
1 62641U 25009AJ  25184.48619574  .00005127  00000-0  23414-3 0  9991 | 2 62641  97.4245 264.4644 0004064  96.8620 263.3078 15.21022749 25758 | 2025/07/03-11:40:07  192.1488    0.1236  263.2616   94.6731     6880.8914     6878.0950     6883.6878  -9.397977 -96.970156   0.000406   0.000009
1 62641U 25009AJ  25185.93350721  .00005260  00000-0  24002-3 0  9990 | 2 62641  97.4248 265.8912 0004039  93.7567 266.4131 15.21039548 25975 | 2025/07/04-22:24:15  353.1807    0.1236  266.3669   94.6721     6880.8407     6878.0615     6883.6199  -6.980549 -97.174398   0.000404  -0.000002
1 62641U 25009AJ  25187.18344565  .00005705  00000-0  25992-3 0  9991 | 2 62641  97.4249 267.1232 0004026  90.9701 269.1996 15.21054573 26167 | 2025/07/06-04:24:09   83.1586    0.1236  269.1535   94.6712     6880.7954     6878.0252     6883.5656  -4.889613 -97.302121   0.000402  -0.000013
1 62641U 25009AJ  25188.69651254  .00005443  00000-0  24799-3 0  9997 | 2 62641  97.4250 268.6147 0004002  87.6058 272.5636 15.21071920 26391 | 2025/07/07-16:42:58  267.8629    0.1236  272.5178   94.6701     6880.7431     6877.9894     6883.4968  -2.355317 -97.396525   0.000399  -0.000026
1 62641U 25009AJ  25189.94642405  .00004329  00000-0  19785-3 0  9995 | 2 62641  97.4254 269.8468 0003959  85.2083 274.9605 15.21084524 26583 | 2025/07/08-22:42:51  357.8315    0.1236  274.9153   94.6693     6880.7051     6877.9810     6883.4291  -0.260500 -97.425052   0.000394  -0.000034
1 62641U 25009AJ  25191.45946323  .00003771  00000-0  17268-3 0  9994 | 2 62641  97.4253 271.3385 0003904  81.7627 278.4051 15.21096900 26814 | 2025/07/10-11:01:37  182.5262    0.1235  278.3608   94.6685     6880.6677     6877.9815     6883.3540   2.275768 -97.398716   0.000388  -0.000047
1 62641U 25009AJ  25192.77514020  .00004187  00000-0  19133-3 0  9990 | 2 62641  97.4250 272.6356 0003856  78.8946 281.2724 15.21108118 27017 | 2025/07/11-18:36:12  296.1704    0.1237  281.2291   94.6678     6880.6339     6877.9807     6883.2871   4.479960 -97.321943   0.000381  -0.000057
1 62641U 25009AJ  25194.15658899  .00004982  00000-0  22694-3 0  9996 | 2 62641  97.4245 273.9976 0003774  76.0497 284.1158 15.21122405 27224 | 2025/07/13-03:45:29   73.4931    0.1236  284.0739   94.6669     6880.5908     6877.9941     6883.1876   6.791919 -97.187463   0.000372  -0.000065
1 62641U 25009AJ  25195.47224219  .00004379  00000-0  19980-3 0  9991 | 2 62641  97.4244 275.2950 0003737  72.9432 287.2213 15.21134860 27429 | 2025/07/14-11:20:01  187.1286    0.1236  287.1804   94.6662     6880.5533     6877.9820     6883.1245   8.990683 -97.008666   0.000366  -0.000076
1 62641U 25009AJ  25196.72210275  .00004877  00000-0  22208-3 0  9997 | 2 62641  97.4241 276.5273 0003658  70.1767 289.9863 15.21147998 27618 | 2025/07/15-17:19:49  277.0795    0.1236  289.9469   94.6653     6880.5137     6877.9968     6883.0305  11.074842 -96.792578   0.000356  -0.000084
1 62641U 25009AJ  25197.77460972  .00004943  00000-0  22496-3 0  9997 | 2 62641  97.4240 277.5648 0003640  67.9670 292.1952 15.21157970 27775 | 2025/07/16-18:35:26  295.9827    0.1236  292.1566   94.6647     6880.4836     6877.9791     6882.9881  12.825617 -96.576081   0.000352  -0.000091
1 62641U 25009AJ  25199.48491408  .00005228  00000-0  23760-3 0  9997 | 2 62641  97.4239 279.2506 0003509  64.2218 295.9379 15.21178266 28032 | 2025/07/18-11:38:16  191.6948    0.1235  295.9017   94.6635     6880.4224     6878.0080     6882.8367  15.661175 -96.156871   0.000336  -0.000100
1 62641U 25009AJ  25200.66895729  .00005017  00000-0  22805-3 0  9999 | 2 62641  97.4241 280.4179 0003447  61.3574 298.8008 15.21192296 28219 | 2025/07/19-16:03:17  257.9516    0.1236  298.7662   94.6626     6880.3801     6878.0084     6882.7517  17.616851 -95.818066   0.000327  -0.000108
1 62641U 25009AJ  25202.18188744  .00005329  00000-0  24194-3 0  9999 | 2 62641  97.4245 281.9095 0003345  57.9912 302.1648 15.21209125 28444 | 2025/07/21-04:21:55   82.6082    0.1235  302.1323   94.6615     6880.3293     6878.0279     6882.6308  20.105146 -95.327416   0.000314  -0.000115
1 62641U 25009AJ  25204.48413867  .00007359  00000-0  33252-3 0  9991 | 2 62641  97.4247 284.1793 0003189  52.3192 307.8332 15.21240075 28790 | 2025/07/23-11:37:09  191.4217    0.1235  307.8043   94.6596     6880.2360     6878.0419     6882.4301  23.864874 -94.456551   0.000292  -0.000127
1 62641U 25009AJ  25205.86546416  .00007044  00000-0  31824-3 0  9995 | 2 62641  97.4246 285.5413 0003073  48.8739 311.2761 15.21260953 29009 | 2025/07/24-20:46:16  328.7008    0.1235  311.2496   94.6583     6880.1731     6878.0588     6882.2873  26.103257 -93.862520   0.000277  -0.000133
1 62641U 25009AJ  25207.77297976  .00007021  00000-0  31699-3 0  9996 | 2 62641  97.4242 287.4223 0002878  42.4992 317.6466 15.21287524 29294 | 2025/07/26-18:33:05  295.4097    0.1236  317.6244   94.6567     6880.0929     6878.1129     6882.0730  29.169991 -92.954754   0.000249  -0.000144
1 62641U 25009AJ  25208.82538746  .00006861  00000-0  30970-3 0  9998 | 2 62641  97.4240 288.4601 0002797  40.1773 319.9669 15.21302519 29455 | 2025/07/27-19:48:33  314.2776    0.1236  319.9463   94.6557     6880.0477     6878.1234     6881.9721  30.848743 -92.410989   0.000239  -0.000146
1 62641U 25009AJ  25210.46975559  .00006527  00000-0  29460-3 0  9999 | 2 62641  97.4234 290.0815 0002668  35.7115 324.4299 15.21323738 29705 | 2025/07/29-11:16:26  186.2523    0.1236  324.4121   94.6544     6879.9838     6878.1482     6881.8193  33.450953 -91.500561   0.000221  -0.000150
1 62641U 25009AJ  25211.78523345  .00007237  00000-0  32610-3 0  9997 | 2 62641  97.4231 291.3788 0002603  31.9485 328.1908 15.21342399 29906 | 2025/07/30-18:50:44  299.8257    0.1236  328.1751   94.6532     6879.9275     6878.1367     6881.7183  35.513863 -90.719491   0.000209  -0.000155
1 62641U 25009AJ  25213.16646593  .00007612  00000-0  34263-3 0  9995 | 2 62641  97.4230 292.7405 0002459  27.9624 332.1744 15.21363944 30112 | 2025/08/01-03:59:42   77.0716    0.1236  332.1612   94.6519     6879.8626     6878.1708     6881.5543  37.659645 -89.849831   0.000190  -0.000156
1 62641U 25009AJ  25214.21882057  .00007140  00000-0  32142-3 0  9999 | 2 62641  97.4232 293.7780 0002375  25.2236 334.9115 15.21379889 30272 | 2025/08/02-05:15:06   95.9207    0.1236  334.9000   94.6509     6879.8145     6878.1805     6881.4484  39.280445 -89.153388   0.000179  -0.000156
1 62641U 25009AJ  25216.19196034  .00005907  00000-0  26632-3 0  9997 | 2 62641  97.4235 295.7233 0002182  18.8863 341.2453 15.21403518 30576 | 2025/08/04-04:36:25   86.2541    0.1236  341.2373   94.6494     6879.7432     6878.2421     6881.2444  42.284282 -87.768889   0.000153  -0.000155
1 62641U 25009AJ  25218.88853449  .00006280  00000-0  28264-3 0  9993 | 2 62641  97.4238 298.3822 0001898   9.8939 350.2334 15.21437193 30988 | 2025/08/06-21:19:29  337.0240    0.1236  350.2297   94.6474     6879.6417     6878.3360     6880.9475  46.310492 -85.713098   0.000118  -0.000149
1 62641U 25009AJ  25220.46699040  .00005161  00000-0  23276-3 0  9990 | 2 62641  97.4236 299.9389 0001770   2.4323 357.6921 15.21453469 31221 | 2025/08/08-11:12:27  185.2702    0.1236  357.6913   94.6463     6879.5927     6878.3750     6880.8104  48.621799 -84.423211   0.000095  -0.000149
1 62641U 25009AJ  25222.17695995  .00008080  00000-0  36224-3 0  9995 | 2 62641  97.4232 301.6253 0001625 353.8469   6.2747 15.21481236 31485 | 2025/08/10-04:14:49   80.8610    0.1236    6.2767   94.6446     6879.5090     6878.3910     6880.6269  51.085019 -82.955414   0.000070  -0.000147
1 62641U 25009AJ  25223.49229991  .00007331  00000-0  32881-3 0  9993 | 2 62641  97.4228 302.9226 0001515 349.9135  10.2070 15.21501744 31681 | 2025/08/11-11:48:54  194.3837    0.1236   10.2101   94.6433     6879.4471     6878.4049     6880.4894  52.949836 -81.777239   0.000059  -0.000140
1 62641U 25009AJ  25224.67609234  .00006869  00000-0  30814-3 0  9995 | 2 62641  97.4224 304.0900 0001409 344.7009  15.4184 15.21517943 31865 | 2025/08/12-16:13:34  260.5496    0.1236   15.4227   94.6423     6879.3983     6878.4290     6880.3676  54.604716 -80.681157   0.000045  -0.000133
1 62641U 25009AJ  25225.79410719  .00005757  00000-0  25869-3 0  9996 | 2 62641  97.4220 305.1926 0001339 335.9220  24.1953 15.21530914 32034 | 2025/08/13-19:03:30  303.0363    0.1236   24.2016   94.6415     6879.3592     6878.4381     6880.2804  56.146907 -79.615143   0.000026  -0.000131
1 62641U 25009AJ  25226.91211152  .00007036  00000-0  31529-3 0  9993 | 2 62641  97.4217 306.2950 0001281 328.2414  31.8744 15.21547259 32207 | 2025/08/14-21:53:26  345.5189    0.1236   31.8822   94.6405     6879.3100     6878.4287     6880.1912  57.668078 -78.519936   0.000010  -0.000128
1 62641U 25009AJ  25228.22739551  .00006338  00000-0  28416-3 0  9992 | 2 62641  97.4217 307.5918 0001179 321.8386  38.2766 15.21565552 32401 | 2025/08/16-05:27:26   99.0213    0.1236   38.2850   94.6394     6879.2548     6878.4437     6880.0659  59.430332 -77.194710  -0.000001  -0.000118
1 62641U 25009AJ  25229.73995290  .00006214  00000-0  27854-3 0  9991 | 2 62641  97.4218 309.0831 0001096 310.7236  49.3905 15.21585736 32631 | 2025/08/17-17:45:31  283.5426    0.1236   49.4000   94.6381     6879.1940     6878.4400     6879.9479  61.419270 -75.621957  -0.000019  -0.000108
1 62641U 25009AJ  25231.18672937  .00006646  00000-0  29750-3 0  9999 | 2 62641  97.4221 310.5098 0001082 295.4586  64.6538 15.21604573 32856 | 2025/08/19-04:28:53   84.3832    0.1236   64.6650   94.6369     6879.1372     6878.3929     6879.8815  63.283263 -74.069523  -0.000044  -0.000099
1 62641U 25009AJ  25232.76500787  .00008464  00000-0  37766-3 0  9993 | 2 62641  97.4224 312.0661 0001064 280.9738  79.1378 15.21630841 33097 | 2025/08/20-18:21:36  292.5636    0.1236   79.1498   94.6353     6879.0580     6878.3261     6879.7900  65.271790 -72.323699  -0.000064  -0.000085
1 62641U 25009AJ  25235.72421462  .00006393  00000-0  28572-3 0  9998 | 2 62641  97.4221 314.9849 0001203 257.4538 102.6563 15.21670031 33548 | 2025/08/23-17:22:52  277.8774    0.1235  102.6697   94.6329     6878.9399     6878.1124     6879.7675  68.869670 -68.905980  -0.000102  -0.000065
1 62641U 25009AJ  25236.84211853  .00007401  00000-0  33010-3 0  9997 | 2 62641  97.4219 316.0877 0001239 249.7430 110.3673 15.21685700 33719 | 2025/08/24-20:12:39  320.3217    0.1236  110.3806   94.6319     6878.8927     6878.0404     6879.7450  70.182955 -67.567592  -0.000112  -0.000054
1 62641U 25009AJ  25238.48607203  .00008095  00000-0  36051-3 0  9995 | 2 62641  97.4212 317.7092 0001307 238.3404 121.7704 15.21711321 33967 | 2025/08/26-11:39:56  192.1433    0.1235  121.7831   94.6303     6878.8155     6877.9164     6879.7145  72.066276 -65.554116  -0.000126  -0.000036
1 62641U 25009AJ  25239.80120957  .00010839  00000-0  48106-3 0  9991 | 2 62641  97.4206 319.0060 0001430 232.3821 127.7285 15.21741267 34169 | 2025/08/27-19:13:44  305.5925    0.1236  127.7415   94.6284     6878.7252     6877.7416     6879.7089  73.530953 -63.905964  -0.000140  -0.000028
1 62641U 25009AJ  25241.18207819  .00012153  00000-0  53843-3 0  9993 | 2 62641  97.4202 320.3678 0001588 227.3247 132.7855 15.21772111 34379 | 2025/08/29-04:22:11   82.7049    0.1236  132.7989   94.6265     6878.6323     6877.5400     6879.7246  75.028644 -62.140148  -0.000157  -0.000021
1 62641U 25009AJ  25242.76017688  .00012774  00000-0  56507-3 0  9990 | 2 62641  97.4203 321.9241 0001669 219.3970 140.7145 15.21812248 34611 | 2025/08/30-18:14:39  290.8182    0.1236  140.7266   94.6240     6878.5113     6877.3633     6879.6594  76.688724 -60.079568  -0.000167  -0.000004
1 62641U 25009AJ  25243.81221775  .00014425  00000-0  63702-3 0  9991 | 2 62641  97.4202 322.9616 0001723 213.4092 146.7035 15.21842659 34778 | 2025/08/31-19:29:35  309.5512    0.1235  146.7143   94.6221     6878.4197     6877.2346     6879.6049  77.763920 -58.681071  -0.000172   0.000011
1 62641U 25009AJ  25245.19299204  .00017847  00000-0  78611-3 0  9992 | 2 62641  97.4203 324.3232 0001890 210.4327 149.6800 15.21883134 34980 | 2025/09/02-04:37:54   86.6293    0.1236  149.6909   94.6196     6878.2978     6876.9978     6879.5978  79.136433 -56.816721  -0.000188   0.000017
1 62641U 25009AJ  25246.77096969  .00017232  00000-0  75801-3 0  9996 | 2 62641  97.4203 325.8794 0002042 207.4383 152.6746 15.21936121 35223 | 2025/09/03-18:30:11  294.7002    0.1236  152.6853   94.6163     6878.1381     6876.7336     6879.5426  80.650244 -54.646619  -0.000203   0.000024
1 62641U 25009AJ  25248.15166010  .00012400  00000-0  54610-3 0  9992 | 2 62641  97.4206 327.2417 0002093 199.2333 160.8825 15.21969941 35431 | 2025/09/05-03:38:23   71.7444    0.1237  160.8904   94.6142     6878.0362     6876.5966     6879.4758  81.926890 -52.713926  -0.000203   0.000049
1 62641U 25009AJ  25249.20359398  .00012194  00000-0  53670-3 0  9997 | 2 62641  97.4207 328.2793 0002218 197.0854 163.0308 15.21995223 35593 | 2025/09/06-04:53:10   90.4394    0.1236  163.0382   94.6126     6877.9600     6876.4345     6879.4856  82.868114 -51.221758  -0.000215   0.000056
1 62641U 25009AJ  25250.78146404  .00010066  00000-0  44326-3 0  9998 | 2 62641  97.4204 329.8357 0002364 193.3405 166.7769 15.22028607 35838 | 2025/09/07-18:45:18  298.4703    0.1236  166.7831   94.6106     6877.8595     6876.2335     6879.4854  84.228514 -48.951933  -0.000226   0.000068
1 62641U 25009AJ  25252.16207443  .00008360  00000-0  36849-3 0  9998 | 2 62641  97.4203 331.1984 0002528 187.8860 172.2336 15.22052312 36040 | 2025/09/09-03:53:23   75.4859    0.1235  172.2375   94.6091     6877.7881     6876.0494     6879.5268  85.368749 -46.934971  -0.000236   0.000090
1 62641U 25009AJ  25253.21395422  .00008262  00000-0  36400-3 0  9994 | 2 62641  97.4198 332.2362 0002614 184.4855 175.6358 15.22069657 36207 | 2025/09/10-05:08:05   94.1599    0.1236  175.6381   94.6080     6877.7358     6875.9380     6879.5336  86.204391 -45.380838  -0.000240   0.000103
1 62641U 25009AJ  25254.79175282  .00007746  00000-0  34125-3 0  9996 | 2 62641  97.4192 333.7927 0002742 179.8879 180.2358 15.22093451 36447 | 2025/09/11-19:00:07  302.1637    0.1236  180.2357   94.6065     6877.6641     6875.7783     6879.5500  87.404712 -43.022283  -0.000246   0.000122
1 62641U 25009AJ  25256.17230563  .00007629  00000-0  33591-3 0  9990 | 2 62641  97.4188 335.1543 0002865 176.8721 183.2534 15.22114776 36657 | 2025/09/13-04:08:07   79.1600    0.1236  183.2515   94.6052     6877.5999     6875.6295     6879.5703  88.401972 -40.933042  -0.000253   0.000134
1 62641U 25009AJ  25258.01300952  .00008568  00000-0  37648-3 0  9995 | 2 62641  97.4188 336.9699 0003030 170.0159 190.1138 15.22147381 36930 | 2025/09/15-00:18:44   21.8079    0.1236  190.1077   94.6032     6877.5017     6875.4178     6879.5856  89.654469 -38.111662  -0.000254   0.000165
1 62641U 25009AJ  25259.19629534  .00011643  00000-0  50988-3 0  9995 | 2 62641  97.4188 338.1373 0003133 166.4729 193.6592 15.22176368 37119 | 2025/09/16-04:42:39   87.7873    0.1236  193.6507   94.6014     6877.4144     6875.2597     6879.5691  90.412330 -36.277171  -0.000255   0.000181
1 62641U 25009AJ  25260.77397803  .00010334  00000-0  45254-3 0  9998 | 2 62641  97.4192 339.6936 0003237 162.7060 197.4287 15.22209395 37353 | 2025/09/17-18:34:31  295.7492    0.1236  197.4176   94.5993     6877.3149     6875.0887     6879.5411  91.364614 -33.808399  -0.000256   0.000198
1 62641U 25009AJ  25261.89148216  .00010608  00000-0  46409-3 0  9991 | 2 62641  97.4197 340.7960 0003353 160.5531 199.5834 15.22233497 37526 | 2025/09/18-21:23:44  338.0480    0.1236  199.5705   94.5978     6877.2423     6874.9363     6879.5482  91.998626 -32.044513  -0.000262   0.000209
1 62641U 25009AJ  25263.66630998  .00010611  00000-0  46376-3 0  9998 | 2 62641  97.4197 342.5478 0003423 156.1683 203.9712 15.22267656 37795 | 2025/09/20-15:59:29  256.9805    0.1236  203.9553   94.5957     6877.1394     6874.7854     6879.4935  92.935226 -29.217146  -0.000257   0.000226
1 62641U 25009AJ  25265.17816291  .00015159  00000-0  66006-3 0  9992 | 2 62641  97.4193 344.0397 0003505 152.9235 207.2184 15.22309323 38021 | 2025/09/22-04:16:33   81.2434    0.1235  207.2000   94.5931     6877.0139     6874.6035     6879.4243  93.664025 -26.787505  -0.000256   0.000239
1 62641U 25009AJ  25266.68996236  .00020972  00000-0  90961-3 0  9993 | 2 62641  97.4188 345.5316 0003598 148.5961 211.5491 15.22372630 38256 | 2025/09/23-16:33:32  265.4861    0.1236  211.5275   94.5892     6876.8233     6874.3490     6879.2975  94.329220 -24.339698  -0.000251   0.000258
1 62641U 25009AJ  25267.80733960  .00017872  00000-0  77493-3 0  9991 | 2 62641  97.4184 346.6344 0003658 145.5820 214.5654 15.22414753 38429 | 2025/09/24-19:22:34  307.7383    0.1236  214.5416   94.5866     6876.6964     6874.1809     6879.2119  94.779807 -22.519609  -0.000246   0.000271
1 62641U 25009AJ  25269.12186323  .00018814  00000-0  81439-3 0  9995 | 2 62641  97.4176 347.9316 0003672 143.2234 216.9255 15.22463058 38620 | 2025/09/26-02:55:28   60.9637    0.1236  216.9002   94.5836     6876.5510     6874.0259     6879.0760  95.264544 -20.368000  -0.000242   0.000276
1 62641U 25009AJ  25270.17345381  .00017237  00000-0  74576-3 0  9995 | 2 62641  97.4173 348.9692 0003703 140.3448 219.8060 15.22498018 38782 | 2025/09/27-04:09:46   79.5334    0.1236  219.7788   94.5814     6876.4457     6873.8993     6878.9920  95.617464 -18.639500  -0.000235   0.000286
1 62641U 25009AJ  25271.22502120  .00017827  00000-0  77031-3 0  9992 | 2 62641  97.4173 350.0069 0003780 137.2197 222.9334 15.22532648 38940 | 2025/09/28-05:24:01   98.0941    0.1236  222.9039   94.5793     6876.3414     6873.7422     6878.9407  95.939349 -16.904783  -0.000229   0.000301
1 62641U 25009AJ  25272.73659945  .00022831  00000-0  98314-3 0  9995 | 2 62641  97.4172 351.4986 0003823 133.4918 226.6637 15.22598639 39174 | 2025/09/29-17:40:42  282.2580    0.1236  226.6318   94.5752     6876.1427     6873.5140     6878.7715  96.346804 -14.401533  -0.000219   0.000313
1 62641U 25009AJ  25273.78808418  .00023669  00000-0  10172-2 0  9997 | 2 62641  97.4173 352.5363 0003814 132.7546 227.4012 15.22659760 39332 | 2025/09/30-18:54:50  300.7909    0.1236  227.3690   94.5714     6875.9587     6873.3362     6878.5812  96.591918 -12.654316  -0.000220   0.000311
1 62641U 25009AJ  25275.49666696  .00024335  00000-0  10430-2 0  9995 | 2 62641  97.4178 354.2228 0003834 128.3024 231.8558 15.22744547 39590 | 2025/10/02-11:55:12  195.8759    0.1237  231.8213   94.5661     6875.7035     6873.0673     6878.3396  96.923000  -9.806114  -0.000206   0.000323
1 62641U 25009AJ  25279.30783865  .00012831  00000-0  55006-3 0  9994 | 2 62641  97.4180 357.9862 0003853 119.5112 240.6510 15.22875216 40178 | 2025/10/06-07:23:17  127.8868    0.1237  240.6125   94.5580     6875.3102     6872.6611     6877.9592  97.357834  -3.423288  -0.000178   0.000342
1 62641U 25009AJ  25280.95049692  .00017099  00000-0  73054-3 0  9994 | 2 62641  97.4179 359.6084 0003937 115.4038 244.7607 15.22926189 40422 | 2025/10/07-22:48:42  359.2383    0.1237  244.7199   94.5548     6875.1568     6872.4500     6877.8635  97.415625  -0.665818  -0.000166   0.000357
1 62641U 25009AJ  25282.19888093  .00011645  00000-0  49838-3 0  9992 | 2 62641  97.4171   0.8412 0003965 112.4976 247.6681 15.22958435 40617 | 2025/10/09-04:46:23   88.6530    0.1237  247.6261   94.5528     6875.0597     6872.3337     6877.7857  97.406601   1.430198  -0.000157   0.000364
1 62641U 25009AJ  25284.16996107  .00012431  00000-0  53098-3 0  9994 | 2 62641  97.4163   2.7874 0003914 108.2244 251.9419 15.23008888 40915 | 2025/10/11-04:04:44   78.2379    0.1237  251.8993   94.5497     6874.9079     6872.2170     6877.5987  97.301042   4.737366  -0.000140   0.000365
1 62641U 25009AJ  25285.22117418  .00016654  00000-0  70917-3 0  9992 | 2 62641  97.4163   3.8253 0003982 105.5563 254.6113 15.23044802 41072 | 2025/10/12-05:18:29   96.6715    0.1236  254.5673   94.5474     6874.7998     6872.0623     6877.5373  97.199267   6.499079  -0.000132   0.000376
1 62641U 25009AJ  25286.46945667  .00017711  00000-0  75292-3 0  9990 | 2 62641  97.4163   5.0578 0003967 103.0992 257.0688 15.23089045 41261 | 2025/10/13-11:16:01  186.0507    0.1237  257.0245   94.5447     6874.6667     6871.9395     6877.3938  97.036987   8.588285  -0.000124   0.000377
1 62641U 25009AJ  25288.50606307  .00014442  00000-0  61376-3 0  9998 | 2 62641  97.4166   7.0690 0003930  98.3929 261.7754 15.23143048 41571 | 2025/10/15-12:08:43  199.2249    0.1237  261.7308   94.5414     6874.5042     6871.8025     6877.2058  96.676104  11.988531  -0.000105   0.000379
1 62641U 25009AJ  25290.14843544  .00014980  00000-0  63566-3 0  9997 | 2 62641  97.4170   8.6912 0003950  94.4708 265.6980 15.23188045 41822 | 2025/10/17-03:33:44   70.4750    0.1237  265.6529   94.5386     6874.3688     6871.6534     6877.0842  96.298371  14.720585  -0.000090   0.000385
1 62641U 25009AJ  25291.19952729  .00016106  00000-0  68248-3 0  9993 | 2 62641  97.4170   9.7294 0003864  91.9600 268.2080 15.23219619 41983 | 2025/10/18-04:47:19   88.8667    0.1237  268.1637   94.5366     6874.2738     6871.6176     6876.9300  96.015840  16.463000  -0.000078   0.000378
1 62641U 25009AJ  25292.25059153  .00024125  00000-0  10182-2 0  9993 | 2 62641  97.4169  10.7679 0003832  89.9138 270.2538 15.23268298 42145 | 2025/10/19-06:00:51  107.2477    0.1237  270.2099   94.5336     6874.1273     6871.4932     6876.7615  95.701591  18.200493  -0.000071   0.000377
1 62641U 25009AJ  25293.76144172  .00018598  00000-0  78485-3 0  9994 | 2 62641  97.4169  12.2606 0003781  85.9948 274.1721 15.23326482 42372 | 2025/10/20-18:16:28  291.1509    0.1237  274.1289   94.5300     6873.9523     6871.3532     6876.5513  95.194999  20.687303  -0.000054   0.000374
1 62641U 25009AJ  25294.94380825  .00015965  00000-0  67363-3 0  9990 | 2 62641  97.4166  13.4288 0003775  83.4681 276.6985 15.23365069 42551 | 2025/10/21-22:39:05  356.8004    0.1236  276.6555   94.5276     6873.8362     6871.2413     6876.4311  94.753159  22.623724  -0.000045   0.000375
1 62641U 25009AJ  25296.45457273  .00014052  00000-0  59273-3 0  9997 | 2 62641  97.4160  14.9216 0003660  79.6897 280.4752 15.23404285 42785 | 2025/10/23-10:54:35  180.6736    0.1237  280.4340   94.5251     6873.7182     6871.2025     6876.2340  94.131042  25.084337  -0.000029   0.000365
1 62641U 25009AJ  25297.96529369  .00014931  00000-0  62869-3 0  9991 | 2 62641  97.4158  16.4142 0003614  76.1853 283.9786 15.23450692 43015 | 2025/10/24-23:10:01    4.5306    0.1237  283.9384   94.5223     6873.5786     6871.0945     6876.0628  93.445519  27.527679  -0.000016   0.000361
1 62641U 25009AJ  25299.21324543  .00012407  00000-0  52253-3 0  9990 | 2 62641  97.4153  17.6471 0003612  73.4939 286.6695 15.23486714 43205 | 2025/10/26-05:07:04   93.7908    0.1237  286.6298   94.5200     6873.4703     6870.9876     6875.9530  92.831110  29.531775  -0.000007   0.000361
1 62641U 25009AJ  25300.46117239  .00011392  00000-0  47969-3 0  9992 | 2 62641  97.4148  18.8800 0003531  70.4728 289.6890 15.23514735 43396 | 2025/10/27-11:04:05  183.0433    0.1237  289.6509   94.5183     6873.3860     6870.9590     6875.8130  92.173725  31.522178   0.000004   0.000353
1 62641U 25009AJ  25302.16882037  .00015850  00000-0  66490-3 0  9999 | 2 62641  97.4148  20.5671 0003436  65.9944 294.1653 15.23564546 43657 | 2025/10/29-04:03:06   77.7947    0.1238  294.1294   94.5152     6873.2362     6870.8746     6875.5979  91.205718  34.222218   0.000021   0.000343
1 62641U 25009AJ  25303.67938237  .00015503  00000-0  64953-3 0  9997 | 2 62641  97.4146  22.0597 0003442  62.2006 297.9580 15.23612026 43887 | 2025/10/30-16:18:18  261.5944    0.1238  297.9232   94.5122     6873.0934     6870.7277     6875.4591  90.283172  36.586243   0.000034   0.000342
1 62641U 25009AJ  25305.18989707  .00013396  00000-0  56109-3 0  9995 | 2 62641  97.4154  23.5525 0003275  58.6269 301.5288 15.23656834 44116 | 2025/11/01-04:33:27   85.3786    0.1237  301.4968   94.5095     6872.9587     6870.7078     6875.2096  89.300144  38.926142   0.000045   0.000324
1 62641U 25009AJ  25307.94812776  .00012790  00000-0  53480-3 0  9998 | 2 62641  97.4161  26.2789 0003089  51.9469 308.2046 15.23726367 44538 | 2025/11/03-22:45:18  358.3381    0.1237  308.1768   94.5052     6872.7496     6870.6266     6874.8726  87.348101  43.130103   0.000063   0.000302
1 62641U 25009AJ  25309.19585576  .00011555  00000-0  48305-3 0  9990 | 2 62641  97.4157  27.5124 0003019  49.0066 311.1432 15.23758791 44723 | 2025/11/05-04:42:01   87.5182    0.1237  311.1171   94.5031     6872.6521     6870.5772     6874.7269  86.399044  45.000264   0.000070   0.000294
1 62641U 25009AJ  25311.16588793  .00015205  00000-0  63313-3 0  9996 | 2 62641  97.4151  29.4598 0002860  42.3803 317.7655 15.23827814 45027 | 2025/11/07-03:58:52   76.7281    0.1238  317.7435   94.4989     6872.4445     6870.4790     6874.4101  84.819423  47.909991   0.000089   0.000272
1 62641U 25009AJ  25312.21653233  .00015923  00000-0  66202-3 0  9992 | 2 62641  97.4145  30.4981 0002847  40.9826 319.1625 15.23867401 45188 | 2025/11/08-05:11:48   94.9581    0.1238  319.1412   94.4964     6872.3255     6870.3690     6874.2821  83.936813  49.438812   0.000090   0.000270
1 62641U 25009AJ  25314.44908347  .00015088  00000-0  62640-3 0  9992 | 2 62641  97.4139  32.7046 0002559  31.3042 328.8347 15.23929815 45526 | 2025/11/10-10:46:40  178.6767    0.1237  328.8195   94.4925     6872.1379     6870.3793     6873.8965  81.970622  52.633498   0.000112   0.000230
1 62641U 25009AJ  25316.22191406  .00028714  00000-0  11845-2 0  9990 | 2 62641  97.4141  34.4571 0002481  27.9087 332.2283 15.24010426 45792 | 2025/11/12-05:19:33   96.8925    0.1237  332.2150   94.4875     6871.8955     6870.1906     6873.6005  80.322801  55.115828   0.000115   0.000220
1 62641U 25009AJ  25317.46939333  .00023882  00000-0  98414-3 0  9995 | 2 62641  97.4143  35.6906 0002357  24.5501 335.5848 15.24083636 45982 | 2025/11/13-11:15:55  185.9832    0.1237  335.5736   94.4830     6871.6755     6870.0558     6873.2951  79.117873  56.832279   0.000117   0.000205
1 62641U 25009AJ  25320.22681876  .00018377  00000-0  75628-3 0  9994 | 2 62641  97.4151  38.4177 0002150  13.2609 346.8684 15.24184516 46407 | 2025/11/16-05:26:37   98.6527    0.1237  346.8628   94.4768     6871.3723     6869.8949     6872.8496  76.324880  60.532755   0.000133   0.000169
1 62641U 25009AJ  25321.53981862  .00015763  00000-0  64848-3 0  9995 | 2 62641  97.4149  39.7165 0002047  11.4566 348.6717 15.24227528 46602 | 2025/11/17-12:57:20  211.3290    0.1237  348.6671   94.4741     6871.2430     6869.8365     6872.6495  74.933058  62.247085   0.000128   0.000159
1 62641U 25009AJ  25322.65583971  .00012711  00000-0  52321-3 0  9991 | 2 62641  97.4147  40.8205 0001970   4.7559 355.3697 15.24259152 46777 | 2025/11/18-15:44:24  253.0953    0.1238  355.3679   94.4721     6871.1480     6869.7943     6872.5016  73.719667  63.679153   0.000138   0.000141
1 62641U 25009AJ  25324.16571975  .00010913  00000-0  44929-3 0  9997 | 2 62641  97.4145  42.3140 0001858 358.4288   1.6944 15.24293258 47001 | 2025/11/20-03:58:38   76.6492    0.1238    1.6950   94.4700     6871.0455     6869.7688     6872.3221  72.034772  65.578781   0.000141   0.000121
1 62641U 25009AJ  25326.46329005  .00011322  00000-0  46511-3 0  9991 | 2 62641  97.4137  44.5866 0001652 351.4790   8.6419 15.24355458 47357 | 2025/11/22-11:07:08  183.7688    0.1237    8.6447   94.4662     6870.8586     6869.7235     6871.9936  69.377087  68.383103   0.000134   0.000097
1 62641U 25009AJ  25328.16999771  .00013277  00000-0  54409-3 0  9999 | 2 62641  97.4133  46.2746 0001466 342.7738  17.3449 15.24400391 47613 | 2025/11/24-04:04:47   78.1800    0.1237   17.3499   94.4634     6870.7235     6869.7163     6871.7308  67.332350  70.396773   0.000128   0.000071
1 62641U 25009AJ  25330.00792788  .00014365  00000-0  58732-3 0  9996 | 2 62641  97.4128  48.0926 0001365 333.0212  27.0954 15.24458069 47899 | 2025/11/26-00:11:24   19.8305    0.1237   27.1025   94.4598     6870.5502     6869.6124     6871.4881  65.064803  72.497069   0.000127   0.000049
1 62641U 25009AJ  25331.18941964  .00013416  00000-0  54827-3 0  9995 | 2 62641  97.4126  49.2610 0001283 325.3860  34.7294 15.24491022 48071 | 2025/11/27-04:32:45   85.1649    0.1238   34.7378   94.4578     6870.4512     6869.5697     6871.3327  63.572856  73.808581   0.000124   0.000032
1 62641U 25009AJ  25333.22415382  .00012559  00000-0  51266-3 0  9993 | 2 62641  97.4131  51.2739 0001239 311.0411  49.0719 15.24545461 48389 | 2025/11/29-05:22:46   97.6642    0.1237   49.0826   94.4544     6870.2877     6869.4364     6871.1389  60.941450  75.996392   0.000124   0.000005
1 62641U 25009AJ  25334.73374781  .00011402  00000-0  46523-3 0  9993 | 2 62641  97.4132  52.7679 0001210 300.0879  60.0239 15.24583828 48619 | 2025/11/30-17:36:35  281.1132    0.1238   60.0359   94.4520     6870.1724     6869.3411     6871.0037  58.939397  77.559520   0.000120  -0.000015
1 62641U 25009AJ  25336.17767535  .00013042  00000-0  53105-3 0  9992 | 2 62641  97.4135  54.1966 0001204 290.1508  69.9600 15.24618869 48836 | 2025/12/02-04:15:51   80.9226    0.1238   69.9730   94.4498     6870.0671     6869.2400     6870.8943  56.987463  79.005184   0.000116  -0.000032
1 62641U 25009AJ  25337.68719093  .00017201  00000-0  69804-3 0  9999 | 2 62641  97.4136  55.6907 0001102 280.1483  79.9630 15.24671232 49069 | 2025/12/03-16:29:33  264.3415    0.1237   79.9754   94.4466     6869.9098     6869.1528     6870.6669  54.908162  80.464297   0.000101  -0.000045
1 62641U 25009AJ  25339.19664133  .00020579  00000-0  83237-3 0  9999 | 2 62641  97.4131  57.1845 0001146 269.5662  90.5444 15.24743710 49298 | 2025/12/05-04:43:09   87.7383    0.1237   90.5575   94.4421     6869.6921     6868.9049     6870.4794  52.791625  81.867920   0.000096  -0.000063
1 62641U 25009AJ  25340.37790805  .00021388  00000-0  86372-3 0  9999 | 2 62641  97.4126  58.3533 0001247 261.1888  98.9209 15.24789551 49473 | 2025/12/06-09:04:11  152.9907    0.1238   98.9350   94.4393     6869.5544     6868.6978     6870.4111  51.110438  82.927304   0.000095  -0.000081
1 62641U 25009AJ  25341.95287819  .00015616  00000-0  63089-3 0  9997 | 2 62641  97.4123  59.9119 0001231 250.1182 109.9923 15.24842408 49719 | 2025/12/07-22:52:08  359.9729    0.1238  110.0056   94.4360     6869.3957     6868.5501     6870.2413  48.835810  84.286534   0.000079  -0.000094
1 62641U 25009AJ  25343.19969394  .00013457  00000-0  54363-3 0  9996 | 2 62641  97.4118  61.1460 0001274 240.5064 119.6047 15.24877412 49905 | 2025/12/09-04:47:33   88.8208    0.1238  119.6174   94.4338     6869.2906     6868.4154     6870.1657  47.008924  85.318344   0.000067  -0.000108
1 62641U 25009AJ  25345.16828053  .00021962  00000-0  88232-3 0  9993 | 2 62641  97.4116  63.0942 0001431 232.5339 127.5769 15.24957484 50202 | 2025/12/11-04:02:19   77.5044    0.1238  127.5899   94.4289     6869.0501     6868.0671     6870.0331  44.081183  86.866962   0.000062  -0.000129
1 62641U 25009AJ  25346.21814344  .00019678  00000-0  78990-3 0  9999 | 2 62641  97.4115  64.1334 0001426 226.0108 134.1013 15.25007925 50364 | 2025/12/12-05:14:07   95.4494    0.1238  134.1130   94.4257     6868.8986     6867.9191     6869.8781  42.498429  87.652062   0.000049  -0.000134
1 62641U 25009AJ  25347.66166194  .00012994  00000-0  52231-3 0  9996 | 2 62641  97.4116  65.5624 0001577 218.1946 141.9181 15.25055156 50586 | 2025/12/13-15:52:47  255.1092    0.1238  141.9292   94.4228     6868.7568     6867.6736     6869.8400  40.299371  88.684725   0.000038  -0.000153
1 62641U 25009AJ  25348.77708342  .00009963  00000-0  40102-3 0  9992 | 2 62641  97.4119  66.6669 0001646 215.7285 144.3843 15.25077529 50755 | 2025/12/14-18:39:00  296.6558    0.1238  144.3953   94.4214     6868.6896     6867.5591     6869.8202  38.582518  89.445333   0.000035  -0.000161
1 62641U 25009AJ  25350.15493892  .00007920  00000-0  31927-3 0  9994 | 2 62641  97.4122  68.0310 0001740 205.0781 155.0373 15.25098114 50969 | 2025/12/16-03:43:06   72.6751    0.1238  155.0457   94.4202     6868.6278     6867.4327     6869.8230  36.442380  90.338750   0.000009  -0.000174
1 62641U 25009AJ  25351.20471709  .00009221  00000-0  37092-3 0  9999 | 2 62641  97.4121  69.0705 0001814 201.6636 158.4525 15.25119775 51122 | 2025/12/17-04:54:47   90.5898    0.1237  158.4601   94.4188     6868.5628     6867.3168     6869.8088  34.797448  90.984915   0.000002  -0.000181
1 62641U 25009AJ  25352.25448115  .00010402  00000-0  41771-3 0  9992 | 2 62641  97.4119  70.1102 0001905 196.2804 163.8373 15.25142317 51286 | 2025/12/18-06:06:27  108.4982    0.1238  163.8434   94.4174     6868.4951     6867.1867     6869.8036  33.140712  91.601154  -0.000012  -0.000190
1 62641U 25009AJ  25354.15714848  .00006654  00000-0  26816-3 0  9999 | 2 62641  97.4116  71.9939 0002089 190.1110 170.0086 15.25168417 51579 | 2025/12/20-03:46:17   73.4482    0.1238  170.0128   94.4158     6868.4168     6866.9819     6869.8516  30.111703  92.640732  -0.000029  -0.000207
1 62641U 25009AJ  25355.20688065  .00006549  00000-0  26387-3 0  9993 | 2 62641  97.4113  73.0332 0002172 186.5076 173.6135 15.25183935 51733 | 2025/12/21-04:57:54   91.3457    0.1239  173.6163   94.4148     6868.3702     6866.8784     6869.8620  28.426325  93.171377  -0.000039  -0.000214
1 62641U 25009AJ  25356.45341893  .00012280  00000-0  49143-3 0  9990 | 2 62641  97.4108  74.2672 0002289 181.0452 179.0781 15.25216126 51921 | 2025/12/22-10:52:55  180.0919    0.1237  179.0785   94.4128     6868.2735     6866.7014     6869.8457  26.413086  93.761468  -0.000058  -0.000221
1 62641U 25009AJ  25357.96235518  .00011018  00000-0  44085-3 0  9991 | 2 62641  97.4102  75.7611 0002386 178.1677 181.9570 15.25248453 52150 | 2025/12/23-23:05:47    3.3009    0.1238  181.9561   94.4108     6868.1765     6866.5377     6869.8152  23.959550  94.417620  -0.000066  -0.000229
1 62641U 25009AJ  25359.27444635  .00009942  00000-0  39777-3 0  9994 | 2 62641  97.4097  77.0603 0002518 172.6388 187.4887 15.25277320 52353 | 2025/12/25-06:35:12  115.6450    0.1237  187.4849   94.4091     6868.0898     6866.3604     6869.8192  21.812513  94.936104  -0.000087  -0.000236
1 62641U 25009AJ  25360.78332171  .00010154  00000-0  40582-3 0  9996 | 2 62641  97.4097  78.5542 0002573 170.5769 189.5518 15.25308722 52582 | 2025/12/26-18:47:58  298.8323    0.1238  189.5469   94.4071     6867.9956     6866.2284     6869.7627  19.330065  95.472500  -0.000092  -0.000240
1 62641U 25009AJ  25361.96415803  .00012403  00000-0  49450-3 0  9993 | 2 62641  97.4099  79.7236 0002665 166.4410 193.6900 15.25337781 52764 | 2025/12/27-23:08:23    3.9255    0.1238  193.6828   94.4053     6867.9083     6866.0780     6869.7386  17.377628  95.847309  -0.000108  -0.000244
1 62641U 25009AJ  25363.21056667  .00016040  00000-0  63753-3 0  9995 | 2 62641  97.4100  80.9580 0002783 161.5452 198.5888 15.25379945 52954 | 2025/12/29-05:03:12   92.6238    0.1238  198.5786   94.4027     6867.7818     6865.8705     6869.6931  15.308803  96.199525  -0.000128  -0.000247
1 62641U 25009AJ  25364.45694354  .00014902  00000-0  59198-3 0  9996 | 2 62641  97.4100  82.1923 0002781 160.1616 199.9731 15.25416274 53145 | 2025/12/30-10:57:59  181.3129    0.1238  199.9622   94.4005     6867.6727     6865.7628     6869.5826  13.233024  96.506970  -0.000129  -0.000246
1 62641U 25009AJ  25365.76888504  .00016174  00000-0  64131-3 0  9999 | 2 62641  97.4102  83.4918 0002818 157.7130 202.4231 15.25459147 53342 | 2025/12/31-18:27:11  293.6041    0.1238  202.4108   94.3978     6867.5440     6865.6088     6869.4793  11.040999  96.782454  -0.000136  -0.000247
1 62641U 25009AJ  26002.21197854  .00015981  00000-0  63283-3 0  9991 | 2 62641  97.4100  84.9213 0002928 152.4960 207.6434 15.25506008 53564 | 2026/01/02-05:05:14   93.1073    0.1238  207.6278   94.3949     6867.4034     6865.3926     6869.4142   8.623124  97.027573  -0.000158  -0.000247
1 62641U 25009AJ  26003.78621296  .00015303  00000-0  60527-3 0  9992 | 2 62641  97.4093  86.4806 0002907 148.3682 211.7731 15.25554938 53800 | 2026/01/03-18:52:08  299.8222    0.1238  211.7556   94.3919     6867.2566     6865.2603     6869.2529   5.979616  97.225593  -0.000167  -0.000238
1 62641U 25009AJ  26005.16362691  .00013173  00000-0  52094-3 0  9990 | 2 62641  97.4090  87.8445 0003049 144.8676 215.2764 15.25594362 54017 | 2026/01/05-03:55:37   75.6822    0.1238  215.2562   94.3894     6867.1383     6865.0445     6869.2320   3.663718  97.340076  -0.000185  -0.000243
1 62641U 25009AJ  26006.21306097  .00011724  00000-0  46363-3 0  9997 | 2 62641  97.4082  88.8836 0003202 142.4160 217.7303 15.25623376 54177 | 2026/01/06-05:06:48   93.4715    0.1239  217.7079   94.3876     6867.0512     6864.8524     6869.2500   1.897865  97.389710  -0.000200  -0.000250
1 62641U 25009AJ  26007.65600800  .00008721  00000-0  34545-3 0  9997 | 2 62641  97.4081  90.3127 0003220 140.4914 219.6559 15.25649957 54393 | 2026/01/07-15:44:39  252.9245    0.1238  219.6324   94.3860     6866.9714     6864.7603     6869.1826  -0.531616  97.406649  -0.000203  -0.000250
1 62641U 25009AJ  26009.16451122  .00010084  00000-0  39852-3 0  9997 | 2 62641  97.4080  91.8071 0003248 136.0338 224.1159 15.25685845 54626 | 2026/01/09-03:56:53   75.9757    0.1238  224.0900   94.3838     6866.8637     6864.6334     6869.0941  -3.071724  97.359555  -0.000218  -0.000241
1 62641U 25009AJ  26010.73856895  .00008966  00000-0  35436-3 0  9998 | 2 62641  97.4079  93.3663 0003321 132.2466 227.9054 15.25715871 54864 | 2026/01/10-17:43:32  282.6265    0.1238  227.8772   94.3819     6866.7737     6864.4932     6869.0541  -5.719716  97.239826  -0.000232  -0.000237
1 62641U 25009AJ  26012.18142676  .00010723  00000-0  42276-3 0  9998 | 2 62641  97.4075  94.7957 0003356 129.1512 231.0025 15.25747579 55085 | 2026/01/12-04:21:15   82.0463    0.1238  230.9726   94.3800     6866.6785     6864.3741     6868.9830  -8.143565  97.066490  -0.000242  -0.000233
1 62641U 25009AJ  26013.75542578  .00005620  00000-0  22294-3 0  9995 | 2 62641  97.4076  96.3550 0003405 125.8397 234.3158 15.25767756 55321 | 2026/01/13-18:07:48  288.6763    0.1238  234.2841   94.3787     6866.6180     6864.2799     6868.9561 -10.781891  96.809046  -0.000252  -0.000229
1 62641U 25009AJ  26014.80474833  .00004619  00000-0  18368-3 0  9994 | 2 62641  97.4076  97.3948 0003517 123.3237 236.8338 15.25778198 55489 | 2026/01/14-19:18:50  306.4249    0.1238  236.8001   94.3781     6866.5866     6864.1717     6869.0016 -12.536903  96.597446  -0.000267  -0.000229
1 62641U 25009AJ  26016.18197187  .00006612  00000-0  26150-3 0  9994 | 2 62641  97.4078  98.7588 0003465 120.9214 239.2365 15.25796562 55691 | 2026/01/16-04:22:02   82.2184    0.1238  239.2024   94.3769     6866.5316     6864.1523     6868.9108 -14.832791  96.271843  -0.000267  -0.000221
1 62641U 25009AJ  26017.49359168  .00011406  00000-0  44839-3 0  9999 | 2 62641  97.4072 100.0583 0003523 117.2750 242.8847 15.25827343 55895 | 2026/01/17-11:50:46  194.3930    0.1238  242.8488   94.3750     6866.4392     6864.0202     6868.8583 -17.012183  95.910105  -0.000280  -0.000214
1 62641U 25009AJ  26018.80518992  .00008881  00000-0  34963-3 0  9997 | 2 62641  97.4073 101.3576 0003623 114.4560 245.7056 15.25849243 56091 | 2026/01/18-19:19:28  306.5600    0.1238  245.6678   94.3737     6866.3735     6863.8858     6868.8612 -19.182601  95.499790  -0.000294  -0.000212
1 62641U 25009AJ  26020.18234287  .00013999  00000-0  54855-3 0  9991 | 2 62641  97.4067 102.7217 0003638 111.1454 249.0173 15.25885041 56300 | 2026/01/20-04:22:34   82.3272    0.1238  248.9784   94.3715     6866.2661     6863.7682     6868.7641 -21.450481  95.015483  -0.000302  -0.000203
1 62641U 25009AJ  26022.21516226  .00013086  00000-0  51138-3 0  9991 | 2 62641  97.4058 104.7352 0003666 106.4271 253.7370 15.25991847 56614 | 2026/01/22-05:09:50   94.1309    0.1238  253.6967   94.3649     6865.9457     6863.4287     6868.4628 -24.775374  94.202286  -0.000314  -0.000190
1 62641U 25009AJ  26024.18233080  .00017331  00000-0  67491-3 0  9999 | 2 62641  97.4051 106.6845 0003568 101.9290 258.2349 15.26044368 56914 | 2026/01/24-04:22:33   82.3015    0.1239  258.1949   94.3616     6865.7882     6863.3385     6868.2379 -27.965140  93.304365  -0.000313  -0.000171
1 62641U 25009AJ  26025.49373540  .00015087  00000-0  58739-3 0  9991 | 2 62641  97.4052 107.9837 0003539  98.8418 261.3221 15.26082033 57112 | 2026/01/25-11:50:58  194.4005    0.1238  261.2820   94.3593     6865.6752     6863.2455     6868.1050 -30.073507  92.646410  -0.000316  -0.000160
1 62641U 25009AJ  26026.67397051  .00013436  00000-0  52300-3 0  9999 | 2 62641  97.4051 109.1534 0003533  96.1544 264.0097 15.26116066 57298 | 2026/01/26-16:10:31  259.2785    0.1238  263.9694   94.3572     6865.5731     6863.1475     6867.9988 -31.958463  92.013098  -0.000319  -0.000151
1 62641U 25009AJ  26028.70653714  .00015071  00000-0  58515-3 0  9997 | 2 62641  97.4051 111.1676 0003425  91.2979 268.8652 15.26175479 57603 | 2026/01/28-16:57:24  270.9927    0.1239  268.8260   94.3535     6865.3950     6863.0436     6867.7464 -35.172718  90.832997  -0.000317  -0.000131
1 62641U 25009AJ  26030.21451176  .00015193  00000-0  58891-3 0  9996 | 2 62641  97.4055 112.6620 0003502  88.1912 271.9728 15.26229426 57836 | 2026/01/30-05:08:53   93.8546    0.1239  271.9327   94.3502     6865.2332     6862.8290     6867.6374 -37.529765  89.885194  -0.000327  -0.000125
1 62641U 25009AJ  26031.78800946  .00009356  00000-0  36369-3 0  9992 | 2 62641  97.4051 114.2212 0003391  85.1269 275.0357 15.26259641 58077 | 2026/01/31-18:54:44  300.3069    0.1239  274.9970   94.3483     6865.1426     6862.8146     6867.4705 -39.961465  88.830371  -0.000320  -0.000112
1 62641U 25009AJ  26033.16479164  .00010445  00000-0  40523-3 0  9998 | 2 62641  97.4049 115.5857 0003342  81.5498 278.6120 15.26291427 58281 | 2026/02/02-03:57:17   75.9418    0.1239  278.5741   94.3463     6865.0473     6862.7530     6867.3416 -42.065344  87.853409  -0.000319  -0.000098
1 62641U 25009AJ  26034.21374652  .00011677  00000-0  45225-3 0  9993 | 2 62641  97.4042 116.6255 0003346  78.3346 281.8268 15.26320799 58440 | 2026/02/03-05:07:47   93.5601    0.1239  281.7893   94.3445     6864.9592     6862.6622     6867.2562 -43.652374  87.074959  -0.000323  -0.000086
1 62641U 25009AJ  26035.72158913  .00011693  00000-0  45236-3 0  9990 | 2 62641  97.4038 118.1197 0003255  74.3120 285.8477 15.26356224 58675 | 2026/02/04-17:19:05  276.3771    0.1238  285.8118   94.3423     6864.8530     6862.6185     6867.0875 -45.907887  85.906729  -0.000318  -0.000070
1 62641U 25009AJ  26036.77049908  .00016765  00000-0  64626-3 0  9998 | 2 62641  97.4032 119.1588 0003223  72.0857 288.0733 15.26391525 58832 | 2026/02/05-18:29:31  293.9801    0.1239  288.0382   94.3401     6864.7471     6862.5346     6866.9596 -47.457940  85.059552  -0.000316  -0.000063
1 62641U 25009AJ  26038.21271818  .00012916  00000-0  49827-3 0  9996 | 2 62641  97.4028 120.5880 0003164  69.6436 290.5142 15.26426059 59055 | 2026/02/07-05:06:18   93.1725    0.1238  290.4802   94.3380     6864.6436     6862.4716     6866.8156 -49.564499  83.849066  -0.000311  -0.000056
1 62641U 25009AJ  26039.78601468  .00009873  00000-0  38133-3 0  9993 | 2 62641  97.4026 122.1469 0003029  66.9245 293.2312 15.26455574 59291 | 2026/02/08-18:51:51  299.5532    0.1238  293.1993   94.3362     6864.5551     6862.4758     6866.6344 -51.827127  82.469482  -0.000299  -0.000048
1 62641U 25009AJ  26041.22817243  .00010292  00000-0  39702-3 0  9995 | 2 62641  97.4026 123.5764 0003011  63.3863 296.7683 15.26488068 59510 | 2026/02/10-05:28:34   98.7230    0.1238  296.7375   94.3342     6864.4577     6862.3908     6866.5246 -53.868354  81.150890  -0.000299  -0.000037
1 62641U 25009AJ  26042.73585112  .00010683  00000-0  41157-3 0  9990 | 2 62641  97.4025 125.0708 0002927  60.3385 299.8145 15.26521014 59746 | 2026/02/11-17:39:37  281.4806    0.1239  299.7854   94.3321     6864.3589     6862.3497     6866.3681 -55.966329  79.718361  -0.000291  -0.000028
1 62641U 25009AJ  26043.78465286  .00009764  00000-0  37619-3 0  9991 | 2 62641  97.4025 126.1102 0002843  57.7052 302.4462 15.26541472 59905 | 2026/02/12-18:49:54  299.0452    0.1239  302.4187   94.3309     6864.2976     6862.3461     6866.2491 -57.403208  78.690017  -0.000284  -0.000019
1 62641U 25009AJ  26045.16118405  .00009873  00000-0  38007-3 0  9996 | 2 62641  97.4025 127.4744 0002734  54.8388 305.3106 15.26568275 60112 | 2026/02/14-03:52:06   74.5910    0.1238  305.2850   94.3292     6864.2172     6862.3406     6866.0939 -59.260353  77.301084  -0.000273  -0.000011
1 62641U 25009AJ  26046.20995281  .00011651  00000-0  44758-3 0  9994 | 2 62641  97.4022 128.5140 0002643  51.9286 308.2191 15.26592118 60271 | 2026/02/15-05:02:19   92.1435    0.1239  308.1953   94.3278     6864.1458     6862.3316     6865.9600 -60.652919  76.212938  -0.000264  -0.000002
1 62641U 25009AJ  26047.45534304  .00012478  00000-0  47869-3 0  9991 | 2 62641  97.4017 129.7482 0002540  48.0078 312.1377 15.26622311 60469 | 2026/02/16-10:55:41  180.4795    0.1239  312.1161   94.3259     6864.0553     6862.3118     6865.7987 -62.280093  74.888458  -0.000254   0.000010
1 62641U 25009AJ  26048.70070792  .00010978  00000-0  42119-3 0  9992 | 2 62641  97.4014 130.9824 0002507  44.4131 315.7309 15.26652294 60651 | 2026/02/17-16:49:01  268.8057    0.1239  315.7108   94.3240     6863.9654     6862.2446     6865.6862 -63.878484  73.529395  -0.000250   0.000020
1 62641U 25009AJ  26050.20822216  .00010227  00000-0  39218-3 0  9999 | 2 62641  97.4013 132.4770 0002346  42.4006 317.7414 15.26686977 60886 | 2026/02/19-04:59:50   91.5041    0.1239  317.7233   94.3219     6863.8614     6862.2512     6865.4717 -65.774532  71.838180  -0.000234   0.000021
1 62641U 25009AJ  26051.78124785  .00010503  00000-0  40230-3 0  9992 | 2 62641  97.4006 134.0360 0002160  37.1640 322.9748 15.26719049 61123 | 2026/02/20-18:44:59  297.7880    0.1239  322.9599   94.3199     6863.7653     6862.2827     6865.2479 -67.704151  70.021602  -0.000213   0.000033
1 62641U 25009AJ  26053.94409660  .00013889  00000-0  52994-3 0  9990 | 2 62641  97.3998 136.1800 0002003  33.5417 326.5948 15.26776560 61451 | 2026/02/22-22:39:29  356.4037    0.1239  326.5822   94.3164     6863.5929     6862.2182     6864.9677 -70.275765  67.439142  -0.000197   0.000036
1 62641U 25009AJ  26055.25487295  .00012255  00000-0  46756-3 0  9991 | 2 62641  97.3998 137.4794 0001887  29.0101 331.1242 15.26810817 61651 | 2026/02/24-06:07:01  108.2779    0.1239  331.1138   94.3142     6863.4903     6862.1951     6864.7854 -71.787002  65.828166  -0.000183   0.000044
1 62641U 25009AJ  26057.22098619  .00013104  00000-0  49894-3 0  9998 | 2 62641  97.4002 139.4288 0001745  23.3163 336.8155 15.26860376 61959 | 2026/02/26-05:18:13   96.0697    0.1239  336.8076   94.3112     6863.3418     6862.1441     6864.5394 -73.985029  63.348358  -0.000167   0.000052
1 62641U 25009AJ  26058.66275907  .00011794  00000-0  44893-3 0  9991 | 2 62641  97.4002 140.8582 0001612  17.7902 342.3393 15.26897983 62178 | 2026/02/27-15:54:22  255.1019    0.1239  342.3337   94.3089     6863.2291     6862.1227     6864.3354 -75.542241  61.483078  -0.000150   0.000059
1 62641U 25009AJ  26059.77683193  .00012824  00000-0  48737-3 0  9990 | 2 62641  97.4003 141.9627 0001536  12.1869 347.9406 15.26927953 62343 | 2026/02/28-18:38:38  296.1637    0.1238  347.9369   94.3070     6863.1393     6862.0851     6864.1934 -76.713429  60.015566  -0.000138   0.000067
1 62641U 25009AJ  26060.95641311  .00014262  00000-0  54105-3 0  9992 | 2 62641  97.4001 143.1319 0001360  11.8294 348.2977 15.26963597 62527 | 2026/03/01-22:57:14    0.8068    0.1239  348.2945   94.3048     6863.0324     6862.0991     6863.9658 -77.921914  58.437615  -0.000123   0.000058
1 62641U 25009AJ  26062.20149707  .00013627  00000-0  51657-3 0  9997 | 2 62641  97.3997 144.3662 0001240   5.3699 354.7553 15.27000031 62717 | 2026/03/03-04:50:09   89.0318    0.1239  354.7540   94.3026     6862.9233     6862.0723     6863.7743 -79.162309  56.745312  -0.000107   0.000062
