# SPACE DATA - HISTORICAL TLEs
# ----------------------------
# NORAD_ID    : 58275
# OBJECT_NAME : FLOCK 4Q 12
# --------------------------------------------------------------------+-----------------------------------------------------------------------+----------------------------------------------------------------------------------------------------------------------------------------
#                  LINE 1                                             |                 LINE 2                                                |      DERIVED PARAMETERS
# --------------------------------------------------------------------+-----------------------------------------------------------------------+----------------------------------------------------------------------------------------------------------------------------------------
# NORAD  COSPAR     TLE_EPOCH      MEANMOT1 MEANMOT2   BSTAR  #  REV  |   NORAD    INC     RAAN     ECC    ARGPER  MEANANOM   MEANMOT     REV |  CAL_DATE              LONG     ARGLAT     PERIOD        SMA         PERIGEE        APOGEE      INC_X      INC_Y      ECC_X      ECC_Y
# ------ ------   -------------- ----------  -------  ------- -- ----     -----  ------- -------- ------- -------- -------- -----------  ----   ------------------- ---------  --------  --------  ------------  ------------   ----------- ---------- ----------  ---------  ---------   
1 62667U 25009BL  25043.79399278  .00007973  00000-0  40156-3 0  9996 | 2 62667  97.4435 125.9975 0004733 230.3607 129.7209 15.17438848  4392 | 2025/02/12-19:03:20  302.8380    0.1233  129.7626   94.8967     6891.7213     6888.4595     6894.9832 -57.272412  78.835947   0.000472  -0.000030
1 62667U 25009BL  25044.98095084  .00009472  00000-0  47607-3 0  9990 | 2 62667  97.4431 127.1639 0004805 226.0026 134.0811 15.17460148  4572 | 2025/02/13-23:32:34   10.1443    0.1232  134.1206   94.8954     6891.6569     6888.3454     6894.9683 -58.865097  77.653449   0.000477  -0.000057
1 62667U 25009BL  25046.76134916  .00011542  00000-0  57853-3 0  9991 | 2 62667  97.4426 128.9134 0004891 218.4887 141.5999 15.17502871  4840 | 2025/02/15-18:16:20  291.0881    0.1234  141.6347   94.8927     6891.5275     6888.1569     6894.8981 -61.208087  75.819723   0.000477  -0.000107
1 62667U 25009BL  25048.80544544  .00010819  00000-0  54176-3 0  9991 | 2 62667  97.4418 130.9225 0005050 210.0095 150.0850 15.17553727  5154 | 2025/02/17-19:19:50  306.9625    0.1233  150.1138   94.8896     6891.3735     6887.8934     6894.8537 -63.828041  73.626663   0.000477  -0.000165
1 62667U 25009BL  25050.12418026  .00011433  00000-0  57166-3 0  9999 | 2 62667  97.4414 132.2188 0005181 206.2807 153.8165 15.17587662  5353 | 2025/02/19-02:58:49   61.7079    0.1234  153.8427   94.8874     6891.2708     6887.7004     6894.8412 -65.477077  72.163556   0.000482  -0.000190
1 62667U 25009BL  25051.70662321  .00011324  00000-0  56558-3 0  9996 | 2 62667  97.4414 133.7742 0005299 200.9918 159.1099 15.17628868  5594 | 2025/02/20-16:57:32  271.3872    0.1233  159.1315   94.8849     6891.1461     6887.4944     6894.7977 -67.411724  70.359689   0.000479  -0.000226
1 62667U 25009BL  25053.15716002  .00011190  00000-0  55838-3 0  9994 | 2 62667  97.4416 135.2000 0005383 194.9892 165.1183 15.17664384  5816 | 2025/02/22-03:46:18   73.5785    0.1233  165.1341   94.8826     6891.0386     6887.3291     6894.7480 -69.141708  68.660685   0.000467  -0.000268
1 62667U 25009BL  25054.40986906  .00012464  00000-0  62088-3 0  9995 | 2 62667  97.4417 136.4314 0005466 190.4820 169.6301 15.17696517  6008 | 2025/02/23-09:50:12  164.5525    0.1234  169.6414   94.8806     6890.9413     6887.1747     6894.7079 -70.601353  67.159019   0.000458  -0.000298
1 62667U 25009BL  25055.46476052  .00013581  00000-0  67559-3 0  9997 | 2 62667  97.4415 137.4684 0005549 187.3540 172.7613 15.17725756  6169 | 2025/02/24-11:09:15  184.3130    0.1233  172.7693   94.8788     6890.8528     6887.0291     6894.6765 -71.805092  65.870135   0.000454  -0.000320
1 62667U 25009BL  25056.51963060  .00015629  00000-0  77597-3 0  9992 | 2 62667  97.4414 138.5052 0005601 184.5264 175.5920 15.17758756  6326 | 2025/02/25-12:28:16  204.0661    0.1233  175.5969   94.8767     6890.7529     6886.8934     6894.6124 -72.985154  64.560002   0.000448  -0.000337
1 62667U 25009BL  25057.57447847  .00016005  00000-0  79381-3 0  9991 | 2 62667  97.4413 139.5422 0005680 181.2912 178.8308 15.17791430  6487 | 2025/02/26-13:47:14  223.8104    0.1233  178.8321   94.8747     6890.6540     6886.7401     6894.5679 -74.141536  63.228472   0.000440  -0.000359
1 62667U 25009BL  25058.89300622  .00015770  00000-0  78129-3 0  9993 | 2 62667  97.4412 140.8382 0005778 176.4000 183.7276 15.17832595  6687 | 2025/02/27-21:25:55  338.4784    0.1233  183.7233   94.8721     6890.5294     6886.5481     6894.5108 -75.552564  61.535335   0.000424  -0.000392
1 62667U 25009BL  25060.21149741  .00012558  00000-0  62239-3 0  9991 | 2 62667  97.4406 142.1344 0005880 171.5894 188.5439 15.17870978  6887 | 2025/03/01-05:04:33   93.1329    0.1233  188.5339   94.8697     6890.4133     6886.3617     6894.4648 -76.924750  59.810144   0.000406  -0.000425
1 62667U 25009BL  25061.79364930  .00009388  00000-0  46585-3 0  9997 | 2 62667  97.4395 143.6898 0005980 167.4576 192.6808 15.17904979  7129 | 2025/03/02-19:02:51  302.7065    0.1234  192.6658   94.8676     6890.3104     6886.1900     6894.4308 -78.518978  57.699447   0.000393  -0.000450
1 62667U 25009BL  25063.17800567  .00009711  00000-0  48138-3 0  9998 | 2 62667  97.4390 145.0509 0006032 164.0623 196.0802 15.17931728  7331 | 2025/03/04-04:16:19   81.0741    0.1234  196.0611   94.8659     6890.2294     6886.0732     6894.3856 -79.866975  55.817785   0.000381  -0.000468
1 62667U 25009BL  25064.76009648  .00010988  00000-0  54360-3 0  9997 | 2 62667  97.4389 146.6064 0006159 158.6536 201.4955 15.17966050  7576 | 2025/03/05-18:14:32  290.6241    0.1233  201.4697   94.8638     6890.1256     6885.8819     6894.3692 -81.352648  53.629151   0.000356  -0.000503
1 62667U 25009BL  25066.47399013  .00008817  00000-0  43656-3 0  9999 | 2 62667  97.4392 148.2915 0006315 152.8353 207.3212 15.17997391  7832 | 2025/03/07-11:22:32  187.6226    0.1233  207.2880   94.8618     6890.0307     6885.6797     6894.3818 -82.894757  51.213836   0.000326  -0.000541
1 62667U 25009BL  25067.79234500  .00010333  00000-0  51057-3 0  9994 | 2 62667  97.4391 149.5877 0006362 149.2973 210.8634 15.18024413  8039 | 2025/03/08-19:00:58  302.2294    0.1233  210.8260   94.8601     6889.9489     6885.5656     6894.3323 -84.031969  49.325515   0.000307  -0.000557
1 62667U 25009BL  25069.17658798  .00012216  00000-0  60226-3 0  9997 | 2 62667  97.4391 150.9486 0006416 145.7197 214.4452 15.18060606  8245 | 2025/03/10-04:14:17   80.5561    0.1233  214.4036   94.8579     6889.8394     6885.4189     6894.2600 -85.179744  47.315847   0.000288  -0.000573
1 62667U 25009BL  25070.49488572  .00011145  00000-0  54931-3 0  9991 | 2 62667  97.4392 152.2448 0006500 141.2173 218.9528 15.18090991  8443 | 2025/03/11-11:52:38  195.1413    0.1233  218.9060   94.8560     6889.7475     6885.2692     6894.2258 -86.228369  45.376932   0.000259  -0.000596
1 62667U 25009BL  25071.74724331  .00012991  00000-0  63900-3 0  9992 | 2 62667  97.4390 153.4759 0006594 137.3143 222.8604 15.18123856  8632 | 2025/03/12-17:56:01  285.9887    0.1233  222.8090   94.8539     6889.6481     6885.1050     6894.1911 -87.183214  43.513744   0.000234  -0.000616
1 62667U 25009BL  25072.80183557  .00013565  00000-0  66638-3 0  9998 | 2 62667  97.4385 154.5127 0006632 134.5150 225.6627 15.18156610  8794 | 2025/03/13-19:14:38  305.6416    0.1234  225.6084   94.8519     6889.5490     6884.9798     6894.1181 -87.955852  41.928861   0.000216  -0.000627
1 62667U 25009BL  25074.18595292  .00015202  00000-0  74531-3 0  9995 | 2 62667  97.4380 155.8735 0006598 130.9775 229.2031 15.18201849  9001 | 2025/03/15-04:27:46   83.9244    0.1234  229.1459   94.8490     6889.4121     6884.8665     6893.9577 -88.926325  39.828037   0.000191  -0.000631
1 62667U 25009BL  25075.50411945  .00016258  00000-0  79568-3 0  9991 | 2 62667  97.4377 157.1697 0006536 127.7791 232.4036 15.18248837  9204 | 2025/03/16-12:05:55  198.4653    0.1234  232.3443   94.8461     6889.2700     6884.7671     6893.7728 -89.804245  37.806124   0.000169  -0.000631
1 62667U 25009BL  25076.75633648  .00017986  00000-0  87839-3 0  9994 | 2 62667  97.4377 158.4011 0006597 123.5068 236.6797 15.18300174  9399 | 2025/03/17-18:09:07  289.2624    0.1234  236.6166   94.8429     6889.1147     6884.5699     6893.6594 -90.595971  35.867470   0.000136  -0.000646
1 62667U 25009BL  25077.81080057  .00021553  00000-0  10499-2 0  9994 | 2 62667  97.4372 159.4381 0006664 120.5244 239.6648 15.18350562  9555 | 2025/03/18-19:27:33  308.8691    0.1233  239.5989   94.8398     6888.9623     6884.3714     6893.5531 -91.229797  34.221808   0.000115  -0.000656
1 62667U 25009BL  25079.19473186  .00022480  00000-0  10927-2 0  9992 | 2 62667  97.4364 160.7996 0006543 116.2632 243.9275 15.18417695  9760 | 2025/03/20-04:40:24   87.0855    0.1234  243.8602   94.8356     6888.7592     6884.2519     6893.2665 -92.016410  32.044225   0.000080  -0.000649
1 62667U 25009BL  25080.77630185  .00021190  00000-0  10285-2 0  9996 | 2 62667  97.4364 162.3551 0006454 111.7853 248.4069 15.18480408 10003 | 2025/03/21-18:37:52  296.4525    0.1235  248.3382   94.8316     6888.5695     6884.1236     6893.0154 -92.852351  29.534607   0.000047  -0.000644
1 62667U 25009BL  25082.48957599  .00020971  00000-0  10152-2 0  9996 | 2 62667  97.4367 164.0401 0006571 107.5760 252.6192 15.18573209 10263 | 2025/03/23-11:44:59  193.2319    0.1234  252.5474   94.8259     6888.2889     6883.7626     6892.8152 -93.680941  26.791636   0.000019  -0.000657
1 62667U 25009BL  25083.93920188  .00019645  00000-0  94987-3 0  9996 | 2 62667  97.4368 165.4664 0006606 103.4003 256.7968 15.18628748 10483 | 2025/03/24-22:32:27  355.0978    0.1234  256.7231   94.8224     6888.1209     6883.5706     6892.6712 -94.318885  24.451542  -0.000013  -0.000660
1 62667U 25009BL  25085.52055478  .00016752  00000-0  80955-3 0  9990 | 2 62667  97.4368 167.0221 0006440  99.0065 261.1899 15.18682213 10721 | 2025/03/26-12:29:35  204.3885    0.1235  261.1170   94.8190     6887.9593     6883.5234     6892.3951 -94.947948  21.881889  -0.000045  -0.000642
1 62667U 25009BL  25086.77241662  .00018334  00000-0  88429-3 0  9992 | 2 62667  97.4369 168.2539 0006414  95.2475 264.9491 15.18731244 10910 | 2025/03/27-18:32:16  295.0607    0.1234  264.8759   94.8160     6887.8110     6883.3932     6892.2289 -95.396506  19.835728  -0.000073  -0.000637
1 62667U 25009BL  25088.15600865  .00015798  00000-0  76164-3 0  9994 | 2 62667  97.4368 169.6150 0006454  91.5958 268.6016 15.18778997 11126 | 2025/03/29-03:44:39   73.1557    0.1235  268.5277   94.8130     6887.6666     6883.2213     6892.1119 -95.840658  17.564117  -0.000099  -0.000638
1 62667U 25009BL  25089.21014809  .00013203  00000-0  63672-3 0  9998 | 2 62667  97.4364 170.6521 0006414  88.4553 271.7416 15.18808453 11285 | 2025/03/30-05:02:36   92.6483    0.1234  271.6681   94.8112     6887.5776     6883.1599     6891.9953 -96.142471  15.826476  -0.000121  -0.000630
1 62667U 25009BL  25090.65955858  .00013111  00000-0  63169-3 0  9995 | 2 62667  97.4357 172.0783 0006276  84.5352 275.6598 15.18845515 11502 | 2025/03/31-15:49:45  254.4404    0.1234  275.5882   94.8089     6887.4655     6883.1430     6891.7881 -96.505904  13.428557  -0.000145  -0.000611
1 62667U 25009BL  25091.77953166  .00013943  00000-0  67090-3 0  9999 | 2 62667  97.4350 173.1803 0006098  81.1610 279.0315 15.18877177 11674 | 2025/04/01-18:42:31  297.6351    0.1235  278.9625   94.8069     6887.3698     6883.1699     6891.5697 -96.745622  11.569955  -0.000165  -0.000587
1 62667U 25009BL  25093.16299446  .00018607  00000-0  89241-3 0  9992 | 2 62667  97.4347 174.5417 0006192  77.1833 283.0093 15.18924804 11884 | 2025/04/03-03:54:42   75.6838    0.1235  282.9402   94.8039     6887.2259     6882.9613     6891.4904 -96.992901   9.268113  -0.000194  -0.000588
1 62667U 25009BL  25094.21703178  .00018331  00000-0  87833-3 0  9990 | 2 62667  97.4348 175.5791 0006228  74.3684 285.8237 15.18961392 12046 | 2025/04/04-05:12:31   95.1392    0.1234  285.7550   94.8016     6887.1153     6882.8260     6891.4046 -97.144902   7.510540  -0.000214  -0.000585
1 62667U 25009BL  25095.46866480  .00019436  00000-0  92966-3 0  9994 | 2 62667  97.4349 176.8111 0006104  70.6895 289.4999 15.19009747 12237 | 2025/04/05-11:14:52  185.7315    0.1234  289.4339   94.7986     6886.9691     6882.7653     6891.1729 -97.284028   5.420116  -0.000234  -0.000564
1 62667U 25009BL  25096.78613044  .00015224  00000-0  72840-3 0  9996 | 2 62667  97.4348 178.1078 0005987  66.8587 293.3278 15.19054905 12438 | 2025/04/06-18:52:01  300.0239    0.1235  293.2648   94.7958     6886.8326     6882.7095     6890.9558 -97.381671   3.217211  -0.000253  -0.000542
1 62667U 25009BL  25097.97181785  .00014767  00000-0  70592-3 0  9993 | 2 62667  97.4351 179.2746 0005845  63.3198 296.8634 15.19091851 12614 | 2025/04/07-23:19:25    6.8765    0.1234  296.8036   94.7935     6886.7209     6882.6957     6890.7462 -97.427291   1.233556  -0.000269  -0.000519
1 62667U 25009BL  25099.22334547  .00017593  00000-0  83902-3 0  9998 | 2 62667  97.4354 180.5065 0005845  59.8752 300.3061 15.19135535 12806 | 2025/04/09-05:21:37   97.4300    0.1235  300.2483   94.7908     6886.5889     6882.5637     6890.6141 -97.431593  -0.861327  -0.000289  -0.000508
1 62667U 25009BL  25100.73830541  .00014968  00000-0  71358-3 0  9997 | 2 62667  97.4353 181.9978 0005778  55.5706 304.6074 15.19184181 13038 | 2025/04/10-17:43:09  282.8208    0.1235  304.5529   94.7877     6886.4419     6882.4629     6890.4209 -97.376076  -3.396704  -0.000310  -0.000488
1 62667U 25009BL  25102.18735380  .00015365  00000-0  73144-3 0  9990 | 2 62667  97.4349 183.4241 0005630  50.6523 309.5210 15.19228219 13254 | 2025/04/12-04:29:47   84.4849    0.1235  309.4712   94.7850     6886.3088     6882.4318     6890.1858 -97.260959  -5.819421  -0.000330  -0.000456
1 62667U 25009BL  25103.63635679  .00016653  00000-0  79126-3 0  9998 | 2 62667  97.4345 184.8506 0005498  46.8360 313.3333 15.19278477 13471 | 2025/04/13-15:16:21  246.1317    0.1235  313.2875   94.7818     6886.1570     6882.3710     6889.9430 -97.085545  -8.238852  -0.000341  -0.000431
1 62667U 25009BL  25104.75601050  .00013930  00000-0  66199-3 0  9999 | 2 62667  97.4345 185.9529 0005436  43.2907 316.8754 15.19310910 13641 | 2025/04/14-18:08:39  289.2115    0.1235  316.8328   94.7798     6886.0590     6882.3157     6889.8022 -96.909083 -10.105018  -0.000355  -0.000412
1 62667U 25009BL  25105.94150127  .00014378  00000-0  68250-3 0  9992 | 2 62667  97.4342 187.1200 0005324  39.6596 320.5027 15.19343809 13825 | 2025/04/15-22:35:45  355.9933    0.1235  320.4639   94.7778     6885.9596     6882.2935     6889.6256 -96.682859 -12.076760  -0.000365  -0.000388
1 62667U 25009BL  25107.19282218  .00017052  00000-0  80762-3 0  9992 | 2 62667  97.4338 188.3520 0005228  35.4214 324.7367 15.19385859 14018 | 2025/04/17-04:37:39   86.4744    0.1235  324.7021   94.7751     6885.8325     6882.2326     6889.4324 -96.400453 -14.152669  -0.000378  -0.000362
1 62667U 25009BL  25109.16852996  .00012515  00000-0  59306-3 0  9996 | 2 62667  97.4335 190.2978 0005054  27.8932 332.2573 15.19436816 14319 | 2025/04/19-04:02:40   77.7384    0.1235  332.2303   94.7720     6885.6786     6882.1985     6889.1586 -95.864032 -17.417645  -0.000397  -0.000312
1 62667U 25009BL  25110.68319248  .00012924  00000-0  61159-3 0  9996 | 2 62667  97.4337 191.7894 0004951  23.9351 336.2113 15.19479139 14545 | 2025/04/20-16:23:47  263.0223    0.1235  336.1884   94.7693     6885.5507     6882.1417     6888.9597 -95.378356 -19.907162  -0.000402  -0.000289
1 62667U 25009BL  25111.93440395  .00015113  00000-0  71365-3 0  9996 | 2 62667  97.4338 193.0214 0004831  19.8507 340.2915 15.19515882 14733 | 2025/04/21-22:25:32  353.4639    0.1235  340.2728   94.7670     6885.4397     6882.1133     6888.7660 -94.928385 -21.953293  -0.000406  -0.000262
1 62667U 25009BL  25113.64654054  .00012978  00000-0  61270-3 0  9995 | 2 62667  97.4340 194.7074 0004632  12.1529 347.9816 15.19561399 14993 | 2025/04/23-15:31:01  249.8423    0.1234  347.9705   94.7642     6885.3022     6882.1129     6888.4915 -94.241572 -24.736823  -0.000413  -0.000209
1 62667U 25009BL  25114.70013645  .00015453  00000-0  72802-3 0  9992 | 2 62667  97.4345 195.7452 0004550   8.4929 351.6382 15.19594280 15154 | 2025/04/24-16:48:11  269.1409    0.1235  351.6306   94.7621     6885.2029     6882.0701     6888.3356 -93.778560 -26.439808  -0.000415  -0.000187
1 62667U 25009BL  25116.93895339  .00014382  00000-0  67657-3 0  9999 | 2 62667  97.4348 197.9501 0004352   1.7149 358.4100 15.19660491 15494 | 2025/04/26-22:32:05  355.1230    0.1235  358.4086   94.7580     6885.0029     6882.0065     6887.9992 -92.692189 -30.028293  -0.000410  -0.000146
1 62667U 25009BL  25118.91430166  .00013603  00000-0  63918-3 0  9993 | 2 62667  97.4341 199.8959 0004199 351.7275   8.3890 15.19715445 15792 | 2025/04/28-21:56:35  346.2580    0.1235    8.3960   94.7546     6884.8369     6881.9460     6887.7278 -91.618500 -33.158019  -0.000411  -0.000085
1 62667U 25009BL  25121.81135400  .00013402  00000-0  62836-3 0  9994 | 2 62667  97.4334 202.7502 0003970 341.6461  18.4630 15.19794588 16232 | 2025/05/01-19:28:20  309.2054    0.1235   18.4774   94.7496     6884.5979     6881.8647     6887.3311 -89.853045 -37.678877  -0.000396  -0.000030
1 62667U 25009BL  25122.86478811  .00015121  00000-0  70773-3 0  9995 | 2 62667  97.4330 203.7881 0003877 337.1528  22.9534 15.19827662 16399 | 2025/05/02-20:45:17  328.4450    0.1235   22.9707   94.7476     6884.4980     6881.8289     6887.1671 -89.155430 -39.300113  -0.000388  -0.000006
1 62667U 25009BL  25124.18155179  .00011464  00000-0  53710-3 0  9999 | 2 62667  97.4330 205.0854 0003814 329.9774  30.1242 15.19860283 16592 | 2025/05/04-04:21:26   82.4851    0.1235   30.1461   94.7456     6884.3995     6881.7738     6887.0252 -88.242814 -41.308538  -0.000380   0.000033
1 62667U 25009BL  25125.49828986  .00011337  00000-0  53072-3 0  9997 | 2 62667  97.4335 206.3829 0003761 323.9705  36.1276 15.19889219 16797 | 2025/05/05-11:57:32  196.5146    0.1235   36.1530   94.7437     6884.3121     6881.7229     6886.9013 -87.285258 -43.296313  -0.000371   0.000063
1 62667U 25009BL  25126.81500221  .00009138  00000-0  42818-3 0  9995 | 2 62667  97.4336 207.6801 0003622 318.7178  41.3782 15.19916858 16996 | 2025/05/06-19:33:36  310.5338    0.1234   41.4056   94.7420     6884.2287     6881.7352     6886.7221 -86.282814 -45.261269  -0.000352   0.000085
1 62667U 25009BL  25127.93419072  .00007575  00000-0  35539-3 0  9997 | 2 62667  97.4337 208.7828 0003566 312.9927  47.1009 15.19935752 17163 | 2025/05/07-22:25:14  353.4445    0.1235   47.1308   94.7408     6884.1716     6881.7167     6886.6265 -85.395889 -46.913410  -0.000339   0.000112
1 62667U 25009BL  25129.18503216  .00009778  00000-0  45736-3 0  9997 | 2 62667  97.4339 210.0152 0003570 306.7582  53.3325 15.19959934 17353 | 2025/05/09-04:26:26   83.7508    0.1235   53.3653   94.7393     6884.0986     6881.6410     6886.5562 -84.367305 -48.739334  -0.000328   0.000141
1 62667U 25009BL  25130.69918292  .00009242  00000-0  43213-3 0  9993 | 2 62667  97.4341 211.5072 0003532 298.9229  61.1652 15.19987651 17583 | 2025/05/10-16:46:49  268.8481    0.1236   61.2007   94.7376     6884.0149     6881.5835     6886.4463 -83.069829 -50.919617  -0.000307   0.000174
1 62667U 25009BL  25131.94998203  .00007947  00000-0  37187-3 0  9995 | 2 62667  97.4340 212.7396 0003438 293.4934  66.5939 15.20008874 17773 | 2025/05/11-22:47:58  359.1370    0.1235   66.6301   94.7363     6883.9508     6881.5841     6886.3175 -81.955361 -52.694431  -0.000286   0.000191
1 62667U 25009BL  25133.46408365  .00007314  00000-0  34227-3 0  9999 | 2 62667  97.4339 214.2317 0003466 285.3786  74.7065 15.20033494 18001 | 2025/05/13-11:08:16  184.2161    0.1234   74.7448   94.7348     6883.8765     6881.4905     6886.2624 -80.555373 -54.810553  -0.000264   0.000225
1 62667U 25009BL  25134.91233325  .00008739  00000-0  40800-3 0  9998 | 2 62667  97.4335 215.6589 0003516 277.8174  82.2662 15.20057956 18226 | 2025/05/14-21:53:45  345.5877    0.1235   82.3061   94.7332     6883.8026     6881.3823     6886.2230 -79.164905 -56.799690  -0.000242   0.000255
1 62667U 25009BL  25136.16307526  .00008255  00000-0  38536-3 0  9998 | 2 62667  97.4333 216.8917 0003542 271.4623  88.6207 15.20079163 18410 | 2025/05/16-03:54:49   75.8554    0.1236   88.6613   94.7319     6883.7386     6881.3004     6886.1768 -77.924389 -58.489636  -0.000220   0.000278
1 62667U 25009BL  25137.47962525  .00011114  00000-0  51711-3 0  9997 | 2 62667  97.4331 218.1893 0003507 265.3374  94.7460 15.20107731 18616 | 2025/05/17-11:30:39  189.8130    0.1234   94.7860   94.7301     6883.6524     6881.2383     6886.0665 -76.579724 -60.239147  -0.000194   0.000292
1 62667U 25009BL  25138.73032768  .00009786  00000-0  45547-3 0  9996 | 2 62667  97.4329 219.4221 0003598 259.1268 100.9562 15.20129597 18803 | 2025/05/18-17:31:40  280.0663    0.1235  100.9967   94.7288     6883.5864     6881.1096     6886.0631 -75.265813 -61.872671  -0.000172   0.000316
1 62667U 25009BL  25140.17849002  .00007317  00000-0  34128-3 0  9995 | 2 62667  97.4328 220.8495 0003657 252.3124 107.7712 15.20148113 19025 | 2025/05/20-04:17:01   81.4041    0.1235  107.8111   94.7276     6883.5305     6881.0131     6886.0478 -73.701118 -63.728296  -0.000144   0.000336
1 62667U 25009BL  25142.48234057  .00007022  00000-0  32731-3 0  9990 | 2 62667  97.4335 223.1203 0003745 241.0336 119.0523 15.20183866 19372 | 2025/05/22-11:34:34  190.7880    0.1234  119.0898   94.7254     6883.4225     6880.8447     6886.0004 -71.118675 -66.598957  -0.000092   0.000363
1 62667U 25009BL  25143.79880403  .00006332  00000-0  29537-3 0  9990 | 2 62667  97.4336 224.4178 0003854 235.1721 124.9152 15.20201187 19573 | 2025/05/23-19:10:16  304.7135    0.1235  124.9514   94.7243     6883.3702     6880.7174     6886.0231 -69.592463 -68.192342  -0.000064   0.000380
1 62667U 25009BL  25145.18107511  .00006536  00000-0  30457-3 0  9996 | 2 62667  97.4340 225.7803 0003970 229.4849 130.6040 15.20219176 19783 | 2025/05/25-04:20:44   82.3294    0.1234  130.6385   94.7232     6883.3159     6880.5833     6886.0486 -67.951598 -69.828108  -0.000036   0.000395
1 62667U 25009BL  25147.48482047  .00006316  00000-0  29417-3 0  9991 | 2 62667  97.4341 228.0512 0004133 219.3363 140.7572 15.20251844 20139 | 2025/05/27-11:38:08  191.6729    0.1234  140.7871   94.7211     6883.2173     6880.3725     6886.0622 -65.131408 -72.465878   0.000019   0.000413
1 62667U 25009BL  25149.45941717  .00008298  00000-0  38503-3 0  9991 | 2 62667  97.4335 229.9982 0004326 211.9499 148.1474 15.20285548 20439 | 2025/05/29-11:01:33  182.5232    0.1234  148.1735   94.7190     6883.1156     6880.1380     6886.0932 -62.631391 -74.636424   0.000061   0.000428
1 62667U 25009BL  25150.77578865  .00008705  00000-0  40343-3 0  9996 | 2 62667  97.4332 231.2962 0004453 207.3066 152.7935 15.20310988 20632 | 2025/05/30-18:37:08  296.4136    0.1234  152.8168   94.7175     6883.0388     6879.9738     6886.1038 -60.924436 -76.035791   0.000088   0.000437
1 62667U 25009BL  25152.48704016  .00009445  00000-0  43697-3 0  9992 | 2 62667  97.4332 232.9834 0004614 200.4982 159.6069 15.20343695 20891 | 2025/06/01-11:41:20  192.4586    0.1235  159.6253   94.7154     6882.9401     6879.7643     6886.1159 -58.659306 -77.796622   0.000131   0.000442
1 62667U 25009BL  25154.46150274  .00012603  00000-0  58090-3 0  9996 | 2 62667  97.4332 234.9303 0004823 193.5639 166.5467 15.20395909 21195 | 2025/06/03-11:04:33  183.2589    0.1235  166.5596   94.7122     6882.7825     6879.4629     6886.1021 -55.982438 -79.744562   0.000177   0.000449
1 62667U 25009BL  25155.77778431  .00008741  00000-0  40385-3 0  9998 | 2 62667  97.4333 236.2282 0004929 189.5979 170.5162 15.20415281 21391 | 2025/06/04-18:40:00  297.1162    0.1234  170.5255   94.7110     6882.7240     6879.3316     6886.1165 -54.161861 -80.992226   0.000202   0.000450
1 62667U 25009BL  25157.48892489  .00006160  00000-0  28543-3 0  9993 | 2 62667  97.4339 237.9153 0005080 183.3012 176.8191 15.20437292 21657 | 2025/06/06-11:44:03  193.1201    0.1235  176.8223   94.7096     6882.6576     6879.1612     6886.1540 -51.754194 -82.552216   0.000245   0.000445
1 62667U 25009BL  25158.67354553  .00006285  00000-0  29100-3 0  9998 | 2 62667  97.4342 239.0833 0005192 179.1379 180.9866 15.20453430 21839 | 2025/06/07-16:09:54  259.5790    0.1235  180.9856   94.7086     6882.6089     6879.0355     6886.1824 -50.060847 -83.590280   0.000273   0.000441
1 62667U 25009BL  25159.72653174  .00006104  00000-0  28260-3 0  9992 | 2 62667  97.4343 240.1216 0005289 175.9907 184.1371 15.20466693 21995 | 2025/06/08-17:26:12  278.6503    0.1234  184.1327   94.7078     6882.5689     6878.9287     6886.2091 -48.537958 -84.483782   0.000295   0.000439
1 62667U 25009BL  25160.77950685  .00007423  00000-0  34279-3 0  9998 | 2 62667  97.4343 241.1599 0005373 172.9065 187.2247 15.20483986 22155 | 2025/06/09-18:42:29  297.7175    0.1235  187.2170   94.7067     6882.5167     6878.8187     6886.2147 -46.999078 -85.349455   0.000315   0.000435
1 62667U 25009BL  25162.49057110  .00006226  00000-0  28786-3 0  9996 | 2 62667  97.4342 242.8473 0005539 167.1834 192.9543 15.20505414 22419 | 2025/06/11-11:46:25  193.6932    0.1235  192.9401   94.7054     6882.4520     6878.6399     6886.2642 -44.465415 -86.696310   0.000356   0.000425
1 62667U 25009BL  25163.74094734  .00006753  00000-0  31176-3 0  9990 | 2 62667  97.4340 244.0806 0005640 163.5354 196.6065 15.20523460 22603 | 2025/06/12-17:46:57  283.8236    0.1234  196.5880   94.7042     6882.3976     6878.5159     6886.2793 -42.589020 -87.633097   0.000380   0.000417
1 62667U 25009BL  25165.18872742  .00009088  00000-0  41800-3 0  9992 | 2 62667  97.4335 245.5085 0005745 159.5000 200.6467 15.20553500 22825 | 2025/06/14-04:31:46   85.0187    0.1235  200.6235   94.7024     6882.3069     6878.3531     6886.2608 -40.391861 -88.666705   0.000406   0.000406
1 62667U 25009BL  25167.16293327  .00006073  00000-0  28022-3 0  9990 | 2 62667  97.4331 247.4558 0005906 153.5635 206.5903 15.20583086 23120 | 2025/06/16-03:54:37   75.7243    0.1235  206.5600   94.7005     6882.2177     6878.1530     6886.2823 -37.355464 -89.987656   0.000446   0.000388
1 62667U 25009BL  25168.93968937  .00006185  00000-0  28512-3 0  9990 | 2 62667  97.4334 249.2085 0006081 148.1578 212.0026 15.20606525 23390 | 2025/06/17-22:33:09  355.3485    0.1235  211.9657   94.6991     6882.1469     6877.9619     6886.3320 -34.585766 -91.088376   0.000483   0.000369
1 62667U 25009BL  25170.51900894  .00005546  00000-0  25590-3 0  9998 | 2 62667  97.4333 250.7660 0006152 144.2918 215.8730 15.20622775 23634 | 2025/06/19-12:27:22  203.8983    0.1235  215.8317   94.6980     6882.0979     6877.8641     6886.3318 -32.097159 -91.994676   0.000504   0.000353
1 62667U 25009BL  25172.16411624  .00004820  00000-0  22274-3 0  9999 | 2 62667  97.4337 252.3884 0006255 139.4446 220.7256 15.20638117 23882 | 2025/06/21-03:56:19   76.1306    0.1235  220.6789   94.6971     6882.0516     6877.7469     6886.3564 -29.479819 -92.866927   0.000531   0.000330
1 62667U 25009BL  25174.20402552  .00004085  00000-0  18914-3 0  9995 | 2 62667  97.4340 254.4002 0006367 133.4269 226.7497 15.20656150 24197 | 2025/06/23-04:53:47   90.4903    0.1235  226.6966   94.6960     6881.9972     6877.6155     6886.3790 -26.201606 -93.844873   0.000563   0.000297
1 62667U 25009BL  25175.65169018  .00004288  00000-0  19833-3 0  9998 | 2 62667  97.4342 255.8282 0006451 129.5635 230.6171 15.20667972 24413 | 2025/06/24-15:38:26  251.6445    0.1235  230.5600   94.6952     6881.9616     6877.5220     6886.4011 -23.854836 -94.468884   0.000583   0.000277
1 62667U 25009BL  25177.49415416  .00005040  00000-0  23242-3 0  9994 | 2 62667  97.4340 257.6458 0006501 125.1355 235.0490 15.20685495 24696 | 2025/06/26-11:51:34  194.9261    0.1235  234.9880   94.6941     6881.9087     6877.4348     6886.3826 -20.846447 -95.177781   0.000599   0.000252
1 62667U 25009BL  25178.67858252  .00004941  00000-0  22782-3 0  9991 | 2 62667  97.4338 258.8142 0006549 121.6824 238.5051 15.20698116 24875 | 2025/06/27-16:17:09  261.3163    0.1235  238.4411   94.6934     6881.8706     6877.3637     6886.3775 -18.901303 -95.582876   0.000613   0.000229
1 62667U 25009BL  25179.79720088  .00004341  00000-0  20051-3 0  9991 | 2 62667  97.4336 259.9178 0006585 118.5534 241.6365 15.20708416 25045 | 2025/06/28-19:07:58  304.0155    0.1235  241.5701   94.6927     6881.8395     6877.3078     6886.3712 -17.056810 -95.928993   0.000625   0.000209
1 62667U 25009BL  25181.17901296  .00004746  00000-0  21882-3 0  9990 | 2 62667  97.4333 261.2810 0006629 114.6413 245.5513 15.20722394 25255 | 2025/06/30-04:17:46   81.4639    0.1235  245.4822   94.6918     6881.7974     6877.2354     6886.3593 -14.769778 -96.307329   0.000637   0.000182
1 62667U 25009BL  25182.75821036  .00005555  00000-0  25541-3 0  9993 | 2 62667  97.4331 262.8391 0006631 110.7871 249.4076 15.20740474 25494 | 2025/07/01-18:11:49  289.9713    0.1236  249.3365   94.6907     6881.7428     6877.1795     6886.3061 -12.145636 -96.673122   0.000644   0.000156
1 62667U 25009BL  25184.46898468  .00005529  00000-0  25409-3 0  9990 | 2 62667  97.4331 264.5267 0006633 106.1910 254.0056 15.20760837 25754 | 2025/07/03-11:15:20  185.8468    0.1236  253.9326   94.6894     6881.6814     6877.1168     6886.2460  -9.293353 -96.988879   0.000652   0.000123
1 62667U 25009BL  25185.78494812  .00006819  00000-0  31240-3 0  9994 | 2 62667  97.4331 265.8246 0006640 102.6958 257.5020 15.20780052 25958 | 2025/07/04-18:50:19  299.5916    0.1235  257.4277   94.6882     6881.6234     6877.0540     6886.1928  -7.094103 -97.174496   0.000657   0.000098
1 62667U 25009BL  25187.16669224  .00007210  00000-0  32994-3 0  9992 | 2 62667  97.4333 267.1875 0006632  98.9536 261.2450 15.20800358 26168 | 2025/07/06-04:00:02   77.0177    0.1235  261.1699   94.6870     6881.5622     6876.9983     6886.1260  -4.780825 -97.315937   0.000659   0.000071
1 62667U 25009BL  25188.81160197  .00005682  00000-0  26056-3 0  9993 | 2 62667  97.4338 268.8102 0006640  94.6057 265.5937 15.20821315 26415 | 2025/07/07-19:28:42  309.1830    0.1235  265.5178   94.6857     6881.4989     6876.9296     6886.0683  -2.023158 -97.412793   0.000663   0.000040
1 62667U 25009BL  25190.25910578  .00004552  00000-0  20931-3 0  9991 | 2 62667  97.4340 270.2383 0006608  90.6416 269.5577 15.20835995 26632 | 2025/07/09-06:13:06  110.2831    0.1236  269.4820   94.6848     6881.4547     6876.9074     6886.0019   0.405238 -97.433157   0.000661   0.000010
1 62667U 25009BL  25191.77239131  .00004321  00000-0  19877-3 0  9999 | 2 62667  97.4338 271.7315 0006575  86.5818 273.6169 15.20849800 26861 | 2025/07/10-18:32:14  295.0648    0.1235  273.5417   94.6839     6881.4130     6876.8885     6885.9375   2.944038 -97.389312   0.000657  -0.000019
1 62667U 25009BL  25193.48304405  .00005120  00000-0  23481-3 0  9990 | 2 62667  97.4333 273.4194 0006482  82.1649 278.0322 15.20868196 27120 | 2025/07/12-11:35:35  190.8996    0.1235  277.9586   94.6828     6881.3575     6876.8970     6885.8180   5.811348 -97.259839   0.000646  -0.000050
1 62667U 25009BL  25194.79891614  .00005165  00000-0  23675-3 0  9992 | 2 62667  97.4331 274.7180 0006476  78.7000 281.4962 15.20883023 27328 | 2025/07/13-19:10:26  304.6129    0.1235  281.4235   94.6818     6881.3128     6876.8565     6885.7691   8.014029 -97.102957   0.000643  -0.000074
1 62667U 25009BL  25196.18056819  .00005879  00000-0  26887-3 0  9997 | 2 62667  97.4328 276.0813 0006410  74.9652 285.2292 15.20899611 27532 | 2025/07/15-04:20:01   82.0079    0.1235  285.1583   94.6808     6881.2628     6876.8519     6885.6737  10.321986 -96.884504   0.000633  -0.000100
1 62667U 25009BL  25197.69378856  .00006075  00000-0  27759-3 0  9990 | 2 62667  97.4325 277.5741 0006321  70.9496 289.2424 15.20918044 27766 | 2025/07/16-16:39:03  266.7684    0.1236  289.1740   94.6797     6881.2072     6876.8576     6885.5568  12.842413 -96.582423   0.000619  -0.000126
1 62667U 25009BL  25198.87803447  .00005775  00000-0  26392-3 0  9998 | 2 62667  97.4326 278.7424 0006266  67.7023 292.4876 15.20932693 27949 | 2025/07/17-21:04:22  333.0979    0.1235  292.4212   94.6787     6881.1630     6876.8512     6885.4747  14.809003 -96.300597   0.000609  -0.000147
1 62667U 25009BL  25200.25964237  .00004762  00000-0  21811-3 0  9995 | 2 62667  97.4328 280.1055 0006183  63.7164 296.4706 15.20946211 28159 | 2025/07/19-06:13:53  110.4784    0.1236  296.4072   94.6779     6881.1222     6876.8676     6885.3768  17.095679 -95.921261   0.000594  -0.000172
1 62667U 25009BL  25201.64123633  .00005396  00000-0  24661-3 0  9996 | 2 62667  97.4330 281.4684 0006080  59.7310 300.4527 15.20962158 28366 | 2025/07/20-15:23:22  247.8544    0.1236  300.3926   94.6769     6881.0741     6876.8904     6885.2578  19.372355 -95.487703   0.000576  -0.000196
1 62667U 25009BL  25202.69386915  .00005619  00000-0  25659-3 0  9992 | 2 62667  97.4332 282.5071 0006037  56.7086 303.4727 15.20975182 28523 | 2025/07/21-16:39:10  266.8034    0.1236  303.4150   94.6761     6881.0348     6876.8808     6885.1889  21.100192 -95.121030   0.000564  -0.000214
1 62667U 25009BL  25204.53595542  .00006999  00000-0  31854-3 0  9991 | 2 62667  97.4332 284.3245 0005918  51.2521 308.9243 15.21000011 28802 | 2025/07/23-12:51:46  209.9576    0.1236  308.8715   94.6746     6880.9599     6876.8878     6885.0321  24.106274 -94.404004   0.000539  -0.000245
1 62667U 25009BL  25205.78592358  .00007198  00000-0  32736-3 0  9993 | 2 62667  97.4330 285.5580 0005812  47.4694 312.7032 15.21019016 28990 | 2025/07/24-18:51:43  299.9485    0.1236  312.6542   94.6734     6880.9026     6876.9034     6884.9018  26.132867 -93.863000   0.000518  -0.000264
1 62667U 25009BL  25207.69374021  .00006907  00000-0  31400-3 0  9994 | 2 62667  97.4329 287.4410 0005630  41.4730 318.6932 15.21046841 29287 | 2025/07/26-16:38:59  266.7663    0.1236  318.6506   94.6716     6880.8187     6876.9448     6884.6926  29.202935 -92.953529   0.000482  -0.000291
1 62667U 25009BL  25208.81209920  .00006499  00000-0  29552-3 0  9995 | 2 62667  97.4324 288.5447 0005523  38.3564 321.8064 15.21062512 29459 | 2025/07/27-19:29:25  309.3775    0.1236  321.7672   94.6707     6880.7715     6876.9712     6884.5717  30.987830 -92.373302   0.000463  -0.000302
1 62667U 25009BL  25210.25937288  .00006383  00000-0  29016-3 0  9998 | 2 62667  97.4319 289.9729 0005410  33.7288 326.4291 15.21080341 29675 | 2025/07/29-06:13:29  110.3993    0.1236  326.3948   94.6696     6880.7177     6876.9952     6884.4402  33.280364 -91.571789   0.000436  -0.000320
1 62667U 25009BL  25211.77241294  .00007314  00000-0  33178-3 0  9990 | 2 62667  97.4316 291.4658 0005252  28.6905 331.4619 15.21101062 29904 | 2025/07/30-18:32:16  295.0976    0.1236  331.4331   94.6683     6880.6552     6877.0415     6884.2689  35.654684 -90.673371   0.000403  -0.000336
1 62667U 25009BL  25212.89073128  .00007559  00000-0  34262-3 0  9999 | 2 62667  97.4316 292.5693 0005177  25.1765 334.9722 15.21119088 30077 | 2025/07/31-21:22:39  337.6947    0.1236  334.9471   94.6671     6880.6008     6877.0387     6884.1629  37.394306 -89.969898   0.000383  -0.000348
1 62667U 25009BL  25214.46951211  .00006762  00000-0  30666-3 0  9991 | 2 62667  97.4316 294.1271 0005035  20.1484 339.9950 15.21142394 30314 | 2025/08/02-11:16:05  186.0594    0.1237  339.9753   94.6657     6880.5306     6877.0662     6883.9949  39.826352 -88.920067   0.000351  -0.000361
1 62667U 25009BL  25215.65358438  .00005730  00000-0  26026-3 0  9994 | 2 62667  97.4318 295.2953 0004908  15.7453 344.3935 15.21155706 30492 | 2025/08/03-15:41:09  252.3289    0.1237  344.3784   94.6649     6880.4904     6877.1135     6883.8674  41.631020 -88.089805   0.000322  -0.000370
1 62667U 25009BL  25217.16654854  .00006643  00000-0  30101-3 0  9996 | 2 62667  97.4321 296.7882 0004742  10.3568 349.7764 15.21176109 30722 | 2025/08/05-03:59:49   76.9999    0.1235  349.7667   94.6636     6880.4289     6877.1662     6883.6916  43.912034 -86.975556   0.000286  -0.000378
1 62667U 25009BL  25218.81105266  .00005999  00000-0  27200-3 0  9996 | 2 62667  97.4322 298.4111 0004594   4.2186 355.9088 15.21196402 30973 | 2025/08/06-19:27:54  309.0252    0.1236  355.9050   94.6623     6880.3677     6877.2069     6883.5285  46.357716 -85.697116   0.000248  -0.000387
1 62667U 25009BL  25220.45553798  .00005282  00000-0  23978-3 0  9999 | 2 62667  97.4321 300.0342 0004464 358.0252   2.0965 15.21212428 31228 | 2025/08/08-10:55:58  181.0434    0.1236    2.0984   94.6613     6880.3194     6877.2480     6883.3908  48.766407 -84.349580   0.000210  -0.000394
1 62667U 25009BL  25222.29733377  .00007818  00000-0  35300-3 0  9995 | 2 62667  97.4318 301.8521 0004243 350.9078   9.2080 15.21241654 31505 | 2025/08/10-07:08:09  124.0933    0.1236    9.2158   94.6595     6880.2313     6877.3120     6883.1505  51.417528 -82.759854   0.000164  -0.000391
1 62667U 25009BL  25223.48132650  .00006801  00000-0  30738-3 0  9995 | 2 62667  97.4314 303.0207 0004148 346.4208  13.6916 15.21259108 31684 | 2025/08/11-11:33:06  190.3324    0.1237   13.7029   94.6584     6880.1786     6877.3247     6883.0325  53.094462 -81.693671   0.000138  -0.000391
1 62667U 25009BL  25224.66530761  .00006388  00000-0  28878-3 0  9993 | 2 62667  97.4309 304.1893 0004055 341.5390  18.5697 15.21273988 31868 | 2025/08/12-15:58:02  256.5677    0.1235   18.5845   94.6575     6880.1338     6877.3439     6882.9237  54.749239 -80.593431   0.000110  -0.000390
1 62667U 25009BL  25225.78350113  .00006004  00000-0  27154-3 0  9999 | 2 62667  97.4306 305.2929 0003983 336.4463  23.6590 15.21287304 32036 | 2025/08/13-18:48:14  299.1193    0.1236   23.6773   94.6567     6880.0936     6877.3533     6882.8340  56.291161 -79.523751   0.000081  -0.000390
1 62667U 25009BL  25227.49365737  .00006700  00000-0  30243-3 0  9993 | 2 62667  97.4303 306.9803 0003860 328.8061  31.2945 15.21312165 32296 | 2025/08/15-11:50:51  194.7785    0.1236   31.3175   94.6551     6880.0187     6877.3630     6882.6743  58.608261 -77.831453   0.000039  -0.000384
1 62667U 25009BL  25228.67759511  .00006041  00000-0  27287-3 0  9993 | 2 62667  97.4304 308.1485 0003757 323.8439  36.2542 15.21329048 32472 | 2025/08/16-16:15:44  260.9973    0.1236   36.2797   94.6541     6879.9678     6877.3830     6882.5526  60.182932 -76.620477   0.000013  -0.000375
1 62667U 25009BL  25230.19038755  .00005876  00000-0  26536-3 0  9994 | 2 62667  97.4307 309.6413 0003703 316.1273  43.9668 15.21347822 32704 | 2025/08/18-04:34:09   85.6049    0.1236   43.9963   94.6529     6879.9112     6877.3635     6882.4588  62.158763 -75.026859  -0.000027  -0.000369
1 62667U 25009BL  25231.76893431  .00007339  00000-0  33038-3 0  9999 | 2 62667  97.4311 311.1992 0003598 309.1486  50.9429 15.21369870 32945 | 2025/08/19-18:27:15  293.8823    0.1235   50.9749   94.6515     6879.8447     6877.3693     6882.3201  64.175815 -73.309508  -0.000060  -0.000355
1 62667U 25009BL  25234.20247515  .00006331  00000-0  28517-3 0  9994 | 2 62667  97.4309 313.6009 0003569 295.9760  64.1108 15.21406522 33312 | 2025/08/22-04:51:33   89.9586    0.1236   64.1476   94.6493     6879.7342     6877.2788     6882.1896  67.191361 -70.555661  -0.000125  -0.000334
1 62667U 25009BL  25235.78096240  .00006451  00000-0  29036-3 0  9995 | 2 62667  97.4307 315.1590 0003581 287.9921  72.0924 15.21425825 33553 | 2025/08/23-18:44:35  298.2141    0.1236   72.1315   94.6481     6879.6760     6877.2124     6882.1396  69.084829 -68.702458  -0.000162  -0.000319
1 62667U 25009BL  25236.83327567  .00007269  00000-0  32657-3 0  9992 | 2 62667  97.4304 316.1977 0003574 283.2934  76.7903 15.21440678 33714 | 2025/08/24-19:59:55  317.0462    0.1236   76.8302   94.6471     6879.6312     6877.1724     6882.0900  70.318681 -67.438609  -0.000181  -0.000308
1 62667U 25009BL  25238.47749198  .00007781  00000-0  34907-3 0  9991 | 2 62667  97.4299 317.8209 0003582 274.6300  85.4526 15.21466667 33964 | 2025/08/26-11:27:35  188.9625    0.1235   85.4935   94.6455     6879.5529     6877.0886     6882.0171  72.200386 -65.419337  -0.000218  -0.000284
1 62667U 25009BL  25239.79284188  .00010538  00000-0  47113-3 0  9997 | 2 62667  97.4294 319.1192 0003669 268.2602  91.8214 15.21494714 34167 | 2025/08/27-19:01:41  302.4877    0.1236   91.8634   94.6438     6879.4683     6876.9443     6881.9924  73.663722 -63.766323  -0.000248  -0.000270
1 62667U 25009BL  25241.17393414  .00012011  00000-0  53596-3 0  9995 | 2 62667  97.4290 320.4822 0003720 262.0313  98.0501 15.21525595 34370 | 2025/08/29-04:10:27   79.6794    0.1236   98.0923   94.6419     6879.3753     6876.8161     6881.9344  75.159355 -61.995818  -0.000274  -0.000251
1 62667U 25009BL  25242.75228658  .00012272  00000-0  54686-3 0  9997 | 2 62667  97.4290 322.0398 0003753 254.8677 105.2144 15.21566033 34617 | 2025/08/30-18:03:17  287.8836    0.1236  105.2559   94.6393     6879.2534     6876.6716     6881.8351  76.816748 -59.929936  -0.000300  -0.000225
1 62667U 25009BL  25243.93602256  .00014361  00000-0  63863-3 0  9996 | 2 62667  97.4288 323.2080 0003847 249.2325 110.8499 15.21599151 34798 | 2025/08/31-22:27:52  354.0268    0.1236  110.8911   94.6373     6879.1535     6876.5071     6881.8000  78.022445 -58.351257  -0.000325  -0.000206
1 62667U 25009BL  25245.77733540  .00019670  00000-0  87140-3 0  9993 | 2 62667  97.4291 325.0253 0003966 241.7993 118.2843 15.21660691 35079 | 2025/09/02-18:39:21  296.8959    0.1236  118.3243   94.6334     6878.9681     6876.2399     6881.6963  79.833915 -55.847789  -0.000354  -0.000179
1 62667U 25009BL  25247.15827168  .00012546  00000-0  55682-3 0  9998 | 2 62667  97.4299 326.3884 0004062 235.9145 124.1706 15.21698831 35287 | 2025/09/04-03:47:54   74.0294    0.1236  124.2091   94.6311     6878.8531     6876.0589     6881.6473  81.140516 -53.933312  -0.000376  -0.000154
1 62667U 25009BL  25248.80220580  .00009996  00000-0  44397-3 0  9992 | 2 62667  97.4293 328.0114 0004192 229.0022 131.0852 15.21732397 35531 | 2025/09/05-19:15:10  305.8408    0.1236  131.1214   94.6290     6878.7520     6875.8684     6881.6355  82.635003 -51.613222  -0.000401  -0.000123
1 62667U 25009BL  25250.18308053  .00010828  00000-0  48018-3 0  9998 | 2 62667  97.4290 329.3748 0004339 223.7497 136.3396 15.21764100 35746 | 2025/09/07-04:23:38   82.9514    0.1236  136.3739   94.6270     6878.6564     6875.6718     6881.6411  83.839414 -49.632275  -0.000423  -0.000099
1 62667U 25009BL  25251.76119088  .00009207  00000-0  40846-3 0  9991 | 2 62667  97.4287 330.9331 0004472 217.4693 142.6232 15.21794556 35987 | 2025/09/08-18:16:06  291.0651    0.1236  142.6543   94.6251     6878.5647     6875.4886     6881.6408  85.157851 -47.333836  -0.000442  -0.000065
1 62667U 25009BL  25253.01050918  .00006763  00000-0  30080-3 0  9990 | 2 62667  97.4284 332.1667 0004577 212.1950 147.9008 15.21811503 36177 | 2025/09/10-00:15:07   20.8142    0.1237  147.9287   94.6241     6878.5136     6875.3653     6881.6619  86.156885 -45.489386  -0.000456  -0.000035
1 62667U 25009BL  25254.72007757  .00007671  00000-0  34046-3 0  9997 | 2 62667  97.4277 333.8545 0004723 205.9484 154.1516 15.21838958 36433 | 2025/09/11-17:16:54  276.2518    0.1236  154.1752   94.6224     6878.4309     6875.1822     6881.6795  87.458696 -42.931728  -0.000472   0.000002
1 62667U 25009BL  25256.16661241  .00007312  00000-0  32447-3 0  9996 | 2 62667  97.4273 335.2826 0004862 200.9522 159.1516 15.21860771 36656 | 2025/09/13-03:59:55   76.9982    0.1236  159.1714   94.6210     6878.3651     6875.0209     6881.7094  88.501131 -40.738539  -0.000485   0.000032
1 62667U 25009BL  25257.48162474  .00007347  00000-0  32577-3 0  9998 | 2 62667  97.4274 336.5805 0004976 195.8325 164.2756 15.21882177 36856 | 2025/09/14-11:33:32  190.3966    0.1235  164.2910   94.6197     6878.3006     6874.8780     6881.7233  89.401273 -38.723515  -0.000493   0.000066
1 62667U 25009BL  25258.66511863  .00010691  00000-0  47213-3 0  9998 | 2 62667  97.4274 337.7489 0005073 191.7218 168.3900 15.21908077 37037 | 2025/09/15-15:57:46  256.4488    0.1235  168.4017   94.6181     6878.2226     6874.7333     6881.7119  90.172297 -36.892481  -0.000499   0.000093
1 62667U 25009BL  25260.17733102  .00010011  00000-0  44189-3 0  9994 | 2 62667  97.4275 339.2418 0005229 187.4240 172.6920 15.21940183 37266 | 2025/09/17-04:15:21   80.8387    0.1236  172.6996   94.6161     6878.1259     6874.5293     6881.7224  91.102945 -34.530729  -0.000509   0.000121
1 62667U 25009BL  25261.75525523  .00009589  00000-0  42297-3 0  9991 | 2 62667  97.4280 340.7999 0005342 181.3975 178.7247 15.21975835 37505 | 2025/09/18-18:07:34  288.8824    0.1236  178.7261   94.6139     6878.0185     6874.3442     6881.6927  92.008645 -32.040980  -0.000509   0.000163
1 62667U 25009BL  25262.80718652  .00009555  00000-0  42123-3 0  9996 | 2 62667  97.4281 341.8384 0005439 177.9900 182.1359 15.21996641 37660 | 2025/09/19-19:22:20  307.5723    0.1236  182.1336   94.6126     6877.9558     6874.2148     6881.6967  92.574346 -30.368161  -0.000511   0.000188
1 62667U 25009BL  25264.18782392  .00011855  00000-0  52123-3 0  9998 | 2 62667  97.4279 343.2022 0005565 173.9963 186.1341 15.22027455 37874 | 2025/09/21-04:30:27   84.5943    0.1236  186.1273   94.6106     6877.8629     6874.0354     6881.6905  93.270709 -28.156180  -0.000513   0.000216
1 62667U 25009BL  25265.76565499  .00017805  00000-0  77954-3 0  9990 | 2 62667  97.4276 344.7605 0005651 169.1769 190.9589 15.22077520 38114 | 2025/09/22-18:22:32  292.6049    0.1235  190.9466   94.6075     6877.7121     6873.8255     6881.5987  94.001608 -25.609274  -0.000508   0.000248
1 62667U 25009BL  25266.94898666  .00020110  00000-0  87850-3 0  9995 | 2 62667  97.4272 345.9291 0005705 165.5053 194.6348 15.22127356 38296 | 2025/09/23-22:46:32  358.5978    0.1236  194.6183   94.6044     6877.5620     6873.6383     6881.4856  94.503957 -23.686734  -0.000501   0.000273
1 62667U 25009BL  25268.19802187  .00017733  00000-0  77425-3 0  9991 | 2 62667  97.4268 347.1627 0005794 161.4899 198.6549 15.22171748 38481 | 2025/09/25-04:45:09   88.2433    0.1236  198.6337   94.6017     6877.4283     6873.4435     6881.4131  94.991609 -21.646606  -0.000495   0.000301
1 62667U 25009BL  25269.70996217  .00017777  00000-0  77494-3 0  9991 | 2 62667  97.4263 348.6560 0005828 158.1317 202.0169 15.22225795 38710 | 2025/09/26-17:02:20  272.5349    0.1236  201.9919   94.5983     6877.2655     6873.2574     6881.2736  95.522969 -19.163670  -0.000488   0.000319
1 62667U 25009BL  25271.22184898  .00019621  00000-0  85335-3 0  9998 | 2 62667  97.4260 350.1489 0005935 152.7637 207.3912 15.22282497 38940 | 2025/09/28-05:19:27   96.8052    0.1236  207.3599   94.5948     6877.0947     6873.0132     6881.1763  95.989522 -16.668447  -0.000473   0.000358
1 62667U 25009BL  25272.79940659  .00022568  00000-0  97873-3 0  9990 | 2 62667  97.4257 351.7065 0006020 148.5059 211.6538 15.22350264 39187 | 2025/09/29-19:11:08  304.7184    0.1235  211.6176   94.5906     6876.8906     6872.7507     6881.0305  96.406838 -14.053067  -0.000463   0.000385
1 62667U 25009BL  25275.16558095  .00024354  00000-0  10517-2 0  9997 | 2 62667  97.4264 354.0443 0006058 141.6611 218.5057 15.22480259 39540 | 2025/10/02-03:58:26   76.5285    0.1236  218.4625   94.5825     6876.4992     6872.3334     6880.6649  96.900533 -10.108913  -0.000434   0.000423
1 62667U 25009BL  25276.48004098  .00023505  00000-0  10133-2 0  9993 | 2 62667  97.4266 355.3428 0006194 138.1073 222.0638 15.22543406 39744 | 2025/10/03-11:31:15  189.7269    0.1236  222.0163   94.5786     6876.3090     6872.0498     6880.5682  97.104928  -7.910455  -0.000426   0.000450
1 62667U 25009BL  25279.63457732  .00014846  00000-0  63997-3 0  9995 | 2 62667  97.4267 358.4604 0006219 129.6275 230.5511 15.22644287 40220 | 2025/10/06-15:13:47  245.3441    0.1236  230.4961   94.5723     6876.0053     6871.7291     6880.2815  97.391528  -2.617647  -0.000384   0.000489
1 62667U 25009BL  25280.94890666  .00017502  00000-0  75273-3 0  9990 | 2 62667  97.4267 359.7595 0006303 125.5393 234.6432 15.22686424 40421 | 2025/10/07-22:46:25  358.4952    0.1236  234.5843   94.5697     6875.8785     6871.5446     6880.2123  97.425842  -0.408949  -0.000364   0.000514
1 62667U 25009BL  25282.19748506  .00012939  00000-0  55701-3 0  9997 | 2 62667  97.4258   0.9934 0006322 122.2447 237.9403 15.22722893 40614 | 2025/10/09-04:44:22   87.9777    0.1236  237.8789   94.5674     6875.7687     6871.4218     6880.1155  97.411157   1.689094  -0.000347   0.000529
1 62667U 25009BL  25283.97173319  .00012569  00000-0  54043-3 0  9995 | 2 62667  97.4251   2.7466 0006341 117.4562 242.7320 15.22768888 40887 | 2025/10/10-23:19:17    6.6994    0.1236  242.6674   94.5646     6875.6302     6871.2704     6879.9900  97.313181   4.668499  -0.000319   0.000548
1 62667U 25009BL  25285.22024275  .00016541  00000-0  70903-3 0  9998 | 2 62667  97.4250   3.9802 0006382 113.8957 246.2949 15.22810760 41071 | 2025/10/12-05:17:08   96.1574    0.1237  246.2280   94.5620     6875.5042     6871.1162     6879.8921  97.190020   6.762438  -0.000298   0.000564
1 62667U 25009BL  25286.46871734  .00017863  00000-0  76436-3 0  9990 | 2 62667  97.4247   5.2139 0006330 110.7065 249.4850 15.22854726 41261 | 2025/10/13-11:14:57  185.6042    0.1236  249.4171   94.5592     6875.3718     6871.0197     6879.7240  97.021594   8.853390  -0.000277   0.000569
1 62667U 25009BL  25287.65145428  .00012371  00000-0  53020-3 0  9999 | 2 62667  97.4249   6.3828 0006331 107.4806 252.7123 15.22883773 41441 | 2025/10/14-15:38:05  251.3850    0.1236  252.6430   94.5574     6875.2844     6870.9317     6879.6372  96.820996  10.830785  -0.000256   0.000579
1 62667U 25009BL  25289.22839829  .00013231  00000-0  56604-3 0  9996 | 2 62667  97.4252   7.9413 0006337 103.0410 257.1534 15.22927753 41689 | 2025/10/16-05:28:53   99.0791    0.1236  257.0826   94.5547     6875.1520     6870.7953     6879.5088  96.490905  13.460119  -0.000227   0.000592
1 62667U 25009BL  25290.93670416  .00018669  00000-0  79567-3 0  9994 | 2 62667  97.4257   9.6303 0006283  98.1729 262.0221 15.22979818 41944 | 2025/10/17-22:28:51  354.0634    0.1237  261.9508   94.5515     6874.9954     6870.6758     6879.3149  96.052748  16.298360  -0.000192   0.000598
1 62667U 25009BL  25292.25074075  .00024870  00000-0  10564-2 0  9992 | 2 62667  97.4254  10.9294 0006269  94.8586 265.3367 15.23035251 42148 | 2025/10/19-06:01:04  107.1124    0.1237  265.2651   94.5480     6874.8285     6870.5187     6879.1384  95.658255  18.471786  -0.000171   0.000603
1 62667U 25009BL  25293.89321656  .00017734  00000-0  75345-3 0  9993 | 2 62667  97.4255  12.5537 0006228  90.1310 270.0640 15.23098684 42399 | 2025/10/20-21:26:13  338.3986    0.1236  269.9926   94.5441     6874.6377     6870.3561     6878.9192  95.096321  21.175875  -0.000137   0.000608
1 62667U 25009BL  25295.20715124  .00015048  00000-0  63922-3 0  9991 | 2 62667  97.4252  13.8528 0006215  86.3549 273.8398 15.23141265 42594 | 2025/10/22-04:58:17   91.4113    0.1236  273.7687   94.5415     6874.5095     6870.2370     6878.7820  94.591496  23.326349  -0.000110   0.000612
1 62667U 25009BL  25296.45535708  .00015506  00000-0  65780-3 0  9990 | 2 62667  97.4247  15.0870 0006154  82.8244 277.3692 15.23179170 42780 | 2025/10/23-10:55:42  180.7626    0.1237  277.2993   94.5391     6874.3955     6870.1650     6878.6260  94.066637  25.358231  -0.000085   0.000610
1 62667U 25009BL  25297.96630105  .00015786  00000-0  66867-3 0  9991 | 2 62667  97.4244  16.5811 0006026  78.4493 281.7420 15.23226312 43019 | 2025/10/24-23:11:28    4.6999    0.1237  281.6744   94.5362     6874.2536     6870.1112     6878.3961  93.373178  27.802219  -0.000053   0.000600
1 62667U 25009BL  25299.21443738  .00012655  00000-0  53632-3 0  9993 | 2 62667  97.4239  17.8152 0006075  75.3885 284.8025 15.23261518 43203 | 2025/10/26-05:08:47   94.0254    0.1237  284.7352   94.5340     6874.1477     6869.9717     6878.3238  92.752255  29.806636  -0.000034   0.000607
1 62667U 25009BL  25300.46254627  .00012092  00000-0  51214-3 0  9999 | 2 62667  97.4234  19.0493 0005978  71.7572 288.4315 15.23292997 43391 | 2025/10/27-11:06:03  183.3430    0.1237  288.3665   94.5320     6874.0530     6869.9437     6878.1623  92.088309  31.797205  -0.000008   0.000598
1 62667U 25009BL  25302.17044281  .00016046  00000-0  67731-3 0  9996 | 2 62667  97.4235  20.7379 0005823  66.2860 293.8988 15.23342214 43655 | 2025/10/29-04:05:26   78.1844    0.1238  293.8378   94.5290     6873.9050     6869.9023     6877.9076  91.111432  34.497032   0.000030   0.000582
1 62667U 25009BL  25303.22142555  .00016652  00000-0  70198-3 0  9990 | 2 62667  97.4237  21.7770 0005880  63.8074 296.3767 15.23378008 43817 | 2025/10/30-05:18:51   96.5357    0.1237  296.3163   94.5268     6873.7973     6869.7555     6877.8391  90.471041  36.143714   0.000045   0.000586
1 62667U 25009BL  25305.19195206  .00013739  00000-0  57886-3 0  9991 | 2 62667  97.4236  23.7261 0005740  58.5492 301.6305 15.23440889 44112 | 2025/11/01-04:36:24   85.9228    0.1237  301.5745   94.5229     6873.6081     6869.6627     6877.5536  89.189299  39.199832   0.000077   0.000569
1 62667U 25009BL  25307.95056654  .00014957  00000-0  62836-3 0  9994 | 2 62667  97.4243  26.4553 0005574  50.0825 310.0901 15.23519386 44537 | 2025/11/03-22:48:48  359.0209    0.1237  310.0412   94.5180     6873.3720     6869.5408     6877.2033  87.222241  43.402475   0.000130   0.000542
1 62667U 25009BL  25309.19846140  .00012589  00000-0  52899-3 0  9996 | 2 62667  97.4243  27.6900 0005457  46.0584 314.1102 15.23555261 44724 | 2025/11/05-04:45:47   88.2624    0.1237  314.0653   94.5158     6873.2641     6869.5134     6877.0149  86.266757  45.271855   0.000153   0.000524
1 62667U 25009BL  25310.64333671  .00029203  00000-0  12171-2 0  9997 | 2 62667  97.4235  29.1194 0005333  41.4503 318.7138 15.23648403 44944 | 2025/11/06-15:26:24  248.4167    0.1238  318.6735   94.5100     6872.9840     6869.3187     6876.6494  85.109901  47.409315   0.000177   0.000503
1 62667U 25009BL  25312.21947214  .00022206  00000-0  92513-3 0  9991 | 2 62667  97.4231  30.6787 0005249  36.8190 323.3407 15.23720975 45184 | 2025/11/08-05:16:02   95.8241    0.1238  323.3048   94.5055     6872.7658     6869.1583     6876.3733  83.787959  49.707529   0.000201   0.000485
1 62667U 25009BL  25314.45223503  .00016269  00000-0  67777-3 0  9993 | 2 62667  97.4223  32.8873 0005054  29.5897 330.5625 15.23787165 45526 | 2025/11/10-10:51:13  179.6184    0.1237  330.5340   94.5014     6872.5668     6869.0934     6876.0402  81.809426  52.899172   0.000234   0.000448
1 62667U 25009BL  25316.22523154  .00030842  00000-0  12767-2 0  9996 | 2 62667  97.4232  34.6422 0004888  22.8087 337.3366 15.23869910 45792 | 2025/11/12-05:24:20   97.8966    0.1237  337.3150   94.4963     6872.3180     6868.9588     6875.6772  80.151812  55.380204   0.000263   0.000412
1 62667U 25009BL  25317.47281674  .00025050  00000-0  10357-2 0  9990 | 2 62667  97.4236  35.8769 0004788  18.8474 341.2939 15.23954605 45984 | 2025/11/13-11:20:51  187.0263    0.1237  341.2763   94.4910     6872.0633     6868.7730     6875.3537  78.940198  57.094684   0.000277   0.000391
1 62667U 25009BL  25320.23047857  .00018301  00000-0  75596-3 0  9999 | 2 62667  97.4236  38.6064 0004592   9.0388 351.0931 15.24052507 46402 | 2025/11/16-05:31:53   99.7825    0.1237  351.0849   94.4849     6871.7690     6868.6135     6874.9246  76.131748  60.789101   0.000309   0.000339
1 62667U 25009BL  25322.13448054  .00012808  00000-0  52938-3 0  9995 | 2 62667  97.4238  40.4919 0004450   2.3926 357.7332 15.24111819 46692 | 2025/11/18-03:13:39   65.2205    0.1238  357.7312   94.4813     6871.5908     6868.5329     6874.6486  74.090583  63.261223   0.000326   0.000303
1 62667U 25009BL  25324.16972118  .00011187  00000-0  46222-3 0  9991 | 2 62667  97.4234  42.5070 0004265 353.9617   6.1568 15.24160682 47009 | 2025/11/20-04:04:23   77.9054    0.1237    6.1620   94.4782     6871.4439     6868.5132     6874.3746  71.820023  65.827070   0.000343   0.000254
1 62667U 25009BL  25326.20489037  .00013983  00000-0  57574-3 0  9999 | 2 62667  97.4233  44.5224 0004061 347.4503  12.6632 15.24221524 47318 | 2025/11/22-04:55:02   90.5619    0.1237   12.6734   94.4745     6871.2610     6868.4706     6874.0515  69.460511  68.312055   0.000344   0.000215
1 62667U 25009BL  25328.17433984  .00013340  00000-0  54869-3 0  9998 | 2 62667  97.4218  46.4721 0003670 337.4198  22.6877 15.24269671 47618 | 2025/11/24-04:11:02   79.5611    0.1237   22.7039   94.4715     6871.1163     6868.5946     6873.6380  67.095145  70.634614   0.000336   0.000149
1 62667U 25009BL  25329.22468441  .00015638  00000-0  64187-3 0  9997 | 2 62667  97.4219  47.5120 0003859 334.2793  25.8252 15.24303577 47772 | 2025/11/25-05:23:32   97.6836    0.1238   25.8445   94.4694     6871.0145     6868.3629     6873.6660  65.802237  71.840742   0.000358   0.000143
1 62667U 25009BL  25330.80015986  .00012895  00000-0  52929-3 0  9998 | 2 62667  97.4215  49.0718 0003733 327.4261  32.6745 15.24347139 48016 | 2025/11/26-19:12:13  304.8517    0.1237   32.6976   94.4667     6870.8835     6868.3186     6873.4485  63.822067  73.604976   0.000358   0.000106
1 62667U 25009BL  25331.98173887  .00013167  00000-0  53990-3 0  9995 | 2 62667  97.4215  50.2418 0003679 321.8915  38.2062 15.24376950 48196 | 2025/11/27-23:33:42   10.2176    0.1238   38.2323   94.4648     6870.7940     6868.2662     6873.3217  62.305826  74.892808   0.000360   0.000077
1 62667U 25009BL  25333.22893357  .00013053  00000-0  53472-3 0  9994 | 2 62667  97.4217  51.4768 0003666 316.8531  43.2419 15.24412373 48386 | 2025/11/29-05:29:39   99.2047    0.1238   43.2707   94.4626     6870.6875     6868.1687     6873.2063  60.677301  76.218454   0.000363   0.000053
1 62667U 25009BL  25334.93557577  .00012592  00000-0  51527-3 0  9990 | 2 62667  97.4221  53.1668 0003578 308.2010  51.8905 15.24458359 48646 | 2025/11/30-22:27:13  353.5916    0.1238   51.9228   94.4598     6870.5494     6868.0911     6873.0076  58.403329  77.975103   0.000358   0.000009
1 62667U 25009BL  25336.18270550  .00013778  00000-0  56284-3 0  9994 | 2 62667  97.4223  54.4022 0003631 301.8271  58.2613 15.24492190 48833 | 2025/12/02-04:23:05   82.5552    0.1238   58.2967   94.4577     6870.4477     6867.9531     6872.9424  56.708717  79.216324   0.000362  -0.000024
1 62667U 25009BL  25337.75798369  .00016994  00000-0  69219-3 0  9996 | 2 62667  97.4221  55.9626 0003528 294.7680  65.3191 15.24544087 49076 | 2025/12/03-18:11:29  289.6489    0.1238   65.3558   94.4545     6870.2918     6867.8680     6872.7156  54.530456  80.731004   0.000348  -0.000057
1 62667U 25009BL  25338.80813028  .00024018  00000-0  97462-3 0  9990 | 2 62667  97.4219  57.0026 0003494 290.1167  69.9694 15.24599002 49235 | 2025/12/04-19:23:42  307.6978    0.1237   70.0070   94.4511     6870.1268     6867.7264     6872.5272  53.056062  81.707288   0.000341  -0.000078
1 62667U 25009BL  25339.92387838  .00017814  00000-0  72335-3 0  9997 | 2 62667  97.4214  58.1080 0003560 284.5567  75.5276 15.24638076 49400 | 2025/12/05-22:10:23  349.3632    0.1238   75.5671   94.4486     6870.0094     6867.5637     6872.4552  51.469654  82.715198   0.000340  -0.000106
1 62667U 25009BL  25341.17085452  .00018921  00000-0  76689-3 0  9990 | 2 62667  97.4210  59.3433 0003553 279.3969  80.6867 15.24687133 49592 | 2025/12/07-04:06:01   78.2691    0.1238   80.7269   94.4456     6869.8621     6867.4212     6872.3029  49.674282  83.805232   0.000331  -0.000129
1 62667U 25009BL  25342.22091150  .00014782  00000-0  59952-3 0  9994 | 2 62667  97.4205  60.3832 0003443 273.7535  86.3309 15.24720115 49756 | 2025/12/08-05:18:06   96.2839    0.1238   86.3703   94.4436     6869.7630     6867.3977     6872.1283  48.144899  84.692518   0.000310  -0.000150
1 62667U 25009BL  25343.46782671  .00015709  00000-0  63615-3 0  9997 | 2 62667  97.4201  61.6186 0003438 267.8931  92.1913 15.24757245 49947 | 2025/12/09-11:13:40  185.1670    0.1238   92.2307   94.4413     6869.6515     6867.2897     6872.0133  46.307536  85.710489   0.000296  -0.000174
1 62667U 25009BL  25345.17408006  .00017896  00000-0  72286-3 0  9997 | 2 62667  97.4201  63.3090 0003560 260.2388  99.8448 15.24814929 50200 | 2025/12/11-04:10:40   79.4104    0.1238   99.8850   94.4377     6869.4782     6867.0327     6871.9238  43.759030  87.039205   0.000286  -0.000212
1 62667U 25009BL  25346.22404391  .00017973  00000-0  72501-3 0  9993 | 2 62667  97.4204  64.3494 0003595 255.8664 104.2174 15.24858771 50364 | 2025/12/12-05:22:37   97.3917    0.1237  104.2573   94.4350     6869.3466     6866.8770     6871.8161  42.171540  87.819676   0.000276  -0.000230
1 62667U 25009BL  25347.66770203  .00013887  00000-0  56034-3 0  9993 | 2 62667  97.4202  65.7799 0003581 248.0663 112.0195 15.24905969 50589 | 2025/12/13-16:01:29  257.0990    0.1238  112.0575   94.4321     6869.2048     6866.7449     6871.6647  39.965954  88.844909   0.000248  -0.000258
1 62667U 25009BL  25349.17694183  .00008138  00000-0  32949-3 0  9995 | 2 62667  97.4205  67.2756 0003687 241.5302 118.5565 15.24936821 50816 | 2025/12/15-04:14:47   80.4163    0.1238  118.5936   94.4301     6869.1122     6866.5795     6871.6448  37.633430  89.858104   0.000231  -0.000287
1 62667U 25009BL  25350.48930232  .00008740  00000-0  35337-3 0  9992 | 2 62667  97.4208  68.5763 0003723 235.1711 124.9176 15.24961254 51015 | 2025/12/16-11:44:35  192.8569    0.1237  124.9526   94.4286     6869.0388     6866.4814     6871.5961  35.584104  90.689491   0.000207  -0.000310
1 62667U 25009BL  25351.80164161  .00008615  00000-0  34812-3 0  9997 | 2 62667  97.4206  69.8771 0003800 228.8708 131.2202 15.24985945 51213 | 2025/12/17-19:14:21  305.2895    0.1237  131.2529   94.4271     6868.9646     6866.3544     6871.5748  33.516097  91.473737   0.000183  -0.000333
1 62667U 25009BL  25353.17957539  .00009213  00000-0  37176-3 0  9999 | 2 62667  97.4204  71.2427 0003913 223.5747 136.5182 15.25012272 51429 | 2025/12/19-04:18:35   81.3363    0.1237  136.5490   94.4255     6868.8856     6866.1978     6871.5734  31.326515  92.246321   0.000164  -0.000355
1 62667U 25009BL  25355.21362658  .00007629  00000-0  30807-3 0  9991 | 2 62667  97.4200  73.2583 0004092 215.8043 144.2921 15.25046826 51735 | 2025/12/21-05:07:37   93.5805    0.1238  144.3195   94.4233     6868.7818     6865.9711     6871.5925  28.062566  93.290668   0.000134  -0.000387
1 62667U 25009BL  25356.46027820  .00012390  00000-0  49776-3 0  9994 | 2 62667  97.4193  74.4938 0004143 209.7946 150.3057 15.25077756 51929 | 2025/12/22-11:02:48  182.3644    0.1238  150.3292   94.4214     6868.6890     6865.8433     6871.5347  26.044334  93.873386   0.000102  -0.000401
1 62667U 25009BL  25358.16617966  .00012417  00000-0  49819-3 0  9997 | 2 62667  97.4187  76.1842 0004273 204.0484 156.0555 15.25121899 52187 | 2025/12/24-03:59:17   76.4764    0.1238  156.0754   94.4187     6868.5564     6865.6215     6871.4914  23.263707  94.600227   0.000076  -0.000421
1 62667U 25009BL  25359.21593911  .00012582  00000-0  50430-3 0  9991 | 2 62667  97.4185  77.2247 0004362 198.9652 161.1424 15.25151401 52345 | 2025/12/25-05:10:57   94.3803    0.1237  161.1585   94.4169     6868.4678     6865.4718     6871.4639  21.541967  95.006883   0.000047  -0.000434
1 62667U 25009BL  25360.79054322  .00012166  00000-0  48717-3 0  9997 | 2 62667  97.4181  78.7853 0004488 194.0895 166.0219 15.25191375 52581 | 2025/12/26-18:58:22  301.2253    0.1238  166.0343   94.4144     6868.3478     6865.2653     6871.4303  18.946459  95.557930   0.000023  -0.000448
1 62667U 25009BL  25362.16829057  .00013169  00000-0  52647-3 0  9996 | 2 62667  97.4185  80.1508 0004603 189.6871 170.4279 15.25224718 52798 | 2025/12/28-04:02:20   77.2033    0.1238  170.4367   94.4123     6868.2477     6865.0863     6871.4092  16.663981  95.982685  -0.000001  -0.000460
1 62667U 25009BL  25363.21798048  .00014537  00000-0  58026-3 0  9995 | 2 62667  97.4186  81.1915 0004727 184.8047 175.3146 15.25255206 52952 | 2025/12/29-05:13:53   95.0812    0.1237  175.3190   94.4104     6868.1562     6864.9096     6871.4028  14.917948  96.269613  -0.000033  -0.000472
1 62667U 25009BL  25364.53005873  .00015968  00000-0  63611-3 0  9993 | 2 62667  97.4188  82.4925 0004708 181.5177 178.6048 15.25299862 53152 | 2025/12/30-12:43:17  207.4185    0.1238  178.6061   94.4077     6868.0222     6864.7887     6871.2556  12.728348  96.583703  -0.000049  -0.000468
1 62667U 25009BL  25365.77650044  .00016397  00000-0  65232-3 0  9994 | 2 62667  97.4189  83.7283 0004774 177.9857 182.1401 15.25339075 53346 | 2025/12/31-18:38:09  296.1269    0.1238  182.1381   94.4052     6867.9044     6864.6257     6871.1832  10.642367  96.835851  -0.000069  -0.000472
1 62667U 25009BL  26002.15410750  .00017037  00000-0  67667-3 0  9999 | 2 62667  97.4191  85.0943 0004849 172.8766 187.2542 15.25386121 53552 | 2026/01/02-03:41:54   72.0523    0.1238  187.2472   94.4023     6867.7632     6864.4331     6871.0934   8.330896  97.062234  -0.000101  -0.000474
1 62667U 25009BL  26003.46599368  .00020984  00000-0  82810-3 0  9999 | 2 62667  97.4186  86.3969 0005415 164.7450 195.3953 15.25554068 53753 | 2026/01/03-11:11:01  184.3123    0.1238  195.3788   94.3919     6867.2592     6863.5406     6870.9778   6.122225  97.226036  -0.000175  -0.000512
1 62667U 25009BL  26004.77777672  .00036491  00000-0  14299-2 0  9995 | 2 62667  97.4175  87.6956 0004910 164.4537 195.6852 15.25673990 53952 | 2026/01/04-18:39:59  296.5498    0.1237  195.6700   94.3845     6866.8993     6863.5277     6870.2710   3.917014  97.338719  -0.000151  -0.000467
1 62667U 25009BL  26006.22066527  .00018903  00000-0  74268-3 0  9998 | 2 62667  97.4169  89.1265 0005102 158.0929 202.0529 15.25724632 54172 | 2026/01/06-05:17:45   95.9741    0.1239  202.0310   94.3814     6866.7474     6863.2440     6870.2508   1.485107  97.405579  -0.000198  -0.000470
1 62667U 25009BL  26007.79468921  .00008997  00000-0  35515-3 0  9999 | 2 62667  97.4162  90.6872 0005253 153.5634 206.5873 15.25749092 54411 | 2026/01/07-19:04:21  302.6085    0.1238  206.5604   94.3799     6866.6740     6863.0669     6870.2810  -1.168372  97.409193  -0.000228  -0.000473
1 62667U 25009BL  26009.17192852  .00010993  00000-0  43274-3 0  9990 | 2 62667  97.4161  92.0531 0005266 150.0098 210.1443 15.25785112 54628 | 2026/01/09-04:07:34   78.4029    0.1238  210.1140   94.3776     6866.5659     6862.9500     6870.1818  -3.489999  97.353564  -0.000247  -0.000465
1 62667U 25009BL  26010.74588190  .00009558  00000-0  37630-3 0  9993 | 2 62667  97.4162  93.6143 0005390 145.3003 214.8588 15.25818104 54861 | 2026/01/10-17:54:04  285.0113    0.1238  214.8235   94.3756     6866.4669     6862.7659     6870.1679  -6.141079  97.222442  -0.000278  -0.000462
1 62667U 25009BL  26012.18864537  .00010220  00000-0  40180-3 0  9997 | 2 62667  97.4165  95.0456 0005503 140.8372 219.3265 15.25847355 55089 | 2026/01/12-04:31:38   84.3923    0.1238  219.2866   94.3738     6866.3792     6862.6006     6870.1577  -8.567641  97.039013  -0.000309  -0.000456
1 62667U 25009BL  26013.76254071  .00006368  00000-0  25138-3 0  9992 | 2 62667  97.4167  96.6070 0005574 136.4168 223.7511 15.25869660 55325 | 2026/01/13-18:18:03  290.9803    0.1238  223.7070   94.3724     6866.3123     6862.4850     6870.1395 -11.208621  96.769728  -0.000335  -0.000445
1 62667U 25009BL  26015.13968366  .00004744  00000-0  18796-3 0  9992 | 2 62667  97.4162  97.9730 0005664 132.0662 228.1059 15.25883152 55539 | 2026/01/15-03:21:08   66.7389    0.1238  228.0576   94.3716     6866.2718     6862.3827     6870.1608 -13.512254  96.474530  -0.000364  -0.000434
1 62667U 25009BL  26016.18892624  .00006677  00000-0  26318-3 0  9997 | 2 62667  97.4162  99.0139 0005636 128.3673 231.8073 15.25898193 55699 | 2026/01/16-04:32:03   84.4570    0.1239  231.7566   94.3706     6866.2267     6862.3569     6870.0965 -15.262593  96.213145  -0.000382  -0.000415
1 62667U 25009BL  26017.95949546  .00009850  00000-0  38640-3 0  9996 | 2 62667  97.4162 100.7700 0005755 124.7794 235.3987 15.25931157 55960 | 2026/01/17-23:01:40    1.8475    0.1238  235.3444   94.3686     6866.1278     6862.1763     6870.0792 -18.203870  95.700236  -0.000403  -0.000411
1 62667U 25009BL  26019.20542771  .00009118  00000-0  35768-3 0  9990 | 2 62667  97.4157 102.0062 0005807 121.1590 239.0219 15.25954284 56150 | 2026/01/19-04:55:48   90.3722    0.1239  238.9649   94.3672     6866.0584     6862.0713     6870.0455 -20.264174  95.284741  -0.000424  -0.000397
1 62667U 25009BL  26020.77919254  .00026270  00000-0  10206-2 0  9995 | 2 62667  97.4153 103.5671 0005805 116.8017 243.3816 15.26026190 56395 | 2026/01/20-18:42:02  296.9154    0.1238  243.3221   94.3627     6865.8427     6861.8571     6869.8283 -22.852067  94.697010  -0.000442  -0.000376
1 62667U 25009BL  26022.22174196  .00012923  00000-0  50360-3 0  9991 | 2 62667  97.4148 104.9981 0005885 112.4594 247.7268 15.26078755 56616 | 2026/01/22-05:19:18   96.2211    0.1238  247.6644   94.3595     6865.6850     6861.6446     6869.7255 -25.209685  94.096307  -0.000467  -0.000358
1 62667U 25009BL  26024.18879910  .00015491  00000-0  60197-3 0  9996 | 2 62667  97.4137 106.9501 0005977 107.8082 252.3809 15.26129715 56915 | 2026/01/24-04:31:52   84.3456    0.1238  252.3156   94.3563     6865.5322     6861.4287     6869.6357 -28.399866  93.181954  -0.000491  -0.000341
1 62667U 25009BL  26025.69682716  .00014529  00000-0  56410-3 0  9993 | 2 62667  97.4141 108.4475 0005829 102.1568 258.0324 15.26173593 57144 | 2026/01/25-16:43:25  267.2246    0.1239  257.9671   94.3536     6865.4006     6861.3988     6869.4025 -30.825287  92.408379  -0.000502  -0.000297
1 62667U 25009BL  26027.00811914  .00014228  00000-0  55186-3 0  9999 | 2 62667  97.4142 109.7471 0005771  97.2415 262.9480 15.26212528 57347 | 2026/01/27-00:11:41   19.2823    0.1239  262.8824   94.3512     6865.2839     6861.3219     6869.2458 -32.913246  91.685575  -0.000514  -0.000262
1 62667U 25009BL  26028.71275088  .00014971  00000-0  57963-3 0  9994 | 2 62667  97.4146 111.4383 0005706  93.2131 266.9761 15.26261288 57604 | 2026/01/28-17:06:21  272.9390    0.1239  266.9108   94.3482     6865.1376     6861.2204     6869.0549 -35.604946  90.674650  -0.000519  -0.000238
1 62667U 25009BL  26030.22064420  .00014883  00000-0  57541-3 0  9993 | 2 62667  97.4143 112.9351 0005724  90.6744 269.5150 15.26310195 57831 | 2026/01/30-05:17:43   95.7698    0.1238  269.4494   94.3452     6864.9910     6861.0615     6868.9205 -37.961204  89.713393  -0.000524  -0.000229
1 62667U 25009BL  26031.79405693  .00009250  00000-0  35861-3 0  9990 | 2 62667  97.4141 114.4958 0005625  85.8806 274.3075 15.26342295 58077 | 2026/01/31-19:03:26  302.1898    0.1238  274.2432   94.3432     6864.8947     6861.0332     6868.7562 -40.390471  88.646019  -0.000527  -0.000196
1 62667U 25009BL  26033.17076581  .00009728  00000-0  37666-3 0  9999 | 2 62667  97.4137 115.8616 0005597  82.4478 277.7396 15.26370994 58287 | 2026/02/02-04:05:54   77.7969    0.1238  277.6760   94.3414     6864.8087     6860.9665     6868.6509 -42.491739  87.657750  -0.000531  -0.000176
1 62667U 25009BL  26034.21966672  .00011142  00000-0  43054-3 0  9995 | 2 62667  97.4133 116.9024 0005623  79.8690 280.3183 15.26398567 58442 | 2026/02/03-05:16:19   95.3944    0.1239  280.2549   94.3397     6864.7260     6860.8660     6868.5860 -44.076797  86.871094  -0.000538  -0.000162
1 62667U 25009BL  26035.26855033  .00010407  00000-0  40208-3 0  9990 | 2 62667  97.4129 117.9432 0005568  77.1414 283.0446 15.26422908 58601 | 2026/02/04-06:26:42  112.9868    0.1238  282.9824   94.3382     6864.6530     6860.8308     6868.4753 -45.647298  86.055780  -0.000538  -0.000145
1 62667U 25009BL  26036.44852352  .00015250  00000-0  58694-3 0  9991 | 2 62667  97.4123 119.1141 0005485  73.5441 286.6400 15.26456666 58780 | 2026/02/05-10:45:52  177.7712    0.1239  286.5798   94.3361     6864.5518     6860.7866     6868.3170 -47.395993  85.104501  -0.000535  -0.000120
1 62667U 25009BL  26037.75957382  .00012438  00000-0  47891-3 0  9997 | 2 62667  97.4117 120.4150 0005457  69.9224 290.2602 15.26491747 58981 | 2026/02/06-18:13:47  289.7421    0.1239  290.2015   94.3340     6864.4467     6860.7007     6868.1926 -49.315604  84.006015  -0.000537  -0.000098
1 62667U 25009BL  26039.20169766  .00010826  00000-0  41687-3 0  9996 | 2 62667  97.4114 121.8462 0005391  65.1633 295.0166 15.26524371 59202 | 2026/02/08-04:50:26   88.8996    0.1239  294.9606   94.3319     6864.3489     6860.6483     6868.0494 -51.398242  82.747819  -0.000535  -0.000066
1 62667U 25009BL  26040.77489003  .00010727  00000-0  41268-3 0  9994 | 2 62667  97.4116 123.4076 0005196  62.0606 298.1158 15.26557227 59449 | 2026/02/09-18:35:50  295.2416    0.1239  298.0633   94.3299     6864.2504     6860.6837     6867.8170 -53.633996  81.316753  -0.000517  -0.000050
1 62667U 25009BL  26042.67578078  .00011188  00000-0  42970-3 0  9999 | 2 62667  97.4113 125.2942 0005110  57.3497 302.8234 15.26602478 59738 | 2026/02/11-16:13:07  259.5526    0.1239  302.7742   94.3271     6864.1147     6860.6071     6867.6223 -56.281814  79.506721  -0.000510  -0.000024
1 62667U 25009BL  26043.79007146  .00009878  00000-0  37953-3 0  9994 | 2 62667  97.4113 126.4002 0005004  53.7283 306.4417 15.26625301 59905 | 2026/02/12-18:57:42  300.6926    0.1239  306.3956   94.3257     6864.0463     6860.6115     6867.4811 -57.805979  78.405549  -0.000500  -0.000001
1 62667U 25009BL  26045.23206927  .00011678  00000-0  44764-3 0  9992 | 2 62667  97.4114 127.8313 0004903  48.9665 311.1997 15.26658575 60124 | 2026/02/14-05:34:10   99.8058    0.1239  311.1574   94.3236     6863.9466     6860.5812     6867.3120 -59.746173  76.937479  -0.000490   0.000027
1 62667U 25009BL  26046.80512411  .00011632  00000-0  44544-3 0  9990 | 2 62667  97.4111 129.3925 0004833  44.1155 316.0469 15.26692688 60368 | 2026/02/15-19:19:22  306.0986    0.1239  316.0084   94.3215     6863.8443     6860.5270     6867.1616 -61.819944  75.280920  -0.000480   0.000055
1 62667U 25009BL  26048.18151556  .00012830  00000-0  49046-3 0  9995 | 2 62667  97.4108 130.7583 0004678  39.8851 320.2730 15.26726137 60579 | 2026/02/17-04:21:22   81.5947    0.1238  320.2387   94.3195     6863.7441     6860.5332     6866.9549 -63.596539  73.785799  -0.000462   0.000076
1 62667U 25009BL  26049.29571811  .00009496  00000-0  36366-3 0  9993 | 2 62667  97.4107 131.8640 0004559  36.4573 323.6975 15.26745832 60746 | 2026/02/18-07:05:50  122.7034    0.1239  323.6666   94.3183     6863.6850     6860.5559     6866.8142 -65.008468  72.544769  -0.000446   0.000092
1 62667U 25009BL  26050.80314516  .00008825  00000-0  33795-3 0  9997 | 2 62667  97.4099 133.3602 0004499  30.4680 329.6820 15.26772593 60971 | 2026/02/19-19:16:31  305.3716    0.1240  329.6560   94.3166     6863.6048     6860.5169     6866.6928 -66.879946  70.822041  -0.000432   0.000125
1 62667U 25009BL  26052.17946923  .00010237  00000-0  39120-3 0  9990 | 2 62667  97.4094 134.7262 0004312  26.3978 333.7480 15.26798146 61185 | 2026/02/21-04:18:26   80.8430    0.1239  333.7261   94.3150     6863.5282     6860.5687     6866.4878 -68.548910  69.207212  -0.000408   0.000140
1 62667U 25009BL  26053.68684287  .00011744  00000-0  44786-3 0  9997 | 2 62667  97.4090 136.2223 0004140  21.8209 338.3205 15.26831505 61410 | 2026/02/22-16:29:03  263.4915    0.1239  338.3030   94.3130     6863.4283     6860.5868     6866.2697 -70.332178  67.393606  -0.000384   0.000155
1 62667U 25009BL  26055.19418204  .00009524  00000-0  36349-3 0  9998 | 2 62667  97.4084 137.7185 0003993  16.7389 343.3981 15.26863620 61648 | 2026/02/24-04:39:37   86.1276    0.1239  343.3850   94.3110     6863.3320     6860.5915     6866.0726 -72.067445  65.533806  -0.000360   0.000172
1 62667U 25009BL  26057.22576545  .00010568  00000-0  40245-3 0  9997 | 2 62667  97.4086 139.7351 0003812  10.1055 350.0259 15.26905452 61952 | 2026/02/26-05:25:06   97.4890    0.1238  350.0183   94.3084     6863.2067     6860.5904     6865.8229 -74.329037  62.957364  -0.000330   0.000192
1 62667U 25009BL  26058.66749882  .00009568  00000-0  36436-3 0  9997 | 2 62667  97.4088 141.1662 0003688   3.5060 356.6204 15.26936110 62171 | 2026/02/27-16:01:11  256.5080    0.1239  356.6179   94.3065     6863.1148     6860.5837     6865.6459 -75.878356  61.081498  -0.000301   0.000213
1 62667U 25009BL  26059.78154586  .00010370  00000-0  39433-3 0  9995 | 2 62667  97.4090 142.2720 0003602 358.4375   1.6852 15.26959966 62347 | 2026/02/28-18:45:25  297.5609    0.1239    1.6864   94.3050     6863.0433     6860.5713     6865.5154 -77.043173  59.605895  -0.000279   0.000228
1 62667U 25009BL  26060.96110379  .00011853  00000-0  44984-3 0  9993 | 2 62667  97.4090 143.4428 0003487 354.5034   5.6166 15.26990150 62527 | 2026/03/01-23:03:59    2.1962    0.1239    5.6205   94.3032     6862.9529     6860.5598     6865.3460 -78.245010  58.019236  -0.000259   0.000234
1 62667U 25009BL  26062.14063844  .00011432  00000-0  43361-3 0  9990 | 2 62667  97.4087 144.6133 0003398 348.6903  11.4259 15.27019687 62705 | 2026/03/03-03:22:31   66.8246    0.1239   11.4336   94.3013     6862.8644     6860.5324     6865.1964 -79.413635  56.408593  -0.000233   0.000247
