# SPACE DATA - HISTORICAL TLEs
# ----------------------------
# NORAD_ID    : 58275
# OBJECT_NAME : FLOCK 4Q 12
# --------------------------------------------------------------------+-----------------------------------------------------------------------+----------------------------------------------------------------------------------------------------------------------------------------
#                  LINE 1                                             |                 LINE 2                                                |      DERIVED PARAMETERS
# --------------------------------------------------------------------+-----------------------------------------------------------------------+----------------------------------------------------------------------------------------------------------------------------------------
# NORAD  COSPAR     TLE_EPOCH      MEANMOT1 MEANMOT2   BSTAR  #  REV  |   NORAD    INC     RAAN     ECC    ARGPER  MEANANOM   MEANMOT     REV |  CAL_DATE              LONG     ARGLAT     PERIOD        SMA         PERIGEE        APOGEE      INC_X      INC_Y      ECC_X      ECC_Y
# ------ ------   -------------- ----------  -------  ------- -- ----     -----  ------- -------- ------- -------- -------- -----------  ----   ------------------- ---------  --------  --------  ------------  ------------   ----------- ---------- ----------  ---------  ---------   
1 62670U 25009BP  25043.00242066  .00008084  00000-0  40691-3 0  9994 | 2 62670  97.4349 125.1860 0004234 250.2301 109.8476 15.17460066  4272 | 2025/02/12-00:03:29   17.9072    0.1233  109.8932   94.8954     6891.6571     6888.7392     6894.5750 -56.145169  79.632153   0.000408   0.000113
1 62670U 25009BP  25045.11252683  .00010956  00000-0  54943-3 0  9990 | 2 62670  97.4340 127.2573 0004405 241.4812 118.5978 15.17499646  4591 | 2025/02/14-02:42:02   57.5526    0.1233  118.6421   94.8929     6891.5373     6888.5015     6894.5730 -58.986095  77.550144   0.000435   0.000067
1 62670U 25009BP  25046.76100623  .00011648  00000-0  58323-3 0  9993 | 2 62670  97.4335 128.8754 0004457 234.6933 125.3884 15.17536582 62483 | 2025/02/15-18:15:50  291.0092    0.1233  125.4300   94.8906     6891.4254     6888.3539     6894.4970 -61.152077  75.853217   0.000445   0.000028
1 62670U 25009BP  25048.80506166  .00010717  00000-0  53623-3 0  9996 | 2 62670  97.4328 130.8820 0004567 225.5169 134.5691 15.17583660 62795 | 2025/02/17-19:19:17  306.8730    0.1233  134.6064   94.8877     6891.2829     6888.1357     6894.4302 -63.770091  73.664957   0.000456  -0.000029
1 62670U 25009BP  25050.12377150  .00010713  00000-0  53556-3 0  9994 | 2 62670  97.4324 132.1767 0004714 221.3905 138.6972 15.17615439  5358 | 2025/02/19-02:58:13   61.6119    0.1233  138.7328   94.8857     6891.1867     6887.9382     6894.4352 -65.417992  72.204979   0.000468  -0.000053
1 62670U 25009BP  25051.70618645  .00010913  00000-0  54486-3 0  9991 | 2 62670  97.4324 133.7304 0004825 215.6976 144.3936 15.17655091  5597 | 2025/02/20-16:56:54  271.2838    0.1234  144.4258   94.8832     6891.0667     6887.7417     6894.3916 -67.351696  70.404699   0.000474  -0.000089
1 62670U 25009BP  25053.15669839  .00010951  00000-0  54616-3 0  9990 | 2 62670  97.4326 135.1546 0004891 209.4078 150.6881 15.17690098  5810 | 2025/02/22-03:45:38   73.4689    0.1233  150.7155   94.8810     6890.9607     6887.5903     6894.3311 -69.080900  68.709103   0.000471  -0.000130
1 62670U 25009BP  25054.40938655  .00011997  00000-0  59741-3 0  9999 | 2 62670  97.4327 136.3845 0004975 204.5069 155.5929 15.17721279  6000 | 2025/02/23-09:49:30  164.4375    0.1233  155.6164   94.8791     6890.8663     6887.4381     6894.2945 -70.539840  67.210579   0.000470  -0.000163
1 62670U 25009BP  25055.46426161  .00012737  00000-0  63346-3 0  9999 | 2 62670  97.4325 137.4202 0005073 201.1095 158.9930 15.17748492  6161 | 2025/02/24-11:08:32  184.1939    0.1233  159.0138   94.8774     6890.7840     6887.2883     6894.2797 -71.743026  65.924429   0.000472  -0.000186
1 62670U 25009BP  25056.51911678  .00014467  00000-0  71828-3 0  9994 | 2 62670  97.4324 138.4559 0005147 198.2048 161.9002 15.17779021  6326 | 2025/02/25-12:27:31  203.9433    0.1233  161.9185   94.8755     6890.6916     6887.1449     6894.2382 -72.922840  64.616809   0.000473  -0.000204
1 62670U 25009BP  25057.57395113  .00015067  00000-0  74720-3 0  9992 | 2 62670  97.4323 139.4915 0005231 194.6012 165.5072 15.17809966 64128 | 2025/02/26-13:46:29  223.6843    0.1234  165.5222   94.8735     6890.5979     6886.9934     6894.2024 -74.078714  63.288208   0.000471  -0.000229
1 62670U 25009BP  25058.89246346  .00014948  00000-0  74051-3 0  9995 | 2 62670  97.4322 140.7862 0005336 189.2080 170.9057 15.17849409 64325 | 2025/02/27-21:25:08  338.3484    0.1234  170.9154   94.8711     6890.4785     6886.8018     6894.1553 -75.489712  61.598189   0.000462  -0.000267
1 62670U 25009BP  25060.21094278  .00011619  00000-0  57602-3 0  9994 | 2 62670  97.4316 142.0807 0005424 184.1687 175.9502 15.17883520 64521 | 2025/03/01-05:03:45   93.0008    0.1233  175.9546   94.8689     6890.3753     6886.6380     6894.1126 -76.861560  59.876684   0.000451  -0.000301
1 62670U 25009BP  25061.46347363  .00008975  00000-0  44553-3 0  9990 | 2 62670  97.4308 143.3106 0005538 180.6960 179.4267 15.17908133  7071 | 2025/03/02-11:07:24  183.9127    0.1233  179.4273   94.8674     6890.3008     6886.4850     6894.1167 -78.128413  58.212643   0.000448  -0.000325
1 62670U 25009BP  25062.78190808  .00009252  00000-0  45885-3 0  9994 | 2 62670  97.4304 144.6054 0005630 177.1273 182.9995 15.17931493 64912 | 2025/03/03-18:45:56  298.5497    0.1234  182.9961   94.8659     6890.2301     6886.3509     6894.1093 -79.423546  56.432111   0.000442  -0.000349
1 62670U 25009BP  25064.16624222  .00009594  00000-0  47528-3 0  9995 | 2 62670  97.4302 145.9649 0005718 172.5267 187.6053 15.17956751  7483 | 2025/03/05-03:59:23   76.9098    0.1233  187.5966   94.8644     6890.1537     6886.2139     6894.0935 -80.739905  54.531749   0.000428  -0.000379
1 62670U 25009BP  25065.41871366  .00008557  00000-0  42407-3 0  9996 | 2 62670  97.4304 147.1947 0005860 167.9211 192.2164 15.17979818  7670 | 2025/03/06-10:02:56  167.7987    0.1233  192.2022   94.8629     6890.0839     6886.0463     6894.1215 -81.891858  52.786423   0.000415  -0.000414
1 62670U 25009BP  25066.80300279  .00008363  00000-0  41422-3 0  9991 | 2 62670  97.4303 148.5542 0005972 163.4463 196.6967 15.18004307  7884 | 2025/03/07-19:16:19  306.1422    0.1234  196.6771   94.8614     6890.0098     6885.8951     6894.1245 -83.121106  50.828585   0.000400  -0.000444
1 62670U 25009BP  25068.18726922  .00011000  00000-0  54316-3 0  9999 | 2 62670  97.4302 149.9134 0006012 159.7774 200.3699 15.18033207 65738 | 2025/03/09-04:29:40   84.4790    0.1233  200.3459   94.8596     6889.9223     6885.7801     6894.0646 -84.303301  48.842576   0.000384  -0.000463
1 62670U 25009BP  25069.76925032  .00010706  00000-0  52814-3 0  9990 | 2 62670  97.4301 151.4672 0006197 155.4586 204.6944 15.18071475  8332 | 2025/03/10-18:27:43  293.9920    0.1234  204.6648   94.8572     6889.8066     6885.5369     6894.0762 -85.596611  46.538635   0.000372  -0.000495
1 62670U 25009BP  25070.95571244  .00010877  00000-0  53615-3 0  9994 | 2 62670  97.4303 152.6320 0006247 151.1561 209.0019 15.18097072  8512 | 2025/03/11-22:56:13    1.1180    0.1233  208.9672   94.8556     6889.7291     6885.4251     6894.0331 -86.525148  44.789085   0.000347  -0.000519
1 62670U 25009BP  25072.20806362  .00016066  00000-0  78888-3 0  9991 | 2 62670  97.4300 153.8617 0006343 147.2218 212.9410 15.18135598 66342 | 2025/03/13-04:59:36   91.9643    0.1233  212.9015   94.8532     6889.6125     6885.2425     6893.9826 -87.466155  42.921751   0.000327  -0.000543
1 62670U 25009BP  25073.78993837  .00013246  00000-0  65047-3 0  9999 | 2 62670  97.4294 155.4149 0006358 143.3385 216.8285 15.18177050  8944 | 2025/03/14-18:57:30  301.4410    0.1234  216.7849   94.8506     6889.4871     6885.1068     6893.8675 -88.596873  40.534949   0.000306  -0.000557
1 62670U 25009BP  25075.76720654  .00015978  00000-0  78208-3 0  9991 | 2 62670  97.4289 157.3571 0006396 138.1481 222.0243 15.18247482 66886 | 2025/03/16-18:24:46  293.2588    0.1234  221.9753   94.8462     6889.2741     6884.8677     6893.6804 -89.919297  37.508808   0.000275  -0.000577
1 62670U 25009BP  25077.21713838  .00020524  00000-0  10012-2 0  9990 | 2 62670  97.4286 158.7810 0006420 133.4898 226.6871 15.18311583 67109 | 2025/03/18-05:12:40   95.2350    0.1234  226.6336   94.8422     6889.0802     6884.6574     6893.5029 -90.823314  35.262696   0.000243  -0.000594
1 62670U 25009BP  25078.73291146  .00022490  00000-0  10943-2 0  9998 | 2 62670  97.4277 160.2701 0006515 129.7322 230.4487 15.18381865 67332 | 2025/03/19-17:35:23  280.9142    0.1234  230.3912   94.8378     6888.8676     6884.3795     6893.3557 -91.708158  32.890278   0.000223  -0.000612
1 62670U 25009BP  25079.85322280  .00018448  00000-0  89760-3 0  9998 | 2 62670  97.4274 161.3710 0006412 126.3640 233.8187 15.18424803 67506 | 2025/03/20-20:28:38  324.2278    0.1234  233.7594   94.8351     6888.7377     6884.3206     6893.1548 -92.322872  31.122109   0.000195  -0.000611
1 62670U 25009BP  25081.10529877  .00021286  00000-0  10333-2 0  9993 | 2 62670  97.4277 162.6008 0006349 122.7255 237.4592 15.18475514 10057 | 2025/03/22-02:31:37   54.9775    0.1234  237.3979   94.8320     6888.5843     6884.2108     6892.9579 -92.969847  29.133558   0.000168  -0.000612
1 62670U 25009BP  25082.48910698  .00021257  00000-0  10296-2 0  9996 | 2 62670  97.4280 163.9604 0006424 119.1601 241.0277 15.18553048 67902 | 2025/03/23-11:44:18  193.1497    0.1234  240.9633   94.8271     6888.3498     6883.9248     6892.7749 -93.635221  26.919519   0.000146  -0.000626
1 62670U 25009BP  25083.93875212  .00019505  00000-0  94372-3 0  9990 | 2 62670  97.4279 165.3849 0006513 114.9687 245.2224 15.18608738 68123 | 2025/03/24-22:31:48  355.0230    0.1234  245.1547   94.8236     6888.1814     6883.6952     6892.6677 -94.275397  24.583435   0.000117  -0.000641
1 62670U 25009BP  25085.19067585  .00020430  00000-0  98675-3 0  9995 | 2 62670  97.4278 166.6147 0006459 111.3989 248.7935 15.18658946 10672 | 2025/03/26-04:34:34   85.7184    0.1234  248.7245   94.8205     6888.0296     6883.5806     6892.4786 -94.781203  22.554372   0.000090  -0.000640
1 62670U 25009BP  25086.31078209  .00023095  00000-0  11131-2 0  9996 | 2 62670  97.4279 167.7157 0006382 107.9268 252.2663 15.18707730 68488 | 2025/03/27-07:27:31  128.9590    0.1235  252.1967   94.8175     6887.8821     6883.4863     6892.2780 -95.197182  20.729018   0.000063  -0.000635
1 62670U 25009BP  25088.15559179  .00015988  00000-0  77087-3 0  9995 | 2 62670  97.4282 169.5288 0006427 103.1904 257.0047 15.18771494 68760 | 2025/03/29-03:44:03   73.0937    0.1234  256.9330   94.8135     6887.6893     6883.2626     6892.1160 -95.805668  17.706724   0.000030  -0.000642
1 62670U 25009BP  25089.20973706  .00013230  00000-0  63816-3 0  9991 | 2 62670  97.4274 170.5641 0006460  99.8641 260.3323 15.18800729 11285 | 2025/03/30-05:02:01   92.5884    0.1234  260.2593   94.8116     6887.6009     6883.1516     6892.0503 -96.109171  15.972646   0.000005  -0.000646
1 62670U 25009BP  25090.72503669  .00013568  00000-0  65364-3 0  9991 | 2 62670  97.4269 172.0535 0006307  96.0862 264.1091 15.18840628 11514 | 2025/03/31-17:24:03  278.1015    0.1234  264.0372   94.8092     6887.4803     6883.1364     6891.8243 -96.491367  13.469111  -0.000020  -0.000630
1 62670U 25009BP  25091.77913472  .00013827  00000-0  66548-3 0  9997 | 2 62670  97.4261 173.0894 0006193  93.1603 267.0340 15.18868801 11678 | 2025/04/01-18:41:57  297.5809    0.1234  266.9631   94.8074     6887.3951     6883.1298     6891.6605 -96.718309  11.722357  -0.000041  -0.000618
1 62670U 25009BP  25093.16260487  .00018325  00000-0  87916-3 0  9993 | 2 62670  97.4261 174.4493 0006247  88.7655 271.4295 15.18916777 11882 | 2025/04/03-03:54:09   75.6331    0.1234  271.3579   94.8044     6887.2501     6882.9477     6891.5526 -96.969269   9.423688  -0.000074  -0.000620
1 62670U 25009BP  25094.21664843  .00017754  00000-0  85106-3 0  9998 | 2 62670  97.4259 175.4848 0006302  85.5094 274.6860 15.18952275 69685 | 2025/04/04-05:11:58   95.0918    0.1234  274.6140   94.8022     6887.1428     6882.8025     6891.4831 -97.123537   7.669714  -0.000099  -0.000622
1 62670U 25009BP  25095.46828999  .00019163  00000-0  91695-3 0  9996 | 2 62670  97.4259 176.7158 0006264  82.7522 277.4424 15.18999417 12230 | 2025/04/05-11:14:20  185.6863    0.1234  277.3712   94.7992     6887.0003     6882.6863     6891.3143 -97.265893   5.581405  -0.000114  -0.000616
1 62670U 25009BP  25096.78576595  .00015088  00000-0  72213-3 0  9991 | 2 62670  97.4259 178.0110 0006159  79.1172 281.0755 15.19043469 12435 | 2025/04/06-18:51:30  299.9829    0.1234  281.0062   94.7965     6886.8672     6882.6256     6891.1088 -97.367202   3.381422  -0.000137  -0.000600
1 62670U 25009BP  25097.97146289  .00014589  00000-0  69769-3 0  9993 | 2 62670  97.4261 179.1765 0006043  75.6577 284.5328 15.19079891 12610 | 2025/04/07-23:18:54    6.8392    0.1235  284.4658   94.7942     6886.7571     6882.5954     6890.9188 -97.416037   1.400236  -0.000158  -0.000583
1 62670U 25009BP  25099.22300098  .00017542  00000-0  83686-3 0  9999 | 2 62670  97.4264 180.4068 0006077  72.2451 287.9446 15.19123285 12801 | 2025/04/09-05:21:07   97.3970    0.1234  287.8783   94.7915     6886.6259     6882.4409     6890.8109 -97.423944  -0.691722  -0.000181  -0.000580
1 62670U 25009BP  25100.47450358  .00016183  00000-0  77150-3 0  9993 | 2 62670  97.4264 181.6373 0006048  68.9066 291.2815 15.19164357 70633 | 2025/04/10-11:23:17  187.9425    0.1235  291.2169   94.7890     6886.5018     6882.3369     6890.6668 -97.386623  -2.783705  -0.000201  -0.000570
1 62670U 25009BP  25102.18703221  .00016157  00000-0  76911-3 0  9998 | 2 62670  97.4259 183.3209 0005884  63.6535 296.5303 15.19218865 70896 | 2025/04/12-04:29:19   84.4615    0.1235  296.4700   94.7856     6886.3371     6882.2852     6890.3890 -97.262298  -5.643706  -0.000230  -0.000542
1 62670U 25009BP  25104.75571004  .00014008  00000-0  66590-3 0  9990 | 2 62670  97.4259 185.8465 0005740  56.0143 304.1636 15.19299170 71286 | 2025/04/14-18:08:13  289.1976    0.1235  304.1092   94.7805     6886.0944     6882.1418     6890.0471 -96.919126  -9.924161  -0.000271  -0.000506
1 62670U 25009BP  25105.94120929  .00015135  00000-0  71838-3 0  9991 | 2 62670  97.4254 187.0123 0005656  52.8434 307.3317 15.19334268 71468 | 2025/04/15-22:35:20  355.9828    0.1235  307.2801   94.7784     6885.9884     6882.0937     6889.8831 -96.696655 -11.893928  -0.000284  -0.000489
1 62670U 25009BP  25107.19253817  .00017441  00000-0  82608-3 0  9992 | 2 62670  97.4249 188.2428 0005556  48.7814 311.3899 15.19376879 71653 | 2025/04/17-04:37:15   86.4679    0.1235  311.3421   94.7757     6885.8596     6882.0339     6889.6854 -96.418443 -13.967638  -0.000302  -0.000466
1 62670U 25009BP  25109.23411557  .00013216  00000-0  62616-3 0  9999 | 2 62670  97.4248 190.2509 0005370  41.3977 318.7664 15.19429683 71965 | 2025/04/19-05:37:07  101.4471    0.1235  318.7258   94.7724     6885.7001     6882.0025     6889.3977 -95.869696 -17.337620  -0.000333  -0.000421
1 62670U 25009BP  25110.68293210  .00012139  00000-0  57482-3 0  9992 | 2 62670  97.4245 191.6760 0005332  37.6824 322.4783 15.19468051 72184 | 2025/04/20-16:23:25  263.0274    0.1235  322.4411   94.7700     6885.5842     6881.9128     6889.2556 -95.408560 -19.716488  -0.000347  -0.000405
1 62670U 25009BP  25111.93415527  .00014415  00000-0  68115-3 0  9992 | 2 62670  97.4244 192.9067 0005273  33.2665 326.8900 15.19501232 72375 | 2025/04/21-22:25:11  353.4745    0.1235  326.8570   94.7679     6885.4840     6881.8532     6889.1147 -94.962980 -21.761113  -0.000365  -0.000380
1 62670U 25009BP  25113.77800976  .00012769  00000-0  60304-3 0  9994 | 2 62670  97.4250 194.7195 0005043  26.1599 333.9890 15.19550765 72659 | 2025/04/23-18:40:20  297.2743    0.1235  333.9636   94.7648     6885.3343     6881.8620     6888.8066 -94.227641 -24.754439  -0.000381  -0.000330
1 62670U 25009BP  25115.49008252  .00015158  00000-0  71354-3 0  9994 | 2 62670  97.4262 196.4042 0004869  19.7506 340.3917 15.19624389 72918 | 2025/04/25-11:45:43  193.6299    0.1236  340.3730   94.7603     6885.1119     6881.7596     6888.4643 -93.460298 -27.514306  -0.000393  -0.000287
1 62670U 25009BP  25116.74117383  .00015322  00000-0  72043-3 0  9998 | 2 62670  97.4255 197.6350 0004709  16.8728 343.2663 15.19662227 73107 | 2025/04/26-17:47:17  284.0283    0.1236  343.2508   94.7579     6884.9976     6881.7555     6888.2398 -92.847065 -29.515260  -0.000388  -0.000267
1 62670U 25009BP  25118.38730242  .00013682  00000-0  64299-3 0  9996 | 2 62670  97.4249 199.2542 0004594  10.6687 349.4645 15.19706841 73355 | 2025/04/28-09:17:42  156.6438    0.1236  349.4549   94.7551     6884.8629     6881.7000     6888.0258 -91.975424 -32.126820  -0.000398  -0.000229
1 62670U 25009BP  25121.74525842  .00012815  00000-0  60099-3 0  9999 | 2 62670  97.4243 202.5585 0004270 358.8163   1.3061 15.19794357 73862 | 2025/05/01-17:53:10  285.5242    0.1235    1.3072   94.7497     6884.5986     6881.6589     6887.5383 -89.970204 -37.374546  -0.000398  -0.000156
1 62670U 25009BP  25122.79869310  .00014596  00000-0  68331-3 0  9991 | 2 62670  97.4241 203.5953 0004175 354.5279   5.5910 15.19826344 74025 | 2025/05/02-19:10:07  304.7657    0.1236    5.5957   94.7477     6884.5020     6881.6277     6887.3763 -89.279013 -38.996321  -0.000397  -0.000130
1 62670U 25009BP  25124.37880645  .00011292  00000-0  52898-3 0  9992 | 2 62670  97.4239 205.1503 0004081 346.9848  13.1281 15.19865999 74265 | 2025/05/04-09:05:28  153.6150    0.1235   13.1387   94.7452     6884.3822     6881.5727     6887.1917 -88.187729 -41.404598  -0.000399  -0.000086
1 62670U 25009BP  25125.49803145  .00011430  00000-0  53500-3 0  9991 | 2 62670  97.4241 206.2517 0004006 342.8528  17.2571 15.19890711 74438 | 2025/05/05-11:57:09  196.5407    0.1235   17.2707   94.7437     6884.3076     6881.5498     6887.0655 -87.375741 -43.092170  -0.000396  -0.000063
1 62670U 25009BP  25126.74890809  .00009411  00000-0  44087-3 0  9999 | 2 62670  97.4246 207.4827 0003853 338.0279  22.0790 15.19916723 74629 | 2025/05/06-17:58:25  286.8613    0.1235   22.0956   94.7420     6884.2291     6881.5766     6886.8816 -86.430255 -44.959579  -0.000384  -0.000037
1 62670U 25009BP  25127.93393091  .00007579  00000-0  35552-3 0  9992 | 2 62670  97.4248 208.6489 0003755 332.4967  27.6069 15.19936755 74808 | 2025/05/07-22:24:51  353.4746    0.1235   27.6268   94.7408     6884.1686     6881.5836     6886.7536 -85.497482 -46.709445  -0.000375  -0.000008
1 62670U 25009BP  25129.18477156  .00009541  00000-0  44632-3 0  9996 | 2 62670  97.4248 209.8798 0003720 326.0721  34.0275 15.19960469 74993 | 2025/05/09-04:26:04   83.7832    0.1235   34.0514   94.7393     6884.0970     6881.5361     6886.6579 -84.474359 -48.535289  -0.000371   0.000026
1 62670U 25009BP  25130.69892167  .00009227  00000-0  43145-3 0  9996 | 2 62670  97.4249 211.3699 0003619 319.3857  40.7108 15.19988376 75227 | 2025/05/10-16:46:26  268.8827    0.1236   40.7379   94.7376     6884.0127     6881.5214     6886.5040 -83.183756 -50.715618  -0.000357   0.000058
1 62670U 25009BP  25131.75222645  .00008134  00000-0  38056-3 0  9993 | 2 62670  97.4250 212.4064 0003524 314.6812  45.4135 15.20007015 75384 | 2025/05/11-18:03:12  288.0759    0.1235   45.4423   94.7364     6883.9564     6881.5305     6886.3823 -82.252817 -52.212114  -0.000343   0.000079
1 62670U 25009BP  25132.80551863  .00007853  00000-0  36733-3 0  9994 | 2 62670  97.4248 213.4431 0003483 309.4376  50.6551 15.20024817 75548 | 2025/05/12-19:19:56  307.2645    0.1236   50.6860   94.7353     6883.9027     6881.5050     6886.3003 -81.294520 -53.691644  -0.000333   0.000103
1 62670U 25009BP  25134.18794748  .00008326  00000-0  38902-3 0  9994 | 2 62670  97.4245 214.8040 0003510 302.0397  58.0496 15.20047203 75756 | 2025/05/14-04:30:38   84.9440    0.1234   58.0837   94.7339     6883.8351     6881.4189     6886.2513 -79.996169 -55.607069  -0.000323   0.000138
1 62670U 25009BP  25136.16281141  .00008039  00000-0  37539-3 0  9998 | 2 62670  97.4241 216.7479 0003440 292.4881  67.5989 15.20078916 76052 | 2025/05/16-03:54:26   75.8999    0.1235   67.6354   94.7319     6883.7394     6881.3713     6886.1074 -78.063568 -58.288375  -0.000296   0.000176
1 62670U 25009BP  25137.21605413  .00010141  00000-0  47229-3 0  9991 | 2 62670  97.4240 217.7848 0003393 287.4297  72.6567 15.20100278 76218 | 2025/05/17-05:11:07   95.0692    0.1235   72.6938   94.7306     6883.6749     6881.3392     6886.0105 -76.995900 -59.691433  -0.000279   0.000194
1 62670U 25009BP  25138.46676159  .00009955  00000-0  46339-3 0  9996 | 2 62670  97.4239 219.0162 0003377 281.1181  78.9675 15.20123375 76408 | 2025/05/18-11:12:08  185.3260    0.1236   79.0055   94.7292     6883.6051     6881.2805     6885.9297 -75.695252 -61.332252  -0.000259   0.000216
1 62670U 25009BP  25140.17822934  .00007283  00000-0  33972-3 0  9992 | 2 62670  97.4238 220.7011 0003453 272.0385  88.0455 15.20146958 76667 | 2025/05/20-04:16:39   81.4580    0.1235   88.0850   94.7277     6883.5339     6881.1571     6885.9108 -73.859108 -63.531322  -0.000234   0.000254
1 62670U 25009BP  25142.48208234  .00006923  00000-0  32277-3 0  9996 | 2 62670  97.4245 222.9691 0003445 260.2567  99.8279 15.20182067 77010 | 2025/05/22-11:34:11  190.8473    0.1235   99.8668   94.7255     6883.4280     6881.0566     6885.7993 -71.287592 -66.404913  -0.000189   0.000288
1 62670U 25009BP  25143.79854729  .00006317  00000-0  29467-3 0  9991 | 2 62670  97.4246 224.2650 0003556 253.8823 106.2021 15.20199389 77212 | 2025/05/23-19:09:54  304.7765    0.1235  106.2412   94.7244     6883.3757     6880.9279     6885.8234 -69.767630 -68.000224  -0.000168   0.000314
1 62670U 25009BP  25145.18082052  .00006361  00000-0  29653-3 0  9994 | 2 62670  97.4248 225.6258 0003658 247.6216 112.4632 15.20216560 77424 | 2025/05/25-04:20:22   82.3961    0.1235  112.5019   94.7233     6883.3238     6880.8059     6885.8418 -68.133210 -69.638045  -0.000144   0.000336
1 62670U 25009BP  25147.15546570  .00006651  00000-0  30965-3 0  9993 | 2 62670  97.4252 227.5698 0003714 238.7863 121.3008 15.20245373 77723 | 2025/05/27-03:43:52   73.2684    0.1235  121.3372   94.7216     6883.2369     6880.6804     6885.7933 -65.731957 -71.909523  -0.000105   0.000356
1 62670U 25009BP  25148.60351508  .00007807  00000-0  36264-3 0  9991 | 2 62670  97.4249 228.9960 0003803 231.7748 128.3145 15.20268219 77947 | 2025/05/28-14:29:03  234.5650    0.1235  128.3487   94.7201     6883.1679     6880.5502     6885.7856 -63.921618 -73.523043  -0.000071   0.000374
1 62670U 25009BP  25150.18317747  .00009771  00000-0  45254-3 0  9995 | 2 62670  97.4243 230.5516 0003978 225.8138 134.2771 15.20298950 78180 | 2025/05/30-04:23:46   83.2433    0.1235  134.3097   94.7182     6883.0751     6880.3371     6885.8132 -61.901748 -75.230763  -0.000044   0.000395
1 62670U 25009BP  25151.76281021  .00007647  00000-0  35468-3 0  9991 | 2 62670  97.4242 232.1073 0004081 218.9419 141.1523 15.20324672 78426 | 2025/05/31-18:18:26  291.9090    0.1235  141.1816   94.7166     6882.9975     6880.1886     6885.8065 -59.836449 -76.883510  -0.000007   0.000408
1 62670U 25009BP  25152.88169687  .00011773  00000-0  54363-3 0  9998 | 2 62670  97.4243 233.2091 0004172 213.4492 146.6481 15.20352849 78599 | 2025/06/01-21:09:38  334.7061    0.1236  146.6744   94.7149     6882.9125     6880.0409     6885.7840 -58.347064 -78.019961   0.000024   0.000416
1 62670U 25009BP  25154.19800855  .00011943  00000-0  55090-3 0  9990 | 2 62670  97.4240 234.5054 0004295 208.6157 151.4843 15.20385039 78794 | 2025/06/03-04:45:07   88.5768    0.1235  151.5078   94.7128     6882.8153     6879.8591     6885.7715 -56.566929 -79.319722   0.000051   0.000426
1 62670U 25009BP  25155.77755307  .00008832  00000-0  40806-3 0  9998 | 2 62670  97.4243 236.0609 0004486 203.4506 156.6525 15.20411164 79034 | 2025/06/04-18:39:40  297.2111    0.1235  156.6729   94.7112     6882.7365     6879.6489     6885.8241 -54.393097 -80.826266   0.000082   0.000441
1 62670U 25009BP  25157.48869880  .00006373  00000-0  29523-3 0  9991 | 2 62670  97.4248 237.7458 0004591 197.2714 162.8365 15.20433254 79290 | 2025/06/06-11:43:43  193.2204    0.1234  162.8520   94.7098     6882.6698     6879.5100     6885.8296 -51.993327 -82.391053   0.000119   0.000443
1 62670U 25009BP  25158.67332271  .00006325  00000-0  29290-3 0  9990 | 2 62670  97.4249 238.9125 0004716 192.9215 167.1900 15.20449140 79476 | 2025/06/07-16:09:35  259.6823    0.1235  167.2020   94.7089     6882.6219     6879.3760     6885.8677 -50.305007 -83.432712   0.000147   0.000448
1 62670U 25009BP  25159.72631153  .00006195  00000-0  28682-3 0  9997 | 2 62670  97.4250 239.9496 0004827 189.3258 170.7888 15.20462945 79631 | 2025/06/08-17:25:53  278.7560    0.1234  170.7976   94.7080     6882.5802     6879.2580     6885.9024 -48.786699 -84.329643   0.000171   0.000451
1 62670U 25009BP  25160.77928967  .00007465  00000-0  34476-3 0  9995 | 2 62670  97.4250 240.9867 0004940 186.1527 173.9649 15.20479782 79799 | 2025/06/09-18:42:10  297.8259    0.1235  173.9708   94.7069     6882.5294     6879.1294     6885.9294 -47.252356 -85.198859   0.000192   0.000455
1 62670U 25009BP  25161.96387909  .00006075  00000-0  28109-3 0  9994 | 2 62670  97.4249 242.1533 0005054 181.5178 178.6042 15.20493307 79977 | 2025/06/10-23:07:59    4.2747    0.1234  178.6056   94.7061     6882.4886     6879.0102     6885.9670 -45.507899 -86.143150   0.000224   0.000453
1 62670U 25009BP  25163.74073957  .00006693  00000-0  30909-3 0  9994 | 2 62670  97.4247 243.9037 0005236 175.6391 184.4890 15.20518621 80241 | 2025/06/12-17:46:39  283.9393    0.1234  184.4843   94.7045     6882.4122     6878.8086     6886.0158 -42.855292 -87.492835   0.000265   0.000451
1 62670U 25009BP  25165.18852470  .00008972  00000-0  41277-3 0  9991 | 2 62670  97.4243 245.3301 0005362 171.6610 188.4715 15.20548112 80469 | 2025/06/14-04:31:28   85.1381    0.1235  188.4625   94.7027     6882.3232     6878.6329     6886.0135 -40.663903 -88.532148   0.000292   0.000450
1 62670U 25009BP  25166.76789776  .00006331  00000-0  29209-3 0  9992 | 2 62670  97.4240 246.8860 0005510 166.8288 193.3092 15.20572799 80702 | 2025/06/15-18:25:46  293.7078    0.1235  193.2947   94.7012     6882.2487     6878.4566     6886.0408 -38.244947 -89.603347   0.000326   0.000444
1 62670U 25009BP  25168.93950042  .00006268  00000-0  28894-3 0  9997 | 2 62670  97.4240 249.0254 0005655 159.4161 200.7303 15.20601394 81031 | 2025/06/17-22:32:52  355.4773    0.1235  200.7074   94.6994     6882.1624     6878.2706     6886.0543 -34.873315 -90.968608   0.000375   0.000423
1 62670U 25009BP  25170.51882588  .00005553  00000-0  25624-3 0  9997 | 2 62670  97.4241 250.5812 0005784 155.2166 204.9348 15.20617400 81277 | 2025/06/19-12:27:06  204.0304    0.1235  204.9069   94.6984     6882.1141     6878.1335     6886.0948 -32.390650 -91.881995   0.000403   0.000415
1 62670U 25009BP  25172.49295997  .00004700  00000-0  21728-3 0  9992 | 2 62670  97.4245 252.5257 0005941 149.5556 210.6026 15.20635436 81579 | 2025/06/21-11:49:51  194.7131    0.1236  210.5680   94.6973     6882.0597     6877.9711     6886.1483 -29.254432 -92.928528   0.000441   0.000398
1 62670U 25009BP  25173.74323180  .00004407  00000-0  20385-3 0  9999 | 2 62670  97.4249 253.7570 0006003 146.0418 214.1203 15.20647285 81765 | 2025/06/22-17:50:15  284.8081    0.1235  214.0817   94.6965     6882.0240     6877.8927     6886.1552 -27.250886 -93.536091   0.000461   0.000384
1 62670U 25009BP  25174.86188939  .00004030  00000-0  18667-3 0  9996 | 2 62670  97.4250 254.8591 0006084 142.6633 217.5026 15.20655899 81931 | 2025/06/23-20:41:07  327.5216    0.1235  217.4602   94.6960     6881.9980     6877.8110     6886.1850 -25.446790 -94.043030   0.000483   0.000371
1 62670U 25009BP  25176.17794916  .00004013  00000-0  18582-3 0  9997 | 2 62670  97.4250 256.1557 0006178 139.1729 220.9971 15.20665861 82139 | 2025/06/25-04:16:14   81.2996    0.1236  220.9507   94.6954     6881.9679     6877.7162     6886.2196 -23.312268 -94.594761   0.000504   0.000357
1 62670U 25009BP  25177.49399872  .00004811  00000-0  22204-3 0  9997 | 2 62670  97.4249 257.4526 0006271 135.7629 224.4109 15.20678710 82333 | 2025/06/26-11:51:21  195.0739    0.1235  224.3606   94.6946     6881.9292     6877.6135     6886.2448 -21.165288 -95.098064   0.000525   0.000344
1 62670U 25009BP  25178.81003622  .00004570  00000-0  21098-3 0  9991 | 2 62670  97.4245 258.7492 0006297 132.4024 227.7745 15.20691597 82538 | 2025/06/27-19:26:27  308.8448    0.1235  227.7211   94.6938     6881.8903     6877.5567     6886.2238 -19.007911 -95.552250   0.000539   0.000326
1 62670U 25009BP  25180.19186470  .00003848  00000-0  17810-3 0  9992 | 2 62670  97.4242 260.1108 0006398 128.5894 231.5915 15.20703091 82747 | 2025/06/29-04:36:17   86.2995    0.1235  231.5341   94.6930     6881.8556     6877.4526     6886.2586 -16.731964 -95.976644   0.000561   0.000307
1 62670U 25009BP  25181.90268399  .00004895  00000-0  22556-3 0  9999 | 2 62670  97.4240 261.7965 0006482 123.8908 236.2945 15.20720753 83000 | 2025/06/30-21:39:51  342.1906    0.1235  236.2327   94.6919     6881.8023     6877.3415     6886.2631 -13.901372 -96.427111   0.000584   0.000281
1 62670U 25009BP  25183.48188255  .00005078  00000-0  23378-3 0  9993 | 2 62670  97.4239 263.3524 0006495 119.6512 240.5371 15.20738738 83244 | 2025/07/02-11:33:54  190.6997    0.1235  240.4723   94.6908     6881.7481     6877.2784     6886.2177 -11.278023 -96.768913   0.000598   0.000254
1 62670U 25009BP  25184.66626793  .00005865  00000-0  26935-3 0  9994 | 2 62670  97.4239 264.5191 0006489 116.5366 243.6535 15.20754616 83422 | 2025/07/03-15:59:25  257.0773    0.1235  243.5869   94.6898     6881.7002     6877.2346     6886.1657  -9.305339 -96.978487   0.000606   0.000233
1 62670U 25009BP  25185.78484494  .00006218  00000-0  28525-3 0  9998 | 2 62670  97.4241 265.6211 0006539 113.3199 246.8725 15.20768018 83590 | 2025/07/04-18:50:10  299.7632    0.1235  246.8036   94.6890     6881.6597     6877.1598     6886.1596  -7.438510 -97.139713   0.000618   0.000212
1 62670U 25009BP  25187.16660099  .00006349  00000-0  29104-3 0  9998 | 2 62670  97.4245 266.9824 0006549 109.7835 250.4108 15.20786180 83805 | 2025/07/06-03:59:54   77.1941    0.1236  250.3401   94.6879     6881.6049     6877.0982     6886.1117  -5.128690 -97.289412   0.000627   0.000189
1 62670U 25009BP  25188.74572969  .00005653  00000-0  25937-3 0  9998 | 2 62670  97.4248 268.5384 0006597 105.6289 254.5675 15.20806556 84049 | 2025/07/07-17:53:51  285.6788    0.1235  254.4946   94.6866     6881.5435     6877.0037     6886.0832  -2.485011 -97.393102   0.000640   0.000161
1 62670U 25009BP  25190.19324714  .00004716  00000-0  21682-3 0  9995 | 2 62670  97.4248 269.9649 0006579 101.7244 258.4730 15.20822235 84267 | 2025/07/09-04:38:16   86.7844    0.1235  258.3991   94.6856     6881.4962     6876.9688     6886.0235  -0.059683 -97.424782   0.000644   0.000133
1 62670U 25009BP  25191.77234245  .00004427  00000-0  20365-3 0  9995 | 2 62670  97.4247 271.5209 0006563  97.5447 262.6534 15.20836643 84501 | 2025/07/10-18:32:10  295.2584    0.1235  262.5788   94.6847     6881.4527     6876.9364     6885.9690   2.585807 -97.390378   0.000648   0.000103
1 62670U 25009BP  25193.48301038  .00005086  00000-0  23332-3 0  9999 | 2 62670  97.4243 273.2067 0006543  93.0804 267.1180 15.20855007 84764 | 2025/07/12-11:35:32  191.0989    0.1235  267.0431   94.6836     6881.3973     6876.8948     6885.8998   5.449746 -97.271756   0.000650   0.000072
1 62670U 25009BP  25194.66730563  .00005692  00000-0  26062-3 0  9995 | 2 62670  97.4239 274.3738 0006540  89.8941 270.3044 15.20869983 84941 | 2025/07/13-16:00:55  257.4453    0.1236  270.2295   94.6826     6881.3521     6876.8517     6885.8525   7.429848 -97.140175   0.000652   0.000049
1 62670U 25009BP  25196.18055665  .00005997  00000-0  27430-3 0  9995 | 2 62670  97.4236 275.8651 0006467  85.9412 274.2562 15.20887859 85172 | 2025/07/15-04:20:00   82.2170    0.1235  274.1823   94.6815     6881.2982     6876.8481     6885.7484   9.955389 -96.913611   0.000646   0.000020
1 62670U 25009BP  25197.75958389  .00005311  00000-0  24318-3 0  9996 | 2 62670  97.4234 277.4211 0006440  81.7736 278.4230 15.20903639 85414 | 2025/07/16-18:13:48  290.6679    0.1236  278.3500   94.6806     6881.2506     6876.8191     6885.6821  12.583283 -96.607349   0.000644  -0.000009
1 62670U 25009BP  25198.87805014  .00005154  00000-0  23601-3 0  9995 | 2 62670  97.4235 278.5231 0006371  79.0197 281.1754 15.20915915 85583 | 2025/07/17-21:04:23  333.3177    0.1235  281.1038   94.6798     6881.2136     6876.8296     6885.5976  14.438956 -96.347573   0.000637  -0.000027
1 62670U 25009BP  25200.19388227  .00004641  00000-0  21274-3 0  9990 | 2 62670  97.4236 279.8197 0006364  75.1265 285.0674 15.20928926 85786 | 2025/07/19-04:39:11   87.0188    0.1235  284.9970   94.6790     6881.1743     6876.7952     6885.5535  16.615430 -95.996278   0.000634  -0.000056
1 62670U 25009BP  25201.64128283  .00005313  00000-0  24300-3 0  9995 | 2 62670  97.4239 281.2458 0006252  71.1713 289.0200 15.20945533 86004 | 2025/07/20-15:23:26  248.0861    0.1236  288.9523   94.6779     6881.1243     6876.8222     6885.4263  18.999456 -95.553320   0.000620  -0.000083
1 62670U 25009BP  25202.69392749  .00005551  00000-0  25365-3 0  9997 | 2 62670  97.4240 282.2831 0006203  68.2430 291.9465 15.20958360 86165 | 2025/07/21-16:39:15  267.0403    0.1236  291.8806   94.6771     6881.0856     6876.8172     6885.3539  20.726195 -95.193806   0.000612  -0.000102
1 62670U 25009BP  25204.53603409  .00007015  00000-0  31940-3 0  9993 | 2 62670  97.4240 284.0982 0006067  62.9123 297.2731 15.20983517 86448 | 2025/07/23-12:51:53  210.2033    0.1236  297.2113   94.6756     6881.0097     6876.8350     6885.1844  23.730980 -94.489557   0.000591  -0.000136
1 62670U 25009BP  25205.78601729  .00006848  00000-0  31172-3 0  9994 | 2 62670  97.4241 285.3305 0006033  59.4965 300.6865 15.21000634 86639 | 2025/07/24-18:51:51  300.1994    0.1235  300.6270   94.6745     6880.9581     6876.8068     6885.1093  25.757614 -93.957440   0.000582  -0.000158
1 62670U 25009BP  25207.75964385  .00006783  00000-0  30857-3 0  9990 | 2 62670  97.4237 287.2758 0005846  53.5215 306.6559 15.21029322 86935 | 2025/07/26-18:13:53  290.7106    0.1236  306.6021   94.6727     6880.8715     6876.8490     6884.8941  28.932071 -93.028558   0.000552  -0.000192
1 62670U 25009BP  25209.20694685  .00005935  00000-0  27025-3 0  9996 | 2 62670  97.4232 288.7024 0005769  49.3995 310.7742 15.21048460 87153 | 2025/07/28-04:58:00   91.7433    0.1236  310.7241   94.6715     6880.8138     6876.8443     6884.7834  31.239009 -92.278948   0.000535  -0.000215
1 62670U 25009BP  25210.78580373  .00006706  00000-0  30477-3 0  9991 | 2 62670  97.4227 290.2585 0005620  44.4873 315.6813 15.21069404 87394 | 2025/07/29-18:51:33  300.1369    0.1236  315.6363   94.6702     6880.7507     6876.8837     6884.6176  33.733217 -91.396130   0.000508  -0.000240
1 62670U 25009BP  25212.16728455  .00007684  00000-0  34850-3 0  9995 | 2 62670  97.4224 291.6197 0005500  39.8987 320.2652 15.21090199 87608 | 2025/07/31-04:00:53   77.4752    0.1236  320.2249   94.6689     6880.6880     6876.9036     6884.4723  35.894720 -90.568720   0.000483  -0.000262
1 62670U 25009BP  25213.21982779  .00007202  00000-0  32672-3 0  9999 | 2 62670  97.4225 292.6572 0005443  36.9861 323.1749 15.21106612 87766 | 2025/08/01-05:16:33   96.3936    0.1236  323.1375   94.6679     6880.6385     6876.8933     6884.3836  37.528783 -89.904026   0.000470  -0.000275
1 62670U 25009BP  25215.19331780  .00006414  00000-0  29108-3 0  9992 | 2 62670  97.4226 294.6019 0005281  30.8495 329.3050 15.21133907 88065 | 2025/08/03-04:38:22   86.8570    0.1236  329.2741   94.6662     6880.5561     6876.9225     6884.1898  40.558095 -88.578801   0.000435  -0.000299
1 62670U 25009BP  25216.44317893  .00006547  00000-0  29695-3 0  9998 | 2 62670  97.4228 295.8336 0005120  26.2858 333.8636 15.21148684 88255 | 2025/08/04-10:38:10  176.8123    0.1235  333.8377   94.6653     6880.5116     6876.9888     6884.0344  42.452862 -87.686695   0.000404  -0.000314
1 62670U 25009BP  25217.62724529  .00006397  00000-0  29010-3 0  9991 | 2 62670  97.4230 297.0004 0005025  22.4160 337.7294 15.21164067 88438 | 2025/08/05-15:03:13  243.0804    0.1236  337.7076   94.6643     6880.4652     6877.0078     6883.9226  44.229722 -86.804220   0.000382  -0.000327
1 62670U 25009BP  25218.94286112  .00005915  00000-0  26837-3 0  9997 | 2 62670  97.4232 298.2972 0004916  18.0925 342.0485 15.21179910 88631 | 2025/08/06-22:37:43  356.7065    0.1236  342.0311   94.6634     6880.4174     6877.0350     6883.7998  46.182998 -85.781178   0.000356  -0.000339
1 62670U 25009BP  25220.45580505  .00005218  00000-0  23703-3 0  9994 | 2 62670  97.4230 299.7886 0004770  12.9211 347.2146 15.21194332 88869 | 2025/08/08-10:56:21  181.3714    0.1236  347.2025   94.6625     6880.3739     6877.0920     6883.6559  48.399872 -84.549945   0.000324  -0.000350
1 62670U 25009BP  25221.57405607  .00008062  00000-0  36423-3 0  9990 | 2 62670  97.4229 300.8909 0004689   8.9910 351.1409 15.21212896 89039 | 2025/08/09-13:46:38  223.9455    0.1236  351.1326   94.6613     6880.3180     6877.0918     6883.5441  50.017400 -83.603117   0.000301  -0.000360
1 62670U 25009BP  25223.28429692  .00006837  00000-0  30917-3 0  9990 | 2 62670  97.4224 302.5768 0004498   2.9896 357.1366 15.21237881 89298 | 2025/08/11-06:49:23  119.6377    0.1236  357.1340   94.6598     6880.2426     6877.1479     6883.3374  52.455106 -82.094981   0.000262  -0.000366
1 62670U 25009BP  25224.53407219  .00006563  00000-0  29680-3 0  9991 | 2 62670  97.4219 303.8088 0004394 358.0317   2.0900 15.21253438 89486 | 2025/08/12-12:49:03  209.5611    0.1235    2.0918   94.6588     6880.1957     6877.1726     6883.2189  54.207809 -80.947761   0.000232  -0.000373
1 62670U 25009BP  25225.91538731  .00006401  00000-0  28940-3 0  9997 | 2 62670  97.4215 305.1705 0004273 352.9030   7.2144 15.21270829 89697 | 2025/08/13-21:58:09  346.8387    0.1236    7.2206   94.6577     6880.1433     6877.2034     6883.0832  56.115906 -79.636385   0.000201  -0.000377
1 62670U 25009BP  25227.49401332  .00006581  00000-0  29725-3 0  9999 | 2 62670  97.4212 306.7262 0004125 346.5944  13.5181 15.21291931 89933 | 2025/08/15-11:51:22  195.1492    0.1236   13.5292   94.6564     6880.0797     6877.2416     6882.9177  58.257071 -78.083314   0.000163  -0.000379
1 62670U 25009BP  25228.67796719  .00006090  00000-0  27522-3 0  9994 | 2 62670  97.4211 307.8929 0004021 341.4942  18.6147 15.21308080 90115 | 2025/08/16-16:16:16  261.3764    0.1236   18.6294   94.6554     6880.0310     6877.2645     6882.7974  59.834813 -76.880855   0.000133  -0.000379
1 62670U 25009BP  25229.79613527  .00006248  00000-0  28215-3 0  9998 | 2 62670  97.4213 308.9948 0003944 336.1310  23.9742 15.21322793 90288 | 2025/08/17-19:06:26  303.9209    0.1236   23.9926   94.6545     6879.9866     6877.2731     6882.7001  61.302339 -75.716134   0.000103  -0.000381
1 62670U 25009BP  25231.17738890  .00006573  00000-0  29652-3 0  9991 | 2 62670  97.4216 310.3561 0003831 329.6560  30.4454 15.21339571 90496 | 2025/08/19-04:15:26   81.1761    0.1237   30.4677   94.6534     6879.9360     6877.3003     6882.5717  63.084015 -74.238637   0.000067  -0.000377
1 62670U 25009BP  25232.49285153  .00007730  00000-0  34788-3 0  9998 | 2 62670  97.4217 311.6527 0003714 324.5969  35.5020 15.21360087 90693 | 2025/08/20-11:49:42  194.7451    0.1236   35.5267   94.6521     6879.8742     6877.3190     6882.4294  64.747801 -72.792238   0.000040  -0.000369
1 62670U 25009BP  25234.59755660  .00005782  00000-0  26086-3 0  9993 | 2 62670  97.4219 313.7277 0003627 313.5803  46.5132 15.21387858 91016 | 2025/08/22-14:20:28  232.4439    0.1237   46.5434   94.6504     6879.7905     6877.2952     6882.2858  67.341120 -70.400285  -0.000017  -0.000362
1 62670U 25009BP  25235.64989589  .00006610  00000-0  29761-3 0  9993 | 2 62670  97.4218 314.7653 0003591 308.5919  51.4995 15.21401848 91171 | 2025/08/23-15:35:51  251.2877    0.1236   51.5317   94.6495     6879.7483     6877.2778     6882.2188  68.604855 -69.169220  -0.000042  -0.000357
1 62670U 25009BP  25236.83376581  .00007398  00000-0  33254-3 0  9993 | 2 62670  97.4214 315.9324 0003561 302.6863  57.4029 15.21418932 91351 | 2025/08/24-20:00:37  317.4829    0.1236   57.4373   94.6485     6879.6968     6877.2469     6882.1466  69.999196 -67.757226  -0.000070  -0.000349
1 62670U 25009BP  25238.47800651  .00007658  00000-0  34387-3 0  9992 | 2 62670  97.4209 317.5534 0003507 294.9360  65.1512 15.21443984 91607 | 2025/08/26-11:28:19  189.4112    0.1237   65.1877   94.6469     6879.6213     6877.2086     6882.0339  71.887532 -65.749635  -0.000106  -0.000334
1 62670U 25009BP  25239.53030345  .00009516  00000-0  42617-3 0  9995 | 2 62670  97.4203 318.5905 0003511 289.6836  70.4021 15.21465864 91760 | 2025/08/27-12:43:38  208.2397    0.1236   70.4400   94.6456     6879.5553     6877.1399     6881.9707  73.065362 -64.437316  -0.000130  -0.000326
1 62670U 25009BP  25240.77988691  .00010976  00000-0  49056-3 0  9995 | 2 62670  97.4200 319.8224 0003599 283.0907  76.9927 15.21493245 91959 | 2025/08/28-18:43:02  298.0918    0.1236   77.0329   94.6439     6879.4728     6876.9968     6881.9487  74.433587 -62.851393  -0.000164  -0.000320
1 62670U 25009BP  25242.16097817  .00012959  00000-0  57794-3 0  9992 | 2 62670  97.4199 321.1838 0003551 277.0013  83.0819 15.21528081 92162 | 2025/08/30-03:51:48   75.2847    0.1236   83.1223   94.6417     6879.3678     6876.9249     6881.8106  75.905764 -61.065145  -0.000187  -0.000302
1 62670U 25009BP  25243.21321643  .00012578  00000-0  56059-3 0  9996 | 2 62670  97.4196 322.2210 0003561 271.5875  88.4953 15.21554841 92320 | 2025/08/31-05:07:01   94.0908    0.1236   88.5361   94.6400     6879.2871     6876.8374     6881.7368  76.998465 -59.680943  -0.000210  -0.000287
1 62670U 25009BP  25244.79153978  .00013520  00000-0  60159-3 0  9998 | 2 62670  97.4197 323.7766 0003707 264.2794  95.8020 15.21594429 92563 | 2025/09/01-18:59:49  302.2887    0.1237   95.8443   94.6376     6879.1678     6876.6177     6881.7179  78.590327 -57.568729  -0.000248  -0.000276
1 62670U 25009BP  25246.17253330  .00019187  00000-0  85057-3 0  9994 | 2 62670  97.4200 325.1378 0003834 258.2657 101.8149 15.21643405 92777 | 2025/09/03-04:08:26   79.4471    0.1236  101.8579   94.6345     6879.0202     6876.3828     6881.6576  79.935951 -55.685727  -0.000279  -0.000263
1 62670U 25009BP  25247.75076255  .00011900  00000-0  52857-3 0  9995 | 2 62670  97.4205 326.6941 0003837 250.8599 109.2222 15.21684505 93018 | 2025/09/04-18:01:05  287.6074    0.1236  109.2637   94.6320     6878.8963     6876.2569     6881.5357  81.419263 -53.494462  -0.000304  -0.000234
1 62670U 25009BP  25248.93440926  .00010846  00000-0  48175-3 0  9992 | 2 62670  97.4204 327.8610 0003937 245.9006 114.1819 15.21710052 93195 | 2025/09/05-22:25:32  353.7196    0.1236  114.2230   94.6304     6878.8193     6876.1111     6881.5275  82.491699 -51.825224  -0.000327  -0.000219
1 62670U 25009BP  25250.18379312  .00011008  00000-0  48849-3 0  9991 | 2 62670  97.4200 329.0931 0004010 240.4187 119.6650 15.21737485 93387 | 2025/09/07-04:24:39   83.4959    0.1236  119.7049   94.6287     6878.7366     6875.9783     6881.4950  83.586658 -50.039255  -0.000349  -0.000198
1 62670U 25009BP  25251.76193156  .00009296  00000-0  41272-3 0  9995 | 2 62670  97.4197 330.6495 0004121 233.7416 126.3440 15.21767679 93625 | 2025/09/08-18:17:10  291.6230    0.1236  126.3820   94.6268     6878.6456     6875.8110     6881.4803  84.914673 -47.750353  -0.000375  -0.000170
1 62670U 25009BP  25252.81400822  .00006779  00000-0  30177-3 0  9998 | 2 62670  97.4195 331.6869 0004206 228.7818 131.3056 15.21782141 93780 | 2025/09/09-19:32:10  310.3683    0.1236  131.3418   94.6259     6878.6021     6875.7089     6881.4952  85.765102 -46.205047  -0.000394  -0.000147
1 62670U 25009BP  25254.19484206  .00006769  00000-0  30111-3 0  9996 | 2 62670  97.4188 333.0486 0004324 223.3674 136.7222 15.21803438 93995 | 2025/09/11-04:40:34   87.4656    0.1236  136.7562   94.6246     6878.5379     6875.5636     6881.5122  86.838270 -44.153567  -0.000415  -0.000122
1 62670U 25009BP  25256.16742781  .00007663  00000-0  34013-3 0  9999 | 2 62670  97.4182 334.9933 0004490 215.3702 144.7237 15.21835951 94297 | 2025/09/13-04:01:05   77.5918    0.1236  144.7534   94.6226     6878.4399     6875.3515     6881.5283  88.286058 -41.181035  -0.000442  -0.000081
1 62670U 25009BP  25257.48246140  .00007666  00000-0  34003-3 0  9995 | 2 62670  97.4183 336.2898 0004592 209.9276 150.1698 15.21858003 94498 | 2025/09/14-11:34:44  191.0000    0.1236  150.1960   94.6212     6878.3735     6875.2149     6881.5320  89.195321 -39.172949  -0.000456  -0.000050
1 62670U 25009BP  25258.73172370  .00011180  00000-0  49385-3 0  9992 | 2 62670  97.4182 337.5215 0004705 205.5241 154.5764 15.21886448 94681 | 2025/09/15-17:33:40  280.7310    0.1236  154.5995   94.6194     6878.2878     6875.0515     6881.5240  90.016664 -37.246555  -0.000470  -0.000025
1 62670U 25009BP  25260.17820959  .00009643  00000-0  42611-3 0  9992 | 2 62670  97.4185 338.9478 0004834 200.3951 159.7093 15.21915994 94900 | 2025/09/17-04:16:37   81.4614    0.1236  159.7285   94.6176     6878.1987     6874.8738     6881.5237  90.916160 -34.994513  -0.000483   0.000006
1 62670U 25009BP  25261.88765535  .00010181  00000-0  44919-3 0  9991 | 2 62670  97.4190 340.6338 0005010 193.4958 166.6145 15.21952896 95163 | 2025/09/18-21:18:13  336.8549    0.1236  166.6278   94.6153     6878.0876     6874.6416     6881.5335  91.906881 -32.304593  -0.000498   0.000051
1 62670U 25009BP  25263.00534893  .00010123  00000-0  44632-3 0  9996 | 2 62670  97.4192 341.7357 0005121 190.2518 169.8615 15.21975205 95333 | 2025/09/20-00:07:42   19.2214    0.1236  169.8718   94.6139     6878.0204     6874.4981     6881.5426  92.511312 -30.531258  -0.000507   0.000071
1 62670U 25009BP  25264.18877019  .00011983  00000-0  52725-3 0  9993 | 2 62670  97.4190 342.9032 0005201 187.1247 172.9916 15.22002715 95514 | 2025/09/21-04:31:49   85.2490    0.1236  172.9989   94.6122     6877.9375     6874.3603     6881.5147  93.113999 -28.639914  -0.000512   0.000090
1 62670U 25009BP  25265.50365317  .00018087  00000-0  79260-3 0  9998 | 2 62670  97.4187 344.2003 0005259 183.1443 176.9761 15.22045788 95711 | 2025/09/22-12:05:15  198.6016    0.1236  176.9793   94.6095     6877.8077     6874.1907     6881.4247  93.738165 -26.524697  -0.000513   0.000115
1 62670U 25009BP  25266.68701021  .00021051  00000-0  92024-3 0  9992 | 2 62670  97.4182 345.3671 0005291 178.9311 181.1937 15.22096622 95896 | 2025/09/23-16:29:17  264.6054    0.1235  181.1924   94.6063     6877.6546     6874.0156     6881.2935  94.258370 -24.610272  -0.000509   0.000143
1 62670U 25009BP  25267.80459016  .00018495  00000-0  80811-3 0  9990 | 2 62670  97.4182 346.4700 0005413 175.2977 184.8311 15.22139505 96069 | 2025/09/24-19:18:36  306.9288    0.1236  184.8259   94.6037     6877.5254     6873.8026     6881.2482  94.714607 -22.791423  -0.000514   0.000169
1 62670U 25009BP  25268.92214101  .00019938  00000-0  86971-3 0  9994 | 2 62670  97.4173 347.5721 0005510 172.1047 188.0277 15.22180965 96238 | 2025/09/25-22:07:52  349.2429    0.1236  188.0189   94.6011     6877.4005     6873.6111     6881.1900  95.134579 -20.965264  -0.000517   0.000191
1 62670U 25009BP  25270.17113291  .00018177  00000-0  79231-3 0  9997 | 2 62670  97.4171 348.8040 0005576 168.9049 191.2311 15.22224789 96420 | 2025/09/27-04:06:25   78.8755    0.1236  191.2187   94.5984     6877.2685     6873.4338     6881.1033  95.563127 -18.915076  -0.000516   0.000212
1 62670U 25009BP  25271.74875227  .00019655  00000-0  85478-3 0  9997 | 2 62670  97.4171 350.3596 0005668 163.8626 196.2792 15.22285857 96668 | 2025/09/28-17:58:12  286.8121    0.1236  196.2610   94.5946     6877.0846     6873.1867     6880.9825  96.041395 -16.313852  -0.000510   0.000246
1 62670U 25009BP  25273.19484054  .00023046  00000-0  99923-3 0  9991 | 2 62670  97.4168 351.7862 0005758 159.0140 201.1334 15.22355474 96888 | 2025/09/30-04:40:34   87.3970    0.1236  201.1096   94.5903     6876.8749     6872.9152     6880.8346  96.417484 -13.917677  -0.000503   0.000281
1 62670U 25009BP  25274.90375468  .00025270  00000-0  10918-2 0  9996 | 2 62670  97.4171 353.4723 0005842 153.9505 206.2027 15.22454653 97143 | 2025/10/01-21:41:24  342.5986    0.1237  206.1732   94.5841     6876.5763     6872.5590     6880.5936  96.785546 -11.074722  -0.000492   0.000315
1 62670U 25009BP  25276.21823641  .00025840  00000-0  11141-2 0  9995 | 2 62670  97.4172 354.7694 0005921 150.1064 210.0512 15.22521190 97347 | 2025/10/03-05:14:15   95.8061    0.1236  210.0172   94.5800     6876.3759     6872.3044     6880.4474  97.011540  -8.880984  -0.000484   0.000341
1 62670U 25009BP  25279.96427218  .00014488  00000-0  62473-3 0  9991 | 2 62670  97.4176 358.4669 0006008 140.6206 219.5468 15.22639204 97916 | 2025/10/06-23:08:33    4.3640    0.1236  219.5030   94.5726     6876.0206     6871.8895     6880.1517  97.382728  -2.606354  -0.000454   0.000393
1 62670U 25009BP  25281.21289039  .00015167  00000-0  65308-3 0  9994 | 2 62670  97.4172 359.6994 0006130 136.4457 223.7265 15.22677478 98102 | 2025/10/08-05:06:33   93.8599    0.1237  223.6780   94.5703     6875.9054     6871.6905     6880.1203  97.415859  -0.511093  -0.000442   0.000425
1 62670U 25009BP  25283.18432830  .00012998  00000-0  55934-3 0  9994 | 2 62670  97.4160   1.6451 0006179 131.1058 229.0713 15.22733909 98405 | 2025/10/10-04:25:25   83.5701    0.1236  229.0178   94.5668     6875.7355     6871.4870     6879.9840  97.375848   2.796664  -0.000419   0.000454
1 62670U 25009BP  25284.49858204  .00013380  00000-0  57506-3 0  9999 | 2 62670  97.4156   2.9421 0006205 127.3815 232.7988 15.22769496 98606 | 2025/10/11-11:57:57  196.6966    0.1237  232.7422   94.5645     6875.6284     6871.3621     6879.8947  97.287198   5.000028  -0.000402   0.000473
1 62670U 25009BP  25285.94421810  .00017846  00000-0  76435-3 0  9992 | 2 62670  97.4155   4.3686 0006261 123.2019 236.9818 15.22823234 98820 | 2025/10/12-22:39:40  357.1206    0.1236  236.9217   94.5612     6875.4666     6871.1619     6879.7714  97.132474   7.420392  -0.000382   0.000496
1 62670U 25009BP  25287.19268266  .00013806  00000-0  59159-3 0  9991 | 2 62670  97.4157   5.6010 0006278 119.8845 240.3016 15.22862761 99012 | 2025/10/14-04:37:27   86.5636    0.1236  240.2391   94.5588     6875.3477     6871.0313     6879.6640  96.950608   9.507799  -0.000364   0.000511
1 62670U 25009BP  25288.96677137  .00014361  00000-0  61440-3 0  9991 | 2 62670  97.4162   7.3524 0006278 114.8317 245.3573 15.22907914 99288 | 2025/10/15-23:12:09    5.2299    0.1236  245.2919   94.5559     6875.2118     6870.8955     6879.5280  96.615227  12.466516  -0.000334   0.000531
1 62670U 25009BP  25290.14946584  .00014885  00000-0  63607-3 0  9997 | 2 62670  97.4167   8.5202 0006248 111.7001 248.4902 15.22941232 99463 | 2025/10/17-03:35:13   70.9965    0.1237  248.4236   94.5539     6875.1115     6870.8159     6879.4071  96.341579  14.433072  -0.000314   0.000540
1 62670U 25009BP  25291.20072667  .00016379  00000-0  69876-3 0  9991 | 2 62670  97.4167   9.5578 0006250 109.0253 251.1661 15.22975061 99620 | 2025/10/18-04:49:02   89.4479    0.1236  251.0983   94.5518     6875.0097     6870.7128     6879.3066  96.064420  16.175311  -0.000299   0.000549
1 62670U 25009BP  25292.25195941  .00024650  00000-0  10474-2 0  9998 | 2 62670  97.4163  10.5960 0006251 105.9754 254.2172 15.23024991 99781 | 2025/10/19-06:02:49  107.8884    0.1237  254.1483   94.5487     6874.8594     6870.5619     6879.1569  95.755176  17.913175  -0.000280   0.000559
1 62670U 25009BP  25293.76304923  .00019000  00000-0  80717-3 0  9998 | 2 62670  97.4163  12.0882 0006215 101.8791 258.3144 15.23086415100019 | 2025/10/20-18:18:47  291.8770    0.1238  258.2447   94.5449     6874.6746     6870.4020     6878.9472  95.256229  20.400647  -0.000252   0.000568
1 62670U 25009BP  25295.20838771  .00015600  00000-0  66261-3 0  9992 | 2 62670  97.4160  13.5155 0006266  97.8880 262.3068 15.23133888100235 | 2025/10/22-05:00:04   92.1949    0.1237  262.2357   94.5419     6874.5317     6870.2241     6878.8393  94.718233  22.766938  -0.000229   0.000583
1 62670U 25009BP  25296.65368375  .00014548  00000-0  61747-3 0  9994 | 2 62670  97.4150  14.9427 0006096  93.2526 266.9408 15.23176276100459 | 2025/10/23-15:41:18  252.5002    0.1236  266.8710   94.5393     6874.4042     6870.2136     6878.5948  94.120832  25.118742  -0.000190   0.000579
1 62670U 25009BP  25297.96755017  .00015459  00000-0  65505-3 0  9990 | 2 62670  97.4150  16.2406 0006086  90.2440 269.9494 15.23219735100650 | 2025/10/24-23:13:16    5.4892    0.1237  269.8797   94.5366     6874.2734     6870.0898     6878.4571  93.527728  27.244200  -0.000173   0.000584
1 62670U 25009BP  25299.21569160  .00013068  00000-0  55375-3 0  9990 | 2 62670  97.4146  17.4731 0006153  86.7312 273.4629 15.23256264100841 | 2025/10/26-05:10:35   94.8172    0.1237  273.3925   94.5343     6874.1635     6869.9339     6878.3932  92.919698  29.249513  -0.000151   0.000596
1 62670U 25009BP  25300.52949328  .00012940  00000-0  54779-3 0  9990 | 2 62670  97.4142  18.7706 0006092  83.0045 277.1885 15.23292078101049 | 2025/10/27-12:42:28  207.7843    0.1237  277.1192   94.5321     6874.0558     6869.8681     6878.2435  92.233177  31.345932  -0.000124   0.000596
1 62670U 25009BP  25302.17170247  .00016529  00000-0  69759-3 0  9990 | 2 62670  97.4143  20.3925 0005994  77.8831 282.3077 15.23341608101298 | 2025/10/29-04:07:15   78.9786    0.1237  282.2406   94.5290     6873.9068     6869.7866     6878.0270  91.309113  33.943950  -0.000086   0.000593
1 62670U 25009BP  25303.68248329  .00016839  00000-0  70949-3 0  9991 | 2 62670  97.4145  21.8846 0006005  73.8887 286.3011 15.23393403101527 | 2025/10/30-16:22:46  262.8577    0.1237  286.2350   94.5258     6873.7510     6869.6233     6877.8787  90.394467  36.310123  -0.000060   0.000597
1 62670U 25009BP  25305.19321018  .00014023  00000-0  59069-3 0  9999 | 2 62670  97.4148  23.3770 0005921  69.9152 290.2722 15.23443822101759 | 2025/11/01-04:38:13   86.7184    0.1237  290.2085   94.5227     6873.5993     6869.5295     6877.6692  89.418406  38.652191  -0.000034   0.000591
1 62670U 25009BP  25307.95182774  .00012267  00000-0  51619-3 0  9990 | 2 62670  97.4154  26.1026 0005722  61.7254 298.4560 15.23511027102173 | 2025/11/03-22:50:37  359.8201    0.1237  298.3983   94.5185     6873.3972     6869.4642     6877.3301  87.479771  42.860820   0.000022   0.000572
1 62670U 25009BP  25309.19973482  .00010291  00000-0  43327-3 0  9994 | 2 62670  97.4153  27.3358 0005658  58.1757 302.0030 15.23538167102368 | 2025/11/05-04:47:37   89.0662    0.1237  301.9480   94.5168     6873.3155     6869.4266     6877.2045  86.536980  44.733563   0.000044   0.000564
1 62670U 25009BP  25310.71032635  .00015015  00000-0  62964-3 0  9997 | 2 62670  97.4145  28.8281 0005508  53.1229 307.0512 15.23580893102591 | 2025/11/06-17:02:52  272.8803    0.1237  307.0008   94.5142     6873.1870     6869.4013     6876.9728  85.341951  46.971654   0.000077   0.000545
1 62670U 25009BP  25312.15519332  .00014129  00000-0  59192-3 0  9995 | 2 62670  97.4143  30.2556 0005429  49.2035 310.9672 15.23628423102811 | 2025/11/08-03:43:28   73.0325    0.1237  310.9202   94.5112     6873.0441     6869.3127     6876.7755  84.145134  49.083014   0.000099   0.000534
1 62670U 25009BP  25314.19107189  .00012013  00000-0  50303-3 0  9999 | 2 62670  97.4132  32.2668 0005258  42.8480 317.3166 15.23685873103124 | 2025/11/10-04:35:08   85.9503    0.1237  317.2757   94.5077     6872.8713     6869.2576     6876.4851  82.369808  52.005252   0.000135   0.000508
1 62670U 25009BP  25316.16120008  .00016460  00000-0  68639-3 0  9994 | 2 62670  97.4138  34.2141 0005091  34.3555 325.8011 15.23753400103420 | 2025/11/12-03:52:07   75.1990    0.1238  325.7683   94.5035     6872.6683     6869.1694     6876.1672  80.555585  54.774503   0.000186   0.000474
1 62670U 25009BP  25317.21187612  .00024596  00000-0  10206-2 0  9990 | 2 62670  97.4138  35.2524 0005074  32.3574 327.7974 15.23834522103587 | 2025/11/13-05:05:06   93.4415    0.1238  327.7664   94.4984     6872.4244     6868.9373     6875.9114  79.549802  56.225238   0.000193   0.000469
1 62670U 25009BP  25320.16671964  .00019294  00000-0  79902-3 0  9994 | 2 62670  97.4141  38.1730 0004845  22.4555 337.6894 15.23953935104038 | 2025/11/16-04:00:04   77.1869    0.1238  337.6683   94.4910     6872.0654     6868.7358     6875.3949  76.581922  60.205616   0.000238   0.000422
1 62670U 25009BP  25321.21727835  .00018733  00000-0  77498-3 0  9995 | 2 62670  97.4142  39.2115 0004776  19.8553 340.2869 15.23995119104198 | 2025/11/17-05:12:52   95.3877    0.1237  340.2684   94.4885     6871.9416     6868.6595     6875.2236  75.478238  61.583780   0.000246   0.000410
1 62670U 25009BP  25322.66175958  .00012302  00000-0  50981-3 0  9992 | 2 62670  97.4141  40.6398 0004650  14.5760 345.5610 15.24032178104414 | 2025/11/18-15:52:56  255.4016    0.1237  345.5477   94.4862     6871.8302     6868.6348     6875.0256  73.919677  63.445948   0.000265   0.000382
1 62670U 25009BP  25324.17186672  .00010948  00000-0  45369-3 0  9993 | 2 62670  97.4138  42.1329 0004524   8.1858 351.9453 15.24063461104648 | 2025/11/20-04:07:29   79.0414    0.1238  351.9380   94.4843     6871.7361     6868.6273     6874.8449  72.241173  65.350297   0.000289   0.000348
1 62670U 25009BP  25326.20716486  .00014181  00000-0  58550-3 0  9990 | 2 62670  97.4131  44.1452 0004384   2.1799 357.9457 15.24125409104957 | 2025/11/22-04:58:19   91.7480    0.1238  357.9439   94.4804     6871.5499     6868.5374     6874.5624  69.901408  67.846188   0.000303   0.000317
1 62670U 25009BP  25328.17673859  .00013254  00000-0  54671-3 0  9994 | 2 62670  97.4123  46.0921 0004128 354.6248   5.4945 15.24173741105253 | 2025/11/24-04:14:30   80.7953    0.1238    5.4990   94.4774     6871.4047     6868.5681     6874.2412  67.555544  70.181227   0.000313   0.000269
1 62670U 25009BP  25329.22715182  .00014015  00000-0  57738-3 0  9990 | 2 62670  97.4122  47.1309 0004115 350.3698   9.7460 15.24201863105416 | 2025/11/25-05:27:05   98.9441    0.1238    9.7540   94.4757     6871.3201     6868.4926     6874.1477  66.272024  71.394367   0.000326   0.000251
1 62670U 25009BP  25330.80273257  .00012223  00000-0  50341-3 0  9990 | 2 62670  97.4120  48.6886 0003974 344.7628  15.3489 15.24244715105655 | 2025/11/26-19:15:56  306.1525    0.1238   15.3610   94.4730     6871.1913     6868.4607     6873.9220  64.306642  73.169348   0.000332   0.000219
1 62670U 25009BP  25332.18133532  .00012589  00000-0  51790-3 0  9998 | 2 62670  97.4120  50.0517 0003918 337.8100  22.2967 15.24275747105869 | 2025/11/28-04:21:07   82.4502    0.1237   22.3137   94.4711     6871.0981     6868.4060     6873.7902  62.547867  74.678391   0.000346   0.000183
1 62670U 25009BP  25334.47893066  .00012799  00000-0  52553-3 0  9998 | 2 62670  97.4126  52.3239 0003751 329.1600  30.9417 15.24338583106219 | 2025/11/30-11:29:39  189.5819    0.1238   30.9638   94.4672     6870.9093     6868.3320     6873.4865  59.538283  77.099984   0.000349   0.000137
1 62670U 25009BP  25336.18566045  .00013273  00000-0  54418-3 0  9992 | 2 62670  97.4127  54.0121 0003714 320.4905  39.6061 15.24380505106470 | 2025/12/02-04:27:21   84.0038    0.1237   39.6332   94.4646     6870.7833     6868.2315     6873.3351  57.241104  78.820620   0.000360   0.000093
1 62670U 25009BP  25337.76105503  .00016352  00000-0  66847-3 0  9995 | 2 62670  97.4124  55.5704 0003585 313.6823  46.4117 15.24430144106719 | 2025/12/03-18:15:55  291.1429    0.1238   46.4415   94.4615     6870.6341     6868.1710     6873.0973  55.076308  80.347843   0.000354   0.000058
1 62670U 25009BP  25339.20511522  .00017116  00000-0  69837-3 0  9999 | 2 62670  97.4119  56.9988 0003518 307.6391  52.4527 15.24485257106932 | 2025/12/05-04:55:21   91.0017    0.1238   52.4847   94.4581     6870.4685     6868.0515     6872.8856  53.056034  81.695382   0.000351   0.000028
1 62670U 25009BP  25340.78040352  .00016268  00000-0  66303-3 0  9994 | 2 62670  97.4115  58.5569 0003568 299.7688  60.3194 15.24532927107178 | 2025/12/06-18:43:46  298.1037    0.1237   60.3549   94.4552     6870.3253     6867.8740     6872.7767  50.814861  83.107462   0.000357  -0.000010
1 62670U 25009BP  25341.96183763  .00013210  00000-0  53865-3 0  9992 | 2 62670  97.4112  59.7254 0003477 294.6054  65.4821 15.24565444107352 | 2025/12/07-23:05:02    3.4167    0.1238   65.5184   94.4531     6870.2276     6867.8389     6872.6164  49.109352  84.126176   0.000346  -0.000034
1 62670U 25009BP  25343.20888192  .00012145  00000-0  49508-3 0  9994 | 2 62670  97.4108  60.9589 0003405 288.9483  71.1385 15.24595719107543 | 2025/12/09-05:00:47   92.3489    0.1237   71.1754   94.4513     6870.1367     6867.7974     6872.4760  47.286795  85.163507   0.000335  -0.000060
1 62670U 25009BP  25344.45590185  .00013444  00000-0  54714-3 0  9992 | 2 62670  97.4106  62.1924 0003463 282.9626  77.1225 15.24626628107739 | 2025/12/10-10:56:29  181.2734    0.1238   77.1612   94.4494     6870.0438     6867.6647     6872.4229  45.442432  86.161537   0.000335  -0.000089
1 62670U 25009BP  25346.22793076  .00014670  00000-0  59565-3 0  9994 | 2 62670  97.4109  63.9455 0003453 274.2528  85.8315 15.24682980108004 | 2025/12/12-05:28:13   99.1981    0.1238   85.8710   94.4459     6869.8745     6867.5024     6872.2467  42.785389  87.511679   0.000321  -0.000128
1 62670U 25009BP  25347.93426508  .00011447  00000-0  46491-3 0  9999 | 2 62670  97.4109  65.6337 0003515 266.4855  93.5981 15.24734524108262 | 2025/12/13-22:25:20  353.4728    0.1238   93.6383   94.4427     6869.7197     6867.3050     6872.1344  40.188690  88.734168   0.000311  -0.000164
1 62670U 25009BP  25349.18117468  .00006996  00000-0  28527-3 0  9993 | 2 62670  97.4109  66.8674 0003562 260.4876  99.5959 15.24753967108452 | 2025/12/15-04:20:53   82.3557    0.1237   99.6361   94.4415     6869.6613     6867.2143     6872.1083  38.268886  89.578880   0.000300  -0.000192
1 62670U 25009BP  25350.95307268  .00007723  00000-0  31430-3 0  9995 | 2 62670  97.4109  68.6209 0003597 251.5673 108.5174 15.24781631108729 | 2025/12/16-22:52:25    0.2308    0.1238  108.5565   94.4398     6869.5782     6867.1072     6872.0492  35.509890  90.707944   0.000276  -0.000230
1 62670U 25009BP  25352.19994296  .00008999  00000-0  36546-3 0  9995 | 2 62670  97.4110  69.8549 0003645 245.8320 114.2537 15.24805149108919 | 2025/12/18-04:47:55   89.0980    0.1238  114.2918   94.4383     6869.5076     6867.0037     6872.0115  33.548231  91.451731   0.000261  -0.000255
1 62670U 25009BP  25353.44679460  .00008742  00000-0  35484-3 0  9993 | 2 62670  97.4111  71.0888 0003718 240.2542 119.8326 15.24827357109101 | 2025/12/19-10:43:23  177.9586    0.1238  119.8696   94.4369     6869.4409     6866.8868     6871.9950  31.571166  92.153046   0.000246  -0.000279
1 62670U 25009BP  25354.69362770  .00007855  00000-0  31896-3 0  9991 | 2 62670  97.4107  72.3225 0003796 234.7988 125.2894 15.24848997109297 | 2025/12/20-16:38:49  266.8123    0.1237  125.3249   94.4356     6869.3759     6866.7683     6871.9835  29.579629  92.811045   0.000229  -0.000303
1 62670U 25009BP  25356.20292754  .00012359  00000-0  49941-3 0  9999 | 2 62670  97.4101  73.8157 0003883 227.9737 132.1171 15.24883395109526 | 2025/12/22-04:52:12   90.1521    0.1238  132.1501   94.4335     6869.2726     6866.6053     6871.9399  27.150918  93.549747   0.000205  -0.000330
1 62670U 25009BP  25358.17152264  .00014054  00000-0  56649-3 0  9995 | 2 62670  97.4096  75.7635 0004035 219.4286 140.6658 15.24935738109822 | 2025/12/24-04:06:59   78.8353    0.1237  140.6951   94.4302     6869.1154     6866.3437     6871.8871  23.955448  94.418042   0.000172  -0.000365
1 62670U 25009BP  25359.22141118  .00013168  00000-0  53056-3 0  9992 | 2 62670  97.4094  76.8024 0004051 214.5975 145.5000 15.24964768109980 | 2025/12/25-05:18:49   96.7880    0.1238  145.5263   94.4284     6869.0282     6866.2456     6871.8109  22.239549  94.836668   0.000148  -0.000377
1 62670U 25009BP  25360.46812747  .00012117  00000-0  48804-3 0  9991 | 2 62670  97.4087  78.0360 0004146 209.7349 150.3653 15.24997749110171 | 2025/12/26-11:14:06  185.5984    0.1237  150.3888   94.4264     6868.9292     6866.0813     6871.7771  20.192537  95.292792   0.000127  -0.000395
1 62670U 25009BP  25361.78042968  .00015157  00000-0  60878-3 0  9999 | 2 62670  97.4088  79.3348 0004262 206.0472 154.0552 15.25038071110374 | 2025/12/27-18:43:49  298.0196    0.1238  154.0766   94.4239     6868.8081     6865.8806     6871.7356  18.027424  95.726100   0.000113  -0.000411
1 62670U 25009BP  25363.22392020  .00018083  00000-0  72437-3 0  9992 | 2 62670  97.4091  80.7633 0004354 200.0060 160.1007 15.25089169110591 | 2025/12/29-05:22:26   97.6662    0.1237  160.1177   94.4207     6868.6547     6865.6641     6871.6453  15.635471  96.146060   0.000081  -0.000428
1 62670U 25009BP  25364.47053179  .00017381  00000-0  69550-3 0  9991 | 2 62670  97.4092  81.9977 0004422 195.3204 164.7901 15.25132691110781 | 2025/12/30-11:17:33  186.4369    0.1238  164.8034   94.4180     6868.5240     6865.4868     6871.5613  13.560613  96.460676   0.000056  -0.000439
1 62670U 25009BP  25365.78271347  .00018880  00000-0  75396-3 0  9995 | 2 62670  97.4092  83.2967 0004490 192.1532 167.9598 15.25183188110985 | 2025/12/31-18:47:06  298.8141    0.1237  167.9705   94.4149     6868.3724     6865.2885     6871.4563  11.370375  96.743304   0.000043  -0.000447
1 62670U 25009BP  26002.16045689  .00020556  00000-0  81904-3 0  9999 | 2 62670  97.4090  84.6605 0004558 187.2785 172.8388 15.25239726111193 | 2026/01/02-03:51:03   74.7916    0.1238  172.8453   94.4114     6868.2027     6865.0722     6871.3332   9.064592  96.986321   0.000015  -0.000456
1 62670U 25009BP  26003.21013190  .00021294  00000-0  84714-3 0  9990 | 2 62670  97.4093  85.6998 0004669 182.6403 177.4812 15.25283868111358 | 2026/01/03-05:02:35   92.6658    0.1238  177.4835   94.4087     6868.0702     6864.8635     6871.2769   7.303964  97.135080  -0.000014  -0.000467
1 62670U 25009BP  26004.45658627  .00014636  00000-0  58300-3 0  9991 | 2 62670  97.4086  86.9337 0004756 179.0943 181.0305 15.25321944111544 | 2026/01/04-10:57:29  181.3807    0.1238  181.0295   94.4063     6867.9559     6864.6895     6871.2223   5.210531  97.269141  -0.000033  -0.000474
1 62670U 25009BP  26006.16220986  .00014654  00000-0  58277-3 0  9997 | 2 62670  97.4075  88.6218 0004848 173.3394 186.7909 15.25375290111802 | 2026/01/06-03:53:34   75.3927    0.1237  186.7843   94.4030     6867.7957     6864.4662     6871.1252   2.342827  97.379321  -0.000068  -0.000480
1 62670U 25009BP  26007.21179634  .00011182  00000-0  44522-3 0  9998 | 2 62670  97.4072  89.6610 0004960 168.8226 191.3123 15.25401761111964 | 2026/01/07-05:04:59   93.2346    0.1238  191.3012   94.4014     6867.7163     6864.3099     6871.1227   0.576323  97.405495  -0.000099  -0.000486
1 62670U 25009BP  26008.45815872  .00013156  00000-0  52268-3 0  9995 | 2 62670  97.4070  90.8949 0005063 164.8761 195.2629 15.25432440112150 | 2026/01/08-10:59:44  181.9155    0.1237  195.2476   94.3995     6867.6242     6864.1471     6871.1013  -1.521333  97.395119  -0.000124  -0.000491
1 62670U 25009BP  26010.75402179  .00011066  00000-0  43948-3 0  9996 | 2 62670  97.4071  93.1682 0005196 158.0296 202.1166 15.25488225112501 | 2026/01/10-18:05:47  288.4086    0.1238  202.0942   94.3960     6867.4568     6863.8884     6871.0251  -5.383432  97.258222  -0.000167  -0.000492
1 62670U 25009BP  26012.19709145  .00012585  00000-0  49872-3 0  9998 | 2 62670  97.4070  94.5973 0005306 153.7817 206.3691 15.25526982112728 | 2026/01/12-04:43:48   87.9024    0.1238  206.3421   94.3936     6867.3405     6863.6967     6870.9843  -7.807361  97.093608  -0.000196  -0.000493
1 62670U 25009BP  26013.44335439  .00009525  00000-0  37806-3 0  9992 | 2 62670  97.4071  95.8314 0005386 150.5456 209.6086 15.25549433112915 | 2026/01/13-10:38:25  176.5479    0.1237  209.5781   94.3922     6867.2731     6863.5744     6870.9718  -9.896708  96.903036  -0.000216  -0.000493
1 62670U 25009BP  26014.75519404  .00006077  00000-0  24221-3 0  9999 | 2 62670  97.4074  97.1305 0005504 146.3163 213.8426 15.25565394113115 | 2026/01/14-18:07:28  288.7994    0.1238  213.8075   94.3912     6867.2252     6863.4455     6871.0049 -12.091152  96.654051  -0.000246  -0.000492
1 62670U 25009BP  26015.80465503  .00006732  00000-0  26789-3 0  9995 | 2 62670  97.4071  98.1695 0005567 143.2551 216.9070 15.25579680113270 | 2026/01/15-19:18:42  306.5975    0.1238  216.8687   94.3904     6867.1823     6863.3594     6871.0053 -13.841747  96.418614  -0.000266  -0.000489
1 62670U 25009BP  26017.18205503  .00011210  00000-0  44355-3 0  9996 | 2 62670  97.4068  99.5334 0005611 139.0942 221.0718 15.25607925113481 | 2026/01/17-04:22:09   82.4514    0.1238  221.0296   94.3886     6867.0976     6863.2444     6870.9507 -16.132760  96.061536  -0.000292  -0.000479
1 62670U 25009BP  26018.49383803  .00011280  00000-0  44590-3 0  9999 | 2 62670  97.4067 100.8323 0005722 135.2467 224.9233 15.25637438113685 | 2026/01/18-11:51:07  194.6833    0.1237  224.8770   94.3868     6867.0090     6863.0797     6870.9383 -18.306132  95.671055  -0.000319  -0.000475
1 62670U 25009BP  26019.74000984  .00009845  00000-0  38928-3 0  9996 | 2 62670  97.4065 102.0663 0005822 131.7475 228.4262 15.25662265113873 | 2026/01/19-17:45:36  283.2957    0.1238  228.3763   94.3852     6866.9345     6862.9366     6870.9324 -20.362188  95.254436  -0.000344  -0.000470
1 62670U 25009BP  26022.16661558  .00016767  00000-0  65767-3 0  9998 | 2 62670  97.4051 104.4691 0005817 124.7726 235.4060 15.25802411114245 | 2026/01/22-03:59:55   76.8579    0.1238  235.3512   94.3766     6866.5140     6862.5198     6870.5083 -24.337428  94.315657  -0.000380  -0.000441
1 62670U 25009BP  26023.93728681  .00020653  00000-0  80766-3 0  9990 | 2 62670  97.4044 106.2225 0005949 119.9466 240.2363 15.25856894114517 | 2026/01/23-22:29:41  354.2871    0.1237  240.1771   94.3732     6866.3506     6862.2658     6870.4353 -27.211691  93.526151  -0.000412  -0.000429
1 62670U 25009BP  26025.18327216  .00018841  00000-0  73625-3 0  9990 | 2 62670  97.4044 107.4565 0005835 116.5532 243.6305 15.25901725114706 | 2026/01/25-04:23:54   82.8351    0.1238  243.5706   94.3704     6866.2161     6862.2096     6870.2225 -29.219531  92.918438  -0.000420  -0.000405
1 62670U 25009BP  26027.15054156  .00017961  00000-0  70055-3 0  9995 | 2 62670  97.4044 109.4055 0005966 111.3222 248.8653 15.25973342115007 | 2026/01/27-03:36:46   71.0383    0.1238  248.8016   94.3660     6866.0012     6861.9050     6870.0975 -32.362775  91.870931  -0.000452  -0.000389
1 62670U 25009BP  26028.72429195  .00017813  00000-0  69369-3 0  9990 | 2 62670  97.4044 110.9648 0005933 106.5304 253.6587 15.26027637115247 | 2026/01/28-17:22:58  277.5787    0.1239  253.5935   94.3626     6865.8384     6861.7649     6869.9119 -34.850742  90.956269  -0.000471  -0.000361
1 62670U 25009BP  26030.16684243  .00018471  00000-0  71794-3 0  9994 | 2 62670  97.4049 112.3939 0005917 102.4751 257.7150 15.26083985115467 | 2026/01/30-04:00:15   76.8887    0.1239  257.6488   94.3592     6865.6694     6861.6069     6869.7318 -37.108534  90.059265  -0.000485  -0.000338
1 62670U 25009BP  26031.21594057  .00011785  00000-0  45910-3 0  9996 | 2 62670  97.4046 113.4335 0005959  99.8788 260.3123 15.26112134115628 | 2026/01/31-05:10:57   94.5574    0.1238  260.2450   94.3574     6865.5849     6861.4937     6869.6761 -38.736292  89.370889  -0.000498  -0.000327
1 62670U 25009BP  26032.92068624  .00011696  00000-0  45508-3 0  9995 | 2 62670  97.4039 115.1216 0005924  95.4816 264.7098 15.26154559115887 | 2026/02/01-22:05:47  348.2578    0.1238  264.6422   94.3548     6865.4577     6861.3906     6869.5248 -41.351928  88.190350  -0.000510  -0.000302
1 62670U 25009BP  26034.23199380  .00014397  00000-0  55866-3 0  9994 | 2 62670  97.4036 116.4204 0005900  91.2724 268.9190 15.26195401116084 | 2026/02/03-05:34:04  100.3222    0.1238  268.8514   94.3523     6865.3352     6861.2847     6869.3858 -43.340128  87.230124  -0.000522  -0.000274
1 62670U 25009BP  26036.19888957  .00016388  00000-0  63414-3 0  9996 | 2 62670  97.4027 118.3694 0005904  85.9659 274.2254 15.26258432116387 | 2026/02/05-04:46:24   88.3944    0.1238  274.1579   94.3484     6865.1462     6861.0930     6869.1994 -46.281316  85.704876  -0.000538  -0.000243
1 62670U 25009BP  26037.90346339  .00016054  00000-0  62027-3 0  9998 | 2 62670  97.4020 120.0579 0005793  82.1234 278.0662 15.26315099116643 | 2026/02/06-21:40:59  342.0343    0.1239  278.0005   94.3449     6864.9763     6860.9994     6868.9532 -48.786217  84.303349  -0.000536  -0.000219
1 62670U 25009BP  26039.21463648  .00013792  00000-0  53285-3 0  9999 | 2 62670  97.4019 121.3571 0005801  78.2252 281.9637 15.26351068116846 | 2026/02/08-05:09:04   94.0505    0.1239  281.8987   94.3426     6864.8684     6860.8861     6868.8507 -50.685065  83.175443  -0.000547  -0.000194
1 62670U 25009BP  26040.78800425  .00012674  00000-0  48937-3 0  9997 | 2 62670  97.4018 122.9161 0005713  73.5235 286.6631 15.26390598117082 | 2026/02/09-18:54:43  300.4569    0.1239  286.6004   94.3402     6864.7499     6860.8281     6868.6717 -52.929147  81.765616  -0.000548  -0.000162
1 62670U 25009BP  26042.75465477  .00013393  00000-0  51611-3 0  9992 | 2 62670  97.4017 124.8652 0005662  68.4264 291.7577 15.26443586117380 | 2026/02/11-18:06:42  288.4429    0.1238  291.6974   94.3369     6864.5910     6860.7043     6868.4778 -55.679451  79.918020  -0.000551  -0.000130
1 62670U 25009BP  26043.80350542  .00011800  00000-0  45476-3 0  9998 | 2 62670  97.4015 125.9046 0005601  65.8209 294.3615 15.26472044117541 | 2026/02/12-19:17:02  306.0253    0.1239  294.3030   94.3352     6864.5057     6860.6609     6868.3505 -57.119881  78.894685  -0.000548  -0.000114
1 62670U 25009BP  26045.18009655  .00013123  00000-0  50487-3 0  9995 | 2 62670  97.4015 127.2684 0005499  61.8168 298.3626 15.26505646117753 | 2026/02/14-04:19:20   81.5941    0.1239  298.3071   94.3331     6864.4050     6860.6302     6868.1797 -58.981438  77.512852  -0.000543  -0.000087
1 62670U 25009BP  26046.75330652  .00014091  00000-0  54118-3 0  9993 | 2 62670  97.4015 128.8274 0005406  57.9925 302.1839 15.26545865117993 | 2026/02/15-18:04:45  287.9443    0.1240  302.1315   94.3306     6864.2844     6860.5736     6867.9952 -61.068445  75.879491  -0.000537  -0.000064
1 62670U 25009BP  26048.19537695  .00013885  00000-0  53271-3 0  9998 | 2 62670  97.4009 130.2562 0005328  53.3085 306.8642 15.26584796118218 | 2026/02/17-04:41:20   87.0860    0.1238  306.8153   94.3282     6864.1677     6860.5105     6867.8249 -62.941101  74.332719  -0.000532  -0.000033
1 62670U 25009BP  26050.16178336  .00010963  00000-0  42079-3 0  9999 | 2 62670  97.4003 132.2045 0005170  46.9279 313.2392 15.26628321118518 | 2026/02/19-03:52:58   74.9878    0.1239  313.1960   94.3255     6864.0372     6860.4885     6867.5860 -65.431454  72.149451  -0.000517   0.000008
1 62670U 25009BP  26051.21050972  .00009245  00000-0  35514-3 0  9998 | 2 62670  97.3999 133.2438 0005078  44.3929 315.7716 15.26650391118675 | 2026/02/20-05:03:08   92.5262    0.1239  315.7310   94.3241     6863.9711     6860.4856     6867.4566 -66.729078  70.950481  -0.000507   0.000021
1 62670U 25009BP  26052.78357198  .00010610  00000-0  40670-3 0  9998 | 2 62670  97.3995 134.8030 0004894  39.1800 320.9793 15.26683864118912 | 2026/02/21-18:48:20  298.8251    0.1240  320.9440   94.3221     6863.8708     6860.5116     6867.2299 -68.634638  69.108241  -0.000487   0.000051
1 62670U 25009BP  26054.15996684  .00014988  00000-0  57229-3 0  9990 | 2 62670  97.3993 136.1673 0004790  35.3324 324.8232 15.26726610119124 | 2026/02/23-03:50:21   74.3233    0.1240  324.7916   94.3194     6863.7426     6860.4549     6867.0304 -70.260455  67.454371  -0.000474   0.000071
1 62670U 25009BP  26055.20862239  .00012468  00000-0  47629-3 0  9999 | 2 62670  97.3992 137.2069 0004676  32.3470 327.8055 15.26756612119284 | 2026/02/24-05:00:24   91.8364    0.1239  327.7769   94.3176     6863.6527     6860.4433     6866.8622 -71.472671  66.168433  -0.000460   0.000085
1 62670U 25009BP  26057.17480616  .00011986  00000-0  45739-3 0  9996 | 2 62670  97.3992 139.1558 0004496  25.5367 334.6093 15.26802580119584 | 2026/02/26-04:11:43   79.6581    0.1239  334.5872   94.3147     6863.5150     6860.4291     6866.6008 -73.681595  63.699504  -0.000434   0.000119
1 62670U 25009BP  26058.81324107  .00010884  00000-0  41510-3 0  9999 | 2 62670  97.3994 140.7799 0004363  20.6785 339.4629 15.26846209119836 | 2026/02/27-19:31:04  309.4901    0.1239  339.4454   94.3121     6863.3842     6860.3897     6866.3787 -75.457528  61.585750  -0.000414   0.000139
1 62670U 25009BP  26060.18948890  .00013072  00000-0  49728-3 0  9994 | 2 62670  97.3994 142.1440 0004190  15.3548 344.7817 15.26885489120047 | 2026/03/01-04:32:51   84.9366    0.1239  344.7691   94.3096     6863.2665     6860.3908     6866.1422 -76.902241  59.771971  -0.000387   0.000160
1 62670U 25009BP  26061.36910284  .00014876  00000-0  56478-3 0  9994 | 2 62670  97.3994 143.3133 0004093  10.9615 349.1712 15.26921053120228 | 2026/03/02-08:51:30  149.5948    0.1239  349.1624   94.3074     6863.1599     6860.3508     6865.9690 -78.105976  58.190202  -0.000369   0.000178
1 62670U 25009BP  26062.67975435  .00015602  00000-0  59146-3 0  9991 | 2 62670  97.3989 144.6124 0003997   6.4189 353.7100 15.26959946120420 | 2026/03/03-16:18:50  261.4259    0.1239  353.7050   94.3050     6863.0434     6860.3002     6865.7865 -79.404760  56.404165  -0.000350   0.000194
