# SPACE DATA - HISTORICAL TLEs
# ----------------------------
# NORAD_ID    : 58275
# OBJECT_NAME : FLOCK 4Q 12
# --------------------------------------------------------------------+-----------------------------------------------------------------------+----------------------------------------------------------------------------------------------------------------------------------------
#                  LINE 1                                             |                 LINE 2                                                |      DERIVED PARAMETERS
# --------------------------------------------------------------------+-----------------------------------------------------------------------+----------------------------------------------------------------------------------------------------------------------------------------
# NORAD  COSPAR     TLE_EPOCH      MEANMOT1 MEANMOT2   BSTAR  #  REV  |   NORAD    INC     RAAN     ECC    ARGPER  MEANANOM   MEANMOT     REV |  CAL_DATE              LONG     ARGLAT     PERIOD        SMA         PERIGEE        APOGEE      INC_X      INC_Y      ECC_X      ECC_Y
# ------ ------   -------------- ----------  -------  ------- -- ----     -----  ------- -------- ------- -------- -------- -----------  ----   ------------------- ---------  --------  --------  ------------  ------------   ----------- ---------- ----------  ---------  ---------   
1 62680U 25009BZ  25043.00598430  .00008297  00000-0  42010-3 0  9997 | 2 62680  97.4427 125.2119 0005142 245.0736 114.9963 15.17240907  4279 | 2025/02/12-00:08:37   19.1755    0.1233  115.0497   94.9091     6892.3207     6888.7767     6895.8648 -56.185658  79.613137   0.000506   0.000092
1 62680U 25009BZ  25045.18234591  .00010255  00000-0  51770-3 0  9993 | 2 62680  97.4418 127.3497 0005326 237.1925 122.8796 15.17279634  4605 | 2025/02/14-04:22:34   82.6708    0.1233  122.9308   94.9067     6892.2035     6888.5327     6895.8742 -59.115815  77.461118   0.000531   0.000042
1 62680U 25009BZ  25046.76511402  .00011610  00000-0  58496-3 0  9995 | 2 62680  97.4413 128.9044 0005391 230.4886 129.5872 15.17316631  4843 | 2025/02/15-18:21:45  292.4690    0.1234  129.6348   94.9044     6892.0914     6888.3759     6895.8069 -61.195360  75.828325   0.000539  -0.000006
1 62680U 25009BZ  25048.80946156  .00011281  00000-0  56768-3 0  9994 | 2 62680  97.4407 130.9128 0005481 221.5356 138.5462 15.17368067 62798 | 2025/02/17-19:25:37  308.4347    0.1234  138.5878   94.9012     6891.9357     6888.1582     6895.7131 -63.814855  73.636637   0.000543  -0.000072
1 62680U 25009BZ  25050.12835879  .00010268  00000-0  51659-3 0  9999 | 2 62680  97.4402 132.2085 0005645 217.3636 142.7206 15.17399091 62992 | 2025/02/19-03:04:50   63.2396    0.1234  142.7598   94.8992     6891.8417     6887.9513     6895.7322 -65.463297  72.174437   0.000555  -0.000102
1 62680U 25009BZ  25051.71099935  .00010910  00000-0  54802-3 0  9997 | 2 62680  97.4401 133.7636 0005767 212.0798 148.0086 15.17437994  5598 | 2025/02/20-17:03:50  272.9908    0.1234  148.0436   94.8968     6891.7239     6887.7495     6895.6984 -67.397807  70.371221   0.000559  -0.000141
1 62680U 25009BZ  25053.16171954  .00010965  00000-0  55023-3 0  9996 | 2 62680  97.4404 135.1890 0005839 206.1495 153.9444 15.17472217  5812 | 2025/02/22-03:52:52   75.2491    0.1233  153.9738   94.8947     6891.6203     6887.5963     6895.6443 -69.127673  68.673112   0.000553  -0.000187
1 62680U 25009BZ  25054.48052677  .00012052  00000-0  60374-3 0  9996 | 2 62680  97.4405 136.4847 0005906 200.7988 159.3006 15.17505507  6017 | 2025/02/23-11:31:57  190.0183    0.1233  159.3245   94.8926     6891.5195     6887.4494     6895.5897 -70.662928  67.092486   0.000545  -0.000228
1 62680U 25009BZ  25055.53555160  .00012394  00000-0  62030-3 0  9998 | 2 62680  97.4404 137.5214 0006004 197.2906 162.8124 15.17532546 63810 | 2025/02/24-12:51:11  209.8269    0.1233  162.8327   94.8909     6891.4377     6887.3000     6895.5753 -71.865181  65.802943   0.000543  -0.000256
1 62680U 25009BZ  25056.85430315  .00013339  00000-0  66651-3 0  9991 | 2 62680  97.4401 138.8172 0006102 193.5978 166.5093 15.17571106  6370 | 2025/02/25-20:30:11  324.5773    0.1234  166.5256   94.8885     6891.3209     6887.1158     6895.5260 -73.334648  64.160755   0.000541  -0.000283
1 62680U 25009BZ  25058.17302349  .00014334  00000-0  71509-3 0  9997 | 2 62680  97.4400 140.1127 0006222 189.0903 171.0219 15.17608514  6573 | 2025/02/27-04:09:09   79.3159    0.1233  171.0330   94.8861     6891.2077     6886.9200     6895.4954 -74.766425  62.486281   0.000534  -0.000319
1 62680U 25009BZ  25059.49171005  .00014904  00000-0  74248-3 0  9992 | 2 62680  97.4398 141.4085 0006288 184.0123 176.1061 15.17648361  6774 | 2025/02/28-11:48:03  194.0408    0.1233  176.1110   94.8836     6891.0871     6886.7539     6895.4202 -76.160216  60.779405   0.000518  -0.000357
1 62680U 25009BZ  25060.74443219  .00012036  00000-0  59990-3 0  9992 | 2 62680  97.4392 142.6394 0006397 179.4578 180.6664 15.17680738  6961 | 2025/03/01-17:51:58  285.0188    0.1233  180.6655   94.8816     6890.9891     6886.5809     6895.3972 -77.447804  59.128972   0.000505  -0.000393
1 62680U 25009BZ  25061.79933734  .00009279  00000-0  46312-3 0  9993 | 2 62680  97.4384 143.6760 0006498 176.2889 183.8394 15.17701754  7128 | 2025/03/02-19:11:02  304.7837    0.1233  183.8344   94.8803     6890.9254     6886.4477     6895.4032 -78.504192  57.717706   0.000498  -0.000418
1 62680U 25009BZ  25063.18388052  .00009430  00000-0  47027-3 0  9998 | 2 62680  97.4379 145.0366 0006603 172.5947 187.5386 15.17726677  7338 | 2025/03/04-04:24:47   83.2183    0.1234  187.5287   94.8787     6890.8500     6886.3000     6895.4000 -79.852139  55.837086   0.000488  -0.000445
1 62680U 25009BZ  25064.76618577  .00011069  00000-0  55076-3 0  9995 | 2 62680  97.4376 146.5918 0006685 167.6913 192.4485 15.17760410  7576 | 2025/03/05-18:23:18  292.8461    0.1233  192.4320   94.8766     6890.7479     6886.1414     6895.3544 -81.337895  53.649164   0.000467  -0.000479
1 62680U 25009BZ  25066.08474728  .00008375  00000-0  41739-3 0  9997 | 2 62680  97.4378 147.8874 0006782 162.9182 197.2281 15.17783778  7778 | 2025/03/07-02:02:02   47.5258    0.1233  197.2051   94.8752     6890.6772     6886.0039     6895.3504 -82.530308  51.796459   0.000443  -0.000513
1 62680U 25009BZ  25067.13958092  .00008933  00000-0  44467-3 0  9996 | 2 62680  97.4377 148.9240 0006859 159.5557 200.5952 15.17804363  7934 | 2025/03/08-03:20:59   67.2644    0.1233  200.5676   94.8739     6890.6149     6885.8886     6895.3411 -83.453770  50.294867   0.000427  -0.000537
1 62680U 25009BZ  25068.19440013  .00010915  00000-0  54209-3 0  9990 | 2 62680  97.4378 149.9606 0006893 156.6499 203.5049 15.17827751 65731 | 2025/03/09-04:39:56   86.9985    0.1233  203.4734   94.8724     6890.5441     6885.7944     6895.2937 -84.350088  48.776916   0.000411  -0.000553
1 62680U 25009BZ  25069.77659436  .00011030  00000-0  54713-3 0  9995 | 2 62680  97.4378 151.5154 0006951 152.2075 207.9532 15.17866659  8333 | 2025/03/10-18:38:17  296.5872    0.1234  207.9159   94.8700     6890.4263     6885.6368     6895.2159 -85.642499  46.470282   0.000386  -0.000578
1 62680U 25009BZ  25070.89729350  .00011501  00000-0  56994-3 0  9999 | 2 62680  97.4381 152.6167 0007033 148.4978 211.6679 15.17891557  8502 | 2025/03/11-21:32:06  340.0372    0.1234  211.6256   94.8684     6890.3510     6885.5050     6895.1970 -86.520110  44.815777   0.000363  -0.000602
1 62680U 25009BZ  25071.95204964  .00014465  00000-0  71502-3 0  9990 | 2 62680  97.4379 153.6532 0007138 144.9007 215.2699 15.17922304 66305 | 2025/03/12-22:50:57  359.7476    0.1234  215.2227   94.8665     6890.2579     6885.3397     6895.1762 -87.316463  43.243262   0.000341  -0.000627
1 62680U 25009BZ  25073.20454225  .00014997  00000-0  74026-3 0  9991 | 2 62680  97.4374 154.8840 0007220 141.1217 219.0538 15.17962835 66496 | 2025/03/14-04:54:32   90.6438    0.1234  219.0017   94.8640     6890.1353     6885.1606     6895.1100 -88.224724  41.357527   0.000317  -0.000649
1 62680U 25009BZ  25074.78659178  .00016016  00000-0  78911-3 0  9990 | 2 62680  97.4368 156.4389 0007223 137.1575 223.0223 15.18013252 66734 | 2025/03/15-18:52:41  300.1818    0.1234  222.9659   94.8608     6889.9827     6885.0061     6894.9594 -89.313916  38.948099   0.000289  -0.000662
1 62680U 25009BZ  25076.17083345  .00019235  00000-0  94511-3 0  9992 | 2 62680  97.4365 157.7993 0007162 133.0306 227.1529 15.18070820  9303 | 2025/03/17-04:06:00   78.5090    0.1234  227.0928   94.8572     6889.8085     6884.8741     6894.7430 -90.213139  36.816586   0.000255  -0.000669
1 62680U 25009BZ  25077.75275938  .00019179  00000-0  94041-3 0  9993 | 2 62680  97.4360 159.3542 0007297 127.7442 232.4454 15.18141222  9543 | 2025/03/18-18:03:58  288.0006    0.1233  232.3791   94.8528     6889.5955     6884.5682     6894.6229 -91.178464  34.354938   0.000215  -0.000697
1 62680U 25009BZ  25079.20278760  .00023794  00000-0  11627-2 0  9997 | 2 62680  97.4354 160.7801 0007261 123.9362 236.2563 15.18216836 67406 | 2025/03/20-04:52:00   90.0112    0.1233  236.1871   94.8481     6889.3668     6884.3644     6894.3691 -92.004555  32.075210   0.000184  -0.000702
1 62680U 25009BZ  25080.78456023  .00024465  00000-0  11928-2 0  9992 | 2 62680  97.4353 162.3351 0007162 119.8630 240.3316 15.18289965 67646 | 2025/03/21-18:49:46  299.4513    0.1233  240.2603   94.8435     6889.1455     6884.2115     6894.0796 -92.840988  29.566683   0.000151  -0.000700
1 62680U 25009BZ  25082.16854189  .00027474  00000-0  13355-2 0  9990 | 2 62680  97.4357 163.6958 0007169 115.1660 245.0318 15.18369858 67853 | 2025/03/23-04:02:42   77.6849    0.1234  244.9574   94.8386     6888.9039     6883.9652     6893.8425 -93.517296  27.353812   0.000110  -0.000708
1 62680U 25009BZ  25084.67273424  .00019873  00000-0  96486-3 0  9996 | 2 62680  97.4358 166.1580 0007355 108.1006 252.1030 15.18478153 10594 | 2025/03/25-16:08:44  259.1944    0.1234  252.0228   94.8318     6888.5763     6883.5098     6893.6429 -94.606183  23.311054   0.000055  -0.000733
1 62680U 25009BZ  25086.12245033  .00022881  00000-0  11081-2 0  9993 | 2 62680  97.4356 167.5839 0007210 103.7152 256.4886 15.18538664 10812 | 2025/03/27-02:56:19   61.0950    0.1235  256.4083   94.8280     6888.3933     6883.4268     6893.3599 -95.156766  20.949605   0.000016  -0.000721
1 62680U 25009BZ  25087.17675288  .00017039  00000-0  82569-3 0  9997 | 2 62680  97.4356 168.6207 0007179 100.5875 259.6168 15.18578458 68618 | 2025/03/28-04:14:31   80.6458    0.1234  259.5359   94.8255     6888.2730     6883.3279     6893.2181 -95.520262  19.224353  -0.000010  -0.000718
1 62680U 25009BZ  25088.75815774  .00015620  00000-0  75618-3 0  9999 | 2 62680  97.4352 170.1757 0007246  95.9861 264.2199 15.18631820 11212 | 2025/03/29-18:11:44  289.9536    0.1234  264.1373   94.8222     6888.1116     6883.1205     6893.1028 -96.006373  16.625116  -0.000049  -0.000723
1 62680U 25009BZ  25090.73484538  .00014135  00000-0  68369-3 0  9995 | 2 62680  97.4343 172.1200 0007146  90.4454 269.7599 15.18686668 11511 | 2025/03/31-17:38:10  281.5658    0.1234  269.6780   94.8188     6887.9458     6883.0237     6892.8679 -96.514265  13.358124  -0.000092  -0.000709
1 62680U 25009BZ  25091.78905005  .00021113  00000-0  10177-2 0  9995 | 2 62680  97.4342 173.1571 0006828  86.8646 273.3370 15.18720375 11679 | 2025/04/01-18:56:13  301.0852    0.1235  273.2589   94.8167     6887.8439     6883.1409     6892.5469 -96.740135  11.609033  -0.000118  -0.000672
1 62680U 25009BZ  25093.17266008  .00019827  00000-0  95479-3 0  9991 | 2 62680  97.4334 174.5180 0007037  83.0642 277.1392 15.18764988 69520 | 2025/04/03-04:08:37   79.1858    0.1234  277.0592   94.8139     6887.7090     6882.8621     6892.5559 -96.987765   9.308108  -0.000151  -0.000687
1 62680U 25009BZ  25094.22680750  .00019193  00000-0  92341-3 0  9993 | 2 62680  97.4336 175.5550 0007102  80.5164 279.6872 15.18803459 69682 | 2025/04/04-05:26:36   98.6807    0.1234  279.6070   94.8115     6887.5927     6882.7011     6892.4843 -97.140538   7.551307  -0.000171  -0.000689
1 62680U 25009BZ  25095.80796411  .00019920  00000-0  95608-3 0  9997 | 2 62680  97.4337 177.1108 0007091  75.8618 284.3404 15.18879782 69921 | 2025/04/05-19:23:28  307.9012    0.1235  284.2617   94.8067     6887.3620     6882.4781     6892.2458 -97.309850   4.911115  -0.000208  -0.000678
1 62680U 25009BZ  25097.19142368  .00017166  00000-0  82360-3 0  9998 | 2 62680  97.4336 178.4719 0006901  71.1643 289.0339 15.18925743 70131 | 2025/04/07-04:35:39   85.9531    0.1234  288.9591   94.8038     6887.2230     6882.4701     6891.9759 -97.398949   2.598283  -0.000240  -0.000647
1 62680U 25009BZ  25098.77247401  .00016201  00000-0  77658-3 0  9990 | 2 62680  97.4343 180.0271 0006839  66.4215 293.7737 15.18971993 70371 | 2025/04/08-18:32:21  295.1374    0.1235  293.7020   94.8010     6887.0832     6882.3731     6891.7933 -97.434289  -0.046085  -0.000273  -0.000627
1 62680U 25009BZ  25100.48521483  .00016671  00000-0  79755-3 0  9998 | 2 62680  97.4346 181.7125 0006840  62.0250 298.1676 15.19032339 70636 | 2025/04/10-11:38:42  191.7294    0.1235  298.0985   94.7972     6886.9008     6882.1902     6891.6115 -97.391082  -2.911766  -0.000303  -0.000613
1 62680U 25009BZ  25101.73679212  .00015062  00000-0  72022-3 0  9994 | 2 62680  97.4342 182.9442 0006758  58.4685 301.7209 15.19071661 70821 | 2025/04/11-17:40:58  282.3024    0.1235  301.6550   94.7947     6886.7820     6882.1279     6891.4361 -97.305590  -5.004549  -0.000323  -0.000593
1 62680U 25009BZ  25104.70091779  .00016381  00000-0  78067-3 0  9990 | 2 62680  97.4337 185.8615 0006422  48.9889 311.1900 15.19171599 71271 | 2025/04/14-16:49:19  269.4024    0.1235  311.1346   94.7885     6886.4799     6882.0574     6890.9024 -96.924284  -9.950331  -0.000370  -0.000525
1 62680U 25009BZ  25105.82065199  .00014976  00000-0  71346-3 0  9992 | 2 62680  97.4332 186.9629 0006461  45.7617 314.4147 15.19203222 71447 | 2025/04/15-19:41:44  312.5115    0.1235  314.3618   94.7865     6886.3844     6881.9351     6890.8337 -96.714616 -11.811498  -0.000391  -0.000514
1 62680U 25009BZ  25107.20381645  .00017519  00000-0  83267-3 0  9994 | 2 62680  97.4327 188.3243 0006359  41.7101 318.4618 15.19250882 71653 | 2025/04/17-04:53:29   90.4571    0.1236  318.4135   94.7836     6886.2403     6881.8614     6890.6193 -96.406195 -14.105903  -0.000408  -0.000487
1 62680U 25009BZ  25109.17969909  .00013382  00000-0  63621-3 0  9993 | 2 62680  97.4322 190.2695 0006155  34.3060 325.8571 15.19302759 71951 | 2025/04/19-04:18:46   81.7860    0.1235  325.8175   94.7803     6886.0836     6881.8452     6890.3220 -95.871344 -17.370061  -0.000438  -0.000432
1 62680U 25009BZ  25110.69449497  .00013565  00000-0  64408-3 0  9994 | 2 62680  97.4327 191.7604 0006055  29.5218 330.6357 15.19346295 72187 | 2025/04/20-16:40:04  267.1202    0.1235  330.6017   94.7776     6885.9520     6881.7826     6890.1215 -95.387441 -19.858680  -0.000455  -0.000399
1 62680U 25009BZ  25111.74824082  .00014964  00000-0  70941-3 0  9991 | 2 62680  97.4326 192.7977 0006039  26.7528 333.4017 15.19377653 72349 | 2025/04/21-17:57:28  286.4731    0.1235  333.3707   94.7756     6885.8573     6881.6989     6890.0157 -95.012203 -21.582232  -0.000466  -0.000385
1 62680U 25009BZ  25113.72395591  .00012728  00000-0  60314-3 0  9998 | 2 62680  97.4328 194.7427 0005839  19.1517 340.9936 15.19431465 72642 | 2025/04/23-17:22:29  277.7421    0.1235  340.9718   94.7723     6885.6947     6881.6742     6889.7153 -94.225153 -24.794576  -0.000485  -0.000326
1 62680U 25009BZ  25115.17276775  .00014783  00000-0  69891-3 0  9993 | 2 62680  97.4331 196.1691 0005740  13.8156 346.3235 15.19476107 72864 | 2025/04/25-04:08:47   79.3221    0.1235  346.3079   94.7695     6885.5599     6881.6075     6889.5122 -93.579037 -27.132504  -0.000497  -0.000287
1 62680U 25009BZ  25116.75324011  .00013611  00000-0  64299-3 0  9991 | 2 62680  97.4335 197.7254 0005561   9.3466 350.7872 15.19524199 73104 | 2025/04/26-18:04:39  288.2990    0.1236  350.7770   94.7665     6885.4146     6881.5856     6889.2435 -92.808001 -29.664151  -0.000495  -0.000253
1 62680U 25009BZ  25118.66291151  .00013057  00000-0  61599-3 0  9995 | 2 62680  97.4328 199.6057 0005389   1.7743 358.3510 15.19580501 73393 | 2025/04/28-15:54:35  255.7912    0.1235  358.3492   94.7630     6885.2445     6881.5340     6888.9550 -91.784043 -32.693117  -0.000502  -0.000196
1 62680U 25009BZ  25121.82360686  .00013570  00000-0  63849-3 0  9997 | 2 62680  97.4322 202.7183 0005142 350.2068   9.9066 15.19664924 73872 | 2025/05/01-19:45:59  313.6561    0.1235    9.9167   94.7577     6884.9895     6881.4492     6888.5298 -89.872902 -37.628382  -0.000501  -0.000115
1 62680U 25009BZ  25122.94297440  .00015573  00000-0  73130-3 0  9997 | 2 62680  97.4320 203.8209 0005030 346.2518  13.8579 15.19701676 74041 | 2025/05/02-22:37:52  356.6328    0.1235   13.8717   94.7554     6884.8785     6881.4154     6888.3416 -89.132002 -39.350741  -0.000495  -0.000088
1 62680U 25009BZ  25124.45737504  .00010963  00000-0  51555-3 0  9990 | 2 62680  97.4317 205.3125 0004931 339.0368  21.0664 15.19738439 74271 | 2025/05/04-10:58:37  181.8246    0.1235   21.0867   94.7531     6884.7675     6881.3726     6888.1623 -88.077214 -41.657420  -0.000492  -0.000037
1 62680U 25009BZ  25126.76183373  .00010213  00000-0  47981-3 0  9991 | 2 62680  97.4323 207.5821 0004757 329.6644  30.4315 15.19789841 74622 | 2025/05/06-18:17:02  291.4388    0.1235   30.4591   94.7499     6884.6122     6881.3372     6887.8872 -86.358951 -45.113021  -0.000475   0.000023
1 62680U 25009BZ  25127.94695454  .00008153  00000-0  38354-3 0  9994 | 2 62680  97.4327 208.7494 0004651 325.0132  35.0796 15.19811561 74809 | 2025/05/07-22:43:36  358.0862    0.1234   35.1102   94.7486     6884.5466     6881.3446     6887.7486 -85.422346 -46.863140  -0.000462   0.000051
1 62680U 25009BZ  25129.72460479  .00008810  00000-0  41379-3 0  9990 | 2 62680  97.4329 210.5003 0004560 316.8476  43.2401 15.19844198 75072 | 2025/05/09-17:23:25  278.0467    0.1235   43.2759   94.7466     6884.4481     6881.3088     6887.5874 -83.950769 -49.451374  -0.000445   0.000100
1 62680U 25009BZ  25131.17303159  .00009065  00000-0  42533-3 0  9999 | 2 62680  97.4328 211.9270 0004528 310.1640  49.9198 15.19871838 75297 | 2025/05/11-04:09:09   79.4851    0.1235   49.9595   94.7448     6884.3646     6881.2474     6887.4818 -82.693417 -51.526201  -0.000431   0.000139
1 62680U 25009BZ  25132.48976064  .00009788  00000-0  45860-3 0  9993 | 2 62680  97.4329 213.2241 0004460 304.5789  55.5025 15.19898138 75493 | 2025/05/12-11:45:15  193.5107    0.1235   55.5446   94.7432     6884.2852     6881.2148     6887.3556 -81.505926 -53.384961  -0.000413   0.000168
1 62680U 25009BZ  25133.74063566  .00007484  00000-0  35134-3 0  9991 | 2 62680  97.4326 214.4563 0004399 298.8089  61.2704 15.19916120 75680 | 2025/05/13-17:46:30  283.8286    0.1235   61.3146   94.7421     6884.2309     6881.2025     6887.2593 -80.338825 -55.125173  -0.000393   0.000198
1 62680U 25009BZ  25134.99149404  .00008339  00000-0  39080-3 0  9999 | 2 62680  97.4322 215.6886 0004397 292.8601  67.2169 15.19937110 75873 | 2025/05/14-23:47:45   14.1405    0.1235   67.2634   94.7408     6884.1675     6881.1405     6887.1945 -79.134395 -56.839960  -0.000375   0.000229
1 62680U 25009BZ  25136.17650280  .00008189  00000-0  38362-3 0  9995 | 2 62680  97.4320 216.8562 0004408 287.2092  72.8660 15.19956085 76051 | 2025/05/16-04:14:09   80.7458    0.1235   72.9143   94.7396     6884.1102     6881.0757     6887.1447 -77.959574 -58.440564  -0.000357   0.000259
1 62680U 25009BZ  25137.49315966  .00011380  00000-0  53126-3 0  9992 | 2 62680  97.4319 218.1534 0004369 280.9566  79.1178 15.19984427 76252 | 2025/05/17-11:50:08  194.7437    0.1236   79.1670   94.7378     6884.0246     6881.0170     6887.0323 -76.616510 -60.190411  -0.000330   0.000286
1 62680U 25009BZ  25138.80979373  .00009155  00000-0  42783-3 0  9990 | 2 62680  97.4317 219.4505 0004311 274.8211  85.2532 15.20007406 76457 | 2025/05/18-19:26:06  308.7327    0.1235   85.3024   94.7364     6883.9553     6880.9876     6886.9229 -75.234209 -61.909208  -0.000301   0.000309
1 62680U 25009BZ  25140.19223933  .00006928  00000-0  32443-3 0  9996 | 2 62680  97.4316 220.8128 0004407 267.9791  92.0939 15.20026600 76662 | 2025/05/20-04:36:49   86.4147    0.1235   92.1444   94.7352     6883.8973     6880.8636     6886.9310 -73.741015 -63.680290  -0.000276   0.000343
1 62680U 25009BZ  25142.16712906  .00007978  00000-0  37272-3 0  9999 | 2 62680  97.4321 222.7587 0004481 258.9064 101.1667 15.20058656 76962 | 2025/05/22-04:00:39   77.3755    0.1235  101.2171   94.7332     6883.8005     6880.7159     6886.8852 -71.536541 -66.147845  -0.000235   0.000381
1 62680U 25009BZ  25143.48369989  .00006765  00000-0  31643-3 0  9993 | 2 62680  97.4326 224.0560 0004485 252.9154 107.1590 15.20077544 77162 | 2025/05/23-11:36:31  191.3401    0.1235  107.2081   94.7320     6883.7435     6880.6561     6886.8309 -70.020962 -67.750841  -0.000203   0.000400
1 62680U 25009BZ  25144.73442725  .00006231  00000-0  29156-3 0  9996 | 2 62680  97.4328 225.2884 0004556 247.3364 112.7390 15.20094640 77353 | 2025/05/24-17:37:34  281.6013    0.1235  112.7871   94.7309     6883.6919     6880.5557     6886.8281 -68.547735 -69.241306  -0.000175   0.000421
1 62680U 25009BZ  25147.17001471  .00007040  00000-0  32864-3 0  9995 | 2 62680  97.4327 227.6884 0004782 237.0310 123.0466 15.20128941 77728 | 2025/05/27-04:04:49   78.4113    0.1235  123.0925   94.7288     6883.5883     6880.2966     6886.8801 -65.588015 -72.050977  -0.000122   0.000463
1 62680U 25009BZ  25148.48652392  .00008414  00000-0  39185-3 0  9993 | 2 62680  97.4327 228.9856 0004813 231.3618 128.7187 15.20151698 77923 | 2025/05/28-11:40:35  192.3521    0.1235  128.7617   94.7274     6883.5196     6880.2066     6886.8327 -63.940081 -73.517325  -0.000086   0.000473
1 62680U 25009BZ  25150.19795325  .00010043  00000-0  46653-3 0  9997 | 2 62680  97.4320 230.6727 0004929 224.1727 135.9115 15.20186811 78187 | 2025/05/30-04:45:03   88.4627    0.1235  135.9508   94.7252     6883.4136     6880.0208     6886.8065 -61.747483 -75.367387  -0.000042   0.000491
1 62680U 25009BZ  25151.77770224  .00008112  00000-0  37722-3 0  9994 | 2 62680  97.4317 232.2298 0005062 217.9158 142.1721 15.20213133 78429 | 2025/05/31-18:39:53  297.1686    0.1235  142.2077   94.7236     6883.3342     6879.8498     6886.8185 -59.676527 -77.017195  -0.000001   0.000506
1 62680U 25009BZ  25154.47634954  .00013913  00000-0  64282-3 0  9999 | 2 62680  97.4318 234.8898 0005253 206.7193 153.3772 15.20288416 78832 | 2025/06/03-11:25:56  188.6730    0.1235  153.4042   94.7189     6883.1069     6879.4912     6886.7226 -56.037987 -79.703825   0.000077   0.000520
1 62680U 25009BZ  25155.79272327  .00008972  00000-0  41567-3 0  9997 | 2 62680  97.4319 236.1874 0005403 202.2253 157.8749 15.20309148 79039 | 2025/06/04-19:01:31  302.5637    0.1235  157.8982   94.7176     6883.0444     6879.3255     6886.7633 -54.218742 -80.952474   0.000109   0.000529
1 62680U 25009BZ  25157.17489538  .00007858  00000-0  36426-3 0  9995 | 2 62680  97.4321 237.5497 0005546 197.8918 162.2122 15.20330263 79243 | 2025/06/06-04:11:50   80.1419    0.1234  162.2316   94.7163     6882.9806     6879.1633     6886.7979 -52.278930 -82.218779   0.000139   0.000537
1 62680U 25009BZ  25158.49123344  .00007256  00000-0  33646-3 0  9994 | 2 62680  97.4325 238.8471 0005647 192.6787 167.4307 15.20348336 79446 | 2025/06/07-11:47:22  194.0182    0.1235  167.4448   94.7151     6882.9261     6879.0393     6886.8129 -50.404140 -83.381741   0.000179   0.000536
1 62680U 25009BZ  25160.79478409  .00006710  00000-0  31106-3 0  9998 | 2 62680  97.4327 241.1177 0005880 184.6071 175.5111 15.20381958 79792 | 2025/06/09-19:04:29  303.2875    0.1235  175.5164   94.7130     6882.8246     6878.7775     6886.8717 -47.061154 -85.313415   0.000242   0.000536
1 62680U 25009BZ  25162.50596254  .00006219  00000-0  28838-3 0  9990 | 2 62680  97.4326 242.8046 0006028 179.2037 180.9209 15.20403424 80053 | 2025/06/11-12:08:35  199.3051    0.1235  180.9198   94.7117     6882.7598     6878.6109     6886.9088 -44.529282 -86.661725   0.000283   0.000532
1 62680U 25009BZ  25163.75642147  .00007654  00000-0  35389-3 0  9994 | 2 62680  97.4325 244.0375 0006143 174.9460 185.1838 15.20424305 80248 | 2025/06/12-18:09:14  289.4647    0.1234  185.1774   94.7104     6882.6968     6878.4688     6886.9249 -42.654272 -87.599687   0.000317   0.000526
1 62680U 25009BZ  25165.46753997  .00009127  00000-0  42084-3 0  9997 | 2 62680  97.4319 245.7247 0006331 169.8584 190.2780 15.20462456 80507 | 2025/06/14-11:13:15  185.4602    0.1235  190.2651   94.7080     6882.5817     6878.2243     6886.9390 -40.056341 -88.817029   0.000358   0.000522
1 62680U 25009BZ  25166.65213899  .00006503  00000-0  30070-3 0  9998 | 2 62680  97.4319 246.8929 0006419 166.2293 193.9118 15.20480767 80680 | 2025/06/15-15:39:04  251.9105    0.1234  193.8941   94.7069     6882.5264     6878.1085     6886.9443 -38.237256 -89.615219   0.000385   0.000513
1 62680U 25009BZ  25168.49482428  .00007098  00000-0  32761-3 0  9997 | 2 62680  97.4317 248.7097 0006578 160.0327 200.1167 15.20507015 80963 | 2025/06/17-11:52:32  195.2683    0.1235  200.0908   94.7053     6882.4472     6877.9199     6886.9745 -35.376816 -90.782251   0.000434   0.000495
1 62680U 25009BZ  25169.67939126  .00006428  00000-0  29688-3 0  9990 | 2 62680  97.4318 249.8776 0006641 156.3210 203.8332 15.20522510 81142 | 2025/06/18-16:18:19  261.7073    0.1235  203.8025   94.7043     6882.4005     6877.8299     6886.9711 -33.519151 -91.484546   0.000460   0.000479
1 62680U 25009BZ  25171.19299068  .00005520  00000-0  25533-3 0  9991 | 2 62680  97.4321 251.3700 0006780 152.0077 208.1524 15.20537664 81371 | 2025/06/20-04:37:54   86.5967    0.1235  208.1158   94.7033     6882.3547     6877.6885     6887.0210 -31.125222 -92.326782   0.000493   0.000466
1 62680U 25009BZ  25174.87821548  .00004333  00000-0  20090-3 0  9997 | 2 62680  97.4328 255.0036 0007038 141.6263 218.5475 15.20571044 81931 | 2025/06/23-21:04:37  333.2626    0.1236  218.4973   94.7013     6882.2540     6877.4103     6887.0977 -25.211551 -94.114442   0.000565   0.000420
1 62680U 25009BZ  25175.93112240  .00004496  00000-0  20830-3 0  9999 | 2 62680  97.4329 256.0420 0007051 137.8252 222.3527 15.20580438 82096 | 2025/06/24-22:20:48  352.3044    0.1235  222.2983   94.7007     6882.2257     6877.3730     6887.0783 -23.501845 -94.555980   0.000585   0.000393
1 62680U 25009BZ  25177.70788732  .00005275  00000-0  24367-3 0  9996 | 2 62680  97.4328 257.7943 0007141 133.4965 226.6865 15.20597707 24721 | 2025/06/26-16:59:21  271.9337    0.1235  226.6270   94.6996     6882.1736     6877.2590     6887.0881 -20.599441 -95.230319   0.000610   0.000371
1 62680U 25009BZ  25179.48463045  .00004562  00000-0  21106-3 0  9996 | 2 62680  97.4323 259.5466 0007253 128.0866 232.1024 15.20614786 82630 | 2025/06/28-11:37:52  191.5541    0.1235  232.0369   94.6985     6882.1220     6877.1304     6887.1136 -17.677704 -95.815197   0.000643   0.000336
1 62680U 25009BZ  25180.80072309  .00003791  00000-0  17590-3 0  9998 | 2 62680  97.4320 260.8445 0007282 124.5282 235.6642 15.20626337 82835 | 2025/06/29-19:13:02  305.3434    0.1235  235.5953   94.6978     6882.0872     6877.0756     6887.0987 -15.502840 -96.190730   0.000658   0.000312
1 62680U 25009BZ  25182.18260805  .00005604  00000-0  25830-3 0  9992 | 2 62680  97.4318 262.2073 0007305 120.8513 239.3442 15.20643769 83048 | 2025/07/01-04:22:57   82.8181    0.1235  239.2722   94.6967     6882.0346     6877.0072     6887.0619 -13.210714 -96.532029   0.000672   0.000286
1 62680U 25009BZ  25183.76188775  .00006146  00000-0  28281-3 0  9997 | 2 62680  97.4317 263.7647 0007380 116.5082 243.6911 15.20662346 83283 | 2025/07/02-18:17:07  291.3542    0.1235  243.6153   94.6956     6881.9785     6876.8996     6887.0574 -10.582236 -96.855317   0.000692   0.000256
1 62680U 25009BZ  25185.20954004  .00006889  00000-0  31640-3 0  9991 | 2 62680  97.4320 265.1922 0007391 112.1867 248.0153 15.20684004 83501 | 2025/07/04-05:01:44   92.5057    0.1235  247.9368   94.6942     6881.9132     6876.8268     6886.9996  -8.166117 -97.089181   0.000705   0.000221
1 62680U 25009BZ  25186.72297292  .00007035  00000-0  32284-3 0  9997 | 2 62680  97.4323 266.6847 0007397 108.2670 251.9371 15.20706778 83733 | 2025/07/05-17:21:04  277.3387    0.1235  251.8565   94.6928     6881.8445     6876.7540     6886.9350  -5.634570 -97.269238   0.000715   0.000191
1 62680U 25009BZ  25187.77578314  .00007196  00000-0  33000-3 0  9995 | 2 62680  97.4324 267.7229 0007394 105.2545 254.9509 15.20721873 83891 | 2025/07/06-18:37:07  296.3486    0.1236  254.8691   94.6919     6881.7989     6876.7105     6886.8873  -3.871226 -97.355463   0.000721   0.000166
1 62680U 25009BZ  25188.89438202  .00006478  00000-0  29726-3 0  9992 | 2 62680  97.4326 268.8260 0007441 102.1382 258.0687 15.20737326 84060 | 2025/07/07-21:27:54  339.0421    0.1235  257.9853   94.6909     6881.7523     6876.6316     6886.8730  -1.996270 -97.412147   0.000731   0.000142
1 62680U 25009BZ  25189.94717075  .00005424  00000-0  24935-3 0  9994 | 2 62680  97.4327 269.8643 0007438  99.1333 261.0745 15.20749852 84228 | 2025/07/08-22:43:55  358.0445    0.1236  260.9903   94.6901     6881.7145     6876.5959     6886.8331  -0.230761 -97.432427   0.000735   0.000116
1 62680U 25009BZ  25191.19734683  .00004599  00000-0  21183-3 0  9992 | 2 62680  97.4326 271.0974 0007404  95.7385 264.4695 15.20763049 84417 | 2025/07/10-04:44:10   88.1068    0.1236  264.3851   94.6893     6881.6747     6876.5795     6886.7699   1.866036 -97.414729   0.000735   0.000088
1 62680U 25009BZ  25192.77650301  .00005342  00000-0  24542-3 0  9990 | 2 62680  97.4323 272.6551 0007383  91.3354 268.8727 15.20779418 84653 | 2025/07/11-18:38:09  296.6018    0.1235  268.7881   94.6883     6881.6253     6876.5446     6886.7060   4.513420 -97.327705   0.000737   0.000051
1 62680U 25009BZ  25194.48723223  .00006473  00000-0  29649-3 0  9993 | 2 62680  97.4319 274.3426 0007354  86.6720 273.5356 15.20802569 84914 | 2025/07/13-11:41:36  192.4635    0.1235  273.4515   94.6868     6881.5555     6876.4948     6886.6162   7.377555 -97.152184   0.000735   0.000013
1 62680U 25009BZ  25195.93475218  .00005296  00000-0  24304-3 0  9997 | 2 62680  97.4316 275.7707 0007337  82.6310 277.5759 15.20819717 85139 | 2025/07/14-22:26:02  353.5700    0.1235  277.4925   94.6858     6881.5038     6876.4548     6886.5527   9.796506 -96.937842   0.000733  -0.000020
1 62680U 25009BZ  25197.18486968  .00005884  00000-0  26956-3 0  9998 | 2 62680  97.4313 277.0038 0007290  79.0954 281.1101 15.20835954 85324 | 2025/07/16-04:26:12   83.6128    0.1235  281.0281   94.6848     6881.4548     6876.4382     6886.4714  11.880302 -96.704274   0.000727  -0.000050
1 62680U 25009BZ  25198.69815212  .00006419  00000-0  29360-3 0  9990 | 2 62680  97.4312 278.4963 0007212  74.9409 285.2624 15.20856138 85555 | 2025/07/17-16:45:20  268.3957    0.1236  285.1827   94.6835     6881.3939     6876.4310     6886.3568  14.395026 -96.361932   0.000716  -0.000082
1 62680U 25009BZ  25200.21141548  .00005096  00000-0  23364-3 0  9994 | 2 62680  97.4314 279.9888 0007156  70.8064 289.3946 15.20873131 85787 | 2025/07/19-05:04:26   93.1719    0.1236  289.3172   94.6825     6881.3426     6876.4184     6886.2669  16.900028 -95.954504   0.000706  -0.000114
1 62680U 25009BZ  25201.46148967  .00005041  00000-0  23109-3 0  9991 | 2 62680  97.4316 281.2217 0007082  67.1705 293.0278 15.20887054 85970 | 2025/07/20-11:04:32  183.2005    0.1236  292.9531   94.6816     6881.3006     6876.4273     6886.1740  18.960760 -95.568856   0.000694  -0.000142
1 62680U 25009BZ  25202.77734508  .00005645  00000-0  25824-3 0  9994 | 2 62680  97.4318 282.5195 0006991  63.2732 296.9218 15.20902599 86177 | 2025/07/21-18:39:22  296.9109    0.1235  296.8503   94.6806     6881.2538     6876.4431     6886.0644  21.120474 -95.115095   0.000678  -0.000172
1 62680U 25009BZ  25204.48793506  .00007642  00000-0  34819-3 0  9990 | 2 62680  97.4319 284.2068 0006874  58.2756 301.9149 15.20927981 86437 | 2025/07/23-11:42:37  192.7265    0.1236  301.8480   94.6790     6881.1772     6876.4471     6885.9073  23.911975 -94.452065   0.000656  -0.000207
1 62680U 25009BZ  25205.67217145  .00006929  00000-0  31584-3 0  9995 | 2 62680  97.4321 285.3753 0006820  54.8836 305.3037 15.20946242 86610 | 2025/07/24-16:07:55  259.0536    0.1235  305.2399   94.6779     6881.1221     6876.4292     6885.8150  25.833193 -93.944985   0.000642  -0.000230
1 62680U 25009BZ  25206.72481416  .00006332  00000-0  28881-3 0  9990 | 2 62680  97.4318 286.4139 0006691  51.5747 308.6089 15.20961234 86775 | 2025/07/25-17:23:43  278.0076    0.1237  308.5490   94.6770     6881.0769     6876.4728     6885.6810  27.531711 -93.461011   0.000620  -0.000251
1 62680U 25009BZ  25207.77744768  .00007126  00000-0  32445-3 0  9991 | 2 62680  97.4314 287.4524 0006635  48.0312 312.1487 15.20976229 86937 | 2025/07/26-18:39:31  296.9584    0.1235  312.0923   94.6760     6881.0317     6876.4661     6885.5972  29.220980 -92.946286   0.000604  -0.000275
1 62680U 25009BZ  25209.22480007  .00006606  00000-0  30086-3 0  9997 | 2 62680  97.4309 288.8802 0006521  43.8870 316.2882 15.20997506 87151 | 2025/07/28-05:23:42   98.0087    0.1235  316.2365   94.6747     6880.9675     6876.4804     6885.4546  31.527709 -92.188849   0.000580  -0.000298
1 62680U 25009BZ  25210.47477100  .00006893  00000-0  31362-3 0  9992 | 2 62680  97.4306 290.1135 0006438  39.9816 320.1892 15.21015191 87344 | 2025/07/29-11:23:40  188.0014    0.1235  320.1419   94.6736     6880.9142     6876.4842     6885.3441  33.504528 -91.488625   0.000558  -0.000321
1 62680U 25009BZ  25211.65894095  .00007049  00000-0  32048-3 0  9995 | 2 62680  97.4304 291.2817 0006310  35.9910 324.1750 15.21031768 87526 | 2025/07/30-15:48:52  254.3063    0.1237  324.1327   94.6726     6880.8642     6876.5223     6885.2060  35.362718 -90.786348   0.000531  -0.000341
1 62680U 25009BZ  25212.77731072  .00008077  00000-0  36655-3 0  9994 | 2 62680  97.4304 292.3849 0006195  32.0952 328.0660 15.21049833 87691 | 2025/07/31-18:39:19  296.9234    0.1236  328.0284   94.6715     6880.8097     6876.5470     6885.0723  37.104098 -90.088672   0.000504  -0.000360
1 62680U 25009BZ  25214.22459363  .00007324  00000-0  33251-3 0  9999 | 2 62680  97.4304 293.8123 0006075  27.6514 332.5044 15.21071714 87917 | 2025/08/02-05:23:24   97.9497    0.1236  332.4722   94.6701     6880.7437     6876.5636     6884.9238  39.336716 -89.136444   0.000475  -0.000378
1 62680U 25009BZ  25216.52704967  .00006134  00000-0  27879-3 0  9994 | 2 62680  97.4306 296.0835 0005878  19.9890 340.1575 15.21101082 88260 | 2025/08/04-12:38:57  206.8414    0.1236  340.1346   94.6683     6880.6551     6876.6107     6884.6996  42.838339 -87.507706   0.000423  -0.000408
1 62680U 25009BZ  25218.76368109  .00006226  00000-0  28271-3 0  9995 | 2 62680  97.4310 298.2902 0005645  11.9642 348.1726 15.21128370 88606 | 2025/08/06-18:19:42  292.0363    0.1235  348.1593   94.6666     6880.5728     6876.6888     6884.4569  46.176215 -85.793688   0.000365  -0.000431
1 62680U 25009BZ  25220.21088789  .00006083  00000-0  27611-3 0  9999 | 2 62680  97.4312 299.7183 0005529   6.4453 353.6852 15.21148991 88821 | 2025/08/08-05:03:40   93.0353    0.1235  353.6782   94.6653     6880.5107     6876.7064     6884.3149  48.300161 -84.616388   0.000326  -0.000446
1 62680U 25009BZ  25221.52651537  .00008821  00000-0  39865-3 0  9997 | 2 62680  97.4308 301.0164 0005399   1.8082 358.3172 15.21170271 89020 | 2025/08/09-12:38:10  206.6650    0.1236  358.3154   94.6640     6880.4465     6876.7317     6884.1612  50.204474 -83.500129   0.000293  -0.000454
1 62680U 25009BZ  25222.97368518  .00008131  00000-0  36751-3 0  9996 | 2 62680  97.4304 302.4444 0005307 356.2403   3.8792 15.21191786 89243 | 2025/08/10-23:22:06    7.6504    0.1236    3.8833   94.6626     6880.3816     6876.7302     6884.0330  52.269551 -82.222727   0.000255  -0.000466
1 62680U 25009BZ  25224.68394995  .00007262  00000-0  32838-3 0  9990 | 2 62680  97.4298 304.1319 0005156 350.4608   9.6529 15.21216497 89508 | 2025/08/12-16:24:53  263.3497    0.1236    9.6628   94.6611     6880.3071     6876.7596     6883.8546  54.667855 -80.647328   0.000215  -0.000469
1 62680U 25009BZ  25225.80218476  .00005983  00000-0  27103-3 0  9991 | 2 62680  97.4293 305.2351 0005048 345.7631  14.3461 15.21230592 89672 | 2025/08/13-19:15:08  305.9178    0.1235   14.3604   94.6602     6880.2646     6876.7914     6883.7378  56.210159 -79.579435   0.000181  -0.000471
1 62680U 25009BZ  25227.18351951  .00006536  00000-0  29559-3 0  9992 | 2 62680  97.4290 306.5978 0004932 339.4172  20.6864 15.21249248 89887 | 2025/08/15-04:24:16   83.2027    0.1236   20.7064   94.6590     6880.2084     6876.8150     6883.6017  58.086590 -78.219934   0.000136  -0.000474
1 62680U 25009BZ  25228.63061378  .00006625  00000-0  29942-3 0  9999 | 2 62680  97.4291 308.0255 0004837 334.2113  25.8881 15.21269424 90106 | 2025/08/16-15:08:05  244.1594    0.1236   25.9123   94.6578     6880.1475     6876.8196     6883.4754  60.017507 -76.748475   0.000103  -0.000473
1 62680U 25009BZ  25229.68303462  .00006047  00000-0  27347-3 0  9993 | 2 62680  97.4292 309.0636 0004738 329.6923  30.4038 15.21282222 90262 | 2025/08/17-16:23:34  263.0335    0.1236   30.4313   94.6570     6880.1089     6876.8491     6883.3687  61.398192 -75.648602   0.000072  -0.000468
1 62680U 25009BZ  25230.73544650  .00006084  00000-0  27504-3 0  9993 | 2 62680  97.4294 310.1018 0004688 325.0266  35.0661 15.21295324 90423 | 2025/08/18-17:39:02  281.9042    0.1236   35.0970   94.6562     6880.0694     6876.8441     6883.2948  62.758920 -74.523862   0.000042  -0.000467
1 62680U 25009BZ  25231.78784846  .00007391  00000-0  33324-3 0  9991 | 2 62680  97.4296 311.1401 0004630 320.3455  39.7442 15.21311437 90586 | 2025/08/19-18:54:30  300.7710    0.1236   39.7781   94.6552     6880.0209     6876.8354     6883.2063  64.099176 -73.374536   0.000012  -0.000463
1 62680U 25009BZ  25234.15570891  .00007016  00000-0  31618-3 0  9996 | 2 62680  97.4297 313.4766 0004511 309.1335  50.9499 15.21348896 90942 | 2025/08/22-03:44:13   73.2044    0.1236   50.9901   94.6528     6879.9079     6876.8044     6883.0114  67.037311 -70.700392  -0.000058  -0.000447
1 62680U 25009BZ  25235.66848209  .00006199  00000-0  27958-3 0  9997 | 2 62680  97.4296 314.9696 0004450 302.0604  58.0199 15.21368168 91178 | 2025/08/23-16:02:36  257.8039    0.1236   58.0632   94.6516     6879.8498     6876.7883     6882.9113  68.856568 -68.929674  -0.000100  -0.000434
1 62680U 25009BZ  25236.78660715  .00006746  00000-0  30384-3 0  9990 | 2 62680  97.4292 316.0730 0004457 296.9279  63.1501 15.21382718 91342 | 2025/08/24-18:52:42  300.3299    0.1236   63.1957   94.6507     6879.8060     6876.7396     6882.8723  70.170875 -67.590660  -0.000130  -0.000426
1 62680U 25009BZ  25238.16780332  .00008968  00000-0  40251-3 0  9994 | 2 62680  97.4286 317.4360 0004471 290.3412  69.7343 15.21405959 91554 | 2025/08/26-04:01:38   77.5614    0.1236   69.7824   94.6493     6879.7359     6876.6600     6882.8118  71.758330 -65.902004  -0.000169  -0.000414
1 62680U 25009BZ  25239.22012756  .00010316  00000-0  46215-3 0  9996 | 2 62680  97.4282 318.4743 0004446 285.2125  74.8619 15.21427696 91715 | 2025/08/27-05:16:59   96.3981    0.1236   74.9111   94.6479     6879.6704     6876.6117     6882.7291  72.940443 -64.590602  -0.000197  -0.000399
1 62680U 25009BZ  25240.46974297  .00010498  00000-0  46990-3 0  9992 | 2 62680  97.4277 319.7072 0004436 279.6814  80.3921 15.21453741 91908 | 2025/08/28-11:16:25  186.2594    0.1236   80.4422   94.6463     6879.5918     6876.5401     6882.6436  74.312939 -63.005903  -0.000226  -0.000382
1 62680U 25009BZ  25241.78510261  .00011447  00000-0  51157-3 0  9991 | 2 62680  97.4273 321.0050 0004536 273.6092  86.4625 15.21484322 92109 | 2025/08/29-18:50:32  299.7893    0.1236   86.5144   94.6444     6879.4997     6876.3791     6882.6202  75.720583 -61.306379  -0.000263  -0.000370
1 62680U 25009BZ  25243.16619919  .00013959  00000-0  62221-3 0  9999 | 2 62680  97.4273 322.3676 0004562 267.5412  92.5302 15.21523273 92316 | 2025/08/31-03:59:19   76.9831    0.1236   92.5824   94.6420     6879.3823     6876.2439     6882.5206  77.157013 -59.488437  -0.000294  -0.000349
1 62680U 25009BZ  25244.21844016  .00013368  00000-0  59555-3 0  9994 | 2 62680  97.4276 323.4059 0004557 262.6813  97.3905 15.21551771 92474 | 2025/09/01-05:14:33   95.7882    0.1236   97.4423   94.6402     6879.2964     6876.1615     6882.4312  78.222561 -58.080704  -0.000316  -0.000328
1 62680U 25009BZ  25245.66523789  .00017688  00000-0  78553-3 0  9993 | 2 62680  97.4275 324.8339 0004668 256.4884 103.5832 15.21597216 92698 | 2025/09/02-15:57:56  256.6337    0.1236  103.6352   94.6374     6879.1594     6875.9482     6882.3706  79.645599 -56.113246  -0.000351  -0.000308
1 62680U 25009BZ  25246.78318492  .00016905  00000-0  75009-3 0  9994 | 2 62680  97.4277 325.9370 0004807 252.0719 107.9993 15.21636152 92869 | 2025/09/03-18:47:47  299.0938    0.1236  108.0517   94.6350     6879.0420     6875.7353     6882.3488  80.711270 -54.569658  -0.000379  -0.000296
1 62680U 25009BZ  25248.16414842  .00012885  00000-0  57220-3 0  9992 | 2 62680  97.4280 327.3000 0004810 246.2013 113.8719 15.21668908 93075 | 2025/09/05-03:56:22   76.2368    0.1236  113.9223   94.6329     6878.9433     6875.6345     6882.2521  81.986712 -52.634534  -0.000401  -0.000265
1 62680U 25009BZ  25249.21628910  .00012809  00000-0  56838-3 0  9992 | 2 62680  97.4282 328.3386 0004859 241.4472 118.6276 15.21696506 93238 | 2025/09/06-05:11:27   95.0043    0.1237  118.6765   94.6312     6878.8601     6875.5177     6882.2026  82.927467 -51.139901  -0.000422  -0.000241
1 62680U 25009BZ  25250.79446597  .00009401  00000-0  41774-3 0  9993 | 2 62680  97.4278 329.8964 0005026 235.4484 124.6278 15.21731721 93478 | 2025/09/07-19:04:01  303.1443    0.1236  124.6752   94.6290     6878.7540     6875.2967     6882.2113  84.286729 -48.866384  -0.000454  -0.000215
1 62680U 25009BZ  25251.91232244  .00008806  00000-0  39128-3 0  9998 | 2 62680  97.4275 330.9999 0005101 231.3651 128.7128 15.21750937 93649 | 2025/09/08-21:53:44  345.5692    0.1235  128.7584   94.6278     6878.6961     6875.1873     6882.2049  85.211929 -47.233938  -0.000472  -0.000194
1 62680U 25009BZ  25253.49044744  .00008235  00000-0  36583-3 0  9997 | 2 62680  97.4270 332.5578 0005179 224.0278 136.0546 15.21779195 93883 | 2025/09/10-11:46:14  193.6873    0.1236  136.0958   94.6261     6878.6109     6875.0485     6882.1734  86.464143 -44.899580  -0.000496  -0.000148
1 62680U 25009BZ  25254.80553082  .00007903  00000-0  35102-3 0  9990 | 2 62680  97.4265 333.8558 0005309 219.0037 141.0817 15.21800700 94088 | 2025/09/11-19:19:57  307.1125    0.1236  141.1199   94.6247     6878.5461     6874.8943     6882.1980  87.458593 -42.929215  -0.000518  -0.000118
1 62680U 25009BZ  25255.92333782  .00007053  00000-0  31348-3 0  9991 | 2 62680  97.4261 334.9590 0005413 214.7451 145.3432 15.21816728 94256 | 2025/09/12-22:09:36  349.5187    0.1236  145.3785   94.6237     6878.4978     6874.7745     6882.2212  88.268547 -41.237223  -0.000534  -0.000091
1 62680U 25009BZ  25256.97537959  .00008504  00000-0  37703-3 0  9992 | 2 62680  97.4260 335.9972 0005489 210.5589 149.5328 15.21835457 94417 | 2025/09/13-23:24:32    8.2491    0.1236  149.5647   94.6226     6878.4414     6874.6658     6882.2170  89.001143 -39.631074  -0.000545  -0.000063
1 62680U 25009BZ  25258.48766556  .00011778  00000-0  52030-3 0  9994 | 2 62680  97.4262 337.4897 0005622 204.5347 155.5622 15.21868614 94646 | 2025/09/15-11:42:14  192.6649    0.1235  155.5888   94.6205     6878.3415     6874.4745     6882.2085  90.003368 -37.299573  -0.000562  -0.000020
1 62680U 25009BZ  25260.19716438  .00009333  00000-0  41260-3 0  9996 | 2 62680  97.4263 339.1771 0005786 198.5727 161.5299 15.21904623 94909 | 2025/09/17-04:43:55   88.0764    0.1236  161.5509   94.6183     6878.2330     6874.2533     6882.2128  91.062772 -34.633156  -0.000578   0.000023
1 62680U 25009BZ  25261.77512858  .00009967  00000-0  43996-3 0  9992 | 2 62680  97.4266 340.7348 0005938 193.5501 166.5577 15.21936966 95140 | 2025/09/18-18:36:11  296.1359    0.1236  166.5735   94.6163     6878.1356     6874.0513     6882.2198  91.970859 -32.145039  -0.000591   0.000059
1 62680U 25009BZ  25263.15581961  .00010711  00000-0  47212-3 0  9991 | 2 62680  97.4269 342.0980 0006038 188.4594 171.6541 15.21967189 95359 | 2025/09/20-03:44:22   73.1766    0.1235  171.6641   94.6144     6878.0445     6873.8915     6882.1975  92.709848 -29.948039  -0.000596   0.000099
1 62680U 25009BZ  25264.20775554  .00012060  00000-0  53068-3 0  9996 | 2 62680  97.4266 343.1366 0006106 184.6350 175.4831 15.21993050 95518 | 2025/09/21-04:59:10   91.8672    0.1236  175.4886   94.6128     6877.9666     6873.7669     6882.1663  93.237167 -28.262573  -0.000597   0.000129
1 62680U 25009BZ  25265.45690376  .00016478  00000-0  72273-3 0  9998 | 2 62680  97.4264 344.3702 0006208 180.7922 179.3306 15.22031294 95703 | 2025/09/22-10:57:56  181.5535    0.1236  179.3314   94.6104     6877.8514     6873.5816     6882.1211  93.823822 -26.248692  -0.000600   0.000159
1 62680U 25009BZ  25266.77175583  .00020609  00000-0  90119-3 0  9992 | 2 62680  97.4261 345.6685 0006283 177.0829 183.0445 15.22085751 95907 | 2025/09/23-18:31:19  294.8933    0.1236  183.0407   94.6070     6877.6873     6873.3661     6882.0086  94.394179 -24.116050  -0.000600   0.000186
1 62680U 25009BZ  25268.21804113  .00018787  00000-0  82063-3 0  9994 | 2 62680  97.4257 347.0963 0006391 171.6720 188.4624 15.22140960 96124 | 2025/09/25-05:13:58   95.5467    0.1236  188.4516   94.6036     6877.5210     6873.1256     6881.9164  94.965387 -21.756431  -0.000596   0.000231
1 62680U 25009BZ  25269.92722234  .00017808  00000-0  77673-3 0  9990 | 2 62680  97.4251 348.7842 0006461 166.9196 193.2209 15.22201956 96388 | 2025/09/26-22:15:12  350.8426    0.1236  193.2040   94.5998     6877.3373     6872.8938     6881.7807  95.564432 -18.949655  -0.000589   0.000266
1 62680U 25009BZ  25271.17619684  .00020629  00000-0  89773-3 0  9993 | 2 62680  97.4245 350.0172 0006502 163.1245 197.0209 15.22249025 96575 | 2025/09/28-04:13:43   80.4666    0.1236  196.9991   94.5969     6877.1955     6872.7240     6881.6671  95.949477 -16.888784  -0.000580   0.000294
1 62680U 25009BZ  25272.22793286  .00020957  00000-0  91075-3 0  9993 | 2 62680  97.4245 351.0555 0006569 159.1175 201.0331 15.22292289 96731 | 2025/09/29-05:28:13   99.0847    0.1236  201.0061   94.5942     6877.0652     6872.5477     6881.5828  96.239760 -15.147333  -0.000570   0.000327
1 62680U 25009BZ  25273.80546280  .00024043  00000-0  10411-2 0  9992 | 2 62680  97.4247 352.6131 0006752 154.8145 205.3422 15.22386003 96975 | 2025/09/30-19:19:51  306.9867    0.1236  205.3091   94.5884     6876.7830     6872.1398     6881.4262  96.616132 -12.525783  -0.000569   0.000364
1 62680U 25009BZ  25275.18572352  .00025709  00000-0  11103-2 0  9993 | 2 62680  97.4250 353.9766 0006678 151.2966 208.8639 15.22463141 97187 | 2025/10/02-04:27:26   83.8737    0.1236  208.8270   94.5836     6876.5507     6871.9585     6881.1429  96.887128 -10.223256  -0.000549   0.000380
1 62680U 25009BZ  25279.65477647  .00012261  00000-0  52961-3 0  9997 | 2 62680  97.4253 358.3919 0006905 137.8919 222.2849 15.22618188 97861 | 2025/10/06-15:42:52  252.7060    0.1236  222.2317   94.5739     6876.0839     6871.3359     6880.8318  97.386930  -2.734042  -0.000499   0.000477
1 62680U 25009BZ  25280.77197768  .00016114  00000-0  69398-3 0  9998 | 2 62680  97.4248 359.4955 0006926 134.7483 225.4319 15.22652984 98031 | 2025/10/07-18:31:38  294.8927    0.1237  225.3754   94.5718     6875.9791     6871.2168     6880.7414  97.421023  -0.857832  -0.000483   0.000496
1 62680U 25009BZ  25281.95486593  .00016402  00000-0  70545-3 0  9992 | 2 62680  97.4245   0.6644 0007049 130.9611 229.2236 15.22694311 98216 | 2025/10/08-22:55:00    0.7249    0.1236  229.1625   94.5692     6875.8547     6871.0079     6880.7015  97.417950   1.129706  -0.000468   0.000527
1 62680U 25009BZ  25283.20343962  .00012798  00000-0  55081-3 0  9996 | 2 62680  97.4240   1.8977 0007112 127.0784 233.1104 15.22728483 98409 | 2025/10/10-04:52:57   90.2047    0.1237  233.0453   94.5671     6875.7518     6870.8618     6880.6419  97.370567   3.226201  -0.000447   0.000553
1 62680U 25009BZ  25285.17481630  .00017738  00000-0  76041-3 0  9997 | 2 62680  97.4235   3.8457 0007065 121.9448 238.2477 15.22787470 98708 | 2025/10/12-04:11:44   79.8917    0.1237  238.1789   94.5634     6875.5743     6870.7167     6880.4319  97.204131   6.534169  -0.000413   0.000573
1 62680U 25009BZ  25286.22618078  .00019566  00000-0  83725-3 0  9990 | 2 62680  97.4239   4.8842 0007078 119.1157 241.0789 15.22828510 98867 | 2025/10/13-05:25:42   98.3786    0.1236  241.0079   94.5609     6875.4507     6870.5843     6880.3172  97.070136   8.294882  -0.000396   0.000587
1 62680U 25009BZ  25287.80318009  .00011723  00000-0  50274-3 0  9996 | 2 62680  97.4237   6.4425 0007132 114.4297 245.7685 15.22872268 99107 | 2025/10/14-19:16:34  306.0908    0.1237  245.6940   94.5582     6875.3190     6870.4156     6880.2225  96.808466  10.931528  -0.000366   0.000612
1 62680U 25009BZ  25288.92019888  .00013015  00000-0  55729-3 0  9999 | 2 62680  97.4238   7.5464 0007094 111.2632 248.9363 15.22897926 99272 | 2025/10/15-22:05:05  348.2134    0.1237  248.8605   94.5566     6875.2418     6870.3645     6880.1191  96.579996  12.794575  -0.000342   0.000622
1 62680U 25009BZ  25290.16860538  .00016765  00000-0  71582-3 0  9994 | 2 62680  97.4241   8.7801 0007109 107.5372 252.6642 15.22936174 99462 | 2025/10/17-04:02:47   77.6346    0.1237  252.5865   94.5542     6875.1267     6870.2392     6880.0142  96.282431  14.871067  -0.000315   0.000637
1 62680U 25009BZ  25291.74549303  .00019882  00000-0  84662-3 0  9999 | 2 62680  97.4244  10.3389 0007182 102.8239 257.3801 15.22991661 99704 | 2025/10/18-17:53:30  285.3070    0.1237  257.2998   94.5507     6874.9597     6870.0221     6879.8973  95.842561  17.484773  -0.000283   0.000660
1 62680U 25009BZ  25292.79671242  .00020253  00000-0  86116-3 0  9993 | 2 62680  97.4242  11.3780 0007140  99.8620 260.3423 15.23038205 99869 | 2025/10/19-19:07:15  303.7427    0.1237  260.2617   94.5479     6874.8196     6869.9110     6879.7283  95.509522  19.219937  -0.000259   0.000665
1 62680U 25009BZ  25293.84790511  .00015795  00000-0  67200-3 0  9999 | 2 62680  97.4241  12.4174 0007041  96.8906 263.3132 15.23071780100027 | 2025/10/20-20:20:59  322.1693    0.1237  263.2331   94.5458     6874.7186     6869.8781     6879.5591  95.145060  20.949291  -0.000233   0.000664
1 62680U 25009BZ  25295.22756049  .00015737  00000-0  66867-3 0  9995 | 2 62680  97.4239  13.7814 0007058  92.8674 267.3371 15.23116897100236 | 2025/10/22-05:27:41   98.8404    0.1237  267.2563   94.5430     6874.5829     6869.7308     6879.4349  94.619228  23.208145  -0.000202   0.000676
1 62680U 25009BZ  25296.67286964  .00015138  00000-0  64250-3 0  9998 | 2 62680  97.4234  15.2102 0007057  88.7183 271.4862 15.23163465100454 | 2025/10/23-16:08:55  259.1474    0.1237  271.4054   94.5401     6874.4427     6869.5914     6879.2940  94.010639  25.560098  -0.000170   0.000685
1 62680U 25009BZ  25297.78966937  .00015713  00000-0  66602-3 0  9998 | 2 62680  97.4229  16.3143 0006969  85.4273 274.7760 15.23199273100628 | 2025/10/24-18:57:07  301.1932    0.1237  274.6964   94.5379     6874.3350     6869.5443     6879.1257  93.500188  27.366702  -0.000142   0.000682
1 62680U 25009BZ  25299.16920984  .00015023  00000-0  63620-3 0  9995 | 2 62680  97.4226  17.6779 0006847  81.1780 279.0232 15.23242105100833 | 2025/10/26-04:03:39   77.8260    0.1237  278.9457   94.5352     6874.2061     6869.4994     6878.9129  92.822176  29.583890  -0.000105   0.000677
1 62680U 25009BZ  25300.22026331  .00013096  00000-0  55461-3 0  9990 | 2 62680  97.4223  18.7168 0006922  78.7036 281.4978 15.23271471100993 | 2025/10/27-05:17:10   96.2021    0.1237  281.4201   94.5334     6874.1178     6869.3595     6878.8760  92.270241  31.261911  -0.000089   0.000686
1 62680U 25009BZ  25301.46836417  .00014580  00000-0  61636-3 0  9991 | 2 62680  97.4221  19.9508 0006876  75.2075 284.9924 15.23305987101186 | 2025/10/28-11:14:26  185.5161    0.1238  284.9163   94.5312     6874.0139     6869.2874     6878.7405  91.575407  33.241697  -0.000062   0.000685
1 62680U 25009BZ  25302.65074835  .00014998  00000-0  63327-3 0  9993 | 2 62680  97.4222  21.1199 0006781  71.5081 288.6892 15.23340947101369 | 2025/10/29-15:37:04  251.1733    0.1237  288.6156   94.5291     6873.9088     6869.2476     6878.5700  90.878199  35.103247  -0.000031   0.000677
1 62680U 25009BZ  25304.22721000  .00017702  00000-0  74536-3 0  9991 | 2 62680  97.4226  22.6786 0006717  66.6618 293.5325 15.23400961101607 | 2025/10/31-05:27:10   98.6977    0.1237  293.4619   94.5253     6873.7282     6869.1112     6878.3453  89.890095  37.562399   0.000008   0.000672
1 62680U 25009BZ  25306.19770806  .00011803  00000-0  49750-3 0  9993 | 2 62680  97.4231  24.6273 0006635  60.9438 299.2463 15.23458096101903 | 2025/11/02-04:44:41   88.0747    0.1237  299.1799   94.5218     6873.5564     6868.9958     6878.1170  88.561267  40.597567   0.000051   0.000662
1 62680U 25009BZ  25308.16813777  .00014478  00000-0  60841-3 0  9992 | 2 62680  97.4235  26.5764 0006461  54.2527 305.9310 15.23514218102204 | 2025/11/04-04:02:07   77.4288    0.1237  305.8710   94.5183     6873.3876     6868.9467     6877.8285  87.129596  43.586373   0.000103   0.000638
1 62680U 25009BZ  25309.67875325  .00012569  00000-0  52812-3 0  9994 | 2 62680  97.4231  28.0708 0006402  50.6159 309.5644 15.23552354102439 | 2025/11/05-16:17:24  261.2483    0.1237  309.5078   94.5160     6873.2729     6868.8726     6877.6731  85.962909  45.843634   0.000126   0.000628
1 62680U 25009BZ  25311.18932355  .00012604  00000-0  52883-3 0  9998 | 2 62680  97.4223  29.5648 0006236  45.2506 314.9237 15.23599584102669 | 2025/11/07-04:32:37   85.0545    0.1237  314.8731   94.5130     6873.1308     6868.8447     6877.4169  84.737743  48.068903   0.000163   0.000602
1 62680U 25009BZ  25314.47300226  .00015444  00000-0  64505-3 0  9998 | 2 62680  97.4214  32.8126 0006019  34.6572 325.5056 15.23708304103166 | 2025/11/10-11:21:07  187.1791    0.1237  325.4665   94.5063     6872.8039     6868.6671     6876.9406  81.877568  52.791979   0.000231   0.000556
1 62680U 25009BZ  25316.18041857  .00018591  00000-0  77403-3 0  9997 | 2 62680  97.4215  34.5017 0005845  27.2908 332.8635 15.23776677103423 | 2025/11/12-04:19:48   81.8513    0.1237  332.8329   94.5020     6872.5983     6868.5813     6876.6153  80.285972  55.182527   0.000276   0.000515
1 62680U 25009BZ  25317.23107825  .00026595  00000-0  11021-2 0  9998 | 2 62680  97.4213  35.5410 0005813  23.8661 336.2844 15.23860365103587 | 2025/11/13-05:32:45  100.0889    0.1237  336.2576   94.4968     6872.3467     6868.3518     6876.3416  79.271689  56.629577   0.000296   0.000500
1 62680U 25009BZ  25320.12022145  .00019573  00000-0  80999-3 0  9990 | 2 62680  97.4216  38.3999 0005577  15.0483 345.0919 15.23971798104029 | 2025/11/16-02:53:07   60.1795    0.1237  345.0754   94.4899     6872.0117     6868.1791     6875.8442  76.348776  60.513077   0.000332   0.000448
1 62680U 25009BZ  25321.17073574  .00032015  00000-0  13167-2 0  9996 | 2 62680  97.4224  39.4402 0005596  12.1344 348.0027 15.24076539104184 | 2025/11/17-04:05:51   78.3629    0.1238  347.9894   94.4834     6871.6968     6867.8514     6875.5422  75.238155  61.889774   0.000348   0.000438
1 62680U 25009BZ  25322.68075718  .00019846  00000-0  81659-3 0  9994 | 2 62680  97.4230  40.9352 0005405   7.3475 352.7841 15.24162729104411 | 2025/11/18-16:20:17  261.9695    0.1238  352.7763   94.4781     6871.4377     6867.7237     6875.1518  73.598311  63.832042   0.000360   0.000403
1 62680U 25009BZ  25324.19074066  .00014722  00000-0  60642-3 0  9994 | 2 62680  97.4217  42.4297 0005298   2.0818 358.0440 15.24190872104643 | 2025/11/20-04:34:39   85.5631    0.1237  358.0419   94.4764     6871.3532     6867.7127     6874.9936  71.907513  65.728968   0.000378   0.000371
1 62680U 25009BZ  25326.22587547  .00014653  00000-0  60262-3 0  9994 | 2 62680  97.4214  44.4444 0005134 354.7021   5.4161 15.24247897104955 | 2025/11/22-05:25:15   98.2105    0.1238    5.4217   94.4728     6871.1818     6867.6541     6874.7094  69.552087  68.216100   0.000398   0.000324
1 62680U 25009BZ  25328.19529211  .00010999  00000-0  45268-3 0  9994 | 2 62680  97.4204  46.3937 0004927 346.9564  13.1545 15.24291617105251 | 2025/11/24-04:41:13   87.1996    0.1238   13.1674   94.4701     6871.0504     6867.6650     6874.4358  67.190769  70.541725   0.000412   0.000271
1 62680U 25009BZ  25329.77077824  .00015604  00000-0  63972-3 0  9997 | 2 62680  97.4201  47.9534 0004807 340.4780  19.6273 15.24340836105497 | 2025/11/25-18:29:55  294.3734    0.1238   19.6458   94.4671     6870.9025     6867.5996     6874.2053  65.245631  72.344201   0.000423   0.000229
1 62680U 25009BZ  25331.21492984  .00013590  00000-0  55698-3 0  9995 | 2 62680  97.4200  49.3830 0004706 334.8267  25.2740 15.24382462105714 | 2025/11/27-05:09:29   94.2664    0.1237   25.2970   94.4645     6870.7774     6867.5440     6874.0108  63.420368  73.949397   0.000429   0.000193
1 62680U 25009BZ  25332.46212418  .00011971  00000-0  49066-3 0  9998 | 2 62680  97.4202  50.6179 0004639 329.2102  30.8863 15.24410443105908 | 2025/11/28-11:05:27  183.2549    0.1238   30.9136   94.4627     6870.6933     6867.5060     6873.8806  61.812052  75.299174   0.000436   0.000157
1 62680U 25009BZ  25334.16876799  .00014332  00000-0  58585-3 0  9995 | 2 62680  97.4207  52.3080 0004497 322.2548  37.8373 15.24459118106166 | 2025/11/30-04:03:01   77.6432    0.1237   37.8689   94.4597     6870.5471     6867.4574     6873.6368  59.564629  77.089868   0.000435   0.000113
1 62680U 25009BZ  25335.21898270  .00014395  00000-0  58788-3 0  9994 | 2 62680  97.4206  53.3479 0004538 317.7929  42.2959 15.24490056106320 | 2025/12/01-05:15:20   95.7190    0.1238   42.3309   94.4578     6870.4541     6867.3363     6873.5719  58.155680  78.158111   0.000445   0.000088
1 62680U 25009BZ  25336.46608977  .00012741  00000-0  52033-3 0  9995 | 2 62680  97.4204  54.5828 0004421 311.7336  48.3523 15.24518511106518 | 2025/12/02-11:11:10  184.6748    0.1238   48.3902   94.4561     6870.3686     6867.3312     6873.4060  56.457640  79.393131   0.000439   0.000049
1 62680U 25009BZ  25337.77880256  .00017063  00000-0  69458-3 0  9993 | 2 62680  97.4206  55.8831 0004412 305.8901  54.1926 15.24561587106715 | 2025/12/03-18:41:28  297.2481    0.1237   54.2336   94.4534     6870.2392     6867.2081     6873.2704  54.641579  80.654021   0.000441   0.000014
1 62680U 25009BZ  25339.22272634  .00021873  00000-0  88704-3 0  9999 | 2 62680  97.4204  57.3131 0004317 299.8696  60.2112 15.24635966106932 | 2025/12/05-05:20:43   97.0558    0.1237   60.2541   94.4488     6870.0158     6867.0500     6872.9816  52.611683  81.992348   0.000431  -0.000021
1 62680U 25009BZ  25340.46970689  .00019882  00000-0  80567-3 0  9998 | 2 62680  97.4197  58.5484 0004354 294.4224  65.6559 15.24681460107122 | 2025/12/06-11:16:22  185.9651    0.1238   65.7014   94.4460     6869.8791     6866.8880     6872.8703  50.831468  83.106918   0.000432  -0.000053
1 62680U 25009BZ  25341.78227960  .00018273  00000-0  73989-3 0  9994 | 2 62680  97.4196  59.8485 0004350 288.8760  71.2005 15.24726324107324 | 2025/12/07-18:46:28  298.4867    0.1237   71.2477   94.4432     6869.7444     6866.7560     6872.7327  48.932713  84.238756   0.000427  -0.000085
1 62680U 25009BZ  25342.96356408  .00014833  00000-0  60082-3 0  9993 | 2 62680  97.4192  61.0183 0004289 283.5535  76.5225 15.24760123107500 | 2025/12/08-23:07:31    3.7441    0.1238   76.5703   94.4411     6869.6428     6866.6964     6872.5892  47.202549  85.219833   0.000413  -0.000114
1 62680U 25009BZ  25344.21044388  .00017364  00000-0  70171-3 0  9996 | 2 62680  97.4188  62.2532 0004245 277.9709  82.1047 15.24803507107697 | 2025/12/10-05:03:02   92.6153    0.1238   82.1529   94.4384     6869.5125     6866.5964     6872.4286  45.354793  86.216967   0.000399  -0.000144
1 62680U 25009BZ  25345.45728982  .00019523  00000-0  78734-3 0  9994 | 2 62680  97.4187  63.4884 0004312 272.2923  87.7821 15.24847070107885 | 2025/12/11-10:58:29  181.4748    0.1238   87.8315   94.4357     6869.3817     6866.4196     6872.3438  43.485661  87.174540   0.000393  -0.000177
1 62680U 25009BZ  25346.96658245  .00016859  00000-0  67951-3 0  9993 | 2 62680  97.4190  64.9836 0004325 265.1446  94.9298 15.24896703108119 | 2025/12/12-23:11:52    4.8126    0.1238   94.9792   94.4326     6869.2326     6866.2617     6872.2036  41.196319  88.279810   0.000375  -0.000215
1 62680U 25009BZ  25348.21334813  .00012890  00000-0  51986-3 0  9997 | 2 62680  97.4189  66.2190 0004370 259.8344 100.2401 15.24937627108301 | 2025/12/14-05:07:13   93.6416    0.1238  100.2894   94.4301     6869.1097     6866.1079     6872.1115  39.283379  89.147396   0.000363  -0.000244
1 62680U 25009BZ  25349.78817946  .00008278  00000-0  33480-3 0  9997 | 2 62680  97.4193  67.7797 0004435 252.5443 107.5310 15.24964102108540 | 2025/12/15-18:54:58  300.5716    0.1238  107.5795   94.4285     6869.0302     6865.9838     6872.0766  36.840940  90.184617   0.000341  -0.000283
1 62680U 25009BZ  25350.96927987  .00010591  00000-0  42707-3 0  9999 | 2 62680  97.4193  68.9500 0004522 247.1101 112.9660 15.24992659108729 | 2025/12/16-23:15:45    5.7608    0.1238  113.0137   94.4267     6868.9445     6865.8383     6872.0506  34.991309  90.918251   0.000326  -0.000314
1 62680U 25009BZ  25352.21597966  .00009303  00000-0  37530-3 0  9996 | 2 62680  97.4191  70.1854 0004539 241.7268 118.3512 15.25014299108919 | 2025/12/18-05:11:00   94.5643    0.1238  118.3970   94.4253     6868.8795     6865.7617     6871.9973  33.022899  91.651346   0.000303  -0.000338
1 62680U 25009BZ  25353.65950583  .00007324  00000-0  29598-3 0  9999 | 2 62680  97.4189  71.6159 0004615 235.4126 124.6677 15.25035563109132 | 2025/12/19-15:49:41  254.2237    0.1238  124.7112   94.4240     6868.8156     6865.6457     6871.9856  30.724528  92.446987   0.000278  -0.000368
1 62680U 25009BZ  25354.77494218  .00007519  00000-0  30357-3 0  9992 | 2 62680  97.4186  72.7211 0004686 230.8063 129.2759 15.25054188109302 | 2025/12/20-18:35:55  295.7731    0.1238  129.3175   94.4229     6868.7597     6865.5410     6871.9784  28.935589  93.022123   0.000259  -0.000391
1 62680U 25009BZ  25356.48087496  .00011635  00000-0  46742-3 0  9997 | 2 62680  97.4180  74.4115 0004815 223.5259 136.5600 15.25091623109567 | 2025/12/22-11:32:27  189.8962    0.1238  136.5979   94.4206     6868.6473     6865.3401     6871.9546  26.178798  93.834627   0.000226  -0.000425
1 62680U 25009BZ  25358.18676042  .00012560  00000-0  50363-3 0  9999 | 2 62680  97.4171  76.1015 0004922 216.9429 143.1471 15.25136181109827 | 2025/12/24-04:28:56   84.0023    0.1238  143.1809   94.4178     6868.5135     6865.1329     6871.8942  23.399844  94.564997   0.000193  -0.000453
1 62680U 25009BZ  25360.22063307  .00012417  00000-0  49710-3 0  9996 | 2 62680  97.4172  78.1168 0005031 208.6272 151.4691 15.25192642110131 | 2025/12/26-05:17:42   96.1796    0.1238  151.4966   94.4143     6868.3440     6864.8886     6871.7995  20.059883  95.329491   0.000145  -0.000482
1 62680U 25009BZ  25361.27034459  .00012773  00000-0  51080-3 0  9996 | 2 62680  97.4171  79.1571 0005119 204.7988 155.3005 15.25221561110299 | 2025/12/27-06:29:17  114.0670    0.1238  155.3250   94.4125     6868.2572     6864.7413     6871.7731  18.325788  95.677881   0.000123  -0.000497
1 62680U 25009BZ  25362.77926742  .00015908  00000-0  63427-3 0  9998 | 2 62680  97.4172  80.6527 0005234 199.7491 160.3545 15.25269726110524 | 2025/12/28-18:42:08  297.2666    0.1238  160.3747   94.4095     6868.1126     6864.5178     6871.7074  15.822351  96.123691   0.000094  -0.000515
1 62680U 25009BZ  25364.15693252  .00018655  00000-0  74180-3 0  9999 | 2 62680  97.4175  82.0183 0005324 193.7940 166.3153 15.25324238110738 | 2025/12/30-03:45:58   73.2127    0.1237  166.3297   94.4062     6867.9490     6864.2925     6871.6055  13.527083  96.473765   0.000054  -0.000530
1 62680U 25009BZ  25365.20654940  .00018950  00000-0  75252-3 0  9996 | 2 62680  97.4176  83.0590 0005397 190.0961 170.0170 15.25365763110891 | 2025/12/31-04:57:25   91.0648    0.1238  170.0277   94.4036     6867.8243     6864.1178     6871.5309  11.772645  96.703638   0.000030  -0.000539
1 62680U 25009BZ  26001.45293418  .00019009  00000-0  75380-3 0  9998 | 2 62680  97.4175  84.2946 0005489 185.8560 174.2615 15.25412475111082 | 2026/01/01-10:52:13  179.7518    0.1238  174.2678   94.4007     6867.6841     6863.9145     6871.4538   9.684618  96.934914   0.000001  -0.000549
1 62680U 25009BZ  26002.96166123  .00021304  00000-0  84259-3 0  9993 | 2 62680  97.4173  85.7904 0005606 180.8314 179.2916 15.25475767111311 | 2026/01/02-23:04:47    2.8793    0.1238  179.2924   94.3968     6867.4942     6863.6443     6871.3441   7.150946  97.154487  -0.000033  -0.000560
1 62680U 25009BZ  26004.20795405  .00015772  00000-0  62412-3 0  9992 | 2 62680  97.4170  87.0259 0005660 176.6675 183.4602 15.25521703111501 | 2026/01/04-04:59:27   91.5329    0.1238  183.4563   94.3939     6867.3563     6863.4694     6871.2432   5.054435  97.285788  -0.000062  -0.000563
1 62680U 25009BZ  26005.45421494  .00015732  00000-0  62184-3 0  9996 | 2 62680  97.4162  88.2612 0005758 172.8132 187.3190 15.25559744111693 | 2026/01/05-10:54:04  180.1754    0.1238  187.3106   94.3916     6867.2421     6863.2880     6871.1963   2.955912  97.371344  -0.000089  -0.000569
1 62680U 25009BZ  26006.76603629  .00012441  00000-0  49203-3 0  9994 | 2 62680  97.4158  89.5616 0005882 168.4214 191.7160 15.25595062111897 | 2026/01/06-18:23:05  292.4185    0.1237  191.7023   94.3894     6867.1362     6863.0969     6871.1754   0.745372  97.412948  -0.000122  -0.000575
1 62680U 25009BZ  26007.94665509  .00008315  00000-0  32977-3 0  9995 | 2 62680  97.4155  90.7320 0005997 164.2788 195.8637 15.25614304112073 | 2026/01/07-22:43:10  357.4294    0.1237  195.8449   94.3882     6867.0784     6862.9602     6871.1966  -1.244528  97.407550  -0.000155  -0.000579
1 62680U 25009BZ  26009.19284249  .00009829  00000-0  38888-3 0  9990 | 2 62680  97.4150  91.9674 0006052 160.7629 199.3839 15.25643657112268 | 2026/01/09-04:37:41   86.0455    0.1238  199.3609   94.3864     6866.9903     6862.8344     6871.1462  -3.344341  97.357576  -0.000180  -0.000578
1 62680U 25009BZ  26010.96369734  .00011913  00000-0  46994-3 0  9994 | 2 62680  97.4150  93.7233 0006190 155.0432 205.1106 15.25688348112530 | 2026/01/10-23:07:43    3.5358    0.1237  205.0805   94.3836     6866.8562     6862.6057     6871.1068  -6.325947  97.209385  -0.000224  -0.000577
1 62680U 25009BZ  26012.14423725  .00013098  00000-0  51582-3 0  9992 | 2 62680  97.4153  94.8939 0006271 151.5902 208.5680 15.25722078112714 | 2026/01/12-03:27:42   68.5188    0.1239  208.5337   94.3815     6866.7550     6862.4489     6871.0612  -8.310582  97.060161  -0.000250  -0.000575
1 62680U 25009BZ  26013.19358942  .00007592  00000-0  30025-3 0  9997 | 2 62680  97.4155  95.9346 0006321 148.7671 211.3944 15.25738655112877 | 2026/01/13-04:38:46   86.2758    0.1238  211.3567   94.3805     6866.7053     6862.3648     6871.0457 -10.072101  96.893408  -0.000270  -0.000571
1 62680U 25009BZ  26014.76759826  .00006201  00000-0  24565-3 0  9995 | 2 62680  97.4155  97.4958 0006386 143.8539 216.3132 15.25759563113116 | 2026/01/14-18:25:20  292.9036    0.1238  216.2699   94.3792     6866.6426     6862.2575     6871.0276 -12.708194  96.583029  -0.000306  -0.000560
1 62680U 25009BZ  26016.21041987  .00007565  00000-0  29877-3 0  9994 | 2 62680  97.4154  98.9264 0006501 139.5291 220.6431 15.25781601113339 | 2026/01/16-05:03:00   92.3058    0.1237  220.5946   94.3779     6866.5764     6862.1125     6871.0404 -15.115518  96.235551  -0.000340  -0.000554
1 62680U 25009BZ  26018.50576644  .00010808  00000-0  42486-3 0  9996 | 2 62680  97.4148 101.2023 0006623 132.9784 227.2011 15.25829249113688 | 2026/01/18-12:08:18  198.6098    0.1238  227.1454   94.3749     6866.4335     6861.8858     6870.9811 -18.925136  95.558791  -0.000388  -0.000537
1 62680U 25009BZ  26019.75177992  .00009800  00000-0  38524-3 0  9995 | 2 62680  97.4145 102.4377 0006698 129.2985 230.8848 15.25856262113878 | 2026/01/19-18:02:33  287.1636    0.1238  230.8253   94.3732     6866.3524     6861.7534     6870.9515 -20.980932  95.128257  -0.000415  -0.000526
1 62680U 25009BZ  26022.17809101  .00015546  00000-0  60671-3 0  9991 | 2 62680  97.4134 104.8439 0006630 121.9547 238.2337 15.25982219114249 | 2026/01/22-04:16:27   80.6158    0.1238  238.1691   94.3655     6865.9746     6861.4225     6870.5267 -24.955994  94.162460  -0.000454  -0.000483
1 62680U 25009BZ  26023.48954531  .00020669  00000-0  80399-3 0  9995 | 2 62680  97.4129 106.1440 0006760 118.4614 241.7306 15.26031467114448 | 2026/01/23-11:44:56  192.7282    0.1238  241.6624   94.3624     6865.8269     6861.1856     6870.4682 -27.085890  93.571511  -0.000481  -0.000475
1 62680U 25009BZ  26025.12879908  .00021616  00000-0  83887-3 0  9990 | 2 62680  97.4121 107.7702 0006772 113.7602 246.4347 15.26098307114696 | 2026/01/25-03:05:28   62.8462    0.1238  246.3636   94.3583     6865.6264     6860.9770     6870.2758 -29.730178  92.764399  -0.000507  -0.000449
1 62680U 25009BZ  26026.17788927  .00017948  00000-0  69667-3 0  9999 | 2 62680  97.4122 108.8106 0006762 110.8002 249.3961 15.26130484114853 | 2026/01/26-04:16:09   80.5109    0.1238  249.3236   94.3563     6865.5299     6860.8874     6870.1724 -31.409670  92.209378  -0.000521  -0.000431
1 62680U 25009BZ  26027.22695895  .00016223  00000-0  62960-3 0  9991 | 2 62680  97.4125 109.8511 0006799 107.5471 252.6510 15.26159242115019 | 2026/01/27-05:26:49   98.1677    0.1238  252.5767   94.3545     6865.4437     6860.7758     6870.1115 -33.079037  91.624082  -0.000540  -0.000413
1 62680U 25009BZ  26028.86608975  .00014809  00000-0  57432-3 0  9991 | 2 62680  97.4130 111.4775 0006668 103.0982 257.1001 15.26203328115266 | 2026/01/28-20:47:10  328.2438    0.1238  257.0256   94.3518     6865.3114     6860.7337     6869.8892 -35.666389  90.648780  -0.000549  -0.000378
1 62680U 25009BZ  26030.17735178  .00017404  00000-0  67325-3 0  9990 | 2 62680  97.4131 112.7783 0006648  99.4387 260.7603 15.26251887115468 | 2026/01/30-04:15:23   80.2891    0.1238  260.6851   94.3488     6865.1658     6860.6019     6869.7298 -37.715081  89.815838  -0.000562  -0.000354
1 62680U 25009BZ  26031.94749838  .00010461  00000-0  40560-3 0  9992 | 2 62680  97.4130 114.5344 0006692  94.5187 265.6816 15.26298181115731 | 2026/01/31-22:44:23  357.5292    0.1238  265.6051   94.3459     6865.0270     6860.4329     6869.6211 -40.449726  88.617788  -0.000585  -0.000325
1 62680U 25009BZ  26033.19312645  .00010839  00000-0  41974-3 0  9992 | 2 62680  97.4123 115.7699 0006643  90.7706 269.4293 15.26329362115928 | 2026/02/02-04:38:06   85.9480    0.1238  269.3532   94.3440     6864.9335     6860.3731     6869.4939 -42.350783  87.724383  -0.000594  -0.000297
1 62680U 25009BZ  26034.50428345  .00013614  00000-0  52566-3 0  9996 | 2 62680  97.4118 117.0702 0006590  86.3535 273.8457 15.26368836116127 | 2026/02/03-12:06:10  197.9572    0.1239  273.7704   94.3415     6864.8152     6860.2912     6869.3391 -44.330341  86.740300  -0.000605  -0.000262
1 62680U 25009BZ  26036.20874178  .00015210  00000-0  58602-3 0  9995 | 2 62680  97.4110 118.7613 0006601  82.3840 277.8148 15.26416607116385 | 2026/02/05-05:00:35   91.5515    0.1239  277.7399   94.3386     6864.6719     6860.1406     6869.2033 -46.870439  85.393588  -0.000616  -0.000238
1 62680U 25009BZ  26037.65093181  .00013253  00000-0  51050-3 0  9997 | 2 62680  97.4103 120.1920 0006437  78.2472 281.9489 15.26457649116607 | 2026/02/06-15:37:20  250.7334    0.1239  281.8767   94.3361     6864.5489     6860.1302     6868.9676 -48.987568  84.196109  -0.000611  -0.000204
1 62680U 25009BZ  26038.83087916  .00014953  00000-0  57492-3 0  9991 | 2 62680  97.4104 121.3627 0006421  74.8704 285.3244 15.26490070116789 | 2026/02/07-19:56:27  315.5081    0.1238  285.2534   94.3341     6864.4517     6860.0440     6868.8593 -50.697618  83.177747  -0.000617  -0.000179
1 62680U 25009BZ  26040.20745227  .00012791  00000-0  49183-3 0  9997 | 2 62680  97.4103 122.7286 0006348  71.8321 288.3608 15.26525750116998 | 2026/02/09-04:58:43   91.0672    0.1238  288.2917   94.3319     6864.3447     6859.9872     6868.7022 -52.665883  81.945539  -0.000614  -0.000160
1 62680U 25009BZ  26041.84618891  .00012435  00000-0  47764-3 0  9992 | 2 62680  97.4101 124.3547 0006279  66.4641 293.7256 15.26566104117248 | 2026/02/10-20:18:30  321.0047    0.1238  293.6597   94.3294     6864.2237     6859.9137     6868.5338 -54.969928  80.417875  -0.000617  -0.000118
1 62680U 25009BZ  26043.22269124  .00014667  00000-0  56204-3 0  9995 | 2 62680  97.4101 125.7206 0006235  62.8702 297.3172 15.26606828117453 | 2026/02/12-05:20:40   96.5387    0.1239  297.2537   94.3268     6864.1017     6859.8219     6868.3814 -56.871245  79.084695  -0.000617  -0.000093
1 62680U 25009BZ  26044.66471109  .00009277  00000-0  35650-3 0  9995 | 2 62680  97.4103 127.1517 0006090  58.3588 301.8244 15.26631506117673 | 2026/02/13-15:57:11  255.6603    0.1239  301.7651   94.3253     6864.0277     6859.8475     6868.2079 -58.828752  77.639838  -0.000606  -0.000058
1 62680U 25009BZ  26046.17224999  .00008856  00000-0  34017-3 0  9994 | 2 62680  97.4103 128.6475 0005997  53.8467 306.3326 15.26659489117900 | 2026/02/15-04:08:02   78.3683    0.1239  306.2772   94.3236     6863.9438     6859.8275     6868.0601 -60.835390  76.077735  -0.000599  -0.000026
1 62680U 25009BZ  26048.20408814  .00012686  00000-0  48504-3 0  9992 | 2 62680  97.4098 130.6636 0005848  48.1502 312.0235 15.26719005118216 | 2026/02/17-04:53:53   89.8222    0.1239  311.9737   94.3199     6863.7654     6859.7515     6867.7794 -63.473846  73.890054  -0.000585   0.000012
1 62680U 25009BZ  26050.17032130  .00010723  00000-0  40998-3 0  9994 | 2 62680  97.4091 132.6148 0005648  41.8377 318.3293 15.26761720118514 | 2026/02/19-04:05:15   77.6596    0.1239  318.2862   94.3173     6863.6374     6859.7608     6867.5140 -65.952398  71.685521  -0.000562   0.000055
1 62680U 25009BZ  26051.21895600  .00009327  00000-0  35682-3 0  9991 | 2 62680  97.4088 133.6555 0005535  39.3942 320.7699 15.26783679118679 | 2026/02/20-05:15:17   95.1639    0.1240  320.7298   94.3159     6863.5716     6859.7726     6867.3706 -67.243310  70.475609  -0.000549   0.000067
1 62680U 25009BZ  26052.52973040  .00011599  00000-0  44255-3 0  9991 | 2 62680  97.4081 134.9558 0005458  34.7713 325.3881 15.26810783118871 | 2026/02/21-12:42:48  207.0391    0.1239  325.3526   94.3142     6863.4904     6859.7443     6867.2365 -68.824773  68.931042  -0.000537   0.000097
1 62680U 25009BZ  26053.70940530  .00014597  00000-0  55551-3 0  9992 | 2 62680  97.4076 136.1265 0005367  30.4475 329.7075 15.26842558119050 | 2026/02/22-17:01:32  271.7185    0.1240  329.6765   94.3123     6863.3952     6859.7116     6867.0787 -70.218386  67.510138  -0.000522   0.000125
1 62680U 25009BZ  26055.21672626  .00012535  00000-0  47693-3 0  9996 | 2 62680  97.4076 137.6228 0005208  26.0503 334.0997 15.26886485119286 | 2026/02/24-05:12:05   94.3484    0.1239  334.0736   94.3096     6863.2635     6859.6891     6866.8379 -71.957294  65.653548  -0.000500   0.000146
1 62680U 25009BZ  26057.18274643  .00010970  00000-0  41732-3 0  9990 | 2 62680  97.4077 139.5742 0005030  19.1152 341.0275 15.26927348119589 | 2026/02/26-04:23:09   82.1094    0.1239  341.0087   94.3070     6863.1411     6859.6889     6866.5932 -74.151260  63.165265  -0.000469   0.000183
1 62680U 25009BZ  26058.23126252  .00013773  00000-0  52252-3 0  9992 | 2 62680  97.4078 140.6149 0004948  15.6898 344.4493 15.26961014119744 | 2026/02/27-05:33:01   99.5715    0.1239  344.4341   94.3050     6863.0402     6859.6444     6866.4360 -75.286353  61.808126  -0.000453   0.000199
1 62680U 25009BZ  26059.47634867  .00012369  00000-0  46916-3 0  9995 | 2 62680  97.4078 141.8508 0004806  11.2333 348.9013 15.26994587119934 | 2026/02/28-11:25:56  187.7983    0.1240  348.8907   94.3029     6862.9396     6859.6413     6866.2379 -76.601969  60.169908  -0.000429   0.000218
1 62680U 25009BZ  26060.72140754  .00014314  00000-0  54178-3 0  9993 | 2 62680  97.4076 143.0865 0004695   6.2548 353.8749 15.27030415120126 | 2026/03/01-17:18:49  276.0159    0.1240  353.8692   94.3007     6862.8322     6859.6101     6866.0543 -77.881581  58.503845  -0.000404   0.000239
1 62680U 25009BZ  26061.76985513  .00014658  00000-0  55420-3 0  9990 | 2 62680  97.4075 144.1270 0004600   2.4361 357.6900 15.27061759120287 | 2026/03/02-18:28:35  293.4536    0.1240  357.6879   94.2987     6862.7383     6859.5815     6865.8952 -78.931038  57.079876  -0.000384   0.000253
