# SPACE DATA - HISTORICAL TLEs
# ----------------------------
# NORAD_ID    : 58275
# OBJECT_NAME : FLOCK 4Q 12
# --------------------------------------------------------------------+-----------------------------------------------------------------------+----------------------------------------------------------------------------------------------------------------------------------------
#                  LINE 1                                             |                 LINE 2                                                |      DERIVED PARAMETERS
# --------------------------------------------------------------------+-----------------------------------------------------------------------+----------------------------------------------------------------------------------------------------------------------------------------
# NORAD  COSPAR     TLE_EPOCH      MEANMOT1 MEANMOT2   BSTAR  #  REV  |   NORAD    INC     RAAN     ECC    ARGPER  MEANANOM   MEANMOT     REV |  CAL_DATE              LONG     ARGLAT     PERIOD        SMA         PERIGEE        APOGEE      INC_X      INC_Y      ECC_X      ECC_Y
# ------ ------   -------------- ----------  -------  ------- -- ----     -----  ------- -------- ------- -------- -------- -----------  ----   ------------------- ---------  --------  --------  ------------  ------------   ----------- ---------- ----------  ---------  ---------   
1 62683U 25009CC  25043.00696243  .00009323  00000-0  47161-3 0  9994 | 2 62683  97.4419 125.2057 0005295 234.0136 126.0607 15.17236132 61913 | 2025/02/12-00:10:01   19.5304    0.1233  126.1097   94.9094     6892.3352     6888.6857     6895.9847 -56.176581  79.618563   0.000529  -0.000007
1 62683U 25009CC  25046.76609118  .00013063  00000-0  65750-3 0  9995 | 2 62683  97.4405 128.8980 0005564 219.8851 140.1974 15.17322504 62482 | 2025/02/15-18:23:10  292.8214    0.1233  140.2382   94.9040     6892.0736     6888.2389     6895.9084 -61.186387  75.834537   0.000546  -0.000108
1 62683U 25009CC  25048.81042901  .00011977  00000-0  60225-3 0  9998 | 2 62683  97.4399 130.9062 0005676 211.0283 149.0616 15.17376903 62793 | 2025/02/17-19:27:01  308.7824    0.1233  149.0950   94.9006     6891.9089     6887.9971     6895.8208 -63.805849  73.643382   0.000540  -0.000176
1 62683U 25009CC  25050.12931696  .00011211  00000-0  56342-3 0  9999 | 2 62683  97.4396 132.2021 0005783 206.8991 153.1944 15.17411261 62996 | 2025/02/19-03:06:12   63.5826    0.1234  153.2243   94.8985     6891.8049     6887.8193     6895.7904 -65.454831  72.181305   0.000540  -0.000206
1 62683U 25009CC  25051.71194259  .00012165  00000-0  61027-3 0  9996 | 2 62683  97.4393 133.7569 0005909 202.0702 158.0278 15.17454451 63234 | 2025/02/20-17:05:11  273.3284    0.1233  158.0531   94.8958     6891.6741     6887.6018     6895.7464 -67.389024  70.378524   0.000539  -0.000242
1 62683U 25009CC  25053.16264582  .00012692  00000-0  63582-3 0  9997 | 2 62683  97.4396 135.1822 0006008 196.1122 163.9921 15.17492548 63458 | 2025/02/22-03:54:12   75.5798    0.1233  164.0111   94.8934     6891.5588     6887.4183     6895.6992 -69.118955  68.680752   0.000527  -0.000289
1 62683U 25009CC  25054.48143444  .00013397  00000-0  67016-3 0  9995 | 2 62683  97.4396 136.4778 0006105 190.4008 169.7100 15.17529125 63657 | 2025/02/23-11:33:15  190.3415    0.1233  169.7225   94.8911     6891.4480     6887.2408     6895.6552 -70.654195  67.100375   0.000511  -0.000334
1 62683U 25009CC  25055.60237984  .00014195  00000-0  70916-3 0  9993 | 2 62683  97.4396 137.5791 0006182 187.0268 173.0880 15.17560979 63823 | 2025/02/24-14:27:25  233.8814    0.1233  173.0965   94.8891     6891.3516     6887.0913     6895.6118 -71.930821  65.729998   0.000504  -0.000358
1 62683U 25009CC  25056.92110678  .00014964  00000-0  74643-3 0  9994 | 2 62683  97.4394 138.8748 0006266 183.5165 176.6026 15.17601550 64022 | 2025/02/25-22:06:23  348.6229    0.1234  176.6069   94.8866     6891.2288     6886.9107     6895.5468 -73.398585  64.086538   0.000496  -0.000382
1 62683U 25009CC  25058.56946430  .00017464  00000-0  86892-3 0  9996 | 2 62683  97.4392 140.4941 0006364 178.0054 182.1207 15.17657502 64277 | 2025/02/27-13:40:01  222.0300    0.1234  182.1180   94.8831     6891.0594     6886.6739     6895.4449 -75.180099  61.986695   0.000477  -0.000422
1 62683U 25009CC  25059.88810651  .00015844  00000-0  78777-3 0  9990 | 2 62683  97.4388 141.7895 0006499 172.6884 187.4446 15.17701039 64474 | 2025/02/28-21:18:52  336.7386    0.1234  187.4350   94.8803     6890.9276     6886.4492     6895.4060 -76.561909  60.271004   0.000455  -0.000464
1 62683U 25009CC  25060.94299601  .00012158  00000-0  60512-3 0  9998 | 2 62683  97.4383 142.8263 0006563 169.4449 190.6924 15.17727399 64635 | 2025/03/01-22:37:54  356.4975    0.1234  190.6785   94.8787     6890.8478     6886.3253     6895.3703 -77.639554  58.875478   0.000441  -0.000486
1 62683U 25009CC  25062.12972723  .00008738  00000-0  43574-3 0  9991 | 2 62683  97.4376 143.9923 0006653 166.0604 194.0814 15.17750066 64811 | 2025/03/03-03:06:48   63.7199    0.1233  194.0629   94.8773     6890.7792     6886.1948     6895.3636 -78.820977  57.282978   0.000428  -0.000509
1 62683U 25009CC  25063.18458507  .00009597  00000-0  47790-3 0  9995 | 2 62683  97.4372 145.0289 0006645 163.1645 196.9811 15.17770477 64972 | 2025/03/04-04:25:48   83.4681    0.1234  196.9589   94.8760     6890.7174     6886.1385     6895.2963 -79.844061  55.847416   0.000411  -0.000522
1 62683U 25009CC  25064.76684423  .00011431  00000-0  56789-3 0  9996 | 2 62683  97.4372 146.5838 0006777 157.9376 202.2151 15.17805197 65210 | 2025/03/05-18:24:15  293.0789    0.1234  202.1858   94.8738     6890.6123     6885.9426     6895.2821 -81.330069  53.660300   0.000384  -0.000558
1 62683U 25009CC  25066.21721694  .00009257  00000-0  46028-3 0  9998 | 2 62683  97.4372 148.0092 0006931 153.1822 206.9771 15.17833381 65434 | 2025/03/07-05:12:47   95.2106    0.1233  206.9411   94.8721     6890.5270     6885.7512     6895.3029 -82.639722  51.620581   0.000359  -0.000593
1 62683U 25009CC  25068.52457017  .00013569  00000-0  67173-3 0  9994 | 2 62683  97.4366 150.2766 0007045 146.4914 213.6766 15.17886094 65780 | 2025/03/09-12:35:22  205.8559    0.1233  213.6319   94.8688     6890.3675     6885.5132     6895.2218 -84.616778  48.310370   0.000317  -0.000629
1 62683U 25009CC  25069.77709656  .00011534  00000-0  57111-3 0  9992 | 2 62683  97.4369 151.5075 0007033 143.0123 217.1597 15.17916891 65973 | 2025/03/10-18:39:01  296.7651    0.1234  217.1111   94.8669     6890.2743     6885.4284     6895.1202 -85.635300  46.481661   0.000292  -0.000640
1 62683U 25009CC  25071.16144013  .00013188  00000-0  65175-3 0  9994 | 2 62683  97.4372 152.8679 0007111 138.3154 221.8623 15.17951208 66186 | 2025/03/12-03:52:28   75.1272    0.1234  221.8080   94.8647     6890.1705     6885.2709     6895.0701 -86.714962  44.435609   0.000257  -0.000663
1 62683U 25009CC  25072.21615491  .00017131  00000-0  84438-3 0  9999 | 2 62683  97.4371 153.9045 0007235 135.0834 225.0986 15.17985281 66344 | 2025/03/13-05:11:15   94.8231    0.1233  225.0399   94.8626     6890.0674     6885.0824     6895.0523 -87.504569  42.859524   0.000235  -0.000684
1 62683U 25009CC  25073.79818380  .00014031  00000-0  69154-3 0  9999 | 2 62683  97.4363 155.4589 0007280 130.6417 229.5451 15.18030502 66583 | 2025/03/14-19:09:23  304.3537    0.1234  229.4817   94.8598     6889.9305     6884.9147     6894.9464 -88.634252  40.469766   0.000202  -0.000699
1 62683U 25009CC  25075.77564177  .00016711  00000-0  82106-3 0  9990 | 2 62683  97.4357 157.4024 0007178 125.1127 235.0780 15.18101586 66886 | 2025/03/16-18:36:55  296.2402    0.1233  235.0106   94.8553     6889.7154     6884.7700     6894.6609 -89.955202  37.440316   0.000156  -0.000701
1 62683U 25009CC  25077.22571361  .00020746  00000-0  10161-2 0  9999 | 2 62683  97.4352 158.8276 0007222 120.3306 239.8643 15.18165118 67108 | 2025/03/18-05:25:01   98.2659    0.1234  239.7928   94.8513     6889.5232     6884.5476     6894.4988 -90.858119  35.191199   0.000115  -0.000713
1 62683U 25009CC  25078.74163225  .00022456  00000-0  10971-2 0  9992 | 2 62683  97.4348 160.3172 0007360 116.4354 243.7636 15.18235919 67336 | 2025/03/19-17:47:57  283.9971    0.1234  243.6880   94.8469     6889.3090     6884.2385     6894.3796 -91.741850  32.817270   0.000087  -0.000731
1 62683U 25009CC  25079.79614296  .00018698  00000-0  91333-3 0  9992 | 2 62683  97.4345 161.3545 0007301 113.8423 246.3577 15.18280318 67494 | 2025/03/20-19:06:26  303.6220    0.1234  246.2811   94.8441     6889.1747     6884.1449     6894.2045 -92.320633  31.150965   0.000066  -0.000727
1 62683U 25009CC  25081.18014511  .00029480  00000-0  14335-2 0  9999 | 2 62683  97.4346 162.7152 0007151 109.4883 250.7125 15.18342964 67706 | 2025/03/22-04:19:24   81.8655    0.1235  250.6352   94.8402     6888.9852     6884.0589     6893.9115 -93.034420  28.949922   0.000027  -0.000715
1 62683U 25009CC  25082.49817927  .00021770  00000-0  10585-2 0  9993 | 2 62683  97.4351 164.0107 0007126 105.8289 254.3732 15.18411017 67901 | 2025/03/23-11:57:22  196.3601    0.1235  254.2946   94.8360     6888.7794     6883.8705     6893.6883 -93.665643  26.839262  -0.000002  -0.000713
1 62683U 25009CC  25083.68436581  .00020359  00000-0  98884-3 0  9999 | 2 62683  97.4348 165.1772 0007295 102.4656 257.7395 15.18461117 68083 | 2025/03/24-16:25:29  263.3869    0.1234  257.6578   94.8329     6888.6279     6883.6026     6893.6531 -94.192332  24.926791  -0.000030  -0.000729
1 62683U 25009CC  25084.93640850  .00018913  00000-0  91767-3 0  9990 | 2 62683  97.4349 166.4085 0007283  98.7158 261.4902 15.18511686 68270 | 2025/03/25-22:28:25  354.1241    0.1235  261.4077   94.8297     6888.4749     6883.4581     6893.4918 -94.706321  22.896999  -0.000062  -0.000726
1 62683U 25009CC  25086.18840815  .00022738  00000-0  11003-2 0  9996 | 2 62683  97.4347 167.6396 0007050  94.9464 265.2576 15.18567588 68468 | 2025/03/27-04:31:18   84.8489    0.1235  265.1771   94.8262     6888.3059     6883.4496     6893.1621 -95.176208  20.856896  -0.000091  -0.000699
1 62683U 25009CC  25088.16516836  .00016443  00000-0  79569-3 0  9997 | 2 62683  97.4350 169.5834 0007077  89.2230 270.9815 15.18636538 68761 | 2025/03/29-03:57:50   76.4867    0.1234  270.9004   94.8219     6888.0974     6883.2227     6892.9721 -95.829186  17.616648  -0.000137  -0.000694
1 62683U 25009CC  25089.21940731  .00013381  00000-0  64785-3 0  9991 | 2 62683  97.4346 170.6203 0007110  86.1966 274.0081 15.18665333 68922 | 2025/03/30-05:15:56   96.0147    0.1234  273.9268   94.8201     6888.0103     6883.1129     6892.9077 -96.131896  15.879541  -0.000162  -0.000692
1 62683U 25009CC  25090.47129069  .00012252  00000-0  59303-3 0  9990 | 2 62683  97.4338 171.8514 0007041  82.7237 277.4797 15.18696601 69112 | 2025/03/31-11:18:39  186.6969    0.1234  277.3997   94.8181     6887.9158     6883.0660     6892.7655 -96.450087  13.810359  -0.000187  -0.000679
1 62683U 25009CC  25091.65726050  .00012987  00000-0  62778-3 0  9999 | 2 62683  97.4333 173.0179 0006875  79.1287 281.0720 15.18728547 69298 | 2025/04/01-15:46:27  253.6511    0.1234  280.9947   94.8162     6887.8192     6883.0838     6892.5546 -96.710752  11.843919  -0.000211  -0.000654
1 62683U 25009CC  25092.71143455  .00016936  00000-0  81648-3 0  9994 | 2 62683  97.4329 174.0548 0006721  75.7799 284.4181 15.18762313 69459 | 2025/04/02-17:04:27  273.1586    0.1234  284.3435   94.8140     6887.7171     6883.0879     6892.3463 -96.908849  10.091828  -0.000232  -0.000631
1 62683U 25009CC  25093.76558460  .00016405  00000-0  79022-3 0  9990 | 2 62683  97.4328 175.0918 0006849  72.9476 287.2509 15.18797236 69617 | 2025/04/03-18:22:26  292.6542    0.1235  287.1759   94.8119     6887.6115     6882.8942     6892.3288 -97.075520   8.336303  -0.000256  -0.000635
1 62683U 25009CC  25095.80792342  .00018045  00000-0  86680-3 0  9996 | 2 62683  97.4330 177.1007 0006851  67.4897 292.7062 15.18874719 69922 | 2025/04/05-19:23:24  307.9029    0.1235  292.6338   94.8070     6887.3773     6882.6587     6892.0958 -97.308283   4.928233  -0.000294  -0.000619
1 62683U 25009CC  25097.19138560  .00015506  00000-0  74457-3 0  9994 | 2 62683  97.4330 178.4619 0006695  63.3046 296.8873 15.18920790 70133 | 2025/04/07-04:35:35   85.9557    0.1234  296.8188   94.8042     6887.2380     6882.6270     6891.8490 -97.397895   2.615266  -0.000317  -0.000590
1 62683U 25009CC  25099.16769630  .00017632  00000-0  84450-3 0  9997 | 2 62683  97.4331 180.4061 0006527  56.8104 303.3756 15.18981374 70436 | 2025/04/09-04:01:28   77.4372    0.1235  303.3131   94.8004     6887.0549     6882.5597     6891.5500 -97.430653  -0.690579  -0.000353  -0.000549
1 62683U 25009CC  25100.48518903  .00016297  00000-0  77997-3 0  9994 | 2 62683  97.4333 181.7021 0006504  53.0992 307.0838 15.19024894 70637 | 2025/04/10-11:38:40  191.7401    0.1235  307.0243   94.7977     6886.9233     6882.4441     6891.4026 -97.390310  -2.894050  -0.000375  -0.000531
1 62683U 25009CC  25101.93438888  .00014500  00000-0  69366-3 0  9994 | 2 62683  97.4332 183.1280 0006372  48.8714 311.3070 15.19068158 70857 | 2025/04/11-22:25:31  353.4592    0.1235  311.2521   94.7950     6886.7926     6882.4043     6891.1808 -97.288037  -5.316616  -0.000392  -0.000502
1 62683U 25009CC  25103.18593654  .00018316  00000-0  87381-3 0  9992 | 2 62683  97.4327 184.3594 0006253  44.7259 315.4479 15.19111529 71040 | 2025/04/13-04:27:44   84.0231    0.1235  315.3976   94.7923     6886.6615     6882.3552     6890.9677 -97.150814  -7.406102  -0.000410  -0.000473
1 62683U 25009CC  25104.70092468  .00015357  00000-0  73257-3 0  9997 | 2 62683  97.4323 185.8499 0006081  39.4877 320.6800 15.19155265 71278 | 2025/04/14-16:49:19  269.4277    0.1235  320.6358   94.7895     6886.5293     6882.3416     6890.7170 -96.924904  -9.930565  -0.000427  -0.000433
1 62683U 25009CC  25106.47933379  .00017797  00000-0  84687-3 0  9997 | 2 62683  97.4320 187.6001 0006032  34.7607 325.4021 15.19208433 71543 | 2025/04/16-11:30:14  189.6626    0.1235  325.3628   94.7862     6886.3686     6882.2148     6890.5225 -96.576090 -12.886173  -0.000446  -0.000406
1 62683U 25009CC  25107.79663135  .00013346  00000-0  63556-3 0  9991 | 2 62683  97.4314 188.8968 0005936  30.2343 329.9233 15.19246431 71747 | 2025/04/17-19:07:08  303.8966    0.1235  329.8892   94.7838     6886.2538     6882.1661     6890.3415 -96.259155 -15.068273  -0.000460  -0.000375
1 62683U 25009CC  25109.24562301  .00012871  00000-0  61245-3 0  9991 | 2 62683  97.4314 190.3226 0005767  24.1090 336.0414 15.19283446 71966 | 2025/04/19-05:53:41  105.5432    0.1235  336.0145   94.7815     6886.1419     6882.1707     6890.1132 -95.854418 -17.458761  -0.000476  -0.000326
1 62683U 25009CC  25110.69457888  .00013162  00000-0  62553-3 0  9992 | 2 62683  97.4317 191.7489 0005666  19.7917 340.3536 15.19323121 72184 | 2025/04/20-16:40:11  267.1742    0.1235  340.3318   94.7790     6886.0221     6882.1204     6889.9237 -95.390446 -19.839331  -0.000483  -0.000296
1 62683U 25009CC  25112.20935440  .00014315  00000-0  67908-3 0  9996 | 2 62683  97.4319 193.2398 0005523  15.5269 344.6134 15.19367698 72412 | 2025/04/22-05:01:28   92.5006    0.1235  344.5966   94.7763     6885.8874     6882.0843     6889.6905 -94.842165 -22.314546  -0.000484  -0.000266
1 62683U 25009CC  25114.64608064  .00014729  00000-0  69731-3 0  9990 | 2 62683  97.4321 195.6387 0005309   5.1868 354.9420 15.19432423 72782 | 2025/04/24-15:30:21  249.7364    0.1234  354.9366   94.7722     6885.6918     6882.0362     6889.3474 -93.825233 -26.264802  -0.000496  -0.000189
1 62683U 25009CC  25115.76561995  .00013447  00000-0  63636-3 0  9999 | 2 62683  97.4320 196.7400 0005231   1.8252 358.3001 15.19465721 72952 | 2025/04/25-18:22:29  292.7762    0.1235  358.2983   94.7702     6885.5912     6881.9894     6889.1931 -93.302992 -28.063255  -0.000496  -0.000167
1 62683U 25009CC  25116.81928147  .00014322  00000-0  67688-3 0  9996 | 2 62683  97.4324 197.7776 0005134 357.9265   2.1948 15.19497927 73110 | 2025/04/26-19:39:45  312.0993    0.1236    2.1971   94.7681     6885.4939     6881.9589     6889.0289 -92.779889 -29.748357  -0.000494  -0.000139
1 62683U 25009CC  25118.20217986  .00013834  00000-0  65320-3 0  9991 | 2 62683  97.4320 199.1390 0004997 352.2236   7.8921 15.19538242 73328 | 2025/04/28-04:51:08   89.9499    0.1236    7.9000   94.7656     6885.3721     6881.9315     6888.8128 -92.046540 -31.944156  -0.000490  -0.000098
1 62683U 25009CC  25121.82390168  .00012982  00000-0  61166-3 0  9994 | 2 62683  97.4314 202.7053 0004733 338.0840  22.0192 15.19630790 73879 | 2025/05/01-19:46:25  313.7857    0.1235   22.0395   94.7599     6885.0926     6881.8339     6888.3513 -89.880699 -37.607680  -0.000473  -0.000007
1 62683U 25009CC  25122.94329522  .00014457  00000-0  67996-3 0  9990 | 2 62683  97.4312 203.8077 0004621 333.9475  26.1527 15.19665246 74040 | 2025/05/02-22:38:20  356.7713    0.1236   26.1761   94.7577     6884.9885     6881.8070     6888.1701 -89.140334 -39.329882  -0.000462   0.000018
1 62683U 25009CC  25124.45773268  .00010248  00000-0  48270-3 0  9996 | 2 62683  97.4308 205.2990 0004551 326.3968  33.6978 15.19700435 74278 | 2025/05/04-10:59:08  181.9758    0.1235   33.7267   94.7555     6884.8822     6881.7489     6888.0155 -88.086213 -41.636281  -0.000450   0.000066
1 62683U 25009CC  25126.76225087  .00009730  00000-0  45787-3 0  9997 | 2 62683  97.4314 207.5683 0004400 316.3369  43.7517 15.19749443 74628 | 2025/05/06-18:17:38  291.6105    0.1235   43.7866   94.7525     6884.7342     6881.7049     6887.7635 -86.369017 -45.091803  -0.000423   0.000122
1 62683U 25009CC  25127.94740371  .00008081  00000-0  38065-3 0  9995 | 2 62683  97.4317 208.7354 0004343 311.3208  48.7653 15.19769965 74809 | 2025/05/07-22:44:15  358.2691    0.1235   48.8027   94.7512     6884.6722     6881.6822     6887.6623 -85.432917 -46.841785  -0.000408   0.000148
1 62683U 25009CC  25129.19838076  .00009355  00000-0  43981-3 0  9992 | 2 62683  97.4318 209.9672 0004334 305.7110  54.3722 15.19794240 74999 | 2025/05/09-04:45:40   88.6249    0.1236   54.4126   94.7497     6884.5989     6881.6151     6887.5827 -84.406288 -48.667588  -0.000395   0.000179
1 62683U 25009CC  25130.71269761  .00008969  00000-0  42148-3 0  9995 | 2 62683  97.4318 211.4587 0004313 297.7464  62.3334 15.19820176 75224 | 2025/05/10-17:06:17  273.7835    0.1236   62.3772   94.7481     6884.5206     6881.5513     6887.4899 -83.110940 -50.848081  -0.000370   0.000221
1 62683U 25009CC  25131.76611925  .00008557  00000-0  40209-3 0  9993 | 2 62683  97.4318 212.4962 0004264 293.1413  66.9372 15.19838978 75389 | 2025/05/11-18:23:12  293.0174    0.1235   66.9822   94.7469     6884.4638     6881.5283     6887.3994 -82.176618 -52.344618  -0.000352   0.000241
1 62683U 25009CC  25133.47790171  .00007538  00000-0  35434-3 0  9996 | 2 62683  97.4318 214.1821 0004197 284.8205  75.2565 15.19867684 75645 | 2025/05/13-11:28:10  189.2619    0.1235   75.3030   94.7451     6884.3771     6881.4878     6887.2665 -80.601054 -54.739617  -0.000317   0.000275
1 62683U 25009CC  25134.66296439  .00007253  00000-0  34090-3 0  9997 | 2 62683  97.4315 215.3495 0004223 279.0433  81.0324 15.19885693 75829 | 2025/05/14-15:54:40  255.8864    0.1235   81.0802   94.7440     6884.3228     6881.4155     6887.2300 -79.468839 -56.370212  -0.000295   0.000302
1 62683U 25009CC  25136.17719043  .00007906  00000-0  37101-3 0  9997 | 2 62683  97.4312 216.8411 0004299 271.7579  88.3163 15.19909902 76050 | 2025/05/16-04:15:09   81.0102    0.1234   88.3655   94.7425     6884.2497     6881.2901     6887.2092 -77.974332 -58.419536  -0.000268   0.000336
1 62683U 25009CC  25137.49388801  .00010994  00000-0  51405-3 0  9991 | 2 62683  97.4310 218.1381 0004267 265.7577  94.3170 15.19937211 76256 | 2025/05/17-11:51:11  195.0216    0.1235   94.3658   94.7408     6884.1672     6881.2297     6887.1047 -76.631872 -60.169394  -0.000238   0.000354
1 62683U 25009CC  25138.81056343  .00008787  00000-0  41134-3 0  9996 | 2 62683  97.4309 219.4351 0004274 259.3363 100.7391 15.19959374 76458 | 2025/05/18-19:27:12  309.0248    0.1235  100.7872   94.7394     6884.1003     6881.1580     6887.0425 -75.250228 -61.888476  -0.000206   0.000375
1 62683U 25009CC  25140.19305352  .00006596  00000-0  30951-3 0  9998 | 2 62683  97.4309 220.7971 0004371 253.0396 107.0360 15.19977559 76660 | 2025/05/20-04:37:59   86.7217    0.1235  107.0839   94.7382     6884.0454     6881.0364     6887.0544 -73.757932 -63.659624  -0.000177   0.000400
1 62683U 25009CC  25142.49716447  .00007237  00000-0  33892-3 0  9994 | 2 62683  97.4315 223.0669 0004505 242.7020 117.3756 15.20011913 77013 | 2025/05/22-11:55:55  196.2009    0.1234  117.4214   94.7361     6883.9416     6880.8404     6887.0429 -71.179253 -66.531279  -0.000122   0.000434
1 62683U 25009CC  25143.74794563  .00006581  00000-0  30835-3 0  9993 | 2 62683  97.4318 224.2991 0004558 237.2646 122.8150 15.20029817 77200 | 2025/05/23-17:57:02  286.4807    0.1235  122.8589   94.7350     6883.8876     6880.7499     6887.0253 -69.732300 -68.046763  -0.000091   0.000447
1 62683U 25009CC  25145.52534893  .00006566  00000-0  30743-3 0  9990 | 2 62683  97.4320 226.0502 0004701 229.8693 130.2131 15.20052618 77476 | 2025/05/25-12:36:30  206.3439    0.1235  130.2542   94.7336     6883.8187     6880.5827     6887.0548 -67.620522 -70.145988  -0.000048   0.000468
1 62683U 25009CC  25147.17106900  .00006777  00000-0  31701-3 0  9996 | 2 62683  97.4322 227.6717 0004856 222.9953 137.0903 15.20074383 77720 | 2025/05/27-04:06:20   78.8005    0.1235  137.1282   94.7322     6883.7530     6880.4103     6887.0958 -65.608676 -72.031488  -0.000006   0.000486
1 62683U 25009CC  25148.48762627  .00008039  00000-0  37513-3 0  9995 | 2 62683  97.4319 228.9688 0004928 217.3000 142.7893 15.20095818 77927 | 2025/05/28-11:42:10  192.7580    0.1234  142.8234   94.7309     6883.6883     6880.2960     6887.0806 -63.961110 -73.497970   0.000032   0.000492
1 62683U 25009CC  25149.80416278  .00009124  00000-0  42495-3 0  9991 | 2 62683  97.4312 230.2661 0005052 212.2715 147.8212 15.20121263 78121 | 2025/05/29-19:17:59  306.7081    0.1235  147.8520   94.7293     6883.6115     6880.1339     6887.0891 -62.280257 -74.926686   0.000066   0.000501
1 62683U 25009CC  25151.18650393  .00007909  00000-0  36859-3 0  9999 | 2 62683  97.4309 231.6283 0005213 207.4184 152.6777 15.20144469 78333 | 2025/05/31-04:28:33   84.3478    0.1235  152.7051   94.7278     6883.5415     6879.9531     6887.1298 -60.481266 -76.385842   0.000099   0.000512
1 62683U 25009CC  25152.50299744  .00021863  00000-0  10101-2 0  9991 | 2 62683  97.4308 232.9256 0005301 202.4943 157.6061 15.20190084 78539 | 2025/06/01-12:04:18  198.2815    0.1235  157.6292   94.7250     6883.4038     6879.7549     6887.0526 -58.736310 -77.735492   0.000133   0.000513
1 62683U 25009CC  25154.21439905  .00012599  00000-0  58367-3 0  9999 | 2 62683  97.4311 234.6123 0005435 195.4764 164.6306 15.20217725 78795 | 2025/06/03-05:08:44   94.3796    0.1235  164.6471   94.7233     6883.3203     6879.5792     6887.0614 -56.422951 -79.430912   0.000185   0.000511
1 62683U 25009CC  25155.46501164  .00005015  00000-0  23436-3 0  9998 | 2 62683  97.4311 235.8448 0005613 191.3796 168.7313 15.20233496 78983 | 2025/06/04-11:09:37  184.5964    0.1235  168.7439   94.7223     6883.2727     6879.4091     6887.1363 -54.701376 -80.626166   0.000217   0.000518
1 62683U 25009CC  25156.71560908  .00006940  00000-0  32281-3 0  9994 | 2 62683  97.4314 237.0772 0005734 187.6814 172.4335 15.20254135 79174 | 2025/06/05-17:10:28  274.8077    0.1235  172.4421   94.7210     6883.2104     6879.2636     6887.1572 -52.954796 -81.784273   0.000245   0.000519
1 62683U 25009CC  25157.76873359  .00006539  00000-0  30425-3 0  9999 | 2 62683  97.4314 238.1149 0005817 184.1038 176.0151 15.20267551 79336 | 2025/06/06-18:26:58  293.9289    0.1235  176.0197   94.7202     6883.1699     6879.1660     6887.1739 -51.464974 -82.729887   0.000271   0.000515
1 62683U 25009CC  25159.48003866  .00007300  00000-0  33900-3 0  9996 | 2 62683  97.4320 239.8014 0005961 178.0834 182.0425 15.20293024 79591 | 2025/06/08-11:31:15  189.9919    0.1235  182.0401   94.7186     6883.0930     6878.9900     6887.1960 -49.008182 -84.209220   0.000317   0.000505
1 62683U 25009CC  25160.79640827  .00006328  00000-0  29414-3 0  9990 | 2 62683  97.4319 241.0988 0006077 173.8691 186.2619 15.20310656 79791 | 2025/06/09-19:06:49  303.8800    0.1234  186.2543   94.7175     6883.0398     6878.8570     6887.2226 -47.088907 -85.297186   0.000349   0.000498
1 62683U 25009CC  25162.17858130  .00006215  00000-0  28879-3 0  9991 | 2 62683  97.4318 242.4610 0006194 169.8911 190.2449 15.20327427 80003 | 2025/06/11-04:17:09   81.4574    0.1234  190.2323   94.7164     6882.9892     6878.7259     6887.2525 -45.047814 -86.392419   0.000378   0.000490
1 62683U 25009CC  25163.75818636  .00007331  00000-0  33980-3 0  9992 | 2 62683  97.4317 244.0181 0006352 165.1228 195.0195 15.20351153 80249 | 2025/06/12-18:11:47  290.1087    0.1235  195.0007   94.7150     6882.9176     6878.5456     6887.2896 -42.683580 -87.584520   0.000416   0.000480
1 62683U 25009CC  25165.46938927  .00008655  00000-0  40014-3 0  9994 | 2 62683  97.4311 245.7052 0006492 159.3400 200.8099 15.20386976 80508 | 2025/06/14-11:15:55  186.1337    0.1235  200.7835   94.7127     6882.8095     6878.3411     6887.2778 -40.086237 -88.802662   0.000459   0.000459
1 62683U 25009CC  25167.18055945  .00005889  00000-0  27317-3 0  9992 | 2 62683  97.4308 247.3920 0006603 154.6636 205.4924 15.20409942 80764 | 2025/06/16-04:20:00   82.1487    0.1235  205.4599   94.7113     6882.7402     6878.1955     6887.2848 -37.454760 -89.943881   0.000490   0.000442
1 62683U 25009CC  25169.54983221  .00005971  00000-0  27668-3 0  9992 | 2 62683  97.4311 249.7275 0006801 147.4020 212.7636 15.20440305 81124 | 2025/06/18-13:11:45  215.0771    0.1235  212.7215   94.7094     6882.6485     6877.9676     6887.3294 -33.758459 -91.395764   0.000542   0.000411
1 62683U 25009CC  25170.93188943  .00005050  00000-0  23441-3 0  9998 | 2 62683  97.4313 251.0899 0006896 143.1714 216.9996 15.20453331 81332 | 2025/06/19-22:21:55  352.6121    0.1235  216.9521   94.7086     6882.6092     6877.8630     6887.3555 -31.575944 -92.172762   0.000570   0.000388
1 62683U 25009CC  25172.18231235  .00004534  00000-0  21075-3 0  9997 | 2 62683  97.4316 252.3223 0006912 139.5633 220.6117 15.20463878 81523 | 2025/06/21-04:22:31   82.7604    0.1235  220.5602   94.7079     6882.5774     6877.8202     6887.3346 -29.586299 -92.830855   0.000587   0.000365
1 62683U 25009CC  25173.69596880  .00004718  00000-0  21907-3 0  9992 | 2 62683  97.4320 253.8146 0007013 136.0078 224.1717 15.20478514 81759 | 2025/06/22-16:42:11  267.6719    0.1235  224.1157   94.7070     6882.5332     6877.7065     6887.3599 -27.158819 -93.570258   0.000608   0.000349
1 62683U 25009CC  25175.20961244  .00003801  00000-0  17704-3 0  9993 | 2 62683  97.4321 255.3068 0007102 131.0705 229.1145 15.20490117 81989 | 2025/06/24-05:01:50   92.5778    0.1235  229.0530   94.7063     6882.4982     6877.6103     6887.3862 -24.712984 -94.245862   0.000636   0.000316
1 62683U 25009CC  25176.46000439  .00004061  00000-0  18886-3 0  9993 | 2 62683  97.4320 256.5395 0007169 127.3990 232.7899 15.20500792 82170 | 2025/06/25-11:02:24  182.7147    0.1235  232.7245   94.7056     6882.4660     6877.5320     6887.4000 -22.679729 -94.755604   0.000655   0.000291
1 62683U 25009CC  25177.71038733  .00005007  00000-0  23204-3 0  9991 | 2 62683  97.4317 257.7723 0007221 124.0697 236.1225 15.20513408 82361 | 2025/06/26-17:02:57  272.8489    0.1235  236.0538   94.7049     6882.4279     6877.4581     6887.3977 -20.635772 -95.221327   0.000670   0.000269
1 62683U 25009CC  25179.48722831  .00004364  00000-0  20253-3 0  9992 | 2 62683  97.4314 259.5243 0007270 119.2937 240.9026 15.20530151 82638 | 2025/06/28-11:41:36  192.5069    0.1235  240.8298   94.7038     6882.3774     6877.3739     6887.3809 -17.714831 -95.807424   0.000688   0.000235
1 62683U 25009CC  25180.73758584  .00003678  00000-0  17114-3 0  9995 | 2 62683  97.4313 260.7571 0007311 115.6978 244.5013 15.20541107 82826 | 2025/06/29-17:42:07  282.6325    0.1235  244.4257   94.7031     6882.3443     6877.3127     6887.3760 -15.649440 -96.166279   0.000701   0.000207
1 62683U 25009CC  25182.18535617  .00005284  00000-0  24436-3 0  9996 | 2 62683  97.4312 262.1848 0007344 111.7512 248.4506 15.20558037 83040 | 2025/07/01-04:26:54   83.8264    0.1236  248.3724   94.7021     6882.2933     6877.2389     6887.3476 -13.248539 -96.526240   0.000713   0.000177
1 62683U 25009CC  25183.76472548  .00005685  00000-0  26251-3 0  9996 | 2 62683  97.4310 263.7420 0007394 107.4709 252.7335 15.20575218 83280 | 2025/07/02-18:21:12  292.3962    0.1235  252.6526   94.7010     6882.2414     6877.1527     6887.3301 -10.620531 -96.850421   0.000725   0.000144
1 62683U 25009CC  25185.21246103  .00006308  00000-0  29076-3 0  9995 | 2 62683  97.4312 265.1689 0007362 103.3542 256.8515 15.20595287 83508 | 2025/07/04-05:05:56   93.5798    0.1236  256.7694   94.6998     6882.1809     6877.1142     6887.2475  -8.205531 -97.085055   0.000728   0.000109
1 62683U 25009CC  25186.79178723  .00006464  00000-0  29766-3 0  9990 | 2 62683  97.4314 266.7258 0007338  99.1128 261.0938 15.20617267 83740 | 2025/07/05-19:00:10  302.1361    0.1235  261.0107   94.6984     6882.1145     6877.0644     6887.1646  -5.564743 -97.272357   0.000730   0.000075
1 62683U 25009CC  25188.17367903  .00007699  00000-0  35369-3 0  9991 | 2 62683  97.4315 268.0882 0007306  95.3250 264.8819 15.20638138 83950 | 2025/07/07-04:10:05   79.6165    0.1235  264.7985   94.6971     6882.0516     6877.0235     6887.0796  -3.250414 -97.377266   0.000729   0.000043
1 62683U 25009CC  25189.48975041  .00005784  00000-0  26645-3 0  9994 | 2 62683  97.4318 269.3858 0007339  91.7798 268.4278 15.20653587 84150 | 2025/07/08-11:45:14  193.4010    0.1235  268.3437   94.6961     6882.0050     6876.9542     6887.0557  -1.044431 -97.426202   0.000734   0.000015
1 62683U 25009CC  25190.74000571  .00004437  00000-0  20506-3 0  9996 | 2 62683  97.4318 270.6188 0007315  88.2788 271.9285 15.20666030 84340 | 2025/07/09-17:45:36  283.4926    0.1235  271.8447   94.6953     6881.9674     6876.9333     6887.0016   1.052252 -97.426118   0.000731  -0.000014
1 62683U 25009CC  25191.79284185  .00006363  00000-0  29256-3 0  9998 | 2 62683  97.4295 271.6554 0007129  84.6664 275.5376 15.20682512 84500 | 2025/07/10-19:01:41  302.5180    0.1227  275.4563   94.6943     6881.9177     6877.0116     6886.8238   2.814559 -97.388838   0.000711  -0.000046
1 62683U 25009CC  25193.50369417  .00005868  00000-0  26992-3 0  9994 | 2 62683  97.4313 273.3443 0007191  80.7260 279.4788 15.20694659 84768 | 2025/07/12-12:05:19  198.4214    0.1235  279.3975   94.6936     6881.8810     6876.9323     6886.8298   5.683743 -97.265376   0.000715  -0.000074
1 62683U 25009CC  25194.68811358  .00006147  00000-0  28248-3 0  9997 | 2 62683  97.4308 274.5122 0007168  77.4811 282.7225 15.20710465 84945 | 2025/07/13-16:30:53  264.8131    0.1235  282.6424   94.6926     6881.8334     6876.9005     6886.7662   7.665014 -97.128823   0.000710  -0.000100
1 62683U 25009CC  25195.93832190  .00004993  00000-0  23001-3 0  9992 | 2 62683  97.4308 275.7453 0007135  73.9438 286.2583 15.20723838 85131 | 2025/07/14-22:31:11  354.8888    0.1236  286.1798   94.6917     6881.7930     6876.8828     6886.7032   9.753451 -96.941379   0.000702  -0.000128
1 62683U 25009CC  25197.18851900  .00005175  00000-0  23814-3 0  9996 | 2 62683  97.4305 276.9781 0007049  70.4430 289.7566 15.20737939 85320 | 2025/07/16-04:31:28   84.9617    0.1236  289.6806   94.6909     6881.7505     6876.8995     6886.6014  11.836827 -96.708799   0.000688  -0.000154
1 62683U 25009CC  25198.70189938  .00005973  00000-0  27422-3 0  9995 | 2 62683  97.4303 278.4703 0006950  66.0096 294.1866 15.20756794 85556 | 2025/07/17-16:50:44  269.7815    0.1235  294.1139   94.6897     6881.6936     6876.9108     6886.4764  14.351164 -96.367564   0.000670  -0.000186
1 62683U 25009CC  25199.82047306  .00005897  00000-0  27066-3 0  9990 | 2 62683  97.4304 279.5732 0006890  62.8542 297.3395 15.20770408 85723 | 2025/07/18-19:41:28  312.4701    0.1235  297.2693   94.6888     6881.6525     6876.9111     6886.3940  16.203409 -96.073578   0.000657  -0.000208
1 62683U 25009CC  25201.20222813  .00004736  00000-0  21797-3 0  9990 | 2 62683  97.4306 280.9357 0006822  58.9137 301.2767 15.20783895 85930 | 2025/07/20-04:51:12   89.9047    0.1236  301.2099   94.6880     6881.6118     6876.9172     6886.3065  18.483291 -95.661329   0.000640  -0.000235
1 62683U 25009CC  25202.78136078  .00005248  00000-0  24103-3 0  9994 | 2 62683  97.4309 282.4928 0006705  54.3003 305.8856 15.20801021 86174 | 2025/07/21-18:45:09  298.3963    0.1236  305.8233   94.6869     6881.5602     6876.9461     6886.1742  21.075953 -95.124048   0.000616  -0.000264
1 62683U 25009CC  25204.16308621  .00007174  00000-0  32809-3 0  9995 | 2 62683  97.4312 283.8554 0006546  50.2259 309.9552 15.20820322 86385 | 2025/07/23-03:54:50   75.8216    0.1236  309.8977   94.6857     6881.5019     6876.9973     6886.0066  23.332078 -94.596262   0.000589  -0.000286
1 62683U 25009CC  25205.47899726  .00006916  00000-0  31625-3 0  9999 | 2 62683  97.4309 285.1534 0006496  45.8999 314.2770 15.20839237 86587 | 2025/07/24-11:29:45  189.5528    0.1236  314.2237   94.6846     6881.4449     6876.9747     6885.9151  25.468849 -94.043171   0.000568  -0.000314
1 62683U 25009CC  25206.79489085  .00005868  00000-0  26872-3 0  9991 | 2 62683  97.4308 286.4512 0006363  41.7634 318.4087 15.20857896 86780 | 2025/07/25-19:04:38  303.2785    0.1237  318.3603   94.6834     6881.3886     6877.0100     6885.7672  27.592266 -93.442109   0.000541  -0.000335
1 62683U 25009CC  25208.17656377  .00006826  00000-0  31184-3 0  9992 | 2 62683  97.4304 287.8141 0006256  37.3232 322.8437 15.20877096 86990 | 2025/07/27-04:14:15   80.6849    0.1236  322.8004   94.6822     6881.3307     6877.0257     6885.6356  29.806844 -92.759015   0.000513  -0.000358
1 62683U 25009CC  25210.47931273  .00006752  00000-0  30824-3 0  9997 | 2 62683  97.4297 290.0851 0006086  30.2172 329.9414 15.20909085 87348 | 2025/07/29-11:30:12  189.6815    0.1236  329.9064   94.6802     6881.2342     6877.0463     6885.4221  33.458866 -91.504375   0.000468  -0.000389
1 62683U 25009CC  25211.79514862  .00006780  00000-0  30936-3 0  9999 | 2 62683  97.4294 291.3827 0005959  25.8988 334.2545 15.20926493 87543 | 2025/07/30-19:05:00  303.3871    0.1236  334.2248   94.6791     6881.1817     6877.0812     6885.2822  35.522335 -90.722939   0.000438  -0.000404
1 62683U 25009CC  25213.17675758  .00007543  00000-0  34357-3 0  9994 | 2 62683  97.4293 292.7452 0005806  20.9849 339.1623 15.20947912 87757 | 2025/08/01-04:14:31   80.7717    0.1235  339.1386   94.6778     6881.1171     6877.1219     6885.1123  37.669451 -89.852551   0.000401  -0.000420
1 62683U 25009CC  25215.21624132  .00006579  00000-0  29984-3 0  9999 | 2 62683  97.4296 294.7564 0005622  14.3432 345.7962 15.20977623 88063 | 2025/08/03-05:11:23   94.9926    0.1236  345.7804   94.6759     6881.0275     6877.1590     6884.8960  40.799734 -88.475469   0.000355  -0.000436
1 62683U 25009CC  25216.53201902  .00005932  00000-0  27058-3 0  9993 | 2 62683  97.4298 296.0541 0005526   9.6535 350.4805 15.20992405 88265 | 2025/08/04-12:46:06  208.6772    0.1235  350.4700   94.6750     6880.9829     6877.1805     6884.7853  42.793079 -87.528957   0.000323  -0.000449
1 62683U 25009CC  25218.76881012  .00006072  00000-0  27669-3 0  9990 | 2 62683  97.4301 298.2602 0005291   1.4765 358.6485 15.21019228 88602 | 2025/08/06-18:27:05  293.9296    0.1236  358.6471   94.6734     6880.9020     6877.2613     6884.5427  46.130861 -85.817062   0.000262  -0.000459
1 62683U 25009CC  25220.41348437  .00005289  00000-0  24128-3 0  9990 | 2 62683  97.4301 299.8826 0005138 355.0648   5.0536 15.21037328 88853 | 2025/08/08-09:55:25  166.0176    0.1236    5.0588   94.6722     6880.8474     6877.3120     6884.3828  48.542058 -84.476582   0.000217  -0.000466
1 62683U 25009CC  25222.45284745  .00007576  00000-0  34387-3 0  9996 | 2 62683  97.4297 301.8944 0004970 347.0419  13.0688 15.21069158 89160 | 2025/08/10-10:52:06  180.1943    0.1236   13.0817   94.6703     6880.7514     6877.3317     6884.1711  51.477504 -82.720089   0.000161  -0.000470
1 62683U 25009CC  25223.76854370  .00007274  00000-0  33012-3 0  9997 | 2 62683  97.4292 303.1922 0004859 341.9968  18.1095 15.21088527 89365 | 2025/08/11-18:26:42  293.8483    0.1236   18.1268   94.6690     6880.6930     6877.3497     6884.0363  53.337548 -81.532540   0.000127  -0.000469
1 62683U 25009CC  25225.47892440  .00007386  00000-0  33492-3 0  9993 | 2 62683  97.4286 304.8794 0004724 335.3574  24.7435 15.21113389 89629 | 2025/08/13-11:29:39  189.5894    0.1236   24.7662   94.6675     6880.6180     6877.3676     6883.8684  55.714639 -79.926286   0.000084  -0.000465
1 62683U 25009CC  25226.66301981  .00006506  00000-0  29530-3 0  9991 | 2 62683  97.4282 306.0471 0004664 329.8847  30.2119 15.21127326 89802 | 2025/08/14-15:54:44  255.8675    0.1235   30.2388   94.6666     6880.5760     6877.3669     6883.7851  57.331635 -78.773967   0.000048  -0.000464
1 62683U 25009CC  25228.17601396  .00006170  00000-0  28010-3 0  9991 | 2 62683  97.4282 307.5392 0004573 323.1579  36.9342 15.21145587 90035 | 2025/08/16-04:13:27   80.5490    0.1236   36.9657   94.6655     6880.5209     6877.3745     6883.6674  59.363399 -77.254391   0.000006  -0.000457
1 62683U 25009CC  25229.49164513  .00006214  00000-0  28193-3 0  9993 | 2 62683  97.4283 308.8368 0004499 317.3391  42.7495 15.21162455 90236 | 2025/08/17-11:47:58  194.1789    0.1236   42.7845   94.6644     6880.4701     6877.3745     6883.5656  61.097700 -75.890347  -0.000030  -0.000449
1 62683U 25009CC  25231.20194370  .00006218  00000-0  28193-3 0  9993 | 2 62683  97.4287 310.5236 0004410 309.8462  50.2385 15.21184756 90490 | 2025/08/19-04:50:47   89.8892    0.1236   50.2774   94.6631     6880.4028     6877.3686     6883.4371  63.305389 -74.059296  -0.000074  -0.000435
1 62683U 25009CC  25232.25442234  .00007819  00000-0  35345-3 0  9999 | 2 62683  97.4288 311.5618 0004376 304.8482  55.2341 15.21201746 90658 | 2025/08/20-06:06:22  108.7831    0.1235   55.2753   94.6620     6880.3516     6877.3407     6883.3624  64.636945 -72.900181  -0.000103  -0.000425
1 62683U 25009CC  25234.16201344  .00006926  00000-0  31326-3 0  9999 | 2 62683  97.4290 313.4437 0004320 295.5556  64.5232 15.21227524 90944 | 2025/08/22-03:53:17   75.5177    0.1235   64.5679   94.6604     6880.2739     6877.3016     6883.2461  66.996221 -70.738366  -0.000155  -0.000403
1 62683U 25009CC  25235.80646324  .00005858  00000-0  26533-3 0  9999 | 2 62683  97.4286 315.0659 0004321 287.8816  72.1948 15.21247098 91192 | 2025/08/23-19:21:18  307.5207    0.1236   72.2420   94.6592     6880.2148     6877.2419     6883.1878  68.971616 -68.813140  -0.000197  -0.000385
1 62683U 25009CC  25236.92467150  .00010761  00000-0  48409-3 0  9996 | 2 62683  97.4281 316.1691 0004325 282.6743  77.4009 15.21273710 91366 | 2025/08/24-22:11:31  350.0758    0.1236   77.4493   94.6575     6880.1346     6877.1589     6883.1103  70.283350 -67.472108  -0.000224  -0.000370
1 62683U 25009CC  25238.17440543  .00015607  00000-0  69941-3 0  9990 | 2 62683  97.4277 317.4020 0004443 277.0173  83.0558 15.21315556 91555 | 2025/08/26-04:11:08   79.9811    0.1236   83.1063   94.6549     6880.0084     6876.9516     6883.0652  71.718548 -65.943966  -0.000259  -0.000361
1 62683U 25009CC  25239.48987442  .00020215  00000-0  90305-3 0  9998 | 2 62683  97.4271 318.6999 0004353 271.3854  88.6883 15.21369375 91752 | 2025/08/27-11:45:25  193.5480    0.1236   88.7382   94.6516     6879.8462     6876.8514     6882.8410  73.193374 -64.302176  -0.000279  -0.000334
1 62683U 25009CC  25240.80529447  .00022331  00000-0  99518-3 0  9999 | 2 62683  97.4268 319.9976 0004449 265.6233  94.4495 15.21428871 91953 | 2025/08/28-19:19:37  307.0989    0.1236   94.5003   94.6479     6879.6668     6876.6061     6882.7276  74.630635 -62.627866  -0.000311  -0.000318
1 62683U 25009CC  25242.12066090  .00023528  00000-0  10462-2 0  9995 | 2 62683  97.4260 321.2951 0004605 260.9458  99.1257 15.21492957 92152 | 2025/08/30-02:53:45   60.6311    0.1236   99.1778   94.6439     6879.4736     6876.3056     6882.6416  76.029003 -60.921393  -0.000341  -0.000310
1 62683U 25009CC  25243.17291200  .00028111  00000-0  12465-2 0  9992 | 2 62683  97.4263 322.3331 0004651 256.8432 103.2285 15.21551947 92317 | 2025/08/31-04:08:59   79.4405    0.1236  103.2804   94.6402     6879.2958     6876.0963     6882.4954  77.120387 -59.534274  -0.000361  -0.000294
1 62683U 25009CC  25244.22512355  .00027325  00000-0  12098-2 0  9994 | 2 62683  97.4268 323.3715 0004628 252.6202 107.4528 15.21609110 92471 | 2025/09/01-05:24:10   98.2341    0.1236  107.5034   94.6367     6879.1235     6875.9399     6882.3072  78.187034 -58.127181  -0.000374  -0.000272
1 62683U 25009CC  25245.47457179  .00042331  00000-0  18643-2 0  9990 | 2 62683  97.4269 324.6042 0004697 247.1444 112.9297 15.21691427 92669 | 2025/09/02-11:23:23  188.0331    0.1237  112.9793   94.6315     6878.8754     6875.6444     6882.1064  79.419511 -56.431747  -0.000399  -0.000247
1 62683U 25009CC  25246.78970313  .00030188  00000-0  13292-2 0  9997 | 2 62683  97.4270 325.9022 0004835 242.6785 117.3959 15.21776909 92860 | 2025/09/03-18:57:10  301.4784    0.1236  117.4451   94.6262     6878.6178     6875.2920     6881.9436  80.677531 -54.618278  -0.000425  -0.000231
1 62683U 25009CC  25248.17052447  .00025221  00000-0  11096-2 0  9993 | 2 62683  97.4273 327.2654 0004927 237.7511 122.3247 15.21842149 93073 | 2025/09/05-04:05:33   78.5705    0.1235  122.3724   94.6222     6878.4212     6875.0322     6881.8102  81.954324 -52.683656  -0.000446  -0.000208
1 62683U 25009CC  25249.81428062  .00029701  00000-0  13022-2 0  9993 | 2 62683  97.4273 328.8878 0005016 231.2855 128.7933 15.21925945 93324 | 2025/09/06-19:32:33  310.3174    0.1236  128.8381   94.6170     6878.1688     6874.7187     6881.6189  83.413073 -50.342210  -0.000471  -0.000173
1 62683U 25009CC  25251.19497010  .00019203  00000-0  84283-3 0  9990 | 2 62683  97.4268 330.2516 0005114 226.0672 134.0143 15.21979382 93532 | 2025/09/08-04:40:45   87.3600    0.1236  134.0564   94.6136     6878.0078     6874.4904     6881.5252  84.587182 -48.342424  -0.000491  -0.000144
1 62683U 25009CC  25252.77284829  .00016267  00000-0  71364-3 0  9990 | 2 62683  97.4263 331.8095 0005251 220.3357 139.7491 15.22030093 93777 | 2025/09/09-18:32:54  295.3902    0.1237  139.7880   94.6105     6877.8550     6874.2434     6881.4666  85.869767 -46.024635  -0.000513  -0.000110
1 62683U 25009CC  25253.95622171  .00014187  00000-0  62229-3 0  9996 | 2 62683  97.4258 332.9778 0005303 215.0360 145.0528 15.22066891 93950 | 2025/09/10-22:56:57    1.3987    0.1236  145.0876   94.6082     6877.7441     6874.0969     6881.3914  86.789879 -44.264019  -0.000525  -0.000074
1 62683U 25009CC  25255.46826929  .00011701  00000-0  51333-3 0  9994 | 2 62683  97.4250 334.4707 0005431 209.4321 150.6611 15.22108899 94183 | 2025/09/12-11:14:18  185.7289    0.1237  150.6916   94.6056     6877.6176     6873.8824     6881.3528  87.912911 -41.987506  -0.000542  -0.000037
1 62683U 25009CC  25256.78306117  .00015013  00000-0  65669-3 0  9999 | 2 62683  97.4249 335.7688 0005563 205.1705 154.9261 15.22147366 94380 | 2025/09/13-18:47:36  299.0484    0.1236  154.9531   94.6032     6877.5017     6873.6758     6881.3277  88.841451 -39.985094  -0.000556  -0.000009
1 62683U 25009CC  25257.96634569  .00015976  00000-0  69782-3 0  9993 | 2 62683  97.4252 336.9368 0005654 201.0250 159.0754 15.22183026 94569 | 2025/09/14-23:11:32    5.0253    0.1235  159.0985   94.6010     6877.3943     6873.5058     6881.2828  89.638325 -38.165957  -0.000565   0.000020
1 62683U 25009CC  25259.47826772  .00021172  00000-0  92129-3 0  9996 | 2 62683  97.4255 338.4296 0005739 195.3816 164.7247 15.22249675 94794 | 2025/09/16-11:28:42  189.3088    0.1236  164.7420   94.5968     6877.1936     6873.2467     6881.1404  90.602455 -35.817917  -0.000571   0.000062
1 62683U 25009CC  25260.85866612  .00017474  00000-0  76016-3 0  9994 | 2 62683  97.4257 339.7928 0005847 191.1171 168.9937 15.22298984 95004 | 2025/09/17-20:36:28  326.2451    0.1236  169.0065   94.5938     6877.0451     6873.0240     6881.0661  91.429112 -33.652408  -0.000577   0.000092
1 62683U 25009CC  25262.17329006  .00017861  00000-0  77582-3 0  9991 | 2 62683  97.4259 341.0912 0005925 187.0600 173.0554 15.22346360 95209 | 2025/09/19-04:09:32   79.5025    0.1236  173.0636   94.5908     6876.9024     6872.8278     6880.9769  92.168370 -31.572102  -0.000580   0.000122
1 62683U 25009CC  25263.94796411  .00022510  00000-0  97424-3 0  9999 | 2 62683  97.4261 342.8444 0006000 180.7008 179.4221 15.22419811 95470 | 2025/09/20-22:45:04  358.3736    0.1236  179.4228   94.5863     6876.6812     6872.5552     6880.8072  93.091343 -28.737552  -0.000575   0.000170
1 62683U 25009CC  25265.19675345  .00027699  00000-0  11951-2 0  9993 | 2 62683  97.4253 344.0784 0006042 177.0329 183.0944 15.22481652 95669 | 2025/09/22-04:43:19   87.9302    0.1236  183.0907   94.5824     6876.4950     6872.3402     6880.6497  93.687867 -26.725880  -0.000572   0.000196
1 62683U 25009CC  25267.29982885  .00033301  00000-0  14288-2 0  9999 | 2 62683  97.4250 346.1561 0006111 171.1653 188.9692 15.22631305 95985 | 2025/09/24-07:11:45  125.0254    0.1236  188.9583   94.5731     6876.0444     6871.8424     6880.2463  94.594924 -23.311608  -0.000564   0.000236
1 62683U 25009CC  25268.81128853  .00034607  00000-0  14799-2 0  9992 | 2 62683  97.4239 347.6491 0006160 165.3830 194.7586 15.22735971 96214 | 2025/09/25-19:28:15  309.1405    0.1236  194.7406   94.5666     6875.7293     6871.4939     6879.9647  95.169115 -20.838805  -0.000549   0.000279
1 62683U 25009CC  25269.92838884  .00033297  00000-0  14212-2 0  9991 | 2 62683  97.4236 348.7532 0006137 162.7210 197.4237 15.22809988 96387 | 2025/09/26-22:16:52  351.2905    0.1237  197.4027   94.5620     6875.5065     6871.2870     6879.7260  95.552694 -19.001065  -0.000539   0.000293
1 62683U 25009CC  25271.17684956  .00038904  00000-0  16545-2 0  9991 | 2 62683  97.4237 349.9874 0006067 159.3485 200.7998 15.22896181 96572 | 2025/09/28-04:14:39   80.7291    0.1236  200.7751   94.5567     6875.2471     6871.0759     6879.4183  95.939892 -16.938547  -0.000522   0.000309
1 62683U 25009CC  25272.22812605  .00038554  00000-0  16359-2 0  9996 | 2 62683  97.4239 351.0263 0006086 155.5495 204.6031 15.22976807 96733 | 2025/09/29-05:28:30   99.1816    0.1236  204.5741   94.5517     6875.0044     6870.8203     6879.1885  96.231436 -15.196285  -0.000508   0.000335
1 62683U 25009CC  25273.80490913  .00045168  00000-0  19050-2 0  9995 | 2 62683  97.4237 352.5843 0006200 150.4131 209.7457 15.23141386 96971 | 2025/09/30-19:19:04  306.8135    0.1236  209.7105   94.5415     6874.5092     6870.2470     6878.7714  96.608832 -12.574216  -0.000495   0.000373
1 62683U 25009CC  25275.18445830  .00044025  00000-0  18500-2 0  9996 | 2 62683  97.4236 353.9482 0006095 147.0073 213.1545 15.23273045 97182 | 2025/10/02-04:25:37   83.4441    0.1236  213.1163   94.5333     6874.1130     6869.9233     6878.3028  96.880657 -10.271131  -0.000473   0.000384
1 62683U 25009CC  25279.65091535  .00023194  00000-0  97036-3 0  9997 | 2 62683  97.4237 358.3663 0006129 133.7167 226.4578 15.23564544 97862 | 2025/10/06-15:37:19  251.3401    0.1236  226.4069   94.5152     6873.2362     6869.0236     6877.4488  97.384099  -2.777509  -0.000411   0.000455
1 62683U 25009CC  25280.76741291  .00030100  00000-0  12548-2 0  9991 | 2 62683  97.4244 359.4714 0006209 130.3230 229.8550 15.23628941 98031 | 2025/10/07-18:25:04  293.2711    0.1236  229.8006   94.5112     6873.0425     6868.7751     6877.3100  97.420254  -0.898806  -0.000397   0.000477
1 62683U 25009CC  25282.21221427  .00023464  00000-0  97715-3 0  9992 | 2 62683  97.4235   0.9013 0006302 125.1335 235.0494 15.23716889 98252 | 2025/10/09-05:05:35   93.3889    0.1237  234.9902   94.5057     6872.7781     6868.4468     6877.1093  97.411446   1.532472  -0.000371   0.000510
1 62683U 25009CC  25283.45993963  .00024560  00000-0  10207-2 0  9998 | 2 62683  97.4229   2.1352 0006249 121.7373 238.4474 15.23777174 98449 | 2025/10/10-11:02:18  182.5641    0.1237  238.3864   94.5020     6872.5968     6868.3021     6876.8915  97.355259   3.629748  -0.000348   0.000519
1 62683U 25009CC  25285.16727337  .00027931  00000-0  11568-2 0  9994 | 2 62683  97.4223   3.8242 0006180 116.7725 243.4145 15.23866247 98708 | 2025/10/12-04:00:52   77.1958    0.1237  243.3512   94.4965     6872.3290     6868.0819     6876.5761  97.205378   6.497613  -0.000315   0.000532
1 62683U 25009CC  25286.21787940  .00035069  00000-0  14470-2 0  9993 | 2 62683  97.4221   4.8636 0006183 113.5284 246.6603 15.23944508 98860 | 2025/10/13-05:13:44   95.4084    0.1237  246.5953   94.4916     6872.0937     6867.8447     6876.3427  97.071318   8.259828  -0.000294   0.000544
1 62683U 25009CC  25288.58158519  .00028334  00000-0  11664-2 0  9998 | 2 62683  97.4224   7.2028 0006047 106.9696 253.2204 15.24069492 99220 | 2025/10/15-13:57:28  226.3318    0.1237  253.1541   94.4839     6871.7180     6867.5627     6875.8733  96.653598  12.214988  -0.000248   0.000552
1 62683U 25009CC  25289.89467785  .00038294  00000-0  15700-2 0  9992 | 2 62683  97.4229   8.5028 0006108 102.5745 257.6176 15.24139342 99424 | 2025/10/16-21:28:20  339.0373    0.1237  257.5492   94.4796     6871.5080     6867.3109     6875.7052  96.352090  14.404730  -0.000220   0.000570
1 62683U 25009CC  25291.20770615  .00033094  00000-0  13552-2 0  9995 | 2 62683  97.4229   9.8031 0006093  98.4613 261.7316 15.24213804 99622 | 2025/10/18-04:59:05   91.7205    0.1238  261.6625   94.4749     6871.2842     6867.0976     6875.4709  96.000398  16.587497  -0.000191   0.000579
1 62683U 25009CC  25292.25807039  .00046723  00000-0  19033-2 0  9995 | 2 62683  97.4226  10.8430 0006059  95.5878 264.6051 15.24306242 99781 | 2025/10/19-06:11:37  109.8471    0.1238  264.5360   94.4692     6871.0064     6866.8433     6875.1696  95.683251  18.326989  -0.000171   0.000581
1 62683U 25009CC  25293.83350617  .00033106  00000-0  13474-2 0  9999 | 2 62683  97.4228  12.4033 0005990  90.7341 269.4583 15.24420825100022 | 2025/10/20-20:00:14  316.9970    0.1238  269.3897   94.4621     6870.6621     6866.5466     6874.7777  95.148943  20.925597  -0.000136   0.000583
1 62683U 25009CC  25295.21192095  .00029621  00000-0  12032-2 0  9993 | 2 62683  97.4226  13.7685 0006001  86.2434 273.9490 15.24508477100234 | 2025/10/22-05:05:09   93.2197    0.1238  273.8804   94.4567     6870.3988     6866.2759     6874.5217  94.623188  23.186531  -0.000104   0.000591
1 62683U 25009CC  25296.45899382  .00031165  00000-0  12628-2 0  9990 | 2 62683  97.4219  15.0040 0005950  82.7986 277.3928 15.24582863100427 | 2025/10/23-11:00:57  182.1606    0.1238  277.3252   94.4521     6870.1753     6866.0875     6874.2631  94.100569  25.221213  -0.000081   0.000589
1 62683U 25009CC  25297.96852555  .00030275  00000-0  12236-2 0  9994 | 2 62683  97.4214  16.4993 0005848  77.7306 282.4586 15.24673759100657 | 2025/10/24-23:14:40    5.5868    0.1238  282.3932   94.4464     6869.9022     6865.8847     6873.9198  93.409899  27.668031  -0.000043   0.000583
1 62683U 25009CC  25299.21546189  .00024523  00000-0  99034-3 0  9998 | 2 62683  97.4211  17.7347 0005867  73.9578 286.2305 15.24745178100848 | 2025/10/26-05:10:15   94.4784    0.1237  286.1659   94.4420     6869.6877     6865.6573     6873.7182  92.791374  29.675438  -0.000017   0.000586
1 62683U 25009CC  25301.18420182  .00027953  00000-0  11247-2 0  9991 | 2 62683  97.4205  19.6851 0005672  67.2428 292.9408 15.24844380101143 | 2025/10/28-04:25:15   83.2196    0.1237  292.8809   94.4359     6869.3898     6865.4935     6873.2861  91.727068  32.816136   0.000030   0.000566
1 62683U 25009CC  25302.69347829  .00027358  00000-0  10981-2 0  9997 | 2 62683  97.4208  21.1800 0005669  62.7969 297.3846 15.24929652101370 | 2025/10/29-16:38:36  266.5539    0.1238  297.3269   94.4306     6869.1337     6865.2396     6873.0278  90.840023  35.198048   0.000059   0.000564
1 62683U 25009CC  25304.13704313  .00030551  00000-0  12217-2 0  9996 | 2 62683  97.4210  22.6109 0005678  58.5197 301.6595 15.25030299101592 | 2025/10/31-03:17:20   66.2315    0.1238  301.6041   94.4244     6868.8315     6864.9313     6872.7316  89.932939  37.455544   0.000088   0.000561
1 62683U 25009CC  25305.18685102  .00027940  00000-0  11158-2 0  9997 | 2 62683  97.4207  23.6510 0005570  54.9164 305.2596 15.25096503101759 | 2025/11/01-04:29:03   84.1602    0.1239  305.2075   94.4203     6868.6327     6864.8068     6872.4585  89.237947  39.081731   0.000110   0.000546
1 62683U 25009CC  25307.94241780  .00026411  00000-0  10507-2 0  9992 | 2 62683  97.4219  26.3837 0005422  46.6949 313.4740 15.25237612102176 | 2025/11/03-22:37:04  356.1547    0.1238  313.4289   94.4115     6868.2090     6864.4851     6871.9330  87.274261  43.292377   0.000158   0.000519
1 62683U 25009CC  25309.18889590  .00021924  00000-0  87156-3 0  9996 | 2 62683  97.4216  27.6198 0005313  41.7162 318.4480 15.25300612102367 | 2025/11/05-04:32:00   84.8840    0.1238  318.4076   94.4076     6868.0199     6864.3709     6871.6689  86.319768  45.164874   0.000187   0.000497
1 62683U 25009CC  25310.69771019  .00033633  00000-0  13291-2 0  9998 | 2 62683  97.4211  29.1158 0005234  37.0814 323.0784 15.25409060102590 | 2025/11/06-16:44:42  268.0527    0.1238  323.0424   94.4009     6867.6944     6864.0998     6871.2889  85.110782  47.402800   0.000211   0.000479
1 62683U 25009CC  25312.00963407  .00031022  00000-0  12232-2 0  9993 | 2 62683  97.4205  30.4167 0005204  33.0832 327.0730 15.25499461102792 | 2025/11/08-00:13:52   20.3411    0.1238  327.0406   94.3953     6867.4231     6863.8493     6870.9969  84.012140  49.322551   0.000232   0.000466
1 62683U 25009CC  25314.83001251  .00034456  00000-0  13503-2 0  9992 | 2 62683  97.4196  33.2139 0005005  23.3427 336.8038 15.25685343103226 | 2025/11/10-19:55:13  315.6697    0.1239  336.7812   94.3838     6866.8653     6863.4284     6870.3021  81.504301  53.363165   0.000276   0.000418
1 62683U 25009CC  25316.20727941  .00032644  00000-0  12759-2 0  9995 | 2 62683  97.4198  34.5801 0004953  19.2473 340.8952 15.25784440103435 | 2025/11/12-04:58:28   91.4811    0.1239  340.8766   94.3777     6866.5679     6863.1669     6869.9689  80.208989  55.291369   0.000292   0.000400
1 62683U 25009CC  25317.64996825  .00051163  00000-0  19808-2 0  9992 | 2 62683  97.4192  36.0110 0004922  13.8450 346.2922 15.25992266103658 | 2025/11/13-15:35:57  250.8455    0.1238  346.2788   94.3648     6865.9445     6862.5650     6869.3239  78.802793  57.276699   0.000317   0.000376
1 62683U 25009CC  25320.20716743  .00038018  00000-0  14673-2 0  9996 | 2 62683  97.4201  38.5499 0004785   3.7194 356.4079 15.26171117104041 | 2025/11/16-04:58:19   91.4287    0.1239  356.4045   94.3538     6865.4080     6862.1229     6868.6931  76.188919  60.711816   0.000354   0.000322
1 62683U 25009CC  25321.91180436  .00027134  00000-0  10460-2 0  9996 | 2 62683  97.4203  40.2427 0004707 356.2846   3.8357 15.26284127104305 | 2025/11/17-21:52:59  345.0923    0.1239    3.8393   94.3468     6865.0692     6861.8378     6868.3005  74.362355  62.936118   0.000378   0.000280
1 62683U 25009CC  25323.22298411  .00025953  00000-0  99860-3 0  9994 | 2 62683  97.4204  41.5448 0004646 351.9612   8.1552 15.26358027104506 | 2025/11/19-05:21:05   97.1112    0.1240    8.1628   94.3422     6864.8476     6861.6582     6868.0370  72.913069  64.609741   0.000387   0.000256
1 62683U 25009CC  25324.79632678  .00023160  00000-0  88985-3 0  9998 | 2 62683  97.4198  43.1072 0004513 345.8087  14.3024 15.26430412104748 | 2025/11/20-19:06:42  303.5082    0.1239   14.3152   94.3377     6864.6305     6861.5325     6867.7285  71.123898  66.573333   0.000395   0.000218
1 62683U 25009CC  25326.17292807  .00029368  00000-0  11237-2 0  9999 | 2 62683  97.4194  44.4745 0004497 340.6310  19.4757 15.26517324104958 | 2025/11/22-04:09:00   79.0786    0.1239   19.4929   94.3324     6864.3700     6861.2831     6867.4569  69.514814  68.251229   0.000407   0.000191
1 62683U 25009CC  25327.22172178  .00025459  00000-0  97353-3 0  9995 | 2 62683  97.4190  45.5160 0004392 337.1734  22.9309 15.26568817105116 | 2025/11/23-05:19:16   96.6390    0.1239   22.9505   94.3292     6864.2156     6861.2008     6867.2304  68.262473  69.503211   0.000405   0.000169
1 62683U 25009CC  25328.79484379  .00030780  00000-0  11726-2 0  9999 | 2 62683  97.4184  47.0779 0004212 330.6084  29.4917 15.26654767105352 | 2025/11/24-19:04:34  302.9558    0.1239   29.5155   94.3239     6863.9580     6861.0669     6866.8491  66.342259  71.337573   0.000401   0.000128
1 62683U 25009CC  25330.17124771  .00029001  00000-0  11025-2 0  9997 | 2 62683  97.4182  48.4452 0004255 324.9213  35.1745 15.26735840105568 | 2025/11/26-04:06:35   78.4548    0.1239   35.2026   94.3189     6863.7150     6860.7945     6866.6355  64.621007  72.900145   0.000414   0.000098
1 62683U 25009CC  25331.21988707  .00023035  00000-0  87553-3 0  9991 | 2 62683  97.4181  49.4870 0004195 321.3486  38.7452 15.26791805105723 | 2025/11/27-05:16:38   95.9588    0.1239   38.7753   94.3154     6863.5473     6860.6680     6866.4265  63.284801  74.062947   0.000412   0.000079
1 62683U 25009CC  25332.53063401  .00024304  00000-0  92151-3 0  9992 | 2 62683  97.4183  50.7893 0004147 314.7174  45.3726 15.26861838105926 | 2025/11/28-12:44:06  207.8211    0.1238   45.4064   94.3111     6863.3374     6860.4911     6866.1836  61.585318  75.482275   0.000413   0.000040
1 62683U 25009CC  25334.16898168  .00029656  00000-0  11199-2 0  9996 | 2 62683  97.4185  52.4171 0004149 308.1070  51.9794 15.26954530106178 | 2025/11/30-04:03:20   77.6169    0.1239   52.0169   94.3054     6863.0596     6860.2121     6865.9071  59.416388  77.201405   0.000415   0.000004
1 62683U 25009CC  25335.21747012  .00031687  00000-0  11937-2 0  9991 | 2 62683  97.4187  53.4594 0004077 303.9050  56.1800 15.27019474106334 | 2025/12/01-05:13:09   95.0653    0.1238   56.2188   94.3014     6862.8650     6860.0670     6865.6630  58.002339  78.269609   0.000407  -0.000019
1 62683U 25009CC  25337.18327543  .00033969  00000-0  12747-2 0  9997 | 2 62683  97.4188  55.4137 0004148 296.2439  63.8373 15.27133560106630 | 2025/12/03-04:23:54   82.7423    0.1239   63.8800   94.2943     6862.5232     6859.6766     6865.3698  55.299481  80.202182   0.000410  -0.000060
1 62683U 25009CC  25338.75578233  .00052569  00000-0  19571-2 0  9994 | 2 62683  97.4189  56.9770 0004046 289.6224  70.4579 15.27288708106878 | 2025/12/04-18:08:19  288.8323    0.1240   70.5016   94.2847     6862.0585     6859.2821     6864.8349  53.090929  81.681059   0.000394  -0.000094
1 62683U 25009CC  25340.19712249  .00037527  00000-0  13963-2 0  9998 | 2 62683  97.4180  58.4100 0004060 284.3327  75.7462 15.27393283107094 | 2025/12/06-04:43:51   87.7038    0.1240   75.7913   94.2783     6861.7453     6858.9594     6864.5311  51.031177  82.982442   0.000388  -0.000120
1 62683U 25009CC  25341.96589795  .00031116  00000-0  11547-2 0  9996 | 2 62683  97.4174  60.1687 0003999 277.3411  82.7374 15.27520886107364 | 2025/12/07-23:10:53    4.4481    0.1240   82.7829   94.2704     6861.3631     6858.6193     6864.1070  48.460085  84.508994   0.000369  -0.000153
1 62683U 25009CC  25343.21051338  .00033779  00000-0  12499-2 0  9997 | 2 62683  97.4169  61.4065 0003912 272.0178  88.0614 15.27598920107550 | 2025/12/09-05:03:08   92.4979    0.1240   88.1062   94.2656     6861.1294     6858.4454     6863.8135  46.622973  85.535669   0.000350  -0.000175
1 62683U 25009CC  25345.17555465  .00038029  00000-0  14000-2 0  9997 | 2 62683  97.4166  63.3609 0004044 264.3902  95.6877 15.27740791107851 | 2025/12/11-04:12:47   79.8965    0.1240   95.7338   94.2568     6860.7047     6857.9302     6863.4791  43.678601  87.075679   0.000342  -0.000216
1 62683U 25009CC  25346.22349247  .00036937  00000-0  13564-2 0  9993 | 2 62683  97.4167  64.4033 0004037 260.1766  99.9017 15.27830691108010 | 2025/12/12-05:21:49   97.1442    0.1239   99.9473   94.2513     6860.4355     6857.6660     6863.2051  42.087308  87.855973   0.000329  -0.000234
1 62683U 25009CC  25347.66431603  .00028126  00000-0  10314-2 0  9991 | 2 62683  97.4168  65.8370 0004038 253.5225 106.5571 15.27935899108237 | 2025/12/13-15:56:36  255.8258    0.1239  106.6014   94.2448     6860.1206     6857.3505     6862.8907  39.876001  88.881592   0.000306  -0.000263
1 62683U 25009CC  25348.77762451  .00020472  00000-0  75105-3 0  9998 | 2 62683  97.4172  66.9450 0004107 249.0812 110.9988 15.27986795108403 | 2025/12/14-18:39:46  296.6058    0.1239  111.0427   94.2417     6859.9683     6857.1509     6862.7857  38.149995  89.636425   0.000296  -0.000285
1 62683U 25009CC  25350.21832784  .00018948  00000-0  69427-3 0  9992 | 2 62683  97.4174  68.3793 0004084 242.4112 117.6713 15.28043560108624 | 2025/12/16-05:14:23   95.2422    0.1239  117.7127   94.2382     6859.7984     6856.9968     6862.5999  35.894458  90.563446   0.000267  -0.000309
1 62683U 25009CC  25351.52800830  .00019936  00000-0  72901-3 0  9993 | 2 62683  97.4172  69.6827 0004171 236.7198 123.3642 15.28099758108828 | 2025/12/17-12:40:19  206.7132    0.1239  123.4041   94.2347     6859.6302     6856.7690     6862.4913  33.825086  91.356305   0.000248  -0.000336
1 62683U 25009CC  25352.77216104  .00020501  00000-0  74829-3 0  9997 | 2 62683  97.4171  70.9210 0004194 230.8758 129.2109 15.28154405109016 | 2025/12/18-18:31:54  294.5935    0.1239  129.2481   94.2313     6859.4667     6856.5898     6862.3435  31.842877  92.065860   0.000221  -0.000356
1 62683U 25009CC  25354.21270717  .00016807  00000-0  61324-3 0  9998 | 2 62683  97.4169  72.3549 0004239 225.7165 134.3727 15.28207624109238 | 2025/12/20-05:06:17   93.1735    0.1239  134.4074   94.2280     6859.3074     6856.3997     6862.2151  29.529020  92.833665   0.000199  -0.000374
1 62683U 25009CC  25356.17700406  .00029172  00000-0  10577-2 0  9990 | 2 62683  97.4159  74.3101 0004335 218.3882 141.7049 15.28299290109536 | 2025/12/22-04:14:53   80.2974    0.1239  141.7357   94.2224     6859.0331     6856.0597     6862.0065  26.344254  93.786128   0.000167  -0.000400
1 62683U 25009CC  25357.22457372  .00027088  00000-0  98086-3 0  9994 | 2 62683  97.4158  75.3532 0004324 214.3947 145.7013 15.28358943109693 | 2025/12/23-05:23:23   97.4090    0.1239  145.7292   94.2187     6858.8547     6855.8889     6861.8204  24.632531  94.250074   0.000146  -0.000407
1 62683U 25009CC  25358.79585151  .00026364  00000-0  95223-3 0  9990 | 2 62683  97.4161  76.9176 0004417 211.6405 148.4570 15.28447648109936 | 2025/12/24-19:06:01  303.0519    0.1240  148.4835   94.2132     6858.5893     6855.5598     6861.6187  22.050340  94.887718   0.000141  -0.000419
1 62683U 25009CC  25360.17064170  .00026575  00000-0  95739-3 0  9994 | 2 62683  97.4153  78.2863 0004456 204.4171 155.6858 15.28529044110143 | 2025/12/26-04:05:43   77.9573    0.1239  155.7068   94.2082     6858.3458     6855.2897     6861.4019  19.777394  95.386558   0.000098  -0.000435
1 62683U 25009CC  25361.21805098  .00028518  00000-0  10249-2 0  9993 | 2 62683  97.4147  79.3289 0004457 198.6777 161.4300 15.28594679110308 | 2025/12/27-05:13:59   95.0096    0.1240  161.4463   94.2042     6858.1495     6855.0928     6861.2061  18.038374  95.730042   0.000062  -0.000441
1 62683U 25009CC  25362.78907580  .00033489  00000-0  11983-2 0  9994 | 2 62683  97.4146  80.8935 0004545 192.7738 167.3387 15.28704690110544 | 2025/12/28-18:56:16  300.5576    0.1239  167.3501   94.1974     6857.8204     6854.7036     6860.9373  15.417817  96.186773   0.000029  -0.000454
1 62683U 25009CC  25364.22907033  .00041897  00000-0  14910-2 0  9993 | 2 62683  97.4149  82.3281 0004605 187.6530 172.4640 15.28830136110766 | 2025/12/30-05:29:51   98.9359    0.1239  172.4709   94.1897     6857.4453     6854.2874     6860.6031  13.004904  96.542919  -0.000000  -0.000460
1 62683U 25009CC  25365.47260955  .00039859  00000-0  14145-2 0  9991 | 2 62683  97.4152  83.5676 0004590 182.8252 177.2963 15.28933507110950 | 2025/12/31-11:20:33  186.5917    0.1240  177.2988   94.1833     6857.1362     6853.9888     6860.2836  10.913510  96.801945  -0.000029  -0.000458
1 62683U 25009CC  26001.71606161  .00045743  00000-0  16162-2 0  9999 | 2 62683  97.4154  84.8066 0004569 179.4729 180.6516 15.29045416111144 | 2026/01/01-17:11:07  274.2180    0.1239  180.6510   94.1764     6856.8016     6853.6687     6859.9345   8.817834  97.015493  -0.000046  -0.000455
1 62683U 25009CC  26002.95942516  .00046174  00000-0  16259-2 0  9999 | 2 62683  97.4149  86.0452 0004579 175.1906 184.9379 15.29153668111336 | 2026/01/02-23:01:34    1.8118    0.1240  184.9334   94.1697     6856.4780     6853.3384     6859.6176   6.718655  97.182933  -0.000070  -0.000453
1 62683U 25009CC  26004.20269925  .00039795  00000-0  13983-2 0  9997 | 2 62683  97.4143  87.2844 0004609 170.3877 189.7452 15.29258625111521 | 2026/01/04-04:51:53   89.3723    0.1240  189.7363   94.1633     6856.1643     6853.0043     6859.3243   4.615335  97.304905  -0.000098  -0.000450
1 62683U 25009CC  26006.16561902  .00031756  00000-0  11132-2 0  9997 | 2 62683  97.4134  89.2407 0004663 164.1679 195.9708 15.29387546111820 | 2026/01/06-03:58:29   75.9961    0.1240  195.9561   94.1553     6855.7790     6852.5821     6858.9758   1.290912  97.404846  -0.000133  -0.000447
1 62683U 25009CC  26007.21244266  .00026954  00000-0  94410-3 0  9990 | 2 62683  97.4130  90.2842 0004709 160.0208 200.1217 15.29447552111980 | 2026/01/07-05:05:55   92.8371    0.1239  200.1031   94.1516     6855.5997     6852.3714     6858.8280  -0.483188  97.411802  -0.000159  -0.000443
1 62683U 25009CC  26008.45549659  .00030900  00000-0  10791-2 0  9996 | 2 62683  97.4124  91.5233 0004721 156.7524 203.3931 15.29515951112177 | 2026/01/08-10:55:54  180.3196    0.1240  203.3716   94.1474     6855.3953     6852.1588     6858.6317  -2.589559  97.377974  -0.000175  -0.000439
1 62683U 25009CC  26010.94143219  .00027554  00000-0  95899-3 0  9999 | 2 62683  97.4126  94.0024 0004915 147.8633 212.2907 15.29649247112552 | 2026/01/10-22:35:39  355.2191    0.1239  212.2606   94.1392     6854.9970     6851.6278     6858.3662  -6.799230  97.175023  -0.000232  -0.000433
1 62683U 25009CC  26012.96926411  .00018153  00000-0  63135-3 0  9999 | 2 62683  97.4129  96.0248 0004973 141.9801 218.1791 15.29759205112867 | 2026/01/12-23:15:44    5.2097    0.1240  218.1439   94.1325     6854.6685     6851.2597     6858.0773 -10.224353  96.874845  -0.000263  -0.000422
1 62683U 25009CC  26014.14666165  .00016244  00000-0  56463-3 0  9993 | 2 62683  97.4124  97.1992 0005016 138.5375 221.6247 15.29800519113048 | 2026/01/14-03:31:11   69.0559    0.1240  221.5865   94.1299     6854.5451     6851.1069     6857.9833 -12.207662  96.644445  -0.000282  -0.000415
1 62683U 25009CC  26015.45484978  .00016642  00000-0  57768-3 0  9999 | 2 62683  97.4124  98.5038 0005054 134.9334 225.2317 15.29839579113249 | 2026/01/15-10:54:59  179.9856    0.1240  225.1906   94.1275     6854.4284     6850.9642     6857.8927 -14.404859  96.341454  -0.000301  -0.000406
1 62683U 25009CC  26016.95921795  .00025444  00000-0  87909-3 0  9998 | 2 62683  97.4124 100.0041 0005112 130.2641 229.9047 15.29904256113478 | 2026/01/16-23:01:16    1.5369    0.1240  229.8599   94.1235     6854.2352     6850.7314     6857.7391 -16.922350  95.931276  -0.000327  -0.000393
1 62683U 25009CC  26018.20189977  .00025398  00000-0  87574-3 0  9992 | 2 62683  97.4120 101.2441 0005147 126.3921 233.7795 15.29969431113666 | 2026/01/18-04:50:44   88.8844    0.1240  233.7319   94.1195     6854.0406     6850.5128     6857.5684 -18.994300  95.542212  -0.000347  -0.000380
1 62683U 25009CC  26019.44452804  .00029545  00000-0  10156-2 0  9990 | 2 62683  97.4116 102.4833 0005156 123.0568 237.1168 15.30039074113856 | 2026/01/19-10:40:07  176.2142    0.1240  237.0672   94.1152     6853.8326     6850.2988     6857.3664 -21.056009  95.108697  -0.000361  -0.000368
1 62683U 25009CC  26020.68706672  .00075069  00000-0  25476-2 0  9996 | 2 62683  97.4114 103.7227 0005125 118.4317 241.7441 15.30209835114042 | 2026/01/20-16:29:22  263.5112    0.1241  241.6924   94.1047     6853.3227     6849.8104     6856.8350 -23.108229  94.630812  -0.000380  -0.000344
1 62683U 25009CC  26022.19100309  .00036611  00000-0  12440-2 0  9996 | 2 62683  97.4105 105.2234 0005059 115.1435 245.0331 15.30367753114272 | 2026/01/22-04:35:02   84.9091    0.1241  244.9806   94.0950     6852.8512     6849.3844     6856.3181 -25.578368  93.992301  -0.000385  -0.000328
1 62683U 25009CC  26023.95635864  .00046344  00000-0  15659-2 0  9999 | 2 62683  97.4102 106.9855 0005148 108.5466 251.6334 15.30495531114547 | 2026/01/23-22:57:09    0.4117    0.1240  251.5774   94.0872     6852.4698     6848.9422     6855.9975 -28.456411  93.161042  -0.000419  -0.000299
1 62683U 25009CC  26025.13316836  .00042109  00000-0  14195-2 0  9995 | 2 62683  97.4099 108.1601 0005058 104.8754 255.3047 15.30594433114727 | 2026/01/25-03:11:45   64.0484    0.1240  255.2486   94.0811     6852.1746     6848.7088     6855.6404 -30.360065  92.557847  -0.000424  -0.000276
1 62683U 25009CC  26026.17915763  .00040994  00000-0  13784-2 0  9997 | 2 62683  97.4093 109.2041 0005024 101.1818 258.9988 15.30682818114880 | 2026/01/26-04:17:59   80.5910    0.1241  258.9423   94.0757     6851.9108     6848.4684     6855.3532 -32.041253  91.988749  -0.000433  -0.000254
1 62683U 25009CC  26027.22508734  .00043137  00000-0  14459-2 0  9992 | 2 62683  97.4098 110.2491 0005088  98.0975 262.0844 15.30771857115042 | 2026/01/27-05:24:07   97.1103    0.1242  262.0267   94.0702     6851.6451     6848.1590     6855.1313 -33.713758  91.389560  -0.000448  -0.000242
1 62683U 25009CC  26030.16644447  .00040388  00000-0  13440-2 0  9995 | 2 62683  97.4101 113.1873 0005521  93.6438 266.5435 15.31019038115491 | 2026/01/30-03:59:40   75.9544    0.1242  266.4804   94.0550     6850.9077     6847.1253     6854.6900 -38.354074  89.541569  -0.000493  -0.000249
1 62683U 25009CC  26031.80033819  .00025881  00000-0  86117-3 0  9995 | 2 62683  97.4097 114.8187 0004936  83.6228 276.5575 15.31122208115744 | 2026/01/31-19:12:29  304.1422    0.1241  276.5013   94.0487     6850.5999     6847.2184     6853.9814 -40.887560  88.412992  -0.000468  -0.000156
1 62683U 25009CC  26033.17272850  .00030484  00000-0  10106-2 0  9996 | 2 62683  97.4091 116.1898 0004926  79.3580 280.8216 15.31207130115955 | 2026/02/02-04:08:43   78.1850    0.1241  280.7661   94.0434     6850.3466     6846.9721     6853.7211 -42.991128  87.408785  -0.000475  -0.000132
1 62683U 25009CC  26034.21830319  .00033780  00000-0  11165-2 0  9990 | 2 62683  97.4088 117.2344 0004917  77.1169 283.0621 15.31283473116116 | 2026/02/03-05:14:21   94.5784    0.1241  283.0072   94.0388     6850.1189     6846.7507     6853.4871 -44.577369  86.610233  -0.000476  -0.000122
1 62683U 25009CC  26035.85191154  .00038688  00000-0  12728-2 0  9996 | 2 62683  97.4079 118.8662 0004823  70.7497 289.4266 15.31402167116360 | 2026/02/04-20:26:45  322.6585    0.1242  289.3745   94.0315     6849.7650     6846.4613     6853.0686 -47.025207  85.304917  -0.000476  -0.000081
1 62683U 25009CC  26037.74672514  .00035079  00000-0  11495-2 0  9991 | 2 62683  97.4074 120.7597 0004811  64.7399 295.4340 15.31551835116654 | 2026/02/06-17:55:17  284.7679    0.1241  295.3842   94.0223     6849.3187     6846.0235     6852.6139 -49.817902  83.704111  -0.000479  -0.000046
1 62683U 25009CC  26039.18406330  .00032185  00000-0  10524-2 0  9999 | 2 62683  97.4069 122.1965 0004677  60.7670 299.4038 15.31641858116878 | 2026/02/08-04:25:03   82.1927    0.1241  299.3571   94.0168     6849.0503     6845.8470     6852.2536 -51.900791  82.428224  -0.000467  -0.000024
1 62683U 25009CC  26040.75196983  .00028127  00000-0  91773-3 0  9991 | 2 62683  97.4071 123.7637 0004621  57.2854 302.8832 15.31738751117116 | 2026/02/09-18:02:50  286.6194    0.1241  302.8387   94.0108     6848.7615     6845.5967     6851.9263 -54.135849  80.978102  -0.000462  -0.000008
1 62683U 25009CC  26042.71171374  .00033265  00000-0  10800-2 0  9996 | 2 62683  97.4066 125.7230 0004596  47.0819 313.0808 15.31864291117419 | 2026/02/11-17:04:52  272.1055    0.1242  313.0423   94.0031     6848.3873     6845.2398     6851.5348 -56.872514  79.079472  -0.000456   0.000058
1 62683U 25009CC  26044.21407266  .00029559  00000-0  95759-3 0  9993 | 2 62683  97.4072 127.2262 0004462  44.2616 315.8982 15.31958905117648 | 2026/02/13-05:08:15   92.9352    0.1242  315.8626   93.9973     6848.1053     6845.0497     6851.1609 -58.927780  77.560811  -0.000441   0.000066
1 62683U 25009CC  26046.17354541  .00025447  00000-0  82250-3 0  9991 | 2 62683  97.4067 129.1850 0004195  38.8372 321.3171 15.32064168117942 | 2026/02/15-04:09:54   78.3234    0.1242  321.2870   93.9908     6847.7916     6844.9190     6850.6643 -61.544125  75.500900  -0.000410   0.000087
1 62683U 25009CC  26047.21853509  .00033001  00000-0  10624-2 0  9995 | 2 62683  97.4065 130.2301 0004174  35.8215 324.3306 15.32138439118109 | 2026/02/16-05:14:41   94.5068    0.1242  324.3027   93.9863     6847.5703     6844.7122     6850.4285 -62.910850  74.365658  -0.000405   0.000101
1 62683U 25009CC  26048.45940210  .00032747  00000-0  10518-2 0  9996 | 2 62683  97.4062 131.4709 0004082  31.3306 328.8179 15.32215406118298 | 2026/02/17-11:01:32  181.2048    0.1243  328.7937   93.9816     6847.3410     6844.5459     6850.1361 -64.506240  72.985702  -0.000390   0.000121
1 62683U 25009CC  26050.22264189  .00026691  00000-0  85593-3 0  9995 | 2 62683  97.4056 133.2346 0004069  24.4455 335.6979 15.32308597118569 | 2026/02/19-05:20:36   95.9504    0.1242  335.6787   93.9758     6847.0634     6844.2773     6849.8495 -66.721589  70.965347  -0.000376   0.000155
1 62683U 25009CC  26051.78987722  .00025917  00000-0  82922-3 0  9995 | 2 62683  97.4050 134.8023 0003929  18.6380 341.5005 15.32387326118808 | 2026/02/20-18:57:25  300.1371    0.1242  341.4862   93.9710     6846.8289     6844.1388     6849.5190 -68.637670  69.112982  -0.000351   0.000176
1 62683U 25009CC  26053.68350145  .00034762  00000-0  11060-2 0  9991 | 2 62683  97.4041 136.6965 0003722  12.9763 347.1574 15.32506662119097 | 2026/02/22-16:24:14  261.8188    0.1242  347.1479   93.9637     6846.4734     6843.9252     6849.0217 -70.883970  66.805850  -0.000321   0.000188
1 62683U 25009CC  26055.18522788  .00028507  00000-0  90537-3 0  9999 | 2 62683  97.4033 138.1990 0003644   6.4400 353.6888 15.32606123119321 | 2026/02/24-04:26:43   82.4229    0.1242  353.6842   93.9576     6846.1772     6843.6825     6848.6720 -72.610689  64.923729  -0.000297   0.000211
1 62683U 25009CC  26057.20915127  .00033579  00000-0  10611-2 0  9996 | 2 62683  97.4038 140.2247 0003569 359.0576   1.0658 15.32732030119632 | 2026/02/26-05:01:10   91.0099    0.1242    1.0666   93.9499     6845.8023     6843.3590     6848.2456 -74.860606  62.316851  -0.000271   0.000233
1 62683U 25009CC  26058.44953369  .00032817  00000-0  10345-2 0  9991 | 2 62683  97.4039 141.4662 0003430 352.7192   7.3999 15.32816360119825 | 2026/02/27-10:47:19  177.5330    0.1242    7.4050   93.9447     6845.5512     6843.2032     6847.8992 -76.193303  60.680312  -0.000239   0.000246
1 62683U 25009CC  26059.49401438  .00029432  00000-0  92653-3 0  9994 | 2 62683  97.4043 142.5119 0003392 348.5518  11.5647 15.32882846119987 | 2026/02/28-11:51:22  193.5324    0.1243   11.5725   93.9406     6845.3533     6843.0313     6847.6752 -77.288341  59.279930  -0.000223   0.000256
1 62683U 25009CC  26060.79954660  .00034861  00000-0  10929-2 0  9996 | 2 62683  97.4041 143.8186 0003358 343.0834  17.0295 15.32978675120186 | 2026/03/01-19:11:20  303.5077    0.1242   17.0408   93.9348     6845.0680     6842.7694     6847.3666 -78.619914  57.501894  -0.000202   0.000269
1 62683U 25009CC  26062.17026978  .00036212  00000-0  11315-2 0  9994 | 2 62683  97.4037 145.1908 0003334 336.2780  23.8308 15.33077041120397 | 2026/03/03-04:05:11   76.9510    0.1242   23.8462   93.9287     6844.7752     6842.4931     6847.0572 -79.974044  55.602455  -0.000174   0.000284
