# SPACE DATA - HISTORICAL TLEs
# ----------------------------
# NORAD_ID    : 60396
# OBJECT_NAME : QIANFAN-18
# --------------------------------------------------------------------+-----------------------------------------------------------------------+----------------------------------------------------------------------------------------------------------------------------------------
#                  LINE 1                                             |                 LINE 2                                                |      DERIVED PARAMETERS
# --------------------------------------------------------------------+-----------------------------------------------------------------------+----------------------------------------------------------------------------------------------------------------------------------------
# NORAD  COSPAR     TLE_EPOCH      MEANMOT1 MEANMOT2   BSTAR  #  REV  |   NORAD    INC     RAAN     ECC    ARGPER  MEANANOM   MEANMOT     REV |  CAL_DATE              LONG     ARGLAT     PERIOD        SMA         PERIGEE        APOGEE      INC_X      INC_Y      ECC_X      ECC_Y
# ------ ------   -------------- ----------  -------  ------- -- ----     -----  ------- -------- ------- -------- -------- -----------  ----   ------------------- ---------  --------  --------  ------------  ------------   ----------- ---------- ----------  ---------  ---------   
1 62788U 25016D   25036.80273638  .00001323  00000-0  54132-3 0  9995 | 2 62788  88.9950 135.4289 0015574 168.3108 191.8450 14.26651204  5108 | 2025/02/05-19:15:56  289.5891    0.1192  191.8084  100.9357     7181.0834     7169.8996     7192.2672 -63.398269  62.456141   0.000865  -0.001295
1 62788U 25016D   25039.18784729 -.00035500  00000-0 -14858-1 0  9992 | 2 62788  88.9946 135.1543 0016124 160.7827 199.3978 14.26344003  5440 | 2025/02/08-04:30:30   70.8298    0.1193  199.3366  100.9574     7182.1144     7170.5340     7193.6949 -63.097926  62.758988   0.000705  -0.001450
1 62788U 25016D   25040.59138256  .00001055  00000-0  44037-3 0  9997 | 2 62788  88.9946 134.9931 0016218 156.5807 203.6128 14.25466156  5644 | 2025/02/09-14:11:35  217.6341    0.1192  203.5385  101.0196     7185.0628     7173.4101     7196.7155 -62.921106  62.936263   0.000596  -0.001508
1 62788U 25016D   25041.85493498  .00001106  00000-0  46197-3 0  9995 | 2 62788  88.9944 134.8477 0016362 152.7408 207.4647 14.25468975  5820 | 2025/02/10-20:31:06  313.8918    0.1192  207.3784  101.0194     7185.0533     7173.2971     7196.8095 -62.761049  63.095594   0.000494  -0.001560
1 62788U 25016D   25042.90789373  .00001023  00000-0  42687-3 0  9990 | 2 62788  88.9943 134.7266 0016462 149.5944 210.6207 14.25470770  5974 | 2025/02/11-21:47:22  334.1063    0.1192  210.5248  101.0193     7185.0473     7173.2193     7196.8753 -62.627480  63.228033   0.000407  -0.001595
1 62788U 25016D   25044.59262446  .00000976  00000-0  40673-3 0  9993 | 2 62788  88.9940 134.5329 0016617 144.6353 215.5945 14.25474056  6213 | 2025/02/13-14:13:22  222.4489    0.1192  215.4839  101.0190     7185.0362     7173.0969     7196.9756 -62.413157  63.439182   0.000265  -0.001640
1 62788U 25016D   25045.92636650  .00001064  00000-0  44383-3 0  9994 | 2 62788  88.9938 134.3795 0016731 140.6748 219.5664 14.25477253  6401 | 2025/02/14-22:13:58  344.0527    0.1193  219.4445  101.0188     7185.0255     7173.0042     7197.0468 -62.242946  63.605913   0.000147  -0.001667
1 62788U 25016D   25047.18990857  .00001174  00000-0  49044-3 0  9997 | 2 62788  88.9937 134.2341 0016842 136.9390 223.3124 14.25480601  6584 | 2025/02/16-04:33:28   80.3084    0.1192  223.1802  101.0186     7185.0142     7172.9132     7197.1152 -62.081262  63.763591   0.000034  -0.001684
1 62788U 25016D   25048.24285830  .00001227  00000-0  51279-3 0  9995 | 2 62788  88.9936 134.1130 0016920 133.8698 226.3897 14.25483273  6737 | 2025/02/17-05:49:42  100.5212    0.1193  226.2495  101.0184     7185.0053     7172.8482     7197.1623 -61.946284  63.894591  -0.000060  -0.001691
1 62788U 25016D   25049.50639523  .00001194  00000-0  49889-3 0  9994 | 2 62788  88.9935 133.9676 0016998 130.2168 230.0516 14.25486114  6913 | 2025/02/18-12:09:12  196.7763    0.1193  229.9025  101.0182     7184.9957     7172.7827     7197.2088 -61.783869  64.051515  -0.000172  -0.001691
1 62788U 25016D   25050.55934044  .00001175  00000-0  49079-3 0  9997 | 2 62788  88.9934 133.8464 0017069 127.1726 233.1029 14.25488555  7062 | 2025/02/19-13:25:27  216.9886    0.1193  232.9467  101.0180     7184.9875     7172.7235     7197.2516 -61.648171  64.181993  -0.000266  -0.001686
1 62788U 25016D   25051.61228377  .00001142  00000-0  47661-3 0  9999 | 2 62788  88.9932 133.7252 0017137 124.1199 236.1623 14.25490966  7210 | 2025/02/20-14:41:41  237.2005    0.1193  235.9994  101.0178     7184.9794     7172.6665     7197.2923 -61.512128  64.312112  -0.000361  -0.001675
1 62788U 25016D   25052.73606540  .00000988  00000-0  42952-3 0  9990 | 2 62788  88.9671 133.6176 0017533 139.1751 221.0759 14.23293294  7377 | 2025/02/21-17:39:56  283.0083    0.1192  220.9441  101.1738     7192.3736     7179.7632     7204.9840 -61.373239  64.408621   0.000085  -0.001751
1 62788U 25016D   25053.93209413  .00000923  00000-0  41596-3 0  9993 | 2 62788  88.9922 133.4595 0017266 117.5839 242.7107 14.21331714  7543 | 2025/02/22-22:22:12  354.8720    0.1189  242.5350  101.3134     7198.9896     7186.5598     7211.4193 -61.212543  64.595946  -0.000561  -0.001633
1 62788U 25016D   25055.55271708  .00000948  00000-0  44636-3 0  9994 | 2 62788  88.9926 133.2743 0017633 112.9728 247.3324 14.19096896  7777 | 2025/02/24-13:15:54  220.0683    0.1189  247.1461  101.4730     7206.5456     7193.8383     7219.2529 -61.003701  64.793760  -0.000710  -0.001614
1 62788U 25016D   25056.82357148  .00000934  00000-0  46796-3 0  9992 | 2 62788  88.9900 133.1316 0018423 111.1906 249.1252 14.15766352  7958 | 2025/02/25-19:45:56  318.9606    0.1187  248.9281  101.7117     7217.8433     7204.5459     7231.1408 -60.840360  64.943596  -0.000798  -0.001660
1 62788U 25016D   25058.16719345  .00000914  00000-0  47396-3 0  9997 | 2 62788  88.9842 132.9616 0018890 109.4277 250.8953 14.13911037  8141 | 2025/02/27-04:00:45   84.1516    0.1186  250.6909  101.8452     7224.1560     7210.5096     7237.8025 -60.643449  65.119582  -0.000875  -0.001674
1 62788U 25016D   25059.79682828  .00000745  00000-0  41113-3 0  9995 | 2 62788  88.9912 132.7918 0017660 101.9531 258.3634 14.10402665  8379 | 2025/02/28-19:07:25  312.6027    0.1184  258.1653  102.0985     7236.1311     7223.3521     7248.9101 -60.454951  65.304154  -0.001019  -0.001442
1 62788U 25016D   25061.50134449  .00000577  00000-0  33412-3 0  9994 | 2 62788  88.9908 132.6016 0017491  90.9605 269.3582 14.07504938  8616 | 2025/03/02-12:01:56  208.0966    0.1183  269.1578  102.3087     7246.0594     7233.3853     7258.7335 -60.237563  65.504187  -0.001267  -0.001205
1 62788U 25016D   25062.92510945  .00000430  00000-0  26196-3 0  9999 | 2 62788  88.9906 132.4428 0017620  92.5842 267.7356 14.04242838  8812 | 2025/03/03-22:12:09    2.2130    0.1181  267.5339  102.5464     7257.2769     7244.4896     7270.0643 -60.055647  65.670741  -0.001245  -0.001247
1 62788U 25016D   25064.20861489  .00000416  00000-0  25844-3 0  9997 | 2 62788  88.9904 132.2998 0017667  89.4090 270.9114 14.03148045  8992 | 2025/03/05-05:00:24  105.6824    0.1180  270.7090  102.6264     7261.0514     7248.2233     7273.8795 -59.891423  65.820276  -0.001319  -0.001175
1 62788U 25016D   25065.49347047  .00000342  00000-0  22037-3 0  9997 | 2 62788  88.9900 132.1627 0017236  89.0272 271.2882 14.00575232  9172 | 2025/03/06-11:50:35  209.6390    0.1179  271.0907  102.8149     7269.9409     7257.4104     7282.4714 -59.733485  65.963102  -0.001297  -0.001135
1 62788U 25016D   25066.70926847  .00000350  00000-0  23834-3 0  9998 | 2 62788  88.9889 132.0241 0017417  82.2024 278.1130 13.97654225  9346 | 2025/03/07-17:01:20  288.6632    0.1178  277.9154  103.0298     7280.0665     7267.3868     7292.7462 -59.573008  66.106589  -0.001440  -0.000980
1 62788U 25016D   25067.78344550  .00000366  00000-0  25441-3 0  9995 | 2 62788  88.9895 131.9041 0017552  79.0116 281.3034 13.96592237  9493 | 2025/03/08-18:48:09  316.5461    0.1177  281.1061  103.1081     7283.7566     7270.9722     7296.5411 -59.434825  66.231659  -0.001506  -0.000902
1 62788U 25016D   25068.78722941  .00000398  00000-0  28751-3 0  9992 | 2 62788  88.9841 131.7953 0016560  80.9931 279.3118 13.94552518  9630 | 2025/03/09-18:53:36  319.0166    0.1176  279.1245  103.2589     7290.8572     7278.7835     7302.9309 -59.305350  66.340376  -0.001392  -0.000897
1 62788U 25016D   25069.79249510  .00000374  00000-0  27874-3 0  9999 | 2 62788  88.9898 131.6830 0017505  74.0265 286.2837 13.92708088  9772 | 2025/03/10-19:01:11  322.0100    0.1175  286.0910  103.3957     7297.2929     7284.5190     7310.0668 -59.179000  66.460744  -0.001577  -0.000759
1 62788U 25016D   25070.94257237  .00000376  00000-0  28400-3 0  9991 | 2 62788  88.9889 131.5581 0017687  70.9926 289.3163 13.91936371  9935 | 2025/03/11-22:37:18   17.2976    0.1175  289.1249  103.4530     7299.9898     7287.0783     7312.9013 -59.033383  66.588918  -0.001633  -0.000678
1 62788U 25016D   25072.81355878  .00000416  00000-0  33105-3 0  9992 | 2 62788  88.9882 131.3545 0017661  65.9062 294.3956 13.89187568 10192 | 2025/03/13-19:31:31  332.9076    0.1173  294.2111  103.6577     7309.6163     7296.7068     7322.5259 -58.795925  66.797746  -0.001687  -0.000524
1 62788U 25016D   25073.89462593  .00000439  00000-0  35755-3 0  9992 | 2 62788  88.9880 131.2363 0017653  62.9224 297.3747 13.87929162 10345 | 2025/03/14-21:28:15    3.2802    0.1173  297.1949  103.7517     7314.0340     7301.1225     7326.9455 -58.657866  66.918748  -0.001712  -0.000432
1 62788U 25016D   25075.55368581  .00000384  00000-0  32339-3 0  9993 | 2 62788  88.9882 131.0568 0017998  59.8094 300.4857 13.85802176 10570 | 2025/03/16-13:17:18  242.3585    0.1172  300.3078  103.9109     7321.5160     7308.3387     7334.6933 -58.448062  67.102338  -0.001768  -0.000339
1 62788U 25016D   25076.70973514  .00000414  00000-0  36091-3 0  9992 | 2 62788  88.9880 130.9244 0018557  54.4225 305.8670 13.83859806 10736 | 2025/03/17-17:02:01  299.8137    0.1169  305.6944  104.0568     7328.3653     7314.7661     7341.9646 -58.292714  67.237070  -0.001848  -0.000173
1 62788U 25016D   25077.93949349  .00000412  00000-0  36479-3 0  9995 | 2 62788  88.9873 130.7984 0017189  52.3056 307.9668 13.83063253 10908 | 2025/03/18-22:32:52   23.8819    0.1169  307.8113  104.1167     7331.1788     7318.5773     7343.7804 -58.144254  67.364570  -0.001716  -0.000093
1 62788U 25016D   25079.02494274  .00000481  00000-0  43458-3 0  9990 | 2 62788  88.9846 130.6806 0016999  54.2938 305.9809 13.82151471 11059 | 2025/03/20-00:35:55   55.8290    0.1169  305.8231  104.1854     7334.4026     7321.9349     7346.8704 -58.003870  67.481924  -0.001693  -0.000147
1 62788U 25016D   25080.25661452  .00000458  00000-0  42857-3 0  9997 | 2 62788  88.9872 130.5493 0017190  45.1931 315.0631 13.80024044 11222 | 2025/03/21-06:09:31  140.5947    0.1169  314.9238  104.3460     7341.9384     7329.3177     7354.5592 -57.850765  67.616645  -0.001714   0.000128
1 62788U 25016D   25081.41748842  .00000423  00000-0  40398-3 0  9995 | 2 62788  88.9869 130.4242 0017054  42.4787 317.7696 13.78582550 11382 | 2025/03/22-10:01:10  199.7865    0.1167  317.6380  104.4551     7347.0555     7334.5259     7359.5852 -57.702798  67.742567  -0.001692   0.000211
1 62788U 25016D   25082.43421622  .00000428  00000-0  41926-3 0  9995 | 2 62788  88.9864 130.3148 0016974  38.6765 321.5613 13.77198390 11526 | 2025/03/23-10:25:16  206.9305    0.1167  321.4402  104.5601     7351.9775     7339.4983     7364.4568 -57.573023  67.852240  -0.001666   0.000324
1 62788U 25016D   25083.81593741  .00000386  00000-0  39129-3 0  9995 | 2 62788  88.9858 130.1741 0017324  33.5794 326.6465 13.74891237 11711 | 2025/03/24-19:34:56  345.8646    0.1166  326.5372  104.7356     7360.1999     7347.4491     7372.9507 -57.405839  67.992957  -0.001663   0.000485
1 62788U 25016D   25084.90794017  .00000299  00000-0  30292-3 0  9990 | 2 62788  88.9858 130.0517 0016484  32.7996 327.4189 13.74413403 11865 | 2025/03/25-21:47:26   20.1918    0.1166  327.3170  104.7720     7361.9058     7349.7704     7374.0411 -57.260456  68.115437  -0.001575   0.000486
1 62788U 25016D   25086.07299432  .00000179  00000-0  17819-3 0  9998 | 2 62788  88.9849 129.9262 0015422  33.8758 326.3388 13.73461052 12028 | 2025/03/27-01:45:06   80.8890    0.1165  326.2407  104.8446     7365.3085     7353.9497     7376.6673 -57.110542  68.240006  -0.001481   0.000430
1 62788U 25016D   25087.09368730  .00000164  00000-0  16829-3 0  9993 | 2 62788  88.9829 129.8259 0014810  35.6146 324.6002 13.71376173 12168 | 2025/03/28-02:14:54   89.4446    0.1163  324.5017  105.0040     7372.7715     7361.8524     7383.6906 -56.989715  68.338341  -0.001433   0.000372
1 62788U 25016D   25088.18864250  .00000317  00000-0  34357-3 0  9998 | 2 62788  88.9856 129.7040 0015900  23.3691 336.8191 13.70542473 12313 | 2025/03/29-04:31:38  124.8562    0.1163  336.7472  105.0679     7375.7611     7364.0336     7387.4886 -56.845917  68.461513  -0.001418   0.000720
1 62788U 25016D   25089.43027687  .00000288  00000-0  31719-3 0  9998 | 2 62788  88.9866 129.5695 0015763  17.8833 342.2880 13.69307822 12480 | 2025/03/30-10:19:35  213.2198    0.1162  342.2329  105.1626     7380.1941     7368.5607     7391.8275 -56.685686  68.595539  -0.001329   0.000848
1 62788U 25016D   25090.45402668  .00000265  00000-0  29730-3 0  9993 | 2 62788  88.9851 129.4645 0015502  17.0568 343.1110 13.67829794 12623 | 2025/03/31-10:53:47  222.8873    0.1161  343.0593  105.2763     7385.5096     7374.0606     7396.9586 -56.558930  68.698147  -0.001293   0.000855
1 62788U 25016D   25091.62526642  .00000238  00000-0  27162-3 0  9999 | 2 62788  88.9848 129.3413 0015364  14.1583 346.0004 13.66691232 12786 | 2025/04/01-15:00:23  285.8203    0.1160  345.9577  105.3640     7389.6109     7378.2575     7400.9643 -56.410891  68.819372  -0.001235   0.000914
1 62788U 25016D   25092.94381557  .00000242  00000-0  28204-3 0  9992 | 2 62788  88.9843 129.2034 0015395  10.5720 349.5760 13.65349973 12964 | 2025/04/02-22:39:05   41.9463    0.1160  349.5440  105.4675     7394.4496     7383.0658     7405.8333 -56.244777  68.954555  -0.001175   0.000994
1 62788U 25016D   25094.77805496  .00000019  00000-0  86604-5 0  9990 | 2 62788  88.9841 129.0106 0014776   5.6235 354.5087 13.63346001 13212 | 2025/04/04-18:40:23  344.2889    0.1160  354.4925  105.6225     7401.6938     7390.7571     7412.6306 -56.012301  69.143273  -0.001038   0.001051
1 62788U 25016D   25095.95241063  .00000010  00000-0 -31360-5 0  9996 | 2 62788  88.9859 128.8923 0014775 359.3641   0.7496 13.62830760 13374 | 2025/04/05-22:51:28   48.3513    0.1159    0.7518  105.6624     7403.5593     7392.6205     7414.4980 -55.870550  69.260176  -0.000915   0.001160
1 62788U 25016D   25097.86381175  .00000207  00000-0  26222-3 0  9993 | 2 62788  88.9834 128.6888 0014429 356.2366   3.8679 13.59659259 13635 | 2025/04/07-20:43:53   18.5524    0.1157    3.8791  105.9089     7415.0677     7404.3685     7425.7669 -55.622641  69.456225  -0.000826   0.001183
1 62788U 25016D   25098.89451960  .00000210  00000-0  26913-3 0  9998 | 2 62788  88.9834 128.5812 0014201 353.0288   7.0668 13.59016116 13775 | 2025/04/08-21:28:06   30.7396    0.1157    7.0869  105.9590     7417.4069     7406.8734     7427.9404 -55.492106  69.560561  -0.000744   0.001209
1 62788U 25016D   25100.88355043  .00000080  00000-0  94032-4 0  9999 | 2 62788  88.9831 128.3747 0013747 346.1737  13.9040 13.57847377 14043 | 2025/04/10-21:12:18   28.9756    0.1156   13.9419  106.0502     7421.6625     7411.4600     7431.8651 -55.240857  69.759873  -0.000571   0.001250
1 62788U 25016D   25102.13629852  .00000066  00000-0  74608-4 0  9992 | 2 62788  88.9829 128.2447 0013314 341.5881  18.4790 13.57769151 14219 | 2025/04/12-03:16:16  121.3403    0.1155   18.5274  106.0563     7421.9476     7412.0660     7431.8292 -55.082311  69.884873  -0.000452   0.001252
1 62788U 25016D   25103.24171203  .00000058  00000-0  64325-4 0  9993 | 2 62788  88.9828 128.1299 0013225 338.2008  21.8583 13.57768783 14361 | 2025/04/13-05:48:03  160.5015    0.1156   21.9148  106.0563     7421.9489     7412.1334     7431.7645 -54.942114  69.995019  -0.000372   0.001269
1 62788U 25016D   25104.49451399  .00000022  00000-0  13424-4 0  9993 | 2 62788  88.9827 128.0000 0013110 334.2834  25.7667 13.57768774 14530 | 2025/04/14-11:52:06  252.8839    0.1155   25.8321  106.0563     7421.9490     7412.2188     7431.6791 -54.783220  70.119324  -0.000279   0.001281
1 62788U 25016D   25105.52623302  .00000065  00000-0  73925-4 0  9992 | 2 62788  88.9826 127.8929 0013014 330.9606  29.0823 13.57769033 14674 | 2025/04/15-12:37:46  265.4340    0.1155   29.1549  106.0563     7421.9480     7412.2891     7431.6069 -54.651993  70.221526  -0.000200   0.001286
1 62788U 25016D   25106.55795214  .00000053  00000-0  56301-4 0  9994 | 2 62788  88.9825 127.7858 0012921 327.6953  32.3409 13.57769103 14818 | 2025/04/16-13:23:27  277.9836    0.1155   32.4202  106.0563     7421.9478     7412.3579     7431.5377 -54.520575  70.323483  -0.000123   0.001286
1 62788U 25016D   25107.58967123  .00000061  00000-0  67631-4 0  9995 | 2 62788  88.9824 127.6786 0012835 324.4039  35.6259 13.57769243 14959 | 2025/04/17-14:09:07  290.5329    0.1156   35.7117  106.0563     7421.9473     7412.4212     7431.4733 -54.388844  70.425288  -0.000047   0.001283
1 62788U 25016D   25108.76886442  .00000048  00000-0  50550-4 0  9997 | 2 62788  88.9822 127.5564 0012784 319.9688  40.0523 13.57349903 15112 | 2025/04/18-18:27:09  356.3357    0.1155   40.1467  106.0891     7423.4758     7413.9856     7432.9660 -54.238396  70.540969   0.000055   0.001277
1 62788U 25016D   25109.87521636  .00000157  00000-0  20528-3 0  9993 | 2 62788  88.9821 127.4419 0012700 316.3454  43.6695 13.56475704 15262 | 2025/04/19-21:00:18   35.8335    0.1155   43.7701  106.1574     7426.6649     7417.2330     7436.0968 -54.097257  70.649139   0.000137   0.001263
1 62788U 25016D   25111.42474283  .00000164  00000-0  22118-3 0  9997 | 2 62788  88.9857 127.2914 0011538 312.2415  47.7759 13.55041965 15475 | 2025/04/21-10:11:37  235.3383    0.1154   47.8739  106.2698     7431.9026     7423.3277     7440.4776 -53.913677  70.793858   0.000210   0.001135
1 62788U 25016D   25112.53277536  .00000270  00000-0  37827-3 0  9993 | 2 62788  88.9819 127.1669 0012513 307.1615  52.8395 13.54520788 15622 | 2025/04/22-12:47:11  275.4631    0.1154   52.9539  106.3107     7433.8089     7424.5070     7443.1108 -53.757423  70.907813   0.000338   0.001205
1 62788U 25016D   25114.23304533  .00000175  00000-0  24453-3 0  9995 | 2 62788  88.9819 126.9913 0012341 301.4962  58.4984 13.53000609 15857 | 2025/04/24-05:35:35  169.4181    0.1153   58.6191  106.4301     7439.3761     7430.1951     7448.5570 -53.539853  71.072236   0.000453   0.001148
1 62788U 25016D   25115.49025976  .00000182  00000-0  25519-3 0  9997 | 2 62788  88.9817 126.8619 0012290 297.3385  62.6515 13.53000814 16027 | 2025/04/25-11:45:58  263.3885    0.1152   62.7767  106.4301     7439.3753     7430.2323     7448.5183 -53.379083  71.192812   0.000535   0.001106
1 62788U 25016D   25116.74755568  .00000180  00000-0  25334-3 0  9996 | 2 62788  88.9811 126.7327 0012382 292.8213  67.1631 13.52602536 16193 | 2025/04/26-17:56:28  357.3891    0.1152   67.2939  106.4614     7440.8356     7431.6224     7450.0489 -53.218051  71.312518   0.000627   0.001067
1 62788U 25016D   25118.45070699  .00000173  00000-0  25033-3 0  9999 | 2 62788  88.9816 126.5576 0012415 286.9479  73.0311 13.50701006 16424 | 2025/04/28-10:49:01  252.3828    0.1151   73.1672  106.6113     7447.8175     7438.5710     7457.0640 -53.000165  71.475224   0.000738   0.000998
1 62788U 25016D   25121.48802317  .00000153  00000-0  22130-3 0  9999 | 2 62788  88.9849 126.2399 0011993 276.5905  83.3881 13.50093227 16839 | 2025/05/01-11:42:45  269.1284    0.1151   83.5246  106.6593     7450.0525     7441.1177     7458.9874 -52.604979  71.770667   0.000880   0.000815
1 62788U 25016D   25122.97040799  .00000155  00000-0  22469-3 0  9999 | 2 62788  88.9811 126.0939 0012018 271.2369  88.7405 13.49976308 17033 | 2025/05/02-23:17:23   84.3953    0.1151   88.8782  106.6685     7450.4827     7441.5287     7459.4367 -52.419685  71.901410   0.000956   0.000729
1 62788U 25016D   25124.52640482  .00000150  00000-0  21443-3 0  9993 | 2 62788  88.9812 125.9342 0011656 264.8550  95.1271 13.50949692 17241 | 2025/05/04-12:38:01  286.2428    0.1151   95.2601  106.5917     7446.9035     7438.2233     7455.5836 -52.219130  72.047320   0.001001   0.000597
1 62788U 25016D   25125.85959351  .00000153  00000-0  21869-3 0  9993 | 2 62788  88.9812 125.7972 0011673 260.3911  99.5921 13.50949941 17426 | 2025/05/05-20:37:48   47.6407    0.1151   99.7240  106.5917     7446.9025     7438.2098     7455.5953 -52.046709  72.171975   0.001047   0.000515
1 62788U 25016D   25126.89651801  .00000151  00000-0  21606-3 0  9994 | 2 62788  88.9811 125.6907 0011692 256.8569 103.1278 13.50950138 17564 | 2025/05/06-21:30:59   62.0605    0.1151  103.2582  106.5916     7446.9018     7438.1949     7455.6087 -51.912409  72.268513   0.001080   0.000448
1 62788U 25016D   25127.93344272  .00000049  00000-0  57317-4 0  9996 | 2 62788  88.9811 125.5842 0011717 253.3640 106.6225 13.50949915 17708 | 2025/05/07-22:24:09   76.4802    0.1151  106.7511  106.5917     7446.9026     7438.1771     7455.6282 -51.777989  72.364881   0.001108   0.000380
1 62788U 25016D   25128.97036727  .00000054  00000-0  64837-4 0  9995 | 2 62788  88.9811 125.4778 0011751 249.8578 110.1310 13.50950017 17848 | 2025/05/08-23:17:19   90.8991    0.1152  110.2574  106.5917     7446.9023     7438.1514     7455.6531 -51.643516  72.460910   0.001133   0.000311
1 62788U 25016D   25130.52575420  .00000052  00000-0  62507-4 0  9997 | 2 62788  88.9812 125.3181 0011806 244.5454 115.4476 13.50950150 18055 | 2025/05/10-12:37:05  292.5270    0.1151  115.5697  106.5916     7446.9018     7438.1100     7455.6936 -51.441404  72.604655   0.001163   0.000202
1 62788U 25016D   25131.56267882  .00000052  00000-0  61808-4 0  9995 | 2 62788  88.9813 125.2116 0011854 241.0560 118.9402 13.50950235 18192 | 2025/05/11-13:30:15  306.9452    0.1150  119.0590  106.5916     7446.9015     7438.0739     7455.7290 -51.306417  72.700229   0.001178   0.000129
1 62788U 25016D   25132.96993370  .00000039  00000-0  41998-4 0  9991 | 2 62788  88.9813 125.0671 0011927 236.3885 123.6128 13.50950299 18383 | 2025/05/12-23:16:42   95.0834    0.1150  123.7265  106.5916     7446.9012     7438.0193     7455.7831 -51.122904  72.829393   0.001192   0.000030
1 62788U 25016D   25134.22905659  .00000029  00000-0  26278-4 0  9998 | 2 62788  88.9814 124.9378 0011998 232.1741 127.8325 13.50950336 18555 | 2025/05/14-05:29:50  189.7327    0.1151  127.9410  106.5916     7446.9011     7437.9663     7455.8359 -50.958476  72.944659   0.001198  -0.000060
1 62788U 25016D   25135.48817950  .00000037  00000-0  38295-4 0  9994 | 2 62788  88.9814 124.8085 0012077 227.9938 132.0185 13.50950443 18728 | 2025/05/15-11:42:58  284.3816    0.1150  132.1212  106.5916     7446.9007     7437.9071     7455.8943 -50.793731  73.059472   0.001198  -0.000151
1 62788U 25016D   25136.52510435  .00000036  00000-0  37617-4 0  9994 | 2 62788  88.9815 124.7020 0012145 224.6446 135.3728 13.50950471 18866 | 2025/05/16-12:36:09  298.7980    0.1151  135.4705  106.5916     7446.9006     7437.8563     7455.9449 -50.657899  73.153842   0.001194  -0.000225
1 62788U 25016D   25137.56202917  .00000035  00000-0  35063-4 0  9994 | 2 62788  88.9815 124.5955 0012230 221.1402 138.8828 13.50950551 19005 | 2025/05/17-13:29:19  313.2139    0.1151  138.9749  106.5916     7446.9003     7437.7927     7456.0079 -50.521835  73.247877   0.001185  -0.000301
1 62788U 25016D   25138.89521836  .00000063  00000-0  79251-4 0  9993 | 2 62788  88.9815 124.4587 0012326 216.8627 143.1678 13.50950697 19183 | 2025/05/18-21:29:06   74.6053    0.1151  143.2524  106.5916     7446.8998     7437.7207     7456.0788 -50.346804  73.368295   0.001168  -0.000395
1 62788U 25016D   25140.22840752  .00000057  00000-0  69497-4 0  9998 | 2 62788  88.9816 124.3219 0012436 212.6557 147.3826 13.50950725 19366 | 2025/05/20-05:28:54  195.9965    0.1150  147.4593  106.5916     7446.8997     7437.6387     7456.1606 -50.171542  73.488376   0.001145  -0.000486
1 62788U 25016D   25141.56159668  .00000041  00000-0  44673-4 0  9997 | 2 62788  88.9816 124.1851 0012558 208.3906 151.6562 13.50950776 19542 | 2025/05/21-13:28:41  317.3869    0.1150  151.7244  106.5916     7446.8995     7437.5477     7456.2513 -49.995938  73.607957   0.001115  -0.000578
1 62788U 25016D   25142.59852156  .00000058  00000-0  71386-4 0  9992 | 2 62788  88.9817 124.0787 0012655 205.1461 154.9076 13.50950894 19681 | 2025/05/22-14:21:52  331.8014    0.1151  154.9690  106.5916     7446.8990     7437.4750     7456.3231 -49.859216  73.700757   0.001087  -0.000648
1 62788U 25016D   25143.85764449  .00000067  00000-0  85481-4 0  9990 | 2 62788  88.9818 123.9495 0012774 201.2112 158.8511 13.50951065 19855 | 2025/05/23-20:35:00   66.4473    0.1150  158.9038  106.5916     7446.8984     7437.3857     7456.4111 -49.692952  73.813083   0.001048  -0.000730
1 62788U 25016D   25144.89456925  .00000067  00000-0  85932-4 0  9993 | 2 62788  88.9819 123.8430 0012883 197.9425 162.1273 13.50951190 19990 | 2025/05/24-21:28:10   80.8613    0.1150  162.1725  106.5916     7446.8980     7437.3041     7456.4918 -49.555720  73.905407   0.001012  -0.000797
1 62788U 25016D   25145.93149386  .00000063  00000-0  79031-4 0  9998 | 2 62788  88.9820 123.7366 0012991 194.7403 165.3371 13.50951335 20133 | 2025/05/25-22:21:21   95.2750    0.1150  165.3747  106.5916     7446.8974     7437.2232     7456.5717 -49.418446  73.997389   0.000973  -0.000861
1 62788U 25016D   25147.93127701  .00000052  00000-0  62198-4 0  9991 | 2 62788  88.9820 123.5315 0013201 188.6519 171.4407 13.50951530 20405 | 2025/05/27-22:21:02   97.3579    0.1151  171.4632  106.5915     7446.8967     7437.0661     7456.7274 -49.153243  74.173816   0.000886  -0.000978
1 62788U 25016D   25149.19039969  .00000059  00000-0  73394-4 0  9996 | 2 62788  88.9821 123.4023 0013350 184.7867 175.3159 13.50951682 20572 | 2025/05/29-04:34:10  192.0023    0.1151  175.3284  106.5915     7446.8961     7436.9545     7456.8377 -48.985914  74.284550   0.000825  -0.001049
1 62788U 25016D   25150.22732411  .00000072  00000-0  92909-4 0  9992 | 2 62788  88.9821 123.2959 0013472 181.6570 178.4539 13.50951863 20713 | 2025/05/30-05:27:20  206.4153    0.1151  178.4581  106.5915     7446.8955     7436.8630     7456.9279 -48.847881  74.375390   0.000772  -0.001104
1 62788U 25016D   25151.56051263  .00000078  00000-0  10263-3 0  9997 | 2 62788  88.9822 123.1591 0013604 177.8018 182.3195 13.50951974 20890 | 2025/05/31-13:27:08  327.8036    0.1150  182.3132  106.5915     7446.8951     7436.7643     7457.0258 -48.670217  74.491891   0.000700  -0.001167
1 62788U 25016D   25152.89370090  .00000090  00000-0  12077-3 0  9995 | 2 62788  88.9822 123.0223 0013752 173.9045 186.2276 13.50952236 21078 | 2025/06/01-21:26:55   89.1914    0.1150  186.2105  106.5915     7446.8941     7436.6531     7457.1351 -48.492221  74.607884   0.000623  -0.001226
1 62788U 25016D   25154.15282293  .00000115  00000-0  15967-3 0  9992 | 2 62788  88.9823 122.8932 0013914 170.1950 189.9476 13.50952558 21245 | 2025/06/03-03:40:03  183.8350    0.1151  189.9201  106.5915     7446.8929     7436.5313     7457.2545 -48.324045  74.717042   0.000546  -0.001280
1 62788U 25016D   25155.18974682  .00000107  00000-0  14640-3 0  9994 | 2 62788  88.9824 122.7868 0014014 167.2848 192.8659 13.50952665 21388 | 2025/06/04-04:33:14  198.2479    0.1150  192.8302  106.5914     7446.8925     7436.4565     7457.3286 -48.185264  74.806737   0.000481  -0.001316
1 62788U 25016D   25156.22667049  .00000104  00000-0  14304-3 0  9990 | 2 62788  88.9825 122.6804 0014121 164.3427 195.8163 13.50952863 21527 | 2025/06/05-05:26:24  212.6606    0.1150  195.7723  106.5914     7446.8918     7436.3760     7457.4076 -48.046316  74.896173   0.000413  -0.001350
1 62788U 25016D   25157.55985782  .00000098  00000-0  13273-3 0  9990 | 2 62788  88.9826 122.5436 0014275 160.5625 199.6073 13.50953105 21708 | 2025/06/06-13:26:11  334.0481    0.1150  199.5525  106.5914     7446.8909     7436.2605     7457.5214 -47.867410  75.010760   0.000324  -0.001390
1 62788U 25016D   25158.59678114  .00000087  00000-0  11657-3 0  9995 | 2 62788  88.9826 122.4372 0014388 157.6707 202.5074 13.50953246 21845 | 2025/06/07-14:19:21  348.4606    0.1151  202.4444  106.5914     7446.8904     7436.1758     7457.6050 -47.728031  75.099522   0.000253  -0.001416
1 62788U 25016D   25159.70777024  .00000083  00000-0  10925-3 0  9992 | 2 62788  88.9828 122.3233 0014505 154.5864 205.6003 13.50953422 21991 | 2025/06/08-16:59:11   29.6171    0.1150  205.5286  106.5914     7446.8897     7436.0880     7457.6915 -47.578751  75.194422   0.000175  -0.001440
1 62788U 25016D   25160.89282507  .00000070  00000-0  89366-4 0  9993 | 2 62788  88.9828 122.2018 0014632 151.3158 208.8801 13.50953594 22153 | 2025/06/09-21:25:40   97.5171    0.1150  208.7992  106.5914     7446.8891     7435.9928     7457.7854 -47.419189  75.295148   0.000090  -0.001460
1 62788U 25016D   25161.92974793  .00000068  00000-0  86346-4 0  9995 | 2 62788  88.9829 122.0954 0014738 148.4815 211.7222 13.50953734 22296 | 2025/06/10-22:18:50  111.9300    0.1150  211.6335  106.5914     7446.8886     7435.9134     7457.8638 -47.279335  75.383161   0.000015  -0.001474
1 62788U 25016D   25163.85546151  .00000086  00000-0  11426-3 0  9998 | 2 62788  88.9830 121.8979 0014945 143.2389 216.9790 13.50954080 22552 | 2025/06/12-20:31:51   87.2683    0.1150  216.8761  106.5913     7446.8873     7435.7580     7458.0167 -47.019259  75.545771  -0.000127  -0.001489
1 62788U 25016D   25164.89238394  .00000098  00000-0  13286-3 0  9999 | 2 62788  88.9831 121.7915 0015035 140.4551 219.7700 13.50954277 22698 | 2025/06/13-21:25:01  101.6816    0.1150  219.6599  106.5913     7446.8866     7435.6902     7458.0830 -46.878940  75.633042  -0.000203  -0.001490
1 62788U 25016D   25166.15150395  .00000095  00000-0  12822-3 0  9996 | 2 62788  88.9832 121.6625 0015162 137.1187 223.1149 13.50954394 22860 | 2025/06/15-03:38:09  196.3263    0.1150  222.9963  106.5913     7446.8862     7435.5952     7458.1771 -46.708588  75.738482  -0.000295  -0.001487
1 62788U 25016D   25167.18842601  .00000112  00000-0  15505-3 0  9999 | 2 62788  88.9832 121.5563 0015252 134.3674 225.8729 13.50954606 23006 | 2025/06/16-04:31:20  210.7398    0.1150  225.7476  106.5913     7446.8854     7435.5274     7458.2434 -46.568124  75.824928  -0.000371  -0.001479
1 62788U 25016D   25168.52161121  .00000113  00000-0  15694-3 0  9999 | 2 62788  88.9833 121.4196 0015376 130.8527 229.3959 13.50954879 23188 | 2025/06/17-12:31:07  332.1289    0.1150  229.2623  106.5913     7446.8844     7435.4341     7458.3347 -46.387136  75.935903  -0.000468  -0.001465
1 62788U 25016D   25169.55853273  .00000122  00000-0  16935-3 0  9998 | 2 62788  88.9834 121.3133 0015470 128.1359 232.1189 13.50955112 23321 | 2025/06/18-13:24:17  346.5428    0.1150  231.9791  106.5913     7446.8835     7435.3632     7458.4039 -46.246225  76.021919  -0.000543  -0.001449
1 62788U 25016D   25170.59546183  .00000104  00000-0  14225-3 0  9993 | 2 62788  88.9835 121.2071 0015553 125.4164 234.8442 13.50945484 23465 | 2025/06/19-14:17:27    0.9597    0.1150  234.6986  106.5920     7446.9189     7435.3367     7458.5011 -46.105288  76.107593  -0.000617  -0.001428
1 62788U 25016D   25171.85458928  .00000056  00000-0  68509-4 0  9993 | 2 62788  88.9835 121.0781 0015657 122.1609 238.1064 13.50945687 23635 | 2025/06/20-20:30:36   95.6090    0.1151  237.9542  106.5920     7446.9182     7435.2585     7458.5778 -45.933817  76.211205  -0.000705  -0.001398
1 62788U 25016D   25172.89151757  .00000087  00000-0  11526-3 0  9998 | 2 62788  88.9836 120.9718 0015731 119.4814 240.7908 13.50945897 23778 | 2025/06/21-21:23:47  110.0266    0.1150  240.6336  106.5920     7446.9174     7435.2027     7458.6321 -45.792396  76.296380  -0.000776  -0.001369
1 62788U 25016D   25174.52097588  .00000071  00000-0  90967-4 0  9991 | 2 62788  88.9837 120.8048 0015836 115.2967 244.9827 13.50946134 23998 | 2025/06/23-12:30:12  338.3975    0.1151  244.8184  106.5920     7446.9165     7435.1236     7458.7095 -45.569872  76.429612  -0.000883  -0.001314
1 62788U 25016D   25175.55790374  .00000078  00000-0  10135-3 0  9993 | 2 62788  88.9837 120.6985 0015904 112.6571 247.6264 13.50946297 24136 | 2025/06/24-13:23:22  352.8158    0.1151  247.4580  106.5919     7446.9159     7435.0724     7458.7595 -45.427995  76.514026  -0.000949  -0.001276
1 62788U 25016D   25176.59483141  .00000069  00000-0  88577-4 0  9995 | 2 62788  88.9837 120.5923 0015970 110.0194 250.2679 13.50946413 24278 | 2025/06/25-14:16:33    7.2342    0.1152  250.0958  106.5919     7446.9155     7435.0228     7458.8082 -45.286095  76.598097  -0.001013  -0.001234
1 62788U 25016D   25177.85395764  .00000083  00000-0  11033-3 0  9996 | 2 62788  88.9837 120.4632 0016040 106.8217 253.4695 13.50946625 24449 | 2025/06/26-20:29:41  101.8859    0.1151  253.2934  106.5919     7446.9147     7434.9699     7458.8596 -45.113388  76.699942  -0.001088  -0.001179
1 62788U 25016D   25178.89088489  .00000088  00000-0  11762-3 0  9998 | 2 62788  88.9837 120.3570 0016092 104.1990 256.0950 13.50946780 24585 | 2025/06/27-21:22:52  116.3051    0.1151  255.9161  106.5919     7446.9142     7434.9306     7458.8977 -44.971144  76.783430  -0.001147  -0.001129
1 62788U 25016D   25180.52034156  .00000104  00000-0  14254-3 0  9991 | 2 62788  88.9837 120.1900 0016167 100.0911 260.2064 13.50947065 24806 | 2025/06/29-12:29:17  344.6791    0.1150  260.0239  106.5919     7446.9131     7434.8737     7458.9525 -44.747153  76.914181  -0.001233  -0.001045
1 62788U 25016D   25181.55726822  .00000117  00000-0  16228-3 0  9990 | 2 62788  88.9838 120.0837 0016206  97.4803 262.8190 13.50947293 24944 | 2025/06/30-13:22:27  359.0992    0.1151  262.6348  106.5919     7446.9123     7434.8438     7458.9807 -44.604428  76.997154  -0.001285  -0.000988
1 62788U 25016D   25182.59419454  .00000126  00000-0  17662-3 0  9998 | 2 62788  88.9838 119.9775 0016242  94.8725 265.4281 13.50947558 25086 | 2025/07/01-14:15:38   13.5196    0.1151  265.2426  106.5919     7446.9113     7434.8160     7459.0066 -44.461634  77.079697  -0.001333  -0.000928
1 62788U 25016D   25183.85331893  .00000137  00000-0  19368-3 0  9995 | 2 62788  88.9838 119.8484 0016277  91.7036 268.5980 13.50947920 25253 | 2025/07/02-20:28:46  108.1736    0.1151  268.4115  106.5918     7446.9100     7434.7886     7459.0313 -44.287844  77.179683  -0.001387  -0.000852
1 62788U 25016D   25184.89024451  .00000136  00000-0  19158-3 0  9995 | 2 62788  88.9839 119.7421 0016299  89.1079 271.1939 13.50948195 25390 | 2025/07/03-21:21:57  122.5949    0.1151  271.0072  106.5918     7446.9090     7434.7712     7459.0467 -44.144627  77.261804  -0.001428  -0.000786
1 62788U 25016D   25186.59376457  .00000115  00000-0  15969-3 0  9993 | 2 62788  88.9839 119.5676 0016332  84.8601 275.4414 13.50948559 25626 | 2025/07/05-14:15:01   17.7160    0.1152  275.2551  106.5918     7446.9076     7434.7453     7459.0699 -43.909114  77.395892  -0.001487  -0.000675
1 62788U 25016D   25187.85288755  .00000112  00000-0  15488-3 0  9999 | 2 62788  88.9840 119.4385 0016347  81.7172 278.5832 13.50948876 25797 | 2025/07/06-20:28:09  112.3715    0.1151  278.3979  106.5917     7446.9065     7434.7330     7459.0799 -43.734662  77.494720  -0.001525  -0.000590
1 62788U 25016D   25188.88981212  .00000100  00000-0  13572-3 0  9990 | 2 62788  88.9840 119.3323 0016350  79.1290 281.1700 13.50949070 25931 | 2025/07/07-21:21:19  126.7940    0.1151  280.9861  106.5917     7446.9057     7434.7301     7459.0814 -43.590948  77.575650  -0.001551  -0.000518
1 62788U 25016D   25189.92673642  .00000108  00000-0  14887-3 0  9999 | 2 62788  88.9840 119.2260 0016354  76.5512 283.7461 13.50949335 26074 | 2025/07/08-22:14:30  141.2168    0.1152  283.5640  106.5917     7446.9048     7434.7261     7459.0834 -43.446948  77.656391  -0.001574  -0.000445
1 62788U 25016D   25190.96366055  .00000112  00000-0  15399-3 0  9996 | 2 62788  88.9839 119.1197 0016342  73.9368 286.3581 13.50949519 26219 | 2025/07/09-23:07:40  155.6402    0.1151  286.1783  106.5917     7446.9041     7434.7344     7459.0738 -43.302750  77.736776  -0.001592  -0.000369
