# SPACE DATA - HISTORICAL TLEs
# ----------------------------
# NORAD_ID    : 60396
# OBJECT_NAME : QIANFAN-18
# --------------------------------------------------------------------+-----------------------------------------------------------------------+----------------------------------------------------------------------------------------------------------------------------------------
#                  LINE 1                                             |                 LINE 2                                                |      DERIVED PARAMETERS
# --------------------------------------------------------------------+-----------------------------------------------------------------------+----------------------------------------------------------------------------------------------------------------------------------------
# NORAD  COSPAR     TLE_EPOCH      MEANMOT1 MEANMOT2   BSTAR  #  REV  |   NORAD    INC     RAAN     ECC    ARGPER  MEANANOM   MEANMOT     REV |  CAL_DATE              LONG     ARGLAT     PERIOD        SMA         PERIGEE        APOGEE      INC_X      INC_Y      ECC_X      ECC_Y
# ------ ------   -------------- ----------  -------  ------- -- ----     -----  ------- -------- ------- -------- -------- -----------  ----   ------------------- ---------  --------  --------  ------------  ------------   ----------- ---------- ----------  ---------  ---------   
1 62793U 25016J   25036.80247575  .00001337  00000-0  54672-3 0  9996 | 2 62793  88.9949 135.4287 0015509 168.7199 191.4346 14.26679821  5107 | 2025/02/05-19:15:33  289.4966    0.1193  191.3994  100.9336     7180.9874     7169.8504     7192.1244 -63.397980  62.456292   0.000871  -0.001284
1 62793U 25016J   25039.18775469 -.00052241  00000-0 -21977-1 0  9990 | 2 62793  88.9946 135.1541 0016287 165.1089 195.0588 14.26195766  5443 | 2025/02/08-04:30:22   70.8094    0.1193  195.0104  100.9679     7182.6121     7170.9138     7194.3104 -63.097707  62.759208   0.000821  -0.001407
1 62793U 25016J   25040.59105523  .00001134  00000-0  47158-3 0  9999 | 2 62793  88.9946 134.9929 0016532 157.8508 202.3403 14.25683979  5644 | 2025/02/09-14:11:07  217.5186    0.1192  202.2684  101.0042     7184.3309     7172.4538     7196.2081 -62.920887  62.936483   0.000642  -0.001524
1 62793U 25016J   25041.85441544  .00000292  00000-0  11664-3 0  9992 | 2 62793  88.9944 134.8473 0016708 153.9554 206.2483 14.25685054  5825 | 2025/02/10-20:30:21  313.7065    0.1192  206.1638  101.0041     7184.3273     7172.3237     7196.3309 -62.760608  63.096032   0.000539  -0.001582
1 62793U 25016J   25042.90721297  .00000228  00000-0  89889-4 0  9999 | 2 62793  88.9941 134.7265 0016785 150.9768 209.2362 14.25688460  5978 | 2025/02/11-21:46:23  333.8628    0.1192  209.1424  101.0038     7184.3159     7172.2570     7196.3747 -62.627229  63.228000   0.000454  -0.001616
1 62793U 25016J   25044.59168701  .00000747  00000-0  30849-3 0  9998 | 2 62793  88.9940 134.5326 0016966 145.8813 214.3474 14.25691310  6215 | 2025/02/13-14:12:01  222.1119    0.1192  214.2379  101.0036     7184.3063     7172.1174     7196.4952 -62.412825  63.439509   0.000307  -0.001669
1 62793U 25016J   25045.92522552  .00001079  00000-0  44859-3 0  9999 | 2 62793  88.9938 134.3791 0017046 141.8830 218.3573 14.25694996  6409 | 2025/02/14-22:12:19  343.6421    0.1193  218.2363  101.0034     7184.2939     7172.0476     7196.5403 -62.242502  63.606347   0.000186  -0.001694
1 62793U 25016J   25047.60969102  .00001072  00000-0  44537-3 0  9998 | 2 62793  88.9936 134.1853 0017195 136.9223 223.3320 14.25698661  6645 | 2025/02/16-14:37:57  231.8898    0.1193  223.1970  101.0031     7184.2816     7171.9282     7196.6350 -62.026861  63.816372   0.000033  -0.001719
1 62793U 25016J   25048.94322222  .00001176  00000-0  48921-3 0  9998 | 2 62793  88.9935 134.0318 0017289 133.0312 227.2332 14.25702405  6839 | 2025/02/17-22:38:14  353.4188    0.1192  227.0880  101.0028     7184.2690     7171.8481     7196.6899 -61.855600  63.982246  -0.000089  -0.001727
1 62793U 25016J   25050.55749283  .00001177  00000-0  48950-3 0  9991 | 2 62793  88.9933 133.8460 0017399 128.3334 231.9427 14.25706297  7061 | 2025/02/19-13:22:47  216.3214    0.1193  231.7859  101.0026     7184.2559     7171.7561     7196.7558 -61.647654  64.182351  -0.000237  -0.001724
1 62793U 25016J   25051.61027557  .00001136  00000-0  47228-3 0  9994 | 2 62793  88.9932 133.7247 0017467 125.2655 235.0176 14.25708671  7211 | 2025/02/20-14:38:47  236.4752    0.1193  234.8538  101.0024     7184.2480     7171.6992     7196.7967 -61.511567  64.312648  -0.000334  -0.001715
1 62793U 25016J   25052.66353431  .00001006  00000-0  42772-3 0  9998 | 2 62793  88.9931 133.6032 0017545 122.3161 237.9733 14.24436808  7363 | 2025/02/21-15:55:29  256.8016    0.1191  237.8030  101.0926     7188.5238     7175.9116     7201.1361 -61.374980  64.442871  -0.000427  -0.001702
1 62793U 25016J   25054.49344286  .00000974  00000-0  44749-3 0  9998 | 2 62793  88.9930 133.3935 0017731 116.9161 243.3844 14.20406957  7628 | 2025/02/23-11:50:33  197.5710    0.1190  243.2029  101.3794     7202.1138     7189.3438     7214.8839 -61.138643  64.666996  -0.000597  -0.001669
1 62793U 25016J   25056.04506260  .00001052  00000-0  51246-3 0  9991 | 2 62793  88.9928 133.2172 0018230 115.9853 244.3216 14.17353269  7840 | 2025/02/25-01:04:53   37.8533    0.1188  244.1335  101.5978     7212.4548     7199.3064     7225.6031 -60.939236  64.854668  -0.000647  -0.001704
1 62793U 25016J   25057.45860859  .00000959  00000-0  48924-3 0  9998 | 2 62793  88.9922 133.0563 0018105 109.1544 251.1605 14.14859639  8049 | 2025/02/26-11:00:23  188.2760    0.1187  250.9643  101.7769     7220.9267     7207.8532     7234.0002 -60.756459  65.025106  -0.000844  -0.001602
1 62793U 25016J   25058.52003091  .00000890  00000-0  46895-3 0  9993 | 2 62793  88.9917 132.9373 0018718 106.0189 254.3061 14.13015994  8195 | 2025/02/27-12:28:50  211.5432    0.1186  254.0997  101.9097     7227.2064     7213.6785     7240.7343 -60.620934  65.150787  -0.000965  -0.001604
1 62793U 25016J   25060.07961186  .00000809  00000-0  44999-3 0  9997 | 2 62793  88.9948 132.7648 0017686 103.9373 256.3780 14.10039075  8414 | 2025/03/01-01:54:38   54.7117    0.1184  256.1811  102.1248     7237.3750     7224.5750     7250.1750 -60.426615  65.335278  -0.000971  -0.001478
1 62793U 25016J   25061.49993155  .00000592  00000-0  33954-3 0  9993 | 2 62793  88.9929 132.6032 0018253  95.3745 264.9521 14.07985824  8615 | 2025/03/02-11:59:54  207.5770    0.1183  264.7438  102.2738     7244.4094     7231.1862     7257.6326 -60.240814  65.504050  -0.001222  -0.001356
1 62793U 25016J   25062.70942284  .00000479  00000-0  28837-3 0  9993 | 2 62793  88.9923 132.4753 0020796  81.0116 279.3418 14.05055832  8784 | 2025/03/03-17:01:34  284.2871    0.1182  279.1066  102.4870     7254.4772     7239.3908     7269.5636 -60.094036  65.637918  -0.001734  -0.001147
1 62793U 25016J   25063.84947130  .00000423  00000-0  25880-3 0  9998 | 2 62793  88.9915 132.3399 0018155  92.1530 268.1730 14.03971071  8940 | 2025/03/04-20:23:14  335.9910    0.1181  267.9651  102.5662     7258.2134     7245.0362     7271.3907 -59.938215  65.779156  -0.001295  -0.001272
1 62793U 25016J   25064.91867687  .00000405  00000-0  25012-3 0  9992 | 2 62793  88.9912 132.2211 0017833  88.9575 271.3648 14.03313571  9099 | 2025/03/05-22:02:53    2.0814    0.1180  271.1605  102.6143     7260.4804     7247.5328     7273.4280 -59.801495  65.903072  -0.001342  -0.001174
1 62793U 25016J   25066.06057920  .00000353  00000-0  22604-3 0  9997 | 2 62793  88.9910 132.0942 0018037  85.9372 274.3869 14.01115763  9252 | 2025/03/07-01:27:14   54.4169    0.1180  274.1808  102.7752     7268.0710     7254.9616     7281.1804 -59.655251  66.035211  -0.001421  -0.001111
1 62793U 25016J   25067.06119005  .00000370  00000-0  24459-3 0  9990 | 2 62793  88.9908 131.9795 0018176  84.9871 275.3381 13.99459280  9396 | 2025/03/08-01:28:06   55.7366    0.1178  275.1307  102.8969     7273.8052     7260.5843     7287.0260 -59.522802  66.154354  -0.001452  -0.001093
1 62793U 25016J   25068.56406525  .00000429  00000-0  29571-3 0  9997 | 2 62793  88.9932 131.8170 0017400  75.1378 285.1725 13.97386655  9600 | 2025/03/09-13:32:15  238.4304    0.1178  284.9800  103.0495     7280.9958     7268.3269     7293.6647 -59.336539  66.324692  -0.001551  -0.000789
1 62793U 25016J   25069.78250143  .00000406  00000-0  28868-3 0  9998 | 2 62793  88.9903 131.6837 0017980  75.9543 284.3631 13.95510177  9772 | 2025/03/10-18:46:48  318.3946    0.1177  284.1634  103.1881     7287.5213     7274.4183     7300.6242 -59.180144  66.460395  -0.001593  -0.000834
1 62793U 25016J   25070.93018029  .00000420  00000-0  30257-3 0  9993 | 2 62793  88.9903 131.5579 0017915  73.0548 287.2590 13.94871821  9935 | 2025/03/11-22:19:27   12.8196    0.1176  287.0628  103.2353     7289.7445     7276.6849     7302.8041 -59.034079  66.590172  -0.001629  -0.000746
1 62793U 25016J   25072.22198214  .00000494  00000-0  36591-3 0  9990 | 2 62793  88.9899 131.4158 0017946  69.5301 290.7799 13.93605382 10110 | 2025/03/13-05:19:39  119.2874    0.1176  290.5875  103.3291     7294.1602     7281.0701     7307.2503 -58.868482  66.736078  -0.001676  -0.000642
1 62793U 25016J   25073.51509274  .00000492  00000-0  37247-3 0  9992 | 2 62793  88.9901 131.2744 0017881  65.8108 294.4933 13.92343954 10298 | 2025/03/14-12:21:44  226.2291    0.1175  294.3067  103.4227     7298.5651     7285.5145     7311.6157 -58.703737  66.881306  -0.001709  -0.000525
1 62793U 25016J   25074.66547059  .00000476  00000-0  36880-3 0  9996 | 2 62793  88.9891 131.1502 0017550  63.5698 296.7274 13.90897812 10455 | 2025/03/15-15:58:16  281.6301    0.1174  296.5476  103.5303     7303.6232     7290.8053     7316.4410 -58.557963  67.007648  -0.001697  -0.000446
1 62793U 25016J   25076.53747495  .00000469  00000-0  37593-3 0  9994 | 2 62793  88.9897 130.9446 0017722  58.7670 301.5237 13.89048515 10711 | 2025/03/17-12:53:57  237.6089    0.1174  301.3504  103.6681     7310.1042     7297.1492     7323.0591 -58.317530  67.217798  -0.001747  -0.000299
1 62793U 25016J   25077.69070008  .00000464  00000-0  38176-3 0  9994 | 2 62793  88.9862 130.8277 0018171  52.7681 307.5145 13.87473109 10879 | 2025/03/18-16:34:36  294.0316    0.1172  307.3491  103.7858     7315.6366     7302.3434     7328.9299 -58.177976  67.333995  -0.001814  -0.000114
1 62793U 25016J   25079.20625476  .00000487  00000-0  41406-3 0  9993 | 2 62793  88.9894 130.6560 0017499  51.1697 309.1033 13.85652667 11083 | 2025/03/20-04:57:00  121.3064    0.1172  308.9475  103.9221     7322.0426     7309.2298     7334.8555 -57.978018  67.510464  -0.001749  -0.000056
1 62793U 25016J   25080.21730255  .00000604  00000-0  52108-3 0  9990 | 2 62793  88.9893 130.5463 0017803  48.2058 312.0630 13.85158565 11220 | 2025/03/21-05:12:54  126.3940    0.1171  311.9113  103.9592     7323.7838     7310.7452     7336.8223 -57.848590  67.621270  -0.001780   0.000039
1 62793U 25016J   25081.44608798  .00000648  00000-0  57422-3 0  9994 | 2 62793  88.9875 130.4143 0018126  44.0060 316.2549 13.83623404 11390 | 2025/03/22-10:42:22  210.1078    0.1170  316.1110  104.0746     7329.2000     7315.9151     7342.4849 -57.691481  67.752993  -0.001804   0.000176
1 62793U 25016J   25082.53156209  .00000486  00000-0  43745-3 0  9993 | 2 62793  88.9887 130.2970 0017521  42.7260 317.5268 13.82399718 11540 | 2025/03/23-12:45:26  242.0738    0.1170  317.3910  104.1667     7333.5246     7320.6755     7346.3736 -57.553428  67.871877  -0.001739   0.000213
1 62793U 25016J   25083.54514598  .00000426  00000-0  38695-3 0  9996 | 2 62793  88.9919 130.1910 0019702  39.1792 321.0799 13.81512067 11689 | 2025/03/24-13:05:00  248.0627    0.1170  320.9378  104.2336     7336.6655     7322.2108     7351.1202 -57.429828  67.980682  -0.001936   0.000363
1 62793U 25016J   25084.84965100  .00000391  00000-0  36486-3 0  9996 | 2 62793  88.9891 130.0393 0015175  41.3154 318.9158 13.79901953 11866 | 2025/03/25-20:23:29  359.1499    0.1168  318.8014  104.3552     7342.3715     7331.2295     7353.5136 -57.247836  68.130354  -0.001500   0.000228
1 62793U 25016J   25085.86526262  .00000395  00000-0  37295-3 0  9994 | 2 62793  88.9879 129.9396 0017330  33.5449 326.6812 13.79126651 12001 | 2025/03/26-20:45:58    5.8759    0.1168  326.5719  104.4139     7345.1230     7332.3939     7357.8521 -57.128426  68.228948  -0.001662   0.000493
1 62793U 25016J   25087.17146437  .00000354  00000-0  33899-3 0  9993 | 2 62793  88.9878 129.7984 0017052  30.2828 329.9320 13.78182168 12180 | 2025/03/28-04:06:54  117.5485    0.1167  329.8339  104.4855     7348.4784     7335.9478     7361.0091 -56.960045  68.369451  -0.001603   0.000581
1 62793U 25016J   25088.18828682  .00000325  00000-0  31615-3 0  9996 | 2 62793  88.9879 129.6909 0017057  26.8358 333.3687 13.77038968 12329 | 2025/03/29-04:31:07  124.7246    0.1167  333.2809  104.5722     7352.5449     7340.0037     7365.0862 -56.831732  68.476278  -0.001565   0.000679
1 62793U 25016J   25089.56966771  .00000290  00000-0  28641-3 0  9997 | 2 62793  88.9877 129.5436 0016768  23.1579 337.0338 13.75897330 12513 | 2025/03/30-13:40:19  263.5434    0.1166  336.9587  104.6590     7356.6115     7344.2760     7368.9471 -56.655373  68.622004  -0.001490   0.000769
1 62793U 25016J   25091.46231576  .00000250  00000-0  25581-3 0  9993 | 2 62793  88.9900 129.3361 0018712  16.6317 343.5457 13.73344138 12776 | 2025/04/01-11:05:44  226.9840    0.1165  343.4848  104.8535     7365.7265     7351.9438     7379.5093 -56.407941  68.828513  -0.001551   0.001047
1 62793U 25016J   25092.55559829  .00000241  00000-0  24883-3 0  9992 | 2 62793  88.9871 129.2263 0016315  14.5959 345.5672 13.72737190 12920 | 2025/04/02-13:20:03  261.7674    0.1164  345.5205  104.8999     7367.8975     7355.8768     7379.9182 -56.274103  68.934239  -0.001317   0.000963
1 62793U 25016J   25093.57607619  .00000113  00000-0  10945-3 0  9998 | 2 62793  88.9869 129.1181 0016201  11.6443 348.5092 13.72737280 13060 | 2025/04/03-13:49:32  270.2631    0.1164  348.4721  104.8999     7367.8972     7355.9604     7379.8339 -56.143698  69.040231  -0.001255   0.001025
1 62793U 25016J   25095.47290800  .00000285  00000-0  30919-3 0  9992 | 2 62793  88.9864 128.9187 0016002   8.1414 352.0004 13.70189594 13325 | 2025/04/05-11:20:59  235.2032    0.1162  351.9748  105.0949     7377.0274     7365.2227     7388.8321 -55.902771  69.234814  -0.001171   0.001090
1 62793U 25016J   25096.56880865  .00000273  00000-0  30006-3 0  9993 | 2 62793  88.9862 128.8017 0015714   2.6025 357.5216 13.69237861 13470 | 2025/04/06-13:39:05  270.9423    0.1163  357.5138  105.1680     7380.4455     7368.8478     7392.0431 -55.761150  69.348670  -0.001039   0.001179
1 62793U 25016J   25097.81124472  .00000270  00000-0  29960-3 0  9991 | 2 62793  88.9857 128.6707 0015555 358.4702   1.6409 13.68711019 13646 | 2025/04/07-19:28:11  359.5879    0.1162    1.6460  105.2085     7382.3392     7370.8560     7393.8225 -55.602134  69.475589  -0.000939   0.001240
1 62793U 25016J   25098.83536914  .00000252  00000-0  28569-3 0  9996 | 2 62793  88.9861 128.5611 0015524 353.6836   6.4126 13.67160916 13782 | 2025/04/08-20:02:55    9.4066    0.1161    6.4325  105.3278     7387.9183     7376.4493     7399.3873 -55.469383  69.582135  -0.000828   0.001313
1 62793U 25016J   25100.88647466  .00000269  00000-0  31480-3 0  9994 | 2 62793  88.9852 128.3480 0014980 349.0886  10.9947 13.65415078 14066 | 2025/04/10-21:16:31   30.0523    0.1161   11.0275  105.4624     7394.2145     7383.1380     7405.2910 -55.209645  69.787254  -0.000690   0.001330
1 62793U 25016J   25104.48307005  .00000233  00000-0  28925-3 0  9997 | 2 62793  88.9876 127.9706 0015366 340.9178  19.1402 13.61296285 14555 | 2025/04/14-11:35:37  248.7743    0.1158   19.1980  105.7815     7409.1218     7397.7370     7420.5067 -54.750248  70.151289  -0.000497   0.001454
1 62793U 25016J   25105.88044649  .00000218  00000-0  27624-3 0  9992 | 2 62793  88.9849 127.8265 0014360 333.9379  26.1053 13.59973684 14745 | 2025/04/15-21:07:50   33.3660    0.1157   26.1778  105.8844     7413.9247     7403.2783     7424.5711 -54.571987  70.286632  -0.000293   0.001406
1 62793U 25016J   25106.98420595  .00000294  00000-0  38243-3 0  9995 | 2 62793  88.9857 127.7138 0013869 330.2565  29.7801 13.59238460 14894 | 2025/04/16-23:37:15   71.9267    0.1157   29.8592  105.9417     7416.5980     7406.3119     7426.8841 -54.434118  70.394471  -0.000192   0.001374
1 62793U 25016J   25108.53125621  .00000190  00000-0  24681-3 0  9996 | 2 62793  88.9849 127.5511 0013917 324.7377  35.2856 13.57801618 15107 | 2025/04/18-12:45:00  270.5656    0.1156   35.3779  106.0538     7421.8293     7411.5003     7432.1582 -54.233516  70.548127  -0.000056   0.001391
1 62793U 25016J   25109.93142958  .00000199  00000-0  25926-3 0  9995 | 2 62793  88.9846 127.4055 0013762 320.2307  39.7839 13.57777607 15298 | 2025/04/19-22:21:15   56.1624    0.1156   39.8849  106.0557     7421.9168     7411.7027     7432.1308 -54.053882  70.685479   0.000057   0.001375
1 62793U 25016J   25111.55269516  .00000222  00000-0  29134-3 0  9998 | 2 62793  88.9844 127.2382 0013611 314.6612  45.3433 13.57775887 15512 | 2025/04/21-13:15:52  281.5934    0.1156   45.4544  106.0558     7421.9230     7411.8211     7432.0250 -53.847133  70.842852   0.000192   0.001348
1 62793U 25016J   25112.87927116  .00000064  00000-0  72792-4 0  9994 | 2 62793  88.9841 127.1011 0013621 309.8986  50.0970 13.57441320 15698 | 2025/04/22-21:06:09   40.6143    0.1155   50.2169  106.0819     7423.1425     7413.0314     7433.2536 -53.677282  70.971258   0.000306   0.001327
1 62793U 25016J   25113.91123865  .00000063  00000-0  70709-4 0  9994 | 2 62793  88.9841 126.9939 0013547 306.4581  53.5325 13.57442428 15833 | 2025/04/23-21:52:11   53.2519    0.1156   53.6575  106.0818     7423.1385     7413.0823     7433.1946 -53.544402  71.071563   0.000386   0.001299
1 62793U 25016J   25115.16456157  .00000059  00000-0  66505-4 0  9990 | 2 62793  88.9842 126.8651 0013517 302.0617  57.9224 13.56525098 16003 | 2025/04/25-03:56:58  145.8188    0.1155   58.0538  106.1536     7426.4846     7416.4462     7436.5230 -53.384559  71.191830   0.000486   0.001261
1 62793U 25016J   25116.56689545  .00000185  00000-0  25171-3 0  9997 | 2 62793  88.9842 126.7193 0013400 297.5884  62.3908 13.55013853 16197 | 2025/04/26-13:36:19  292.1919    0.1154   62.5270  106.2720     7432.0054     7422.0465     7441.9643 -53.203225  71.327447   0.000581   0.001208
1 62793U 25016J   25117.74845611  .00000182  00000-0  24829-3 0  9992 | 2 62793  88.9838 126.5976 0013580 293.9458  66.0272 13.54719859 16356 | 2025/04/27-17:57:46  358.8463    0.1153   66.1695  106.2950     7433.0806     7422.9865     7443.1747 -53.051363  71.439972   0.000668   0.001182
1 62793U 25016J   25118.78318484  .00000164  00000-0  22694-3 0  9998 | 2 62793  88.9845 126.4899 0013076 290.4331  69.5417 13.53112165 16499 | 2025/04/28-18:47:47   12.4744    0.1153   69.6822  106.4213     7438.9672     7429.2400     7448.6944 -52.917398  71.540130   0.000714   0.001096
1 62793U 25016J   25121.66907746  .00000146  00000-0  20769-3 0  9995 | 2 62793  88.9837 126.1954 0013517 281.0481  78.9150 13.50813032 16880 | 2025/05/01-16:03:28  334.5464    0.1152   79.0671  106.6025     7447.4057     7437.3391     7457.4724 -52.548512  71.810533   0.000918   0.000992
1 62793U 25016J   25122.92846900  .00000149  00000-0  21412-3 0  9998 | 2 62793  88.9839 126.0661 0013586 276.4367  83.5237 13.50640973 17053 | 2025/05/02-22:16:59   69.3007    0.1151   83.6784  106.6160     7448.0382     7437.9193     7458.1571 -52.386441  71.929099   0.001002   0.000918
1 62793U 25016J   25123.96591740  .00000149  00000-0  21477-3 0  9993 | 2 62793  88.9838 125.9597 0013622 272.0767  87.8824 13.50219524 17193 | 2025/05/03-23:10:55   83.9124    0.1151   88.0384  106.6493     7449.5880     7439.4401     7459.7358 -52.252717  72.026177   0.001073   0.000839
1 62793U 25016J   25125.81843079  .00000058  00000-0  72390-4 0  9994 | 2 62793  88.9837 125.7703 0013690 266.1374  93.8212 13.50767007 17442 | 2025/05/05-19:38:32   32.8330    0.1151   93.9777  106.6061     7447.5749     7437.3792     7457.7706 -52.014280  72.198432   0.001162   0.000724
1 62793U 25016J   25126.92942950  .00000163  00000-0  23460-3 0  9995 | 2 62793  88.9837 125.6564 0013679 262.2664  97.6934 13.50952905 17594 | 2025/05/06-22:18:22   74.0003    0.1151   97.8487  106.5914     7446.8916     7436.7050     7457.0783 -51.870652  72.301690   0.001209   0.000641
1 62793U 25016J   25127.96635657  .00000154  00000-0  21943-3 0  9997 | 2 62793  88.9836 125.5501 0013682 258.8544 101.1069 13.50947633 17733 | 2025/05/07-23:11:33   88.4209    0.1151  101.2607  106.5918     7446.9110     7436.7222     7457.0999 -51.736365  72.397719   0.001246   0.000565
1 62793U 25016J   25129.29954752  .00000155  00000-0  22119-3 0  9992 | 2 62793  88.9837 125.4136 0013708 254.4116 105.5523 13.50947916 17910 | 2025/05/09-07:11:20  209.8176    0.1152  105.7036  106.5918     7446.9100     7436.7018     7457.1182 -51.563797  72.520850   0.001290   0.000465
1 62793U 25016J   25130.55867254  .00000054  00000-0  65603-4 0  9997 | 2 62793  88.9838 125.2846 0013746 250.3054 109.6615 13.50947739 18084 | 2025/05/10-13:24:29  304.4696    0.1151  109.8097  106.5918     7446.9106     7436.6741     7457.1472 -51.400446  72.636842   0.001324   0.000369
1 62793U 25016J   25131.59559896  .00000046  00000-0  52774-4 0  9998 | 2 62793  88.9838 125.1784 0013782 246.9014 113.0684 13.50947804 18225 | 2025/05/11-14:17:39  318.8885    0.1150  113.2136  106.5918     7446.9104     7436.6471     7457.1737 -51.265722  72.731990   0.001348   0.000288
1 62793U 25016J   25132.92879022  .00000034  00000-0  34862-4 0  9997 | 2 62793  88.9839 125.0419 0013833 242.4654 117.5092 13.50947857 18408 | 2025/05/12-22:17:27   80.2831    0.1151  117.6497  106.5918     7446.9102     7436.6089     7457.2115 -51.092360  72.854000   0.001371   0.000181
1 62793U 25016J   25133.96571671  .00000041  00000-0  45330-4 0  9991 | 2 62793  88.9839 124.9357 0013881 239.0185 120.9603 13.50947974 18542 | 2025/05/13-23:10:37   94.7007    0.1151  121.0966  106.5918     7446.9098     7436.5727     7457.2468 -50.957234  72.948576   0.001385   0.000096
1 62793U 25016J   25135.52110670  .00000030  00000-0  28116-4 0  9994 | 2 62793  88.9840 124.7764 0013964 233.8741 126.1118 13.50948003 18752 | 2025/05/15-12:30:23  296.3264    0.1150  126.2409  106.5918     7446.9097     7436.5108     7457.3085 -50.754275  73.090053   0.001396  -0.000033
1 62793U 25016J   25136.70616574  .00000043  00000-0  48060-4 0  9993 | 2 62793  88.9840 124.6550 0014034 230.1327 129.8590 13.50948086 18916 | 2025/05/16-16:56:52    4.2313    0.1150  129.9823  106.5918     7446.9094     7436.4584     7457.3604 -50.599296  73.197429   0.001398  -0.000127
1 62793U 25016J   25137.89122486  .00000051  00000-0  61084-4 0  9998 | 2 62793  88.9840 124.5336 0014120 226.2389 133.7594 13.50948210 19072 | 2025/05/17-21:23:21   72.1354    0.1150  133.8761  106.5918     7446.9089     7436.3939     7457.4239 -50.444089  73.304475   0.001394  -0.000226
1 62793U 25016J   25138.92815170  .00000047  00000-0  53577-4 0  9995 | 2 62793  88.9840 124.4275 0014190 222.8165 137.1882 13.50948258 19210 | 2025/05/18-22:16:32   86.5508    0.1151  137.2986  106.5918     7446.9087     7436.3416     7457.4759 -50.308258  73.397762   0.001384  -0.000313
1 62793U 25016J   25140.18727713  .00000049  00000-0  56625-4 0  9990 | 2 62793  88.9841 124.2986 0014285 218.8998 141.1126 13.50948280 19381 | 2025/05/20-04:29:40  181.1982    0.1150  141.2152  106.5918     7446.9086     7436.2707     7457.5466 -50.143062  73.510838   0.001368  -0.000413
1 62793U 25016J   25141.22420395  .00000052  00000-0  62205-4 0  9997 | 2 62793  88.9842 124.1924 0014370 215.6000 144.4194 13.50948363 19526 | 2025/05/21-05:22:51  195.6131    0.1151  144.5151  106.5918     7446.9083     7436.2071     7457.6095 -50.006777  73.603737   0.001349  -0.000496
1 62793U 25016J   25142.55739559  .00000046  00000-0  53008-4 0  9993 | 2 62793  88.9843 124.0559 0014487 211.3519 148.6770 13.50948466 19707 | 2025/05/22-13:22:38  317.0032    0.1151  148.7632  106.5918     7446.9080     7436.1196     7457.6963 -49.831340  73.722746   0.001317  -0.000603
1 62793U 25016J   25143.89058718  .00000064  00000-0  81001-4 0  9996 | 2 62793  88.9844 123.9195 0014604 207.1933 152.8455 13.50948640 19886 | 2025/05/23-21:22:26   78.3927    0.1151  152.9218  106.5918     7446.9073     7436.0319     7457.7828 -49.655748  73.841250   0.001279  -0.000705
1 62793U 25016J   25144.92751391  .00000058  00000-0  71624-4 0  9991 | 2 62793  88.9845 123.8133 0014703 203.9436 156.1033 13.50948742 20020 | 2025/05/24-22:15:37   92.8065    0.1150  156.1714  106.5918     7446.9069     7435.9578     7457.8561 -49.518851  73.933245   0.001244  -0.000784
1 62793U 25016J   25147.89016158  .00000056  00000-0  67638-4 0  9993 | 2 62793  88.9846 123.5101 0015003 194.7739 165.2976 13.50949081 20428 | 2025/05/27-21:21:49   82.5583    0.1151  165.3412  106.5917     7446.9057     7435.7331     7458.0783 -49.126971  74.194337   0.001120  -0.000998
1 62793U 25016J   25149.22335292  .00000050  00000-0  58441-4 0  9991 | 2 62793  88.9846 123.3736 0015145 190.6933 169.3898 13.50949206 20605 | 2025/05/29-05:21:37  203.9462    0.1150  169.4217  106.5917     7446.9052     7435.6269     7458.1836 -48.950074  74.311166   0.001053  -0.001088
1 62793U 25016J   25150.55654415  .00000073  00000-0  94089-4 0  9993 | 2 62793  88.9846 123.2372 0015291 186.6634 173.4316 13.50949437 20781 | 2025/05/30-13:21:25  325.3336    0.1150  173.4516  106.5917     7446.9044     7435.5173     7458.2915 -48.773028  74.427487   0.000981  -0.001173
1 62793U 25016J   25151.59347058  .00000078  00000-0  10149-3 0  9999 | 2 62793  88.9847 123.1310 0015398 183.5980 176.5063 13.50949555 20921 | 2025/05/31-14:14:35  339.7460    0.1150  176.5170  106.5917     7446.9040     7435.4372     7458.3707 -48.635044  74.517845   0.000921  -0.001234
1 62793U 25016J   25152.85259536  .00000105  00000-0  14467-3 0  9990 | 2 62793  88.9847 123.0022 0015538 179.8769 180.2389 13.50949857 21096 | 2025/06/01-20:27:44   74.3893    0.1151  180.2382  106.5917     7446.9028     7435.3319     7458.4738 -48.467407  74.626988   0.000844  -0.001305
1 62793U 25016J   25153.88952150  .00000105  00000-0  14403-3 0  9996 | 2 62793  88.9848 122.8961 0015664 176.7796 183.3459 13.50950053 21230 | 2025/06/02-21:20:54   88.8012    0.1150  183.3354  106.5917     7446.9021     7435.2373     7458.5670 -48.329184  74.716696   0.000776  -0.001361
1 62793U 25016J   25155.14864593  .00000102  00000-0  13928-3 0  9998 | 2 62793  88.9849 122.7672 0015796 173.1540 186.9830 13.50950228 21408 | 2025/06/04-03:34:03  183.4444    0.1150  186.9610  106.5916     7446.9015     7435.1384     7458.6646 -48.161024  74.825318   0.000690  -0.001421
1 62793U 25016J   25156.18557170  .00000112  00000-0  15477-3 0  9995 | 2 62793  88.9850 122.6611 0015903 170.1757 189.9708 13.50950453 21541 | 2025/06/05-04:27:13  197.8563    0.1150  189.9393  106.5916     7446.9007     7435.0579     7458.7435 -48.022434  74.914458   0.000617  -0.001466
1 62793U 25016J   25157.59282794  .00000092  00000-0  12320-3 0  9999 | 2 62793  88.9851 122.5171 0016068 166.1193 194.0403 13.50950656 21739 | 2025/06/06-14:13:40  345.9865    0.1150  193.9957  106.5916     7446.8999     7434.9342     7458.8656 -47.834056  75.034999   0.000513  -0.001523
1 62793U 25016J   25158.92601777  .00000091  00000-0  12181-3 0  9997 | 2 62793  88.9852 122.3807 0016208 162.3279 197.8440 13.50950901 21918 | 2025/06/07-22:13:27  107.3730    0.1151  197.7872  106.5916     7446.8990     7434.8291     7458.9689 -47.655343  75.148746   0.000412  -0.001568
1 62793U 25016J   25160.25920735  .00000080  00000-0  10559-3 0  9999 | 2 62793  88.9854 122.2443 0016363 158.5709 201.6131 13.50951100 22095 | 2025/06/09-06:13:15  228.7596    0.1151  201.5442  106.5916     7446.8983     7434.7129     7459.0836 -47.476414  75.262152   0.000307  -0.001607
1 62793U 25016J   25161.51833071  .00000068  00000-0  86746-4 0  9993 | 2 62793  88.9855 122.1155 0016502 155.0375 205.1578 13.50951223 22260 | 2025/06/10-12:26:23  323.4026    0.1151  205.0776  106.5916     7446.8978     7434.6090     7459.1867 -47.307159  75.368773   0.000205  -0.001637
1 62793U 25016J   25162.55525565  .00000066  00000-0  84085-4 0  9996 | 2 62793  88.9856 122.0095 0016610 152.1527 208.0516 13.50951365 22407 | 2025/06/11-13:19:34  337.8146    0.1150  207.9623  106.5916     7446.8973     7434.5280     7459.2666 -47.167695  75.456249   0.000121  -0.001657
1 62793U 25016J   25163.88844461  .00000088  00000-0  11814-3 0  9995 | 2 62793  88.9856 121.8731 0016756 148.4674 211.7484 13.50951673 22589 | 2025/06/12-21:19:21   99.2016    0.1149  211.6475  106.5915     7446.8962     7434.4182     7459.3742 -46.987929  75.568324   0.000010  -0.001676
1 62793U 25016J   25164.92536920  .00000091  00000-0  12259-3 0  9997 | 2 62793  88.9857 121.7670 0016862 145.6286 214.5959 13.50951843 22720 | 2025/06/13-22:12:31  113.6139    0.1150  214.4864  106.5915     7446.8956     7434.3386     7459.4525 -46.847964  75.655291  -0.000077  -0.001684
1 62793U 25016J   25166.55482181  .00000096  00000-0  13017-3 0  9995 | 2 62793  88.9857 121.6004 0017019 141.2065 219.0312 13.50952073 22945 | 2025/06/15-13:18:56  341.9763    0.1151  218.9086  106.5915     7446.8947     7434.2208     7459.5686 -46.627782  75.791192  -0.000213  -0.001689
1 62793U 25016J   25167.59174596  .00000115  00000-0  16001-3 0  9996 | 2 62793  88.9858 121.4944 0017120 138.4129 221.8328 13.50952296 23080 | 2025/06/16-14:12:06  356.3890    0.1151  221.7022  106.5915     7446.8939     7434.1448     7459.6430 -46.487537  75.877411  -0.000300  -0.001686
1 62793U 25016J   25168.85086777  .00000114  00000-0  15791-3 0  9993 | 2 62793  88.9858 121.3656 0017237 135.0321 225.2229 13.50952557 23252 | 2025/06/17-20:25:14   91.0334    0.1150  225.0829  106.5915     7446.8929     7434.0567     7459.7291 -46.316848  75.981723  -0.000405  -0.001675
1 62793U 25016J   25169.88779142  .00000111  00000-0  15286-3 0  9998 | 2 62793  88.9859 121.2596 0017335 132.2586 228.0038 13.50952730 23393 | 2025/06/18-21:18:25  105.4466    0.1150  227.8564  106.5914     7446.8923     7433.9831     7459.8015 -46.176251  76.067366  -0.000492  -0.001662
1 62793U 25016J   25171.51724233  .00000102  00000-0  13833-3 0  9998 | 2 62793  88.9861 121.0931 0017481 127.9292 232.3442 13.50953004 23611 | 2025/06/20-12:24:49  333.8105    0.1150  232.1858  106.5914     7446.8913     7433.8734     7459.9092 -45.955110  76.201403  -0.000626  -0.001632
1 62793U 25016J   25172.55416533  .00000096  00000-0  12955-3 0  9990 | 2 62793  88.9862 120.9871 0017567 125.2020 235.0779 13.50953187 23758 | 2025/06/21-13:17:59  348.2243    0.1151  234.9131  106.5914     7446.8906     7433.8087     7459.9726 -45.814107  76.286378  -0.000709  -0.001607
1 62793U 25016J   25173.59108814  .00000088  00000-0  11813-3 0  9998 | 2 62793  88.9862 120.8811 0017649 122.4740 237.8120 13.50953349 23895 | 2025/06/22-14:11:10    2.6385    0.1150  237.6410  106.5914     7446.8900     7433.7470     7460.0330 -45.672895  76.371005  -0.000791  -0.001577
1 62793U 25016J   25174.85020843  .00000073  00000-0  93849-4 0  9997 | 2 62793  88.9862 120.7524 0017741 119.1857 241.1071 13.50953526 24060 | 2025/06/23-20:24:18   97.2847    0.1150  240.9293  106.5914     7446.8894     7433.6778     7460.1009 -45.501232  76.473405  -0.000889  -0.001535
1 62793U 25016J   25175.88713079  .00000083  00000-0  11026-3 0  9998 | 2 62793  88.9863 120.6463 0017814 116.4780 243.8201 13.50953740 24206 | 2025/06/24-21:17:28  111.6996    0.1151  243.6371  106.5914     7446.8886     7433.6227     7460.1545 -45.359592  76.557619  -0.000967  -0.001496
1 62793U 25016J   25176.92405302  .00000083  00000-0  10917-3 0  9999 | 2 62793  88.9863 120.5403 0017887 113.7903 246.5126 13.50953872 24343 | 2025/06/25-22:10:38  126.1148    0.1151  246.3248  106.5914     7446.8881     7433.5678     7460.2083 -45.217879  76.641405  -0.001043  -0.001453
1 62793U 25016J   25178.55350184  .00000093  00000-0  12476-3 0  9990 | 2 62793  88.9863 120.3737 0017983 109.5685 250.7410 13.50954100 24560 | 2025/06/27-13:17:02  354.4825    0.1151  250.5466  106.5913     7446.8873     7433.4955     7460.2790 -44.994837  76.772562  -0.001157  -0.001376
1 62793U 25016J   25179.59042351  .00000091  00000-0  12242-3 0  9998 | 2 62793  88.9863 120.2678 0018039 106.8860 253.4271 13.50954258 24706 | 2025/06/28-14:10:12    8.8986    0.1151  253.2291  106.5913     7446.8867     7433.4532     7460.3201 -44.852861  76.855595  -0.001227  -0.001323
1 62793U 25016J   25180.84954238  .00000106  00000-0  14563-3 0  9999 | 2 62793  88.9863 120.1390 0018101 103.6471 256.6697 13.50954515 24870 | 2025/06/29-20:23:20  103.5476    0.1151  256.4680  106.5913     7446.8857     7433.4061     7460.3653 -44.679978  76.956229  -0.001307  -0.001253
1 62793U 25016J   25181.88646347  .00000110  00000-0  15220-3 0  9999 | 2 62793  88.9863 120.0331 0018148 100.9892 259.3301 13.50954731 25011 | 2025/06/30-21:16:30  117.9646    0.1150  259.1258  106.5913     7446.8849     7433.3703     7460.3995 -44.537663  77.038680  -0.001369  -0.001191
1 62793U 25016J   25183.21964734  .00000124  00000-0  17280-3 0  9994 | 2 62793  88.9863 119.8968 0018205  97.5971 262.7249 13.50955055 25194 | 2025/07/02-05:16:17  239.3584    0.1151  262.5180  106.5913     7446.8837     7433.3267     7460.4408 -44.354271  77.144411  -0.001444  -0.001108
1 62793U 25016J   25184.47876489  .00000131  00000-0  18330-3 0  9997 | 2 62793  88.9864 119.7681 0018244  94.3691 265.9545 13.50955378 25364 | 2025/07/03-11:29:25  334.0089    0.1151  265.7460  106.5912     7446.8826     7433.2965     7460.4687 -44.180924  77.243934  -0.001510  -0.001024
1 62793U 25016J   25185.51568484  .00000133  00000-0  18668-3 0  9992 | 2 62793  88.9864 119.6620 0018275  91.7332 268.5913 13.50955679 25501 | 2025/07/04-12:22:35  348.4273    0.1152  268.3820  106.5912     7446.8815     7433.2723     7460.4906 -44.037809  77.325615  -0.001560  -0.000952
1 62793U 25016J   25186.55260456  .00000119  00000-0  16555-3 0  9992 | 2 62793  88.9865 119.5560 0018302  89.0945 271.2303 13.50955881 25649 | 2025/07/05-13:15:45    2.8461    0.1151  271.0206  106.5912     7446.8807     7433.2514     7460.5100 -43.894727  77.407042  -0.001606  -0.000878
1 62793U 25016J   25187.58952393  .00000114  00000-0  15764-3 0  9990 | 2 62793  88.9865 119.4500 0018322  86.4606 273.8640 13.50956136 25780 | 2025/07/06-14:08:54   17.2654    0.1151  273.6545  106.5912     7446.8798     7433.2356     7460.5239 -43.751445  77.488117  -0.001648  -0.000801
1 62793U 25016J   25188.84863998  .00000107  00000-0  14662-3 0  9990 | 2 62793  88.9865 119.3213 0018340  83.2504 277.0733 13.50956409 25953 | 2025/07/07-20:22:02  111.9178    0.1151  276.8647  106.5912     7446.8788     7433.2212     7460.5363 -43.577278  77.586198  -0.001694  -0.000704
1 62793U 25016J   25189.88555876  .00000108  00000-0  14785-3 0  9995 | 2 62793  88.9865 119.2153 0018349  80.6251 279.6973 13.50956656 26098 | 2025/07/08-21:15:12  126.3379    0.1151  279.4900  106.5911     7446.8779     7433.2136     7460.5421 -43.433665  77.666685  -0.001726  -0.000623
1 62793U 25016J   25190.92247737  .00000100  00000-0  13610-3 0  9994 | 2 62793  88.9865 119.1093 0018346  77.9665 282.3541 13.50956810 26235 | 2025/07/09-22:08:22  140.7584    0.1151  282.1486  106.5911     7446.8773     7433.2153     7460.5393 -43.289903  77.746906  -0.001754  -0.000539
