# SPACE DATA - HISTORICAL TLEs
# ----------------------------
# NORAD_ID    : 60396
# OBJECT_NAME : QIANFAN-18
# --------------------------------------------------------------------+-----------------------------------------------------------------------+----------------------------------------------------------------------------------------------------------------------------------------
#                  LINE 1                                             |                 LINE 2                                                |      DERIVED PARAMETERS
# --------------------------------------------------------------------+-----------------------------------------------------------------------+----------------------------------------------------------------------------------------------------------------------------------------
# NORAD  COSPAR     TLE_EPOCH      MEANMOT1 MEANMOT2   BSTAR  #  REV  |   NORAD    INC     RAAN     ECC    ARGPER  MEANANOM   MEANMOT     REV |  CAL_DATE              LONG     ARGLAT     PERIOD        SMA         PERIGEE        APOGEE      INC_X      INC_Y      ECC_X      ECC_Y
# ------ ------   -------------- ----------  -------  ------- -- ----     -----  ------- -------- ------- -------- -------- -----------  ----   ------------------- ---------  --------  --------  ------------  ------------   ----------- ---------- ----------  ---------  ---------   
1 62796U 25016M   25036.80240085  .00001318  00000-0  53889-3 0  9996 | 2 62796  88.9950 135.4287 0015440 168.3396 191.8158 14.26686807  5108 | 2025/02/05-19:15:27  289.4686    0.1192  191.7796  100.9332     7180.9639     7169.8765     7192.0513 -63.398051  62.456362   0.000858  -0.001284
1 62796U 25016M   25039.11709000 -.00020425  00000-0 -85021-2 0  9994 | 2 62796  88.9946 135.1622 0015956 160.7518 199.4281 14.26530044  5435 | 2025/02/08-02:48:36   45.2802    0.1192  199.3674  100.9442     7181.4900     7170.0312     7192.9488 -63.106579  62.750287   0.000697  -0.001435
1 62796U 25016M   25040.59047481  .00001211  00000-0  50117-3 0  9995 | 2 62796  88.9946 134.9927 0016142 155.2614 204.9357 14.26004620  5649 | 2025/02/09-14:10:17  217.3032    0.1193  204.8579  100.9814     7183.2539     7171.6587     7194.8491 -62.920667  62.936702   0.000559  -0.001514
1 62796U 25016M   25041.92372136  .00001123  00000-0  46422-3 0  9997 | 2 62796  88.9944 134.8392 0016270 151.2686 208.9407 14.26007502  5832 | 2025/02/10-22:10:09  338.7274    0.1192  208.8506  100.9812     7183.2443     7171.5571     7194.9314 -62.751688  63.104904   0.000451  -0.001563
1 62796U 25016M   25043.60781888  .00001017  00000-0  41967-3 0  9993 | 2 62796  88.9942 134.6454 0016442 146.2527 213.9716 14.26010581  6073 | 2025/02/12-14:35:15  226.8412    0.1192  213.8665  100.9810     7183.2339     7171.4232     7195.0446 -62.537740  63.316655   0.000311  -0.001615
1 62796U 25016M   25044.94105996  .00001019  00000-0  42034-3 0  9999 | 2 62796  88.9939 134.4919 0016554 142.3207 217.9149 14.26013330  6269 | 2025/02/13-22:35:07  348.2643    0.1192  217.7985  100.9808     7183.2247     7171.3336     7195.1158 -62.367675  63.483757   0.000196  -0.001644
1 62796U 25016M   25046.48480880  .00001103  00000-0  45572-3 0  9992 | 2 62796  88.9938 134.3142 0016694 137.7877 222.4605 14.26017082  6481 | 2025/02/15-11:38:07  185.7006    0.1193  222.3316  100.9806     7183.2121     7171.2204     7195.2037 -62.170414  63.676810   0.000061  -0.001668
1 62796U 25016M   25047.53736259  .00001093  00000-0  45142-3 0  9994 | 2 62796  88.9937 134.1930 0016777 134.7133 225.5430 14.26019350  6634 | 2025/02/16-12:53:48  205.7705    0.1193  225.4060  100.9804     7183.2045     7171.1532     7195.2557 -62.035507  63.808107  -0.000032  -0.001677
1 62796U 25016M   25048.58991427  .00001158  00000-0  47875-3 0  9997 | 2 62796  88.9936 134.0718 0016846 131.6492 228.6147 14.26022115  6785 | 2025/02/17-14:09:28  225.8402    0.1193  228.4701  100.9802     7183.1952     7171.0944     7195.2960 -61.900323  63.939119  -0.000126  -0.001680
1 62796U 25016M   25049.92314341  .00001129  00000-0  46663-3 0  9992 | 2 62796  88.9934 133.9183 0016933 127.8071 232.4659 14.26025225  6971 | 2025/02/18-22:09:19  347.2612    0.1193  232.3122  100.9800     7183.1847     7171.0215     7195.3480 -61.728664  64.104581  -0.000244  -0.001676
1 62796U 25016M   25051.60721765  .00001157  00000-0  47802-3 0  9999 | 2 62796  88.9932 133.7243 0017035 122.9266 237.3569 14.26029582  7212 | 2025/02/20-14:34:23  235.3713    0.1193  237.1927  100.9797     7183.1701     7170.9336     7195.4066 -61.511118  64.313078  -0.000393  -0.001657
1 62796U 25016M   25052.73041496  .00001020  00000-0  43523-3 0  9995 | 2 62796  88.9906 133.5955 0017228 131.1815 229.0866 14.24259789  7374 | 2025/02/21-17:31:47  280.9736    0.1191  228.9376  101.1052     7189.1194     7176.7340     7201.5049 -61.364595  64.449308  -0.000157  -0.001716
1 62796U 25016M   25053.92560057  .00000962  00000-0  42443-3 0  9990 | 2 62796  88.9927 133.4590 0017486 116.5583 243.7403 14.22480460  7545 | 2025/02/22-22:12:51  352.5244    0.1191  243.5608  101.2316     7195.1133     7182.5319     7207.6946 -61.212323  64.596843  -0.000598  -0.001643
1 62796U 25016M   25054.98134921  .00000979  00000-0  44089-3 0  9990 | 2 62796  88.9928 133.3371 0017282 113.3846 246.9164 14.21462926  7694 | 2025/02/23-23:33:08   13.7541    0.1190  246.7344  101.3041     7198.5465     7186.1060     7210.9871 -61.074820  64.727002  -0.000683  -0.001588
1 62796U 25016M   25056.88462615  .00001000  00000-0  48336-3 0  9990 | 2 62796  88.9938 133.1068 0018692 119.9533 240.3515 14.17709758  7967 | 2025/02/25-21:13:51  341.0362    0.1189  240.1656  101.5723     7211.2456     7197.7664     7224.7249 -60.814841  64.972698  -0.000545  -0.001788
1 62796U 25016M   25058.08530728  .00000580  00000-0  28552-3 0  9995 | 2 62796  88.9924 132.9835 0017292 104.5812 255.7294 14.16196334  8139 | 2025/02/27-02:02:50   54.5824    0.1187  255.5375  101.6808     7216.3823     7203.9037     7228.8608 -60.673925  65.102397  -0.000927  -0.001459
1 62796U 25016M   25059.50041820  .00000947  00000-0  50125-3 0  9991 | 2 62796  88.9927 132.8231 0017405  99.9667 260.3485 14.12864614  8337 | 2025/02/28-12:00:36  205.5729    0.1186  260.1519  101.9206     7227.7226     7215.1427     7240.3024 -60.491637  65.272219  -0.001053  -0.001386
1 62796U 25016M   25060.56361615  .00000813  00000-0  44344-3 0  9994 | 2 62796  88.9925 132.7037 0017562  97.2973 263.0209 14.11092476  8481 | 2025/03/01-13:31:36  229.4885    0.1185  262.8212  102.0486     7233.7727     7221.0687     7246.4766 -60.355348  65.397990  -0.001129  -0.001345
1 62796U 25016M   25062.47914553  .00000681  00000-0  38404-3 0  9994 | 2 62796  88.9968 132.4921 0018590  99.0736 261.2552 14.09092564  8752 | 2025/03/03-11:29:58  201.1681    0.1183  261.0447  102.1934     7240.6156     7227.1553     7254.0759 -60.116319  65.623613  -0.001156  -0.001456
1 62796U 25016M   25064.54162837  .00000276  00000-0  16001-3 0  9993 | 2 62796  88.9922 132.2583 0017480  86.2658 274.0523 14.05807853  9046 | 2025/03/05-12:59:56  225.9393    0.1183  273.8525  102.4322     7251.8898     7239.2135     7264.5661 -59.844943  65.864971  -0.001368  -0.001089
1 62796U 25016M   25066.67927401  .00000501  00000-0  31698-3 0  9995 | 2 62796  88.9948 132.0175 0019331  77.3479 282.9862 14.02407212  9347 | 2025/03/07-16:18:09  277.8235    0.1181  282.7702  102.6806     7263.6083     7249.5670     7277.6496 -59.569342  66.117834  -0.001685  -0.000948
1 62796U 25016M   25067.75010203  .00000507  00000-0  32663-3 0  9997 | 2 62796  88.9919 131.9014 0017395  77.5878 282.7248 14.01433775  9492 | 2025/03/08-18:00:08  304.5147    0.1181  282.5303  102.7519     7266.9715     7254.3306     7279.6124 -59.433306  66.236246  -0.001514  -0.000856
1 62796U 25016M   25069.46450571  .00000672  00000-0  45008-3 0  9993 | 2 62796  88.9909 131.7127 0017485  74.9076 285.4036 13.99625632  9738 | 2025/03/10-11:08:53  203.5799    0.1179  285.2103  102.8847     7273.2288     7260.5116     7285.9460 -59.214174  66.430880  -0.001563  -0.000783
1 62796U 25016M   25070.82425397  .00000588  00000-0  41161-3 0  9995 | 2 62796  88.9912 131.5617 0017031  69.1170 291.1829 13.97033448  9923 | 2025/03/11-19:46:55  334.5918    0.1178  291.0008  103.0756     7282.2230     7269.8206     7294.6253 -59.039093  66.586930  -0.001593  -0.000601
1 62796U 25016M   25071.89884284  .00000337  00000-0  23395-3 0  9998 | 2 62796  88.9907 131.4438 0016874  66.0134 294.2807 13.96435830 10075 | 2025/03/12-21:34:20    2.6266    0.1177  294.1043  103.1197     7284.3005     7272.0090     7296.5920 -58.901618  66.707901  -0.001610  -0.000506
1 62796U 25016M   25073.40511176  .00000515  00000-0  37824-3 0  9994 | 2 62796  88.9898 131.2785 0016701  61.6244 298.6613 13.94091943 10286 | 2025/03/14-09:43:21  186.5418    0.1176  298.4932  103.2930     7292.4629     7280.2838     7304.6421 -58.708325  66.876880  -0.001628  -0.000373
1 62796U 25016M   25074.55445717  .00000492  00000-0  37165-3 0  9990 | 2 62796  88.9906 131.1535 0016738  58.6410 301.6399 13.92403489 10443 | 2025/03/15-13:18:25  241.5688    0.1174  301.4764  103.4183     7298.3571     7286.1411     7310.5730 -58.562809  67.005405  -0.001649  -0.000285
1 62796U 25016M   25075.56053402  .00000361  00000-0  26996-3 0  9993 | 2 62796  88.9902 131.0431 0016645  55.8711 304.4039 13.92404070 10587 | 2025/03/16-13:27:10  244.8644    0.1174  304.2463  103.4183     7298.3550     7286.2069     7310.5031 -58.433329  67.117820  -0.001652  -0.000200
1 62796U 25016M   25076.71040281  .00000360  00000-0  27182-3 0  9999 | 2 62796  88.9916 130.9042 0016547  50.8013 309.4628 13.91846758 10748 | 2025/03/17-17:02:58  300.1003    0.1175  309.3162  103.4597     7300.3031     7288.2233     7312.3829 -58.271363  67.260338  -0.001654  -0.000049
1 62796U 25016M   25077.78940656  .00000356  00000-0  27640-3 0  9996 | 2 62796  88.9896 130.7985 0016340  50.3022 309.9589 13.90337085 10899 | 2025/03/18-18:56:44  329.7139    0.1174  309.8152  103.5720     7305.5868     7293.6494     7317.5241 -58.145875  67.366209  -0.001634  -0.000031
1 62796U 25016M   25079.15782511  .00000457  00000-0  36783-3 0  9993 | 2 62796  88.9897 130.6510 0016259  46.5408 313.7114 13.88695099 11085 | 2025/03/20-03:47:16  103.8498    0.1173  313.5765  103.6945     7311.3444     7299.4568     7323.2319 -57.972322  67.515750  -0.001624   0.000080
1 62796U 25016M   25080.16681731  .00000436  00000-0  35630-3 0  9995 | 2 62796  88.9894 130.5404 0016203  42.7396 317.5033 13.87721288 11223 | 2025/03/21-04:00:13  108.2014    0.1173  317.3777  103.7672     7314.7644     7302.9123     7326.6165 -57.841691  67.627303  -0.001609   0.000190
1 62796U 25016M   25081.53758703  .00000437  00000-0  36927-3 0  9992 | 2 62796  88.9887 130.3963 0015827  41.0317 319.2041 13.85908359 11412 | 2025/03/22-12:54:07  243.1808    0.1171  319.0854  103.9030     7321.1420     7309.5549     7332.7292 -57.670971  67.772028  -0.001565   0.000236
1 62796U 25016M   25082.54885919  .00000450  00000-0  38597-3 0  9994 | 2 62796  88.9891 130.2836 0015922  37.4396 322.7880 13.85053368 11553 | 2025/03/23-13:10:21  248.3564    0.1171  322.6775  103.9671     7324.1546     7312.4931     7335.8161 -57.537812  67.885640  -0.001556   0.000339
1 62796U 25016M   25083.84993096  .00000429  00000-0  37786-3 0  9999 | 2 62796  88.9873 130.1416 0015921  33.8013 326.4168 13.83451110 11736 | 2025/03/24-20:23:54  358.1761    0.1170  326.3157  104.0875     7329.8085     7318.1387     7341.4783 -57.368229  68.026656  -0.001530   0.000440
1 62796U 25016M   25085.15283352  .00000422  00000-0  38159-3 0  9990 | 2 62796  88.9884 130.0028 0015725  29.9880 330.2186 13.81870378 11918 | 2025/03/26-03:40:04  108.6556    0.1169  330.1289  104.2066     7335.3972     7323.8623     7346.9321 -57.203972  68.166274  -0.001478   0.000538
1 62796U 25016M   25086.16681252  .00000408  00000-0  37402-3 0  9997 | 2 62796  88.9883 129.8937 0015520  27.1660 333.0317 13.80930823 12055 | 2025/03/27-04:00:12  114.8054    0.1169  332.9509  104.2775     7338.7241     7327.3344     7350.1138 -57.074005  68.274999  -0.001429   0.000605
1 62796U 25016M   25087.18159747  .00000360  00000-0  33449-3 0  9993 | 2 62796  88.9882 129.7844 0015866  28.0002 332.2016 13.79919199 12196 | 2025/03/28-04:21:30  121.2334    0.1169  332.1167  104.3539     7342.3103     7330.6610     7353.9596 -56.943593  68.383674  -0.001469   0.000600
1 62796U 25016M   25088.34255032  .00000325  00000-0  30846-3 0  9995 | 2 62796  88.9879 129.6605 0015386  21.4200 338.7607 13.78381780 12353 | 2025/03/29-08:13:16  180.4657    0.1167  338.6967  104.4703     7347.7690     7336.4637     7359.0742 -56.795391  68.506422  -0.001347   0.000744
1 62796U 25016M   25089.50403878  .00000270  00000-0  25397-3 0  9991 | 2 62796  88.9877 129.5362 0015238  17.6291 342.5402 13.78381958 12514 | 2025/03/30-12:05:48  239.8821    0.1168  342.4877  104.4703     7347.7683     7336.5718     7358.9649 -56.646510  68.629321  -0.001280   0.000826
1 62796U 25016M   25091.46637224  .00000267  00000-0  26471-3 0  9993 | 2 62796  89.0177 129.2881 0024243  23.4015 336.8248 13.75346527 12780 | 2025/04/01-11:11:34  228.4474    0.1167  336.7152  104.7009     7358.5755     7340.7361     7376.4149 -56.367800  68.897184  -0.002154   0.001112
1 62796U 25016M   25092.48523433  .00000263  00000-0  26371-3 0  9997 | 2 62796  88.9874 129.2184 0014831   9.1480 350.9952 13.74752691 12924 | 2025/04/02-11:38:44  236.3948    0.1166  350.9686  104.7461     7360.6944     7349.7778     7371.6111 -56.264787  68.942230  -0.001108   0.000985
1 62796U 25016M   25094.37923876  .00000273  00000-0  28453-3 0  9996 | 2 62796  88.9865 129.0158 0014498   2.5803 357.5432 13.72364504 13183 | 2025/04/04-09:06:06  200.3255    0.1164  357.5361  104.9284     7369.2313     7358.5474     7379.9152 -56.020087  69.140054  -0.000962   0.001084
1 62796U 25016M   25095.54633581  .00000262  00000-0  27689-3 0  9995 | 2 62796  88.9865 128.8937 0014459   0.1808 359.9358 13.71552550 13341 | 2025/04/05-13:06:43  261.7598    0.1164  359.9356  104.9905     7372.1394     7361.4800     7382.7988 -55.872620  69.259278  -0.000911   0.001122
1 62796U 25016M   25097.88395322  .00000253  00000-0  28241-3 0  9997 | 2 62796  88.9873 128.6402 0013662 353.2295   6.8679 13.68256354 13660 | 2025/04/07-21:12:53   25.8788    0.1162    6.8867  105.2434     7383.9746     7373.8866     7394.0626 -55.566142  69.506427  -0.000721   0.001160
1 62796U 25016M   25098.90809067  .00000253  00000-0  28356-3 0  9994 | 2 62796  88.9860 128.5390 0013922 350.1398   9.9487 13.67789349 13801 | 2025/04/08-21:47:39   35.6879    0.1161    9.9763  105.2794     7385.6552     7375.3729     7395.9375 -55.442478  69.603447  -0.000668   0.001221
1 62796U 25016M   25099.93237223  .00000252  00000-0  28599-3 0  9995 | 2 62796  88.9872 128.4348 0013801 344.5967  15.4771 13.67184215 13945 | 2025/04/09-22:22:36   45.5577    0.1161   15.5194  105.3260     7387.8344     7377.6384     7398.0303 -55.316549  69.705101  -0.000540   0.001270
1 62796U 25016M   25101.47067367  .00000243  00000-0  28509-3 0  9999 | 2 62796  88.9890 128.2682 0015020 346.8423  13.2342 13.64895704 14154 | 2025/04/11-11:17:46  241.0263    0.1160   13.2737  105.5026     7396.0902     7384.9812     7407.1991 -55.114748  69.867065  -0.000637   0.001360
1 62796U 25016M   25102.79111848  .00000239  00000-0  28682-3 0  9996 | 2 62796  88.9856 128.1316 0013452 337.9113  22.1464 13.63701476 14338 | 2025/04/12-18:59:12  357.8434    0.1159   22.2046  105.5950     7400.4075     7390.4525     7410.3625 -54.945920  69.995592  -0.000372   0.001293
1 62796U 25016M   25103.89172681  .00000044  00000-0  39433-4 0  9991 | 2 62796  88.9853 128.0166 0013346 334.4090  25.6406 13.63701400 14482 | 2025/04/13-21:24:05   35.2703    0.1159   25.7069  105.5950     7400.4078     7390.5312     7410.2844 -54.805135  70.105498  -0.000287   0.001303
1 62796U 25016M   25104.99248880  .00000038  00000-0  32971-4 0  9991 | 2 62796  88.9860 127.9049 0012844 330.7243  29.3193 13.62961252 14632 | 2025/04/14-23:49:11   72.7473    0.1158   29.3915  105.6523     7403.0867     7393.5782     7412.5952 -54.668788  70.212761  -0.000193   0.001270
1 62796U 25016M   25106.38841392  .00000231  00000-0  28824-3 0  9999 | 2 62796  88.9851 127.7562 0013059 325.8469  34.1847 13.61109621 14828 | 2025/04/16-09:19:18  216.8169    0.1158   34.2689  105.7960     7409.7992     7400.1227     7419.4757 -54.485829  70.353695  -0.000082   0.001303
1 62796U 25016M   25107.56463070  .00000210  00000-0  26037-3 0  9994 | 2 62796  88.9850 127.6334 0013012 322.1922  37.8320 13.61109313 14987 | 2025/04/17-13:33:04  281.5445    0.1158   37.9236  105.7961     7409.8003     7400.1587     7419.4419 -54.334857  70.470232   0.000004   0.001301
1 62796U 25016M   25108.81438952  .00000198  00000-0  24496-3 0  9996 | 2 62796  88.9854 127.4996 0012561 316.6338  43.3829 13.60900953 15154 | 2025/04/18-19:32:43   12.8308    0.1157   43.4819  105.8123     7410.5566     7401.2482     7419.8650 -54.170386  70.597243   0.000128   0.001250
1 62796U 25016M   25109.84445642  .00000197  00000-0  24975-3 0  9995 | 2 62796  88.9856 127.3929 0013861 315.4617  44.5424 13.59408763 15291 | 2025/04/19-20:16:01   24.7894    0.1157   44.6540  105.9284     7415.9785     7405.6993     7426.2578 -54.038943  70.698159   0.000172   0.001375
1 62796U 25016M   25110.87555784  .00000195  00000-0  25219-3 0  9999 | 2 62796  88.9846 127.2893 0012742 310.6821  49.3227 13.58322329 15432 | 2025/04/20-21:00:48   37.1051    0.1156   49.4335  106.0131     7419.9324     7410.4779     7429.3869 -53.910415  70.794959   0.000266   0.001246
1 62796U 25016M   25111.90697134  .00000208  00000-0  27265-3 0  9998 | 2 62796  88.9847 127.1827 0012812 307.1470  52.8514 13.57810288 15576 | 2025/04/21-21:46:02   49.5436    0.1155   52.9685  106.0531     7421.7977     7412.2889     7431.3065 -53.778667  70.895217   0.000346   0.001234
1 62796U 25016M   25113.74928022  .00000204  00000-0  26702-3 0  9996 | 2 62796  88.9840 126.9915 0012472 300.7253  59.2672 13.57770399 15826 | 2025/04/23-17:58:57  354.7878    0.1154   59.3901  106.0562     7421.9430     7412.6864     7431.1997 -53.541365  71.073726   0.000473   0.001154
1 62796U 25016M   25114.85469274  .00000214  00000-0  28023-3 0  9997 | 2 62796  88.9843 126.8769 0012433 296.8224  63.1659 13.57770908 15976 | 2025/04/24-20:30:45   33.9446    0.1155   63.2931  106.0562     7421.9412     7412.7135     7431.1689 -53.399280  71.180914   0.000551   0.001115
1 62796U 25016M   25115.96010543  .00000210  00000-0  27530-3 0  9999 | 2 62796  88.9843 126.7625 0012389 293.0601  66.9247 13.57771181 16120 | 2025/04/25-23:02:33   73.1006    0.1155   67.0554  106.0562     7421.9402     7412.7452     7431.1352 -53.257050  71.287392   0.000623   0.001071
1 62796U 25016M   25117.21290667  .00000076  00000-0  88190-4 0  9996 | 2 62796  88.9843 126.6327 0012340 288.7899  71.1917 13.57771016 16292 | 2025/04/27-05:06:35  165.4769    0.1155   71.3256  106.0562     7421.9408     7412.7821     7431.0995 -53.095416  71.407860   0.000700   0.001016
1 62796U 25016M   25118.46570778  .00000060  00000-0  66886-4 0  9999 | 2 62796  88.9842 126.5030 0012308 284.5314  75.4475 13.57771136 16469 | 2025/04/28-11:10:37  257.8525    0.1155   75.5841  106.0562     7421.9404     7412.8054     7431.0753 -52.933575  71.527788   0.000774   0.000957
1 62796U 25016M   25121.70825208  .00000060  00000-0  66307-4 0  9999 | 2 62796  88.9840 126.1669 0012253 273.4302  86.5451 13.57771428 16904 | 2025/05/01-16:59:52  348.7042    0.1155   86.6853  106.0561     7421.9393     7412.8452     7431.0334 -52.512963  71.836905   0.000944   0.000781
1 62796U 25016M   25122.96105337  .00000059  00000-0  64545-4 0  9992 | 2 62796  88.9840 126.0371 0012245 269.0838  90.8914 13.57771547 17072 | 2025/05/02-23:03:55   81.0774    0.1155   91.0317  106.0561     7421.9389     7412.8507     7431.0270 -52.350086  71.955686   0.001002   0.000704
1 62796U 25016M   25124.36124302  .00000073  00000-0  85068-4 0  9990 | 2 62796  88.9839 125.8920 0012240 264.1947  95.7813 13.57771728 17263 | 2025/05/04-08:40:11  226.6700    0.1155   95.9208  106.0561     7421.9382     7412.8537     7431.0227 -52.167634  72.087949   0.001059   0.000614
1 62796U 25016M   25125.39346056  .00000194  00000-0  25755-3 0  9996 | 2 62796  88.9826 125.7823 0013008 258.9078 101.0614 13.56460934 17408 | 2025/05/05-09:26:34  239.4023    0.1154  101.2076  106.1586     7426.7188     7417.0581     7436.3795 -52.028757  72.186644   0.001182   0.000543
1 62796U 25016M   25126.86973905  .00000188  00000-0  25456-3 0  9999 | 2 62796  88.9838 125.6327 0012315 255.3143 104.6646 13.55234143 17609 | 2025/05/06-20:52:25   52.4575    0.1154  104.8011  106.2547     7431.2000     7422.0485     7440.3516 -51.840799  72.323221   0.001150   0.000440
1 62796U 25016M   25127.97735290  .00000159  00000-0  21538-3 0  9990 | 2 62796  88.9842 125.5174 0012295 252.1414 107.8398 13.54470406 17754 | 2025/05/07-23:27:23   92.4032    0.1153  107.9739  106.3146     7433.9932     7424.8531     7443.1333 -51.695386  72.427722   0.001172   0.000373
1 62796U 25016M   25129.23386614  .00000158  00000-0  21695-3 0  9996 | 2 62796  88.9839 125.3891 0012444 246.9875 112.9966 13.53526205 17927 | 2025/05/09-05:36:46  186.1119    0.1153  113.1278  106.3888     7437.4501     7428.1949     7446.7052 -51.532898  72.543055   0.001215   0.000267
1 62796U 25016M   25130.56451949  .00000145  00000-0  19742-3 0  9994 | 2 62796  88.9839 125.2523 0012506 242.4236 117.5647 13.53526496 18109 | 2025/05/10-13:32:54  306.5912    0.1152  117.6916  106.3888     7437.4490     7428.1477     7446.7503 -51.359547  72.665889   0.001239   0.000167
1 62796U 25016M   25131.82204961  .00000128  00000-0  17689-3 0  9993 | 2 62796  88.9841 125.1231 0012535 238.6377 121.3548 13.51840281 18272 | 2025/05/11-19:43:45   40.6665    0.1151  121.4774  106.5215     7443.6324     7434.3018     7452.9630 -51.195672  72.781682   0.001251   0.000082
1 62796U 25016M   25132.85877677  .00000120  00000-0  16774-3 0  9993 | 2 62796  88.9841 125.0168 0012914 234.9078 125.0863 13.51022644 18410 | 2025/05/12-20:36:38   55.0149    0.1151  125.2073  106.5859     7446.6354     7437.0188     7456.2520 -51.060554  72.876539   0.001291  -0.000002
1 62796U 25016M   25134.19197423  .00000111  00000-0  15403-3 0  9994 | 2 62796  88.9841 124.8804 0013348 229.0387 130.9610 13.50883714 18590 | 2025/05/14-04:36:26  176.4108    0.1151  131.0764  106.5969     7447.1459     7437.2055     7457.0864 -50.886917  72.997888   0.001327  -0.000141
1 62796U 25016M   25135.22895035  .00000057  00000-0  69974-4 0  9995 | 2 62796  88.9842 124.7741 0013432 225.6302 134.3750 13.50883691 18736 | 2025/05/15-05:29:41  190.8451    0.1151  134.4849  106.5969     7447.1460     7437.1430     7457.1490 -50.751455  73.092255   0.001324  -0.000224
1 62796U 25016M   25136.48809342  .00000040  00000-0  42915-4 0  9998 | 2 62796  88.9843 124.6453 0013424 220.3796 139.6360 13.50947983 18905 | 2025/05/16-11:42:51  285.4961    0.1151  139.7355  106.5918     7446.9097     7436.9130     7456.9065 -50.587073  73.206241   0.001297  -0.000347
1 62796U 25016M   25137.52502041  .00000067  00000-0  85828-4 0  9999 | 2 62796  88.9842 124.5391 0013501 217.0064 143.0157 13.50948155 19042 | 2025/05/17-12:36:01  299.9115    0.1150  143.1086  106.5918     7446.9091     7436.8550     7456.9632 -50.451239  73.299798   0.001281  -0.000427
1 62796U 25016M   25138.56194743  .00000035  00000-0  35849-4 0  9993 | 2 62796  88.9843 124.4330 0013586 213.6598 146.3691 13.50948118 19185 | 2025/05/18-13:29:12  314.3266    0.1150  146.4552  106.5918     7446.9092     7436.7919     7457.0266 -50.315473  73.393180   0.001260  -0.000507
1 62796U 25016M   25140.56173523  .00000062  00000-0  78018-4 0  9994 | 2 62796  88.9843 124.2283 0013758 207.4375 152.6051 13.50948289 19454 | 2025/05/20-13:28:53  316.4123    0.1150  152.6775  106.5918     7446.9086     7436.6632     7457.1541 -50.052942  73.572472   0.001211  -0.000653
1 62796U 25016M   25141.89492712  .00000062  00000-0  76898-4 0  9999 | 2 62796  88.9844 124.0918 0013882 203.3034 156.7489 13.50948367 19630 | 2025/05/21-21:28:41   77.8022    0.1150  156.8116  106.5918     7446.9083     7436.5705     7457.2461 -49.877579  73.691591   0.001169  -0.000748
1 62796U 25016M   25143.22811884  .00000068  00000-0  86349-4 0  9991 | 2 62796  88.9846 123.9554 0014010 199.2071 160.8554 13.50948510 19813 | 2025/05/23-05:28:29  199.1915    0.1151  160.9080  106.5918     7446.9078     7436.4747     7457.3409 -49.702117  73.810288   0.001121  -0.000840
1 62796U 25016M   25144.48724426  .00000068  00000-0  86939-4 0  9990 | 2 62796  88.9847 123.8265 0014145 195.3210 164.7515 13.50948688 19987 | 2025/05/24-11:41:37  293.8366    0.1151  164.7941  106.5918     7446.9071     7436.3735     7457.4408 -49.535994  73.922001   0.001070  -0.000925
1 62796U 25016M   25145.52417102  .00000069  00000-0  88764-4 0  9995 | 2 62796  88.9848 123.7204 0014257 192.1303 167.9507 13.50948832 20127 | 2025/05/25-12:34:48  308.2499    0.1150  167.9847  106.5917     7446.9066     7436.2896     7457.5237 -49.399076  74.013687   0.001023  -0.000993
1 62796U 25016M   25147.89428911  .00000055  00000-0  66030-4 0  9994 | 2 62796  88.9848 123.4779 0014514 184.9840 175.1168 13.50949084 20441 | 2025/05/27-21:27:46   84.0512    0.1149  175.1309  106.5917     7446.9057     7436.0973     7457.7141 -49.085377  74.222102   0.000903  -0.001136
1 62796U 25016M   25149.22748043  .00000053  00000-0  63820-4 0  9996 | 2 62796  88.9849 123.3415 0014664 180.9883 179.1241 13.50949229 20624 | 2025/05/29-05:27:34  205.4389    0.1150  179.1267  106.5917     7446.9052     7435.9850     7457.8253 -48.908598  74.338829   0.000827  -0.001211
1 62796U 25016M   25150.56067162  .00000075  00000-0  98013-4 0  9997 | 2 62796  88.9849 123.2050 0014815 177.0559 183.0682 13.50949447 20808 | 2025/05/30-13:27:22  326.8266    0.1150  183.0591  106.5917     7446.9044     7435.8718     7457.9369 -48.731356  74.455136   0.000747  -0.001280
1 62796U 25016M   25151.81979650  .00000082  00000-0  10806-3 0  9991 | 2 62796  88.9850 123.0762 0014942 173.4184 186.7166 13.50949613 20973 | 2025/05/31-19:40:30   61.4705    0.1150  186.6966  106.5917     7446.9037     7435.7766     7458.0309 -48.563914  74.564579   0.000667  -0.001337
1 62796U 25016M   25152.85672274  .00000093  00000-0  12496-3 0  9997 | 2 62796  88.9850 122.9701 0015066 170.4096 189.7346 13.50949810 21110 | 2025/06/01-20:33:40   75.8829    0.1151  189.7055  106.5917     7446.9030     7435.6835     7458.1225 -48.425752  74.654382   0.000598  -0.001383
1 62796U 25016M   25153.89364878  .00000106  00000-0  14498-3 0  9999 | 2 62796  88.9850 122.8640 0015192 167.4027 192.7507 13.50950043 21259 | 2025/06/02-21:26:51   90.2953    0.1150  192.7123  106.5917     7446.9022     7435.5888     7458.2155 -48.287425  74.743928   0.000526  -0.001425
1 62796U 25016M   25155.22683926  .00000104  00000-0  14285-3 0  9998 | 2 62796  88.9852 122.7276 0015329 163.6500 196.5149 13.50950210 21431 | 2025/06/04-05:26:38  211.6828    0.1151  196.4651  106.5916     7446.9016     7435.4862     7458.3169 -48.109459  74.858839   0.000432  -0.001471
1 62796U 25016M   25156.56002940  .00000098  00000-0  13381-3 0  9995 | 2 62796  88.9853 122.5912 0015482 159.8894 200.2870 13.50950450 21610 | 2025/06/05-13:26:26  333.0702    0.1150  200.2256  106.5916     7446.9007     7435.3714     7458.4300 -47.931165  74.973242   0.000335  -0.001512
1 62796U 25016M   25157.59695485  .00000093  00000-0  12497-3 0  9993 | 2 62796  88.9853 122.4851 0015598 156.9808 203.2045 13.50950632 21756 | 2025/06/06-14:19:36  347.4826    0.1150  203.1342  106.5916     7446.9000     7435.2843     7458.5157 -47.792248  75.061872   0.000257  -0.001539
1 62796U 25016M   25158.85607841  .00000087  00000-0  11667-3 0  9993 | 2 62796  88.9855 122.3564 0015721 153.4854 206.7105 13.50950840 21924 | 2025/06/07-20:32:45   82.1262    0.1151  206.6297  106.5916     7446.8992     7435.1920     7458.6065 -47.623628  75.169204   0.000160  -0.001564
1 62796U 25016M   25160.26333386  .00000076  00000-0  98323-4 0  9994 | 2 62796  88.9856 122.2124 0015876 149.6100 210.5974 13.50951056 22117 | 2025/06/09-06:19:12  230.2577    0.1150  210.5050  106.5916     7446.8984     7435.0757     7458.7211 -47.434610  75.288743   0.000050  -0.001587
1 62796U 25016M   25161.52245701  .00000065  00000-0  81649-4 0  9998 | 2 62796  88.9857 122.0837 0016011 146.1496 214.0681 13.50951183 22282 | 2025/06/10-12:32:20  324.9015    0.1151  213.9655  106.5916     7446.8980     7434.9747     7458.8212 -47.265427  75.395187  -0.000049  -0.001600
1 62796U 25016M   25162.55938179  .00000060  00000-0  74445-4 0  9991 | 2 62796  88.9858 121.9777 0016109 143.3294 216.8963 13.50951294 22429 | 2025/06/11-13:25:30  339.3145    0.1151  216.7857  106.5916     7446.8976     7434.9014     7458.8938 -47.125915  75.482586  -0.000132  -0.001605
1 62796U 25016M   25163.89257059  .00000079  00000-0  10353-3 0  9997 | 2 62796  88.9858 121.8413 0016242 139.7240 220.5117 13.50951556 22607 | 2025/06/12-21:25:18  100.7029    0.1150  220.3910  106.5915     7446.8966     7434.8014     7458.9919 -46.946085  75.594561  -0.000238  -0.001607
1 62796U 25016M   25165.22575914  .00000090  00000-0  12014-3 0  9998 | 2 62796  88.9859 121.7050 0016373 136.1554 224.0900 13.50951772 22786 | 2025/06/14-05:25:05  222.0914    0.1150  223.9596  106.5915     7446.8958     7434.7030     7459.0886 -46.766175  75.706111  -0.000344  -0.001601
1 62796U 25016M   25166.48488133  .00000101  00000-0  13701-3 0  9990 | 2 62796  88.9859 121.5762 0016479 132.8001 227.4539 13.50951985 22951 | 2025/06/15-11:38:13  316.7367    0.1151  227.3150  106.5915     7446.8950     7434.6233     7459.1668 -46.595870  75.811050  -0.000444  -0.001587
1 62796U 25016M   25167.52180532  .00000113  00000-0  15626-3 0  9999 | 2 62796  88.9860 121.4702 0016573 130.0626 230.1981 13.50952182 23092 | 2025/06/16-12:31:23  331.1507    0.1150  230.0524  106.5915     7446.8943     7434.5526     7459.2360 -46.455589  75.897210  -0.000525  -0.001572
1 62796U 25016M   25168.85499287  .00000120  00000-0  16657-3 0  9999 | 2 62796  88.9861 121.3340 0016687 126.5591 233.7099 13.50952471 23277 | 2025/06/17-20:31:11   92.5401    0.1151  233.5560  106.5915     7446.8932     7434.4666     7459.3199 -46.275092  76.007512  -0.000628  -0.001546
1 62796U 25016M   25169.89191630  .00000112  00000-0  15437-3 0  9991 | 2 62796  88.9862 121.2280 0016771 123.8409 236.4341 13.50952640 23416 | 2025/06/18-21:24:21  106.9546    0.1151  236.2742  106.5914     7446.8926     7434.4034     7459.3818 -46.134447  76.093079  -0.000707  -0.001521
1 62796U 25016M   25171.52136683  .00000099  00000-0  13521-3 0  9997 | 2 62796  88.9863 121.0615 0016904 119.6031 240.6807 13.50952920 23638 | 2025/06/20-12:30:46  335.3206    0.1151  240.5120  106.5914     7446.8916     7434.3034     7459.4798 -45.913179  76.226908  -0.000828  -0.001474
1 62796U 25016M   25172.55828962  .00000085  00000-0  11333-3 0  9993 | 2 62796  88.9864 120.9555 0016976 116.9189 243.3699 13.50953065 23778 | 2025/06/21-13:23:56  349.7358    0.1151  243.1962  106.5914     7446.8911     7434.2492     7459.5329 -45.772129  76.311805  -0.000903  -0.001438
1 62796U 25016M   25173.59521218  .00000081  00000-0  10639-3 0  9996 | 2 62796  88.9865 120.8495 0017038 114.2247 246.0686 13.50953226 23918 | 2025/06/22-14:17:06    4.1515    0.1150  245.8903  106.5914     7446.8905     7434.2025     7459.5785 -45.630921  76.396441  -0.000975  -0.001397
1 62796U 25016M   25174.85433219  .00000073  00000-0  93607-4 0  9997 | 2 62796  88.9865 120.7208 0017116 110.9881 249.3103 13.50953430 24089 | 2025/06/23-20:30:14   98.7993    0.1151  249.1270  106.5914     7446.8897     7434.1436     7459.6358 -45.459202  76.498746  -0.001061  -0.001343
1 62796U 25016M   25175.89125438  .00000072  00000-0  92711-4 0  9997 | 2 62796  88.9865 120.6148 0017173 108.3309 251.9712 13.50953572 24228 | 2025/06/24-21:23:24  113.2157    0.1151  251.7842  106.5914     7446.8892     7434.1007     7459.6777 -45.317597  76.582717  -0.001128  -0.001295
1 62796U 25016M   25177.07630807  .00000078  00000-0  10228-3 0  9998 | 2 62796  88.9865 120.4937 0017238 105.3063 254.9995 13.50953742 24380 | 2025/06/26-01:49:53  181.1204    0.1151  254.8088  106.5914     7446.8886     7434.0516     7459.7255 -45.155632  76.678329  -0.001202  -0.001236
1 62796U 25016M   25178.18729573  .00000087  00000-0  11556-3 0  9995 | 2 62796  88.9865 120.3801 0017294 102.4881 257.8206 13.50953909 24536 | 2025/06/27-04:29:42  222.2817    0.1151  257.6270  106.5913     7446.8880     7434.0093     7459.7666 -45.003513  76.767708  -0.001268  -0.001177
1 62796U 25016M   25179.52048059  .00000093  00000-0  12469-3 0  9998 | 2 62796  88.9865 120.2439 0017350  99.0779 261.2336 13.50954094 24711 | 2025/06/28-12:29:29  343.6757    0.1151  261.0372  106.5913     7446.8873     7433.9669     7459.8076 -44.820899  76.874470  -0.001342  -0.001099
1 62796U 25016M   25180.55740189  .00000105  00000-0  14377-3 0  9990 | 2 62796  88.9865 120.1379 0017386  96.4451 263.8681 13.50954269 24850 | 2025/06/29-13:22:39  358.0937    0.1152  263.6701  106.5913     7446.8866     7433.9395     7459.8338 -44.678601  76.957260  -0.001396  -0.001036
1 62796U 25016M   25181.59432287  .00000112  00000-0  15448-3 0  9990 | 2 62796  88.9865 120.0320 0017420  93.8171 266.4972 13.50954497 24994 | 2025/06/30-14:15:49   12.5121    0.1151  266.2980  106.5913     7446.8858     7433.9133     7459.8583 -44.536284  77.039708  -0.001447  -0.000970
1 62796U 25016M   25182.85344084  .00000120  00000-0  16753-3 0  9996 | 2 62796  88.9866 119.9033 0017455  90.6272 269.6879 13.50954800 25167 | 2025/07/01-20:28:57  107.1635    0.1151  269.4879  106.5913     7446.8847     7433.8861     7459.8832 -44.363172  77.139639  -0.001504  -0.000887
1 62796U 25016M   25183.89036107  .00000131  00000-0  18421-3 0  9991 | 2 62796  88.9866 119.7973 0017473  88.0016 272.3136 13.50955106 25308 | 2025/07/02-21:22:07  121.5828    0.1151  272.1135  106.5913     7446.8836     7433.8716     7459.8955 -44.220384  77.221581  -0.001546  -0.000815
1 62796U 25016M   25185.51980663  .00000123  00000-0  17156-3 0  9992 | 2 62796  88.9867 119.6308 0017501  83.8932 276.4213 13.50955492 25525 | 2025/07/04-12:28:31  349.9564    0.1152  276.2220  106.5912     7446.8821     7433.8494     7459.9149 -43.995843  77.349845  -0.001605  -0.000699
1 62796U 25016M   25186.55672611  .00000121  00000-0  16827-3 0  9990 | 2 62796  88.9867 119.5248 0017511  81.2841 279.0292 13.50955751 25668 | 2025/07/05-13:21:41    4.3767    0.1151  278.8310  106.5912     7446.8812     7433.8410     7459.9214 -43.852667  77.431107  -0.001637  -0.000622
1 62796U 25016M   25187.59364535  .00000108  00000-0  14874-3 0  9993 | 2 62796  88.9867 119.4188 0017517  78.6746 281.6372 13.50955961 25807 | 2025/07/06-14:14:50   18.7971    0.1151  281.4405  106.5912     7446.8804     7433.8357     7459.9251 -43.709341  77.512104  -0.001665  -0.000544
1 62796U 25016M   25188.85276121  .00000102  00000-0  13946-3 0  9999 | 2 62796  88.9867 119.2902 0017514  75.4861 284.8232 13.50956238 25975 | 2025/07/07-20:27:58  113.4510    0.1152  284.6291  106.5912     7446.8794     7433.8369     7459.9219 -43.535255  77.610014  -0.001693  -0.000447
1 62796U 25016M   25189.88967990  .00000101  00000-0  13772-3 0  9990 | 2 62796  88.9867 119.1842 0017506  72.8702 287.4364 13.50956448 26118 | 2025/07/08-21:21:08  127.8724    0.1151  287.2449  106.5911     7446.8786     7433.8421     7459.9151 -43.391599  77.690424  -0.001712  -0.000366
1 62796U 25016M   25190.92659836  .00000109  00000-0  14975-3 0  9998 | 2 62796  88.9867 119.0782 0017485  70.2204 290.0830 13.50956650 26253 | 2025/07/09-22:14:18  142.2943    0.1151  289.8947  106.5911     7446.8779     7433.8570     7459.8988 -43.247793  77.770567  -0.001726  -0.000283
