# SPACE DATA - HISTORICAL TLEs
# ----------------------------
# NORAD_ID    : 60396
# OBJECT_NAME : QIANFAN-18
# --------------------------------------------------------------------+-----------------------------------------------------------------------+----------------------------------------------------------------------------------------------------------------------------------------
#                  LINE 1                                             |                 LINE 2                                                |      DERIVED PARAMETERS
# --------------------------------------------------------------------+-----------------------------------------------------------------------+----------------------------------------------------------------------------------------------------------------------------------------
# NORAD  COSPAR     TLE_EPOCH      MEANMOT1 MEANMOT2   BSTAR  #  REV  |   NORAD    INC     RAAN     ECC    ARGPER  MEANANOM   MEANMOT     REV |  CAL_DATE              LONG     ARGLAT     PERIOD        SMA         PERIGEE        APOGEE      INC_X      INC_Y      ECC_X      ECC_Y
# ------ ------   -------------- ----------  -------  ------- -- ----     -----  ------- -------- ------- -------- -------- -----------  ----   ------------------- ---------  --------  --------  ------------  ------------   ----------- ---------- ----------  ---------  ---------   
1 62794U 25016K   25036.80246881  .00001299  00000-0  53099-3 0  9995 | 2 62794  88.9949 135.4287 0015506 168.8542 191.2999 14.26680253  5101 | 2025/02/05-19:15:33  289.4944    0.1193  191.2651  100.9336     7180.9859     7169.8511     7192.1207 -63.397980  62.456292   0.000873  -0.001281
1 62794U 25016K   25039.18771747 -.00047175  00000-0 -19820-1 0  9990 | 2 62794  88.9946 135.1540 0014853 159.8396 200.3387 14.26239220  5442 | 2025/02/08-04:30:18   70.7855    0.1192  200.2796  100.9648     7182.4662     7171.7981     7193.1343 -63.097598  62.759318   0.000628  -0.001346
1 62794U 25016K   25040.59093548  .00001021  00000-0  42300-3 0  9992 | 2 62794  88.9946 134.9927 0016657 157.4865 202.7062 14.25821303  5643 | 2025/02/09-14:10:56  217.4739    0.1192  202.6327  100.9944     7183.8696     7171.9035     7195.8358 -62.920667  62.936702   0.000637  -0.001539
1 62794U 25016K   25041.92435341  .00001074  00000-0  44521-3 0  9996 | 2 62794  88.9944 134.8393 0016799 153.4223 206.7835 14.25824183  5830 | 2025/02/10-22:11:04  338.9590    0.1192  206.6969  100.9942     7183.8599     7171.7918     7195.9281 -62.751798  63.104794   0.000526  -0.001595
1 62794U 25016K   25043.53848772  .00001009  00000-0  41801-3 0  9997 | 2 62794  88.9942 134.6536 0016976 148.5707 211.6504 14.25827135  6068 | 2025/02/12-12:55:25  201.8087    0.1192  211.5485  100.9940     7183.8500     7171.6547     7196.0453 -62.546801  63.307704   0.000388  -0.001653
1 62794U 25016K   25044.59118208  .00000964  00000-0  39892-3 0  9994 | 2 62794  88.9940 134.5325 0017076 145.4496 214.7811 14.25829111  6212 | 2025/02/13-14:11:18  221.9277    0.1193  214.6697  100.9939     7183.8434     7171.5763     7196.1105 -62.412714  63.439618   0.000296  -0.001682
1 62794U 25016K   25045.92459250  .00001046  00000-0  43341-3 0  9993 | 2 62794  88.9938 134.3790 0017182 141.4807 218.7616 14.25832186  6407 | 2025/02/14-22:11:24  343.4117    0.1192  218.6385  100.9937     7183.8331     7171.4898     7196.1763 -62.242391  63.606456   0.000175  -0.001709
1 62794U 25016K   25047.18782033  .00001159  00000-0  48069-3 0  9998 | 2 62794  88.9936 134.2336 0017291 137.7369 222.5160 14.25835531  6585 | 2025/02/16-04:30:27   79.5536    0.1192  222.3823  100.9934     7183.8218     7171.4003     7196.2434 -62.080636  63.764061   0.000059  -0.001728
1 62794U 25016K   25048.52122480  .00001126  00000-0  46702-3 0  9997 | 2 62794  88.9935 134.0801 0017397 133.8679 226.3955 14.25838319  6779 | 2025/02/17-12:30:33  201.0365    0.1193  226.2514  100.9932     7183.8125     7171.3148     7196.3101 -61.909515  63.930079  -0.000062  -0.001739
1 62794U 25016K   25049.57391022  .00001080  00000-0  44748-3 0  9990 | 2 62794  88.9935 133.9589 0017467 130.8176 229.4535 14.25840546  6927 | 2025/02/18-13:46:25  221.1543    0.1192  229.3016  100.9931     7183.8050     7171.2570     7196.3529 -61.774143  64.060895  -0.000159  -0.001739
1 62794U 25016K   25050.90730858  .00001110  00000-0  46026-3 0  9998 | 2 62794  88.9933 133.8053 0017559 126.9251 233.3554 14.25844047  7119 | 2025/02/19-21:46:31  342.6362    0.1193  233.1942  100.9928     7183.7932     7171.1792     7196.4073 -61.602046  64.226126  -0.000283  -0.001733
1 62794U 25016K   25052.52161546  .00001010  00000-0  42472-3 0  9990 | 2 62794  88.9932 133.6196 0017491 121.4621 238.8285 14.25048977  7344 | 2025/02/21-12:31:07  205.5534    0.1193  238.6572  101.0492     7186.4650     7173.8951     7199.0348 -61.393492  64.425373  -0.000450  -0.001690
1 62794U 25016K   25053.57586491  .00000917  00000-0  40156-3 0  9998 | 2 62794  88.9940 133.5005 0017333 117.3435 242.9523 14.22873578  7490 | 2025/02/22-13:49:14  226.2362    0.1191  242.7756  101.2037     7193.7879     7181.3189     7206.2569 -61.259990  64.553432  -0.000569  -0.001637
1 62794U 25016K   25054.91301592  .00000944  00000-0  42369-3 0  9992 | 2 62794  88.9927 133.3454 0017739 114.8326 245.4712 14.21606706  7687 | 2025/02/23-21:54:44  349.0756    0.1190  245.2864  101.2938     7198.0612     7185.2925     7210.8298 -61.084127  64.718081  -0.000659  -0.001647
1 62794U 25016K   25055.96983101  .00001054  00000-0  49837-3 0  9990 | 2 62794  88.9929 133.2271 0018157 110.0036 250.3111 14.18916338  7832 | 2025/02/24-23:16:33   10.6781    0.1190  250.1154  101.4859     7207.1570     7194.0709     7220.2430 -60.950509  64.844211  -0.000818  -0.001621
1 62794U 25016K   25057.59246460  .00001058  00000-0  50608-3 0  9993 | 2 62794  88.9922 133.0398 0017831 106.0386 254.2768 14.18335277  8068 | 2025/02/26-14:13:08  236.6121    0.1188  254.0802  101.5275     7209.1253     7196.2707     7221.9798 -60.737730  65.042600  -0.000916  -0.001530
1 62794U 25016K   25059.50011713  .00000962  00000-0  49444-3 0  9996 | 2 62794  88.9921 132.8233 0017538 100.4929 259.8235 14.14420365  8336 | 2025/02/28-12:00:10  205.4628    0.1187  259.6258  101.8085     7222.4217     7209.7550     7235.0884 -60.491457  65.271567  -0.001048  -0.001406
1 62794U 25016K   25060.77510303  .00000794  00000-0  42707-3 0  9994 | 2 62794  88.9917 132.6793 0017522  96.4768 263.8413 14.11854148  8518 | 2025/03/01-18:36:08  305.8567    0.1185  263.6417  101.9935     7231.1708     7218.5003     7243.8412 -60.326950  65.423099  -0.001146  -0.001326
1 62794U 25016K   25062.54920121  .00000677  00000-0  38441-3 0  9994 | 2 62794  88.9917 132.4808 0017404  91.7085 268.6092 14.08780476  8763 | 2025/03/03-13:10:50  226.4796    0.1183  268.4098  102.2161     7241.6849     7229.0815     7254.2884 -60.099931  65.631707  -0.001248  -0.001213
1 62794U 25016K   25064.25443627  .00000639  00000-0  36953-3 0  9999 | 2 62794  88.9907 132.2891 0017588  87.4908 272.8288 14.07645284  9009 | 2025/03/05-06:06:23  122.2348    0.1183  272.6275  102.2985     7245.5778     7232.8342     7258.3213 -59.879332  65.831682  -0.001352  -0.001125
1 62794U 25016K   25065.46288608  .00000553  00000-0  31868-3 0  9994 | 2 62794  88.9913 132.1538 0017282  83.1975 277.1174 14.07645166  9170 | 2025/03/06-11:06:33  198.6078    0.1183  276.9208  102.2985     7245.5782     7233.0564     7258.1000 -59.724111  65.973344  -0.001410  -0.001000
1 62794U 25016K   25067.52509308  .00000549  00000-0  32939-3 0  9991 | 2 62794  88.9905 131.9295 0016357  79.9370 280.3656 14.05513952  9460 | 2025/03/08-12:36:08  223.2716    0.1182  280.1812  102.4536     7252.9007     7241.0372     7264.7643 -59.464849  66.206049  -0.001389  -0.000864
1 62794U 25016K   25068.87926633  .00000548  00000-0  34614-3 0  9995 | 2 62794  88.9888 131.7718 0017248  75.7701 284.5394 14.02679916  9656 | 2025/03/09-21:06:08  352.2595    0.1181  284.3480  102.6606     7262.6668     7250.1402     7275.1935 -59.281267  66.368200  -0.001529  -0.000798
1 62794U 25016K   25070.87950518  .00000500  00000-0  33775-3 0  9992 | 2 62794  88.9896 131.5518 0016922  68.1864 292.1112 13.98769181  9937 | 2025/03/11-21:06:29  354.5489    0.1178  291.9314  102.9476     7276.1974     7263.8846     7288.5102 -59.026525  66.595933  -0.001593  -0.000571
1 62794U 25016K   25073.45834554  .00000747  00000-0  53240-3 0  9992 | 2 62794  88.9899 131.2663 0016851  61.9647 298.3232 13.96285367 10298 | 2025/03/14-11:00:01  205.7684    0.1177  298.1530  103.1308     7284.8238     7272.5481     7297.0994 -58.694150  66.889454  -0.001640  -0.000386
1 62794U 25016K   25074.46266440  .00000495  00000-0  36376-3 0  9998 | 2 62794  88.9904 131.1555 0016610  56.4750 303.8009 13.93982134 10434 | 2025/03/15-11:06:14  208.4359    0.1176  303.6426  103.3012     7292.8459     7280.7325     7304.9593 -58.565017  67.003210  -0.001646  -0.000221
1 62794U 25016K   25076.61965223  .00000457  00000-0  35642-3 0  9995 | 2 62794  88.9894 130.9203 0016613  53.5629 306.7074 13.90537848 10737 | 2025/03/17-14:52:17  267.3184    0.1175  306.5546  103.5571     7304.8836     7292.7480     7317.0192 -58.288820  67.242299  -0.001656  -0.000130
1 62794U 25016K   25077.84384668  .00000465  00000-0  37470-3 0  9999 | 2 62794  88.9883 130.7888 0017059  49.0634 311.2012 13.88616707 10904 | 2025/03/18-20:15:08  349.3722    0.1173  311.0539  103.7003     7311.6195     7299.1466     7324.0924 -58.133620  67.375068  -0.001706   0.000004
1 62794U 25016K   25078.85355669  .00000459  00000-0  38260-3 0  9991 | 2 62794  88.9884 130.6789 0016559  47.2397 313.0164 13.86702072 11047 | 2025/03/19-20:29:07  353.9814    0.1172  312.8775  103.8435     7318.3481     7306.2297     7330.4666 -58.004345  67.486527  -0.001655   0.000060
1 62794U 25016K   25080.15305617  .00000440  00000-0  37835-3 0  9992 | 2 62794  88.9885 130.5363 0016415  43.2138 317.0317 13.84825409 11227 | 2025/03/21-03:40:24  103.2353    0.1171  316.9033  103.9842     7324.9583     7312.9344     7336.9823 -57.836267  67.630757  -0.001632   0.000179
1 62794U 25016K   25081.45466066  .00000464  00000-0  41584-3 0  9994 | 2 62794  88.9882 130.3976 0016293  41.4247 318.8154 13.82532761 11409 | 2025/03/22-10:54:42  213.2399    0.1170  318.6923  104.1567     7333.0541     7321.1063     7345.0018 -57.672185  67.770339  -0.001613   0.000232
1 62794U 25016K   25082.54112858  .00000448  00000-0  41172-3 0  9997 | 2 62794  88.9880 130.2797 0015951  37.0505 323.1761 13.81012961 11558 | 2025/03/23-12:59:13  245.5707    0.1169  323.0664  104.2713     7338.4331     7326.7275     7350.1386 -57.532479  67.888717  -0.001556   0.000350
1 62794U 25016K   25083.84638389  .00000421  00000-0  40172-3 0  9993 | 2 62794  88.9870 130.1399 0015905  32.3196 327.8942 13.78699904 11733 | 2025/03/24-20:18:47  356.9017    0.1168  327.7972  104.4462     7346.6386     7334.9538     7358.3235 -57.366017  68.028128  -0.001517   0.000479
1 62794U 25016K   25085.00854728  .00000385  00000-0  37837-3 0  9993 | 2 62794  88.9864 130.0056 0014062  30.0120 330.1849 13.76747709 11895 | 2025/03/26-00:12:18   56.5772    0.1167  330.1047  104.5943     7353.5819     7343.2413     7363.9225 -57.206018  68.161946  -0.001322   0.000481
1 62794U 25016K   25086.53533386  .00000174  00000-0  16554-3 0  9995 | 2 62794  88.9869 129.8527 0015578  24.7954 335.3956 13.76264999 12103 | 2025/03/27-12:50:52  247.8840    0.1165  335.3211  104.6310     7355.3012     7343.8432     7366.7593 -57.024237  68.314748  -0.001408   0.000667
1 62794U 25016K   25088.20943779  .00000143  00000-0  14115-3 0  9999 | 2 62794  88.9826 129.6691 0015253  20.4458 339.7313 13.73088577 12331 | 2025/03/29-05:01:35  132.4090    0.1164  339.6706  104.8731     7366.6404     7355.4041     7377.8768 -56.802290  68.493817  -0.001322   0.000760
1 62794U 25016K   25089.52211527  .00000284  00000-0  30098-3 0  9998 | 2 62794  88.9864 129.5355 0015082  15.9676 344.1959 13.71473658 12512 | 2025/03/30-12:31:50  246.4140    0.1163  344.1487  104.9965     7372.4221     7361.3030     7383.5412 -56.644844  68.629010  -0.001243   0.000854
1 62794U 25016K   25090.54353227  .00000267  00000-0  28300-3 0  9990 | 2 62794  88.9861 129.4273 0014962  12.9633 347.1912 13.71474236 12653 | 2025/03/31-13:02:41  255.2480    0.1164  347.1531  104.9965     7372.4201     7361.3894     7383.4507 -56.514950  68.735627  -0.001185   0.000913
1 62794U 25016K   25091.78391781  .00000007  00000-0 -68240-5 0  9996 | 2 62794  88.9857 129.2960 0014773   8.3700 351.7706 13.71003705 12823 | 2025/04/01-18:48:50  343.1546    0.1163  351.7463  105.0325     7374.1068     7363.2130     7385.0006 -56.357033  68.864647  -0.001092   0.000995
1 62794U 25016K   25094.56235709  .00000222  00000-0  25050-3 0  9990 | 2 62794  88.9854 129.0029 0014420   1.0208 359.0979 13.67104242 13205 | 2025/04/04-13:29:47  266.4463    0.1161  359.0953  105.3321     7388.1225     7377.4688     7398.7762 -56.003827  69.151810  -0.000927   0.001104
1 62794U 25016K   25095.58703648  .00000023  00000-0  12501-4 0  9992 | 2 62794  88.9851 128.8951 0014316 357.9058   2.2040 13.67104286 13342 | 2025/04/05-14:05:19  276.4576    0.1161    2.2103  105.3321     7388.1223     7377.5455     7398.6992 -55.873433  69.256823  -0.000858   0.001146
1 62794U 25016K   25096.61227173  .00000250  00000-0  29206-3 0  9992 | 2 62794  88.9824 128.8103 0018361   3.5752 356.5535 13.65405850 13488 | 2025/04/06-14:41:40  286.6187    0.1160  356.5408  105.4631     7394.2478     7380.6712     7407.8244 -55.769177  69.337338  -0.001238   0.001356
1 62794U 25016K   25097.85912973  .00000243  00000-0  29408-3 0  9994 | 2 62794  88.9801 128.6556 0013669 351.6495   8.4434 13.63104991 13650 | 2025/04/07-20:37:08   16.9070    0.1159    8.4664  105.6412     7402.5662     7392.4477     7412.6848 -55.580324  69.485867  -0.000690   0.001180
1 62794U 25016K   25098.88726038  .00000242  00000-0  29657-3 0  9998 | 2 62794  88.9845 128.5493 0013783 348.5608  11.5234 13.62459318 13798 | 2025/04/08-21:17:39   28.1624    0.1158   11.5550  105.6912     7404.9048     7394.6986     7415.1110 -55.454055  69.592306  -0.000628   0.001227
1 62794U 25016K   25100.72462604  .00000043  00000-0  40913-4 0  9999 | 2 62794  88.9835 128.3591 0013715 343.0235  17.0460 13.59893477 14040 | 2025/04/10-17:23:27  331.6300    0.1156   17.0921  105.8906     7414.2162     7404.0476     7424.3848 -55.222109  69.775224  -0.000500   0.001277
1 62794U 25016K   25102.49253792  .00000214  00000-0  28159-3 0  9998 | 2 62794  88.9851 128.1753 0013740 341.5398  18.5256 13.57575529 14285 | 2025/04/12-11:49:15  250.0087    0.1155   18.5757  106.0714     7422.6533     7412.4545     7432.8520 -54.998981  69.953271  -0.000464   0.001293
1 62794U 25016K   25103.82039802  .00000187  00000-0  25296-3 0  9998 | 2 62794  88.9817 128.0350 0012450 326.6990  33.3380 13.55419973 14469 | 2025/04/13-19:41:22    9.5158    0.1155   33.4165  106.2401     7430.5208     7421.2698     7439.7718 -54.825427  70.085059  -0.000103   0.001241
1 62794U 25016K   25104.92859097  .00000003  00000-0 -13369-4 0  9993 | 2 62794  88.9838 127.9230 0012779 327.2570  32.7790 13.54147616 14618 | 2025/04/14-22:17:10   49.6706    0.1154   32.8584  106.3400     7435.1745     7425.6731     7444.6760 -54.689613  70.193752  -0.000115   0.001273
1 62794U 25016K   25105.96306717 -.00000001  00000-0 -19108-4 0  9990 | 2 62794  88.9837 127.8162 0012691 323.9055  36.1240 13.54147554 14758 | 2025/04/15-23:06:49   63.2149    0.1153   36.2098  106.3400     7435.1748     7425.7388     7444.6108 -54.558615  70.295493  -0.000038   0.001269
1 62794U 25016K   25108.84908573  .00000155  00000-0  22106-3 0  9997 | 2 62794  88.9834 127.5199 0012037 315.6513  44.3673 13.50946476 15144 | 2025/04/18-20:22:41   25.3334    0.1152   44.4639  106.5919     7446.9153     7437.9514     7455.8791 -54.194178  70.576459   0.000143   0.001195
1 62794U 25016K   25109.88601140  .00000159  00000-0  22816-3 0  9994 | 2 62794  88.9833 127.4136 0011987 312.2729  47.7404 13.50946746 15282 | 2025/04/19-21:15:51   39.7603    0.1151   47.8422  106.5919     7446.9143     7437.9877     7455.8409 -54.063084  70.676804   0.000215   0.001179
1 62794U 25016K   25110.92293717  .00000167  00000-0  24045-3 0  9993 | 2 62794  88.9832 127.3072 0011912 308.8982  51.1106 13.50946906 15421 | 2025/04/20-22:09:01   54.1865    0.1151   51.2169  106.5919     7446.9137     7438.0429     7455.7845 -53.931682  70.776999   0.000284   0.001157
1 62794U 25016K   25112.18206140  .00000057  00000-0  69399-4 0  9997 | 2 62794  88.9831 127.1782 0011841 304.7518  55.2518 13.50946769 15594 | 2025/04/22-04:22:10  148.8465    0.1152   55.3634  106.5919     7446.9142     7438.0963     7455.7321 -53.772132  70.898166   0.000367   0.001126
1 62794U 25016K   25113.73745003  .00000076  00000-0  98728-4 0  9994 | 2 62794  88.9829 127.0188 0011759 299.5972  60.4007 13.50946954 15804 | 2025/04/23-17:41:55  350.4845    0.1151   60.5179  106.5919     7446.9135     7438.1567     7455.6703 -53.574561  71.047329   0.000467   0.001079
1 62794U 25016K   25114.84844180  .00000072  00000-0  93072-4 0  9996 | 2 62794  88.9829 126.9049 0011705 295.8216  64.1728 13.50947097 15955 | 2025/04/24-20:21:45   31.6540    0.1152   64.2936  106.5919     7446.9130     7438.1964     7455.6296 -53.433218  71.153691   0.000536   0.001040
1 62794U 25016K   25115.88536748  .00000066  00000-0  84249-4 0  9998 | 2 62794  88.9828 126.7986 0011671 292.3801  67.6113 13.50947193 16095 | 2025/04/25-21:14:55   46.0786    0.1151   67.7350  106.5919     7446.9126     7438.2213     7455.6039 -53.301056  71.252622   0.000598   0.001002
1 62794U 25016K   25116.92229308  .00000064  00000-0  80180-4 0  9993 | 2 62794  88.9828 126.6923 0011628 288.8039  71.1851 13.50947335 16233 | 2025/04/26-22:08:06   60.5026    0.1152   71.3113  106.5919     7446.9121     7438.2528     7455.5714 -53.168770  71.351388   0.000659   0.000958
1 62794U 25016K   25117.95921876  .00000054  00000-0  65271-4 0  9999 | 2 62794  88.9827 126.5860 0011597 285.2801  74.7068 13.50947425 16378 | 2025/04/27-23:01:16   74.9263    0.1151   74.8350  106.5919     7446.9118     7438.2756     7455.5480 -53.036242  71.449828   0.000716   0.000912
1 62794U 25016K   25121.73659145  .00000041  00000-0  44964-4 0  9999 | 2 62794  88.9825 126.1986 0011538 272.4218  87.5613 13.50947573 16884 | 2025/05/01-17:40:41  358.8948    0.1152   87.6934  106.5918     7446.9112     7438.3190     7455.5035 -52.551814  71.806630   0.000901   0.000720
1 62794U 25016K   25122.92164968  .00000043  00000-0  48311-4 0  9997 | 2 62794  88.9825 126.0771 0011534 268.3220  91.6610 13.50947658 17044 | 2025/05/02-22:07:10   66.8054    0.1151   91.7931  106.5918     7446.9109     7438.3217     7455.5002 -52.399425  71.917909   0.000952   0.000652
1 62794U 25016K   25123.95857571  .00000050  00000-0  59801-4 0  9994 | 2 62794  88.9824 125.9707 0011533 264.7485  95.2351 13.50947738 17188 | 2025/05/03-23:00:20   81.2266    0.1152   95.3667  106.5918     7446.9106     7438.3221     7455.4992 -52.265722  72.015011   0.000991   0.000589
1 62794U 25016K   25125.51396476  .00000052  00000-0  62174-4 0  9999 | 2 62794  88.9824 125.8111 0011551 259.4571 100.5279 13.50947839 17397 | 2025/05/05-12:20:06  282.8579    0.1151  100.6580  106.5918     7446.9103     7438.3083     7455.5122 -52.064919  72.160320   0.001045   0.000493
1 62794U 25016K   25126.84715545  .00000055  00000-0  66820-4 0  9993 | 2 62794  88.9823 125.6744 0011578 254.9791 105.0079 13.50947921 17579 | 2025/05/06-20:19:54   44.2553    0.1151  105.1360  106.5918     7446.9100     7438.2879     7455.5320 -51.892547  72.284253   0.001083   0.000408
1 62794U 25016K   25127.95814767  .00000046  00000-0  52611-4 0  9995 | 2 62794  88.9823 125.5604 0011608 251.1980 108.7912 13.50947994 17729 | 2025/05/07-22:59:43   85.4194    0.1151  108.9171  106.5918     7446.9097     7438.2653     7455.5541 -51.748623  72.387359   0.001111   0.000335
1 62794U 25016K   25129.29133834  .00000039  00000-0  41887-4 0  9998 | 2 62794  88.9824 125.4237 0011654 246.6600 113.3325 13.50948088 17905 | 2025/05/09-06:59:31  206.8155    0.1151  113.4551  106.5918     7446.9094     7438.2307     7455.5880 -51.575827  72.510700   0.001140   0.000244
1 62794U 25016K   25130.62452910  .00000034  00000-0  33479-4 0  9999 | 2 62794  88.9824 125.2869 0011711 242.1471 117.8494 13.50948156 18087 | 2025/05/10-14:59:19  328.2110    0.1151  117.9680  106.5918     7446.9091     7438.1880     7455.6302 -51.402553  72.633636   0.001161   0.000152
1 62794U 25016K   25131.95771988  .00000028  00000-0  24645-4 0  9993 | 2 62794  88.9825 125.1502 0011780 237.6507 122.3505 13.50948240 18264 | 2025/05/11-22:59:06   89.6058    0.1151  122.4644  106.5918     7446.9088     7438.1363     7455.6813 -51.229170  72.756150   0.001177   0.000058
1 62794U 25016K   25133.21684467  .00000021  00000-0  14798-4 0  9990 | 2 62794  88.9825 125.0211 0011849 233.4461 126.5600 13.50948257 18438 | 2025/05/13-05:12:15  184.2559    0.1151  126.6690  106.5918     7446.9087     7438.0849     7455.7326 -51.065105  72.871396   0.001184  -0.000032
1 62794U 25016K   25134.25377101  .00000029  00000-0  26934-4 0  9992 | 2 62794  88.9826 124.9147 0011913 230.0143 129.9963 13.50948310 18571 | 2025/05/14-06:05:25  198.6734    0.1151  130.1008  106.5918     7446.9085     7438.0370     7455.7800 -50.929750  72.966182   0.001187  -0.000105
1 62794U 25016K   25135.51289595  .00000029  00000-0  27083-4 0  9997 | 2 62794  88.9826 124.7856 0011999 225.8728 134.1437 13.50948356 18744 | 2025/05/15-12:18:34  293.3226    0.1151  134.2423  106.5918     7446.9084     7437.9728     7455.8439 -50.765212  73.080753   0.001184  -0.000195
1 62794U 25016K   25136.84608713  .00000041  00000-0  45012-4 0  9997 | 2 62794  88.9827 124.6488 0012095 221.5056 138.5178 13.50948430 18923 | 2025/05/16-20:18:21   54.7154    0.1151  138.6095  106.5918     7446.9081     7437.9011     7455.9151 -50.590635  73.201834   0.001174  -0.000289
1 62794U 25016K   25137.88301364  .00000044  00000-0  49706-4 0  9991 | 2 62794  88.9827 124.5424 0012165 218.1446 141.8845 13.50948518 19066 | 2025/05/17-21:11:32   69.1317    0.1150  141.9704  106.5918     7446.9078     7437.8486     7455.9669 -50.454610  73.295656   0.001161  -0.000362
1 62794U 25016K   25138.91994019  .00000049  00000-0  57316-4 0  9992 | 2 62794  88.9827 124.4362 0012253 214.7215 145.3137 13.50948569 19205 | 2025/05/18-22:04:42   83.5474    0.1150  145.3935  106.5918     7446.9076     7437.7829     7456.0323 -50.318667  73.389050   0.001145  -0.000436
1 62794U 25016K   25140.54939606  .00000058  00000-0  71872-4 0  9998 | 2 62794  88.9828 124.2692 0012392 209.6228 150.4223 13.50948689 19421 | 2025/05/20-13:11:07  311.9146    0.1151  150.4923  106.5918     7446.9071     7437.6789     7456.1353 -50.104603  73.535484   0.001113  -0.000545
1 62794U 25016K   25141.58632255  .00000046  00000-0  52604-4 0  9992 | 2 62794  88.9828 124.1629 0012491 206.3553 153.6964 13.50948710 19562 | 2025/05/21-14:04:18  326.3299    0.1150  153.7597  106.5918     7446.9071     7437.6051     7456.2090 -49.968088  73.628316   0.001087  -0.000615
1 62794U 25016K   25142.91951372  .00000037  00000-0  39214-4 0  9996 | 2 62794  88.9830 124.0262 0012620 202.1536 157.9071 13.50948799 19749 | 2025/05/22-22:04:05   87.7205    0.1150  157.9614  106.5918     7446.9067     7437.5087     7456.3047 -49.792390  73.747489   0.001048  -0.000702
1 62794U 25016K   25143.95644012  .00000052  00000-0  61575-4 0  9993 | 2 62794  88.9830 123.9200 0012723 198.9444 161.1235 13.50948930 19884 | 2025/05/23-22:57:16  102.1351    0.1150  161.1706  106.5917     7446.9063     7437.4316     7456.3810 -49.655611  73.839655   0.001014  -0.000768
1 62794U 25016K   25145.51182969  .00000056  00000-0  67843-4 0  9993 | 2 62794  88.9832 123.7606 0012889 194.0971 165.9822 13.50949104 20092 | 2025/05/25-12:17:02  303.7564    0.1150  166.0179  106.5917     7446.9056     7437.3073     7456.5039 -49.450104  73.977680   0.000956  -0.000865
1 62794U 25016K   25147.58568235  .00000050  00000-0  58673-4 0  9991 | 2 62794  88.9833 123.5480 0013104 187.8004 172.2945 13.50949271 20372 | 2025/05/27-14:03:22  332.5844    0.1150  172.3146  106.5917     7446.9050     7437.1466     7456.6634 -49.175320  74.160741   0.000866  -0.000984
1 62794U 25016K   25148.91887326  .00000063  00000-0  79032-4 0  9990 | 2 62794  88.9833 123.4113 0013258 183.7431 176.3623 13.50949463 20554 | 2025/05/28-22:03:10   93.9734    0.1150  176.3719  106.5917     7446.9043     7437.0312     7456.7774 -48.998243  74.277856   0.000801  -0.001057
1 62794U 25016K   25149.95579948  .00000072  00000-0  92461-4 0  9994 | 2 62794  88.9833 123.3050 0013389 180.5772 179.5366 13.50949605 20693 | 2025/05/29-22:56:21  108.3868    0.1150  179.5378  106.5917     7446.9038     7436.9331     7456.8744 -48.860352  74.368634   0.000746  -0.001112
1 62794U 25016K   25151.58525475  .00000079  00000-0  10424-3 0  9997 | 2 62794  88.9834 123.1381 0013550 175.8797 184.2468 13.50949760 20916 | 2025/05/31-14:02:46  336.7509    0.1150  184.2353  106.5917     7446.9032     7436.8127     7456.9938 -48.643567  74.510730   0.000657  -0.001185
1 62794U 25016K   25152.84437901  .00000111  00000-0  15253-3 0  9995 | 2 62794  88.9834 123.0090 0013691 172.2205 187.9161 13.50950078 21086 | 2025/06/01-20:15:54   71.3957    0.1150  187.8945  106.5917     7446.9020     7436.7065     7457.0976 -48.475555  74.620145   0.000584  -0.001238
1 62794U 25016K   25153.88130474  .00000106  00000-0  14473-3 0  9992 | 2 62794  88.9835 122.9028 0013818 169.1865 190.9586 13.50950262 21220 | 2025/06/02-21:09:04   85.8087    0.1151  190.9286  106.5916     7446.9014     7436.6112     7457.1915 -48.337215  74.709952   0.000520  -0.001280
1 62794U 25016K   25154.91823028  .00000097  00000-0  13087-3 0  9990 | 2 62794  88.9835 122.7966 0013923 166.2705 193.8828 13.50950415 21363 | 2025/06/03-22:02:15  100.2220    0.1151  193.8446  106.5916     7446.9008     7436.5325     7457.2691 -48.198654  74.799419   0.000455  -0.001316
1 62794U 25016K   25156.17735402  .00000086  00000-0  11465-3 0  9994 | 2 62794  88.9837 122.6675 0014058 162.7257 197.4375 13.50950559 21539 | 2025/06/05-04:15:23  194.8668    0.1150  197.3893  106.5916     7446.9003     7436.4314     7457.3691 -48.030100  74.907999   0.000373  -0.001355
1 62794U 25016K   25157.58460970  .00000074  00000-0  95387-4 0  9998 | 2 62794  88.9838 122.5234 0014211 158.7609 201.4135 13.50950753 21724 | 2025/06/06-14:01:50  342.9988    0.1150  201.3541  106.5916     7446.8996     7436.3168     7457.4823 -47.841607  75.028643   0.000278  -0.001394
1 62794U 25016K   25158.91779906  .00000079  00000-0  10347-3 0  9995 | 2 62794  88.9839 122.3868 0014351 155.0554 205.1294 13.50950983 21902 | 2025/06/07-22:01:37  104.3872    0.1151  205.0597  106.5916     7446.8987     7436.2117     7457.5858 -47.662648  75.142574   0.000186  -0.001423
1 62794U 25016K   25160.91758276  .00000074  00000-0  95493-4 0  9996 | 2 62794  88.9841 122.1819 0014568 149.5487 210.6513 13.50951233 22176 | 2025/06/09-22:01:19  106.4701    0.1150  210.5663  106.5916     7446.8978     7436.0492     7457.7464 -47.393727  75.312713   0.000044  -0.001456
1 62794U 25016K   25162.54703578  .00000068  00000-0  86042-4 0  9995 | 2 62794  88.9842 122.0150 0014742 145.1286 215.0834 13.50951402 22394 | 2025/06/11-13:07:43  334.8342    0.1151  214.9865  106.5915     7446.8972     7435.9190     7457.8754 -47.174196  75.450534  -0.000073  -0.001472
1 62794U 25016K   25163.88022431  .00000085  00000-0  11292-3 0  9998 | 2 62794  88.9843 121.8785 0014872 141.5301 218.6913 13.50951675 22577 | 2025/06/12-21:07:31   96.2232    0.1150  218.5849  106.5915     7446.8962     7435.8211     7457.9712 -46.994364  75.562791  -0.000171  -0.001477
1 62794U 25016K   25164.91714851  .00000099  00000-0  13413-3 0  9999 | 2 62794  88.9843 121.7723 0014983 138.7462 221.4824 13.50951914 22712 | 2025/06/13-22:00:41  110.6369    0.1150  221.3688  106.5915     7446.8953     7435.7376     7458.0530 -46.854225  75.649767  -0.000247  -0.001478
1 62794U 25016K   25166.54660054  .00000093  00000-0  12588-3 0  9991 | 2 62794  88.9844 121.6055 0015120 134.4233 225.8159 13.50952104 22938 | 2025/06/15-13:07:06  339.0019    0.1151  225.6918  106.5915     7446.8946     7435.6349     7458.1543 -46.633847  75.785934  -0.000365  -0.001467
1 62794U 25016K   25167.58352429  .00000101  00000-0  13811-3 0  9990 | 2 62794  88.9845 121.4993 0015214 131.7037 228.5419 13.50952297 23072 | 2025/06/16-14:00:16  353.4163    0.1151  228.4114  106.5915     7446.8939     7435.5642     7458.2236 -46.493347  75.872327  -0.000440  -0.001456
1 62794U 25016K   25168.84264565  .00000107  00000-0  14698-3 0  9993 | 2 62794  88.9845 121.3704 0015325 128.4088 231.8442 13.50952572 23241 | 2025/06/17-20:13:24   88.0626    0.1151  231.7063  106.5915     7446.8929     7435.4805     7458.3052 -46.322537  75.976732  -0.000530  -0.001438
1 62794U 25016K   25169.87956892  .00000098  00000-0  13295-3 0  9999 | 2 62794  88.9846 121.2642 0015406 125.7035 234.5552 13.50952732 23389 | 2025/06/18-21:06:34  102.4775    0.1150  234.4115  106.5914     7446.8923     7435.4196     7458.3650 -46.181683  76.062548  -0.000603  -0.001418
1 62794U 25016K   25170.91649196  .00000090  00000-0  12131-3 0  9992 | 2 62794  88.9847 121.1581 0015493 123.0188 237.2454 13.50952893 23522 | 2025/06/19-21:59:44  116.8924    0.1150  237.0962  106.5914     7446.8917     7435.3542     7458.4292 -46.040804  76.148022  -0.000675  -0.001395
1 62794U 25016K   25172.54594208  .00000081  00000-0  10679-3 0  9991 | 2 62794  88.9848 120.9913 0015615 118.8226 241.4495 13.50953119 23748 | 2025/06/21-13:06:09  345.2594    0.1151  241.2925  106.5914     7446.8909     7435.2625     7458.5192 -45.818978  76.281819  -0.000785  -0.001350
1 62794U 25016K   25173.58286465  .00000082  00000-0  10797-3 0  9991 | 2 62794  88.9849 120.8852 0015685 116.1677 244.1089 13.50953273 23883 | 2025/06/22-13:59:19  359.6752    0.1150  243.9473  106.5914     7446.8903     7435.2098     7458.5707 -45.677692  76.366621  -0.000853  -0.001316
1 62794U 25016K   25174.84198462  .00000080  00000-0  10559-3 0  9994 | 2 62794  88.9849 120.7563 0015762 112.9441 247.3375 13.50953485 24058 | 2025/06/23-20:12:27   94.3233    0.1151  247.1710  106.5914     7446.8895     7435.1517     7458.6273 -45.505773  76.469190  -0.000933  -0.001270
1 62794U 25016K   25175.87890680  .00000079  00000-0  10407-3 0  9999 | 2 62794  88.9849 120.6501 0015825 110.3111 249.9743 13.50953625 24193 | 2025/06/24-21:05:37  108.7398    0.1151  249.8040  106.5914     7446.8890     7435.1043     7458.6737 -45.363956  76.553406  -0.000997  -0.001229
1 62794U 25016K   25176.91582874  .00000083  00000-0  10911-3 0  9993 | 2 62794  88.9849 120.5440 0015884 107.6784 252.6103 13.50953795 24339 | 2025/06/25-21:58:47  123.1565    0.1151  252.4367  106.5914     7446.8884     7435.0597     7458.7170 -45.222117  76.637279  -0.001058  -0.001185
1 62794U 25016K   25178.17494804  .00000093  00000-0  12444-3 0  9992 | 2 62794  88.9850 120.4151 0015952 104.4913 255.8009 13.50953988 24507 | 2025/06/27-04:11:55  217.8059    0.1151  255.6238  106.5913     7446.8877     7435.0084     7458.7669 -45.049640  76.738909  -0.001130  -0.001126
1 62794U 25016K   25179.50813278  .00000094  00000-0  12615-3 0  9991 | 2 62794  88.9849 120.2787 0016014 101.1256 259.1696 13.50954191 24687 | 2025/06/28-12:11:42  339.1998    0.1150  258.9894  106.5913     7446.8869     7434.9615     7458.8124 -44.866775  76.845851  -0.001201  -0.001059
1 62794U 25016K   25180.54505404  .00000094  00000-0  12634-3 0  9997 | 2 62794  88.9850 120.1725 0016052  98.5218 261.7753 13.50954338 24821 | 2025/06/29-13:04:52  353.6178    0.1151  261.5933  106.5913     7446.8864     7434.9326     7458.8401 -44.724312  76.928968  -0.001253  -0.001004
1 62794U 25016K   25181.87823807  .00000104  00000-0  14260-3 0  9993 | 2 62794  88.9850 120.0361 0016099  95.1751 265.1238 13.50954640 25005 | 2025/06/30-21:04:39  115.0127    0.1151  264.9400  106.5913     7446.8853     7434.8965     7458.8740 -44.541046  77.035222  -0.001315  -0.000928
1 62794U 25016K   25183.13735596  .00000112  00000-0  15501-3 0  9999 | 2 62794  88.9850 119.9072 0016136  92.0400 268.2599 13.50954908 25179 | 2025/07/02-03:17:47  209.6641    0.1151  268.0751  106.5913     7446.8843     7434.8680     7458.9006 -44.367625  77.135232  -0.001369  -0.000854
1 62794U 25016K   25184.17427625  .00000122  00000-0  17043-3 0  9999 | 2 62794  88.9851 119.8011 0016157  89.4421 270.8581 13.50955171 25317 | 2025/07/03-04:10:57  224.0833    0.1151  270.6730  106.5912     7446.8833     7434.8514     7458.9153 -44.224760  77.217347  -0.001410  -0.000789
1 62794U 25016K   25185.50745902  .00000125  00000-0  17427-3 0  9997 | 2 62794  88.9851 119.6646 0016182  86.0955 274.2045 13.50955506 25496 | 2025/07/04-12:10:44  345.4798    0.1150  274.0195  106.5912     7446.8821     7434.8315     7458.9326 -44.040674  77.322487  -0.001457  -0.000703
1 62794U 25016K   25186.61844439  .00000120  00000-0  16689-3 0  9999 | 2 62794  88.9851 119.5509 0016200  83.3402 276.9592 13.50955739 25642 | 2025/07/05-14:50:33   26.6439    0.1151  276.7749  106.5912     7446.8812     7434.8173     7458.9452 -43.887146  77.409731  -0.001492  -0.000630
1 62794U 25016K   25187.87756066  .00000112  00000-0  15472-3 0  9996 | 2 62794  88.9852 119.4220 0016209  80.1965 280.1016 13.50956028 25819 | 2025/07/06-21:03:41  121.2970    0.1152  279.9187  106.5912     7446.8802     7434.8095     7458.9508 -43.712933  77.508356  -0.001527  -0.000544
1 62794U 25016K   25189.13667664  .00000111  00000-0  15254-3 0  9999 | 2 62794  88.9852 119.2931 0016205  77.0634 283.2326 13.50956275 25980 | 2025/07/08-03:16:48  215.9508    0.1152  283.0518  106.5912     7446.8793     7434.8116     7458.9469 -43.538450  77.606502  -0.001555  -0.000456
1 62794U 25016K   25190.17359537  .00000110  00000-0  15112-3 0  9994 | 2 62794  88.9852 119.1870 0016196  74.4445 285.8493 13.50956490 26120 | 2025/07/09-04:09:58  230.3719    0.1152  285.6707  106.5911     7446.8785     7434.8175     7458.9394 -43.394664  77.686994  -0.001574  -0.000382
1 62794U 25016K   25191.50677629  .00000106  00000-0  14601-3 0  9994 | 2 62794  88.9851 119.0505 0016185  71.1252 289.1652 13.50956745 26308 | 2025/07/10-12:09:45  351.7709    0.1151  288.9899  106.5911     7446.8775     7434.8248     7458.9303 -43.209413  77.790068  -0.001593  -0.000286
