# SPACE DATA - HISTORICAL TLEs
# ----------------------------
# NORAD_ID    : 60396
# OBJECT_NAME : QIANFAN-18
# --------------------------------------------------------------------+-----------------------------------------------------------------------+----------------------------------------------------------------------------------------------------------------------------------------
#                  LINE 1                                             |                 LINE 2                                                |      DERIVED PARAMETERS
# --------------------------------------------------------------------+-----------------------------------------------------------------------+----------------------------------------------------------------------------------------------------------------------------------------
# NORAD  COSPAR     TLE_EPOCH      MEANMOT1 MEANMOT2   BSTAR  #  REV  |   NORAD    INC     RAAN     ECC    ARGPER  MEANANOM   MEANMOT     REV |  CAL_DATE              LONG     ARGLAT     PERIOD        SMA         PERIGEE        APOGEE      INC_X      INC_Y      ECC_X      ECC_Y
# ------ ------   -------------- ----------  -------  ------- -- ----     -----  ------- -------- ------- -------- -------- -----------  ----   ------------------- ---------  --------  --------  ------------  ------------   ----------- ---------- ----------  ---------  ---------   
1 62795U 25016L   25036.80246259  .00001290  00000-0  52731-3 0  9998 | 2 62795  88.9949 135.4287 0015502 168.5924 191.5625 14.26680784  5107 | 2025/02/05-19:15:32  289.4914    0.1194  191.5270  100.9336     7180.9841     7169.8522     7192.1161 -63.397980  62.456292   0.000867  -0.001285
1 62795U 25016L   25039.11927739 -.00277786  00000-0 -12482+0 0  9996 | 2 62795  88.9945 135.1625 0020898 144.7877 215.4701 14.24389891  5433 | 2025/02/08-02:51:45   45.9916    0.1191  215.3314  101.0959     7188.6817     7173.6588     7203.7046 -63.106837  62.749886   0.000361  -0.002058
1 62795U 25016L   25040.59083329  .00000829  00000-0  34212-3 0  9997 | 2 62795  88.9946 134.9928 0016563 156.4645 203.7310 14.25862191  5643 | 2025/02/09-14:10:47  217.4342    0.1193  203.6548  100.9915     7183.7323     7171.8339     7195.6307 -62.920777  62.936593   0.000606  -0.001542
1 62795U 25016L   25041.92421272  .00001121  00000-0  46468-3 0  9990 | 2 62795  88.9944 134.8394 0016670 152.3817 207.8266 14.25865443  5831 | 2025/02/10-22:10:51  338.9056    0.1193  207.7376  100.9913     7183.7214     7171.7461     7195.6966 -62.751908  63.104685   0.000494  -0.001592
1 62795U 25016L   25043.60847824  .00000984  00000-0  40692-3 0  9991 | 2 62795  88.9941 134.6455 0016851 147.3375 212.8864 14.25868295  6073 | 2025/02/12-14:36:12  227.0796    0.1192  212.7817  100.9911     7183.7118     7171.6065     7195.8171 -62.537780  63.316474   0.000350  -0.001648
1 62795U 25016L   25044.94185232  .00000987  00000-0  40828-3 0  9991 | 2 62795  88.9939 134.4921 0016963 143.3883 216.8473 14.25870987  6262 | 2025/02/13-22:36:16  348.5502    0.1192  216.7309  100.9909     7183.7027     7171.5170     7195.8885 -62.367896  63.483539   0.000233  -0.001680
1 62795U 25016L   25046.48575534  .00001059  00000-0  43831-3 0  9998 | 2 62795  88.9938 134.3144 0017096 138.8238 221.4249 14.25874597  6486 | 2025/02/15-11:39:29  186.0416    0.1193  221.2955  100.9906     7183.6906     7171.4094     7195.9719 -62.170636  63.676593   0.000094  -0.001707
1 62795U 25016L   25047.60859150  .00001070  00000-0  44301-3 0  9998 | 2 62795  88.9936 134.1851 0017185 135.5304 224.7272 14.25876990  6643 | 2025/02/16-14:36:22  231.4897    0.1192  224.5888  100.9905     7183.6826     7171.3374     7196.0277 -62.026639  63.816588  -0.000009  -0.001718
1 62795U 25016L   25048.94195622  .00001159  00000-0  48026-3 0  9999 | 2 62795  88.9935 134.0316 0017280 131.6427 228.6249 14.25880579  6832 | 2025/02/17-22:36:25  352.9588    0.1192  228.4765  100.9902     7183.6705     7171.2571     7196.0839 -61.855377  63.982462  -0.000130  -0.001723
1 62795U 25016L   25050.55602529  .00001150  00000-0  47632-3 0  9991 | 2 62795  88.9933 133.8457 0017395 126.9646 233.3143 14.25884363  7067 | 2025/02/19-13:20:40  215.7891    0.1193  233.1547  100.9900     7183.6578     7171.1618     7196.1538 -61.647318  64.182674  -0.000278  -0.001717
1 62795U 25016L   25051.60867663  .00001122  00000-0  46492-3 0  9992 | 2 62795  88.9932 133.7245 0017456 123.9047 236.3810 14.25886722  7212 | 2025/02/20-14:36:29  235.8956    0.1193  236.2146  100.9898     7183.6499     7171.1101     7196.1897 -61.511343  64.312863  -0.000374  -0.001705
1 62795U 25016L   25053.57556818  .00000914  00000-0  39957-3 0  9993 | 2 62795  88.9932 133.4764 0013874 107.2762 252.9949 14.22968313  7495 | 2025/02/22-13:48:49  226.1779    0.1191  252.8429  101.1969     7193.4686     7183.4884     7203.4489 -61.232282  64.578613  -0.000678  -0.001211
1 62795U 25016L   25054.84246940  .00000928  00000-0  42138-3 0  9996 | 2 62795  88.9924 133.3545 0017332 113.1260 247.1759 14.20993024  7674 | 2025/02/23-20:13:09  323.6021    0.1190  246.9930  101.3376     7200.1334     7187.6541     7212.6127 -61.094200  64.708161  -0.000692  -0.001589
1 62795U 25016L   25056.11106367  .00001040  00000-0  49784-3 0  9996 | 2 62795  88.9982 133.2066 0018424 116.0940 244.2148 14.18282104  7852 | 2025/02/25-02:39:55   61.6875    0.1189  244.0249  101.5313     7209.3054     7196.0230     7222.5879 -60.930933  64.869877  -0.000651  -0.001723
1 62795U 25016L   25057.17022688  .00000952  00000-0  47568-3 0  9995 | 2 62795  88.9955 133.0964 0014992 101.6788 258.6083 14.15957725  8003 | 2025/02/26-04:05:07   84.1621    0.1188  258.4400  101.6980     7217.1930     7206.3729     7228.0130 -60.804208  64.984977  -0.000865  -0.001225
1 62795U 25016L   25058.51337927  .00000665  00000-0  33926-3 0  9993 | 2 62795  88.9919 132.9361 0018251 103.4764 256.8458 14.14502713  8196 | 2025/02/27-12:19:15  209.1460    0.1187  256.6423  101.8026     7222.1414     7208.9602     7235.3225 -60.619706  65.152203  -0.001010  -0.001520
1 62795U 25016L   25059.78803073  .00000823  00000-0  44581-3 0  9998 | 2 62795  88.9924 132.7937 0017895 104.1730 256.1445 14.11494849  8379 | 2025/02/28-18:54:45  309.4240    0.1185  255.9455  102.0195     7232.3979     7219.4555     7245.3402 -60.457932  65.303030  -0.000976  -0.001500
1 62795U 25016L   25060.85207512  .00000748  00000-0  41692-3 0  9990 | 2 62795  88.9919 132.6725 0017794  97.4024 262.9183 14.09880973  8520 | 2025/03/01-20:26:59  333.6467    0.1184  262.7160  102.1363     7237.9161     7225.0369     7250.7952 -60.319320  65.430405  -0.001142  -0.001365
1 62795U 25016L   25062.48658180  .00000654  00000-0  38759-3 0  9998 | 2 62795  88.9902 132.4886 0018178  97.5340 262.7908 14.06385933  8758 | 2025/03/03-11:40:40  203.8600    0.1182  262.5842  102.3901     7249.9025     7236.7236     7263.0814 -60.107852  65.622418  -0.001168  -0.001393
1 62795U 25016L   25064.90917589  .00000471  00000-0  29873-3 0  9992 | 2 62795  88.9918 132.2193 0017869  87.6742 272.6483 14.02109983  9097 | 2025/03/05-21:49:12  358.6533    0.1179  272.4437  102.7024     7264.6348     7251.6536     7277.6160 -59.799828  65.905395  -0.001371  -0.001146
1 62795U 25016L   25066.69578035  .00000382  00000-0  25591-3 0  9993 | 2 62795  88.9893 132.0237 0017309  84.7428 275.5725 13.98795196  9344 | 2025/03/07-16:41:55  283.7947    0.1178  275.3750  102.9457     7276.1072     7263.5129     7288.7014 -59.572814  66.107302  -0.001387  -0.001036
1 62795U 25016L   25067.98444914  .00000385  00000-0  26769-3 0  9995 | 2 62795  88.9924 131.8809 0017695  78.2141 282.1020 13.96651500  9529 | 2025/03/08-23:37:36   29.1276    0.1177  281.9036  103.1037     7283.5506     7270.6623     7296.4388 -59.409938  66.257879  -0.001531  -0.000887
1 62795U 25016L   25069.49091868  .00000398  00000-0  29073-3 0  9994 | 2 62795  88.9932 131.7166 0017730  73.7369 286.5755 13.94003309  9737 | 2025/03/10-11:46:55  213.1095    0.1175  286.3806  103.2996     7292.7720     7279.8420     7305.7021 -59.220226  66.428566  -0.001601  -0.000762
1 62795U 25016L   25070.56813114  .00000384  00000-0  28730-3 0  9994 | 2 62795  88.9944 131.6001 0018801  68.9668 291.3515 13.92536763  9882 | 2025/03/11-13:38:06  242.0783    0.1175  291.1507  103.4084     7297.8914     7284.1706     7311.6121 -59.085831  66.549739  -0.001760  -0.000660
1 62795U 25016L   25071.86237760  .00000398  00000-0  30738-3 0  9991 | 2 62795  88.9930 131.4582 0017478  67.4800 292.8222 13.90857745 10067 | 2025/03/12-20:41:49  349.4407    0.1174  292.6374  103.5332     7303.7635     7290.9979     7316.5290 -58.919905  66.694819  -0.001653  -0.000567
1 62795U 25016L   25073.44595079  .00000153  00000-0  11263-3 0  9998 | 2 62795  88.9932 131.2863 0017457  63.1329 297.1627 13.90053249 10283 | 2025/03/14-10:42:10  201.2664    0.1174  296.9845  103.5932     7306.5812     7293.8261     7319.3363 -58.719672  66.871442  -0.001691  -0.000435
1 62795U 25016L   25074.45455437  .00000466  00000-0  37813-3 0  9999 | 2 62795  88.9929 131.1742 0016772  59.3371 300.9452 13.88306247 10428 | 2025/03/15-10:54:33  205.4832    0.1173  300.7802  103.7235     7312.7095     7300.4446     7324.9744 -58.588528  66.985974  -0.001649  -0.000306
1 62795U 25016L   25076.61969758  .00000435  00000-0  37033-3 0  9995 | 2 62795  88.9934 130.9432 0017153  55.1543 305.1237 13.85433213 10728 | 2025/03/17-14:52:21  267.3042    0.1170  304.9627  103.9386     7322.8158     7310.2550     7335.3767 -58.318312  67.222018  -0.001706  -0.000182
1 62795U 25016L   25077.63089435  .00000095  00000-0  72612-4 0  9998 | 2 62795  88.9895 130.8519 0017866  51.8531 308.4245 13.84660256 10868 | 2025/03/18-15:08:29  272.4234    0.1170  308.2639  103.9966     7325.5408     7312.4530     7338.6286 -58.208570  67.311912  -0.001785  -0.000084
1 62795U 25016L   25079.00505041  .00000093  00000-0  74294-4 0  9993 | 2 62795  88.9941 130.6873 0017047  48.8349 311.4287 13.82135119 11050 | 2025/03/20-00:07:16   48.6526    0.1169  311.2820  104.1866     7334.4605     7321.9574     7346.9635 -58.017954  67.482345  -0.001705   0.000014
1 62795U 25016L   25080.23661649  .00000087  00000-0  70115-4 0  9998 | 2 62795  88.9937 130.5565 0016763  45.1079 315.1447 13.80848244 11222 | 2025/03/21-05:40:43  133.3721    0.1169  315.0090  104.2837     7339.0167     7326.7143     7351.3190 -57.863488  67.614313  -0.001672   0.000127
1 62795U 25016L   25081.39677886  .00000430  00000-0  40641-3 0  9998 | 2 62795  88.9930 130.4318 0016556  42.6232 317.6216 13.79215637 11383 | 2025/03/22-09:31:21  192.3065    0.1167  317.4935  104.4072     7344.8071     7332.6470     7356.9671 -57.715740  67.739556  -0.001643   0.000200
1 62795U 25016L   25083.50401401  .00000392  00000-0  38865-3 0  9993 | 2 62795  88.9927 130.2076 0016265  37.1332 323.0955 13.76255751 11676 | 2025/03/24-12:05:46  233.2285    0.1166  322.9834  104.6317     7355.3342     7343.3707     7367.2976 -57.450038  67.964651  -0.001587   0.000356
1 62795U 25016L   25084.95873414  .00000090  00000-0  81498-4 0  9996 | 2 62795  88.9858 130.0521 0015665  28.3143 331.8870 13.74853449 11878 | 2025/03/25-23:00:34   38.5445    0.1166  331.8023  104.7384     7360.3348     7348.8048     7371.8648 -57.260931  68.115037  -0.001456   0.000578
1 62795U 25016L   25086.05162150  .00000092  00000-0  86968-4 0  9996 | 2 62795  88.9863 129.9303 0014832  30.5479 329.6545 13.72470616 12022 | 2025/03/27-01:14:20   73.1818    0.1164  329.5685  104.9203     7368.8515     7357.9220     7379.7810 -57.116323  68.236993  -0.001398   0.000496
1 62795U 25016L   25087.21897035  .00000085  00000-0  81111-4 0  9999 | 2 62795  88.9867 129.8046 0015345  24.0544 336.1332 13.70708118 12183 | 2025/03/28-05:15:19  134.7185    0.1163  336.0619  105.0552     7375.1669     7363.8497     7386.4841 -56.966738  68.362442  -0.001378   0.000676
1 62795U 25016L   25088.31395538  .00000080  00000-0  76112-4 0  9992 | 2 62795  88.9865 129.6893 0015176  20.9702 339.2080 13.70709794 12334 | 2025/03/29-07:32:05  170.1171    0.1164  339.1462  105.0551     7375.1609     7363.9683     7386.3534 -56.828925  68.476788  -0.001323   0.000744
1 62795U 25016L   25089.48265703  .00000259  00000-0  28634-3 0  9994 | 2 62795  88.9864 129.5679 0015375  18.5789 341.5930 13.68755253 12498 | 2025/03/30-11:35:01  232.1293    0.1162  341.5373  105.2051     7382.1802     7370.8301     7393.5303 -56.683644  68.596967  -0.001306   0.000811
1 62795U 25016L   25090.87275810  .00000224  00000-0  25531-3 0  9994 | 2 62795  88.9849 129.4198 0013975  11.6972 348.4510 13.66416514 12681 | 2025/03/31-20:56:46   14.1076    0.1161  348.4189  105.3851     7390.6013     7380.2729     7400.9297 -56.505190  68.742097  -0.001088   0.000877
1 62795U 25016L   25091.89823291  .00000211  00000-0  24133-3 0  9992 | 2 62795  88.9857 129.3122 0014660  10.0289 350.1160 13.66029484 12825 | 2025/04/01-21:33:27   24.4002    0.1160  350.0871  105.4150     7391.9972     7381.1605     7402.8338 -56.376502  68.848710  -0.001112   0.000955
1 62795U 25016L   25094.17286775  .00000203  00000-0  24882-3 0  9998 | 2 62795  88.9845 129.0759 0013786   6.2385 353.8941 13.61569375 13132 | 2025/04/04-04:08:55  125.7593    0.1158  353.8773  105.7603     7408.1311     7397.9182     7418.3439 -56.091320  69.079701  -0.000980   0.000969
1 62795U 25016L   25095.49628380  .00000216  00000-0  27361-3 0  9995 | 2 62795  88.9875 128.9373 0014697   0.3874 359.7291 13.59835946 13315 | 2025/04/05-11:54:38  243.6482    0.1157  359.7283  105.8951     7414.4253     7403.5284     7425.3223 -55.925936  69.217519  -0.000931   0.001137
1 62795U 25016L   25096.52735551  .00000214  00000-0  28084-3 0  9990 | 2 62795  88.9827 128.8313 0014124 358.2108   1.8994 13.57784746 13454 | 2025/04/06-12:39:23  255.9626    0.1156    1.9048  106.0551     7421.8908     7411.4081     7432.3734 -55.794774  69.317127  -0.000851   0.001127
1 62795U 25016L   25097.85383882  .00000107  00000-0  13165-3 0  9998 | 2 62795  88.9844 128.6922 0013746 354.3507   5.7491 13.57772549 13639 | 2025/04/07-20:29:31   14.9536    0.1156    5.7649  106.0561     7421.9352     7411.7330     7432.1374 -55.627388  69.453705  -0.000750   0.001152
1 62795U 25016L   25098.88555488  .00000037  00000-0  34738-4 0  9997 | 2 62795  88.9843 128.5851 0013630 351.1940   8.8974 13.57772724 13776 | 2025/04/08-21:15:11   27.5038    0.1156    8.9216  106.0560     7421.9346     7411.8185     7432.0507 -55.497402  69.557487  -0.000677   0.001183
1 62795U 25016L   25099.91727089  .00000040  00000-0  38778-4 0  9992 | 2 62795  88.9842 128.4782 0013527 348.0253  12.0579 13.57772839 13915 | 2025/04/09-22:00:52   40.0535    0.1156   12.0903  106.0560     7421.9341     7411.8945     7431.9738 -55.367466  69.660832  -0.000604   0.001211
1 62795U 25016L   25101.46484478  .00000085  00000-0  10065-3 0  9995 | 2 62795  88.9840 128.3177 0013366 343.3397  16.7317 13.57773121 14128 | 2025/04/11-11:09:22  238.8778    0.1156   16.7759  106.0560     7421.9331     7412.0130     7431.8533 -55.171988  69.815500  -0.000493   0.001242
1 62795U 25016L   25102.49656056  .00000075  00000-0  86819-4 0  9992 | 2 62795  88.9838 128.2108 0013263 340.1359  19.9278 13.57773247 14262 | 2025/04/12-11:55:02  251.4270    0.1156   19.9797  106.0560     7421.9327     7412.0890     7431.7764 -55.041509  69.918159  -0.000417   0.001259
1 62795U 25016L   25103.52827628  .00000064  00000-0  72589-4 0  9999 | 2 62795  88.9837 128.1038 0013163 336.9126  23.1436 13.57773364 14405 | 2025/04/13-12:40:43  263.9761    0.1156   23.2030  106.0560     7421.9322     7412.1627     7431.7017 -54.910779  70.020748  -0.000341   0.001271
1 62795U 25016L   25104.78107391  .00000052  00000-0  54914-4 0  9995 | 2 62795  88.9836 127.9740 0013043 332.9793  27.0682 13.57773468 14573 | 2025/04/14-18:44:44  356.3565    0.1156   27.1363  106.0560     7421.9319     7412.2514     7431.6123 -54.751949  70.144887  -0.000248   0.001281
1 62795U 25016L   25106.40274057  .00000187  00000-0  24982-3 0  9990 | 2 62795  88.9834 127.8067 0012712 330.2886  29.7544 13.56099425 14791 | 2025/04/16-09:39:56  221.9267    0.1154   29.8268  106.1869     7428.0386     7418.5961     7437.4811 -54.546775  70.304301  -0.000179   0.001259
1 62795U 25016L   25107.58363248  .00000167  00000-0  22257-3 0  9992 | 2 62795  88.9833 127.6836 0012775 324.1858  35.8438 13.55677622 14950 | 2025/04/17-14:00:25  288.3482    0.1154   35.9296  106.2199     7429.5793     7420.0880     7439.0706 -54.395539  70.421254  -0.000042   0.001277
1 62795U 25016L   25108.83902747  .00000153  00000-0  20766-3 0  9992 | 2 62795  88.9829 127.5541 0012768 320.2334  39.7882 13.54149741 15126 | 2025/04/18-20:08:11   21.6653    0.1153   39.8819  106.3398     7435.1668     7425.6735     7444.6600 -54.235991  70.543702   0.000049   0.001276
1 62795U 25016L   25109.87350270  .00000153  00000-0  20767-3 0  9996 | 2 62795  88.9830 127.4475 0012722 316.9738  43.0419 13.54149353 15261 | 2025/04/19-20:57:50   35.2085    0.1153   43.1415  106.3398     7435.1682     7425.7092     7444.6272 -54.104709  70.644566   0.000124   0.001266
1 62795U 25016L   25110.90797783  .00000158  00000-0  21496-3 0  9991 | 2 62795  88.9828 127.3408 0012646 313.6192  46.3911 13.54149532 15404 | 2025/04/20-21:47:29   48.7513    0.1153   46.4961  106.3398     7435.1675     7425.7650     7444.5700 -53.972935  70.745042   0.000199   0.001249
1 62795U 25016L   25112.23801748  .00000040  00000-0  41011-4 0  9992 | 2 62795  88.9827 127.2037 0012558 309.2753  50.7286 13.54149344 15580 | 2025/04/22-05:42:44  169.0200    0.1154   50.8401  106.3398     7435.1682     7425.8311     7444.5053 -53.803439  70.873908   0.000294   0.001221
1 62795U 25016L   25115.56903563  .00000180  00000-0  26244-3 0  9994 | 2 62795  88.9825 126.8618 0012596 296.3953  63.5905 13.50665329 16031 | 2025/04/25-13:39:24  291.8298    0.1152   63.7199  106.6141     7447.9486     7438.5672     7457.3301 -53.379439  71.193545   0.000567   0.001125
1 62795U 25016L   25116.82842198  .00000184  00000-0  26714-3 0  9996 | 2 62795  88.9824 126.7327 0012545 292.2005  67.7814 13.50665714 16205 | 2025/04/26-19:52:55   26.5832    0.1151   67.9146  106.6141     7447.9472     7438.6038     7457.2907 -53.218829  71.313560   0.000647   0.001075
1 62795U 25016L   25117.86556390  .00000063  00000-0  79807-4 0  9995 | 2 62795  88.9824 126.6263 0012516 288.7480  71.2312 13.50665504 16343 | 2025/04/27-20:46:24   41.0856    0.1151   71.3671  106.6141     7447.9480     7438.6261     7457.2699 -53.086306  71.412265   0.000711   0.001030
1 62795U 25016L   25118.97678736  .00000047  00000-0  55338-4 0  9992 | 2 62795  88.9823 126.5123 0012484 285.0651  74.9118 13.50665539 16498 | 2025/04/28-23:26:34   82.3376    0.1151   75.0500  106.6141     7447.9479     7438.6499     7457.2459 -52.944054  71.517668   0.000776   0.000978
1 62795U 25016L   25121.79266167  .00000152  00000-0  22165-3 0  9995 | 2 62795  88.9822 126.2238 0012266 274.1413  85.8336 13.49785134 16871 | 2025/05/01-19:01:25   19.1183    0.1151   85.9738  106.6836     7451.1862     7442.0465     7460.3258 -52.583214  71.783268   0.000935   0.000794
1 62795U 25016L   25122.90460973  .00000088  00000-0  12075-3 0  9997 | 2 62795  88.9821 126.1100 0012261 270.3689  89.6056 13.49785268 17022 | 2025/05/02-21:42:38   60.6298    0.1150   89.7461  106.6836     7451.1857     7442.0498     7460.3216 -52.440477  71.887485   0.000986   0.000729
1 62795U 25016L   25123.94210643  .00000163  00000-0  23479-3 0  9993 | 2 62795  88.9819 126.0033 0011664 266.7070  93.2746 13.50941453 17166 | 2025/05/03-22:36:37   75.2508    0.1150   93.4080  106.5923     7446.9337     7438.2476     7455.6198 -52.306395  71.984857   0.000981   0.000630
1 62795U 25016L   25125.94189772  .00000168  00000-0  24165-3 0  9991 | 2 62795  88.9820 125.7987 0011747 260.2148  99.7677 13.50944864 17432 | 2025/05/05-22:36:19   77.3505    0.1151   99.9003  106.5921     7446.9212     7438.1733     7455.6691 -52.049066  72.171262   0.001056   0.000515
1 62795U 25016L   25126.97882564  .00000170  00000-0  24461-3 0  9996 | 2 62795  88.9820 125.6921 0011754 256.6307 103.3533 13.50945404 17572 | 2025/05/06-23:29:30   91.7717    0.1150  103.4843  106.5920     7446.9192     7438.1661     7455.6723 -51.914700  72.267975   0.001087   0.000446
1 62795U 25016L   25128.53421785  .00000063  00000-0  79221-4 0  9990 | 2 62795  88.9820 125.5324 0011783 251.3786 108.6085 13.50945413 17786 | 2025/05/08-12:49:16  293.4026    0.1150  108.7364  106.5920     7446.9192     7438.1445     7455.6939 -51.713067  72.412396   0.001127   0.000343
1 62795U 25016L   25129.86741114  .00000058  00000-0  70644-4 0  9992 | 2 62795  88.9820 125.3956 0011829 246.8825 113.1080 13.50945507 17969 | 2025/05/09-20:49:04   54.7996    0.1151  113.2326  106.5920     7446.9188     7438.1099     7455.7278 -51.540027  72.535660   0.001156   0.000252
1 62795U 25016L   25130.90433927  .00000030  00000-0  27889-4 0  9992 | 2 62795  88.9820 125.2892 0011871 243.3783 116.6153 13.50945512 18101 | 2025/05/10-21:42:14   69.2191    0.1151  116.7368  106.5920     7446.9188     7438.0786     7455.7591 -51.405237  72.631246   0.001174   0.000179
1 62795U 25016L   25131.94126738  .00000044  00000-0  49573-4 0  9995 | 2 62795  88.9821 125.1828 0011919 239.9086 120.0883 13.50945648 18244 | 2025/05/11-22:35:25   83.6383    0.1150  120.2064  106.5920     7446.9183     7438.0423     7455.7943 -51.270328  72.726664   0.001187   0.000106
1 62795U 25016L   25132.97819556  .00000025  00000-0  20425-4 0  9990 | 2 62795  88.9822 125.0765 0011972 236.4716 123.5292 13.50945663 18389 | 2025/05/12-23:28:36   98.0569    0.1151  123.6435  106.5920     7446.9183     7438.0028     7455.8337 -51.135369  72.821741   0.001197   0.000032
1 62795U 25016L   25134.53358796  .00000027  00000-0  23016-4 0  9999 | 2 62795  88.9823 124.9169 0012063 231.3091 128.6982 13.50945732 18590 | 2025/05/14-12:48:21  299.6844    0.1151  128.8060  106.5920     7446.9180     7437.9348     7455.9012 -50.932379  72.963980   0.001204  -0.000079
1 62795U 25016L   25135.57051628  .00000025  00000-0  20710-4 0  9994 | 2 62795  88.9823 124.8105 0012129 227.8773 132.1348 13.50945782 18736 | 2025/05/15-13:41:32  314.1022    0.1151  132.2378  106.5920     7446.9178     7437.8855     7455.9502 -50.796795  73.058437   0.001203  -0.000154
1 62795U 25016L   25136.90371000  .00000034  00000-0  34166-4 0  9991 | 2 62795  88.9823 124.6736 0012222 223.5290 136.4897 13.50945837 18912 | 2025/05/16-21:41:20   75.4963    0.1150  136.5860  106.5920     7446.9176     7437.8160     7456.0192 -50.622088  73.179600   0.001196  -0.000250
1 62795U 25016L   25137.94063849  .00000037  00000-0  38045-4 0  9998 | 2 62795  88.9823 124.5673 0012308 219.9958 140.0288 13.50945912 19051 | 2025/05/17-22:34:31   89.9130    0.1151  140.1193  106.5920     7446.9173     7437.7517     7456.0830 -50.486232  73.273393   0.001186  -0.000328
1 62795U 25016L   25139.19976600  .00000053  00000-0  64166-4 0  9996 | 2 62795  88.9824 124.4382 0012410 215.9222 144.1096 13.50945986 19224 | 2025/05/19-04:47:39  184.5619    0.1151  144.1929  106.5920     7446.9171     7437.6755     7456.1587 -50.321059  73.387046   0.001169  -0.000417
1 62795U 25016L   25140.23669455  .00000052  00000-0  61331-4 0  9990 | 2 62795  88.9824 124.3319 0012494 212.7301 147.3077 13.50945981 19362 | 2025/05/20-05:40:50  198.9785    0.1150  147.3849  106.5920     7446.9171     7437.6129     7456.2213 -50.184819  73.480279   0.001151  -0.000487
1 62795U 25016L   25141.49582201  .00000060  00000-0  74080-4 0  9996 | 2 62795  88.9825 124.2027 0012606 208.7215 151.3243 13.50946110 19536 | 2025/05/21-11:53:59  293.6266    0.1150  151.3935  106.5920     7446.9166     7437.5290     7456.3042 -50.019052  73.593340   0.001122  -0.000574
1 62795U 25016L   25142.53275047  .00000063  00000-0  78536-4 0  9992 | 2 62795  88.9826 124.0964 0012699 205.4692 154.5835 13.50946213 19671 | 2025/05/22-12:47:09  308.0423    0.1151  154.6459  106.5920     7446.9162     7437.4594     7456.3731 -49.882486  73.686096   0.001095  -0.000643
1 62795U 25016L   25143.56967884  .00000063  00000-0  78450-4 0  9998 | 2 62795  88.9827 123.9901 0012794 202.2504 157.8094 13.50946318 19819 | 2025/05/23-13:40:20  322.4578    0.1151  157.8647  106.5919     7446.9159     7437.3883     7456.4434 -49.745747  73.778598   0.001064  -0.000711
1 62795U 25016L   25144.60660717  .00000058  00000-0  71798-4 0  9991 | 2 62795  88.9827 123.8838 0012901 198.9666 161.1007 13.50946440 19950 | 2025/05/24-14:33:30  336.8728    0.1151  161.1485  106.5919     7446.9154     7437.3081     7456.5227 -49.608781  73.870764   0.001028  -0.000779
1 62795U 25016L   25145.93980061  .00000059  00000-0  72490-4 0  9996 | 2 62795  88.9828 123.7471 0013040 194.8370 165.2400 13.50946632 20132 | 2025/05/25-22:33:18   98.2635    0.1150  165.2780  106.5919     7446.9147     7437.2039     7456.6255 -49.432450  73.988996   0.000978  -0.000863
1 62795U 25016L   25147.86552445  .00000050  00000-0  59506-4 0  9995 | 2 62795  88.9829 123.5496 0013241 188.9841 171.1075 13.50946813 20391 | 2025/05/27-20:46:21   73.6051    0.1150  171.1309  106.5919     7446.9140     7437.0536     7456.7745 -49.177170  74.159035   0.000895  -0.000976
1 62795U 25016L   25148.90245268  .00000046  00000-0  52410-4 0  9995 | 2 62795  88.9829 123.4433 0013362 185.8090 174.2909 13.50946885 20532 | 2025/05/28-21:39:31   88.0193    0.1151  174.3061  106.5919     7446.9138     7436.9632     7456.8643 -49.039500  74.250145   0.000845  -0.001035
1 62795U 25016L   25149.93938080  .00000076  00000-0  98641-4 0  9999 | 2 62795  88.9829 123.3370 0013489 182.6359 177.4724 13.50947106 20676 | 2025/05/29-22:32:42  102.4334    0.1151  177.4792  106.5919     7446.9130     7436.8678     7456.9581 -48.901660  74.340999   0.000792  -0.001092
1 62795U 25016L   25151.49477298  .00000074  00000-0  96009-4 0  9996 | 2 62795  88.9830 123.1776 0013636 178.1407 181.9797 13.50947188 20887 | 2025/05/31-11:52:28  304.0549    0.1150  181.9743  106.5919     7446.9127     7436.7580     7457.0673 -48.694705  74.476842   0.000709  -0.001165
1 62795U 25016L   25152.53170065  .00000142  00000-0  20130-3 0  9991 | 2 62795  88.9830 123.0713 0013749 175.1158 185.0130 13.50947722 21029 | 2025/06/01-12:45:38  318.4688    0.1151  184.9993  106.5918     7446.9107     7436.6719     7457.1495 -48.556446  74.567056   0.000649  -0.001212
1 62795U 25016L   25154.16115874  .00000113  00000-0  15643-3 0  9990 | 2 62795  88.9831 122.9042 0013961 170.3025 189.8398 13.50947775 21249 | 2025/06/03-03:52:04  186.8334    0.1150  189.8125  106.5918     7446.9105     7436.5139     7457.3071 -48.338823  74.708435   0.000550  -0.001283
1 62795U 25016L   25155.19808619  .00000114  00000-0  15804-3 0  9990 | 2 62795  88.9832 122.7979 0014062 167.3817 192.7689 13.50947944 21384 | 2025/06/04-04:45:14  201.2473    0.1150  192.7333  106.5918     7446.9099     7436.4380     7457.3817 -48.200189  74.798073   0.000485  -0.001320
1 62795U 25016L   25156.23501352  .00000102  00000-0  13950-3 0  9997 | 2 62795  88.9833 122.6917 0014163 164.4524 195.7065 13.50948100 21523 | 2025/06/05-05:38:25  215.6611    0.1150  195.6626  106.5918     7446.9093     7436.3622     7457.4564 -48.061519  74.887369   0.000417  -0.001353
1 62795U 25016L   25157.56820545  .00000106  00000-0  14473-3 0  9997 | 2 62795  88.9834 122.5550 0014312 160.6820 199.4877 13.50948396 21708 | 2025/06/06-13:38:12  337.0502    0.1151  199.4331  106.5918     7446.9082     7436.2502     7457.5662 -47.882765  75.001909   0.000328  -0.001393
1 62795U 25016L   25158.60513240  .00000076  00000-0  98559-4 0  9998 | 2 62795  88.9835 122.4487 0014427 157.7899 202.3880 13.50948496 21841 | 2025/06/07-14:31:23  351.4640    0.1150  202.3251  106.5918     7446.9079     7436.1642     7457.6515 -47.743586  75.090700   0.000256  -0.001420
1 62795U 25016L   25159.71612540  .00000069  00000-0  88859-4 0  9998 | 2 62795  88.9836 122.3349 0014554 154.6769 205.5098 13.50948666 21992 | 2025/06/08-17:11:13   32.6215    0.1150  205.4381  106.5918     7446.9072     7436.0690     7457.7455 -47.594402  75.185464   0.000178  -0.001445
1 62795U 25016L   25160.90118444  .00000063  00000-0  78826-4 0  9992 | 2 62795  88.9837 122.2135 0014676 151.4150 208.7809 13.50948824 22159 | 2025/06/09-21:37:42  100.5230    0.1151  208.7001  106.5918     7446.9066     7435.9776     7457.8357 -47.435043  75.286224   0.000093  -0.001465
1 62795U 25016L   25162.53064046  .00000061  00000-0  75730-4 0  9990 | 2 62795  88.9838 122.0465 0014838 146.9682 213.2399 13.50948980 22375 | 2025/06/11-12:44:07  328.8881    0.1150  213.1468  106.5917     7446.9061     7435.8564     7457.9558 -47.215458  75.424248  -0.000026  -0.001484
1 62795U 25016L   25163.86383151  .00000077  00000-0  10051-3 0  9999 | 2 62795  88.9839 121.9099 0014989 143.3362 216.8818 13.50949229 22552 | 2025/06/12-20:43:55   90.2776    0.1151  216.7789  106.5917     7446.9052     7435.7430     7458.0673 -47.035556  75.536686  -0.000124  -0.001494
1 62795U 25016L   25164.90075761  .00000106  00000-0  14612-3 0  9990 | 2 62795  88.9839 121.8036 0015090 140.5532 219.6721 13.50949513 22699 | 2025/06/13-21:37:05  104.6921    0.1151  219.5619  106.5917     7446.9041     7435.6667     7458.1415 -46.895333  75.623820  -0.000201  -0.001496
1 62795U 25016L   25166.15988210  .00000101  00000-0  13758-3 0  9996 | 2 62795  88.9840 121.6747 0015202 137.2277 223.0060 13.50949600 22863 | 2025/06/15-03:50:13  199.3384    0.1150  222.8873  106.5917     7446.9038     7435.5830     7458.2246 -46.725134  75.729215  -0.000293  -0.001492
1 62795U 25016L   25167.19680786  .00000112  00000-0  15476-3 0  9999 | 2 62795  88.9841 121.5685 0015291 134.4659 225.7746 13.50949803 23007 | 2025/06/16-04:43:24  213.7531    0.1151  225.6492  106.5917     7446.9030     7435.5160     7458.2901 -46.584739  75.815777  -0.000369  -0.001484
1 62795U 25016L   25168.52999773  .00000121  00000-0  16788-3 0  9993 | 2 62795  88.9841 121.4320 0015415 130.9519 229.2969 13.50950110 23184 | 2025/06/17-12:43:11  335.1438    0.1151  229.1632  106.5916     7446.9019     7435.4225     7458.3813 -46.403986  75.926544  -0.000467  -0.001469
1 62795U 25016L   25169.56692292  .00000113  00000-0  15562-3 0  9994 | 2 62795  88.9842 121.3258 0015508 128.2378 232.0172 13.50950301 23326 | 2025/06/18-13:36:22  349.5589    0.1151  231.8773  106.5916     7446.9012     7435.3526     7458.4499 -46.263225  76.012511  -0.000541  -0.001453
1 62795U 25016L   25170.82604603  .00000102  00000-0  13927-3 0  9995 | 2 62795  88.9843 121.1968 0015615 124.9614 235.3006 13.50950541 23494 | 2025/06/19-19:49:30   84.2062    0.1151  235.1537  106.5916     7446.9003     7435.2720     7458.5287 -46.092020  76.116564  -0.000631  -0.001428
1 62795U 25016L   25171.86297071  .00000087  00000-0  11620-3 0  9997 | 2 62795  88.9844 121.0907 0015701 122.2717 237.9957 13.50950697 23639 | 2025/06/20-20:42:40   98.6219    0.1150  237.8433  106.5916     7446.8998     7435.2074     7458.5921 -45.951040  76.201872  -0.000704  -0.001403
1 62795U 25016L   25173.19615935  .00000073  00000-0  94525-4 0  9999 | 2 62795  88.9845 120.9542 0015790 118.8283 241.4455 13.50950855 23819 | 2025/06/22-04:42:28  220.0139    0.1150  241.2867  106.5916     7446.8992     7435.1405     7458.6578 -45.769420  76.311214  -0.000795  -0.001364
1 62795U 25016L   25174.52934765  .00000067  00000-0  85424-4 0  9993 | 2 62795  88.9845 120.8177 0015881 115.4085 244.8712 13.50951051 23997 | 2025/06/23-12:42:15  341.4064    0.1151  244.7066  106.5916     7446.8985     7435.0720     7458.7249 -45.587488  76.420038  -0.000883  -0.001320
1 62795U 25016L   25175.56627179  .00000071  00000-0  91596-4 0  9998 | 2 62795  88.9846 120.7115 0015947 112.7626 247.5212 13.50951191 24130 | 2025/06/24-13:35:25  355.8232    0.1151  247.3525  106.5916     7446.8979     7435.0224     7458.7735 -45.445814  76.504490  -0.000949  -0.001281
1 62795U 25016L   25176.60319571  .00000076  00000-0  98450-4 0  9999 | 2 62795  88.9845 120.6053 0016011 110.1322 250.1553 13.50951334 24279 | 2025/06/25-14:28:36   10.2404    0.1150  249.9828  106.5916     7446.8974     7434.9742     7458.8206 -45.303881  76.588509  -0.001013  -0.001240
1 62795U 25016L   25177.86231741  .00000085  00000-0  11331-3 0  9992 | 2 62795  88.9845 120.4763 0016081 106.9145 253.3771 13.50951534 24446 | 2025/06/26-20:41:44  104.8901    0.1151  253.2006  106.5915     7446.8967     7434.9213     7458.8720 -45.131329  76.690315  -0.001089  -0.001184
1 62795U 25016L   25178.89924090  .00000091  00000-0  12239-3 0  9997 | 2 62795  88.9846 120.3701 0016133 104.2895 256.0049 13.50951697 24582 | 2025/06/27-21:34:54  119.3080    0.1151  255.8256  106.5915     7446.8961     7434.8820     7458.9102 -44.989153  76.773922  -0.001148  -0.001134
1 62795U 25016L   25180.23242794  .00000112  00000-0  15407-3 0  9996 | 2 62795  88.9846 120.2336 0016193 100.9343 259.3631 13.50951948 24764 | 2025/06/29-05:34:41  240.7029    0.1151  259.1808  106.5915     7446.8952     7434.8364     7458.9539 -44.806122  76.880885  -0.001219  -0.001066
1 62795U 25016L   25181.49154857  .00000115  00000-0  15901-3 0  9999 | 2 62795  88.9846 120.1047 0016239  97.7449 262.5547 13.50952201 24937 | 2025/06/30-11:47:49  335.3541    0.1151  262.3702  106.5915     7446.8942     7434.8012     7458.9872 -44.633047  76.981492  -0.001282  -0.000996
1 62795U 25016L   25182.52847116  .00000112  00000-0  15491-3 0  9992 | 2 62795  88.9846 119.9985 0016277  95.1516 265.1493 13.50952413 25073 | 2025/07/01-12:40:59  349.7731    0.1151  264.9635  106.5915     7446.8935     7434.7721     7459.0148 -44.490282  77.064089  -0.001331  -0.000937
1 62795U 25016L   25183.56539339  .00000127  00000-0  17787-3 0  9998 | 2 62795  88.9847 119.8924 0016309  92.5441 267.7577 13.50952712 25219 | 2025/07/02-13:34:09    4.1924    0.1151  267.5710  106.5914     7446.8924     7434.7472     7459.0375 -44.347549  77.146430  -0.001376  -0.000875
1 62795U 25016L   25184.60231533  .00000131  00000-0  18338-3 0  9997 | 2 62795  88.9847 119.7862 0016333  89.9465 270.3558 13.50952994 25358 | 2025/07/03-14:27:20   18.6120    0.1151  270.1686  106.5914     7446.8913     7434.7283     7459.0543 -44.204479  77.228498  -0.001418  -0.000810
1 62795U 25016L   25185.86143444  .00000114  00000-0  15795-3 0  9994 | 2 62795  88.9847 119.6573 0016357  86.7886 273.5136 13.50953284 25523 | 2025/07/04-20:40:27  113.2650    0.1151  273.3265  106.5914     7446.8903     7434.7094     7459.0711 -44.030624  77.327750  -0.001465  -0.000728
1 62795U 25016L   25186.89835576  .00000109  00000-0  14933-3 0  9999 | 2 62795  88.9848 119.5511 0016371  84.1948 276.1069 13.50953515 25668 | 2025/07/05-21:33:37  127.6854    0.1151  275.9203  106.5914     7446.8894     7434.6981     7459.0807 -43.887268  77.409317  -0.001499  -0.000659
1 62795U 25016L   25188.15747420  .00000113  00000-0  15612-3 0  9990 | 2 62795  88.9848 119.4222 0016385  81.0824 279.2181 13.50953814 25830 | 2025/07/07-03:46:45  222.3392    0.1151  279.0327  106.5914     7446.8883     7434.6866     7459.0900 -43.713007  77.507855  -0.001535  -0.000574
1 62795U 25016L   25189.19439504  .00000104  00000-0  14215-3 0  9994 | 2 62795  88.9848 119.3160 0016388  78.4716 281.8274 13.50953982 25976 | 2025/07/08-04:39:55  236.7604    0.1151  281.6435  106.5913     7446.8877     7434.6837     7459.0917 -43.569268  77.588746  -0.001560  -0.000501
1 62795U 25016L   25190.52757860  .00000115  00000-0  15889-3 0  9991 | 2 62795  88.9848 119.1795 0016381  75.1185 285.1779 13.50954258 26150 | 2025/07/09-12:39:42  358.1596    0.1151  284.9966  106.5913     7446.8867     7434.6879     7459.0854 -43.384299  77.692324  -0.001587  -0.000405
1 62795U 25016L   25191.56449884  .00000123  00000-0  17182-3 0  9997 | 2 62795  88.9847 119.0733 0016370  72.5203 287.7736 13.50954505 26291 | 2025/07/10-13:32:52   12.5816    0.1152  287.5949  106.5913     7446.8858     7434.6952     7459.0763 -43.240170  77.772518  -0.001604  -0.000329
