# SPACE DATA - HISTORICAL TLEs
# ----------------------------
# NORAD_ID    : 60396
# OBJECT_NAME : QIANFAN-18
# --------------------------------------------------------------------+-----------------------------------------------------------------------+----------------------------------------------------------------------------------------------------------------------------------------
#                  LINE 1                                             |                 LINE 2                                                |      DERIVED PARAMETERS
# --------------------------------------------------------------------+-----------------------------------------------------------------------+----------------------------------------------------------------------------------------------------------------------------------------
# NORAD  COSPAR     TLE_EPOCH      MEANMOT1 MEANMOT2   BSTAR  #  REV  |   NORAD    INC     RAAN     ECC    ARGPER  MEANANOM   MEANMOT     REV |  CAL_DATE              LONG     ARGLAT     PERIOD        SMA         PERIGEE        APOGEE      INC_X      INC_Y      ECC_X      ECC_Y
# ------ ------   -------------- ----------  -------  ------- -- ----     -----  ------- -------- ------- -------- -------- -----------  ----   ------------------- ---------  --------  --------  ------------  ------------   ----------- ---------- ----------  ---------  ---------   
1 62797U 25016N   25036.80230639  .00001330  00000-0  54384-3 0  9996 | 2 62797  88.9949 135.4287 0015398 168.4587 191.6963 14.26696594  5108 | 2025/02/05-19:15:19  289.4349    0.1193  191.6606  100.9325     7180.9311     7169.8739     7191.9883 -63.397980  62.456292   0.000859  -0.001278
1 62797U 25016N   25039.18718751 -.00020492  00000-0 -85324-2 0  9995 | 2 62797  88.9946 135.1541 0015764 160.4548 199.7254 14.26517763  5440 | 2025/02/08-04:29:33   70.5922    0.1193  199.6645  100.9451     7181.5312     7170.2102     7192.8522 -63.097707  62.759208   0.000681  -0.001422
1 62797U 25016N   25040.59038983  .00001194  00000-0  49390-3 0  9994 | 2 62797  88.9946 134.9927 0016057 155.3237 204.8728 14.26018718  5641 | 2025/02/09-14:10:09  217.2732    0.1192  204.7955  100.9804     7183.2066     7171.6725     7194.7407 -62.920667  62.936702   0.000558  -0.001506
1 62797U 25016N   25041.92362332  .00000836  00000-0  34403-3 0  9991 | 2 62797  88.9944 134.8393 0016224 151.3416 208.8673 14.26021039  5830 | 2025/02/10-22:10:01  338.6923    0.1193  208.7777  100.9803     7183.1988     7171.5448     7194.8528 -62.751798  63.104794   0.000452  -0.001558
1 62797U 25016N   25043.60770382  .00001042  00000-0  42994-3 0  9990 | 2 62797  88.9941 134.6454 0016371 146.3214 213.9023 14.26024867  6071 | 2025/02/12-14:35:05  226.8003    0.1192  213.7978  100.9800     7183.1859     7171.4264     7194.9455 -62.537669  63.316583   0.000311  -0.001607
1 62797U 25016N   25044.94093167  .00001015  00000-0  41890-3 0  9991 | 2 62797  88.9939 134.4919 0016489 142.3961 217.8389 14.26027529  6264 | 2025/02/13-22:34:56  348.2186    0.1193  217.7232  100.9798     7183.1770     7171.3327     7195.0213 -62.367675  63.483757   0.000198  -0.001637
1 62797U 25016N   25046.48466511  .00001109  00000-0  45814-3 0  9993 | 2 62797  88.9938 134.3142 0016617 137.8538 222.3937 14.26031321  6481 | 2025/02/15-11:37:55  185.6494    0.1193  222.2655  100.9795     7183.1643     7171.2280     7195.1005 -62.170414  63.676810   0.000063  -0.001661
1 62797U 25016N   25047.60737790  .00001096  00000-0  45251-3 0  9998 | 2 62797  88.9936 134.1849 0016707 134.5768 225.6792 14.26033731  6640 | 2025/02/16-14:34:37  231.0534    0.1192  225.5424  100.9794     7183.1562     7171.1553     7195.1571 -62.026416  63.816805  -0.000036  -0.001670
1 62797U 25016N   25048.94059594  .00001204  00000-0  49762-3 0  9997 | 2 62797  88.9935 134.0314 0016796 130.7157 229.5499 14.26037502  6831 | 2025/02/17-22:34:27  352.4699    0.1193  229.4036  100.9791     7183.1435     7171.0787     7195.2083 -61.855154  63.982677  -0.000154  -0.001673
1 62797U 25016N   25050.55448737  .00001179  00000-0  48733-3 0  9996 | 2 62797  88.9933 133.8455 0016903 126.0554 234.2208 14.26041378  7064 | 2025/02/19-13:18:27  215.2369    0.1193  234.0639  100.9788     7183.1305     7170.9889     7195.2721 -61.647094  64.182889  -0.000296  -0.001664
1 62797U 25016N   25051.60702272  .00001168  00000-0  48274-3 0  9998 | 2 62797  88.9932 133.7242 0016962 123.0073 237.2753 14.26043897  7217 | 2025/02/20-14:34:06  235.3019    0.1193  237.1120  100.9787     7183.1220     7170.9380     7195.3061 -61.511006  64.313185  -0.000389  -0.001651
1 62797U 25016N   25052.94031321  .00001045  00000-0  43225-3 0  9991 | 2 62797  88.9930 133.5706 0017138 120.3689 239.9202 14.25912082  7406 | 2025/02/21-22:34:03  356.7478    0.1193  239.7504  100.9880     7183.5647     7171.2535     7195.8759 -61.338235  64.477709  -0.000474  -0.001647
1 62797U 25016N   25054.55460047  .00001101  00000-0  46006-3 0  9994 | 2 62797  88.9931 133.3855 0016976 115.3773 244.9180 14.25405656  7637 | 2025/02/23-13:18:37  219.6612    0.1193  244.7420  101.0239     7185.2661     7173.0684     7197.4638 -61.129682  64.675605  -0.000615  -0.001582
1 62797U 25016N   25055.60761564  .00000687  00000-0  28474-3 0  9996 | 2 62797  88.9925 133.2633 0016900 112.0495 248.2495 14.25393478  7785 | 2025/02/24-14:34:57  239.9030    0.1193  248.0698  101.0247     7185.3070     7173.1639     7197.4502 -60.991192  64.805397  -0.000706  -0.001536
1 62797U 25016N   25056.80169961  .00000312  00000-0  13003-3 0  9999 | 2 62797  88.9875 133.1423 0017632  94.3675 265.9532 14.23685558  7958 | 2025/02/25-19:14:26  311.0495    0.1192  265.7517  101.1459     7191.0524     7178.3732     7203.7317 -60.850778  64.930409  -0.001191  -0.001300
1 62797U 25016N   25058.13863788  .00001181  00000-0  54359-3 0  9999 | 2 62797  88.9920 132.9742 0018020 108.2736 252.0416 14.20409459  8146 | 2025/02/27-03:19:38   73.8387    0.1189  251.8453  101.3792     7202.1054     7189.1272     7215.0836 -60.663085  65.111951  -0.000867  -0.001580
1 62797U 25016N   25059.47853612  .00001109  00000-0  53488-3 0  9994 | 2 62797  88.9914 132.8178 0017135 102.1631 258.1479 14.17941881  8337 | 2025/02/28-11:29:05  197.6833    0.1189  257.9558  101.5556     7210.4586     7198.1035     7222.8137 -60.484715  65.276860  -0.000983  -0.001403
1 62797U 25016N   25061.52865720  .00000750  00000-0  38967-3 0  9992 | 2 62797  88.9914 132.5862 0017714  95.9248 264.3958 14.13647404  8623 | 2025/03/02-12:41:15  217.9696    0.1186  264.1938  101.8642     7225.0542     7212.2557     7237.8526 -60.220361  65.520817  -0.001174  -0.001327
1 62797U 25016N   25063.15836777  .00000541  00000-0  29437-3 0  9993 | 2 62797  88.9905 132.3979 0018345  95.7705 264.5572 14.10696400  8853 | 2025/03/04-03:48:02   86.4529    0.1185  264.3480  102.0772     7235.1266     7221.8538     7248.3995 -60.004098  65.717709  -0.001224  -0.001367
1 62797U 25016N   25064.43627719  .00000474  00000-0  26835-3 0  9993 | 2 62797  88.9899 132.2565 0018123  89.1665 271.1595 14.08406217  9033 | 2025/03/05-10:28:14  187.9030    0.1184  270.9519  102.2432     7242.9678     7229.8413     7256.0942 -59.841328  65.865149  -0.001359  -0.001199
1 62797U 25016N   25065.50294089  .00000404  00000-0  23503-3 0  9994 | 2 62797  88.9914 132.1403 0017940  85.3130 275.0101 14.06651024  9180 | 2025/03/06-12:04:14  213.0723    0.1183  274.8053  102.3708     7248.9916     7235.9869     7261.9963 -59.708632  65.987488  -0.001424  -0.001091
1 62797U 25016N   25066.71316306  .00000393  00000-0  23909-3 0  9992 | 2 62797  88.9896 131.9995 0017681  84.7566 275.5632 14.04149082  9357 | 2025/03/07-17:06:57  290.0893    0.1181  275.3615  102.5532     7257.6000     7244.7678     7270.4321 -59.545088  66.132680  -0.001417  -0.001058
1 62797U 25016N   25069.49710572  .00000428  00000-0  28369-3 0  9997 | 2 62797  88.9889 131.6838 0020146  85.4643 274.8837 13.99566096  9749 | 2025/03/10-11:55:49  215.3401    0.1179  274.6536  102.8890     7273.4351     7258.7820     7288.0881 -59.179329  66.459246  -0.001606  -0.001217
1 62797U 25016N   25070.78536367  .00000418  00000-0  28861-3 0  9995 | 2 62797  88.9887 131.5522 0018702  78.7422 281.5856 13.97173022  9928 | 2025/03/11-18:50:55  320.5345    0.1178  281.3756  103.0653     7281.7380     7268.1197     7295.3563 -59.026393  66.594847  -0.001615  -0.000943
1 62797U 25016N   25071.86027223  .00000454  00000-0  32117-3 0  9990 | 2 62797  88.9897 131.4352 0018171  69.1090 291.2030 13.95991960 10071 | 2025/03/12-20:38:47  348.6939    0.1177  291.0087  103.1525     7285.8445     7272.6054     7299.0836 -58.890943  66.715992  -0.001702  -0.000638
1 62797U 25016N   25072.86376554  .00000346  00000-0  24274-3 0  9990 | 2 62797  88.9896 131.3248 0018140  66.2688 294.0389 13.95992623 10211 | 2025/03/13-20:43:49  351.0553    0.1177  293.8489  103.1524     7285.8422     7272.6257     7299.0587 -58.762216  66.829266  -0.001729  -0.000548
1 62797U 25016N   25074.44154515  .00000532  00000-0  39199-3 0  9996 | 2 62797  88.9962 131.1458 0018567  63.5244 296.7833 13.93958497 10433 | 2025/03/15-10:35:49  200.7901    0.1176  296.5932  103.3029     7292.9283     7279.3876     7306.4691 -58.557489  67.017491  -0.001796  -0.000470
1 62797U 25016N   25076.52699222  .00000476  00000-0  37791-3 0  9999 | 2 62797  88.9891 130.9241 0018807  56.7868 303.5105 13.89597212 10724 | 2025/03/17-12:38:52  233.8386    0.1174  303.3306  103.6272     7308.1797     7294.4352     7321.9242 -58.293083  67.238206  -0.001864  -0.000252
1 62797U 25016N   25077.67976976  .00000470  00000-0  38503-3 0  9996 | 2 62797  88.9914 130.7925 0020958  51.5416 308.7633 13.87739772 10886 | 2025/03/18-16:18:52  290.0988    0.1173  308.5757  103.7659     7314.6994     7299.3693     7330.0296 -58.139996  67.373661  -0.002094  -0.000085
1 62797U 25016N   25079.19559171  .00000483  00000-0  41632-3 0  9990 | 2 62797  88.9886 130.6341 0017869  50.3334 309.9410 13.84875855 11098 | 2025/03/20-04:41:39  117.4777    0.1172  309.7838  103.9804     7324.7805     7311.6918     7337.8691 -57.951689  67.532012  -0.001787  -0.000030
1 62797U 25016N   25080.20732757  .00000456  00000-0  40086-3 0  9999 | 2 62797  88.9887 130.5263 0018199  46.9704 313.2986 13.83628883 11238 | 2025/03/21-04:58:33  122.8130    0.1170  313.1466  104.0742     7329.1807     7315.8423     7342.5191 -57.824592  67.641003  -0.001818   0.000079
1 62797U 25016N   25081.51009195  .00000454  00000-0  41607-3 0  9995 | 2 62797  88.9891 130.3851 0016620  47.0368 313.2190 13.81194340 11410 | 2025/03/22-12:14:31  233.2466    0.1168  313.0800  104.2576     7337.7906     7325.5952     7349.9860 -57.657981  67.783605  -0.001660   0.000075
1 62797U 25016N   25082.52458323  .00000637  00000-0  59261-3 0  9996 | 2 62797  88.9882 130.2758 0017776  40.8660 319.3837 13.80838798 11555 | 2025/03/23-12:35:23  239.5788    0.1169  319.2509  104.2844     7339.0501     7326.0042     7352.0960 -57.527988  67.892786  -0.001756   0.000274
1 62797U 25016N   25083.83012976  .00000384  00000-0  36605-3 0  9997 | 2 62797  88.9881 130.1357 0017470  36.6749 323.5610 13.78609812 11736 | 2025/03/24-19:55:23  351.0163    0.1168  323.4419  104.4531     7346.9587     7334.1236     7359.7938 -57.361739  68.033174  -0.001701   0.000399
1 62797U 25016N   25084.91973964  .00000367  00000-0  36118-3 0  9990 | 2 62797  88.9866 130.0160 0017496  33.8933 326.3347 13.76653034 11889 | 2025/03/25-22:04:25   24.4774    0.1167  326.2234  104.6015     7353.9190     7341.0526     7366.7854 -57.218518  68.151715  -0.001681   0.000485
1 62797U 25016N   25086.08315730  .00000370  00000-0  36962-3 0  9992 | 2 62797  88.9866 129.8958 0016612  35.8939 324.3339 13.75761485 12044 | 2025/03/27-01:59:44   84.5749    0.1166  324.2227  104.6693     7357.0958     7344.8742     7369.3174 -57.075417  68.271603  -0.001610   0.000408
1 62797U 25016N   25087.39342340  .00000328  00000-0  33830-3 0  9998 | 2 62797  88.9875 129.7563 0017223  27.3421 332.8646 13.73557761 12229 | 2025/03/28-09:26:31  197.7227    0.1165  332.7744  104.8372     7364.9628     7352.2781     7377.6475 -56.909601  68.411055  -0.001587   0.000670
1 62797U 25016N   25088.48696127  .00000296  00000-0  31152-3 0  9993 | 2 62797  88.9872 129.6402 0017078  24.4582 335.7388 13.72156473 12376 | 2025/03/29-11:41:13  232.6000    0.1164  335.6582  104.9443     7369.9761     7357.3897     7382.5626 -56.770669  68.526001  -0.001536   0.000746
1 62797U 25016N   25090.45849635  .00000241  00000-0  26742-3 0  9996 | 2 62797  88.9880 129.4347 0017067  19.4511 340.7298 13.68424970 12646 | 2025/03/31-11:00:14  224.5175    0.1162  340.6651  105.2305     7383.3680     7370.7668     7395.9692 -56.525034  68.729795  -0.001461   0.000882
1 62797U 25016N   25091.62880864  .00000216  00000-0  24193-3 0  9995 | 2 62797  88.9862 129.3099 0016799  13.2908 346.8692 13.67317017 12807 | 2025/04/01-15:05:29  287.1291    0.1162  346.8254  105.3157     7387.3560     7374.9460     7399.7660 -56.374055  68.851360  -0.001335   0.001020
1 62797U 25016N   25094.19455531  .00000219  00000-0  26403-3 0  9998 | 2 62797  88.9864 129.0402 0015970   7.7163 352.4238 13.63064496 13159 | 2025/04/04-04:40:09  133.6164    0.1159  352.3996  105.6443     7402.7129     7390.8907     7414.5350 -56.049463  69.116113  -0.001163   0.001094
1 62797U 25016N   25095.22226924  .00000057  00000-0  57328-4 0  9996 | 2 62797  88.9859 128.9330 0015814   4.7447 355.3858 13.63064141 13292 | 2025/04/05-05:20:04  144.7232    0.1159  355.3712  105.6443     7402.7141     7391.0075     7414.4208 -55.919735  69.220471  -0.001092   0.001144
1 62797U 25016N   25096.47099640  .00000219  00000-0  27220-3 0  9994 | 2 62797  88.9862 128.7974 0016889   5.4895 354.6444 13.61119234 13460 | 2025/04/06-11:18:14  235.6280    0.1158  354.6263  105.7953     7409.7643     7397.2500     7422.2787 -55.755945  69.352854  -0.001179   0.001209
1 62797U 25016N   25097.86940062  .00000194  00000-0  25009-3 0  9996 | 2 62797  88.9797 128.6520 0015559 358.7618   1.3496 13.58243973 13651 | 2025/04/07-20:51:56   20.5998    0.1156    1.3538  106.0192     7420.2178     7408.6726     7431.7629 -55.575708  69.489047  -0.000945   0.001236
1 62797U 25016N   25098.90116473  .00000196  00000-0  25520-3 0  9993 | 2 62797  88.9852 128.5507 0014775 353.4484   6.6475 13.57678059 13795 | 2025/04/08-21:37:40   33.1686    0.1155    6.6671  106.0634     7422.2796     7411.3131     7433.2460 -55.456191  69.591498  -0.000783   0.001253
1 62797U 25016N   25099.93295257  .00000173  00000-0  22444-3 0  9992 | 2 62797  88.9851 128.4440 0014696 350.3296   9.7574 13.57678298 13933 | 2025/04/09-22:23:27   45.7448    0.1156    9.7860  106.0634     7422.2787     7411.3709     7433.1865 -55.326435  69.694574  -0.000707   0.001288
1 62797U 25016N   25101.92282886  .00000088  00000-0  10538-3 0  9995 | 2 62797  88.9848 128.2380 0014488 344.2067  15.8634 13.57678450 14203 | 2025/04/11-22:08:52   44.2845    0.1156   15.9089  106.0634     7422.2781     7411.5247     7433.0315 -55.075314  69.892807  -0.000553   0.001339
1 62797U 25016N   25103.24941291  .00000075  00000-0  88003-4 0  9993 | 2 62797  88.9847 128.1006 0014361 340.1273  19.9321 13.57678585 14386 | 2025/04/13-05:59:09  163.3104    0.1156   19.9883  106.0634     7422.2776     7411.6185     7432.9368 -54.907486  70.024602  -0.000449   0.001364
1 62797U 25016N   25104.42894483  .00000222  00000-0  29721-3 0  9999 | 2 62797  88.9910 127.9712 0016678 340.3003  19.7505 13.56598968 14549 | 2025/04/14-10:17:40  229.2425    0.1155   19.8152  106.1478     7426.2150     7413.8296     7438.6005 -54.753074  70.153396  -0.000523   0.001584
1 62797U 25016N   25105.83210309  .00000209  00000-0  29019-3 0  9999 | 2 62797  88.9844 127.8339 0013901 332.9901  27.0527 13.54224544 14730 | 2025/04/15-19:58:13   15.9078    0.1154   27.1253  106.3339     7434.8930     7424.5577     7445.2282 -54.580758  70.279188  -0.000261   0.001365
1 62797U 25016N   25106.86665389  .00000272  00000-0  38511-3 0  9992 | 2 62797  88.9839 127.7279 0013919 329.2080  30.8255 13.53707110 14871 | 2025/04/16-20:47:58   29.4811    0.1154   30.9074  106.3746     7436.7874     7426.4362     7447.1387 -54.450339  70.379650  -0.000168   0.001382
1 62797U 25016N   25108.49511949  .00000165  00000-0  23729-3 0  9991 | 2 62797  88.9838 127.5605 0013716 322.0583  37.9601 13.51025967 15094 | 2025/04/18-11:52:58  257.5163    0.1152   38.0569  106.5857     7446.6232     7436.4094     7456.8370 -54.244419  70.538356   0.000009   0.001372
1 62797U 25016N   25109.90236420  .00000166  00000-0  23879-3 0  9993 | 2 62797  88.9839 127.4161 0013355 316.4991  43.5106 13.50942039 15281 | 2025/04/19-21:39:24   45.6645    0.1152   43.6161  106.5923     7446.9316     7436.9862     7456.8770 -54.066533  70.674921   0.000142   0.001328
1 62797U 25016N   25111.53182424  .00000183  00000-0  26567-3 0  9995 | 2 62797  88.9837 127.2492 0013247 311.2366  48.7643 13.50942393 15504 | 2025/04/21-12:45:49  274.0519    0.1152   48.8786  106.5923     7446.9303     7437.0653     7456.7952 -53.860310  70.831955   0.000264   0.001298
1 62797U 25016N   25112.56875359  .00000052  00000-0  62308-4 0  9994 | 2 62797  88.9836 127.1429 0013185 307.9176  52.0783 13.50942090 15646 | 2025/04/22-13:39:00  288.4798    0.1152   52.1976  106.5923     7446.9314     7437.1126     7456.7502 -53.728743  70.931680   0.000340   0.001274
1 62797U 25016N   25113.97601467  .00000061  00000-0  75538-4 0  9996 | 2 62797  88.9835 126.9987 0013096 303.2921  56.6975 13.50942220 15838 | 2025/04/23-23:25:27   76.6314    0.1151   56.8230  106.5923     7446.9309     7437.1784     7456.6834 -53.549995  71.066598   0.000442   0.001233
1 62797U 25016N   25115.23514295  .00000056  00000-0  68093-4 0  9991 | 2 62797  88.9835 126.8698 0013027 299.1175  60.8672 13.50942319 16004 | 2025/04/25-05:38:36  171.2924    0.1152   60.9977  106.5923     7446.9306     7437.2294     7456.6317 -53.389979  71.186891   0.000530   0.001190
1 62797U 25016N   25116.56833761  .00000062  00000-0  77062-4 0  9993 | 2 62797  88.9834 126.7332 0012974 294.7468  65.2333 13.50942481 16185 | 2025/04/26-13:38:24  292.6977    0.1152   65.3684  106.5923     7446.9300     7437.2683     7456.5916 -53.220049  71.313897   0.000619   0.001140
1 62797U 25016N   25117.82746579  .00000079  00000-0  10381-3 0  9991 | 2 62797  88.9834 126.6042 0012912 290.4328  69.5436 13.50942715 16352 | 2025/04/27-19:51:33   27.3576    0.1151   69.6823  106.5922     7446.9291     7437.3136     7456.5446 -53.059353  71.433539   0.000703   0.001083
1 62797U 25016N   25118.86439496  .00000059  00000-0  72548-4 0  9995 | 2 62797  88.9833 126.4979 0012891 287.0371  72.9367 13.50942736 16493 | 2025/04/28-20:44:43   41.7831    0.1151   73.0780  106.5922     7446.9290     7437.3292     7456.5289 -52.926673  71.531776   0.000766   0.001037
1 62797U 25016N   25121.75298362  .00000035  00000-0  36224-4 0  9997 | 2 62797  88.9832 126.2018 0012824 277.3905  82.5789 13.50942902 16888 | 2025/05/01-18:04:17    4.8226    0.1152   82.7247  106.5922     7446.9284     7437.3785     7456.4783 -52.556238  71.804260   0.000929   0.000884
1 62797U 25016N   25122.93804578  .00000032  00000-0  30760-4 0  9996 | 2 62797  88.9831 126.0804 0012811 273.4061  86.5625 13.50942966 17046 | 2025/05/02-22:30:47   72.7353    0.1152   86.7091  106.5922     7446.9282     7437.3879     7456.4684 -52.403920  71.915375   0.000989   0.000815
1 62797U 25016N   25123.97497514  .00000046  00000-0  53074-4 0  9997 | 2 62797  88.9830 125.9741 0012793 269.8029  90.1656 13.50943116 17183 | 2025/05/03-23:23:57   87.1583    0.1151   90.3122  106.5922     7446.9276     7437.4008     7456.4545 -52.270348  72.012395   0.001038   0.000748
1 62797U 25016N   25125.53036941  .00000047  00000-0  54341-4 0  9993 | 2 62797  88.9830 125.8146 0012801 264.6257  95.3433 13.50943176 17396 | 2025/05/05-12:43:43  288.7923    0.1150   95.4893  106.5922     7446.9274     7437.3946     7456.4602 -52.069678  72.157626   0.001104   0.000649
1 62797U 25016N   25126.86356461  .00000057  00000-0  69173-4 0  9992 | 2 62797  88.9829 125.6779 0012815 260.1195  99.8510 13.50943261 17571 | 2025/05/06-20:43:31   50.1918    0.1151   99.9956  106.5922     7446.9271     7437.3839     7456.4703 -51.897313  72.281570   0.001154   0.000558
1 62797U 25016N   25127.97456056  .00000053  00000-0  63457-4 0  9991 | 2 62797  88.9829 125.5640 0012837 256.3533 103.6189 13.50943355 17721 | 2025/05/07-23:23:22   91.3576    0.1151  103.7618  106.5922     7446.9267     7437.3671     7456.4864 -51.753520  72.384596   0.001191   0.000479
1 62797U 25016N   25129.23368943  .00000046  00000-0  53318-4 0  9996 | 2 62797  88.9830 125.4350 0012869 252.1721 107.8027 13.50943401 17895 | 2025/05/09-05:36:30  186.0115    0.1151  107.9430  106.5922     7446.9266     7437.3431     7456.5100 -51.590475  72.501015   0.001227   0.000389
1 62797U 25016N   25130.56688466  .00000049  00000-0  57297-4 0  9992 | 2 62797  88.9830 125.2983 0012907 247.6400 112.3384 13.50943543 18076 | 2025/05/10-13:36:18  307.4089    0.1151  112.4751  106.5922     7446.9261     7437.3143     7456.5378 -51.417350  72.623897   0.001258   0.000289
1 62797U 25016N   25131.60381430  .00000048  00000-0  55489-4 0  9999 | 2 62797  88.9831 125.1921 0012952 244.2497 115.7317 13.50943617 18218 | 2025/05/11-14:29:29  321.8288    0.1150  115.8653  106.5922     7446.9258     7437.2805     7456.5710 -51.282708  72.719158   0.001278   0.000212
1 62797U 25016N   25132.93700964  .00000036  00000-0  37561-4 0  9991 | 2 62797  88.9831 125.0554 0013009 239.8704 120.1158 13.50943681 18397 | 2025/05/12-22:29:17   83.2251    0.1150  120.2446  106.5922     7446.9255     7437.2378     7456.6133 -51.109064  72.841304   0.001296   0.000112
1 62797U 25016N   25134.49240429  .00000029  00000-0  26774-4 0  9995 | 2 62797  88.9832 124.8960 0013090 234.6572 125.3356 13.50943773 18605 | 2025/05/14-11:49:03  284.8530    0.1151  125.4579  106.5921     7446.9252     7437.1772     7456.6732 -50.906276  72.983293   0.001309  -0.000010
1 62797U 25016N   25135.52933419  .00000023  00000-0  17036-4 0  9993 | 2 62797  88.9832 124.7897 0013152 231.2198 128.7779 13.50943787 18745 | 2025/05/15-12:42:14  299.2713    0.1151  128.8953  106.5921     7446.9252     7437.1310     7456.7194 -50.770783  73.077612   0.001312  -0.000092
1 62797U 25016N   25136.86252980  .00000026  00000-0  22125-4 0  9996 | 2 62797  88.9833 124.6530 0013240 226.9044 133.1000 13.50943847 18922 | 2025/05/16-20:42:02   60.6657    0.1151  133.2107  106.5921     7446.9249     7437.0652     7456.7847 -50.596342  73.198619   0.001310  -0.000194
1 62797U 25016N   25137.89945980  .00000051  00000-0  60034-4 0  9998 | 2 62797  88.9833 124.5467 0013309 223.5210 136.4891 13.50943993 19066 | 2025/05/17-21:35:13   75.0832    0.1150  136.5940  106.5921     7446.9244     7437.0133     7456.8355 -50.460451  73.292363   0.001302  -0.000275
1 62797U 25016N   25138.93638988  .00000043  00000-0  48782-4 0  9998 | 2 62797  88.9833 124.4405 0013388 220.0997 139.9167 13.50944013 19202 | 2025/05/18-22:28:24   89.5000    0.1151  140.0154  106.5921     7446.9243     7436.9544     7456.8943 -50.324514  73.385768   0.001290  -0.000357
1 62797U 25016N   25140.49178499  .00000056  00000-0  68123-4 0  9993 | 2 62797  88.9834 124.2812 0013512 215.2127 144.8132 13.50944091 19419 | 2025/05/20-11:48:10  291.1251    0.1150  144.9023  106.5921     7446.9240     7436.8618     7456.9863 -50.120341  73.525485   0.001266  -0.000473
1 62797U 25016N   25141.52871506  .00000055  00000-0  66833-4 0  9992 | 2 62797  88.9835 124.1749 0013602 211.9261 148.1067 13.50944152 19557 | 2025/05/21-12:41:20  305.5413    0.1150  148.1889  106.5921     7446.9238     7436.7945     7457.0531 -49.983900  73.618428   0.001244  -0.000551
1 62797U 25016N   25142.56564508  .00000056  00000-0  68865-4 0  9996 | 2 62797  88.9835 124.0687 0013696 208.6718 151.3682 13.50944239 19690 | 2025/05/22-13:34:31  319.9572    0.1151  151.4433  106.5921     7446.9235     7436.7242     7457.1228 -49.847360  73.710949   0.001217  -0.000627
1 62797U 25016N   25143.89884076  .00000065  00000-0  82336-4 0  9997 | 2 62797  88.9836 123.9322 0013818 204.4939 155.5557 13.50944400 19877 | 2025/05/23-21:34:19   81.3486    0.1150  155.6211  106.5921     7446.9229     7436.6327     7457.2131 -49.671667  73.829578   0.001177  -0.000724
1 62797U 25016N   25144.93577065  .00000062  00000-0  76839-4 0  9998 | 2 62797  88.9837 123.8259 0013919 201.2378 158.8197 13.50944536 20014 | 2025/05/24-22:27:30   95.7638    0.1150  158.8772  106.5921     7446.9224     7436.5570     7457.2878 -49.534663  73.921689   0.001141  -0.000797
1 62797U 25016N   25147.89842725  .00000052  00000-0  61491-4 0  9991 | 2 62797  88.9839 123.5225 0014228 192.1062 167.9749 13.50944868 20414 | 2025/05/27-21:33:44   85.5201    0.1150  168.0088  106.5921     7446.9212     7436.3257     7457.5167 -49.142641  74.183120   0.001017  -0.000995
1 62797U 25016N   25149.15755624  .00000052  00000-0  62586-4 0  9999 | 2 62797  88.9839 123.3935 0014369 188.2634 171.8283 13.50945005 20586 | 2025/05/29-03:46:52  180.1660    0.1151  171.8517  106.5921     7446.9207     7436.2202     7457.6212 -48.975495  74.293575   0.000955  -0.001074
1 62797U 25016N   25150.19448597  .00000066  00000-0  83391-4 0  9995 | 2 62797  88.9839 123.2873 0014491 185.1145 174.9860 13.50945159 20726 | 2025/05/30-04:40:03  194.5802    0.1150  175.0005  106.5920     7446.9201     7436.1288     7457.7114 -48.837705  74.384226   0.000900  -0.001136
1 62797U 25016N   25151.52768123  .00000079  00000-0  10389-3 0  9993 | 2 62797  88.9840 123.1508 0014618 181.2093 178.9025 13.50945311 20909 | 2025/05/31-12:39:51  315.9697    0.1150  178.9057  106.5920     7446.9196     7436.0336     7457.8055 -48.660410  74.500448   0.000825  -0.001207
1 62797U 25016N   25152.56461051  .00000146  00000-0  20782-3 0  9991 | 2 62797  88.9840 123.0446 0014730 178.1631 181.9577 13.50945831 21046 | 2025/06/01-13:33:02  330.3835    0.1150  181.9519  106.5920     7446.9176     7435.9483     7457.8870 -48.522237  74.590514   0.000763  -0.001260
1 62797U 25016N   25153.89780566  .00000104  00000-0  14243-3 0  9992 | 2 62797  88.9840 122.9081 0014894 174.1961 185.9365 13.50945773 21226 | 2025/06/02-21:32:50   91.7725    0.1150  185.9189  106.5920     7446.9179     7435.8264     7458.0093 -48.344397  74.705900   0.000679  -0.001326
1 62797U 25016N   25155.15693394  .00000111  00000-0  15270-3 0  9994 | 2 62797  88.9842 122.7791 0015030 170.5980 189.5455 13.50945968 21392 | 2025/06/04-03:45:59  186.4179    0.1150  189.5170  106.5920     7446.9171     7435.7244     7458.1099 -48.176184  74.814725   0.000596  -0.001380
1 62797U 25016N   25156.19386286  .00000105  00000-0  14410-3 0  9996 | 2 62797  88.9843 122.6729 0015141 167.6444 192.5081 13.50946169 21537 | 2025/06/05-04:39:09  200.8315    0.1150  192.4706  106.5920     7446.9164     7435.6410     7458.1918 -48.037484  74.903977   0.000526  -0.001420
1 62797U 25016N   25157.60112333  .00000092  00000-0  12450-3 0  9990 | 2 62797  88.9844 122.5288 0015299 163.6196 196.5452 13.50946397 21721 | 2025/06/06-14:25:37  348.9642    0.1150  196.4954  106.5919     7446.9156     7435.5225     7458.3086 -47.849001  75.024640   0.000426  -0.001470
1 62797U 25016N   25158.86025085  .00000080  00000-0  10577-3 0  9991 | 2 62797  88.9845 122.3999 0015426 160.0693 200.1064 13.50946602 21892 | 2025/06/07-20:38:45   83.6091    0.1150  200.0457  106.5919     7446.9148     7435.4272     7458.4024 -47.680148  75.132182   0.000333  -0.001506
1 62797U 25016N   25160.26751080  .00000069  00000-0  87567-4 0  9990 | 2 62797  88.9846 122.2558 0015593 156.1309 204.0568 13.50946807 22089 | 2025/06/09-06:25:12  231.7419    0.1150  203.9841  106.5919     7446.9141     7435.3021     7458.5260 -47.491092  75.251945   0.000227  -0.001543
1 62797U 25016N   25161.52663799  .00000059  00000-0  73218-4 0  9996 | 2 62797  88.9847 122.1269 0015729 152.6170 207.5814 13.50946933 22257 | 2025/06/10-12:38:21  326.3869    0.1151  207.4981  106.5919     7446.9136     7435.2003     7458.6268 -47.321729  75.358681   0.000130  -0.001568
1 62797U 25016N   25162.85983127  .00000066  00000-0  84135-4 0  9991 | 2 62797  88.9848 121.9905 0015863 148.9481 211.2611 13.50947128 22438 | 2025/06/11-20:38:09   87.7761    0.1150  211.1669  106.5919     7446.9129     7435.0998     7458.7259 -47.142247  75.471208   0.000026  -0.001586
1 62797U 25016N   25163.89675926  .00000079  00000-0  10328-3 0  9997 | 2 62797  88.9849 121.8843 0015976 146.1001 214.1175 13.50947313 22570 | 2025/06/12-21:31:20  102.1901    0.1151  214.0150  106.5919     7446.9122     7435.0150     7458.8094 -47.002330  75.558543  -0.000056  -0.001597
1 62797U 25016N   25165.15588588  .00000092  00000-0  12353-3 0  9990 | 2 62797  88.9850 121.7555 0016108 142.7001 217.5272 13.50947512 22746 | 2025/06/14-03:44:28  196.8358    0.1150  217.4149  106.5919     7446.9115     7434.9160     7458.9070 -46.832409  75.664098  -0.000156  -0.001603
1 62797U 25016N   25166.19281351  .00000100  00000-0  13560-3 0  9994 | 2 62797  88.9850 121.6493 0016197 139.8965 220.3385 13.50947661 22887 | 2025/06/15-04:37:39  211.2503    0.1150  220.2185  106.5918     7446.9109     7434.8492     7458.9727 -46.692083  75.750773  -0.000238  -0.001602
1 62797U 25016N   25167.52600581  .00000119  00000-0  16563-3 0  9998 | 2 62797  88.9850 121.5129 0016323 136.3204 223.9242 13.50947958 23062 | 2025/06/16-12:37:26  332.6404    0.1150  223.7946  106.5918     7446.9098     7434.7542     7459.0654 -46.511616  75.861715  -0.000344  -0.001596
1 62797U 25016N   25168.85919773  .00000118  00000-0  16436-3 0  9999 | 2 62797  88.9851 121.3765 0016452 132.7734 227.4804 13.50948237 23242 | 2025/06/17-20:37:14   94.0307    0.1150  227.3416  106.5918     7446.9088     7434.6571     7459.1605 -46.330938  75.972312  -0.000449  -0.001583
1 62797U 25016N   25169.89612452  .00000118  00000-0  16314-3 0  9993 | 2 62797  88.9852 121.2704 0016542 130.0300 230.2305 13.50948437 23380 | 2025/06/18-21:30:25  108.4458    0.1150  230.0850  106.5918     7446.9081     7434.5894     7459.2267 -46.190225  76.058063  -0.000530  -0.001567
1 62797U 25016N   25171.52558038  .00000095  00000-0  12802-3 0  9997 | 2 62797  88.9854 121.1037 0016682 125.7391 234.5314 13.50948688 23606 | 2025/06/20-12:36:50  336.8127    0.1150  234.3759  106.5918     7446.9071     7434.4842     7459.3301 -45.968845  76.192301  -0.000656  -0.001534
1 62797U 25016N   25172.56250658  .00000087  00000-0  11522-3 0  9998 | 2 62797  88.9854 120.9977 0016768 123.0347 237.2417 13.50948849 23741 | 2025/06/21-13:30:00  351.2283    0.1150  237.0803  106.5917     7446.9066     7434.4196     7459.3935 -45.827807  76.277215  -0.000734  -0.001508
1 62797U 25016N   25173.74756485  .00000072  00000-0  92745-4 0  9999 | 2 62797  88.9855 120.8764 0016856 119.9398 240.3430 13.50949017 23909 | 2025/06/22-17:56:29   59.1322    0.1151  240.1753  106.5917     7446.9059     7434.3534     7459.4584 -45.666271  76.374151  -0.000822  -0.001472
1 62797U 25016N   25174.85855677  .00000070  00000-0  90074-4 0  9996 | 2 62797  88.9855 120.7628 0016928 117.0601 243.2280 13.50949183 24059 | 2025/06/23-20:36:19  100.2926    0.1151  243.0550  106.5917     7446.9053     7434.2992     7459.5114 -45.514754  76.464543  -0.000901  -0.001433
1 62797U 25016N   25176.56207744  .00000076  00000-0  98161-4 0  9993 | 2 62797  88.9855 120.5885 0017043 112.6736 247.6219 13.50949389 24284 | 2025/06/25-13:29:23  355.4060    0.1151  247.4415  106.5917     7446.9046     7434.2128     7459.5963 -45.281931  76.602650  -0.001019  -0.001366
1 62797U 25016N   25177.89526712  .00000089  00000-0  11873-3 0  9997 | 2 62797  88.9855 120.4521 0017125 109.2491 251.0514 13.50949633 24460 | 2025/06/26-21:29:11  116.7998    0.1150  250.8659  106.5917     7446.9037     7434.1509     7459.6565 -45.099440  76.710232  -0.001108  -0.001306
1 62797U 25016N   25179.52472078  .00000095  00000-0  12882-3 0  9992 | 2 62797  88.9855 120.2854 0017211 105.0729 255.2328 13.50949855 24680 | 2025/06/28-12:35:35  345.1707    0.1151  255.0422  106.5917     7446.9029     7434.0860     7459.7197 -44.876064  76.841122  -0.001209  -0.001225
1 62797U 25016N   25180.56164555  .00000109  00000-0  15037-3 0  9997 | 2 62797  88.9855 120.1794 0017263 102.4395 257.8689 13.50950038 24828 | 2025/06/29-13:28:46  359.5889    0.1151  257.6756  106.5917     7446.9022     7434.0466     7459.7578 -44.733827  76.924014  -0.001270  -0.001169
1 62797U 25016N   25181.59856998  .00000116  00000-0  16102-3 0  9992 | 2 62797  88.9856 120.0733 0017306  99.7930 260.5176 13.50950274 24961 | 2025/06/30-14:21:56   14.0077    0.1151  260.3221  106.5916     7446.9013     7434.0137     7459.7889 -44.591353  77.006806  -0.001328  -0.001109
1 62797U 25016N   25182.85769212  .00000124  00000-0  17307-3 0  9991 | 2 62797  88.9856 119.9445 0017356  96.5906 263.7221 13.50950592 25130 | 2025/07/01-20:35:04  108.6594    0.1151  263.5245  106.5916     7446.9001     7433.9753     7459.8250 -44.418131  77.106852  -0.001395  -0.001033
1 62797U 25016N   25183.89461580  .00000135  00000-0  19080-3 0  9995 | 2 62797  88.9856 119.8384 0017385  93.9597 266.3542 13.50950898 25279 | 2025/07/02-21:28:14  123.0789    0.1151  266.1554  106.5916     7446.8990     7433.9526     7459.8455 -44.275269  77.188973  -0.001445  -0.000967
1 62797U 25016N   25185.52406679  .00000124  00000-0  17257-3 0  9997 | 2 62797  88.9857 119.6717 0017431  89.8458 270.4691 13.50951272 25492 | 2025/07/04-12:34:39  351.4530    0.1152  270.2694  106.5916     7446.8976     7433.9170     7459.8783 -44.050552  77.317551  -0.001517  -0.000859
1 62797U 25016N   25186.56098974  .00000113  00000-0  15608-3 0  9993 | 2 62797  88.9857 119.5656 0017452  87.2152 273.0997 13.50951510 25638 | 2025/07/05-13:27:49    5.8734    0.1152  272.9000  106.5915     7446.8968     7433.9005     7459.8931 -43.907301  77.398991  -0.001558  -0.000786
1 62797U 25016N   25187.59791244  .00000111  00000-0  15366-3 0  9996 | 2 62797  88.9858 119.4595 0017469  84.5976 275.7168 13.50951749 25770 | 2025/07/06-14:20:59   20.2942    0.1152  275.5176  106.5915     7446.8959     7433.8869     7459.9049 -43.763948  77.480252  -0.001595  -0.000712
1 62797U 25016N   25188.85703250  .00000105  00000-0  14325-3 0  9993 | 2 62797  88.9858 119.3307 0017479  81.4190 278.8941 13.50952021 25941 | 2025/07/07-20:34:07  114.9486    0.1151  278.6961  106.5915     7446.8949     7433.8785     7459.9113 -43.589663  77.578437  -0.001635  -0.000619
1 62797U 25016N   25189.89395465  .00000111  00000-0  15361-3 0  9991 | 2 62797  88.9858 119.2247 0017482  78.8027 281.5088 13.50952256 26085 | 2025/07/08-21:27:17  129.3702    0.1151  281.3124  106.5915     7446.8940     7433.8754     7459.9127 -43.446065  77.658947  -0.001662  -0.000541
1 62797U 25016N   25190.93087659  .00000111  00000-0  15280-3 0  9991 | 2 62797  88.9858 119.1186 0017477  76.1624 284.1470 13.50952438 26226 | 2025/07/09-22:20:27  143.7923    0.1151  283.9527  106.5915     7446.8934     7433.8784     7459.9083 -43.302182  77.739267  -0.001686  -0.000461
