# SPACE DATA - HISTORICAL TLEs
# ----------------------------
# NORAD_ID    : 60396
# OBJECT_NAME : QIANFAN-18
# --------------------------------------------------------------------+-----------------------------------------------------------------------+----------------------------------------------------------------------------------------------------------------------------------------
#                  LINE 1                                             |                 LINE 2                                                |      DERIVED PARAMETERS
# --------------------------------------------------------------------+-----------------------------------------------------------------------+----------------------------------------------------------------------------------------------------------------------------------------
# NORAD  COSPAR     TLE_EPOCH      MEANMOT1 MEANMOT2   BSTAR  #  REV  |   NORAD    INC     RAAN     ECC    ARGPER  MEANANOM   MEANMOT     REV |  CAL_DATE              LONG     ARGLAT     PERIOD        SMA         PERIGEE        APOGEE      INC_X      INC_Y      ECC_X      ECC_Y
# ------ ------   -------------- ----------  -------  ------- -- ----     -----  ------- -------- ------- -------- -------- -----------  ----   ------------------- ---------  --------  --------  ------------  ------------   ----------- ---------- ----------  ---------  ---------   
1 62802U 25016T   25036.80207881  .00001288  00000-0  52597-3 0  9992 | 2 62802  88.9949 135.4285 0015294 168.7947 191.3591 14.26721176  5111 | 2025/02/05-19:14:59  289.3542    0.1193  191.3246  100.9307     7180.8486     7169.8662     7191.8310 -63.397762  62.456513   0.000860  -0.001265
1 62802U 25016T   25039.18774201 -.00132189  00000-0 -56803-1 0  9990 | 2 62802  88.9945 135.1539 0017350 144.1679 216.0682 14.25673370  5455 | 2025/02/08-04:30:20   70.7366    0.1193  215.9514  101.0049     7184.3666     7171.9017     7196.8314 -63.097417  62.759357   0.000281  -0.001712
1 62802U 25016T   25040.58980831  .00001153  00000-0  47449-3 0  9996 | 2 62802  88.9946 134.9926 0015776 158.8679 201.3170 14.26268505  5657 | 2025/02/09-14:09:19  217.0749    0.1193  201.2514  100.9628     7182.3679     7171.0370     7193.6988 -62.920557  62.936812   0.000638  -0.001443
1 62802U 25016T   25041.92280837  .00001119  00000-0  46012-3 0  9991 | 2 62802  88.9944 134.8391 0015910 154.8363 205.3609 14.26271432  5841 | 2025/02/10-22:08:50  338.4100    0.1193  205.2830  100.9625     7182.3581     7170.9309     7193.7852 -62.751578  63.105013   0.000536  -0.001498
1 62802U 25016T   25043.60659455  .00001025  00000-0  42107-3 0  9991 | 2 62802  88.9941 134.6452 0016103 149.7755 210.4371 14.26274547  6087 | 2025/02/12-14:33:29  226.4112    0.1193  210.3438  100.9623     7182.3476     7170.7819     7193.9133 -62.537448  63.316802   0.000401  -0.001560
1 62802U 25016T   25044.93958924  .00001007  00000-0  41329-3 0  9996 | 2 62802  88.9939 134.4917 0016229 145.8397 214.3844 14.26277205  6279 | 2025/02/13-22:33:00  347.7451    0.1193  214.2796  100.9621     7182.3387     7170.6825     7193.9949 -62.367453  63.483975   0.000291  -0.001597
1 62802U 25016T   25046.48305283  .00001100  00000-0  45193-3 0  9999 | 2 62802  88.9938 134.3139 0016362 141.2775 218.9595 14.26280936  6493 | 2025/02/15-11:35:35  185.0782    0.1193  218.8418  100.9619     7182.3262     7170.5744     7194.0779 -62.170080  63.677135   0.000159  -0.001628
1 62802U 25016T   25047.60556941  .00001082  00000-0  44468-3 0  9996 | 2 62802  88.9937 134.1847 0016457 138.0051 222.2408 14.26283286  6652 | 2025/02/16-14:32:01  230.4109    0.1193  222.1142  100.9617     7182.3183     7170.4983     7194.1382 -62.026263  63.817093   0.000063  -0.001644
1 62802U 25016T   25048.93855459  .00001189  00000-0  48902-3 0  9994 | 2 62802  88.9935 134.0311 0016560 134.1020 226.1540 14.26286979  6846 | 2025/02/17-22:31:31  351.7429    0.1193  226.0173  100.9614     7182.3059     7170.4120     7194.1998 -61.854819  63.983001  -0.000054  -0.001655
1 62802U 25016T   25050.55216412  .00001174  00000-0  48274-3 0  9991 | 2 62802  88.9933 133.8451 0016675 129.4184 230.8489 14.26290828  7079 | 2025/02/19-13:15:06  214.4075    0.1193  230.7009  100.9612     7182.2929     7170.3165     7194.2694 -61.646646  64.183320  -0.000196  -0.001656
1 62802U 25016T   25051.60451572  .00001148  00000-0  47211-3 0  9997 | 2 62802  88.9932 133.7238 0016736 126.3742 233.8999 14.26293244  7225 | 2025/02/20-14:30:30  234.4058    0.1193  233.7451  100.9610     7182.2848     7170.2646     7194.3051 -61.510557  64.313615  -0.000288  -0.001649
1 62802U 25016T   25053.15045960  .00000872  00000-0  39192-3 0  9991 | 2 62802  88.9920 133.5449 0017056 124.2505 236.0304 14.21424236  7445 | 2025/02/22-03:36:39   72.6415    0.1190  235.8685  101.3068     7198.6772     7186.3991     7210.9552 -61.308618  64.504491  -0.000361  -0.001667
1 62802U 25016T   25054.56032300  .00000889  00000-0  42382-3 0  9994 | 2 62802  88.9930 133.3857 0017574 121.2548 239.0365 14.18376755  7646 | 2025/02/23-13:26:51  221.7307    0.1188  238.8640  101.5245     7208.9847     7196.3156     7221.6538 -61.129839  64.675319  -0.000465  -0.001695
1 62802U 25016T   25056.04428153  .00000915  00000-0  47541-3 0  9996 | 2 62802  88.9935 133.2159 0018463 120.4441 239.8573 14.13793790  7855 | 2025/02/25-01:03:45   37.5782    0.1187  239.6746  101.8536     7224.5554     7211.2167     7237.8941 -60.938243  64.856561  -0.000519  -0.001772
1 62802U 25016T   25057.53277817  .00000802  00000-0  44064-3 0  9992 | 2 62802  88.9923 133.0491 0018612 113.4095 246.9050 14.10709969  8067 | 2025/02/26-12:47:12  215.0578    0.1185  246.7090  102.0763     7235.0802     7221.6143     7248.5462 -60.748355  65.032813  -0.000743  -0.001706
1 62802U 25016T   25058.59784179 -.00000041  00000-0 -32413-4 0  9996 | 2 62802  88.9942 132.9294 0018741 106.7857 253.5384 14.07727214  8211 | 2025/02/27-14:20:53  239.6406    0.1183  253.3326  102.2925     7245.2966     7231.7182     7258.8750 -60.613653  65.160975  -0.000945  -0.001618
1 62802U 25016T   25059.87912760 -.00000047  00000-0 -38623-4 0  9992 | 2 62802  88.9922 132.7872 0019978 105.3712 254.9679 14.03827441  8397 | 2025/02/28-21:05:56  342.2936    0.1181  254.7469  102.5767     7258.7085     7244.2071     7273.2100 -60.450388  65.309741  -0.001054  -0.001697
1 62802U 25016T   25061.51990363  .00000473  00000-0  30409-3 0  9995 | 2 62802  88.9936 132.6017 0019131  96.6688 263.6669 14.01450946  8629 | 2025/03/02-12:28:39  214.7791    0.1179  263.4491  102.7507     7266.9121     7253.0098     7280.8144 -60.239573  65.506142  -0.001248  -0.001450
1 62802U 25016T   25062.52042469  .00000444  00000-0  29621-3 0  9994 | 2 62802  88.9916 132.4974 0019459 101.7061 258.6302 13.99278737  8768 | 2025/03/03-12:29:24  216.0565    0.1178  258.4117  102.9102     7274.4308     7260.2755     7288.5861 -60.118876  65.614218  -0.001138  -0.001578
1 62802U 25016T   25063.52248013  .00000409  00000-0  28141-3 0  9995 | 2 62802  88.9910 132.3826 0019894  96.0716 264.2729 13.97353255  8902 | 2025/03/04-12:32:22  217.8907    0.1177  264.0461  103.0520     7281.1118     7266.6268     7295.5969 -59.986884  65.734100  -0.001319  -0.001489
1 62802U 25016T   25064.66826867  .00000297  00000-0  20431-3 0  9999 | 2 62802  88.9906 132.2564 0019373  96.7292 263.6091 13.96612923  9065 | 2025/03/05-16:02:18  271.6363    0.1177  263.3885  103.1066     7283.6847     7269.5740     7297.7954 -59.841683  65.865771  -0.001271  -0.001462
1 62802U 25016T   25066.89276245  .00000359  00000-0  26923-3 0  9996 | 2 62802  88.9897 132.0123 0020307  87.1358 273.2140 13.92291219  9372 | 2025/03/07-21:25:34  354.8793    0.1174  272.9816  103.4266     7298.7494     7283.9278     7313.5710 -59.559928  66.119451  -0.001575  -0.001282
1 62802U 25016T   25068.47545767  .00000378  00000-0  29886-3 0  9992 | 2 62802  88.9900 131.8404 0019124  87.0765 273.2596 13.89326792  9592 | 2025/03/09-11:24:39  206.3951    0.1173  273.0408  103.6473     7309.1280     7295.1500     7323.1060 -59.361487  66.298069  -0.001488  -0.001201
1 62802U 25016T   25069.48455565  .00000368  00000-0  30133-3 0  9996 | 2 62802  88.9879 131.7522 0019677  94.0527 266.2894 13.87320988  9732 | 2025/03/10-11:37:45  210.7472    0.1171  266.0644  103.7972     7316.1714     7301.7754     7330.5674 -59.257960  66.387804  -0.001372  -0.001411
1 62802U 25016T   25070.49506878  .00000350  00000-0  29261-3 0  9994 | 2 62802  88.9894 131.6208 0020692  76.9557 283.3922 13.85942409  9873 | 2025/03/11-11:52:53  215.6536    0.1171  283.1614  103.9004     7321.0221     7305.8735     7336.1708 -59.106550  66.524650  -0.001817  -0.000990
1 62802U 25016T   25071.86777627  .00000359  00000-0  31176-3 0  9995 | 2 62802  88.9890 131.4724 0020547  73.1095 287.2326 13.83867523 10060 | 2025/03/12-20:49:35  351.3355    0.1170  287.0075  104.0562     7328.3381     7313.2805     7343.3956 -58.933783  66.677217  -0.001868  -0.000855
1 62802U 25016T   25073.46039908  .00000394  00000-0  35757-3 0  9994 | 2 62802  88.9890 131.3013 0020592  69.1098 291.2272 13.81481296 10284 | 2025/03/14-11:02:58  206.4256    0.1168  291.0070  104.2359     7336.7745     7321.6666     7351.8823 -58.734405  66.852911  -0.001930  -0.000718
1 62802U 25016T   25074.62040841  .00000367  00000-0  34743-3 0  9995 | 2 62802  88.9889 131.1758 0020567  65.2240 295.1064 13.78881999 10444 | 2025/03/15-14:53:23  265.3045    0.1168  294.8928  104.4324     7345.9918     7330.8833     7361.1003 -58.587765  66.981327  -0.001973  -0.000581
1 62802U 25016T   25076.58225516  .00000346  00000-0  34609-3 0  9994 | 2 62802  88.9888 130.9611 0020479  59.9245 300.3948 13.75445993 10712 | 2025/03/17-13:58:26  253.7288    0.1166  300.1921  104.6933     7358.2208     7343.1519     7373.2897 -58.336295  67.200322  -0.002011  -0.000387
1 62802U 25016T   25077.74677627  .00000341  00000-0  35028-3 0  9998 | 2 62802  88.9864 130.8457 0021014  59.6551 300.6688 13.73887444 10876 | 2025/03/18-17:55:21  314.2150    0.1165  300.4614  104.8121     7363.7845     7348.3103     7379.2588 -58.199258  67.315866  -0.002066  -0.000383
1 62802U 25016T   25079.20483765  .00000353  00000-0  37680-3 0  9998 | 2 62802  88.9882 130.6895 0020805  53.7087 306.5994 13.71701929 11075 | 2025/03/20-04:54:57  120.7262    0.1164  306.4077  104.9791     7371.6042     7356.2676     7386.9408 -58.016699  67.475643  -0.002074  -0.000160
1 62802U 25016T   25080.51859208  .00000314  00000-0  34204-3 0  9999 | 2 62802  88.9878 130.5506 0020577  49.9487 310.3475 13.70167026 11255 | 2025/03/21-12:26:46  235.1235    0.1162  310.1675  105.0967     7377.1084     7361.9286     7392.2883 -57.852690  67.615789  -0.002058  -0.000018
1 62802U 25016T   25082.49322406  .00000340  00000-0  39086-3 0  9995 | 2 62802  88.9873 130.3425 0020628  44.9726 315.3101 13.66993793 11520 | 2025/03/23-11:50:14  228.1589    0.1162  315.1436  105.3406     7388.5204     7373.2794     7403.7615 -57.606402  67.825084  -0.002056   0.000168
1 62802U 25016T   25083.51798544  .00000229  00000-0  25846-3 0  9994 | 2 62802  88.9870 130.2353 0020486  42.2812 317.9923 13.66994655 11668 | 2025/03/24-12:25:53  238.1995    0.1161  317.8349  105.3406     7388.5173     7373.3812     7403.6535 -57.479207  67.932517  -0.002031   0.000267
1 62802U 25016T   25084.83658817  .00000238  00000-0  27872-3 0  9999 | 2 62802  88.9864 130.1009 0020748  37.8511 322.4103 13.64915932 11845 | 2025/03/25-20:04:41  354.3426    0.1161  322.2650  105.5010     7396.0171     7380.6718     7411.3623 -57.319312  68.066701  -0.002029   0.000433
1 62802U 25016T   25086.23068599  .00000284  00000-0  34635-3 0  9993 | 2 62802  88.9865 129.9519 0020286  34.9497 325.2988 13.63090242 12037 | 2025/03/27-05:32:11  137.7538    0.1159  325.1662  105.6423     7402.6196     7387.6027     7417.6366 -57.142173  68.215609  -0.001959   0.000528
1 62802U 25016T   25087.40519304  .00000135  00000-0  15665-3 0  9995 | 2 62802  88.9862 129.8289 0020153  31.5243 328.7118 13.63090783 12192 | 2025/03/28-09:43:28  201.8694    0.1159  328.5916  105.6423     7402.6177     7387.6992     7417.5362 -56.995407  68.337891  -0.001910   0.000644
1 62802U 25016T   25088.58044708  .00000252  00000-0  31560-3 0  9998 | 2 62802  88.9835 129.7064 0019046  27.7581 332.4588 13.60980306 12350 | 2025/03/29-13:55:50  266.2610    0.1158  332.3577  105.8061     7410.2686     7396.1550     7424.3822 -56.847443  68.457516  -0.001759   0.000730
1 62802U 25016T   25089.75740981  .00000231  00000-0  29686-3 0  9997 | 2 62802  88.9852 129.5833 0019736  24.7152 335.4945 13.59231673 12510 | 2025/03/30-18:10:40  331.2579    0.1157  335.4005  105.9422     7416.6227     7401.9852     7431.2601 -56.701314  68.580805  -0.001778   0.000856
1 62802U 25016T   25090.86215204  .00000207  00000-0  26776-3 0  9996 | 2 62802  88.9853 129.4698 0019743  21.8759 338.3235 13.58444716 12661 | 2025/03/31-20:41:29   10.1778    0.1156  338.2397  106.0036     7419.4867     7404.8384     7434.1350 -56.565412  68.693070  -0.001733   0.000947
1 62802U 25016T   25091.91679035 -.01342637  00000-0 -20233+1 0  9997 | 2 62802  88.9836 129.3511 0021325  17.1633  92.7553 13.56410345 12802 | 2025/04/01-22:00:10  281.2866  110.1627   92.9994  106.1626     7426.9035     7411.0656     7442.7413 -56.421901  68.808794  -0.001779   0.001177
1 62802U 25016T   25093.14933958  .00000181  00000-0  24594-3 0  9990 | 2 62802  88.9847 129.2340 0019576  16.9259 343.2543 13.54961218 12978 | 2025/04/03-03:35:02  116.0747    0.1154  343.1895  106.2761     7432.1979     7417.6486     7446.7472 -56.281849  68.924817  -0.001626   0.001090
1 62802U 25016T   25094.18319392  .00000101  00000-0  12898-3 0  9991 | 2 62802  88.9847 129.1268 0019411  13.9238 346.2447 13.54961333 13119 | 2025/04/04-04:23:47  129.4001    0.1155  346.1917  106.2761     7432.1975     7417.7708     7446.6241 -56.152792  69.029999  -0.001551   0.001167
1 62802U 25016T   25095.51243540  .00000057  00000-0  65269-4 0  9991 | 2 62802  88.9844 128.9897 0019266  10.1132 350.0405 13.54961368 13295 | 2025/04/05-12:17:54  249.3891    0.1154  350.0022  106.2761     7432.1973     7417.8785     7446.5162 -55.987265  69.163933  -0.001456   0.001261
1 62802U 25016T   25096.54628982  .00000049  00000-0  53591-4 0  9998 | 2 62802  88.9842 128.8831 0019157   7.1234 353.0188 13.54961407 13439 | 2025/04/06-13:06:39  262.7139    0.1155  352.9921  106.2761     7432.1972     7417.9593     7446.4351 -55.858361  69.267823  -0.001378   0.001331
1 62802U 25016T   25097.58014414  .00000058  00000-0  66066-4 0  9993 | 2 62802  88.9840 128.7765 0019044   4.0989 356.0317 13.54961499 13573 | 2025/04/07-13:55:24  276.0386    0.1155  356.0166  106.2761     7432.1969     7418.0430     7446.3507 -55.729265  69.371473  -0.001296   0.001396
1 62802U 25016T   25098.90938532  .00000058  00000-0  67097-4 0  9991 | 2 62802  88.9837 128.6393 0018901   0.1955 359.9202 13.54961600 13755 | 2025/04/08-21:49:30   36.0277    0.1154  359.9199  106.2761     7432.1965     7418.1489     7446.2441 -55.562802  69.504488  -0.001185   0.001472
1 62802U 25016T   25100.53401332  .00000065  00000-0  77228-4 0  9992 | 2 62802  88.9835 128.4717 0018733 355.4163   4.6816 13.54961765 13972 | 2025/04/10-12:48:58  262.6805    0.1155    4.6992  106.2761     7432.1959     7418.2732     7446.1186 -55.359128  69.666565  -0.001044   0.001555
1 62802U 25016T   25101.78940753  .00000065  00000-0  76312-4 0  9998 | 2 62802  88.9833 128.3421 0018604 351.6787   8.4055 13.54961878 14140 | 2025/04/11-18:56:44  356.0031    0.1154    8.4367  106.2761     7432.1955     7418.3686     7446.0223 -55.201280  69.791449  -0.000931   0.001611
1 62802U 25016T   25102.89710824  .00000061  00000-0  70787-4 0  9991 | 2 62802  88.9832 128.2277 0018490 348.3558  11.7165 13.54961988 14296 | 2025/04/12-21:31:50   35.9935    0.1154   11.7596  106.2760     7432.1951     7418.4529     7445.9372 -55.061759  69.901449  -0.000827   0.001654
1 62802U 25016T   25103.93096227  .00000043  00000-0  44658-4 0  9999 | 2 62802  88.9831 128.1210 0018389 345.2684  14.7931 13.54962009 14439 | 2025/04/13-22:20:35   49.3174    0.1154   14.8470  106.2760     7432.1950     7418.5279     7445.8621 -54.931426  70.003789  -0.000730   0.001688
1 62802U 25016T   25104.96481624  .00000046  00000-0  49519-4 0  9996 | 2 62802  88.9830 128.0142 0018282 342.1349  17.9159 13.54962106 14577 | 2025/04/14-23:09:20   62.6414    0.1154   17.9805  106.2760     7432.1946     7418.6071     7445.7822 -54.800782  70.105981  -0.000630   0.001716
1 62802U 25016T   25106.44211756  .00000189  00000-0  26188-3 0  9992 | 2 62802  88.9831 127.8608 0018371 338.2192  21.8177 13.53939502 14772 | 2025/04/16-10:36:38  236.0932    0.1153   21.8961  106.3563     7435.9364     7422.2759     7449.5970 -54.612950  70.252529  -0.000509   0.001765
1 62802U 25016T   25107.62455566  .00000172  00000-0  23648-3 0  9992 | 2 62802  88.9827 127.7399 0018068 334.0585  25.9661 13.53940034 14939 | 2025/04/17-14:59:21  303.0696    0.1154   26.0569  106.3563     7435.9345     7422.4992     7449.3697 -54.464343  70.367295  -0.000369   0.001769
1 62802U 25016T   25109.17650687  .00000169  00000-0  23241-3 0  9990 | 2 62802  88.9825 127.5798 0017911 329.2345  30.7756 13.53940198 15148 | 2025/04/19-04:14:10  143.4763    0.1153   30.8808  106.3562     7435.9339     7422.6154     7449.2524 -54.267383  70.519050  -0.000213   0.001778
1 62802U 25016T   25110.21114127  .00000039  00000-0  39390-4 0  9990 | 2 62802  88.9824 127.4731 0017827 326.0388  33.9622 13.53939923 15287 | 2025/04/20-05:04:02  157.0803    0.1153   34.0765  106.3563     7435.9349     7422.6789     7449.1909 -54.135903  70.619909  -0.000109   0.001779
1 62802U 25016T   25111.46748292  .00000059  00000-0  70208-4 0  9999 | 2 62802  88.9823 127.3436 0017724 322.1331  37.8574 13.53940060 15450 | 2025/04/21-11:13:10  250.7416    0.1154   37.9823  106.3563     7435.9344     7422.7549     7449.1138 -53.976089  70.742007   0.000016   0.001772
1 62802U 25016T   25112.57601969  .00000058  00000-0  68590-4 0  9991 | 2 62802  88.9822 127.2292 0017639 318.6743  41.3074 13.53940131 15601 | 2025/04/22-13:49:28  291.0307    0.1153   41.4410  106.3563     7435.9341     7422.8179     7449.0504 -53.834674  70.849558   0.000126   0.001759
1 62802U 25016T   25113.90626382  .00000062  00000-0  73856-4 0  9991 | 2 62802  88.9820 127.0921 0017530 314.4672  45.5046 13.53940242 15788 | 2025/04/23-21:45:01   51.3767    0.1153   45.6481  106.3562     7435.9337     7422.8985     7448.9689 -53.664867  70.978013   0.000257   0.001734
1 62802U 25016T   25115.53211772  .00000063  00000-0  76122-4 0  9995 | 2 62802  88.9820 126.9243 0017416 309.3016  50.6592 13.53940426 16004 | 2025/04/25-12:46:14  278.4654    0.1154   50.8138  106.3562     7435.9331     7422.9826     7448.8835 -53.456767  71.134875   0.000415   0.001692
1 62802U 25016T   25116.86236176  .00000070  00000-0  86105-4 0  9997 | 2 62802  88.9819 126.7871 0017326 305.0189  54.9337 13.53940618 16187 | 2025/04/26-20:41:48   38.8098    0.1153   55.0964  106.3562     7435.9323     7423.0489     7448.8158 -53.286215  71.262598   0.000541   0.001646
1 62802U 25016T   25117.97089849  .00000075  00000-0  93559-4 0  9999 | 2 62802  88.9819 126.6728 0017262 301.4587  58.4878 13.53940788 16332 | 2025/04/27-23:18:05   79.0961    0.1153   58.6566  106.3562     7435.9317     7423.0958     7448.7676 -53.143946  71.368757   0.000643   0.001602
1 62802U 25016T   25119.22724026  .00000044  00000-0  47080-4 0  9996 | 2 62802  88.9819 126.5432 0017206 297.4608  62.4795 13.53940782 16505 | 2025/04/29-05:27:13  172.7532    0.1153   62.6545  106.3562     7435.9317     7423.1375     7448.7260 -52.982378  71.488783   0.000754   0.001547
1 62802U 25016T   25121.73992396  .00000052  00000-0  59467-4 0  9993 | 2 62802  88.9817 126.2839 0017094 289.3336  70.5968 13.53941034 16844 | 2025/05/01-17:45:29    0.0652    0.1153   70.7817  106.3562     7435.9308     7423.2198     7448.6418 -52.658186  71.727668   0.000965   0.001411
1 62802U 25016T   25122.92236347  .00000061  00000-0  72646-4 0  9996 | 2 62802  88.9816 126.1619 0017054 285.4907  74.4362 13.53941172 17008 | 2025/05/02-22:08:12   67.0344    0.1153   74.6246  106.3562     7435.9303     7423.2491     7448.6116 -52.505278  71.839550   0.001058   0.001337
1 62802U 25016T   25123.95699813  .00000059  00000-0  70143-4 0  9998 | 2 62802  88.9816 126.0551 0017014 282.0924  77.8322 13.53941257 17142 | 2025/05/03-22:58:04   80.6317    0.1153   78.0229  106.3562     7435.9300     7423.2785     7448.5815 -52.371277  71.937296   0.001135   0.001267
1 62802U 25016T   25125.50895023  .00000071  00000-0  87805-4 0  9999 | 2 62802  88.9815 125.8950 0016989 277.0797  82.8424 13.53941389 17351 | 2025/05/05-12:12:53  281.0268    0.1153   83.0356  106.3562     7435.9295     7423.2966     7448.5624 -52.170002  72.083273   0.001243   0.001158
1 62802U 25016T   25126.83919491  .00000077  00000-0  96824-4 0  9999 | 2 62802  88.9815 125.7577 0016970 272.7222  87.1988 13.53941532 17533 | 2025/05/06-20:08:26   41.3644    0.1152   87.3930  106.3561     7435.9290     7423.3102     7448.5478 -51.997116  72.208083   0.001328   0.001056
1 62802U 25016T   25127.94773213  .00000078  00000-0  97852-4 0  9995 | 2 62802  88.9815 125.6433 0016957 269.0510  90.8700 13.53941702 17685 | 2025/05/07-22:44:44   81.6448    0.1153   91.0643  106.3561     7435.9284     7423.3193     7448.5375 -51.852838  72.311759   0.001394   0.000965
1 62802U 25016T   25128.98236692  .00000064  00000-0  76983-4 0  9992 | 2 62802  88.9815 125.5365 0016963 265.6891  94.2324 13.53941765 17824 | 2025/05/08-23:34:36   95.2394    0.1153   94.4262  106.3561     7435.9281     7423.3146     7448.5417 -51.717958  72.408288   0.001451   0.000879
1 62802U 25016T   25130.53431918  .00000057  00000-0  66890-4 0  9992 | 2 62802  88.9816 125.3764 0016978 260.6467  99.2766 13.53941902 18038 | 2025/05/10-12:49:25  295.6302    0.1152   99.4685  106.3561     7435.9276     7423.3029     7448.5524 -51.515486  72.552601   0.001526   0.000745
1 62802U 25016T   25131.56895406  .00000053  00000-0  60607-4 0  9998 | 2 62802  88.9817 125.2697 0016991 257.2695 102.6559 13.53942017 18175 | 2025/05/11-13:39:17  309.2232    0.1153  102.8458  106.3561     7435.9272     7423.2928     7448.5616 -51.380342  72.648492   0.001569   0.000651
1 62802U 25016T   25132.97310151  .00000044  00000-0  47417-4 0  9997 | 2 62802  88.9817 125.1248 0017024 252.6874 107.2416 13.53942113 18363 | 2025/05/12-23:21:15   96.2416    0.1152  107.4278  106.3561     7435.9269     7423.2680     7448.5858 -51.196451  72.778200   0.001621   0.000521
1 62802U 25016T   25134.22944408  .00000038  00000-0  38133-4 0  9993 | 2 62802  88.9818 124.9952 0017059 248.5879 111.3454 13.53942188 18539 | 2025/05/14-05:30:23  189.8885    0.1152  111.5273  106.3561     7435.9266     7423.2417     7448.6115 -51.031757  72.893899   0.001658   0.000401
1 62802U 25016T   25135.48578678  .00000036  00000-0  35891-4 0  9990 | 2 62802  88.9819 124.8656 0017106 244.4703 115.4681 13.53942270 18702 | 2025/05/15-11:39:31  283.5347    0.1152  115.6449  106.3561     7435.9263     7423.2064     7448.6462 -50.866802  73.009225   0.001688   0.000277
1 62802U 25016T   25136.52042203  .00000041  00000-0  43064-4 0  9993 | 2 62802  88.9819 124.7588 0017153 241.1553 118.7879 13.53942322 18842 | 2025/05/16-12:29:24  297.1251    0.1153  118.9600  106.3561     7435.9261     7423.1713     7448.6810 -50.730623  73.103915   0.001706   0.000177
1 62802U 25016T   25137.55505733  .00000055  00000-0  63125-4 0  9994 | 2 62802  88.9819 124.6521 0017202 237.7921 122.1564 13.53942460 18981 | 2025/05/17-13:19:16  310.7150    0.1152  122.3231  106.3561     7435.9256     7423.1343     7448.7169 -50.594397  73.198262   0.001719   0.000073
1 62802U 25016T   25138.58969277  .00000051  00000-0  57680-4 0  9990 | 2 62802  88.9819 124.5454 0017259 234.4528 125.5016 13.53942474 19125 | 2025/05/18-14:09:09  324.3044    0.1152  125.6624  106.3561     7435.9256     7423.0919     7448.7592 -50.457994  73.292355   0.001726  -0.000030
1 62802U 25016T   25140.21554850  .00000052  00000-0  58836-4 0  9995 | 2 62802  88.9820 124.3778 0017359 229.2619 130.7027 13.53942560 19348 | 2025/05/20-05:10:23  191.3724    0.1152  130.8533  106.3561     7435.9252     7423.0172     7448.8333 -50.243442  73.439722   0.001725  -0.000192
1 62802U 25016T   25141.39809336  .00000041  00000-0  42571-4 0  9994 | 2 62802  88.9821 124.2560 0017477 224.8013 135.1729 13.53477327 19507 | 2025/05/21-09:33:15  258.3663    0.1152  135.3139  106.3926     7437.6291     7424.6304     7450.6279 -50.087266  73.546447   0.001716  -0.000332
1 62802U 25016T   25142.50802994  .00000039  00000-0  41484-4 0  9990 | 2 62802  88.9827 124.1369 0016073 220.9797 139.0147 13.51170166 19658 | 2025/05/22-12:11:33  299.1364    0.1150  139.1353  106.5743     7446.0933     7434.1252     7458.0615 -49.934615  73.650900   0.001553  -0.000413
1 62802U 25016T   25143.54494282  .00000027  00000-0  23607-4 0  9996 | 2 62802  88.9824 124.0360 0017638 217.2001 142.7929 13.50953328 19792 | 2025/05/23-13:04:43  313.5493    0.1150  142.9149  106.5914     7446.8901     7433.7553     7460.0249 -49.804668  73.738474   0.001670  -0.000567
1 62802U 25016T   25144.58186968  .00000023  00000-0  17146-4 0  9997 | 2 62802  88.9824 123.9291 0017672 214.1181 145.8836 13.50948646 19930 | 2025/05/24-13:57:53  327.9632    0.1151  145.9970  106.5918     7446.9073     7433.7471     7460.0675 -49.667003  73.831269   0.001639  -0.000661
1 62802U 25016T   25145.84099519  .00000013  00000-0  20781-5 0  9991 | 2 62802  88.9825 123.8000 0017787 210.2126 149.8000 13.50948723 20105 | 2025/05/25-20:11:01   62.6077    0.1149  149.9023  106.5918     7446.9070     7433.6612     7460.1528 -49.500575  73.943076   0.001599  -0.000779
1 62802U 25016T   25147.91484908  .00000041  00000-0  45120-4 0  9995 | 2 62802  88.9825 123.5873 0017984 203.7374 156.2949 13.50948988 20388 | 2025/05/27-21:57:22   91.4322    0.1150  156.3776  106.5917     7446.9060     7433.5135     7460.2986 -49.225734  74.126327   0.001514  -0.000971
1 62802U 25016T   25149.17397466  .00000064  00000-0  80308-4 0  9999 | 2 62802  88.9826 123.4582 0018109 199.8591 160.1857 13.50949164 20559 | 2025/05/29-04:10:31  186.0750    0.1150  160.2559  106.5917     7446.9054     7433.4198     7460.3910 -49.058642  74.237139   0.001452  -0.001082
1 62802U 25016T   25150.21090153  .00000070  00000-0  89062-4 0  9992 | 2 62802  88.9826 123.3518 0018221 196.6664 163.3890 13.50949313 20691 | 2025/05/30-05:03:41  200.4866    0.1150  163.4486  106.5917     7446.9048     7433.3358     7460.4739 -48.920696  74.328114   0.001396  -0.001171
1 62802U 25016T   25151.54409322  .00000081  00000-0  10729-3 0  9996 | 2 62802  88.9826 123.2151 0018350 192.6889 167.3803 13.50949447 20877 | 2025/05/31-13:03:29  321.8725    0.1150  167.4261  106.5917     7446.9044     7433.2393     7460.5694 -48.743220  74.444621   0.001318  -0.001277
1 62802U 25016T   25152.58101968  .00000143  00000-0  20272-3 0  9999 | 2 62802  88.9827 123.1088 0018457 189.5815 170.4987 13.50949969 21012 | 2025/06/01-13:56:40  336.2834    0.1150  170.5335  106.5917     7446.9024     7433.1577     7460.6472 -48.605075  74.535009   0.001251  -0.001357
1 62802U 25016T   25154.21047588  .00000107  00000-0  14755-3 0  9997 | 2 62802  88.9828 122.9417 0018640 184.6772 175.4208 13.50950024 21237 | 2025/06/03-05:03:05  204.6430    0.1150  175.4378  106.5917     7446.9022     7433.0212     7460.7833 -48.387546  74.676530   0.001138  -0.001476
1 62802U 25016T   25155.46960079  .00000095  00000-0  12782-3 0  9998 | 2 62802  88.9829 122.8126 0018771 180.9966 179.1151 13.50950175 21407 | 2025/06/04-11:16:13  299.2844    0.1150  179.1184  106.5916     7446.9017     7432.9231     7460.8803 -48.219215  74.785452   0.001044  -0.001560
1 62802U 25016T   25156.58059313  .00000087  00000-0  11664-3 0  9991 | 2 62802  88.9829 122.6987 0018889 177.7380 182.3860 13.50950352 21550 | 2025/06/05-13:56:03  340.4383    0.1150  182.3770  106.5916     7446.9010     7432.8346     7460.9675 -48.070451  74.881160   0.000957  -0.001629
1 62802U 25016T   25157.83971767  .00000072  00000-0  92426-4 0  9996 | 2 62802  88.9831 122.5696 0019027 174.0766 186.0614 13.50950520 21726 | 2025/06/06-20:09:11   75.0793    0.1150  186.0384  106.5916     7446.9004     7432.7312     7461.0696 -47.901713  74.989452   0.000853  -0.001701
1 62802U 25016T   25158.87664361  .00000072  00000-0  93470-4 0  9990 | 2 62802  88.9832 122.4633 0019149 171.0618 189.0878 13.50950695 21868 | 2025/06/07-21:02:22   89.4894    0.1150  189.0532  106.5916     7446.8998     7432.6397     7461.1598 -47.762558  75.078279   0.000764  -0.001756
1 62802U 25016T   25160.28390015  .00000069  00000-0  88390-4 0  9991 | 2 62802  88.9833 122.3190 0019315 167.0072 193.1581 13.50950879 22053 | 2025/06/09-06:48:48  237.6174    0.1150  193.1078  106.5916     7446.8991     7432.5154     7461.2828 -47.573375  75.198415   0.000639  -0.001823
1 62802U 25016T   25161.46895819  .00000065  00000-0  82280-4 0  9992 | 2 62802  88.9834 122.1976 0019436 163.6138 196.5645 13.50950980 22212 | 2025/06/10-11:15:17  305.5147    0.1150  196.5012  106.5916     7446.8987     7432.4249     7461.3725 -47.413989  75.299131   0.000530  -0.001870
1 62802U 25016T   25162.57994993  .00000071  00000-0  91146-4 0  9996 | 2 62802  88.9835 122.0837 0019559 160.4535 199.7370 13.50951130 22364 | 2025/06/11-13:55:07  346.6685    0.1150  199.6615  106.5916     7446.8982     7432.3328     7461.4636 -47.264259  75.393323   0.000425  -0.001909
1 62802U 25016T   25163.91313982  .00000090  00000-0  12069-3 0  9995 | 2 62802  88.9836 121.9471 0019711 156.6714 203.5336 13.50951392 22549 | 2025/06/12-21:54:55  108.0530    0.1150  203.4436  106.5915     7446.8972     7432.2186     7461.5758 -47.084431  75.505877   0.000295  -0.001949
1 62802U 25016T   25165.54259371  .00000100  00000-0  13586-3 0  9994 | 2 62802  88.9837 121.7801 0019881 152.1146 208.1075 13.50951665 22761 | 2025/06/14-13:01:20  336.4124    0.1150  208.0004  106.5915     7446.8962     7432.0910     7461.7014 -46.864207  75.642878   0.000135  -0.001984
1 62802U 25016T   25166.57951868  .00000100  00000-0  13660-3 0  9991 | 2 62802  88.9837 121.6738 0019986 149.2395 210.9931 13.50951826 22905 | 2025/06/15-13:54:30  350.8232    0.1149  210.8754  106.5915     7446.8956     7432.0122     7461.7790 -46.723787  75.729694   0.000032  -0.001998
1 62802U 25016T   25167.83864156  .00000110  00000-0  15128-3 0  9996 | 2 62802  88.9838 121.5448 0020113 145.7555 214.4898 13.50952100 23072 | 2025/06/16-20:07:38   85.4648    0.1151  214.3596  106.5915     7446.8946     7431.9167     7461.8725 -46.553218  75.834785  -0.000095  -0.002009
1 62802U 25016T   25168.87556604  .00000100  00000-0  13652-3 0  9996 | 2 62802  88.9838 121.4386 0020220 142.8991 217.3562 13.50952281 23219 | 2025/06/17-21:00:48   99.8759    0.1150  217.2159  106.5915     7446.8939     7431.8363     7461.9516 -46.412575  75.920943  -0.000200  -0.002012
1 62802U 25016T   25170.57908439  .00000094  00000-0  12620-3 0  9999 | 2 62802  88.9840 121.2641 0020392 138.2447 222.0265 13.50952551 23447 | 2025/06/19-13:53:52  354.9801    0.1151  221.8704  106.5915     7446.8929     7431.7072     7462.0787 -46.181239  76.062115  -0.000371  -0.002005
1 62802U 25016T   25171.83820625  .00000086  00000-0  11346-3 0  9994 | 2 62802  88.9841 121.1351 0020511 134.8184 225.4638 13.50952763 23613 | 2025/06/20-20:07:01   89.6230    0.1150  225.2966  106.5914     7446.8922     7431.6179     7462.1665 -46.009922  76.165984  -0.000498  -0.001990
1 62802U 25016T   25172.87512996  .00000084  00000-0  11078-3 0  9998 | 2 62802  88.9841 121.0289 0020604 132.0112 228.2798 13.50952923 23757 | 2025/06/21-21:00:11  104.0350    0.1151  228.1039  106.5914     7446.8916     7431.5480     7462.2352 -45.868666  76.251134  -0.000601  -0.001971
1 62802U 25016T   25174.50458112  .00000077  00000-0  99538-4 0  9999 | 2 62802  88.9842 120.8620 0020743 127.6294 232.6743 13.50953123 23975 | 2025/06/23-12:06:35  332.3977    0.1150  232.4856  106.5914     7446.8908     7431.4438     7462.3379 -45.646407  76.384510  -0.000761  -0.001930
1 62802U 25016T   25175.54150434  .00000082  00000-0  10822-3 0  9994 | 2 62802  88.9842 120.7558 0020832 124.8615 235.4499 13.50953292 24112 | 2025/06/24-12:59:45  346.8106    0.1151  235.2536  106.5914     7446.8902     7431.3769     7462.4036 -45.504747  76.468986  -0.000860  -0.001897
1 62802U 25016T   25176.57842739  .00000086  00000-0  11341-3 0  9995 | 2 62802  88.9842 120.6496 0020913 122.0926 238.2259 13.50953428 24258 | 2025/06/25-13:52:56    1.2240    0.1151  238.0225  106.5914     7446.8897     7431.3160     7462.4634 -45.362931  76.553199  -0.000958  -0.001859
1 62802U 25016T   25177.83754785  .00000096  00000-0  12977-3 0  9995 | 2 62802  88.9842 120.5206 0021006 118.7432 241.5833 13.50953675 24422 | 2025/06/26-20:06:04   95.8695    0.1151  241.3719  106.5914     7446.8888     7431.2459     7462.5318 -45.190459  76.655139  -0.001074  -0.001806
1 62802U 25016T   25178.87447041  .00000092  00000-0  12371-3 0  9998 | 2 62802  88.9842 120.4144 0021081 115.9906 244.3420 13.50953804 24562 | 2025/06/27-20:59:14  110.2837    0.1151  244.1245  106.5914     7446.8883     7431.1896     7462.5871 -45.048298  76.738769  -0.001166  -0.001756
1 62802U 25016T   25179.91139264  .00000098  00000-0  13307-3 0  9995 | 2 62802  88.9842 120.3082 0021146 113.2512 247.0869 13.50953999 24706 | 2025/06/28-21:52:24  124.6985    0.1151  246.8639  106.5913     7446.8876     7431.1404     7462.6348 -44.905982  76.822136  -0.001256  -0.001701
1 62802U 25016T   25181.54084140  .00000103  00000-0  14009-3 0  9996 | 2 62802  88.9843 120.1413 0021246 108.9581 251.3875 13.50954283 24927 | 2025/06/30-12:58:48  353.0655    0.1151  251.1570  106.5913     7446.8866     7431.0649     7462.7082 -44.682063  76.952706  -0.001391  -0.001606
1 62802U 25016T   25182.57776290  .00000114  00000-0  15710-3 0  9996 | 2 62802  88.9843 120.0351 0021305 106.2392 254.1105 13.50954548 25061 | 2025/07/01-13:51:58    7.4814    0.1151  253.8759  106.5913     7446.8856     7431.0200     7462.7512 -44.539351  77.035394  -0.001473  -0.001540
1 62802U 25016T   25183.83688149  .00000120  00000-0  16602-3 0  9999 | 2 62802  88.9843 119.9061 0021364 102.9391 257.4147 13.50954856 25236 | 2025/07/02-20:05:06  102.1300    0.1150  257.1759  106.5913     7446.8845     7430.9750     7462.7940 -44.365795  77.135477  -0.001566  -0.001453
1 62802U 25016T   25184.87380229  .00000127  00000-0  17801-3 0  9991 | 2 62802  88.9844 119.7999 0021406 100.2281 260.1286 13.50955130 25377 | 2025/07/03-20:58:16  116.5468    0.1151  259.8870  106.5913     7446.8835     7430.9427     7462.8243 -44.222795  77.217665  -0.001639  -0.001377
1 62802U 25016T   25185.91072284  .00000121  00000-0  16796-3 0  9992 | 2 62802  88.9844 119.6937 0021447  97.5218 262.8371 13.50955352 25517 | 2025/07/04-21:51:26  130.9643    0.1151  262.5933  106.5912     7446.8827     7430.9113     7462.8540 -44.079593  77.299501  -0.001708  -0.001297
1 62802U 25016T   25187.54016873  .00000123  00000-0  17100-3 0  9997 | 2 62802  88.9845 119.5268 0021504  93.2810 267.0802 13.50955744 25734 | 2025/07/06-12:57:50  359.3354    0.1151  266.8341  106.5912     7446.8812     7430.8674     7462.8950 -43.854286  77.427662  -0.001807  -0.001165
1 62802U 25016T   25188.57708849  .00000111  00000-0  15231-3 0  9992 | 2 62802  88.9845 119.4206 0021534  90.5870 269.7749 13.50955943 25879 | 2025/07/07-13:51:00   13.7541    0.1151  269.5281  106.5912     7446.8805     7430.8444     7462.9166 -43.710695  77.508815  -0.001865  -0.001077
1 62802U 25016T   25189.83620491  .00000120  00000-0  16634-3 0  9996 | 2 62802  88.9844 119.2916 0021560  87.3157 273.0462 13.50956259 26046 | 2025/07/08-20:04:08  108.4060    0.1152  272.7995  106.5912     7446.8793     7430.8239     7462.9348 -43.536027  77.606945  -0.001928  -0.000966
1 62802U 25016T   25190.87312392  .00000126  00000-0  17613-3 0  9994 | 2 62802  88.9844 119.1854 0021564  84.6006 275.7604 13.50956514 26189 | 2025/07/09-20:57:17  122.8260    0.1151  275.5145  106.5911     7446.8784     7430.8199     7462.9368 -43.392104  77.687507  -0.001973  -0.000870
