# SPACE DATA - HISTORICAL TLEs
# ----------------------------
# NORAD_ID    : 60396
# OBJECT_NAME : QIANFAN-18
# --------------------------------------------------------------------+-----------------------------------------------------------------------+----------------------------------------------------------------------------------------------------------------------------------------
#                  LINE 1                                             |                 LINE 2                                                |      DERIVED PARAMETERS
# --------------------------------------------------------------------+-----------------------------------------------------------------------+----------------------------------------------------------------------------------------------------------------------------------------
# NORAD  COSPAR     TLE_EPOCH      MEANMOT1 MEANMOT2   BSTAR  #  REV  |   NORAD    INC     RAAN     ECC    ARGPER  MEANANOM   MEANMOT     REV |  CAL_DATE              LONG     ARGLAT     PERIOD        SMA         PERIGEE        APOGEE      INC_X      INC_Y      ECC_X      ECC_Y
# ------ ------   -------------- ----------  -------  ------- -- ----     -----  ------- -------- ------- -------- -------- -----------  ----   ------------------- ---------  --------  --------  ------------  ------------   ----------- ---------- ----------  ---------  ---------   
1 63165U 25046G   25083.78081899  .00000814  00000-0  63674-3 0  9998 | 2 63165  88.9906 347.3313 0013947 170.1176 190.0275 13.91139152 11768 | 2025/03/24-18:44:22  116.1110    0.1173  189.9997  103.5123     7302.7785     7292.5933     7312.9636  86.824079 -19.516818  -0.001288   0.000535
1 63165U 25046G   25097.59611216  .00000319  00000-0  32153-3 0  9992 | 2 63165  88.9890 345.8413 0015505 127.6349 232.6225 13.74880472 13674 | 2025/04/07-14:18:24   64.6112    0.1164  232.4815  104.7364     7360.2384     7348.8263     7371.6504  86.285685 -21.767468  -0.000618   0.001422
1 63165U 25046G   25098.61500302  .00000256  00000-0  25484-3 0  9998 | 2 63165  88.9888 345.7329 0015574 124.7671 235.4962 13.74881441 13810 | 2025/04/08-14:45:36   72.5187    0.1164  235.3493  104.7363     7360.2349     7348.7721     7371.6977  86.244154 -21.930627  -0.000545   0.001459
1 63165U 25046G   25099.63389343  .00000267  00000-0  26708-3 0  9993 | 2 63165  88.9887 345.6244 0015652 122.0321 238.2366 13.74882058 13953 | 2025/04/09-15:12:48   80.4266    0.1164  238.0843  104.7363     7360.2327     7348.7125     7371.7529  86.202373 -22.093882  -0.000475   0.001491
1 63165U 25046G   25100.72564194  .00000286  00000-0  28988-3 0  9998 | 2 63165  88.9883 345.5066 0015926 119.0772 241.1989 13.74158218 14117 | 2025/04/10-17:24:55  114.6426    0.1163  241.0391  104.7914     7362.8171     7351.0911     7374.5432  86.156379 -22.270967  -0.000401   0.001541
1 63165U 25046G   25101.89070089  .00000148  00000-0  14341-3 0  9997 | 2 63165  88.9884 345.3842 0015932 115.9750 244.3057 13.74158040 14277 | 2025/04/11-21:22:36  175.3299    0.1163  244.1413  104.7914     7362.8178     7351.0873     7374.5482  86.108702 -22.454995  -0.000314   0.001562
1 63165U 25046G   25103.20148146  .00000152  00000-0  14827-3 0  9998 | 2 63165  88.9883 345.2448 0016081 112.4105 247.8765 13.73919375 14458 | 2025/04/13-04:50:07  288.6360    0.1164  247.7059  104.8096     7363.6704     7351.8289     7375.5119  86.053718 -22.664405  -0.000214   0.001594
1 63165U 25046G   25104.22108428  .00000147  00000-0  14330-3 0  9993 | 2 63165  88.9879 345.1362 0016110 109.6829 250.6075 13.73919985 14599 | 2025/04/14-05:18:21  296.8032    0.1164  250.4335  104.8096     7363.6682     7351.8054     7375.5311  86.010218 -22.827370  -0.000135   0.001605
1 63165U 25046G   25105.38634423  .00000148  00000-0  14374-3 0  9999 | 2 63165  88.9876 345.0122 0016165 106.5964 253.6977 13.73920374 14740 | 2025/04/15-09:16:20  357.5656    0.1164  253.5200  104.8096     7363.6669     7351.7635     7375.5702  85.960323 -23.013383  -0.000045   0.001616
1 63165U 25046G   25106.47970581  .00000311  00000-0  32967-3 0  9998 | 2 63165  88.9868 344.8949 0016285 103.8439 256.4537 13.71827020 14908 | 2025/04/16-11:30:46   32.3673    0.1163  256.2724  104.9695     7371.1561     7359.1521     7383.1600  85.912256 -23.189110   0.000036   0.001628
1 63165U 25046G   25107.79377308  .00000260  00000-0  28403-3 0  9995 | 2 63165  88.9887 344.7570 0016638  99.5575 260.7467 13.69404452 15089 | 2025/04/17-19:03:01  146.8580    0.1161  260.5586  105.1552     7379.8469     7367.5683     7392.1255  85.858029 -23.396316   0.000165   0.001656
1 63165U 25046G   25108.81727491  .00000230  00000-0  25546-3 0  9993 | 2 63165  88.9872 344.6497 0016495  96.9082 263.3956 13.68031082 15227 | 2025/04/18-19:36:52  156.4351    0.1161  263.2079  105.2608     7384.7852     7372.6039     7396.9664  85.812617 -23.556668   0.000242   0.001632
1 63165U 25046G   25111.52829393  .00000227  00000-0  26777-3 0  9992 | 2 63165  88.9866 344.3643 0016713  89.3451 270.9622 13.64211314 15586 | 2025/04/21-12:40:44   55.3560    0.1158  270.7707  105.5555     7398.5636     7386.1984     7410.9288  85.693635 -23.983659   0.000469   0.001604
1 63165U 25046G   25113.07009372  .00000265  00000-0  32504-3 0  9998 | 2 63165  88.9866 344.2031 0016755  84.2666 276.0402 13.62384289 15802 | 2025/04/23-01:40:56  252.0853    0.1158  275.8492  105.6970     7405.1767     7392.7693     7417.5840  85.625819 -24.224661   0.000615   0.001559
1 63165U 25046G   25114.17176659  .00000182  00000-0  21791-3 0  9997 | 2 63165  88.9864 344.0879 0016760  81.5180 278.7876 13.62384568 15955 | 2025/04/24-04:07:20  289.8898    0.1157  278.5977  105.6970     7405.1756     7392.7646     7417.5867  85.576747 -24.396718   0.000692   0.001526
1 63165U 25046G   25115.19999449  .00000109  00000-0  12400-3 0  9996 | 2 63165  88.9862 343.9804 0016775  78.8920 281.4123 13.62384629 16096 | 2025/04/25-04:47:59  301.1741    0.1158  281.2238  105.6970     7405.1754     7392.7532     7417.5976  85.530630 -24.557181   0.000765   0.001493
1 63165U 25046G   25116.52200133  .00000097  00000-0  10940-3 0  9992 | 2 63165  88.9860 343.8421 0016770  75.5467 284.7550 13.62384826 16272 | 2025/04/26-12:31:40   58.5405    0.1158  284.5691  105.6970     7405.1747     7392.7562     7417.5932  85.470913 -24.763507   0.000854   0.001443
1 63165U 25046G   25117.55022864  .00000102  00000-0  11472-3 0  9997 | 2 63165  88.9858 343.7346 0016759  72.8958 287.4034 13.62384991 16412 | 2025/04/27-13:12:19   69.8258    0.1158  287.2200  105.6970     7405.1741     7392.7638     7417.5844  85.424108 -24.923770   0.000922   0.001400
1 63165U 25046G   25118.57845570  .00000100  00000-0  11323-3 0  9990 | 2 63165  88.9856 343.6271 0016745  70.3095 289.9868 13.62385148 16558 | 2025/04/28-13:52:58   81.1114    0.1158  289.8063  105.6970     7405.1735     7392.7736     7417.5735  85.377003 -25.083945   0.000986   0.001354
1 63165U 25046G   25121.66313561  .00000054  00000-0  53591-4 0  9996 | 2 63165  88.9851 343.3044 0016661  62.4154 297.8693 13.62385512 16978 | 2025/05/01-15:54:54  114.9709    0.1158  297.7004  105.6970     7405.1722     7392.8345     7417.5100  85.233894 -25.564259   0.001163   0.001193
1 63165U 25046G   25122.91169611  .00000056  00000-0  56053-4 0  9998 | 2 63165  88.9850 343.1737 0016615  59.2218 301.0573 13.62385659 17145 | 2025/05/02-21:52:50  205.8196    0.1158  300.8940  105.6969     7405.1717     7392.8680     7417.4754  85.175261 -25.758594   0.001227   0.001120
1 63165U 25046G   25123.93992233  .00000041  00000-0  37362-4 0  9991 | 2 63165  88.9849 343.0661 0016572  56.6119 303.6622 13.62385679 17270 | 2025/05/03-22:33:29  217.1071    0.1159  303.5040  105.6969     7405.1716     7392.8998     7417.4435  85.126641 -25.918477   0.001275   0.001058
1 63165U 25046G   25125.18848257  .00000034  00000-0  27192-4 0  9998 | 2 63165  88.9848 342.9353 0016508  53.4174 306.8499 13.62385721 17455 | 2025/05/05-04:31:24  307.9570    0.1157  306.6983  105.6969     7405.1715     7392.9470     7417.3959  85.067154 -26.112715   0.001330   0.000979
1 63165U 25046G   25126.95115570  .00000019  00000-0  80236-5 0  9991 | 2 63165  88.9846 342.7507 0016403  48.8606 311.3964 13.62385708 17682 | 2025/05/06-22:49:39  224.4516    0.1158  311.2552  105.6969     7405.1715     7393.0248     7417.3182  84.982390 -26.386595   0.001397   0.000860
1 63165U 25046G   25128.86071796  .00000033  00000-0  25825-4 0  9992 | 2 63165  88.9843 342.5507 0016267  43.9209 316.3238 13.62385768 17955 | 2025/05/08-20:39:26  193.9885    0.1158  316.1949  105.6969     7405.1713     7393.1253     7417.2173  84.889480 -26.682988   0.001456   0.000725
1 63165U 25046G   25129.96238800  .00000006  00000-0 -81759-5 0  9995 | 2 63165  88.9837 342.4350 0016105  40.7795 319.4564 13.62385777 18091 | 2025/05/09-23:05:50  231.8001    0.1158  319.3363  105.6969     7405.1713     7393.2452     7417.0973  84.834853 -26.854174   0.001480   0.000635
1 63165U 25046G   25131.43128175  .00000014  00000-0  16460-5 0  9998 | 2 63165  88.9836 342.2811 0015995  36.8675 323.3579 13.62385782 18309 | 2025/05/11-10:21:02   42.2140    0.1158  323.2483  105.6969     7405.1712     7393.3267     7417.0158  84.762319 -27.081918   0.001511   0.000525
1 63165U 25046G   25132.53344679  .00000143  00000-0  16965-3 0  9990 | 2 63165  88.9836 342.1660 0016164  33.9628 326.2561 13.61729315 18446 | 2025/05/12-12:48:09   80.2014    0.1158  326.1530  105.7479     7407.5510     7395.5774     7419.5246  84.707744 -27.252140   0.001553   0.000449
1 63165U 25046G   25133.56216753  .00000065  00000-0  69100-4 0  9998 | 2 63165  88.9835 342.0583 0016068  31.1708 329.0399 13.61729349 18582 | 2025/05/13-13:29:31   91.6707    0.1158  328.9450  105.7479     7407.5509     7395.6484     7419.4533  84.656273 -27.411288   0.001564   0.000368
1 63165U 25046G   25134.59088809  .00000058  00000-0  59600-4 0  9997 | 2 63165  88.9834 341.9506 0015970  28.3818 331.8206 13.61729477 18721 | 2025/05/14-14:10:52  103.1401    0.1158  331.7340  105.7479     7407.5504     7395.7206     7419.3803  84.604503 -27.570338   0.001571   0.000286
1 63165U 25046G   25136.50136908  .00000000  00000-0 -16780-4 0  9994 | 2 63165  88.9829 341.7503 0015703  22.9188 337.2667 13.61729370 18985 | 2025/05/16-12:01:58   73.0135    0.1158  337.1970  105.7479     7407.5508     7395.9187     7419.1829  84.507128 -27.865781   0.001565   0.000128
1 63165U 25046G   25137.53008976 -.00000011  00000-0 -29907-4 0  9999 | 2 63165  88.9828 341.6425 0015595  20.0959 340.0809 13.61729300 19120 | 2025/05/17-12:43:19   84.4834    0.1158  340.0199  105.7479     7407.5511     7395.9990     7419.1031  84.454455 -28.024697   0.001559   0.000047
1 63165U 25046G   25138.55881038  .00000007  00000-0 -66799-5 0  9995 | 2 63165  88.9826 341.5348 0015484  17.2543 342.9137 13.61729342 19261 | 2025/05/18-13:24:41   95.9533    0.1158  342.8615  105.7479     7407.5509     7396.0810     7419.0208  84.401438 -28.183335   0.001548  -0.000033
1 63165U 25046G   25139.58753113  .00000025  00000-0  16834-4 0  9994 | 2 63165  88.9829 341.4272 0015420  14.8056 345.3550 13.61729385 19400 | 2025/05/19-14:06:02  107.4217    0.1158  345.3102  105.7479     7407.5507     7396.1283     7418.9732  84.348646 -28.341885   0.001539  -0.000101
1 63165U 25046G   25141.42645601  .00000125  00000-0  15268-3 0  9992 | 2 63165  88.9827 341.2351 0015079   9.5603 350.5837 13.59368390 19669 | 2025/05/21-10:14:05   51.4559    0.1157  350.5554  105.9315     7416.1254     7404.9426     7427.3082  84.252959 -28.624463   0.001488  -0.000241
1 63165U 25046G   25142.53180268  .00000124  00000-0  15900-3 0  9990 | 2 63165  88.9820 341.1163 0013959  10.0798 350.0633 13.56292960 19800 | 2025/05/22-12:45:47   90.5899    0.1155  350.0357  106.1718     7427.3320     7416.9642     7437.6998  84.192764 -28.798869   0.001379  -0.000214
1 63165U 25046G   25143.86132761  .00000118  00000-0  15599-3 0  9999 | 2 63165  88.9825 340.9821 0014328   4.7228 355.4058 13.54119081 19981 | 2025/05/23-20:40:18  210.6780    0.1154  355.3926  106.3422     7435.2790     7424.6257     7445.9323  84.125552 -28.996152   0.001388  -0.000354
1 63165U 25046G   25144.89582483  .00000140  00000-0  18839-3 0  9998 | 2 63165  88.9824 340.8749 0014194   1.8080 358.3122 13.54119583 20122 | 2025/05/24-21:29:59  224.2322    0.1154  358.3074  106.3422     7435.2772     7424.7235     7445.8308  84.071059 -29.153466   0.001355  -0.000422
1 63165U 25046G   25147.92749321 -.00000035  00000-0 -70160-4 0  9992 | 2 63165  88.9820 340.5615 0014030 352.6469   7.4475 13.52793289 20531 | 2025/05/27-22:15:35  238.9602    0.1153    7.4684  106.4464     7440.1361     7429.6976     7450.5746  83.909959 -29.612752   0.001252  -0.000632
1 63165U 25046G   25149.03697012 -.00000035  00000-0 -70593-4 0  9995 | 2 63165  88.9816 340.4501 0014105 346.7034  13.3744 13.52708699 20697 | 2025/05/29-00:53:14  279.5935    0.1153   13.4119  106.4531     7440.4463     7429.9515     7450.9410  83.851848 -29.775708   0.001185  -0.000765
1 63165U 25046G   25150.07320355  .00000105  00000-0  14375-3 0  9995 | 2 63165  88.9808 340.3432 0013585 344.7807  15.2933 13.51438364 20832 | 2025/05/30-01:45:24  293.7696    0.1151   15.3344  106.5531     7445.1082     7434.9940     7455.2224  83.795394 -29.931834   0.001115  -0.000777
1 63165U 25046G   25151.55453519  .00000103  00000-0  14190-3 0  9991 | 2 63165  88.9821 340.1875 0013875 341.9190  18.1465 13.50771714 21024 | 2025/05/31-13:18:31  108.6732    0.1151   18.1961  106.6057     7447.5576     7437.2241     7457.8911  83.714969 -30.159876   0.001095  -0.000852
1 63165U 25046G   25152.59157559  .00000100  00000-0  13605-3 0  9998 | 2 63165  88.9822 340.0817 0013285 337.7894  22.2680 13.50941291 21168 | 2025/06/01-14:11:52  123.1438    0.1152   22.3258  106.5923     7446.9343     7437.0411     7456.8276  83.659228 -30.314443   0.000985  -0.000891
1 63165U 25046G   25154.22103224  .00000080  00000-0  10523-3 0  9993 | 2 63165  88.9822 339.9132 0013440 332.8208  27.2238 13.50947997 21391 | 2025/06/03-05:18:17  351.5356    0.1152   27.2944  106.5918     7446.9097     7436.9010     7456.9183  83.569715 -30.560343   0.000912  -0.000987
1 63165U 25046G   25155.55422041  .00000057  00000-0  70490-4 0  9995 | 2 63165  88.9822 339.7758 0013312 328.5396  31.4958 13.50948152 21571 | 2025/06/04-13:18:04  112.9440    0.1152   31.5756  106.5918     7446.9091     7436.9958     7456.8224  83.496189 -30.760662   0.000825  -0.001044
1 63165U 25046G   25156.66521037  .00000123  00000-0  17155-3 0  9995 | 2 63165  88.9822 339.6615 0013204 325.0270  35.0012 13.50948476 21722 | 2025/06/05-15:57:54  154.1169    0.1151   35.0881  106.5918     7446.9079     7437.0750     7456.7408  83.434658 -30.927169   0.000751  -0.001086
1 63165U 25046G   25157.85026619  .00000129  00000-0  18129-3 0  9991 | 2 63165  88.9821 339.5394 0013101 321.2461  38.7749 13.50948758 21887 | 2025/06/06-20:24:22  222.0343    0.1151   38.8690  106.5918     7446.9069     7437.1507     7456.6631  83.368468 -31.104866   0.000671  -0.001125
1 63165U 25046G   25158.88718986  .00000109  00000-0  15068-3 0  9997 | 2 63165  88.9821 339.4327 0013008 317.8441  42.1708 13.50948970 22024 | 2025/06/07-21:17:33  236.4617    0.1151   42.2710  106.5917     7446.9061     7437.2192     7456.5930  83.310398 -31.260067   0.000596  -0.001156
1 63165U 25046G   25160.88697103  .00000118  00000-0  16434-3 0  9995 | 2 63165  88.9820 339.2267 0012856 311.3544  48.6500 13.50949422 22289 | 2025/06/09-21:17:14  238.5705    0.1151   48.7607  106.5917     7446.9044     7437.3307     7456.4782  83.197374 -31.559361   0.000452  -0.001204
1 63165U 25046G   25161.92389440  .00000112  00000-0  15565-3 0  9991 | 2 63165  88.9821 339.1200 0012783 307.8829  52.1166 13.50949638 22424 | 2025/06/10-22:10:24  252.9966    0.1152   52.2323  106.5917     7446.9037     7437.3843     7456.4230  83.138551 -31.714277   0.000374  -0.001222
1 63165U 25046G   25163.18301552  .00000121  00000-0  16883-3 0  9993 | 2 63165  88.9821 338.9903 0012704 303.6537  56.3402 13.50949950 22600 | 2025/06/12-04:23:32  347.6565    0.1152   56.4615  106.5917     7446.9025     7437.4420     7456.3631  83.066547 -31.902396   0.000278  -0.001240
1 63165U 25046G   25164.51620256  .00000125  00000-0  17523-3 0  9992 | 2 63165  88.9822 338.8531 0012627 299.3541  60.6348 13.50950266 22785 | 2025/06/13-12:23:19  109.0601    0.1151   60.7610  106.5916     7446.9013     7437.4981     7456.3045  82.990009 -32.101251   0.000180  -0.001250
1 63165U 25046G   25165.55312566  .00000107  00000-0  14704-3 0  9997 | 2 63165  88.9823 338.7464 0012581 295.7781  64.2071 13.50950416 22910 | 2025/06/14-13:16:30  123.4849    0.1151   64.3370  106.5916     7446.9008     7437.5318     7456.2697  82.930177 -32.255781   0.000099  -0.001254
1 63165U 25046G   25166.59004871  .00000102  00000-0  14008-3 0  9991 | 2 63165  88.9824 338.6396 0012554 292.1809  67.8009 13.50950589 23053 | 2025/06/15-14:09:40  137.9094    0.1151   67.9342  106.5916     7446.9002     7437.5513     7456.2490  82.870001 -32.410344   0.000018  -0.001255
1 63165U 25046G   25167.84916941  .00000104  00000-0  14286-3 0  9990 | 2 63165  88.9825 338.5100 0012516 287.8407  72.1379 13.50950878 23228 | 2025/06/16-20:22:48  232.5667    0.1152   72.2745  106.5916     7446.8991     7437.5786     7456.2196  82.796572 -32.597745  -0.000080  -0.001249
1 63165U 25046G   25168.88609232  .00000125  00000-0  17545-3 0  9991 | 2 63165  88.9825 338.4032 0012489 284.2980  75.6784 13.50951145 23368 | 2025/06/17-21:15:58  246.9900    0.1151   75.8171  106.5916     7446.8981     7437.5977     7456.1985  82.735666 -32.752022  -0.000159  -0.001239
1 63165U 25046G   25170.51554240  .00000119  00000-0  16536-3 0  9994 | 2 63165  88.9826 338.2355 0012473 278.7116  81.2622 13.50951481 23599 | 2025/06/19-12:22:22  115.3684    0.1151   81.4035  106.5915     7446.8969     7437.6084     7456.1854  82.639542 -32.994079  -0.000282  -0.001215
1 63165U 25046G   25171.55246514  .00000125  00000-0  17456-3 0  9990 | 2 63165  88.9826 338.1287 0012464 275.1972  84.7756 13.50951681 23726 | 2025/06/20-13:15:32  129.7904    0.1151   84.9179  106.5915     7446.8961     7437.6143     7456.1780  82.577897 -33.148063  -0.000358  -0.001194
1 63165U 25046G   25172.58938776  .00000110  00000-0  15273-3 0  9991 | 2 63165  88.9827 338.0221 0012474 271.6372  88.3350 13.50951852 23865 | 2025/06/21-14:08:43  144.2118    0.1151   88.4779  106.5915     7446.8955     7437.6063     7456.1848  82.516174 -33.301681  -0.000434  -0.001170
1 63165U 25046G   25173.92257389  .00000102  00000-0  13924-3 0  9996 | 2 63165  88.9827 337.8849 0012500 267.0387  92.9333 13.50952094 24045 | 2025/06/22-22:08:30  265.6102    0.1150   93.0763  106.5915     7446.8946     7437.5860     7456.2032  82.436194 -33.499178  -0.000530  -0.001132
1 63165U 25046G   25175.55202347  .00000097  00000-0  13131-3 0  9994 | 2 63165  88.9828 337.7172 0012547 261.4698  98.5032 13.50952397 24277 | 2025/06/24-13:14:54  133.9849    0.1152   98.6454  106.5915     7446.8935     7437.5499     7456.2371  82.337884 -33.740356  -0.000643  -0.001078
1 63165U 25046G   25176.58894585  .00000088  00000-0  11863-3 0  9999 | 2 63165  88.9829 337.6106 0012586 257.9449 102.0292 13.50952567 24404 | 2025/06/25-14:08:04  148.4045    0.1151  102.1702  106.5915     7446.8929     7437.5202     7456.2656  82.275059 -33.893526  -0.000712  -0.001038
1 63165U 25046G   25177.92213179  .00000091  00000-0  12276-3 0  9995 | 2 63165  88.9830 337.4734 0012644 253.4302 106.5461 13.50952794 24583 | 2025/06/26-22:07:52  269.8004    0.1151  106.6849  106.5914     7446.8921     7437.4762     7456.3079  82.193755 -34.090483  -0.000797  -0.000981
1 63165U 25046G   25179.47751531  .00000083  00000-0  11027-3 0  9990 | 2 63165  88.9832 337.3135 0012724 248.2137 111.7660 13.50953010 24802 | 2025/06/28-11:27:37  111.4281    0.1150  111.9013  106.5914     7446.8913     7437.4158     7456.3667  82.098480 -34.319811  -0.000891  -0.000908
1 63165U 25046G   25180.51443758  .00000080  00000-0  10553-3 0  9996 | 2 63165  88.9833 337.2068 0012796 244.7527 115.2299 13.50953181 24941 | 2025/06/29-12:20:47  125.8459    0.1152  115.3625  106.5914     7446.8906     7437.3616     7456.4197  82.034517 -34.472680  -0.000952  -0.000856
1 63165U 25046G   25181.84762340  .00000093  00000-0  12639-3 0  9995 | 2 63165  88.9835 337.0698 0012892 240.3427 119.6441 13.50953414 25125 | 2025/06/30-20:20:34  247.2397    0.1151  119.7724  106.5914     7446.8898     7437.2892     7456.4903  81.952039 -34.668812  -0.001024  -0.000783
1 63165U 25046G   25182.88454560  .00000108  00000-0  14931-3 0  9996 | 2 63165  88.9836 336.9632 0012969 236.9373 123.0533 13.50953651 25267 | 2025/07/01-21:13:44  261.6565    0.1151  123.1778  106.5914     7446.8889     7437.2310     7456.5468  81.887488 -34.821264  -0.001076  -0.000723
1 63165U 25046G   25183.92146779  .00000102  00000-0  13995-3 0  9995 | 2 63165  88.9836 336.8566 0013054 233.5742 126.4207 13.50953796 25390 | 2025/07/02-22:06:54  276.0728    0.1152  126.5410  106.5914     7446.8884     7437.1672     7456.6095  81.822560 -34.973557  -0.001126  -0.000661
1 63165U 25046G   25185.47685083  .00000108  00000-0  14882-3 0  9995 | 2 63165  88.9837 336.6968 0013185 228.5519 131.4501 13.50954132 25619 | 2025/07/04-11:26:39  117.6965    0.1151  131.5632  106.5913     7446.8871     7437.0684     7456.7059  81.724791 -35.201667  -0.001193  -0.000562
1 63165U 25046G   25186.51377279  .00000115  00000-0  15909-3 0  9995 | 2 63165  88.9837 336.5902 0013280 225.2379 134.7693 13.50954333 25756 | 2025/07/05-12:19:49  132.1118    0.1151  134.8772  106.5913     7446.8864     7436.9969     7456.7759  81.659157 -35.353656  -0.001233  -0.000494
1 63165U 25046G   25187.55069459  .00000109  00000-0  15075-3 0  9995 | 2 63165  88.9838 336.4837 0013377 221.9543 138.0584 13.50954542 25888 | 2025/07/06-13:13:00  146.5267    0.1150  138.1607  106.5913     7446.8856     7436.9239     7456.8473  81.593393 -35.505421  -0.001269  -0.000423
1 63165U 25046G   25188.58761631  .00000111  00000-0  15294-3 0  9996 | 2 63165  88.9839 336.3771 0013478 218.7085 141.3102 13.50954759 26022 | 2025/07/07-14:06:10  160.9412    0.1151  141.4066  106.5913     7446.8848     7436.8479     7456.9217  81.527285 -35.657206  -0.001301  -0.000351
1 63165U 25046G   25189.92080116  .00000104  00000-0  14322-3 0  9990 | 2 63165  88.9841 336.2402 0013621 214.5873 145.4393 13.50955042 26207 | 2025/07/08-22:05:57  282.3308    0.1150  145.5277  106.5913     7446.8838     7436.7404     7457.0272  81.442037 -35.851982  -0.001338  -0.000256
1 63165U 25046G   25191.55024912  .00000087  00000-0  11562-3 0  9997 | 2 63165  88.9842 336.0728 0013801 209.6066 150.4305 13.50955331 26420 | 2025/07/10-13:12:21  150.6950    0.1150  150.5084  106.5912     7446.8827     7436.6053     7457.1602  81.337033 -36.089817  -0.001373  -0.000137
