# SPACE DATA - HISTORICAL TLEs
# ----------------------------
# NORAD_ID    : 60396
# OBJECT_NAME : QIANFAN-18
# --------------------------------------------------------------------+-----------------------------------------------------------------------+----------------------------------------------------------------------------------------------------------------------------------------
#                  LINE 1                                             |                 LINE 2                                                |      DERIVED PARAMETERS
# --------------------------------------------------------------------+-----------------------------------------------------------------------+----------------------------------------------------------------------------------------------------------------------------------------
# NORAD  COSPAR     TLE_EPOCH      MEANMOT1 MEANMOT2   BSTAR  #  REV  |   NORAD    INC     RAAN     ECC    ARGPER  MEANANOM   MEANMOT     REV |  CAL_DATE              LONG     ARGLAT     PERIOD        SMA         PERIGEE        APOGEE      INC_X      INC_Y      ECC_X      ECC_Y
# ------ ------   -------------- ----------  -------  ------- -- ----     -----  ------- -------- ------- -------- -------- -----------  ----   ------------------- ---------  --------  --------  ------------  ------------   ----------- ---------- ----------  ---------  ---------   
1 63162U 25046D   25083.86016004 -.00127202  00000-0 -10710+0 0  9992 | 2 63162  88.9889 347.3256 0013722 172.7791 187.3582 13.88813813 11773 | 2025/03/24-20:38:37  144.7655    0.1172  187.3381  103.6856     7310.9277     7300.8957     7320.9598  86.820479 -19.525082  -0.001290   0.000467
1 63162U 25046D   25091.51989704  .00000453  00000-0  40922-3 0  9997 | 2 63162  88.9893 346.4961 0013651 146.1740 214.0302 13.81991242 12833 | 2025/04/01-12:28:39   30.5832    0.1168  213.9428  104.1975     7334.9695     7324.9566     7344.9825  86.529104 -20.780029  -0.000925   0.001004
1 63162U 25046D   25097.45700153  .00000367  00000-0  32937-3 0  9996 | 2 63162  88.9886 345.8565 0014290 129.4664 230.7771 13.81995231 13655 | 2025/04/07-10:58:04   14.3930    0.1168  230.6504  104.1972     7334.9554     7324.4738     7345.4371  86.291069 -21.744479  -0.000611   0.001292
1 63162U 25046D   25098.54364463  .00000340  00000-0  30921-3 0  9999 | 2 63162  88.9887 345.7396 0014432 126.3662 233.8841 13.81136078 13804 | 2025/04/08-13:02:50   46.7657    0.1168  233.7506  104.2620     7337.9970     7327.4068     7348.5872  86.246621 -21.920517  -0.000543   0.001337
1 63162U 25046D   25100.79061963  .00000338  00000-0  31606-3 0  9997 | 2 63162  88.9882 345.4969 0014335 117.7394 242.5229 13.79466224 14118 | 2025/04/10-18:58:29  138.1221    0.1167  242.3773  104.3882     7343.9176     7333.3901     7354.4451  86.152510 -22.285527  -0.000328   0.001395
1 63162U 25046D   25101.87875781  .00000335  00000-0  31551-3 0  9994 | 2 63162  88.9883 345.3810 0014572 115.1817 245.0863 13.78943394 14263 | 2025/04/11-21:05:24  171.0346    0.1167  244.9350  104.4278     7345.7738     7335.0695     7356.4780  86.107351 -22.459779  -0.000267   0.001433
1 63162U 25046D   25102.89564498  .00000324  00000-0  31674-3 0  9991 | 2 63162  88.9879 345.2707 0014526 111.2078 249.0641 13.76642899 14405 | 2025/04/12-21:29:43  178.2226    0.1165  248.9087  104.6023     7353.9551     7343.2728     7364.6375  86.063567 -22.625401  -0.000164   0.001443
1 63162U 25046D   25104.56914761  .00000306  00000-0  31048-3 0  9994 | 2 63162  88.9876 345.0937 0014978 106.9321 253.3487 13.74291658 14630 | 2025/04/14-13:39:34   62.5012    0.1165  253.1844  104.7813     7362.3405     7351.3132     7373.3678  85.992972 -22.891086  -0.000053   0.001497
1 63162U 25046D   25105.66191839  .00000272  00000-0  28388-3 0  9994 | 2 63162  88.9872 344.9760 0015379 103.5204 256.7673 13.72223222 14787 | 2025/04/15-15:53:09   97.0865    0.1162  256.5958  104.9392     7369.7371     7358.4032     7381.0711  85.945380 -23.067585   0.000040   0.001537
1 63162U 25046D   25106.82970357  .00000365  00000-0  40333-3 0  9990 | 2 63162  88.9876 344.8530 0015310 100.0138 260.2752 13.69686197 14944 | 2025/04/16-19:54:46  158.7619    0.1161  260.1023  105.1336     7378.8348     7367.5378     7390.1318  85.896047 -23.252140   0.000137   0.001525
1 63162U 25046D   25107.85282338  .00000237  00000-0  25898-3 0  9996 | 2 63162  88.9870 344.7454 0015371  97.8295 262.4612 13.69107485 15089 | 2025/04/17-20:28:03  168.1994    0.1161  262.2866  105.1780     7380.9140     7369.5688     7392.2592  85.851650 -23.413251   0.000199   0.001524
1 63162U 25046D   25109.09648511  .00000211  00000-0  23669-3 0  9999 | 2 63162  88.9927 344.6148 0015088  85.7585 274.5299 13.67002531 15252 | 2025/04/19-02:18:56  257.2763    0.1160  274.3575  105.3400     7388.4890     7377.3412     7399.6367  85.803555 -23.610393   0.000507   0.001421
1 63162U 25046D   25110.12261638  .00000208  00000-0  24527-3 0  9996 | 2 63162  88.9921 344.5250 0018747  84.2990 276.0305 13.63982433 15392 | 2025/04/20-02:56:34  267.7437    0.1158  275.8168  105.5732     7399.3912     7385.5196     7413.2629  85.765866 -23.744684   0.000677   0.001748
1 63162U 25046D   25111.51678256  .00000119  00000-0  13505-3 0  9993 | 2 63162  88.9865 344.3609 0015678  87.6910 272.6043 13.63617591 15586 | 2025/04/21-12:24:10   51.2160    0.1158  272.4248  105.6015     7400.7110     7389.1082     7412.3138  85.692115 -23.988718   0.000483   0.001492
1 63162U 25046D   25112.54408113  .00000264  00000-0  31744-3 0  9996 | 2 63162  88.9863 344.2534 0015690  85.0485 275.2464 13.63618313 15728 | 2025/04/22-13:03:28   62.1639    0.1158  275.0673  105.6014     7400.7084     7389.0967     7412.3201  85.646764 -24.149399   0.000555   0.001468
1 63162U 25046D   25115.18711019  .00000238  00000-0  29403-3 0  9991 | 2 63162  88.9862 343.9767 0015920  78.0412 282.2529 13.61597867 16087 | 2025/04/25-04:29:26  296.5370    0.1158  282.0746  105.7581     7408.0277     7396.2342     7419.8213  85.529044 -24.562704   0.000747   0.001406
1 63162U 25046D   25116.43639194  .00000248  00000-0  30796-3 0  9991 | 2 63162  88.9858 343.8463 0015794  75.1921 285.0984 13.61598829 16250 | 2025/04/26-10:28:24   27.6437    0.1157  284.9236  105.7580     7408.0242     7396.3240     7419.7245  85.472536 -24.757186   0.000813   0.001354
1 63162U 25046D   25117.53969662  .00000220  00000-0  27988-3 0  9998 | 2 63162  88.9856 343.7313 0016011  71.2122 289.0769 13.59631324 16401 | 2025/04/27-12:57:09   66.0373    0.1156  288.9034  105.9111     7415.1692     7403.2968     7427.0417  85.422481 -24.928634   0.000920   0.001311
1 63162U 25046D   25118.57000440  .00000121  00000-0  14628-3 0  9990 | 2 63162  88.9854 343.6240 0015989  68.5798 291.7062 13.59631504 16549 | 2025/04/28-13:40:48   78.0740    0.1156  291.5358  105.9110     7415.1686     7403.3125     7427.0247  85.375454 -25.088508   0.000980   0.001263
1 63162U 25046D   25121.80932850  .00000169  00000-0  21712-3 0  9993 | 2 63162  88.9851 343.2869 0015693  59.2835 300.9864 13.57759078 16986 | 2025/05/01-19:25:25  167.7767    0.1156  300.8321  106.0571     7421.9843     7410.3370     7433.6316  85.226082 -25.590291   0.001156   0.001062
1 63162U 25046D   25122.91475011  .00000170  00000-0  21900-3 0  9998 | 2 63162  88.9848 343.1722 0015658  56.4609 303.8039 13.57759596 17137 | 2025/05/02-21:57:14  206.9379    0.1155  303.6546  106.0571     7421.9824     7410.3611     7433.6038  85.174395 -25.760766   0.001206   0.000999
1 63162U 25046D   25123.94647678  .00000163  00000-0  20951-3 0  9999 | 2 63162  88.9847 343.0649 0015627  53.9498 306.3102 13.57759740 17272 | 2025/05/03-22:42:55  219.4885    0.1155  306.1657  106.0571     7421.9819     7410.3836     7433.5802  85.125907 -25.920201   0.001248   0.000941
1 63162U 25046D   25125.49513047  .00000154  00000-0  20487-3 0  9997 | 2 63162  88.9849 342.9007 0015548  52.6553 307.6014 13.55121454 17482 | 2025/05/05-11:52:59   58.6977    0.1154  307.4601  106.2635     7431.6120     7420.0573     7443.1667  85.051466 -26.164110   0.001265   0.000904
1 63162U 25046D   25126.82564924  .00000146  00000-0  20228-3 0  9999 | 2 63162  88.9846 342.7673 0015868  46.3090 313.9374 13.52556269 17669 | 2025/05/06-19:48:56  179.1396    0.1153  313.8063  106.4651     7441.0053     7429.1979     7452.8127  84.990031 -26.361973   0.001387   0.000771
1 63162U 25046D   25127.86134117  .00000143  00000-0  19710-3 0  9992 | 2 63162  88.9842 342.6601 0015761  43.7934 316.4464 13.52556708 17807 | 2025/05/07-20:40:19  193.1233    0.1152  316.3218  106.4650     7441.0037     7429.2759     7452.7315  84.940178 -26.520823   0.001411   0.000702
1 63162U 25046D   25128.97101108  .00000145  00000-0  20122-3 0  9990 | 2 63162  88.9840 342.5459 0015663  40.9529 319.2796 13.52556880 17951 | 2025/05/08-23:18:15  233.8197    0.1152  319.1623  106.4650     7441.0031     7429.3482     7452.6579  84.886958 -26.690010   0.001436   0.000625
1 63162U 25046D   25130.15465903 -.00000019  00000-0 -46903-4 0  9997 | 2 63162  88.9834 342.4236 0015500  37.6492 322.5742 13.52556456 18114 | 2025/05/10-03:42:42  301.2311    0.1153  322.4661  106.4651     7441.0046     7429.4711     7452.5382  84.829222 -26.870962   0.001456   0.000532
1 63162U 25046D   25131.41292995  .00000125  00000-0  17490-3 0  9990 | 2 63162  88.9830 342.2916 0014878  35.7392 324.4752 13.50866266 18289 | 2025/05/11-09:54:37   35.5898    0.1152  324.3760  106.5983     7447.2101     7436.1301     7458.2900  84.766709 -27.066202   0.001415   0.000461
1 63162U 25046D   25132.59824157  .00000124  00000-0  17296-3 0  9994 | 2 63162  88.9835 342.1728 0014951  34.4807 325.7311 13.51048770 18449 | 2025/05/12-14:21:28  103.5917    0.1152  325.6345  106.5839     7446.5394     7435.4061     7457.6727  84.710883 -27.242056   0.001432   0.000428
1 63162U 25046D   25133.85718272  .00000121  00000-0  16759-3 0  9994 | 2 63162  88.9832 342.0432 0014781  29.2680 330.9296 13.51138011 18616 | 2025/05/13-20:34:20  198.1952    0.1152  330.8472  106.5768     7446.2115     7435.2052     7457.2177  84.648761 -27.433505   0.001449   0.000290
1 63162U 25046D   25134.89396087  .00000163  00000-0  23342-3 0  9997 | 2 63162  88.9831 341.9366 0014687  26.5438 333.6462 13.51138400 18757 | 2025/05/14-21:27:18  212.5714    0.1152  333.5714  106.5768     7446.2101     7435.2738     7457.1463  84.597478 -27.590917   0.001453   0.000217
1 63162U 25046D   25136.52336875  .00000136  00000-0  19129-3 0  9996 | 2 63162  88.9829 341.7690 0014393  23.7361 336.4451 13.50947346 18979 | 2025/05/16-12:33:39   80.9407    0.1152  336.3791  106.5919     7446.9121     7436.1937     7457.6304  84.516219 -27.838199   0.001433   0.000138
1 63162U 25046D   25137.56029323  .00000147  00000-0  20843-3 0  9995 | 2 63162  88.9828 341.6623 0014301  20.9528 339.2206 13.50947621 19118 | 2025/05/17-13:26:49   95.3700    0.1152  339.1624  106.5918     7446.9111     7436.2612     7457.5609  84.464135 -27.995510   0.001429   0.000065
1 63162U 25046D   25138.59721759  .00000106  00000-0  14497-3 0  9994 | 2 63162  88.9828 341.5556 0014166  18.2507 341.9149 13.50947729 19258 | 2025/05/18-14:19:59  109.7993    0.1151  341.8644  106.5918     7446.9107     7436.3614     7457.4600  84.411853 -28.152757   0.001417  -0.000005
1 63162U 25046D   25139.85633977  .00000109  00000-0  14997-3 0  9996 | 2 63162  88.9827 341.4261 0014042  14.7824 345.3735 13.50947926 19422 | 2025/05/19-20:33:07  204.4636    0.1152  345.3328  106.5918     7446.9099     7436.4530     7457.3669  84.347912 -28.343440   0.001401  -0.000093
1 63162U 25046D   25141.18952778  .00000096  00000-0  13059-3 0  9991 | 2 63162  88.9825 341.2889 0013895  11.1160 349.0295 13.50948107 19607 | 2025/05/21-04:32:55  325.8729    0.1151  348.9991  106.5918     7446.9093     7436.5618     7457.2568  84.279610 -28.545274   0.001377  -0.000184
1 63162U 25046D   25142.52271548  .00000113  00000-0  15656-3 0  9994 | 2 63162  88.9824 341.1516 0013732   7.4246 352.7106 13.50948422 19786 | 2025/05/22-12:32:42   87.2821    0.1152  352.6906  106.5918     7446.9081     7436.6820     7457.1342  84.210869 -28.747121   0.001346  -0.000272
1 63162U 25046D   25143.55963906  .00000108  00000-0  14887-3 0  9993 | 2 63162  88.9823 341.0449 0013606   4.5114 355.6157 13.50948609 19922 | 2025/05/23-13:25:52  101.7115    0.1152  355.6038  106.5918     7446.9074     7436.7752     7457.0397  84.157094 -28.903862   0.001318  -0.000339
1 63162U 25046D   25144.89282635  .00000107  00000-0  14779-3 0  9993 | 2 63162  88.9822 340.9076 0013445   0.7157 359.4011 13.50948834 20104 | 2025/05/24-21:25:40  223.1205    0.1152  359.3995  106.5917     7446.9066     7436.8942     7456.9190  84.087495 -29.105415   0.001276  -0.000424
1 63162U 25046D   25145.92974962  .00000100  00000-0  13696-3 0  9999 | 2 63162  88.9821 340.8008 0013320 357.7436   2.3653 13.50949015 20247 | 2025/05/25-22:18:50  237.5497    0.1152    2.3716  106.5917     7446.9059     7436.9867     7456.8252  84.033001 -29.262072   0.001240  -0.000487
1 63162U 25046D   25147.92952980  .00000105  00000-0  14351-3 0  9991 | 2 63162  88.9820 340.5949 0013095 351.9290   8.1649 13.50949423 20512 | 2025/05/27-22:18:31  239.6625    0.1152    8.1862  106.5917     7446.9044     7437.1527     7456.6562  83.927207 -29.563832   0.001162  -0.000604
1 63162U 25046D   25149.18865038  .00000105  00000-0  14492-3 0  9994 | 2 63162  88.9819 340.4653 0012948 348.2273  11.8574 13.50949701 20682 | 2025/05/29-04:31:39  334.3258    0.1152   11.8879  106.5917     7446.9034     7437.2612     7456.5457  83.860027 -29.753562   0.001106  -0.000673
1 63162U 25046D   25150.22557313  .00000086  00000-0  11408-3 0  9997 | 2 63162  88.9819 340.3585 0012828 345.1312  14.9460 13.50949835 20824 | 2025/05/30-05:24:49  348.7543    0.1152   14.9840  106.5917     7446.9029     7437.3500     7456.4558  83.804420 -29.909826   0.001057  -0.000727
1 63162U 25046D   25151.55875938  .00000096  00000-0  12950-3 0  9994 | 2 63162  88.9819 340.2212 0012690 341.1213  18.9465 13.50950076 21002 | 2025/05/31-13:24:36  110.1621    0.1151   18.9938  106.5917     7446.9020     7437.4519     7456.3522  83.732505 -30.110564   0.000991  -0.000793
1 63162U 25046D   25152.59568150  .00000154  00000-0  22033-3 0  9992 | 2 63162  88.9819 340.1144 0012575 337.9078  22.1529 13.50950694 21148 | 2025/06/01-14:17:46  124.5900    0.1151   22.2073  106.5916     7446.8998     7437.5353     7456.2643  83.676234 -30.266590   0.000935  -0.000841
1 63162U 25046D   25154.22513119  .00000109  00000-0  15039-3 0  9997 | 2 63162  88.9819 339.9466 0012395 332.8406  27.2095 13.50950656 21366 | 2025/06/03-05:24:11  352.9763    0.1151   27.2745  106.5916     7446.8999     7437.6695     7456.1303  83.587234 -30.511519   0.000842  -0.000910
1 63162U 25046D   25155.48425100  .00000094  00000-0  12758-3 0  9996 | 2 63162  88.9819 339.8169 0012263 328.7779  31.2642 13.50950835 21537 | 2025/06/04-11:37:19   87.6382    0.1151   31.3372  106.5916     7446.8993     7437.7671     7456.0314  83.517951 -30.700657   0.000765  -0.000958
1 63162U 25046D   25156.52117311  .00000111  00000-0  15390-3 0  9999 | 2 63162  88.9819 339.7101 0012166 325.4724  34.5636 13.50951066 21679 | 2025/06/05-12:30:29  102.0651    0.1152   34.6428  106.5916     7446.8984     7437.8385     7455.9583  83.460580 -30.856282   0.000701  -0.000994
1 63162U 25046D   25157.55809510  .00000104  00000-0  14245-3 0  9992 | 2 63162  88.9819 339.6033 0012069 322.0960  37.9341 13.50951244 21813 | 2025/06/06-13:23:39  116.4918    0.1152   38.0192  106.5916     7446.8978     7437.9101     7455.8854  83.402919 -31.011799   0.000634  -0.001027
1 63162U 25046D   25158.89128030  .00000110  00000-0  15207-3 0  9997 | 2 63162  88.9818 339.4659 0011948 317.6804  42.3424 13.50951554 21991 | 2025/06/07-21:23:26  237.8972    0.1151   42.4347  106.5915     7446.8966     7437.9991     7455.7942  83.328216 -31.211682   0.000545  -0.001063
1 63162U 25046D   25160.89105807  .00000081  00000-0  10717-3 0  9995 | 2 63162  88.9818 339.2600 0011803 311.2055  48.8077 13.50951789 22269 | 2025/06/09-21:23:07  240.0038    0.1151   48.9096  106.5915     7446.8958     7438.1062     7455.6853  83.215515 -31.510931   0.000413  -0.001106
1 63162U 25046D   25161.92797960  .00000091  00000-0  12326-3 0  9996 | 2 63162  88.9818 339.1532 0011729 307.6251  52.3835 13.50952045 22400 | 2025/06/10-22:16:17  254.4290    0.1152   52.4901  106.5915     7446.8948     7438.1603     7455.6293  83.156634 -31.665991   0.000339  -0.001123
1 63162U 25046D   25163.18709845  .00000135  00000-0  19140-3 0  9991 | 2 63162  88.9819 339.0235 0011648 303.3726  56.6310 13.50952478 22573 | 2025/06/12-04:29:25  349.0875    0.1152   56.7426  106.5915     7446.8932     7438.2191     7455.5674  83.084832 -31.854186   0.000250  -0.001138
1 63162U 25046D   25164.52028297  .00000153  00000-0  21887-3 0  9996 | 2 63162  88.9820 338.8862 0011575 299.0255  60.9736 13.50952935 22753 | 2025/06/13-12:29:12  110.4898    0.1152   61.0897  106.5914     7446.8915     7438.2718     7455.5113  83.008354 -32.053230   0.000159  -0.001146
1 63162U 25046D   25165.55720415  .00000124  00000-0  17426-3 0  9993 | 2 63162  88.9821 338.7795 0011532 295.4360  64.5598 13.50953072 22892 | 2025/06/14-13:22:22  124.9134    0.1152   64.6792  106.5914     7446.8910     7438.3033     7455.4788  82.948611 -32.207794   0.000085  -0.001150
1 63162U 25046D   25166.81632251  .00000123  00000-0  17152-3 0  9998 | 2 63162  88.9821 338.6498 0011497 290.9667  69.0254 13.50953380 23062 | 2025/06/15-19:35:30  219.5705    0.1152   69.1485  106.5914     7446.8899     7438.3282     7455.4516  82.875490 -32.395482  -0.000008  -0.001150
1 63162U 25046D   25167.85324335  .00000138  00000-0  19538-3 0  9990 | 2 63162  88.9822 338.5431 0011464 287.3602  72.6295 13.50953694 23201 | 2025/06/16-20:28:40  233.9931    0.1151   72.7549  106.5914     7446.8887     7438.3516     7455.4259  82.815111 -32.549798  -0.000082  -0.001143
1 63162U 25046D   25168.89016416  .00000153  00000-0  21939-3 0  9998 | 2 63162  88.9822 338.4363 0011442 283.7587  76.2290 13.50954004 23348 | 2025/06/17-21:21:50  248.4155    0.1151   76.3564  106.5913     7446.8876     7438.3669     7455.4083  82.754294 -32.704110  -0.000155  -0.001134
1 63162U 25046D   25170.51961086  .00000147  00000-0  20975-3 0  9994 | 2 63162  88.9823 338.2685 0011420 278.0677  81.9178 13.50954404 23563 | 2025/06/19-12:28:14  116.7923    0.1151   82.0474  106.5913     7446.8861     7438.3818     7455.3905  82.658253 -32.946366  -0.000270  -0.001110
1 63162U 25046D   25171.55653143  .00000135  00000-0  19126-3 0  9994 | 2 63162  88.9824 338.1617 0011415 274.5117  85.4730 13.50954581 23707 | 2025/06/20-13:21:24  131.2134    0.1151   85.6034  106.5913     7446.8855     7438.3849     7455.3861  82.596789 -33.100421  -0.000340  -0.001090
1 63162U 25046D   25172.59345176  .00000131  00000-0  18442-3 0  9999 | 2 63162  88.9824 338.0550 0011428 270.9041  89.0800 13.50954842 23845 | 2025/06/21-14:14:34  145.6340    0.1150   89.2109  106.5913     7446.8845     7438.3742     7455.3948  82.535004 -33.254181  -0.000410  -0.001067
1 63162U 25046D   25173.70443776  .00000123  00000-0  17249-3 0  9993 | 2 63162  88.9825 337.9407 0011454 267.0111  92.9729 13.50955063 23994 | 2025/06/22-16:54:23  186.7984    0.1151   93.1040  106.5913     7446.8837     7438.3541     7455.4134  82.468594 -33.418802  -0.000485  -0.001038
1 63162U 25046D   25174.88948930  .00000128  00000-0  17982-3 0  9994 | 2 63162  88.9825 337.8187 0011488 262.8760  97.1085 13.50955411 24156 | 2025/06/23-21:20:51  254.7065    0.1151   97.2391  106.5912     7446.8824     7438.3275     7455.4374  82.397248 -33.594327  -0.000562  -0.001002
1 63162U 25046D   25176.59300080  .00000107  00000-0  14810-3 0  9996 | 2 63162  88.9826 337.6434 0011546 257.0234 102.9628 13.50955708 24389 | 2025/06/25-14:13:55  149.8233    0.1151  103.0917  106.5912     7446.8813     7438.2832     7455.4795  82.294171 -33.846307  -0.000668  -0.000942
1 63162U 25046D   25177.85211784  .00000118  00000-0  16374-3 0  9997 | 2 63162  88.9828 337.5139 0011603 252.7078 107.2804 13.50956018 24552 | 2025/06/26-20:27:02  244.4740    0.1151  107.4073  106.5912     7446.8802     7438.2396     7455.5208  82.217646 -34.032298  -0.000742  -0.000892
1 63162U 25046D   25178.88903770  .00000094  00000-0  12785-3 0  9999 | 2 63162  88.9829 337.4072 0011660 249.1769 110.8133 13.50956162 24698 | 2025/06/27-21:20:12  258.8919    0.1150  110.9381  106.5912     7446.8797     7438.1966     7455.5627  82.154219 -34.185389  -0.000801  -0.000847
1 63162U 25046D   25179.92595754  .00000100  00000-0  13652-3 0  9996 | 2 63162  88.9830 337.3005 0011725 245.6814 114.3113 13.50956343 24833 | 2025/06/28-22:13:22  273.3093    0.1151  114.4337  106.5912     7446.8790     7438.1475     7455.6105  82.090506 -34.338361  -0.000858  -0.000799
1 63162U 25046D   25181.48133715  .00000100  00000-0  13682-3 0  9998 | 2 63162  88.9831 337.1406 0011835 240.4746 119.5225 13.50956634 25044 | 2025/06/30-11:33:07  114.9345    0.1150  119.6404  106.5911     7446.8779     7438.0646     7455.6913  81.994448 -34.567362  -0.000937  -0.000722
1 63162U 25046D   25182.51825680  .00000118  00000-0  16416-3 0  9999 | 2 63162  88.9832 337.0340 0011913 237.0307 122.9699 13.50956908 25185 | 2025/07/01-12:26:17  129.3507    0.1150  123.0843  106.5911     7446.8769     7438.0055     7455.7484  81.930085 -34.719894  -0.000987  -0.000667
1 63162U 25046D   25183.55517636  .00000125  00000-0  17573-3 0  9996 | 2 63162  88.9833 336.9273 0011997 233.6131 126.3914 13.50957137 25327 | 2025/07/02-13:19:27  143.7666    0.1151  126.5020  106.5911     7446.8761     7437.9421     7455.8101  81.865377 -34.872449  -0.001033  -0.000610
1 63162U 25046D   25184.59209584  .00000126  00000-0  17643-3 0  9990 | 2 63162  88.9834 336.8207 0012083 230.2339 129.7748 13.50957349 25466 | 2025/07/03-14:12:37  158.1820    0.1150  129.8811  106.5911     7446.8753     7437.8773     7455.8734  81.800447 -35.024740  -0.001076  -0.000550
1 63162U 25046D   25185.85121217  .00000131  00000-0  18513-3 0  9999 | 2 63162  88.9834 336.6913 0012195 226.1604 133.8540 13.50957647 25637 | 2025/07/04-20:25:44  252.8287    0.1151  133.9547  106.5911     7446.8742     7437.7928     7455.9557  81.721136 -35.209393  -0.001124  -0.000474
1 63162U 25046D   25186.88813131  .00000128  00000-0  17977-3 0  9995 | 2 63162  88.9835 336.5847 0012292 222.8577 137.1616 13.50957889 25777 | 2025/07/05-21:18:54  267.2433    0.1150  137.2573  106.5910     7446.8733     7437.7196     7456.0270  81.655579 -35.361416  -0.001159  -0.000409
1 63162U 25046D   25187.92505028  .00000127  00000-0  17863-3 0  9997 | 2 63162  88.9836 336.4782 0012394 219.5766 140.4481 13.50958156 25912 | 2025/07/06-22:12:04  281.6573    0.1150  140.5384  106.5910     7446.8724     7437.6427     7456.1020  81.589801 -35.513174  -0.001191  -0.000343
1 63162U 25046D   25189.55449414  .00000108  00000-0  14903-3 0  9995 | 2 63162  88.9837 336.3108 0012563 214.4763 145.5574 13.50958498 26136 | 2025/07/08-13:18:28  150.0215    0.1150  145.6387  106.5910     7446.8711     7437.5156     7456.2266  81.485786 -35.751441  -0.001234  -0.000235
1 63162U 25046D   25190.59141281  .00000112  00000-0  15494-3 0  9993 | 2 63162  88.9838 336.2042 0012684 211.3196 148.7200 13.50958727 26274 | 2025/07/09-14:11:38  164.4350    0.1150  148.7954  106.5910     7446.8703     7437.4246     7456.3159  81.419220 -35.903026  -0.001257  -0.000166
1 63162U 25046D   25191.62833140  .00000098  00000-0  13318-3 0  9996 | 2 63162  88.9840 336.0977 0012794 208.1441 151.9020 13.50958918 26415 | 2025/07/10-15:04:47  178.8477    0.1151  151.9710  106.5910     7446.8696     7437.3420     7456.3971  81.352527 -36.054385  -0.001276  -0.000095
