# SPACE DATA - HISTORICAL TLEs
# ----------------------------
# NORAD_ID    : 61559
# OBJECT_NAME : QIANFAN-26
# --------------------------------------------------------------------+-----------------------------------------------------------------------+----------------------------------------------------------------------------------------------------------------------------------------
#                  LINE 1                                             |                 LINE 2                                                |      DERIVED PARAMETERS
# --------------------------------------------------------------------+-----------------------------------------------------------------------+----------------------------------------------------------------------------------------------------------------------------------------
# NORAD  COSPAR     TLE_EPOCH      MEANMOT1 MEANMOT2   BSTAR  #  REV  |   NORAD    INC     RAAN     ECC    ARGPER  MEANANOM   MEANMOT     REV |  CAL_DATE              LONG     ARGLAT     PERIOD        SMA         PERIGEE        APOGEE      INC_X      INC_Y      ECC_X      ECC_Y
# ------ ------   -------------- ----------  -------  ------- -- ----     -----  ------- -------- ------- -------- -------- -----------  ----   ------------------- ---------  --------  --------  ------------  ------------   ----------- ---------- ----------  ---------  ---------   
1 63160U 25046B   25083.85069830  .00000852  00000-0  67042-3 0  9997 | 2 63160  89.0085 347.3478 0011390 182.9981 177.1127 13.90865377 11777 | 2025/03/24-20:25:00  141.3542    0.1174  177.1193  103.5327     7303.7367     7295.4178     7312.0557  86.847161 -19.495734  -0.001123   0.000191
1 63160U 25046B   25091.54842800  .00000543  00000-0  42312-3 0  9998 | 2 63160  88.9893 346.4821 0014238 143.6261 216.5883 13.90885700 12841 | 2025/04/01-13:09:44   40.8863    0.1173  216.4912  103.5312     7303.6656     7293.2666     7314.0645  86.524024 -20.801172  -0.000917   0.001089
1 63160U 25046B   25097.59147078  .00000568  00000-0  44264-3 0  9999 | 2 63160  88.9886 345.8212 0014874 126.5105 233.7441 13.90892964 13687 | 2025/04/07-14:11:43   62.9587    0.1173  233.6068  103.5306     7303.6402     7292.7767     7314.5036  86.277656 -21.797639  -0.000565   0.001376
1 63160U 25046B   25098.59864141  .00000516  00000-0  40104-3 0  9999 | 2 63160  88.9885 345.7110 0014963 123.7197 236.5405 13.90893944 13827 | 2025/04/08-14:22:02   66.6374    0.1173  236.3976  103.5305     7303.6367     7292.7083     7314.5652  86.235475 -21.963516  -0.000498   0.001411
1 63160U 25046B   25099.60581118  .00000527  00000-0  40965-3 0  9999 | 2 63160  88.9884 345.6008 0015063 120.9708 239.2948 13.90895137 13963 | 2025/04/09-14:32:22   70.3161    0.1173  239.1465  103.5305     7303.6326     7292.6311     7314.6340  86.192975 -22.129312  -0.000430   0.001444
1 63160U 25046B   25100.61298008  .00000562  00000-0  43774-3 0  9996 | 2 63160  88.9882 345.4906 0015150 118.2197 242.0508 13.90896396 14104 | 2025/04/10-14:42:41   73.9949    0.1173  241.8976  103.5304     7303.6281     7292.5631     7314.6931  86.150059 -22.295000  -0.000359   0.001472
1 63160U 25046B   25101.97985091  .00000521  00000-0  40522-3 0  9994 | 2 63160  88.9880 345.3410 0015254 114.4855 245.7912 13.90897639 14295 | 2025/04/11-23:30:59  207.5590    0.1174  245.6319  103.5303     7303.6238     7292.4828     7314.7647  86.091360 -22.519812  -0.000260   0.001503
1 63160U 25046B   25103.49061855  .00000396  00000-0  30580-3 0  9999 | 2 63160  88.9877 345.1758 0015480 109.4437 250.8411 13.90831156 14502 | 2025/04/13-11:46:29   33.0816    0.1173  250.6736  103.5352     7303.8565     7292.5502     7315.1629  86.025781 -22.767867  -0.000125   0.001543
1 63160U 25046B   25104.56985036  .00000507  00000-0  39526-3 0  9997 | 2 63160  88.9875 345.0574 0015821 106.4116 253.8798 13.90698853 14657 | 2025/04/14-13:40:35   62.7805    0.1173  253.7057  103.5451     7304.3198     7292.7636     7315.8759  85.978355 -22.945537  -0.000041   0.001582
1 63160U 25046B   25105.86510744  .00000419  00000-0  32751-3 0  9996 | 2 63160  88.9872 344.9155 0015981 102.7784 257.5177 13.90206320 14830 | 2025/04/15-20:45:45  170.4870    0.1174  257.3390  103.5817     7306.0449     7294.3691     7317.7207  85.920974 -23.158324   0.000064   0.001597
1 63160U 25046B   25106.94525016  .00000600  00000-0  47961-3 0  9995 | 2 63160  88.9872 344.7976 0016014 100.0679 260.2301 13.89483274 14980 | 2025/04/16-22:41:09  200.5190    0.1172  260.0493  103.6356     7308.5792     7296.8753     7320.2832  85.873138 -23.335078   0.000143   0.001595
1 63160U 25046B   25107.95344369  .00000077  00000-0  51798-4 0  9999 | 2 63160  88.9870 344.6873 0016077  97.4328 262.8673 13.89481897 15128 | 2025/04/17-22:52:57  204.5706    0.1173  262.6845  103.6358     7308.5841     7296.8340     7320.3341  85.827864 -23.500296   0.000220   0.001593
1 63160U 25046B   25109.82588462  .00000180  00000-0  13633-3 0  9991 | 2 63160  88.9867 344.4827 0016309  93.2577 267.0462 13.89406270 15382 | 2025/04/19-19:49:16  160.6957    0.1173  266.8596  103.6414     7308.8493     7296.9293     7320.7693  85.743110 -23.806552   0.000346   0.001594
1 63160U 25046B   25110.90617086  .00000174  00000-0  13170-3 0  9996 | 2 63160  88.9865 344.3645 0016301  90.9127 269.3914 13.89367074 15536 | 2025/04/20-21:44:53  190.7815    0.1173  269.2046  103.6443     7308.9867     7297.0723     7320.9011  85.693622 -23.983333   0.000414   0.001577
1 63160U 25046B   25111.91452989  .00000193  00000-0  14804-3 0  9993 | 2 63160  88.9863 344.2534 0016391  88.2573 272.0477 13.89100491 15672 | 2025/04/21-21:56:55  194.8948    0.1173  271.8600  103.6642     7309.9218     7297.9401     7321.9035  85.646764 -24.149399   0.000493   0.001563
1 63160U 25046B   25113.78885470  .00000326  00000-0  26437-3 0  9998 | 2 63160  88.9862 344.0496 0016532  83.3240 276.9813 13.87555995 15937 | 2025/04/23-18:55:57  151.7027    0.1172  276.7932  103.7796     7315.3453     7303.2515     7327.4390  85.560227 -24.453862   0.000636   0.001526
1 63160U 25046B   25114.79844434  .00000345  00000-0  28070-3 0  9991 | 2 63160  88.9859 343.9394 0016530  80.5669 279.7371 13.87556663 16079 | 2025/04/24-19:09:45  156.2616    0.1172  279.5503  103.7795     7315.3429     7303.2507     7327.4352  85.512747 -24.618296   0.000711   0.001492
1 63160U 25046B   25116.16978925  .00000344  00000-0  28840-3 0  9991 | 2 63160  88.9860 343.7901 0016663  76.4947 283.8079 13.85794907 16268 | 2025/04/26-04:04:29  291.4481    0.1171  283.6224  103.9115     7321.5416     7309.3417     7333.7415  85.448403 -24.841067   0.000826   0.001447
1 63160U 25046B   25117.18066039  .00000346  00000-0  29021-3 0  9992 | 2 63160  88.9857 343.6801 0016588  74.1366 286.1632 13.85795412 16407 | 2025/04/27-04:20:09  296.4709    0.1171  285.9805  103.9114     7321.5398     7309.3948     7333.6848  85.400266 -25.004986   0.000884   0.001404
1 63160U 25046B   25118.48142648  .00000328  00000-0  28502-3 0  9990 | 2 63160  88.9860 343.5404 0015279  74.6750 285.6107 13.83698958 16582 | 2025/04/28-11:33:15   46.1826    0.1170  285.4420  104.0689     7328.9332     7317.7354     7340.1311  85.339332 -25.213222   0.000805   0.001299
1 63160U 25046B   25121.16024607  .00000276  00000-0  24523-3 0  9994 | 2 63160  88.9848 343.2489 0016691  63.9166 296.3718 13.81844025 16953 | 2025/05/01-03:50:45  293.4868    0.1169  296.2003  104.2086     7335.4905     7323.2468     7347.7342  85.208804 -25.646723   0.001135   0.001224
1 63160U 25046B   25122.60929070  .00000265  00000-0  23864-3 0  9997 | 2 63160  88.9847 343.0923 0016708  60.3103 299.9726 13.80844134 17155 | 2025/05/02-14:37:22   96.7332    0.1169  299.8066  104.2840     7339.0312     7326.7692     7351.2933  85.138293 -25.879489   0.001214   0.001148
1 63160U 25046B   25123.84125319  .00000250  00000-0  22684-3 0  9991 | 2 63160  88.9847 342.9595 0016854  56.5119 303.7657 13.80411125 17320 | 2025/05/03-20:11:24  181.5921    0.1169  303.6050  104.3167     7340.5659     7328.1941     7352.9377  85.078081 -26.076753   0.001301   0.001071
1 63160U 25046B   25124.92921781  .00000240  00000-0  22035-3 0  9997 | 2 63160  88.9846 342.8420 0016849  53.5696 306.7022 13.79422819 17471 | 2025/05/04-22:18:04  214.4550    0.1168  306.5472  104.3915     7344.0716     7331.6976     7356.4457  85.024329 -26.251144   0.001356   0.001000
1 63160U 25046B   25126.96206562  .00000223  00000-0  21062-3 0  9996 | 2 63160  88.9843 342.6232 0016785  48.3712 311.8889 13.77467858 17756 | 2025/05/06-23:05:22  228.5144    0.1167  311.7455  104.5396     7351.0187     7338.6800     7363.3574  84.923176 -26.575551   0.001439   0.000864
1 63160U 25046B   25128.05198449  .00000220  00000-0  21292-3 0  9994 | 2 63160  88.9853 342.5068 0017621  46.8719 313.3917 13.76142562 17900 | 2025/05/08-01:14:51  262.0723    0.1166  313.2447  104.6403     7355.7375     7342.7760     7368.6991  84.869964 -26.748323   0.001535   0.000864
1 63160U 25046B   25131.62038028  .00000190  00000-0  19732-3 0  9999 | 2 63160  88.9837 342.1265 0017187  35.3004 324.9293 13.71446715 18395 | 2025/05/11-14:53:20  110.6262    0.1163  324.8159  104.9986     7372.5187     7359.8475     7385.1898  84.689031 -27.310562   0.001640   0.000515
1 63160U 25046B   25132.86132255  .00000175  00000-0  18367-3 0  9999 | 2 63160  88.9833 341.9927 0016927  32.4455 327.7744 13.70460874 18564 | 2025/05/12-20:40:18  198.7322    0.1163  327.6708  105.0741     7376.0539     7363.5684     7388.5393  84.624643 -27.508134   0.001639   0.000422
1 63160U 25046B   25133.88349436  .00000171  00000-0  17895-3 0  9994 | 2 63160  88.9832 341.8841 0016820  29.6583 330.5530 13.70460904 18704 | 2025/05/13-21:12:13  207.8387    0.1164  330.4581  105.0741     7376.0538     7363.6473     7388.4603  84.572257 -27.668453   0.001648   0.000337
1 63160U 25046B   25134.90566602  .00000159  00000-0  16482-3 0  9991 | 2 63160  88.9830 341.7754 0016720  26.8249 333.3775 13.70461011 18848 | 2025/05/14-21:44:09  216.9456    0.1164  333.2915  105.0741     7376.0534     7363.7206     7388.3862  84.519423 -27.828789   0.001653   0.000250
1 63160U 25046B   25136.51193610 -.00000012  00000-0 -28004-4 0  9999 | 2 63160  88.9826 341.6045 0016494  22.0354 338.1514 13.70460437 19068 | 2025/05/16-12:17:11   76.9725    0.1163  338.0809  105.0742     7376.0554     7363.8894     7388.2215  84.435660 -28.080641   0.001646   0.000105
1 63160U 25046B   25137.53410823 -.00000051  00000-0 -71459-4 0  9995 | 2 63160  88.9825 341.4958 0016390  19.1496 341.0279 13.70460185 19204 | 2025/05/17-12:49:06   86.0800    0.1163  340.9667  105.0742     7376.0564     7363.9670     7388.1457  84.382140 -28.240747   0.001639   0.000018
1 63160U 25046B   25138.55631657  .00000011  00000-0 -13868-5 0  9994 | 2 63160  88.9824 341.3874 0016423  15.4758 344.6903 13.69836464 19349 | 2025/05/18-13:21:05   95.2024    0.1163  344.6405  105.1220     7378.2952     7366.1778     7390.4126  84.328464 -28.400310   0.001640  -0.000090
1 63160U 25046B   25139.57947013  .00000130  00000-0  13641-3 0  9991 | 2 63160  88.9827 341.2786 0016415  13.8599 346.3010 13.68782168 19482 | 2025/05/19-13:54:26  104.6601    0.1163  346.2564  105.2030     7382.0834     7369.9657     7394.2011  84.274667 -28.560488   0.001636  -0.000139
1 63160U 25046B   25141.40786333  .00000134  00000-0  14449-3 0  9993 | 2 63160  88.9824 341.0848 0016416   8.8356 351.3090 13.67090757 19739 | 2025/05/21-09:47:19   44.8939    0.1161  351.2805  105.3332     7388.1711     7376.0427     7400.2995  84.177296 -28.845282   0.001616  -0.000287
1 63160U 25046B   25143.09157841  .00000133  00000-0  14568-3 0  9997 | 2 63160  88.9823 340.9067 0016472   3.9506 356.1780 13.66396682 19963 | 2025/05/23-02:11:52  292.8850    0.1160  356.1654  105.3867     7390.6728     7378.4989     7402.8467  84.087132 -29.106769   0.001590  -0.000430
1 63160U 25046B   25144.19001708  .00000136  00000-0  14941-3 0  9997 | 2 63160  88.9822 340.7906 0016305   0.7413 359.3768 13.66396637 20119 | 2025/05/24-04:33:37  329.5322    0.1161  359.3748  105.3867     7390.6730     7378.6225     7402.7235  84.027885 -29.277064   0.001547  -0.000517
1 63160U 25046B   25145.50814349  .00000133  00000-0  14614-3 0  9990 | 2 63160  88.9821 340.6512 0016121 356.8716   3.2341 13.66396760 20295 | 2025/05/25-12:11:43   85.5087    0.1161    3.2445  105.3867     7390.6725     7378.7580     7402.5870  83.956311 -29.481383   0.001490  -0.000616
1 63160U 25046B   25147.55968323  .00000120  00000-0  13545-3 0  9997 | 2 63160  88.9881 340.4353 0013900 354.6915   5.4094 13.63889252 20571 | 2025/05/27-13:25:56  106.3058    0.1159    5.4244  105.5804     7399.7282     7389.4426     7410.0139  83.850278 -29.799543   0.001261  -0.000585
1 63160U 25046B   25148.66095052  .00000114  00000-0  13256-3 0  9992 | 2 63160  88.9802 340.3163 0016899 346.7691  13.3020 13.61942679 20720 | 2025/05/28-15:51:46  143.9963    0.1157   13.3466  105.7313     7406.7773     7394.2606     7419.2940  83.780767 -29.970970   0.001419  -0.000918
1 63160U 25046B   25149.69009332  .00000116  00000-0  13655-3 0  9997 | 2 63160  88.9819 340.2110 0015755 345.3448  14.7250 13.60950071 20863 | 2025/05/29-16:33:44  155.6087    0.1158   14.7710  105.8084     7410.3783     7398.7033     7422.0534  83.727144 -30.125470   0.001299  -0.000891
1 63160U 25046B   25151.23558614  .00000100  00000-0  12079-3 0  9994 | 2 63160  88.9818 340.0497 0015464 340.7297  19.3272 13.58693421 21075 | 2025/05/31-05:39:14  353.6836    0.1157   19.3860  105.9842     7418.5813     7407.1092     7430.0534  83.641908 -30.361026   0.001198  -0.000978
1 63160U 25046B   25152.56117997  .00000182  00000-0  23250-3 0  9999 | 2 63160  88.9819 339.9111 0015318 336.5551  23.4904 13.58693680 21255 | 2025/06/01-13:28:05  112.3539    0.1156   23.5605  105.9842     7418.5803     7407.2166     7429.9441  83.568313 -30.563303   0.001111  -0.001055
1 63160U 25046B   25153.88677545 -.00000123  00000-0 -18450-3 0  9998 | 2 63160  88.9814 339.7727 0015233 332.0855  27.9481 13.58692357 21434 | 2025/06/02-21:16:57  231.0252    0.1155   28.0300  105.9843     7418.5852     7407.2844     7429.8859  83.493774 -30.764903   0.001016  -0.001135
1 63160U 25046B   25156.83910385 -.00000093  00000-0 -15331-3 0  9999 | 2 63160  88.9813 339.4664 0014293 322.0037  38.0107 13.54749135 21831 | 2025/06/05-20:08:18  217.0989    0.1154   38.1117  106.2927     7432.9735     7422.3496     7443.5975  83.328020 -31.210780   0.000746  -0.001219
1 63160U 25046B   25158.53829595  .00000112  00000-0  14900-3 0  9991 | 2 63160  88.9816 339.2897 0014312 316.2766  43.7252 13.53318992 22068 | 2025/06/07-12:55:08  110.6721    0.1153   43.8387  106.4051     7438.2092     7427.5637     7448.8548  83.231651 -31.467720   0.000618  -0.001291
1 63160U 25046B   25159.72245792  .00000100  00000-0  13711-3 0  9990 | 2 63160  88.9813 339.1692 0013914 314.0139  45.9865 13.50986934 22220 | 2025/06/08-17:20:20  178.2595    0.1152   46.1013  106.5887     7446.7666     7436.4052     7457.1280  83.165006 -31.642590   0.000548  -0.001279
1 63160U 25046B   25160.90749724  .00000093  00000-0  12574-3 0  9993 | 2 63160  88.9817 339.0458 0013758 308.8172  51.1750 13.50946549 22384 | 2025/06/09-21:46:47  246.1733    0.1152   51.2980  106.5919     7446.9150     7436.6695     7457.1605  83.097037 -31.821775   0.000422  -0.001309
1 63160U 25046B   25161.94442259  .00000041  00000-0  44902-4 0  9995 | 2 63160  88.9817 338.9391 0013687 305.3100  54.6771 13.50946826 22527 | 2025/06/10-22:39:58  260.6002    0.1152   54.8052  106.5919     7446.9140     7436.7214     7457.1066  83.037632 -31.976469   0.000337  -0.001327
1 63160U 25046B   25163.12948041  .00000041  00000-0  45032-4 0  9992 | 2 63160  88.9817 338.8170 0013630 301.4206  58.5611 13.50946886 22682 | 2025/06/12-03:06:27  328.5166    0.1151   58.6945  106.5919     7446.9138     7436.7636     7457.0639  82.969301 -32.153353   0.000242  -0.001341
1 63160U 25046B   25164.16640598  .00000044  00000-0  50491-4 0  9991 | 2 63160  88.9818 338.7103 0013575 297.9989  61.9788 13.50946998 22826 | 2025/06/13-03:59:37  342.9426    0.1151   62.1162  106.5919     7446.9134     7436.8042     7457.0225  82.909372 -32.307844   0.000159  -0.001348
1 63160U 25046B   25165.20333171  .00000054  00000-0  65940-4 0  9999 | 2 63160  88.9819 338.6034 0013533 294.5845  65.3895 13.50947063 22963 | 2025/06/14-04:52:47  357.3685    0.1151   65.5306  106.5919     7446.9131     7436.8352     7456.9910  82.849042 -32.462513   0.000075  -0.001351
1 63160U 25046B   25166.53652183  .00000050  00000-0  58643-4 0  9991 | 2 63160  88.9820 338.4662 0013495 290.0522  69.9176 13.50947161 23142 | 2025/06/15-12:52:35  118.7724    0.1151   70.0629  106.5919     7446.9128     7436.8631     7456.9624  82.771163 -32.660846  -0.000035  -0.001349
1 63160U 25046B   25167.57344754  .00000048  00000-0  55932-4 0  9993 | 2 63160  88.9820 338.3594 0013475 286.5362  73.4309 13.50947263 23281 | 2025/06/16-13:45:45  133.1972    0.1152   73.5790  106.5919     7446.9124     7436.8777     7456.9471  82.710139 -32.815076  -0.000120  -0.001342
1 63160U 25046B   25168.83257161  .00000083  00000-0  11004-3 0  9998 | 2 63160  88.9821 338.2297 0013449 282.2647  77.6998 13.50947476 23456 | 2025/06/17-19:58:54  227.8552    0.1151   77.8504  106.5919     7446.9116     7436.8962     7456.9270  82.635737 -33.002259  -0.000222  -0.001326
1 63160U 25046B   25169.86949726  .00000096  00000-0  13086-3 0  9993 | 2 63160  88.9822 338.1229 0013443 278.7121  81.2508 13.50947665 23595 | 2025/06/18-20:52:04  242.2789    0.1152   81.4031  106.5918     7446.9109     7436.9000     7456.9218  82.574170 -33.156273  -0.000306  -0.001309
1 63160U 25046B   25171.20268736  .00000097  00000-0  13114-3 0  9992 | 2 63160  88.9822 337.9856 0013440 274.1902  85.7713 13.50947835 23778 | 2025/06/20-04:51:52    3.6800    0.1151   85.9249  106.5918     7446.9103     7436.9016     7456.9189  82.494479 -33.354053  -0.000411  -0.001279
1 63160U 25046B   25172.46181135  .00000084  00000-0  11148-3 0  9999 | 2 63160  88.9823 337.8560 0013437 269.9878  89.9733 13.50947986 23944 | 2025/06/21-11:05:00   98.3357    0.1151   90.1273  106.5918     7446.9097     7436.9033     7456.9161  82.418916 -33.540603  -0.000507  -0.001244
1 63160U 25046B   25173.49873693  .00000067  00000-0  84913-4 0  9992 | 2 63160  88.9823 337.7493 0013459 266.4771  93.4841 13.50948084 24082 | 2025/06/22-11:58:10  112.7576    0.1151   93.6380  106.5918     7446.9094     7436.8866     7456.9322  82.356311 -33.694031  -0.000585  -0.001212
1 63160U 25046B   25174.53566246  .00000072  00000-0  93508-4 0  9997 | 2 63160  88.9823 337.6426 0013488 262.9501  97.0116 13.50948261 24229 | 2025/06/23-12:51:21  127.1790    0.1151   97.1650  106.5918     7446.9087     7436.8643     7456.9531  82.293421 -33.847342  -0.000662  -0.001175
1 63160U 25046B   25175.86885256  .00000057  00000-0  69263-4 0  9993 | 2 63160  88.9825 337.5054 0013535 258.4666 101.4965 13.50948373 24408 | 2025/06/24-20:51:08  248.5773    0.1150  101.6484  106.5918     7446.9083     7436.8289     7456.9877  82.212319 -34.044380  -0.000757  -0.001122
1 63160U 25046B   25176.90577818  .00000051  00000-0  60713-4 0  9996 | 2 63160  88.9825 337.3987 0013586 254.9658 104.9990 13.50948469 24546 | 2025/06/25-21:44:19  262.9976    0.1151  105.1493  106.5918     7446.9080     7436.7906     7457.0253  82.148777 -34.197422  -0.000830  -0.001076
1 63160U 25046B   25178.16490231  .00000062  00000-0  78141-4 0  9995 | 2 63160  88.9826 337.2691 0013640 250.7785 109.1891 13.50948588 24712 | 2025/06/27-03:57:27  357.6501    0.1151  109.3366  106.5918     7446.9075     7436.7499     7457.0651  82.071307 -34.383190  -0.000912  -0.001014
1 63160U 25046B   25179.20182810  .00000055  00000-0  66977-4 0  9998 | 2 63160  88.9827 337.1624 0013692 247.3373 112.6331 13.50948642 24854 | 2025/06/28-04:50:37   12.0693    0.1151  112.7778  106.5918     7446.9073     7436.7110     7457.1036  82.007226 -34.536007  -0.000977  -0.000960
1 63160U 25046B   25180.53501838  .00000062  00000-0  78241-4 0  9996 | 2 63160  88.9829 337.0252 0013788 242.9563 117.0181 13.50948792 25039 | 2025/06/29-12:50:25  133.4651    0.1150  117.1587  106.5918     7446.9068     7436.6390     7457.1746  81.924475 -34.732360  -0.001057  -0.000886
1 63160U 25046B   25181.57194409  .00000077  00000-0  10063-3 0  9996 | 2 63160  88.9830 336.9186 0013868 239.5485 120.4297 13.50948961 25178 | 2025/06/30-13:43:35  147.8832    0.1151  120.5666  106.5917     7446.9061     7436.5788     7457.2335  81.859805 -34.884761  -0.001115  -0.000824
1 63160U 25046B   25182.90513435  .00000095  00000-0  12857-3 0  9991 | 2 63160  88.9832 336.7815 0013972 235.1948 124.7889 13.50949187 25354 | 2025/07/01-21:43:23  269.2774    0.1151  124.9203  106.5917     7446.9053     7436.5005     7457.3101  81.776281 -35.080618  -0.001185  -0.000740
1 63160U 25046B   25183.94206000  .00000086  00000-0  11435-3 0  9994 | 2 63160  88.9833 336.6749 0014054 231.8664 128.1221 13.50949326 25498 | 2025/07/02-22:36:33  283.6944    0.1151  128.2487  106.5917     7446.9048     7436.4389     7457.3707  81.710963 -35.232743  -0.001235  -0.000671
1 63160U 25046B   25185.49744841  .00000086  00000-0  11429-3 0  9999 | 2 63160  88.9833 336.5150 0014180 226.9246 133.0719 13.50949575 25701 | 2025/07/04-11:56:19  125.3192    0.1151  133.1905  106.5917     7446.9039     7436.3442     7457.4636  81.612318 -35.460643  -0.001301  -0.000564
1 63160U 25046B   25186.53437390  .00000087  00000-0  11590-3 0  9993 | 2 63160  88.9833 336.4084 0014280 223.6546 136.3477 13.50949754 25845 | 2025/07/05-12:49:29  139.7352    0.1151  136.4605  106.5917     7446.9032     7436.2691     7457.5374  81.546202 -35.612423  -0.001341  -0.000490
1 63160U 25046B   25187.57129934  .00000076  00000-0  99200-4 0  9993 | 2 63160  88.9834 336.3018 0014381 220.4027 139.6057 13.50949897 25986 | 2025/07/06-13:42:40  154.1509    0.1150  139.7123  106.5917     7446.9027     7436.1933     7457.6121  81.479894 -35.764120  -0.001377  -0.000413
1 63160U 25046B   25188.60822473  .00000077  00000-0  10005-3 0  9992 | 2 63160  88.9835 336.1952 0014488 217.1855 142.8294 13.50950066 26128 | 2025/07/07-14:35:50  168.5662    0.1151  142.9296  106.5917     7446.9021     7436.1130     7457.6912  81.413305 -35.915693  -0.001409  -0.000335
1 63160U 25046B   25189.86734837  .00000077  00000-0  10064-3 0  9992 | 2 63160  88.9836 336.0658 0014623 213.3124 146.7108 13.50950273 26294 | 2025/07/08-20:48:58  263.2129    0.1150  146.8026  106.5916     7446.9013     7436.0117     7457.7909  81.332075 -36.099511  -0.001443  -0.000238
1 63160U 25046B   25190.90429272  .00000079  00000-0  10326-3 0  9996 | 2 63160  88.9838 335.9592 0012644 208.6674 151.3784 13.50900175 26433 | 2025/07/09-21:42:10  277.6189    0.1151  151.4477  106.5956     7447.0854     7437.6693     7456.5015  81.264953 -36.250850  -0.001260  -0.000102
1 63160U 25046B   25192.16346065  .00000076  00000-0  99729-4 0  9996 | 2 63160  88.9840 335.8299 0010881 203.3065 156.7594 13.50898137 26607 | 2025/07/11-03:55:23   12.2697    0.1150  156.8085  106.5957     7447.0929     7438.9897     7455.1961  81.183121 -36.434231  -0.001088   0.000016
1 63160U 25046B   25193.49663434  .00000088  00000-0  11722-3 0  9994 | 2 63160  88.9845 335.6939 0008019 194.5719 165.5202 13.50991679 26786 | 2025/07/12-11:55:09  133.6360    0.1151  165.5432  106.5884     7446.7492     7440.7776     7452.7207  81.096866 -36.627034  -0.000790   0.000136
1 63160U 25046B   25194.82979894  .00000094  00000-0  12655-3 0  9995 | 2 63160  88.9844 335.5560 0004996 181.2018 178.9121 13.50922488 26969 | 2025/07/13-19:54:54  255.0054    0.1150  178.9132  106.5938     7447.0034     7443.2829     7450.7240  81.008386 -36.822071  -0.000459   0.000197
1 63160U 25046B   25196.01485139  .00000086  00000-0  11411-3 0  9992 | 2 63160  88.9848 335.4339 0002740 159.9410 200.1849 13.50993423 27120 | 2025/07/15-00:21:23  322.9024    0.1151  200.1741  106.5882     7446.7428     7444.7023     7448.7832  80.930096 -36.994786  -0.000195   0.000192
1 63160U 25046B   25197.49619582  .00000102  00000-0  13974-3 0  9991 | 2 63160  88.9845 335.2822 0002077  96.7581 263.3806 13.50911644 27323 | 2025/07/16-11:54:31  137.7854    0.1151  263.3570  106.5947     7447.0433     7445.4965     7448.5900  80.831590 -37.208806   0.000064   0.000198
1 63160U 25046B   25198.60721726  .00000130  00000-0  18352-3 0  9995 | 2 63160  88.9846 335.1681 0002064  96.8669 263.2717 13.50911906 27477 | 2025/07/17-14:34:23  178.9624    0.1151  263.2482  106.5947     7447.0423     7445.5052     7448.5794  80.757422 -37.369744   0.000064   0.000196
1 63160U 25046B   25199.64414718  .00000117  00000-0  16280-3 0  9993 | 2 63160  88.9847 335.0616 0002055  97.1154 263.0230 13.50959472 27612 | 2025/07/18-15:27:34  193.3859    0.1150  262.9996  106.5909     7446.8675     7445.3372     7448.3978  80.687912 -37.519832   0.000063   0.000196
1 63160U 25046B   25200.82919473  .00000133  00000-0  18702-3 0  9993 | 2 63160  88.9847 334.9400 0002023  97.8706 262.2674 13.50959769 27775 | 2025/07/19-19:54:02  261.2931    0.1150  262.2444  106.5909     7446.8664     7445.3599     7448.3729  80.608101 -37.690992   0.000060   0.000193
1 63160U 25046B   25201.86611136  .00000095  00000-0  12829-3 0  9994 | 2 63160  88.9848 334.8336 0002020  98.1666 261.9714 13.50959848 27914 | 2025/07/20-20:47:12  275.7115    0.1151  261.9485  106.5909     7446.8661     7445.3619     7448.3704  80.538059 -37.840662   0.000059   0.000193
1 63160U 25046B   25202.90302772  .00000103  00000-0  14090-3 0  9995 | 2 63160  88.9849 334.7272 0002011  98.5383 261.5996 13.50960104 28054 | 2025/07/21-21:40:21  290.1299    0.1151  261.5768  106.5909     7446.8652     7445.3676     7448.3628  80.467739 -37.990201   0.000058   0.000193
1 63160U 25046B   25204.60653290  .00000118  00000-0  16382-3 0  9990 | 2 63160  88.9851 334.5524 0002009  99.0036 261.1342 13.50960510 28280 | 2025/07/23-14:33:24  185.2458    0.1151  261.1115  106.5908     7446.8637     7445.3676     7448.3598  80.351644 -38.235603   0.000057   0.000193
1 63160U 25046B   25205.79157967  .00000132  00000-0  18578-3 0  9996 | 2 63160  88.9852 334.4308 0002003  99.5140 260.6237 13.50960822 28446 | 2025/07/24-18:59:52  253.1523    0.1151  260.6011  106.5908     7446.8626     7445.3709     7448.3542  80.270405 -38.406092   0.000055   0.000192
1 63160U 25046B   25206.90256081  .00000130  00000-0  18286-3 0  9991 | 2 63160  88.9854 334.3168 0001990  99.9961 260.1415 13.50961050 28593 | 2025/07/25-21:39:41  294.3147    0.1151  260.1190  106.5908     7446.8617     7445.3798     7448.3436  80.194011 -38.565815   0.000054   0.000192
1 63160U 25046B   25208.23573788  .00000133  00000-0  18766-3 0  9991 | 2 63160  88.9855 334.1800 0001985 100.3164 259.8211 13.50961390 28777 | 2025/07/27-05:39:27   55.7094    0.1151  259.7987  106.5908     7446.8605     7445.3823     7448.3387  80.101792 -38.757220   0.000053   0.000191
1 63160U 25046B   25209.49484915  .00000142  00000-0  20209-3 0  9998 | 2 63160  88.9856 334.0509 0001976 100.7963 259.3410 13.50961768 28948 | 2025/07/28-11:52:34  150.3598    0.1150  259.3187  106.5907     7446.8591     7445.3876     7448.3306  80.014350 -38.937652   0.000052   0.000191
1 63160U 25046B   25210.53176406  .00000169  00000-0  24347-3 0  9994 | 2 63160  88.9857 333.9446 0001971 101.1606 258.9766 13.50962154 29086 | 2025/07/29-12:45:44  164.7776    0.1150  258.9544  106.5907     7446.8577     7445.3899     7448.3254  79.942062 -39.086079   0.000051   0.000190
1 63160U 25046B   25211.56867877  .00000150  00000-0  21312-3 0  9996 | 2 63160  88.9858 333.8383 0001969 101.5709 258.5663 13.50962375 29224 | 2025/07/30-13:38:53  179.1952    0.1151  258.5442  106.5907     7446.8568     7445.3906     7448.3231  79.869498 -39.234371   0.000050   0.000191
1 63160U 25046B   25212.90185444  .00000147  00000-0  20883-3 0  9996 | 2 63160  88.9858 333.7016 0001968 101.8973 258.2398 13.50962774 29406 | 2025/07/31-21:38:40  300.5893    0.1150  258.2177  106.5906     7446.8554     7445.3898     7448.3209  79.775663 -39.424817   0.000049   0.000191
1 63160U 25046B   25214.45722548  .00000150  00000-0  21456-3 0  9991 | 2 63160  88.9858 333.5421 0001959 102.5219 257.6151 13.50963264 29613 | 2025/08/02-10:58:24  142.2155    0.1151  257.5932  106.5906     7446.8536     7445.3947     7448.3124  79.665603 -39.646743   0.000047   0.000190
1 63160U 25046B   25215.49413928  .00000142  00000-0  20082-3 0  9990 | 2 63160  88.9858 333.4359 0001958 102.9015 257.2355 13.50963531 29753 | 2025/08/03-11:51:33  156.6327    0.1151  257.2136  106.5906     7446.8526     7445.3945     7448.3107  79.591980 -39.794338   0.000046   0.000190
1 63160U 25046B   25216.53105283  .00000149  00000-0  21199-3 0  9995 | 2 63160  88.9859 333.3296 0001956 103.2873 256.8496 13.50963864 29892 | 2025/08/04-12:44:42  171.0500    0.1151  256.8278  106.5906     7446.8514     7445.3948     7448.3080  79.518102 -39.941980   0.000045   0.000190
1 63160U 25046B   25217.56796623  .00000138  00000-0  19539-3 0  9996 | 2 63160  88.9860 333.2233 0001955 103.6363 256.5006 13.50964082 30036 | 2025/08/05-13:37:52  185.4672    0.1151  256.4788  106.5905     7446.8506     7445.3947     7448.3064  79.443951 -40.089485   0.000044   0.000190
1 63160U 25046B   25218.90114022  .00000142  00000-0  20175-3 0  9995 | 2 63160  88.9861 333.0867 0001956 104.1176 256.0193 13.50964483 30214 | 2025/08/06-21:37:38  306.8604    0.1152  255.9976  106.5905     7446.8491     7445.3925     7448.3057  79.348236 -40.278820   0.000043   0.000191
1 63160U 25046B   25220.08618351  .00000149  00000-0  21153-3 0  9995 | 2 63160  88.9862 332.9653 0001955 104.6074 255.5294 13.50964816 30370 | 2025/08/08-02:04:06   14.7656    0.1151  255.5077  106.5905     7446.8479     7445.3920     7448.3037  79.262803 -40.446901   0.000042   0.000191
1 63160U 25046B   25221.19716138  .00000160  00000-0  22930-3 0  9997 | 2 63160  88.9863 332.8514 0001962 104.9992 255.1377 13.50965165 30529 | 2025/08/09-04:43:54   55.9264    0.1152  255.1160  106.5905     7446.8466     7445.3855     7448.3077  79.182330 -40.604435   0.000041   0.000192
1 63160U 25046B   25222.23407369  .00000170  00000-0  24533-3 0  9998 | 2 63160  88.9863 332.7452 0001962 105.2697 254.8671 13.50965547 30667 | 2025/08/10-05:37:03   70.3432    0.1151  254.8454  106.5904     7446.8452     7445.3841     7448.3063  79.106932 -40.751133   0.000041   0.000192
1 63160U 25046B   25223.56724635  .00000176  00000-0  25360-3 0  9998 | 2 63160  88.9864 332.6086 0001966 105.6429 254.4939 13.50965952 30844 | 2025/08/11-13:36:50  191.7360    0.1151  254.4722  106.5904     7446.8437     7445.3797     7448.3078  79.009641 -40.939663   0.000040   0.000192
1 63160U 25046B   25224.67822315  .00000173  00000-0  24973-3 0  9991 | 2 63160  88.9864 332.4947 0001969 106.1361 254.0007 13.50966322 30992 | 2025/08/12-16:16:38  232.8966    0.1151  253.9790  106.5904     7446.8423     7445.3761     7448.3086  78.928100 -41.096648   0.000039   0.000193
1 63160U 25046B   25225.86326482  .00000164  00000-0  23541-3 0  9997 | 2 63160  88.9864 332.3733 0001973 106.4375 253.6993 13.50966677 31158 | 2025/08/13-20:43:06  300.8010    0.1151  253.6776  106.5903     7446.8410     7445.3718     7448.3103  78.840846 -41.263791   0.000038   0.000194
1 63160U 25046B   25226.90017588  .00000163  00000-0  23382-3 0  9999 | 2 63160  88.9864 332.2671 0001979 106.7096 253.4273 13.50967058 31295 | 2025/08/14-21:36:15  315.2171    0.1152  253.4056  106.5903     7446.8396     7445.3659     7448.3134  78.764226 -41.409855   0.000038   0.000194
1 63160U 25046B   25228.38147699  .00000156  00000-0  22251-3 0  9996 | 2 63160  88.9863 332.1153 0001982 107.3613 252.7755 13.50967532 31490 | 2025/08/16-09:09:19  130.0974    0.1151  252.7538  106.5903     7446.8379     7445.3619     7448.3139  78.654150 -41.618341   0.000036   0.000195
1 63160U 25046B   25229.56651751  .00000156  00000-0  22262-3 0  9998 | 2 63160  88.9863 331.9940 0001992 107.7238 252.4131 13.50967924 31657 | 2025/08/17-13:35:47  198.0013    0.1151  252.3913  106.5902     7446.8365     7445.3530     7448.3199  78.565864 -41.784765   0.000036   0.000196
1 63160U 25046B   25230.82562278  .00000148  00000-0  21077-3 0  9998 | 2 63160  88.9863 331.8650 0002003 108.0054 252.1315 13.50968293 31828 | 2025/08/18-19:48:53  292.6492    0.1151  252.1097  106.5902     7446.8351     7445.3435     7448.3267  78.471588 -41.961548   0.000035   0.000197
1 63160U 25046B   25231.86253272  .00000153  00000-0  21784-3 0  9995 | 2 63160  88.9863 331.7588 0002014 108.1748 251.9623 13.50968625 31963 | 2025/08/19-20:42:02  307.0648    0.1152  251.9404  106.5902     7446.8339     7445.3341     7448.3337  78.393676 -42.106926   0.000035   0.000198
1 63160U 25046B   25232.89944243  .00000150  00000-0  21440-3 0  9990 | 2 63160  88.9863 331.6525 0002023 108.3670 251.7701 13.50968920 32109 | 2025/08/20-21:35:11  321.4806    0.1151  251.7481  106.5902     7446.8328     7445.3263     7448.3393  78.315420 -42.252296   0.000035   0.000199
1 63160U 25046B   25234.89919616  .00000149  00000-0  21271-3 0  9998 | 2 63160  88.9864 331.4476 0002036 108.8804 251.2568 13.50969524 32377 | 2025/08/22-21:34:50  323.5678    0.1151  251.2347  106.5901     7446.8306     7445.3144     7448.3468  78.163906 -42.532143   0.000034   0.000201
1 63160U 25046B   25235.93610518  .00000150  00000-0  21423-3 0  9994 | 2 63160  88.9864 331.3414 0002045 109.0145 251.1227 13.50969842 32519 | 2025/08/23-22:27:59  337.9833    0.1150  251.1005  106.5901     7446.8294     7445.3065     7448.3523  78.084937 -42.676950   0.000034   0.000202
1 63160U 25046B   25237.56553309  .00000159  00000-0  22795-3 0  9991 | 2 63160  88.9863 331.1745 0002056 109.0917 251.0457 13.50970387 32736 | 2025/08/25-13:34:22  206.3501    0.1151  251.0234  106.5900     7446.8274     7445.2963     7448.3585  77.960202 -42.904178   0.000035   0.000203
1 63160U 25046B   25238.89870090  .00000174  00000-0  25123-3 0  9992 | 2 63160  88.9862 331.0379 0002071 109.2789 250.8587 13.50970876 32917 | 2025/08/26-21:34:07  327.7409    0.1152  250.8363  106.5900     7446.8256     7445.2834     7448.3678  77.857604 -43.089874   0.000035   0.000204
1 63160U 25046B   25240.52812738  .00000195  00000-0  28381-3 0  9992 | 2 63160  88.9861 330.8710 0002079 109.4814 250.6562 13.50971579 33138 | 2025/08/28-12:40:30  196.1074    0.1151  250.6337  106.5900     7446.8230     7445.2748     7448.3712  77.731668 -43.316438   0.000035   0.000205
1 63160U 25046B   25241.86129390  .00000198  00000-0  28852-3 0  9991 | 2 63160  88.9859 330.7344 0002088 109.6141 250.5236 13.50972148 33312 | 2025/08/29-20:40:15  317.4979    0.1151  250.5010  106.5899     7446.8209     7445.2660     7448.3758  77.628001 -43.501538   0.000035   0.000206
1 63160U 25046B   25242.89820076  .00000220  00000-0  32172-3 0  9990 | 2 63160  88.9858 330.6282 0002107 109.5220 250.6159 13.50972717 33452 | 2025/08/30-21:33:24  331.9124    0.1151  250.5931  106.5899     7446.8188     7445.2498     7448.3879  77.547149 -43.645301   0.000036   0.000208
1 63160U 25046B   25243.93510721  .00000237  00000-0  34832-3 0  9992 | 2 63160  88.9858 330.5219 0002116 109.5248 250.6132 13.50973273 33595 | 2025/08/31-22:26:33  346.3269    0.1151  250.5903  106.5898     7446.8168     7445.2411     7448.3925  77.466041 -43.789098   0.000037   0.000208
1 63160U 25046B   25245.26827203  .00000261  00000-0  38585-3 0  9992 | 2 63160  88.9857 330.3853 0002115 109.3393 250.7987 13.50974065 33773 | 2025/09/02-06:26:18  107.7169    0.1151  250.7758  106.5898     7446.8139     7445.2389     7448.3889  77.361335 -43.973612   0.000038   0.000208
1 63160U 25046B   25246.74956556  .00000248  00000-0  36611-3 0  9993 | 2 63160  88.9857 330.2335 0002129 109.1618 250.9764 13.50974725 33970 | 2025/09/03-17:59:22  282.5942    0.1151  250.9533  106.5897     7446.8115     7445.2260     7448.3969  77.244560 -44.178420   0.000039   0.000209
1 63160U 25046B   25247.86053521  .00000227  00000-0  33253-3 0  9993 | 2 63160  88.9856 330.1196 0002127 109.3284 250.8097 13.50975108 34124 | 2025/09/04-20:39:10  323.7523    0.1151  250.7867  106.5897     7446.8101     7445.2261     7448.3940  77.156497 -44.331839   0.000039   0.000209
1 63160U 25046B   25248.89743979  .00000211  00000-0  30777-3 0  9991 | 2 63160  88.9855 330.0133 0002130 109.2089 250.9293 13.50975574 34260 | 2025/09/05-21:32:18  338.1662    0.1151  250.9062  106.5896     7446.8083     7445.2222     7448.3945  77.074030 -44.474860   0.000040   0.000209
1 63160U 25046B   25249.93434405  .00000226  00000-0  33143-3 0  9994 | 2 63160  88.9853 329.9070 0002159 109.1733 250.9652 13.50976106 34408 | 2025/09/06-22:25:27  352.5797    0.1151  250.9418  106.5896     7446.8064     7445.1986     7448.4142  76.991210 -44.617677   0.000041   0.000212
1 63160U 25046B   25251.26750628  .00000198  00000-0  28794-3 0  9995 | 2 63160  88.9852 329.7702 0002164 108.9755 251.1631 13.50976521 34584 | 2025/09/08-06:25:12  113.9688    0.1151  251.1396  106.5896     7446.8049     7445.1934     7448.4164  76.884375 -44.801325   0.000042   0.000212
1 63160U 25046B   25252.89692613  .00000165  00000-0  23674-3 0  9990 | 2 63160  88.9850 329.6031 0002168 109.0911 251.0475 13.50976973 34807 | 2025/09/09-21:31:34  342.3331    0.1151  251.0240  106.5895     7446.8032     7445.1887     7448.4177  76.753215 -45.025262   0.000043   0.000213
1 63160U 25046B   25254.23008735  .00000163  00000-0  23385-3 0  9993 | 2 63160  88.9848 329.4663 0002186 109.0733 251.0655 13.50977449 34983 | 2025/09/11-05:31:19  103.7218    0.1151  251.0418  106.5895     7446.8015     7445.1736     7448.4293  76.645321 -45.208288   0.000043   0.000214
1 63160U 25046B   25255.56324823  .00000151  00000-0  21602-3 0  9996 | 2 63160  88.9846 329.3296 0002198 108.9009 251.2381 13.50977823 35164 | 2025/09/12-13:31:04  225.1102    0.1152  251.2143  106.5895     7446.8001     7445.1633     7448.4369  76.537070 -45.390923   0.000045   0.000215
1 63160U 25046B   25256.89640870  .00000142  00000-0  20212-3 0  9992 | 2 63160  88.9844 329.1928 0002204 108.6700 251.4691 13.50978186 35344 | 2025/09/13-21:30:49  346.4987    0.1152  251.4452  106.5894     7446.7987     7445.1575     7448.4400  76.428305 -45.573432   0.000046   0.000215
1 63160U 25046B   25258.22956873  .00000158  00000-0  22573-3 0  9993 | 2 63160  88.9842 329.0559 0002208 108.2671 251.8721 13.50978718 35527 | 2025/09/15-05:30:34  107.8872    0.1152  251.8481  106.5894     7446.7968     7445.1525     7448.4410  76.319024 -45.755813   0.000048   0.000215
1 63160U 25046B   25259.56272857  .00000148  00000-0  21104-3 0  9992 | 2 63160  88.9841 328.9191 0002217 108.0154 252.1238 13.50978987 35705 | 2025/09/16-13:30:19  229.2755    0.1150  252.0996  106.5894     7446.7958     7445.1448     7448.4468  76.209474 -45.937851   0.000050   0.000216
1 63160U 25046B   25260.89588809  .00000138  00000-0  19443-3 0  9999 | 2 63160  88.9839 328.7821 0002218 107.6612 252.4782 13.50979267 35883 | 2025/09/17-21:30:04  350.6638    0.1152  252.4540  106.5893     7446.7948     7445.1431     7448.4465  76.099243 -46.119840   0.000052   0.000216
1 63160U 25046B   25261.93278959  .00000145  00000-0  20616-3 0  9999 | 2 63160  88.9839 328.6757 0002220 107.5855 252.5539 13.50979593 36021 | 2025/09/18-22:23:13    5.0767    0.1151  252.5296  106.5893     7446.7936     7445.1404     7448.4468  76.013466 -46.261079   0.000053   0.000216
1 63160U 25046B   25263.26594851  .00000143  00000-0  20284-3 0  9998 | 2 63160  88.9837 328.5388 0002226 107.4945 252.6450 13.50979922 36202 | 2025/09/20-06:22:57  126.4648    0.1152  252.6207  106.5893     7446.7924     7445.1347     7448.4500  75.902544 -46.442466   0.000054   0.000216
1 63160U 25046B   25264.30285362  .00000088  00000-0  11742-3 0  9995 | 2 63160  88.9838 328.4329 0002225 106.6270 253.5126 13.50967619 36343 | 2025/09/21-07:16:06  140.8784    0.1152  253.4882  106.5903     7446.8376     7445.1807     7448.4945  75.816660 -46.582730   0.000057   0.000215
1 63160U 25046B   25265.56195925  .00000209  00000-0  30474-3 0  9997 | 2 63160  88.9834 328.3029 0002225 106.6823 253.4573 13.50968006 36514 | 2025/09/22-13:29:13  235.5275    0.1152  253.4329  106.5902     7446.8362     7445.1792     7448.4931  75.710432 -46.754422   0.000058   0.000215
1 63160U 25046B   25266.96919438  .00000233  00000-0  34186-3 0  9996 | 2 63160  88.9831 328.1583 0002224 106.2715 253.8681 13.50968652 36701 | 2025/09/23-23:15:38   23.6638    0.1151  253.8436  106.5902     7446.8338     7445.1776     7448.4900  75.591940 -46.945189   0.000060   0.000214
1 63160U 25046B   25268.30236396  .00000223  00000-0  32619-3 0  9999 | 2 63160  88.9828 328.0212 0002232 106.1411 253.9986 13.50969153 36881 | 2025/09/25-07:15:24  145.0559    0.1151  253.9740  106.5901     7446.8319     7445.1698     7448.4941  75.479136 -47.125775   0.000061   0.000215
1 63160U 25046B   25269.93179299  .00000150  00000-0  21434-3 0  9999 | 2 63160  88.9825 327.8537 0002247 105.8360 254.3039 13.50969438 37106 | 2025/09/26-22:21:46   13.4237    0.1151  254.2791  106.5901     7446.8309     7445.1576     7448.5042  75.340791 -47.346072   0.000063   0.000216
1 63160U 25046B   25274.67195907  .00000212  00000-0  30983-3 0  9998 | 2 63160  88.9817 327.3662 0002241 104.2134 255.9266 13.50967722 37740 | 2025/10/01-16:07:37  285.0430    0.1151  255.9017  106.5903     7446.8372     7445.1684     7448.5060  74.934552 -47.984954   0.000071   0.000213
1 63160U 25046B   25275.70886943  .00000220  00000-0  32215-3 0  9999 | 2 63160  88.9816 327.2594 0002243 103.9150 256.2251 13.50968182 37882 | 2025/10/02-17:00:46  299.4594    0.1151  256.2001  106.5902     7446.8355     7445.1652     7448.5058  74.844893 -48.124496   0.000072   0.000212
1 63160U 25046B   25277.48642944  .00000188  00000-0  27232-3 0  9993 | 2 63160  88.9813 327.0764 0002230 103.1853 256.9547 13.50968714 38128 | 2025/10/04-11:40:27  221.3162    0.1151  256.9298  106.5902     7446.8336     7445.1729     7448.4942  74.690553 -48.363138   0.000075   0.000210
1 63160U 25046B   25278.52333907  .00000155  00000-0  22176-3 0  9991 | 2 63160  88.9811 326.9696 0002226 102.9071 257.2329 13.50968963 38265 | 2025/10/05-12:33:36  235.7325    0.1151  257.2080  106.5902     7446.8326     7445.1750     7448.4903  74.600106 -48.502169   0.000077   0.000209
1 63160U 25046B   25280.00463817  .00000163  00000-0  23446-3 0  9991 | 2 63160  88.9809 326.8170 0002223 102.5175 257.6225 13.50969414 38469 | 2025/10/07-00:06:40   50.6128    0.1151  257.5976  106.5901     7446.8310     7445.1756     7448.4864  74.470495 -48.700575   0.000078   0.000208
1 63160U 25046B   25281.18967697  .00000165  00000-0  23773-3 0  9991 | 2 63160  88.9807 326.6948 0002219 102.2671 257.8728 13.50969828 38628 | 2025/10/08-04:33:08  118.5171    0.1150  257.8479  106.5901     7446.8295     7445.1770     7448.4819  74.366290 -48.859184   0.000080   0.000207
1 63160U 25046B   25282.30065069  .00000155  00000-0  22193-3 0  9992 | 2 63160  88.9805 326.5803 0002226 101.9917 258.1483 13.50970087 38779 | 2025/10/09-07:12:56  159.6771    0.1150  258.1233  106.5901     7446.8285     7445.1708     7448.4862  74.268334 -49.007590   0.000081   0.000207
1 63160U 25046B   25283.48568897  .00000138  00000-0  19528-3 0  9998 | 2 63160  88.9803 326.4582 0002214 101.5273 258.6127 13.50970416 38932 | 2025/10/10-11:39:23  227.5810    0.1151  258.5878  106.5900     7446.8273     7445.1786     7448.4760  74.163562 -49.165637   0.000083   0.000205
1 63160U 25046B   25284.96698645  .00000141  00000-0  19917-3 0  9993 | 2 63160  88.9795 326.3055 0002204 100.8294 259.3106 13.50970833 39131 | 2025/10/11-23:12:27   42.4608    0.1152  259.2858  106.5900     7446.8258     7445.1845     7448.4670  74.031601 -49.362673   0.000086   0.000203
1 63160U 25046B   25286.37421870  .00000126  00000-0  17655-3 0  9994 | 2 63160  88.9794 326.1603 0002196 100.3178 259.8220 13.50971143 39321 | 2025/10/13-08:58:52  190.5969    0.1150  259.7972  106.5900     7446.8246     7445.1893     7448.4599  73.906184 -49.550071   0.000088   0.000201
1 63160U 25046B   25287.92958031  .00000120  00000-0  16762-3 0  9992 | 2 63160  88.9792 325.9999 0002194  99.8460 260.2939 13.50971493 39532 | 2025/10/14-22:18:35   32.2204    0.1151  260.2691  106.5900     7446.8233     7445.1895     7448.4572  73.767013 -49.756666   0.000090   0.000200
1 63160U 25046B   25288.96648788  .00000115  00000-0  15990-3 0  9998 | 2 63160  88.9792 325.8929 0002177  99.4545 260.6852 13.50971707 39676 | 2025/10/15-23:11:44   46.6363    0.1151  260.6606  106.5899     7446.8226     7445.2014     7448.4437  73.673964 -49.894339   0.000091   0.000198
1 63160U 25046B   25290.15152478  .00000150  00000-0  21301-3 0  9990 | 2 63160  88.9790 325.7706 0002170  98.9097 261.2299 13.50972095 39836 | 2025/10/17-03:38:11  114.5400    0.1150  261.2053  106.5899     7446.8211     7445.2052     7448.4371  73.567129 -50.051373   0.000093   0.000196
1 63160U 25046B   25291.18843196  .00000140  00000-0  19866-3 0  9990 | 2 63160  88.9789 325.6635 0002156  98.6395 261.5000 13.50972292 39973 | 2025/10/18-04:31:20  128.9558    0.1151  261.4756  106.5899     7446.8204     7445.2149     7448.4259  73.473360 -50.188744   0.000093   0.000194
1 63160U 25046B   25292.29940369  .00000153  00000-0  21826-3 0  9996 | 2 63160  88.9787 325.5488 0002148  98.2617 261.8778 13.50972599 40124 | 2025/10/19-07:11:08  170.1154    0.1151  261.8534  106.5899     7446.8193     7445.2197     7448.4189  73.372575 -50.335616   0.000095   0.000193
1 63160U 25046B   25293.63256942  .00000156  00000-0  22376-3 0  9996 | 2 63160  88.9785 325.4111 0002145  97.7925 262.3470 13.50972961 40305 | 2025/10/20-15:10:53  291.5068    0.1151  262.3226  106.5898     7446.8179     7445.2206     7448.4153  73.251226 -50.511695   0.000097   0.000191
1 63160U 25046B   25294.89167002  .00000149  00000-0  21299-3 0  9998 | 2 63160  88.9783 325.2810 0002133  97.2349 262.9045 13.50973265 40479 | 2025/10/21-21:24:00   26.1542    0.1151  262.8802  106.5898     7446.8168     7445.2284     7448.4052  73.136178 -50.677780   0.000098   0.000189
1 63160U 25046B   25296.00264076  .00000151  00000-0  21463-3 0  9998 | 2 63160  88.9781 325.1662 0002128  97.0337 263.1056 13.50973596 40629 | 2025/10/23-00:03:48   67.3136    0.1151  263.0814  106.5898     7446.8156     7445.2309     7448.4003  73.034327 -50.824102   0.000099   0.000188
1 63160U 25046B   25297.26174087  .00000100  00000-0  13560-3 0  9992 | 2 63160  88.9776 325.0361 0002122  96.5322 263.6071 13.50973715 40793 | 2025/10/24-06:16:54  161.9608    0.1151  263.5829  106.5898     7446.8152     7445.2350     7448.3954  72.918324 -50.989522   0.000101   0.000187
1 63160U 25046B   25298.29864675  .00000049  00000-0  56990-4 0  9992 | 2 63160  88.9774 324.9290 0002119  96.2823 263.8570 13.50973718 40934 | 2025/10/25-07:10:03  176.3760    0.1152  263.8329  106.5898     7446.8152     7445.2372     7448.3931  72.822721 -51.125620   0.000102   0.000186
1 63160U 25046B   25299.33555265  .00000033  00000-0  32350-4 0  9997 | 2 63160  88.9773 324.8218 0002111  95.6652 264.4740 13.50973731 41074 | 2025/10/26-08:03:11  190.7915    0.1151  264.4499  106.5898     7446.8151     7445.2431     7448.3871  72.726856 -51.261724   0.000104   0.000184
1 63160U 25046B   25300.52058782  .00000036  00000-0  37146-4 0  9994 | 2 63160  88.9772 324.6993 0002101  95.2034 264.9357 13.50973835 41232 | 2025/10/27-12:29:38  258.6948    0.1151  264.9117  106.5898     7446.8147     7445.2502     7448.3793  72.617009 -51.417041   0.000105   0.000182
1 63160U 25046B   25301.55749367  .00000034  00000-0  34367-4 0  9994 | 2 63160  88.9770 324.5920 0002096  94.7878 265.3513 13.50973870 41375 | 2025/10/28-13:22:47  273.1102    0.1152  265.3274  106.5898     7446.8146     7445.2538     7448.3755  72.520428 -51.552827   0.000107   0.000180
1 63160U 25046B   25302.89065823  .00000032  00000-0  30243-4 0  9997 | 2 63160  88.9769 324.4542 0002093  94.4486 265.6904 13.50973917 41550 | 2025/10/29-21:22:32   34.5014    0.1151  265.6665  106.5898     7446.8144     7445.2558     7448.3731  72.396150 -51.727036   0.000108   0.000179
1 63160U 25046B   25304.22382274  .00000050  00000-0  58719-4 0  9996 | 2 63160  88.9767 324.3162 0002092  94.1659 265.9732 13.50974044 41737 | 2025/10/31-05:22:18  155.8925    0.1152  265.9493  106.5898     7446.8140     7445.2561     7448.3718  72.271190 -51.901139   0.000109   0.000178
1 63160U 25046B   25305.55698726  .00000050  00000-0  59032-4 0  9994 | 2 63160  88.9765 324.1782 0002081  93.4688 266.6702 13.50974091 41910 | 2025/11/01-13:22:03  277.2839    0.1152  266.6464  106.5898     7446.8138     7445.2641     7448.3635  72.145812 -52.074941   0.000111   0.000176
1 63160U 25046B   25307.77892770  .00000062  00000-0  77853-4 0  9999 | 2 63160  88.9762 323.9482 0002075  92.9405 267.1984 13.50974282 42219 | 2025/11/03-18:41:39  359.6026    0.1152  267.1747  106.5897     7446.8131     7445.2679     7448.3583  71.935946 -52.363955   0.000113   0.000174
1 63160U 25046B   25308.81583302  .00000066  00000-0  83985-4 0  9990 | 2 63160  88.9760 323.8409 0002071  92.7579 267.3809 13.50974412 42359 | 2025/11/04-19:34:47   14.0179    0.1151  267.3572  106.5897     7446.8126     7445.2704     7448.3548  71.837595 -52.498463   0.000114   0.000173
1 63160U 25046B   25309.92680305  .00000048  00000-0  55238-4 0  9994 | 2 63160  88.9759 323.7258 0002066  92.2497 267.8890 13.50974454 42504 | 2025/11/05-22:14:35   55.1774    0.1150  267.8653  106.5897     7446.8125     7445.2739     7448.3510  71.731906 -52.642610   0.000116   0.000171
1 63160U 25046B   25311.11183752  .00000047  00000-0  54441-4 0  9996 | 2 63160  88.9758 323.6031 0002060  91.5211 268.6176 13.50974585 42669 | 2025/11/07-02:41:02  123.0805    0.1151  268.5940  106.5897     7446.8120     7445.2779     7448.3460  71.618926 -52.796045   0.000118   0.000169
1 63160U 25046B   25312.14874270  .00000039  00000-0  41267-4 0  9995 | 2 63160  88.9757 323.4956 0002054  90.9911 269.1475 13.50974646 42807 | 2025/11/08-03:34:11  137.4960    0.1151  269.1240  106.5897     7446.8118     7445.2822     7448.3413  71.519662 -52.930266   0.000119   0.000167
1 63160U 25046B   25314.96319926  .00000030  00000-0  28092-4 0  9991 | 2 63160  88.9755 323.2041 0002043  90.2600 269.8786 13.50974863 43189 | 2025/11/10-23:07:00   73.7659    0.1152  269.8552  106.5897     7446.8110     7445.2896     7448.3323  71.249288 -53.293326   0.000122   0.000164
1 63160U 25046B   25316.29636272  .00000083  00000-0  10935-3 0  9999 | 2 63160  88.9755 323.0660 0002034  89.4346 270.7039 13.50975132 43363 | 2025/11/12-07:06:45  195.1570    0.1152  270.6806  106.5897     7446.8100     7445.2953     7448.3246  71.120628 -53.464903   0.000124   0.000161
1 63160U 25046B   25317.55546140  .00000085  00000-0  11313-3 0  9996 | 2 63160  88.9754 322.9355 0002026  89.4166 270.7218 13.50975292 43537 | 2025/11/13-13:19:51  289.8041    0.1152  270.6986  106.5897     7446.8094     7445.3007     7448.3181  70.998589 -53.626692   0.000124   0.000160
1 63160U 25046B   25318.74049536  .00000087  00000-0  11539-3 0  9997 | 2 63160  88.9754 322.8127 0002023  89.2894 270.8489 13.50975408 43693 | 2025/11/14-17:46:18  357.7073    0.1151  270.8257  106.5897     7446.8090     7445.3025     7448.3154  70.883490 -53.778738   0.000124   0.000160
1 63160U 25046B   25319.77739998  .00000086  00000-0  11433-3 0  9991 | 2 63160  88.9753 322.7051 0002031  88.2494 271.8890 13.50975542 43833 | 2025/11/15-18:39:27   12.1225    0.1151  271.8657  106.5896     7446.8085     7445.2960     7448.3209  70.782291 -53.911699   0.000128   0.000158
1 63160U 25046B   25320.81430449  .00000065  00000-0  81328-4 0  9995 | 2 63160  88.9752 322.5977 0002028  87.6324 272.5059 13.50975592 43973 | 2025/11/16-19:32:35   26.5376    0.1151  272.4827  106.5896     7446.8083     7445.2981     7448.3185  70.681030 -54.044224   0.000130   0.000156
1 63160U 25046B   25322.07340248  .00000067  00000-0  84679-4 0  9996 | 2 63160  88.9751 322.4673 0002012  87.6847 272.4534 13.50975801 44147 | 2025/11/18-01:45:41  121.1845    0.1151  272.4304  106.5896     7446.8075     7445.3092     7448.3058  70.557768 -54.204887   0.000129   0.000154
1 63160U 25046B   25323.25843592  .00000055  00000-0  66043-4 0  9999 | 2 63160  88.9750 322.3445 0002016  87.0143 273.1239 13.50975868 44300 | 2025/11/19-06:12:08  189.0873    0.1151  273.1008  106.5896     7446.8073     7445.3060     7448.3085  70.441352 -54.355925   0.000131   0.000153
1 63160U 25046B   25324.29533999  .00000054  00000-0  64664-4 0  9997 | 2 63160  88.9750 322.2370 0002017  86.7001 273.4381 13.50975993 44441 | 2025/11/20-07:05:17  203.5023    0.1151  273.4150  106.5896     7446.8068     7445.3048     7448.3088  70.339244 -54.487993   0.000132   0.000152
1 63160U 25046B   25325.55443781  .00000031  00000-0  30110-4 0  9990 | 2 63160  88.9750 322.1064 0002010  86.4565 273.6816 13.50976041 44614 | 2025/11/21-13:18:23  298.1492    0.1151  273.6586  106.5896     7446.8066     7445.3098     7448.3034  70.214861 -54.648183   0.000133   0.000151
1 63160U 25046B   25326.73947105  .00000032  00000-0  30634-4 0  9992 | 2 63160  88.9751 321.9836 0002017  85.3905 274.7476 13.50976089 44775 | 2025/11/22-17:44:50    6.0520    0.1151  274.7246  106.5896     7446.8065     7445.3044     7448.3085  70.097653 -54.798608   0.000137   0.000148
1 63160U 25046B   25327.99856877  .00000030  00000-0  27497-4 0  9997 | 2 63160  88.9751 321.8530 0002013  84.9631 275.1750 13.50976180 44943 | 2025/11/23-23:57:56  100.6988    0.1151  275.1520  106.5896     7446.8061     7445.3071     7448.3052  69.972563 -54.958246   0.000138   0.000147
1 63160U 25046B   25329.03547275  .00000017  00000-0  69258-5 0  9990 | 2 63160  88.9752 321.7456 0001992  85.0019 275.1359 13.50976190 45089 | 2025/11/25-00:51:04  115.1140    0.1151  275.1132  106.5896     7446.8061     7445.3227     7448.2895  69.869501 -55.089374   0.000136   0.000145
1 63160U 25046B   25330.14644139  .00000023  00000-0  17160-4 0  9992 | 2 63160  88.9752 321.6304 0001995  84.4046 275.7333 13.50976208 45231 | 2025/11/26-03:30:52  156.2728    0.1152  275.7106  106.5896     7446.8060     7445.3204     7448.2917  69.758596 -55.229743   0.000138   0.000144
1 63160U 25046B   25331.25740988  .00000063  00000-0  78343-4 0  9998 | 2 63160  88.9753 321.5153 0001998  84.0671 276.0708 13.50976382 45385 | 2025/11/27-06:10:40  197.4316    0.1151  276.0480  106.5896     7446.8054     7445.3175     7448.2932  69.647584 -55.369830   0.000140   0.000143
1 63160U 25046B   25332.59057204  .00000048  00000-0  56313-4 0  9994 | 2 63160  88.9753 321.3771 0001989  83.7263 276.4114 13.50976415 45564 | 2025/11/28-14:10:25  318.8224    0.1150  276.3887  106.5896     7446.8053     7445.3241     7448.2864  69.513827 -55.537662   0.000140   0.000141
1 63160U 25046B   25333.77560499  .00000070  00000-0  89990-4 0  9992 | 2 63160  88.9753 321.2543 0001987  83.2152 276.9225 13.50976535 45729 | 2025/11/29-18:36:52   26.7251    0.1151  276.8999  106.5896     7446.8048     7445.3251     7448.2845  69.394635 -55.686521   0.000142   0.000139
1 63160U 25046B   25334.88657323  .00000055  00000-0  66803-4 0  9999 | 2 63160  88.9753 321.1391 0001983  82.8764 277.2613 13.50976608 45871 | 2025/11/30-21:16:39   67.8839    0.1152  277.2388  106.5896     7446.8045     7445.3278     7448.2812  69.282531 -55.825934   0.000143   0.000138
1 63160U 25046B   25336.07160590  .00000056  00000-0  68672-4 0  9994 | 2 63160  88.9753 321.0163 0001975  82.6608 277.4767 13.50976717 46035 | 2025/12/02-01:43:06  135.7866    0.1151  277.4543  106.5895     7446.8041     7445.3334     7448.2749  69.162722 -55.974297   0.000143   0.000136
1 63160U 25046B   25337.10850937  .00000061  00000-0  75352-4 0  9999 | 2 63160  88.9754 320.9089 0001973  82.1224 278.0151 13.50976844 46178 | 2025/12/03-02:36:15  150.2013    0.1151  277.9927  106.5895     7446.8037     7445.3344     7448.2729  69.057755 -56.103906   0.000144   0.000135
1 63160U 25046B   25338.29354186  .00000040  00000-0  42550-4 0  9996 | 2 63160  88.9754 320.7861 0001959  81.8415 278.2959 13.50976909 46334 | 2025/12/04-07:02:42  218.1039    0.1152  278.2737  106.5895     7446.8034     7445.3446     7448.2623  68.937351 -56.251786   0.000144   0.000133
1 63160U 25046B   25339.92296072  .00000169  00000-0  24361-3 0  9997 | 2 63160  88.9755 320.6173 0001983  80.9511 279.1864 13.50977777 46557 | 2025/12/05-22:09:03   86.4695    0.1151  279.1640  106.5895     7446.8002     7445.3235     7448.2769  68.771405 -56.454702   0.000148   0.000132
1 63160U 25046B   25340.95986347  .00000147  00000-0  20877-3 0  9997 | 2 63160  88.9755 320.5098 0001989  80.5631 279.5745 13.50978023 46699 | 2025/12/06-23:02:12  100.8839    0.1151  279.5520  106.5894     7446.7993     7445.3182     7448.2805  68.665362 -56.583634   0.000150   0.000131
1 63160U 25046B   25342.21895954  .00000130  00000-0  18253-3 0  9998 | 2 63160  88.9757 320.3793 0001988  80.1703 279.9672 13.50978235 46863 | 2025/12/08-05:15:18  195.5301    0.1151  279.9448  106.5894     7446.7986     7445.3181     7448.2790  68.536460 -56.740010   0.000151   0.000129
1 63160U 25046B   25343.25586179  .00000165  00000-0  23763-3 0  9999 | 2 63160  88.9758 320.2719 0001991  79.9758 280.1618 13.50978643 47005 | 2025/12/09-06:08:26  209.9442    0.1151  280.1393  106.5894     7446.7971     7445.3144     7448.2797  68.430059 -56.868445   0.000152   0.000129
1 63160U 25046B   25344.44089287  .00000151  00000-0  21505-3 0  9996 | 2 63160  88.9760 320.1492 0001987  79.3479 280.7895 13.50978834 47166 | 2025/12/10-10:34:53  277.8463    0.1150  280.7671  106.5894     7446.7964     7445.3167     7448.2760  68.308271 -57.014987   0.000153   0.000126
1 63160U 25046B   25345.62592350  .00000160  00000-0  22891-3 0  9996 | 2 63160  88.9761 320.0265 0001992  78.6967 281.4408 13.50979233 47324 | 2025/12/11-15:01:19  345.7480    0.1151  281.4184  106.5894     7446.7949     7445.3115     7448.2783  68.186092 -57.161204   0.000155   0.000125
1 63160U 25046B   25346.95908256  .00000180  00000-0  26036-3 0  9996 | 2 63160  88.9762 319.8884 0001990  78.1310 282.0065 13.50979698 47504 | 2025/12/12-23:01:04  107.1374    0.1152  281.9842  106.5893     7446.7932     7445.3113     7448.2751  68.048195 -57.325451   0.000157   0.000123
1 63160U 25046B   25347.99598373  .00000156  00000-0  22348-3 0  9991 | 2 63160  88.9762 319.7811 0001990  77.7295 282.4079 13.50979948 47642 | 2025/12/13-23:54:12  121.5512    0.1151  282.3856  106.5893     7446.7923     7445.3104     7448.2742  67.940720 -57.452787   0.000158   0.000121
1 63160U 25046B   25349.32914213  .00000147  00000-0  20972-3 0  9996 | 2 63160  88.9763 319.6430 0001997  77.2151 282.9223 13.50980269 47826 | 2025/12/15-07:53:57  242.9403    0.1151  282.9000  106.5893     7446.7911     7445.3040     7448.2782  67.802121 -57.616442   0.000160   0.000120
1 63160U 25046B   25350.81042873  .00000114  00000-0  15866-3 0  9996 | 2 63160  88.9764 319.4897 0001990  76.5964 283.5408 13.50980587 48027 | 2025/12/16-19:27:01   57.8170    0.1150  283.5186  106.5892     7446.7899     7445.3080     7448.2718  67.647796 -57.797711   0.000161   0.000117
1 63160U 25046B   25351.92139897  .00000098  00000-0  13336-3 0  9993 | 2 63160  88.9764 319.3748 0002016  76.1964 283.9412 13.50975296 48173 | 2025/12/17-22:06:48   98.9759    0.1152  283.9188  106.5897     7446.8094     7445.3081     7448.3106  67.531754 -57.933255   0.000164   0.000117
1 63160U 25046B   25352.95830376  .00000015  00000-0  46221-5 0  9997 | 2 63160  88.9766 319.2675 0002035  75.8677 284.2700 13.50975217 48314 | 2025/12/18-22:59:57  113.3908    0.1151  284.2474  106.5897     7446.8097     7445.2942     7448.3251  67.423293 -58.059753   0.000166   0.000117
1 63160U 25046B   25354.14333742  .00000063  00000-0  78199-4 0  9996 | 2 63160  88.9768 319.1449 0002031  75.3642 284.7734 13.50975510 48472 | 2025/12/20-03:26:24  181.2936    0.1151  284.7509  106.5896     7446.8086     7445.2961     7448.3210  67.299055 -58.204021   0.000167   0.000115
1 63160U 25046B   25355.18024184  .00000100  00000-0  13563-3 0  9993 | 2 63160  88.9769 319.0376 0002026  75.0810 285.0565 13.50975769 48617 | 2025/12/21-04:19:32  195.7087    0.1151  285.0341  106.5896     7446.8076     7445.2989     7448.3164  67.190012 -58.330018   0.000168   0.000114
1 63160U 25046B   25356.21714598  .00000120  00000-0  16781-3 0  9990 | 2 63160  88.9771 318.9303 0002017  74.7859 285.3515 13.50976103 48753 | 2025/12/22-05:12:41  210.1236    0.1151  285.3292  106.5896     7446.8064     7445.3044     7448.3084  67.080808 -58.455876   0.000168   0.000112
1 63160U 25046B   25357.84656647  .00000150  00000-0  21443-3 0  9994 | 2 63160  88.9772 318.7618 0002013  74.0859 286.0514 13.50976552 48979 | 2025/12/23-20:19:03   78.4896    0.1151  286.0292  106.5896     7446.8048     7445.3057     7448.3038  66.908682 -58.652966   0.000169   0.000109
1 63160U 25046B   25358.88347007  .00000164  00000-0  23545-3 0  9996 | 2 63160  88.9773 318.6546 0002012  73.7101 286.4271 13.50976912 49115 | 2025/12/24-21:12:11   92.9042    0.1151  286.4050  106.5895     7446.8034     7445.3051     7448.3017  66.798901 -58.778115   0.000170   0.000108
1 63160U 25046B   25359.92037344  .00000176  00000-0  25413-3 0  9991 | 2 63160  88.9774 318.5474 0002006  73.3768 286.7603 13.50977231 49255 | 2025/12/25-22:05:20  107.3187    0.1151  286.7383  106.5895     7446.8023     7445.3084     7448.2961  66.688885 -58.903058   0.000170   0.000106
1 63160U 25046B   25360.95727646  .00000190  00000-0  27597-3 0  9998 | 2 63160  88.9775 318.4402 0002005  73.0407 287.0964 13.50977647 49392 | 2025/12/26-22:58:28  121.7330    0.1151  287.0744  106.5895     7446.8007     7445.3076     7448.2938  66.578636 -59.027796   0.000171   0.000105
1 63160U 25046B   25362.14230806  .00000207  00000-0  30212-3 0  9995 | 2 63160  88.9776 318.3177 0001999  72.6486 287.4884 13.50978147 49553 | 2025/12/28-03:24:55  189.6350    0.1152  287.4666  106.5894     7446.7989     7445.3103     7448.2875  66.452356 -59.170075   0.000171   0.000103
1 63160U 25046B   25363.25327462  .00000225  00000-0  32929-3 0  9990 | 2 63160  88.9777 318.2028 0001995  72.3075 287.8294 13.50978747 49707 | 2025/12/29-06:04:42  230.7930    0.1151  287.8076  106.5894     7446.7967     7445.3110     7448.2823  66.333638 -59.303285   0.000172   0.000101
1 63160U 25046B   25364.58643401  .00000237  00000-0  34928-3 0  9995 | 2 63160  88.9778 318.0651 0001990  71.8553 288.2814 13.50979403 49880 | 2025/12/30-14:04:27  352.1823    0.1150  288.2597  106.5893     7446.7943     7445.3124     7448.2762  66.190996 -59.462601   0.000172   0.000099
1 63160U 25046B   25365.91959275  .00000249  00000-0  36762-3 0  9993 | 2 63160  88.9779 317.9272 0001987  71.5044 288.6323 13.50980077 50066 | 2025/12/31-22:04:12  113.5714    0.1151  288.6107  106.5893     7446.7918     7445.3121     7448.2715  66.047764 -59.621805   0.000173   0.000098
1 63160U 25046B   26001.95649346  .00000246  00000-0  36317-3 0  9993 | 2 63160  88.9780 317.8201 0001966  71.2981 288.8383 13.50980622 50203 | 2026/01/01-22:57:21  127.9851    0.1151  288.8170  106.5892     7446.7898     7445.3258     7448.2538  65.936275 -59.745227   0.000172   0.000096
1 63160U 25046B   26003.14152256  .00000249  00000-0  36714-3 0  9999 | 2 63160  88.9781 317.6977 0001967  70.9161 289.2203 13.50981168 50368 | 2026/01/03-03:23:47  195.8860    0.1151  289.1990  106.5892     7446.7878     7445.3230     7448.2526  65.808566 -59.886017   0.000173   0.000094
1 63160U 25046B   26004.17842267  .00000230  00000-0  33737-3 0  9993 | 2 63160  88.9782 317.5906 0001971  70.7552 289.3812 13.50981539 50502 | 2026/01/04-04:16:55  210.2991    0.1151  289.3599  106.5892     7446.7864     7445.3187     7448.2542  65.696583 -60.008992   0.000173   0.000094
1 63160U 25046B   26005.21532240  .00000223  00000-0  32616-3 0  9993 | 2 63160  88.9784 317.4835 0001970  70.8183 289.3181 13.50981976 50643 | 2026/01/05-05:10:03  224.7122    0.1151  289.2968  106.5891     7446.7848     7445.3178     7448.2518  65.584444 -60.131825   0.000173   0.000093
1 63160U 25046B   26006.25222181  .00000238  00000-0  34997-3 0  9998 | 2 63160  88.9785 317.3764 0001964  70.6015 289.5349 13.50982429 50786 | 2026/01/06-06:03:11  239.1251    0.1152  289.5137  106.5891     7446.7832     7445.3206     7448.2457  65.472002 -60.254381   0.000173   0.000092
1 63160U 25046B   26007.43724925  .00000225  00000-0  33023-3 0  9997 | 2 63160  88.9786 317.2540 0001960  70.1999 289.9363 13.50982908 50940 | 2026/01/07-10:29:38  307.0256    0.1151  289.9152  106.5891     7446.7814     7445.3218     7448.2410  65.343205 -60.394178   0.000174   0.000090
1 63160U 25046B   26008.47414786  .00000226  00000-0  33189-3 0  9997 | 2 63160  88.9787 317.1469 0001951  69.9451 290.1910 13.50983377 51088 | 2026/01/08-11:22:46  321.4383    0.1151  290.1700  106.5890     7446.7797     7445.3268     7448.2325  65.230273 -60.516283   0.000174   0.000089
1 63160U 25046B   26009.58511024  .00000218  00000-0  31934-3 0  9990 | 2 63160  88.9788 317.0323 0001945  69.7827 290.3533 13.50983837 51236 | 2026/01/09-14:02:33    2.5944    0.1151  290.3324  106.5890     7446.7780     7445.3296     7448.2264  65.109174 -60.646701   0.000174   0.000088
1 63160U 25046B   26010.91826456  .00000210  00000-0  30724-3 0  9995 | 2 63160  88.9789 316.8946 0001934  69.5458 290.5900 13.50984408 51416 | 2026/01/10-22:02:18  123.9819    0.1151  290.5693  106.5889     7446.7759     7445.3357     7448.2161  64.963306 -60.803072   0.000173   0.000086
1 63160U 25046B   26011.95516210  .00000191  00000-0  27777-3 0  9996 | 2 63160  88.9789 316.7876 0001932  69.4590 290.6768 13.50984747 51555 | 2026/01/11-22:55:26  138.3940    0.1151  290.6561  106.5889     7446.7746     7445.3359     7448.2134  64.849643 -60.924285   0.000173   0.000085
1 63160U 25046B   26013.14018744  .00000165  00000-0  23743-3 0  9998 | 2 63160  88.9790 316.6653 0001927  69.3826 290.7532 13.50985104 51710 | 2026/01/13-03:21:52  206.2935    0.1151  290.7325  106.5889     7446.7733     7445.3383     7448.2083  64.719523 -61.062638   0.000173   0.000085
1 63160U 25046B   26014.54740470  .00000139  00000-0  19653-3 0  9997 | 2 63160  88.9790 316.5201 0001917  69.1592 290.9764 13.50985458 51907 | 2026/01/14-13:08:15  354.4241    0.1151  290.9559  106.5889     7446.7720     7445.3445     7448.1996  64.564569 -61.226456   0.000173   0.000083
1 63160U 25046B   26015.58430133  .00000132  00000-0  18565-3 0  9998 | 2 63160  88.9791 316.4132 0001912  68.8150 291.3205 13.50985781 52041 | 2026/01/15-14:01:23    8.8359    0.1151  291.3001  106.5888     7446.7708     7445.3470     7448.1947  64.450295 -61.346880   0.000173   0.000081
1 63160U 25046B   26016.91745386  .00000156  00000-0  22380-3 0  9991 | 2 63160  88.9793 316.2756 0001897  68.6431 291.4922 13.50986300 52220 | 2026/01/16-22:01:08  130.2227    0.1151  291.4720  106.5888     7446.7689     7445.3563     7448.1816  64.302925 -61.501623   0.000172   0.000080
1 63160U 25046B   26018.62092601  .00000180  00000-0  25959-3 0  9998 | 2 63160  88.9794 316.0999 0001887  68.6824 291.4528 13.50986872 52454 | 2026/01/18-14:54:08   25.3274    0.1151  291.4327  106.5887     7446.7668     7445.3616     7448.1720  64.114098 -61.698591   0.000171   0.000079
1 63160U 25046B   26019.95407744  .00000227  00000-0  33235-3 0  9991 | 2 63160  88.9795 315.9624 0001870  68.6007 291.5343 13.50987582 52638 | 2026/01/19-22:53:52  146.7137    0.1151  291.5144  106.5887     7446.7642     7445.3717     7448.1568  63.965919 -61.852345   0.000170   0.000078
1 63160U 25046B   26021.50941883  .00000321  00000-0  47834-3 0  9997 | 2 63160  88.9796 315.8020 0001866  68.6829 291.4521 13.50989032 52847 | 2026/01/21-12:13:33  348.3300    0.1151  291.4322  106.5886     7446.7589     7445.3693     7448.1485  63.792584 -62.031245   0.000170   0.000077
1 63160U 25046B   26022.91663177  .00000315  00000-0  46968-3 0  9990 | 2 63160  88.9796 315.6569 0001857  68.7360 291.3990 13.50989924 53035 | 2026/01/22-21:59:56  136.4588    0.1152  291.3792  106.5885     7446.7556     7445.3727     7448.1385  63.635288 -62.192599   0.000169   0.000077
1 63160U 25046B   26023.95352458  .00000323  00000-0  48100-3 0  9991 | 2 63160  88.9796 315.5499 0001841  68.7823 291.3524 13.50990847 53177 | 2026/01/23-22:53:04  150.8695    0.1151  291.3328  106.5884     7446.7522     7445.3813     7448.1232  63.519032 -62.311330   0.000168   0.000076
1 63160U 25046B   26025.13854453  .00000292  00000-0  43312-3 0  9990 | 2 63160  88.9796 315.4277 0001830  68.9168 291.2179 13.50991485 53334 | 2026/01/25-03:19:30  218.7669    0.1151  291.1983  106.5884     7446.7499     7445.3871     7448.1126  63.385990 -62.446661   0.000167   0.000075
1 63160U 25046B   26026.24950013  .00000263  00000-0  38931-3 0  9991 | 2 63160  88.9796 315.3132 0001825  69.0204 291.1142 13.50992082 53489 | 2026/01/26-05:59:16  259.9205    0.1151  291.0947  106.5883     7446.7477     7445.3886     7448.1067  63.261070 -62.573207   0.000166   0.000075
1 63160U 25046B   26027.28639153  .00000268  00000-0  39627-3 0  9993 | 2 63160  88.9796 315.2062 0001816  69.1202 291.0143 13.50992757 53624 | 2026/01/27-06:52:24  274.3305    0.1151  290.9949  106.5883     7446.7452     7445.3929     7448.0975  63.144105 -62.691238   0.000165   0.000075
1 63160U 25046B   26028.91579153  .00000244  00000-0  35932-3 0  9996 | 2 63160  88.9795 315.0382 0001807  69.3460 290.7885 13.50993539 53846 | 2026/01/28-21:58:44  142.6885    0.1151  290.7691  106.5882     7446.7423     7445.3967     7448.0880  62.959942 -62.876045   0.000165   0.000075
1 63160U 25046B   26030.10080906  .00000237  00000-0  34869-3 0  9993 | 2 63160  88.9795 314.9160 0001790  69.6192 290.5152 13.50994138 54004 | 2026/01/30-02:25:09  210.5852    0.1152  290.4960  106.5882     7446.7401     7445.4072     7448.0731  62.825698 -63.010183   0.000163   0.000074
1 63160U 25046B   26031.13769917  .00000213  00000-0  31068-3 0  9995 | 2 63160  88.9795 314.8091 0001797  69.8342 290.3002 13.50994518 54141 | 2026/01/31-03:18:17  224.9945    0.1151  290.2809  106.5881     7446.7387     7445.4006     7448.0769  62.708027 -63.127291   0.000163   0.000075
1 63160U 25046B   26032.47084301  .00000209  00000-0  30435-3 0  9992 | 2 63160  88.9795 314.6716 0001802  70.2527 289.8818 13.50995109 54326 | 2026/02/01-11:18:00  346.3777    0.1151  289.8624  106.5881     7446.7366     7445.3947     7448.0785  62.556352 -63.277597   0.000163   0.000076
1 63160U 25046B   26033.58179569  .00000217  00000-0  31751-3 0  9997 | 2 63160  88.9796 314.5571 0001787  70.3751 289.7593 13.50995666 54470 | 2026/02/02-13:57:47   27.5303    0.1151  289.7400  106.5881     7446.7345     7445.4038     7448.0652  62.429843 -63.402555   0.000162   0.000075
1 63160U 25046B   26034.61868436  .00000231  00000-0  33981-3 0  9993 | 2 63160  88.9795 314.4501 0001772  70.5324 289.6018 13.50996246 54615 | 2026/02/03-14:50:54   41.9394    0.1151  289.5827  106.5880     7446.7324     7445.4128     7448.0519  62.311260 -63.518961   0.000161   0.000075
1 63160U 25046B   26035.80369960  .00000247  00000-0  36331-3 0  9992 | 2 63160  88.9795 314.3279 0001767  70.9297 289.2045 13.50996874 54773 | 2026/02/04-19:17:19  109.8351    0.1151  289.1854  106.5880     7446.7301     7445.4142     7448.0459  62.175645 -63.651713   0.000160   0.000075
1 63160U 25046B   26036.91465068  .00000249  00000-0  36729-3 0  9994 | 2 63160  88.9794 314.2133 0001764  71.2059 288.9283 13.50997544 54929 | 2026/02/05-21:57:05  150.9871    0.1151  288.9092  106.5879     7446.7276     7445.4140     7448.0412  62.048138 -63.775874   0.000159   0.000076
1 63160U 25046B   26038.17372813  .00000249  00000-0  36653-3 0  9995 | 2 63160  88.9792 314.0835 0001755  71.5002 288.6339 13.50998196 55097 | 2026/02/07-04:10:10  245.6259    0.1150  288.6148  106.5879     7446.7252     7445.4183     7448.0321  61.903360 -63.916133   0.000158   0.000076
1 63160U 25046B   26039.28467837  .00000219  00000-0  32031-3 0  9992 | 2 63160  88.9791 313.9689 0001757  71.6470 288.4872 13.50998652 55247 | 2026/02/08-06:49:56  286.7775    0.1151  288.4681  106.5878     7446.7235     7445.4151     7448.0319  61.775325 -64.039749   0.000158   0.000076
1 63160U 25046B   26040.46969157  .00000207  00000-0  30154-3 0  9997 | 2 63160  88.9790 313.8467 0001759  71.9264 288.2078 13.50999141 55403 | 2026/02/09-11:16:21  354.6724    0.1151  288.1887  106.5878     7446.7217     7445.4119     7448.0316  61.638532 -64.171285   0.000158   0.000076
1 63160U 25046B   26041.58064103  .00000188  00000-0  27269-3 0  9999 | 2 63160  88.9789 313.7321 0001754  72.2856 287.8486 13.50999555 55558 | 2026/02/10-13:56:07   35.8238    0.1151  287.8295  106.5877     7446.7202     7445.4141     7448.0264  61.509988 -64.294370   0.000158   0.000077
1 63160U 25046B   26042.91378002  .00000190  00000-0  27627-3 0  9994 | 2 63160  88.9788 313.5945 0001760  72.4015 287.7329 13.51000085 55730 | 2026/02/11-21:55:50  157.2053    0.1152  287.7137  106.5877     7446.7183     7445.4077     7448.0289  61.355334 -64.441833   0.000158   0.000077
1 63160U 25046B   26044.17285527  .00000188  00000-0  27245-3 0  9996 | 2 63160  88.9788 313.4646 0001756  72.6591 287.4752 13.51000552 55908 | 2026/02/13-04:08:54  251.8434    0.1151  287.4560  106.5877     7446.7166     7445.4089     7448.0242  61.209075 -64.580771   0.000158   0.000077
1 63160U 25046B   26045.28380367  .00000199  00000-0  28980-3 0  9996 | 2 63160  88.9787 313.3500 0001755  73.0673 287.0671 13.51001009 56051 | 2026/02/14-06:48:40  292.9943    0.1152  287.0479  106.5876     7446.7149     7445.4080     7448.0218  61.079713 -64.702996   0.000157   0.000078
1 63160U 25046B   26046.46881494  .00000216  00000-0  31635-3 0  9995 | 2 63160  88.9786 313.2278 0001772  73.9201 286.2145 13.51001494 56219 | 2026/02/15-11:15:05    0.8884    0.1151  286.1950  106.5876     7446.7131     7445.3935     7448.0327  60.941507 -64.833047   0.000158   0.000081
1 63160U 25046B   26047.57976266  .00000198  00000-0  28761-3 0  9995 | 2 63160  88.9785 313.1131 0001775  74.1476 285.9871 13.51001832 56369 | 2026/02/16-13:54:51   42.0391    0.1151  285.9675  106.5876     7446.7119     7445.3901     7448.0336  60.811528 -64.954842   0.000158   0.000081
1 63160U 25046B   26048.76477308  .00000195  00000-0  28382-3 0  9996 | 2 63160  88.9784 312.9908 0001763  74.2812 285.8533 13.51002284 56523 | 2026/02/17-18:21:16  109.9334    0.1151  285.8339  106.5875     7446.7102     7445.3973     7448.0230  60.672673 -65.084425   0.000157   0.000081
1 63160U 25046B   26049.87571999  .00000185  00000-0  26812-3 0  9995 | 2 63160  88.9782 312.8761 0001760  74.7608 285.3738 13.51002675 56674 | 2026/02/18-21:01:02  151.0839    0.1152  285.3544  106.5875     7446.7088     7445.3981     7448.0194  60.542123 -65.205608   0.000156   0.000082
1 63160U 25046B   26050.91260358  .00000182  00000-0  26317-3 0  9993 | 2 63160  88.9781 312.7690 0001769  74.9355 285.1992 13.51003017 56810 | 2026/02/19-21:54:08  165.4910    0.1151  285.1796  106.5875     7446.7075     7445.3902     7448.0248  60.420064 -65.318589   0.000157   0.000082
1 63160U 25046B   26052.31980853  .00000170  00000-0  24479-3 0  9992 | 2 63160  88.9777 312.6235 0001820  75.0268 285.1084 13.50993826 57001 | 2026/02/21-07:40:31  313.6168    0.1151  285.0883  106.5882     7446.7413     7445.3860     7448.0966  60.253725 -65.471518   0.000161   0.000084
1 63160U 25046B   26053.80108022  .00000059  00000-0  72349-4 0  9993 | 2 63160  88.9776 312.4710 0001817  76.6588 283.4766 13.50994176 57203 | 2026/02/22-19:13:33  128.4869    0.1152  283.4564  106.5882     7446.7400     7445.3869     7448.0931  60.079184 -65.631585   0.000159   0.000088
1 63160U 25046B   26054.83797004  .00000160  00000-0  22871-3 0  9998 | 2 63160  88.9774 312.3637 0001841  76.8371 283.2985 13.50994743 57343 | 2026/02/23-20:06:40  142.8963    0.1151  283.2780  106.5881     7446.7379     7445.3670     7448.1088  59.956033 -65.743835   0.000161   0.000090
1 63160U 25046B   26055.87485967  .00000157  00000-0  22444-3 0  9997 | 2 63160  88.9773 312.2566 0001848  77.1918 282.9440 13.50995054 57483 | 2026/02/24-20:59:47  157.3055    0.1152  282.9234  106.5881     7446.7368     7445.3606     7448.1129  59.832970 -65.855719   0.000161   0.000091
1 63160U 25046B   26057.13393968  .00000157  00000-0  22413-3 0  9993 | 2 63160  88.9771 312.1264 0001858  77.3550 282.7808 13.50995442 57656 | 2026/02/26-03:12:52  251.9455    0.1150  282.7600  106.5881     7446.7353     7445.3517     7448.1189  59.683029 -65.991366   0.000162   0.000091
1 63160U 25046B   26058.17082869  .00000179  00000-0  25890-3 0  9999 | 2 63160  88.9769 312.0192 0001863  77.5919 282.5441 13.50995897 57799 | 2026/02/27-04:05:59  266.3546    0.1152  282.5233  106.5880     7446.7337     7445.3463     7448.1210  59.559322 -66.102768   0.000162   0.000092
1 63160U 25046B   26059.20771754  .00000191  00000-0  27718-3 0  9997 | 2 63160  88.9768 311.9120 0001863  77.5638 282.5721 13.50996272 57930 | 2026/02/28-04:59:06  280.7639    0.1151  282.5513  106.5880     7446.7323     7445.3450     7448.1196  59.435473 -66.214013   0.000162   0.000092
1 63160U 25046B   26060.24460611  .00000195  00000-0  28318-3 0  9991 | 2 63160  88.9767 311.8048 0001872  77.8971 282.2390 13.50996639 58072 | 2026/03/01-05:52:13  295.1728    0.1151  282.2180  106.5880     7446.7309     7445.3369     7448.1250  59.311416 -66.325026   0.000163   0.000093
1 63160U 25046B   26061.50368471  .00000208  00000-0  30318-3 0  9990 | 2 63160  88.9765 311.6746 0001885  78.0324 282.1038 13.50997078 58247 | 2026/03/02-12:05:18   29.8122    0.1151  282.0827  106.5879     7446.7293     7445.3256     7448.1330  59.160412 -66.459485   0.000164   0.000093
1 63160U 25046B   26062.61463598  .00000201  00000-0  29283-3 0  9991 | 2 63160  88.9763 311.5597 0001888  78.0513 282.0850 13.50997497 58393 | 2026/03/03-14:45:04   70.9644    0.1151  282.0638  106.5879     7446.7278     7445.3218     7448.1337  59.026884 -66.577841   0.000164   0.000093
1 63160U 25046B   26063.65152348  .00000207  00000-0  30253-3 0  9999 | 2 63160  88.9762 311.4525 0001895  77.9245 282.2118 13.50997926 58532 | 2026/03/04-15:38:11   85.3731    0.1151  282.1906  106.5879     7446.7262     7445.3151     7448.1374  58.902148 -66.688089   0.000165   0.000093
1 63160U 25046B   26064.76247402  .00000197  00000-0  28656-3 0  9990 | 2 63160  88.9759 311.3376 0001899  78.5432 281.5932 13.50998314 58684 | 2026/03/05-18:17:57  126.5251    0.1151  281.5719  106.5878     7446.7248     7445.3106     7448.1389  58.768096 -66.805851   0.000165   0.000095
1 63160U 25046B   26065.79936096  .00000178  00000-0  25638-3 0  9994 | 2 63160  88.9757 311.2303 0001908  78.7018 281.4348 13.50998619 58828 | 2026/03/06-19:11:04  140.9335    0.1152  281.4134  106.5878     7446.7237     7445.3028     7448.1445  58.642751 -66.915640   0.000165   0.000095
1 63160U 25046B   26066.98437418  .00000180  00000-0  26061-3 0  9994 | 2 63160  88.9754 311.1077 0001922  78.9936 281.1431 13.50999088 58987 | 2026/03/07-23:37:29  208.8288    0.1151  281.1215  106.5878     7446.7219     7445.2907     7448.1532  58.499236 -67.040743   0.000166   0.000096
1 63160U 25046B   26068.46564030  .00000171  00000-0  24559-3 0  9990 | 2 63160  88.9751 310.9543 0001934  79.2200 280.9168 13.50999531 59180 | 2026/03/09-11:10:31   23.6979    0.1150  280.8950  106.5877     7446.7203     7445.2801     7448.1605  58.319339 -67.196898   0.000167   0.000097
1 63160U 25046B   26069.50252616  .00000171  00000-0  24648-3 0  9999 | 2 63160  88.9750 310.8469 0001930  79.2043 280.9325 13.50999909 59326 | 2026/03/10-12:03:38   38.1062    0.1151  280.9108  106.5877     7446.7189     7445.2817     7448.1561  58.193212 -67.306023   0.000167   0.000097
1 63160U 25046B   26070.83566502  .00000153  00000-0  21854-3 0  9995 | 2 63160  88.9748 310.7089 0001952  79.2402 280.8969 13.51000215 59500 | 2026/03/11-20:03:21  159.4879    0.1151  280.8749  106.5877     7446.7178     7445.2642     7448.1714  58.030802 -67.445838   0.000169   0.000097
1 63160U 25046B   26071.87255043  .00000160  00000-0  22968-3 0  9990 | 2 63160  88.9747 310.6015 0001961  79.2579 280.8793 13.51000583 59640 | 2026/03/12-20:56:28  173.8960    0.1151  280.8572  106.5877     7446.7164     7445.2561     7448.1767  57.904209 -67.554421   0.000170   0.000098
1 63160U 25046B   26072.90943567  .00000167  00000-0  24035-3 0  9994 | 2 63160  88.9745 310.4941 0001965  79.4474 280.6898 13.51000889 59782 | 2026/03/13-21:49:35  188.3041    0.1151  280.6677  106.5876     7446.7153     7445.2520     7448.1786  57.777348 -67.662691   0.000170   0.000098
1 63160U 25046B   26073.94632058  .00000160  00000-0  22983-3 0  9992 | 2 63160  88.9744 310.3867 0001979  79.4196 280.7178 13.51001226 59927 | 2026/03/14-22:42:42  202.7118    0.1151  280.6955  106.5876     7446.7141     7445.2404     7448.1878  57.650349 -67.770798   0.000172   0.000098
1 63160U 25046B   26075.20539494  .00000151  00000-0  21547-3 0  9998 | 2 63160  88.9741 310.2562 0001976  79.5973 280.5401 13.51001514 60093 | 2026/03/16-04:55:46  297.3501    0.1151  280.5178  106.5876     7446.7130     7445.2416     7448.1845  57.495648 -67.901701   0.000171   0.000098
1 63160U 25046B   26076.24227943  .00000149  00000-0  21284-3 0  9991 | 2 63160  88.9739 310.1487 0001989  79.6664 280.4711 13.51001796 60238 | 2026/03/17-05:48:52  311.7579    0.1151  280.4487  106.5876     7446.7120     7445.2308     7448.1931  57.368018 -68.009303   0.000173   0.000099
1 63160U 25046B   26077.50135326  .00000146  00000-0  20794-3 0  9996 | 2 63160  88.9736 310.0181 0002009  79.8486 280.2892 13.51002097 60405 | 2026/03/18-12:01:56   46.3958    0.1151  280.2665  106.5875     7446.7109     7445.2148     7448.2069  57.212656 -68.139662   0.000174   0.000100
