# SPACE DATA - HISTORICAL TLEs
# ----------------------------
# NORAD_ID    : 60396
# OBJECT_NAME : QIANFAN-18
# --------------------------------------------------------------------+-----------------------------------------------------------------------+----------------------------------------------------------------------------------------------------------------------------------------
#                  LINE 1                                             |                 LINE 2                                                |      DERIVED PARAMETERS
# --------------------------------------------------------------------+-----------------------------------------------------------------------+----------------------------------------------------------------------------------------------------------------------------------------
# NORAD  COSPAR     TLE_EPOCH      MEANMOT1 MEANMOT2   BSTAR  #  REV  |   NORAD    INC     RAAN     ECC    ARGPER  MEANANOM   MEANMOT     REV |  CAL_DATE              LONG     ARGLAT     PERIOD        SMA         PERIGEE        APOGEE      INC_X      INC_Y      ECC_X      ECC_Y
# ------ ------   -------------- ----------  -------  ------- -- ----     -----  ------- -------- ------- -------- -------- -----------  ----   ------------------- ---------  --------  --------  ------------  ------------   ----------- ---------- ----------  ---------  ---------   
1 63174U 25046R   25083.77370905  .00001055  00000-0  75541-3 0  9990 | 2 63174  88.9904 347.3305 0014089 172.7104 187.4280 13.96338923 11762 | 2025/03/24-18:34:08  113.5519    0.1176  187.4072  103.1268     7284.6375     7274.3742     7294.9008  86.823612 -19.517986  -0.001324   0.000481
1 63174U 25046R   25090.08020300  .00000516  00000-0  36575-3 0  9998 | 2 63174  88.9897 346.6352 0014677 152.8408 207.3540 13.96127388 12646 | 2025/03/31-01:55:29  230.7446    0.1176  207.2768  103.1425     7285.3733     7274.6806     7296.0660  86.579687 -20.569990  -0.001116   0.000954
1 63174U 25046R   25091.58529970  .00000471  00000-0  33284-3 0  9995 | 2 63174  88.9894 346.4693 0014872 148.2864 211.9212 13.96128932 12857 | 2025/04/01-14:02:49   54.2160    0.1176  211.8312  103.1423     7285.3679     7274.5331     7296.2027  86.519472 -20.820524  -0.001047   0.001056
1 63174U 25046R   25097.60566996  .00000568  00000-0  40379-3 0  9993 | 2 63174  88.9887 345.8051 0015538 130.9026 229.3500 13.96135400 13692 | 2025/04/07-14:32:09   68.1025    0.1177  229.2151  103.1419     7285.3454     7274.0255     7296.6654  86.271624 -21.821906  -0.000698   0.001388
1 63174U 25046R   25098.89574550  .00000456  00000-0  32182-3 0  9999 | 2 63174  88.9886 345.6628 0015674 127.2693 232.9916 13.96136404 13875 | 2025/04/08-21:29:52  173.9352    0.1176  232.8483  103.1418     7285.3419     7273.9229     7296.7610  86.217064 -22.036078  -0.000611   0.001444
1 63174U 25046R   25099.89913658  .00000471  00000-0  33318-3 0  9995 | 2 63174  88.9885 345.5520 0015778 124.4398 235.8272 13.96137463 14010 | 2025/04/09-21:34:45  176.2497    0.1176  235.6778  103.1417     7285.3383     7273.8435     7296.8331  86.174192 -22.202741  -0.000539   0.001483
1 63174U 25046R   25100.90252696  .00000501  00000-0  35497-3 0  9992 | 2 63174  88.9883 345.4413 0015879 121.6197 238.6532 13.96138586 14158 | 2025/04/10-21:39:38  178.5640    0.1177  238.4980  103.1416     7285.3344     7273.7660     7296.9027  86.130940 -22.369144  -0.000466   0.001518
1 63174U 25046R   25101.90591654  .00000480  00000-0  33921-3 0  9999 | 2 63174  88.9882 345.3305 0015972 118.8200 241.4582 13.96139503 14295 | 2025/04/11-21:44:31  180.8788    0.1176  241.2976  103.1416     7285.3312     7273.6950     7296.9673  86.087425 -22.535639  -0.000390   0.001549
1 63174U 25046R   25102.90930551  .00000418  00000-0  29419-3 0  9991 | 2 63174  88.9880 345.2197 0016068 116.0460 244.2373 13.96140201 14438 | 2025/04/12-21:49:23  183.1935    0.1176  244.0716  103.1415     7285.3287     7273.6227     7297.0348  86.043490 -22.702024  -0.000314   0.001576
1 63174U 25046R   25104.55773430 -.00000254  00000-0 -19467-3 0  9997 | 2 63174  88.9874 345.0372 0016066 111.5900 248.6990 13.96135911 14661 | 2025/04/14-13:23:08   58.4294    0.1176  248.5276  103.1418     7285.3437     7273.6390     7297.0483  85.970163 -22.975822  -0.000185   0.001596
1 63174U 25046R   25105.56113526  .00000417  00000-0  29382-3 0  9999 | 2 63174  88.9874 344.9267 0016061 108.7088 251.5833 13.96092478 14807 | 2025/04/15-13:28:02   60.7502    0.1176  251.4088  103.1450     7285.4948     7273.7935     7297.1960  85.925693 -23.141580  -0.000102   0.001603
1 63174U 25046R   25106.56455788  .00000391  00000-0  27467-3 0  9992 | 2 63174  88.9872 344.8158 0016123 105.9772 254.3182 13.96092960 14940 | 2025/04/16-13:32:57   63.0789    0.1176  254.1404  103.1450     7285.4931     7273.7467     7297.2395  85.880546 -23.307799  -0.000022   0.001612
1 63174U 25046R   25107.71137993  .00000360  00000-0  25294-3 0  9997 | 2 63174  88.9871 344.6891 0015891 103.0541 257.2410 13.96009607 15106 | 2025/04/17-17:04:23  117.1922    0.1176  257.0635  103.1512     7285.7831     7274.2052     7297.3609  85.828699 -23.497626   0.000063   0.001588
1 63174U 25046R   25109.57614074  .00000364  00000-0  26754-3 0  9999 | 2 63174  88.9850 344.4829 0017062 101.9526 258.3563 13.93418179 15368 | 2025/04/19-13:49:38   70.5365    0.1175  258.1649  103.3430     7294.8135     7282.3671     7307.2599  85.741555 -23.805798   0.000106   0.001703
1 63174U 25046R   25110.65426069  .00000348  00000-0  26645-3 0  9996 | 2 63174  88.9870 344.3650 0016269  94.0890 266.2144 13.90977784 15514 | 2025/04/20-15:42:08   99.8457    0.1174  266.0284  103.5243     7303.3432     7291.4614     7315.2251  85.694313 -23.982720   0.000326   0.001594
1 63174U 25046R   25112.45414039  .00000340  00000-0  27207-3 0  9997 | 2 63174  88.9816 344.1322 0019524 114.0557 246.2661 13.88388141 15767 | 2025/04/22-10:53:57   29.7909    0.1172  246.0615  103.7174     7312.4220     7298.1452     7326.6987  85.590967 -24.329232  -0.000278   0.001932
1 63174U 25046R   25113.60740972  .00000333  00000-0  26743-3 0  9999 | 2 63174  88.9862 344.0420 0016428  86.8080 273.4972 13.88231992 15929 | 2025/04/23-14:34:40   86.2114    0.1173  273.3093  103.7291     7312.9703     7300.9565     7324.9840  85.556982 -24.465211   0.000539   0.001552
1 63174U 25046R   25114.90482235  .00000210  00000-0  16447-3 0  9992 | 2 63174  88.9861 343.9002 0016458  83.4113 276.8932 13.88232399 16101 | 2025/04/24-21:42:56  194.7012    0.1172  276.7059  103.7290     7312.9689     7300.9332     7325.0045  85.496076 -24.676851   0.000635   0.001518
1 63174U 25046R   25115.91392071  .00000182  00000-0  14113-3 0  9998 | 2 63174  88.9859 343.7899 0016472  80.7657 279.5378 13.88232667 16246 | 2025/04/25-21:56:02  199.0825    0.1173  279.3516  103.7290     7312.9679     7300.9220     7325.0138  85.448220 -24.841338   0.000708   0.001487
1 63174U 25046R   25116.92301864  .00000174  00000-0  13428-3 0  9999 | 2 63174  88.9858 343.6797 0016466  78.0976 282.2042 13.88233019 16384 | 2025/04/26-22:09:08  203.4643    0.1173  282.0197  103.7290     7312.9667     7300.9252     7325.0082  85.400188 -25.005611   0.000779   0.001451
1 63174U 25046R   25117.93211625  .00000179  00000-0  13819-3 0  9995 | 2 63174  88.9856 343.5694 0016446  75.4041 284.8954 13.88233356 16529 | 2025/04/27-22:22:14  207.8467    0.1173  284.7132  103.7290     7312.9655     7300.9386     7324.9924  85.351699 -25.169911   0.000848   0.001409
1 63174U 25046R   25118.94121347  .00000180  00000-0  13898-3 0  9997 | 2 63174  88.9854 343.4591 0016429  72.7354 287.5615 13.88233701 16663 | 2025/04/28-22:35:20  212.2292    0.1173  287.3819  103.7289     7312.9643     7300.9498     7324.9788  85.302895 -25.334118   0.000914   0.001365
1 63174U 25046R   25121.53603360  .00000117  00000-0  86703-4 0  9992 | 2 63174  88.9850 343.1755 0016379  65.9571 294.3314 13.88234310 17027 | 2025/05/01-12:51:53   69.2140    0.1173  294.1602  103.7289     7312.9621     7300.9842     7324.9400  85.176070 -25.755919   0.001072   0.001239
1 63174U 25046R   25122.54568593  .00000288  00000-0  23287-3 0  9998 | 2 63174  88.9849 343.0650 0016503  62.3747 297.9098 13.87469591 17166 | 2025/05/02-13:05:47   73.7985    0.1172  297.7425  103.7861     7315.6490     7303.5760     7327.7220  85.126143 -25.920111   0.001158   0.001176
1 63174U 25046R   25123.55533777  .00000126  00000-0  95433-4 0  9990 | 2 63174  88.9848 342.9549 0016431  59.6571 300.6223 13.87469857 17307 | 2025/05/03-13:19:41   78.3835    0.1172  300.4601  103.7860     7315.6480     7303.6277     7327.6684  85.076082 -26.083613   0.001209   0.001112
1 63174U 25046R   25124.56533800  .00000119  00000-0  90026-4 0  9994 | 2 63174  88.9846 342.8447 0016511  56.2984 303.9759 13.86972762 17449 | 2025/05/04-13:34:05   83.0944    0.1172  303.8188  103.8232     7317.3959     7305.3142     7329.4777  85.025566 -26.247137   0.001281   0.001042
1 63174U 25046R   25125.86392644  .00000092  00000-0  67039-4 0  9995 | 2 63174  88.9845 342.7030 0016442  52.8117 307.4552 13.86972819 17621 | 2025/05/05-20:44:03  192.0153    0.1171  307.3054  103.8232     7317.3957     7305.3644     7329.4270  84.960298 -26.457306   0.001338   0.000955
1 63174U 25046R   25126.87393956  .00000041  00000-0  23954-4 0  9996 | 2 63174  88.9845 342.5927 0016377  50.1514 310.1095 13.86972816 17768 | 2025/05/06-20:58:28  196.7318    0.1172  309.9658  103.8232     7317.3957     7305.4120     7329.3794  84.909207 -26.620814   0.001377   0.000886
1 63174U 25046R   25127.88395252  .00000044  00000-0  25851-4 0  9990 | 2 63174  88.9844 342.4824 0016302  47.4350 312.8194 13.86972895 17909 | 2025/05/07-21:12:53  201.4488    0.1172  312.6822  103.8232     7317.3954     7305.4666     7329.3243  84.857707 -26.784193   0.001413   0.000813
1 63174U 25046R   25128.89396542  .00000032  00000-0  15517-4 0  9990 | 2 63174  88.9842 342.3721 0016219  44.6645 315.5830 13.86972878 18049 | 2025/05/08-21:27:18  206.1662    0.1172  315.4527  103.8232     7317.3955     7305.5274     7329.2636  84.805797 -26.947442   0.001445   0.000737
1 63174U 25046R   25129.90397788  .00000008  00000-0 -49847-5 0  9994 | 2 63174  88.9836 342.2615 0016047  41.6513 318.5877 13.86972871 18185 | 2025/05/09-21:41:43  210.8853    0.1172  318.4659  103.8232     7317.3955     7305.6533     7329.1377  84.753050 -27.110912   0.001467   0.000650
1 63174U 25046R   25130.91399097  .00000030  00000-0  14027-4 0  9997 | 2 63174  88.9839 342.1515 0016038  39.2158 321.0172 13.86972919 18320 | 2025/05/10-21:56:08  215.6015    0.1172  320.9014  103.8232     7317.3954     7305.6597     7329.1310  84.701130 -27.273668   0.001494   0.000584
1 63174U 25046R   25131.92400329  .00000007  00000-0 -56844-5 0  9999 | 2 63174  88.9834 342.0408 0015871  36.1080 324.1160 13.86972865 18465 | 2025/05/11-22:10:33  220.3212    0.1172  324.0092  103.8232     7317.3955     7305.7821     7329.0090  84.647802 -27.437113   0.001508   0.000494
1 63174U 25046R   25132.93401607 -.00000028  00000-0 -35614-4 0  9996 | 2 63174  88.9834 341.9305 0015786  33.2845 326.9316 13.86972707 18605 | 2025/05/12-22:24:58  225.0395    0.1172  326.8327  103.8232     7317.3961     7305.8449     7328.9473  84.594826 -27.600017   0.001523   0.000414
1 63174U 25046R   25133.94402887  .00000037  00000-0  20483-4 0  9995 | 2 63174  88.9834 341.8204 0015762  30.7924 329.4168 13.86972974 18740 | 2025/05/13-22:39:24  229.7566    0.1171  329.3247  103.8232     7317.3952     7305.8615     7328.9288  84.541633 -27.762524   0.001538   0.000344
1 63174U 25046R   25135.74860197  .00000066  00000-0  45766-4 0  9990 | 2 63174  88.9833 341.6232 0015880  26.8144 333.3844 13.85701403 18997 | 2025/05/15-17:57:59  161.3892    0.1171  333.3027  103.9185     7321.8710     7310.2438     7333.4981  84.445485 -28.053302   0.001571   0.000233
1 63174U 25046R   25136.90528312  .00000167  00000-0  14235-3 0  9997 | 2 63174  88.9830 341.4962 0015091  25.8924 334.2997 13.82370837 19159 | 2025/05/16-21:43:36  219.0682    0.1170  334.2246  104.1689     7333.6267     7322.5595     7344.6939  84.382811 -28.240317   0.001497   0.000194
1 63174U 25046R   25137.91965153  .00000188  00000-0  16632-3 0  9993 | 2 63174  88.9830 341.3877 0015367  23.9674 336.2206 13.80613319 19293 | 2025/05/17-22:04:17  225.3532    0.1169  336.1495  104.3015     7339.8492     7328.5700     7351.1283  84.329182 -28.400060   0.001530   0.000143
1 63174U 25046R   25139.58659469  .00000069  00000-0  53529-4 0  9993 | 2 63174  88.9829 341.2075 0015172  19.2753 340.8986 13.80613486 19527 | 2025/05/19-14:04:41  107.2901    0.1169  340.8416  104.3015     7339.8486     7328.7126     7350.9846  84.239349 -28.665109   0.001517   0.000013
1 63174U 25046R   25141.47255677  .00000165  00000-0  15515-3 0  9996 | 2 63174  88.9835 341.0044 0015122  12.6877 347.4666 13.76713353 19782 | 2025/05/21-11:20:28   68.3180    0.1166  347.4289  104.5969     7353.7042     7342.5840     7364.8245  84.137777 -28.963733   0.001503  -0.000166
1 63174U 25046R   25142.49116762  .00000167  00000-0  16352-3 0  9992 | 2 63174  88.9826 340.8946 0014877  11.6264 348.5241 13.74205975 19926 | 2025/05/22-11:47:16   76.1355    0.1165  348.4901  104.7878     7362.6466     7351.6932     7373.6000  84.081267 -29.124624   0.001475  -0.000194
1 63174U 25046R   25143.51059986  .00000162  00000-0  16098-3 0  9992 | 2 63174  88.9822 340.7844 0014969   7.9427 352.1971 13.73461096 20064 | 2025/05/23-12:15:15   84.2568    0.1165  352.1738  104.8446     7365.3083     7354.2832     7376.3335  84.024716 -29.286156   0.001468  -0.000293
1 63174U 25046R   25144.60486880  .00000152  00000-0  15949-3 0  9993 | 2 63174  88.9805 340.6647 0016405   1.7369 358.3846 13.69775097 20219 | 2025/05/24-14:31:00  119.4102    0.1162  358.3793  105.1267     7378.5156     7366.4111     7390.6200  83.961746 -29.461070   0.001564  -0.000496
1 63174U 25046R   25145.62797074  .00000145  00000-0  15458-3 0  9993 | 2 63174  88.9827 340.5601 0013979   1.4180 358.7019 13.68642297 20358 | 2025/05/25-15:04:16  128.8415    0.1163  358.6983  105.2138     7382.5864     7372.2662     7392.9065  83.909896 -29.615035   0.001329  -0.000432
1 63174U 25046R   25147.82685399  .00000121  00000-0  13907-3 0  9994 | 2 63174  88.9821 340.3280 0013095   0.6809 359.4365 13.63117020 20652 | 2025/05/27-19:50:40  202.8414    0.1159  359.4350  105.6402     7402.5227     7392.8291     7412.2163  83.788675 -29.954501   0.001238  -0.000426
1 63174U 25046R   25148.92833127  .00000123  00000-0  14495-3 0  9995 | 2 63174  88.9774 340.2056 0014184   1.6701 358.4501 13.61397079 20801 | 2025/05/28-22:16:47  240.5785    0.1158  358.4457  105.7737     7408.7561     7398.2475     7419.2647  83.720070 -30.131837   0.001348  -0.000441
1 63174U 25046R   25151.87783659  .00000114  00000-0  14761-3 0  9993 | 2 63174  88.9819 339.9055 0011874 351.5723   8.5230 13.55096480 21201 | 2025/05/31-21:04:05  225.6326    0.1155    8.5432  106.2655     7431.7033     7422.8789     7440.5277  83.565326 -30.571471   0.001043  -0.000567
1 63174U 25046R   25153.43125554  .00000120  00000-0  16879-3 0  9990 | 2 63174  88.9816 339.7706 0012301 348.3210  11.7653 13.50259938 21412 | 2025/06/02-10:21:00   66.5384    0.1151   11.7941  106.6461     7449.4393     7440.2758     7458.6029  83.492834 -30.768033   0.001044  -0.000650
1 63174U 25046R   25155.80599624  .00000123  00000-0  18028-3 0  9997 | 2 63174  88.9819 339.5013 0010800 338.2156  21.8533 13.47991613 21736 | 2025/06/04-19:20:38  204.0724    0.1150   21.8994  106.8256     7457.7940     7449.7396     7465.8484  83.347578 -31.160227   0.000799  -0.000727
1 63174U 25046R   25156.91942141  .00000082  00000-0  11391-3 0  9996 | 2 63174  88.9819 339.3873 0010696 334.7099  25.3525 13.47991695 21884 | 2025/06/05-22:03:58  246.1234    0.1149   25.4050  106.8256     7457.7937     7449.8168     7465.7705  83.285414 -31.326000   0.000744  -0.000768
1 63174U 25046R   25158.55244484  .00000055  00000-0  69758-4 0  9994 | 2 63174  88.9818 339.2200 0010539 329.4908  30.5627 13.47991793 22108 | 2025/06/07-13:15:31  115.7977    0.1150   30.6242  106.8256     7457.7933     7449.9335     7465.6531  83.193496 -31.569019   0.000659  -0.000822
1 63174U 25046R   25159.74009817  .00000059  00000-0  77069-4 0  9993 | 2 63174  88.9818 339.0983 0010430 325.6641  34.3833 13.47991930 22267 | 2025/06/08-17:45:44  184.6513    0.1150   34.4509  106.8256     7457.7928     7450.0143     7465.5713  83.126254 -31.745656   0.000595  -0.000857
1 63174U 25046R   25160.92775148  .00000050  00000-0  61440-4 0  9999 | 2 63174  88.9818 338.9767 0010321 321.7550  38.2867 13.47992008 22425 | 2025/06/09-22:15:57  253.5044    0.1151   38.3601  106.8256     7457.7925     7450.0953     7465.4897  83.058692 -31.922005   0.000527  -0.000887
1 63174U 25046R   25162.18963302  .00000045  00000-0  53366-4 0  9992 | 2 63174  88.9818 338.8473 0010205 317.4992  42.5367 13.47992132 22590 | 2025/06/11-04:33:04  349.1607    0.1150   42.6158  106.8255     7457.7921     7450.1814     7465.4027  82.986386 -32.109507   0.000453  -0.000914
1 63174U 25046R   25163.52574297  .00000037  00000-0  40221-4 0  9999 | 2 63174  88.9819 338.7104 0010102 312.9805  47.0496 13.47992224 22775 | 2025/06/12-12:37:04  111.6199    0.1149   47.1344  106.8255     7457.7917     7450.2579     7465.3256  82.909521 -32.307736   0.000373  -0.000939
1 63174U 25046R   25164.56483658  .00000092  00000-0  12972-3 0  9996 | 2 63174  88.9819 338.6038 0009901 310.7851  49.2439 13.48482270 22915 | 2025/06/13-13:33:21  126.8255    0.1150   49.3299  106.7867     7455.9848     7448.6026     7463.3670  82.849269 -32.461935   0.000329  -0.000934
1 63174U 25046R   25165.82477288  .00000086  00000-0  11481-3 0  9995 | 2 63174  88.9821 338.4744 0009924 303.9057  56.1149 13.50855253 23089 | 2025/06/14-19:47:40  221.7822    0.1151   56.2094  106.5991     7447.2505     7439.8599     7454.6412  82.775930 -32.649037   0.000213  -0.000969
1 63174U 25046R   25166.86160878  .00000086  00000-0  11374-3 0  9995 | 2 63174  88.9821 338.3678 0010121 300.3968  59.6183 13.51492354 23229 | 2025/06/15-20:40:42  236.1772    0.1152   59.7184  106.5489     7444.9099     7437.3749     7452.4449  82.715042 -32.802986   0.000154  -0.001000
1 63174U 25046R   25168.49116887  .00000100  00000-0  13735-3 0  9997 | 2 63174  88.9826 338.2010 0009951 290.1031  69.9049 13.50925673 23442 | 2025/06/17-11:47:16  104.5989    0.1151   70.0120  106.5936     7446.9917     7439.5812     7454.4022  82.619660 -33.043834  -0.000029  -0.000995
1 63174U 25046R   25169.52809338  .00000105  00000-0  14353-3 0  9994 | 2 63174  88.9823 338.0931 0009998 290.9218  69.0863 13.50950938 23587 | 2025/06/18-12:40:27  119.0216    0.1152   69.1934  106.5916     7446.8989     7439.4535     7454.3443  82.557006 -33.199253  -0.000017  -0.001000
1 63174U 25046R   25170.56501632  .00000086  00000-0  11422-3 0  9998 | 2 63174  88.9823 337.9864 0009970 287.2482  72.7578 13.50951076 23726 | 2025/06/19-13:33:37  133.4447    0.1152   72.8670  106.5916     7446.8984     7439.4738     7454.3229  82.495037 -33.352939  -0.000083  -0.000994
1 63174U 25046R   25171.82413689  .00000088  00000-0  11781-3 0  9992 | 2 63174  88.9824 337.8567 0009953 282.7220  77.2818 13.50951262 23899 | 2025/06/20-19:46:45  228.1010    0.1151   77.3931  106.5916     7446.8977     7439.4858     7454.3096  82.419418 -33.539634  -0.000163  -0.000982
1 63174U 25046R   25172.86105969  .00000078  00000-0  10218-3 0  9999 | 2 63174  88.9824 337.7500 0009952 278.9726  81.0299 13.50951372 24037 | 2025/06/21-20:39:55  242.5233    0.1152   81.1426  106.5915     7446.8973     7439.4861     7454.3084  82.356815 -33.693063  -0.000229  -0.000969
1 63174U 25046R   25174.56457560  .00000071  00000-0  92187-4 0  9994 | 2 63174  88.9825 337.5747 0009954 272.9224  87.0788 13.50951600 24266 | 2025/06/23-13:32:59  137.6447    0.1151   87.1927  106.5915     7446.8964     7439.4838     7454.3091  82.253436 -33.944919  -0.000332  -0.000938
1 63174U 25046R   25175.89776199  .00000042  00000-0  45983-4 0  9993 | 2 63174  88.9826 337.4375 0009971 268.1559  91.8450 13.50951678 24444 | 2025/06/24-21:32:46  259.0433    0.1151   91.9592  106.5915     7446.8962     7439.4709     7454.3215  82.172009 -34.141823  -0.000412  -0.000908
1 63174U 25046R   25176.93468480  .00000038  00000-0  40360-4 0  9999 | 2 63174  88.9827 337.3308 0009999 264.4850  95.5161 13.50951753 24582 | 2025/06/25-22:25:56  273.4641    0.1151   95.6301  106.5915     7446.8959     7439.4497     7454.3420  82.108377 -34.294828  -0.000472  -0.000881
1 63174U 25046R   25178.49006904  .00000041  00000-0  45379-4 0  9990 | 2 63174  88.9828 337.1708 0010048 259.0116 100.9905 13.50951881 24799 | 2025/06/27-11:45:41  115.0944    0.1151  101.1035  106.5915     7446.8954     7439.4128     7454.3781  82.012380 -34.524023  -0.000559  -0.000835
1 63174U 25046R   25179.52699193  .00000046  00000-0  52044-4 0  9995 | 2 63174  88.9830 337.0641 0010093 255.3576 104.6456 13.50951966 24938 | 2025/06/28-12:38:52  129.5143    0.1151  104.7575  106.5915     7446.8951     7439.3789     7454.4113  81.948129 -34.676770  -0.000616  -0.000800
1 63174U 25046R   25180.56391484  .00000046  00000-0  52504-4 0  9994 | 2 63174  88.9831 336.9575 0010150 251.7377 108.2669 13.50952029 25079 | 2025/06/29-13:32:02  143.9338    0.1150  108.3773  106.5915     7446.8949     7439.3363     7454.4535  81.883563 -34.829215  -0.000670  -0.000762
1 63174U 25046R   25181.60083779  .00000065  00000-0  81740-4 0  9990 | 2 63174  88.9832 336.8508 0010206 248.1373 111.8693 13.50952160 25212 | 2025/06/30-14:25:12  158.3528    0.1151  111.9778  106.5915     7446.8944     7439.2941     7454.4947  81.818652 -34.981683  -0.000722  -0.000722
1 63174U 25046R   25182.85995842  .00000094  00000-0  12740-3 0  9996 | 2 63174  88.9833 336.7214 0010289 243.7974 116.2120 13.50952396 25388 | 2025/07/01-20:38:20  253.0039    0.1151  116.3177  106.5915     7446.8935     7439.2314     7454.5556  81.739530 -35.166417  -0.000782  -0.000668
1 63174U 25046R   25183.89688130  .00000080  00000-0  10538-3 0  9998 | 2 63174  88.9834 336.6148 0010358 240.2651 119.7470 13.50952470 25520 | 2025/07/02-21:31:30  267.4221    0.1151  119.8500  106.5915     7446.8932     7439.1798     7454.6067  81.674053 -35.318474  -0.000829  -0.000622
1 63174U 25046R   25184.93380403  .00000093  00000-0  12521-3 0  9994 | 2 63174  88.9834 336.5082 0010436 236.7880 123.2272 13.50952665 25668 | 2025/07/03-22:24:40  281.8398    0.1152  123.3272  106.5914     7446.8925     7439.1210     7454.6641  81.608201 -35.470369  -0.000872  -0.000573
1 63174U 25046R   25186.56325392  .00000085  00000-0  11354-3 0  9995 | 2 63174  88.9835 336.3407 0010569 231.3837 128.6369 13.50952903 25883 | 2025/07/05-13:31:05  150.2099    0.1151  128.7314  106.5914     7446.8917     7439.0210     7454.7623  81.504249 -35.708833  -0.000936  -0.000492
1 63174U 25046R   25187.89644008  .00000078  00000-0  10277-3 0  9995 | 2 63174  88.9836 336.2036 0010687 227.0215 133.0041 13.50953091 26061 | 2025/07/06-21:30:52  271.6031    0.1151  133.0936  106.5914     7446.8910     7438.9325     7454.8495  81.418661 -35.903798  -0.000982  -0.000421
1 63174U 25046R   25189.15556018  .00000078  00000-0  10179-3 0  9990 | 2 63174  88.9837 336.0742 0010805 222.9340 137.0969 13.50953306 26230 | 2025/07/08-03:44:00    6.2515    0.1151  137.1811  106.5914     7446.8902     7438.8438     7454.9365  81.337458 -36.087627  -0.001022  -0.000352
1 63174U 25046R   25190.19248267  .00000067  00000-0  85777-4 0  9995 | 2 63174  88.9838 335.9678 0010913 219.6235 140.4120 13.50953383 26370 | 2025/07/09-04:37:10   20.6674    0.1151  140.4916  106.5914     7446.8899     7438.7631     7455.0167  81.270393 -36.238651  -0.001051  -0.000293
1 63174U 25046R   25191.22940505  .00000052  00000-0  61619-4 0  9997 | 2 63174  88.9840 335.8612 0011024 216.3489 143.6914 13.50953501 26513 | 2025/07/10-05:30:20   35.0833    0.1150  143.7661  106.5914     7446.8895     7438.6800     7455.0989  81.203012 -36.389876  -0.001077  -0.000233
