# SPACE DATA - HISTORICAL TLEs
# ----------------------------
# NORAD_ID    : 60396
# OBJECT_NAME : QIANFAN-18
# --------------------------------------------------------------------+-----------------------------------------------------------------------+----------------------------------------------------------------------------------------------------------------------------------------
#                  LINE 1                                             |                 LINE 2                                                |      DERIVED PARAMETERS
# --------------------------------------------------------------------+-----------------------------------------------------------------------+----------------------------------------------------------------------------------------------------------------------------------------
# NORAD  COSPAR     TLE_EPOCH      MEANMOT1 MEANMOT2   BSTAR  #  REV  |   NORAD    INC     RAAN     ECC    ARGPER  MEANANOM   MEANMOT     REV |  CAL_DATE              LONG     ARGLAT     PERIOD        SMA         PERIGEE        APOGEE      INC_X      INC_Y      ECC_X      ECC_Y
# ------ ------   -------------- ----------  -------  ------- -- ----     -----  ------- -------- ------- -------- -------- -----------  ----   ------------------- ---------  --------  --------  ------------  ------------   ----------- ---------- ----------  ---------  ---------   
1 63176U 25046T   25083.77389992  .00000674  00000-0  47526-3 0  9996 | 2 63176  88.9903 347.3305 0013880 170.8785 189.2647 13.96782604 11761 | 2025/03/24-18:34:24  113.6160    0.1176  189.2391  103.0941     7283.0948     7272.9859     7293.2037  86.823514 -19.517964  -0.001289   0.000515
1 63176U 25046T   25089.93794856  .00000450  00000-0  33412-3 0  9990 | 2 63176  88.9895 346.6509 0014561 150.9976 209.2011 13.93244115 12628 | 2025/03/30-22:30:38  179.3732    0.1174  209.1198  103.3559     7295.4211     7284.7982     7306.0439  86.585126 -20.546218  -0.001076   0.000981
1 63176U 25046T   25091.59010489  .00000605  00000-0  45561-3 0  9998 | 2 63176  88.9894 346.4697 0014732 145.9223 214.2900 13.92978613 12856 | 2025/04/01-14:09:45   55.9455    0.1173  214.1950  103.3756     7296.3480     7285.5991     7307.0970  86.519618 -20.819920  -0.000993   0.001088
1 63176U 25046T   25097.50017310  .00000379  00000-0  32843-3 0  9992 | 2 63176  88.9887 345.8262 0015190 126.2095 234.0482 13.84168892 13674 | 2025/04/07-12:00:14   29.9934    0.1169  233.9074  104.0335     7327.2743     7316.1442     7338.4045  86.279655 -21.790134  -0.000570   0.001408
1 63176U 25046T   25098.51266636  .00000349  00000-0  30698-3 0  9994 | 2 63176  88.9885 345.7169 0015187 122.4093 237.8548 13.82973142 13819 | 2025/04/08-12:18:14   35.5919    0.1169  237.7076  104.1235     7331.4973     7320.3629     7342.6316  86.237736 -21.954636  -0.000472   0.001443
1 63176U 25046T   25099.52559982  .00000251  00000-0  21809-3 0  9991 | 2 63176  88.9884 345.6075 0015276 119.7200 240.5492 13.82974033 13955 | 2025/04/09-12:36:51   41.3506    0.1169  240.3969  104.1234     7331.4941     7320.2945     7342.6937  86.195562 -22.119232  -0.000404   0.001473
1 63176U 25046T   25100.82888852  .00000168  00000-0  14495-3 0  9998 | 2 63176  88.9885 345.4668 0015313 115.1755 245.1004 13.81541774 14131 | 2025/04/10-19:53:35  151.9531    0.1169  244.9414  104.2314     7336.5603     7325.3259     7347.7948  86.141081 -22.330859  -0.000283   0.001505
1 63176U 25046T   25101.84292932  .00000229  00000-0  20413-3 0  9994 | 2 63176  88.9882 345.3570 0015242 111.2606 249.0192 13.81097791 14273 | 2025/04/11-20:13:49  158.1132    0.1168  248.8562  104.2649     7338.1326     7326.9478     7349.3174  86.097839 -22.495820  -0.000176   0.001514
1 63176U 25046T   25102.85755379  .00000324  00000-0  29661-3 0  9995 | 2 63176  88.9879 345.2484 0015418 108.8365 251.4477 13.80588672 14412 | 2025/04/12-20:34:52  164.4823    0.1168  251.2803  104.3033     7339.9365     7328.6198     7351.2532  86.054755 -22.658896  -0.000110   0.001538
1 63176U 25046T   25104.01754106  .00000306  00000-0  28508-3 0  9991 | 2 63176  88.9896 345.1059 0016239  87.2540 273.0485 13.79267054 14577 | 2025/04/14-00:25:15  223.3452    0.1167  272.8627  104.4033     7344.6245     7332.6976     7356.5515  85.999777 -22.873289   0.000492   0.001548
1 63176U 25046T   25105.39645001  .00000300  00000-0  28262-3 0  9997 | 2 63176  88.9874 344.9760 0015555 101.0099 259.2819 13.78700100 14764 | 2025/04/15-09:30:53    1.2522    0.1167  259.1068  104.4462     7346.6379     7335.2102     7358.0656  85.945573 -23.067637   0.000109   0.001552
1 63176U 25046T   25106.48605059  .00000330  00000-0  32267-3 0  9990 | 2 63176  88.9873 344.8593 0015687  97.8475 262.4472 13.76745812 14917 | 2025/04/16-11:39:54   34.6961    0.1165  262.2690  104.5945     7353.5886     7342.0531     7365.1242  85.898314 -23.242617   0.000199   0.001556
1 63176U 25046T   25107.57624040  .00000295  00000-0  28709-3 0  9998 | 2 63176  88.9870 344.7426 0015730  95.1047 265.1915 13.76746917 15069 | 2025/04/17-13:49:47   68.3542    0.1166  265.0119  104.5944     7353.5847     7342.0175     7365.1519  85.850506 -23.417447   0.000277   0.001548
1 63176U 25046T   25109.54027463  .00000282  00000-0  28067-3 0  9996 | 2 63176  88.9867 344.5327 0015800  89.0908 271.2067 13.75328930 15335 | 2025/04/19-12:57:59   57.5510    0.1165  271.0257  104.7022     7358.6383     7347.0116     7370.2649  85.763852 -23.731718   0.000445   0.001516
1 63176U 25046T   25110.84992955  .00000272  00000-0  27159-3 0  9998 | 2 63176  88.9869 344.3934 0015959  84.7570 275.5415 13.74892497 15518 | 2025/04/20-20:23:53  170.4559    0.1164  275.3594  104.7355     7360.1954     7348.4493     7371.9416  85.706094 -23.940214   0.000568   0.001491
1 63176U 25046T   25111.94246481  .00000253  00000-0  25958-3 0  9990 | 2 63176  88.9889 344.2645 0016946  80.6453 279.6625 13.73036742 15666 | 2025/04/21-22:37:08  204.9650    0.1163  279.4710  104.8770     7366.8258     7354.3420     7379.3097  85.653943 -24.133511   0.000719   0.001535
1 63176U 25046T   25113.61956937  .00000251  00000-0  26167-3 0  9991 | 2 63176  88.9862 344.0983 0016044  77.5962 282.6996 13.72189634 15897 | 2025/04/23-14:52:10   90.5539    0.1164  282.5202  104.9418     7369.8574     7358.0332     7381.6816  85.580981 -24.381129   0.000761   0.001413
1 63176U 25046T   25115.00531190  .00000058  00000-0  50510-4 0  9991 | 2 63176  88.9879 343.9601 0016873  74.1819 286.1202 13.71370527 16087 | 2025/04/25-00:07:38  230.9190    0.1162  285.9343  105.0044     7372.7917     7360.3516     7385.2319  85.523558 -24.587953   0.000891   0.001433
1 63176U 25046T   25116.53847044  .00000063  00000-0  56685-4 0  9993 | 2 63176  88.9857 343.7885 0016157  69.3062 290.9830 13.70514096 16299 | 2025/04/26-12:55:23   64.5517    0.1162  290.8100  105.0701     7375.8629     7363.9457     7387.7801  85.447421 -24.843370   0.000970   0.001292
1 63176U 25046T   25117.85278885  .00000273  00000-0  29675-3 0  9991 | 2 63176  88.9860 343.6504 0016291  65.3370 294.9486 13.69820144 16470 | 2025/04/27-20:28:00  179.1435    0.1162  294.7792  105.1233     7378.3538     7366.3337     7390.3739  85.387581 -25.049336   0.001069   0.001229
1 63176U 25046T   25118.94916503  .00000246  00000-0  27101-3 0  9990 | 2 63176  88.9854 343.5331 0016255  62.3042 297.9766 13.68829546 16628 | 2025/04/28-22:46:47  215.0417    0.1161  297.8119  105.1994     7381.9131     7369.9138     7393.9124  85.335544 -25.223925   0.001132   0.001166
1 63176U 25046T   25121.65383666  .00000091  00000-0  90511-4 0  9994 | 2 63176  88.9849 343.2469 0016151  55.3867 304.8814 13.68830221 16997 | 2025/05/01-15:41:31  111.6882    0.1161  304.7294  105.1993     7381.9107     7369.9881     7393.8332  85.208004 -25.649726   0.001262   0.001008
1 63176U 25046T   25122.89652333  .00000059  00000-0  53928-4 0  9996 | 2 63176  88.9848 343.1154 0016084  52.1658 308.0956 13.68830261 17161 | 2025/05/02-21:30:59  200.4185    0.1162  307.9504  105.1993     7381.9105     7370.0374     7393.7836  85.148815 -25.845191   0.001313   0.000929
1 63176U 25046T   25123.91991213  .00000056  00000-0  50218-4 0  9999 | 2 63176  88.9847 343.0071 0016028  49.5378 310.7178 13.68830401 17302 | 2025/05/03-22:04:40  209.9612    0.1162  310.5784  105.1993     7381.9100     7370.0783     7393.7417  85.099715 -26.006063   0.001351   0.000862
1 63176U 25046T   25124.94330090  .00000059  00000-0  53635-4 0  9992 | 2 63176  88.9846 342.8988 0015961  46.9141 313.3353 13.68830479 17443 | 2025/05/04-22:38:21  219.5044    0.1162  313.2021  105.1993     7381.9097     7370.1275     7393.6920  85.050311 -26.166842   0.001385   0.000794
1 63176U 25046T   25126.55148298  .00000045  00000-0  37991-4 0  9990 | 2 63176  88.9844 342.7285 0015846  42.6379 317.6010 13.68830551 17660 | 2025/05/06-13:14:08   80.2158    0.1163  317.4784  105.1993     7381.9095     7370.2121     7393.6068  84.971969 -26.419461   0.001432   0.000679
1 63176U 25046T   25127.86726818  .00000034  00000-0  24170-4 0  9998 | 2 63176  88.9843 342.5891 0015738  39.1625 321.0672 13.68830558 17845 | 2025/05/07-20:48:51  195.3440    0.1162  320.9537  105.1993     7381.9094     7370.2918     7393.5271  84.907344 -26.626089   0.001462   0.000583
1 63176U 25046T   25128.89065656  .00000045  00000-0  38002-4 0  9999 | 2 63176  88.9841 342.4807 0015650  36.4324 323.7899 13.68830636 17980 | 2025/05/08-21:22:32  204.8883    0.1162  323.6838  105.1993     7381.9092     7370.3565     7393.4619  84.856626 -26.786620   0.001481   0.000507
1 63176U 25046T   25129.91422715  .00000082  00000-0  81854-4 0  9990 | 2 63176  88.9841 342.3733 0015693  33.5243 326.6908 13.68148130 18123 | 2025/05/09-21:56:29  214.4972    0.1162  326.5919  105.2518     7384.3640     7372.7757     7395.9522  84.806266 -26.945635   0.001509   0.000430
1 63176U 25046T   25130.93880377  .00000168  00000-0  18506-3 0  9994 | 2 63176  88.9838 342.2642 0015674  30.5829 329.6241 13.67164639 18262 | 2025/05/10-22:31:52  224.4719    0.1160  329.5331  105.3275     7387.9049     7376.3251     7399.4847  84.754518 -27.106979   0.001528   0.000349
1 63176U 25046T   25132.54894318  .00000051  00000-0  46004-4 0  9999 | 2 63176  88.9835 342.0940 0015503  26.2704 333.9239 13.67164754 18480 | 2025/05/12-13:10:28   85.8920    0.1161  333.8457  105.3275     7387.9045     7376.4510     7399.3580  84.673336 -27.358535   0.001534   0.000226
1 63176U 25046T   25133.57357729  .00000029  00000-0  19338-4 0  9998 | 2 63176  88.9833 341.9857 0015401  23.4447 336.7413 13.67164749 18628 | 2025/05/13-13:45:57   95.8868    0.1162  336.6715  105.3275     7387.9045     7376.5264     7399.2826  84.621282 -27.518473   0.001533   0.000146
1 63176U 25046T   25134.74458757  .00000043  00000-0  36352-4 0  9992 | 2 63176  88.9832 341.8618 0015273  20.2333 339.9430 13.67164853 18784 | 2025/05/14-17:52:12  158.7383    0.1162  339.8829  105.3275     7387.9041     7376.6206     7399.1877  84.561481 -27.701367   0.001526   0.000056
1 63176U 25046T   25135.84240962  .00000003  00000-0 -11341-4 0  9999 | 2 63176  88.9829 341.7456 0015108  16.7864 343.3794 13.67164702 18937 | 2025/05/15-20:13:04  195.1630    0.1162  343.3298  105.3275     7387.9047     7376.7430     7399.0663  84.504842 -27.872713   0.001510  -0.000039
1 63176U 25046T   25136.86704384 -.00000047  00000-0 -70776-4 0  9991 | 2 63176  88.9827 341.6372 0014994  13.9045 346.2525 13.67164515 19075 | 2025/05/16-20:48:32  205.1584    0.1161  346.2116  105.3275     7387.9054     7376.8279     7398.9828  84.451768 -28.032478   0.001495  -0.000117
1 63176U 25046T   25137.89167806 -.00000035  00000-0 -56359-4 0  9995 | 2 63176  88.9825 341.5289 0014874  11.0145 349.1338 13.67164451 19215 | 2025/05/17-21:24:00  215.1537    0.1161  349.1016  105.3275     7387.9056     7376.9168     7398.8944  84.398440 -28.191995   0.001475  -0.000193
1 63176U 25046T   25139.20906484 -.00000001  00000-0 -16497-4 0  9997 | 2 63176  88.9823 341.3895 0014719   7.2535 352.8835 13.67164509 19398 | 2025/05/19-05:01:03  330.8621    0.1161  352.8626  105.3275     7387.9054     7377.0311     7398.7796  84.329410 -28.397188   0.001443  -0.000290
1 63176U 25046T   25140.45326369  .00000017  00000-0  55225-5 0  9992 | 2 63176  88.9827 341.2581 0014611   4.0963 356.0314 13.67164553 19560 | 2025/05/20-10:52:41   60.1407    0.1161  356.0198  105.3275     7387.9052     7377.1107     7398.6997  84.264442 -28.590639   0.001414  -0.000369
1 63176U 25046T   25141.47867970  .00000136  00000-0  15020-3 0  9992 | 2 63176  88.9825 341.1498 0014559   1.4700 358.6500 13.65941065 19705 | 2025/05/21-11:29:17   70.4172    0.1161  358.6461  105.4218     7392.3162     7381.5537     7403.0786  84.210061 -28.749799   0.001389  -0.000435
1 63176U 25046T   25143.53462213  .00000132  00000-0  15939-3 0  9997 | 2 63176  88.9812 340.9315 0013195 359.7145   0.4001 13.60258043 19983 | 2025/05/23-12:49:51   92.8066    0.1157    0.4012  105.8623     7412.8914     7403.1101     7422.6727  84.098683 -29.070010   0.001245  -0.000437
1 63176U 25046T   25144.57849255  .00000125  00000-0  15939-3 0  9999 | 2 63176  88.9828 340.8290 0014773 354.9225  67.2872 13.56932201 20125 | 2025/05/24-13:53:01   47.6362   62.3660   67.4435  106.1217     7424.9992     7414.0302     7435.9681  84.048054 -29.220938   0.001347  -0.000607
1 63176U 25046T   25145.59938202  .00000116  00000-0  15344-3 0  9993 | 2 63176  88.9808 340.7127 0012808 354.7075   5.3940 13.53728098 20267 | 2025/05/25-14:23:06  118.3872    0.1153    5.4078  106.3729     7436.7106     7427.1856     7446.2355  83.986680 -29.390820   0.001165  -0.000533
1 63176U 25046T   25147.89371922  .00000110  00000-0  14981-3 0  9998 | 2 63176  88.9820 340.4825 0012524 349.0046  11.0830 13.51686922 20576 | 2025/05/27-21:26:57  226.8541    0.1152   11.1106  106.5335     7444.1954     7434.8723     7453.5186  83.869049 -29.728420   0.001079  -0.000636
1 63176U 25046T   25149.15215335  .00000132  00000-0  18307-3 0  9994 | 2 63176  88.9819 340.3527 0012378 345.2659  14.8130 13.51687314 20746 | 2025/05/29-03:39:06  321.2693    0.1152   14.8493  106.5335     7444.1940     7434.9796     7453.4084  83.801392 -29.918310   0.001022  -0.000699
1 63176U 25046T   25150.41075463  .00000118  00000-0  16439-3 0  9999 | 2 63176  88.9819 340.2228 0012258 340.5683  19.4999 13.50967402 20916 | 2025/05/30-09:51:29   55.7469    0.1152   19.5469  106.5903     7446.8384     7437.7100     7455.9667  83.733346 -30.108226   0.000950  -0.000775
1 63176U 25046T   25151.59581682  .00000106  00000-0  14528-3 0  9998 | 2 63176  88.9819 340.1009 0012295 336.9070  23.1527 13.50941494 21072 | 2025/05/31-14:17:58  123.6677    0.1152   23.2082  106.5923     7446.9336     7437.7776     7456.0896  83.669100 -30.286305   0.000899  -0.000838
1 63176U 25046T   25152.92900545  .00000061  00000-0  75868-4 0  9994 | 2 63176  88.9820 339.9636 0012142 332.9040  27.1476 13.50947212 21251 | 2025/06/01-22:17:46  245.0751    0.1152   27.2112  106.5919     7446.9126     7437.8705     7455.9546  83.596377 -30.486751   0.000826  -0.000890
1 63176U 25046T   25154.18812833  .00000063  00000-0  78916-4 0  9995 | 2 63176  88.9820 339.8339 0012011 328.9364  31.1076 13.50947489 21425 | 2025/06/03-04:30:54  339.7376    0.1152   31.1788  106.5919     7446.9116     7437.9671     7455.8560  83.527151 -30.675909   0.000752  -0.000936
1 63176U 25046T   25155.52131718  .00000105  00000-0  14480-3 0  9992 | 2 63176  88.9820 339.6966 0011896 324.6600  35.3762 13.50947809 21609 | 2025/06/04-12:30:41  101.1448    0.1152   35.4552  106.5918     7446.9104     7438.0515     7455.7692  83.453401 -30.875980   0.000671  -0.000982
1 63176U 25046T   25156.55824170  .00000116  00000-0  16184-3 0  9992 | 2 63176  88.9819 339.5898 0011803 321.2926  38.7379 13.50948027 21741 | 2025/06/05-13:23:52  115.5722    0.1152   38.8226  106.5918     7446.9096     7438.1200     7455.6992  83.395609 -31.031450   0.000606  -0.001013
1 63176U 25046T   25157.81736411  .00000119  00000-0  16590-3 0  9996 | 2 63176  88.9819 339.4601 0011691 317.0939  42.9300 13.50948319 21918 | 2025/06/06-19:37:00  210.2336    0.1152   43.0213  106.5918     7446.9085     7438.2023     7455.6147  83.325150 -31.220152   0.000523  -0.001046
1 63176U 25046T   25158.85428842  .00000110  00000-0  15262-3 0  9993 | 2 63176  88.9819 339.3533 0011614 313.6951  46.3237 13.50948499 22054 | 2025/06/07-20:30:10  224.6603    0.1152   46.4201  106.5918     7446.9078     7438.2590     7455.5567  83.266811 -31.375417   0.000455  -0.001069
1 63176U 25046T   25160.92813662  .00000105  00000-0  14427-3 0  9998 | 2 63176  88.9818 339.1398 0011468 306.7378  53.2719 13.50948928 22333 | 2025/06/09-22:16:31  253.5123    0.1151   53.3773  106.5917     7446.9063     7438.3662     7455.4464  83.149226 -31.685438   0.000314  -0.001103
1 63176U 25046T   25162.18725851  .00000106  00000-0  14659-3 0  9998 | 2 63176  88.9818 339.0101 0011386 302.4189  57.5860 13.50949202 22505 | 2025/06/11-04:29:39  348.1717    0.1151   57.6962  106.5917     7446.9053     7438.4262     7455.3843  83.077287 -31.873581   0.000226  -0.001116
1 63176U 25046T   25163.52044637  .00000094  00000-0  12722-3 0  9998 | 2 63176  88.9819 338.8728 0011315 297.8990  62.1015 13.50949445 22689 | 2025/06/12-12:29:26  109.5751    0.1152   62.2162  106.5917     7446.9044     7438.4782     7455.3305  83.000762 -32.072607   0.000133  -0.001124
1 63176U 25046T   25164.55737009  .00000113  00000-0  15603-3 0  9997 | 2 63176  88.9820 338.7660 0011267 294.4596  65.5379 13.50949749 22829 | 2025/06/13-13:22:36  123.9995    0.1151   65.6555  106.5917     7446.9032     7438.5128     7455.2937  82.940927 -32.227301   0.000063  -0.001125
1 63176U 25046T   25165.74242584  .00000094  00000-0  12783-3 0  9992 | 2 63176  88.9821 338.6440 0011230 290.3443  69.6501 13.50949861 22985 | 2025/06/14-17:49:05  191.9127    0.1151   69.7708  106.5917     7446.9028     7438.5400     7455.2657  82.872211 -32.403871  -0.000020  -0.001123
1 63176U 25046T   25166.85341540  .00000088  00000-0  11813-3 0  9993 | 2 63176  88.9822 338.5296 0011209 286.3793  73.6125 13.50950076 23138 | 2025/06/15-20:28:55  233.0810    0.1151   73.7358  106.5917     7446.9020     7438.5548     7455.2493  82.807439 -32.569310  -0.000099  -0.001116
1 63176U 25046T   25167.89033903  .00000104  00000-0  14261-3 0  9998 | 2 63176  88.9822 338.4229 0011191 282.7724  77.2176 13.50950290 23276 | 2025/06/16-21:22:05  247.5040    0.1151   77.3427  106.5916     7446.9013     7438.5674     7455.2351  82.746643 -32.723463  -0.000171  -0.001106
1 63176U 25046T   25169.51979031  .00000108  00000-0  14854-3 0  9992 | 2 63176  88.9823 338.2551 0011170 277.1179  82.8702 13.50950596 23492 | 2025/06/18-12:28:29  115.8823    0.1151   82.9972  106.5916     7446.9001     7438.5819     7455.2183  82.650545 -32.965696  -0.000282  -0.001081
1 63176U 25046T   25170.55671370  .00000122  00000-0  17109-3 0  9995 | 2 63176  88.9823 338.1483 0011175 273.4686  86.5187 13.50950852 23631 | 2025/06/19-13:21:40  130.3043    0.1151   86.6465  106.5916     7446.8992     7438.5773     7455.2211  82.588953 -33.119701  -0.000352  -0.001060
1 63176U 25046T   25171.88990088  .00000114  00000-0  15772-3 0  9997 | 2 63176  88.9824 338.0111 0011182 268.7949  91.1921 13.50951058 23813 | 2025/06/20-21:21:27  251.7033    0.1151   91.3202  106.5916     7446.8984     7438.5713     7455.2256  82.509501 -33.317410  -0.000440  -0.001028
1 63176U 25046T   25173.51935164  .00000100  00000-0  13703-3 0  9990 | 2 63176  88.9825 337.8434 0011221 263.1297  96.8578 13.50951347 24034 | 2025/06/22-12:27:51  120.0788    0.1151   96.9854  106.5916     7446.8974     7438.5412     7455.2535  82.411723 -33.558803  -0.000544  -0.000981
1 63176U 25046T   25174.55627477  .00000100  00000-0  13598-3 0  9992 | 2 63176  88.9825 337.7367 0011265 259.4977 100.4905 13.50951533 24177 | 2025/06/23-13:21:02  134.4992    0.1151  100.6174  106.5915     7446.8967     7438.5078     7455.2856  82.349085 -33.712217  -0.000610  -0.000947
1 63176U 25046T   25175.59319780  .00000087  00000-0  11627-3 0  9997 | 2 63176  88.9826 337.6300 0011309 255.8987 104.0907 13.50951711 24310 | 2025/06/24-14:14:12  148.9190    0.1150  104.2163  106.5915     7446.8960     7438.4743     7455.3177  82.286253 -33.865553  -0.000672  -0.000909
1 63176U 25046T   25176.92638464  .00000077  00000-0  10098-3 0  9998 | 2 63176  88.9827 337.4927 0011373 251.3205 108.6712 13.50951872 24490 | 2025/06/25-22:13:59  270.3153    0.1151  108.7946  106.5915     7446.8954     7438.4261     7455.3648  82.204956 -34.062679  -0.000749  -0.000856
1 63176U 25046T   25178.55583514  .00000064  00000-0  80561-4 0  9993 | 2 63176  88.9829 337.3251 0011461 245.8018 114.1936 13.50952058 24711 | 2025/06/27-13:20:24  138.6875    0.1151  114.3133  106.5915     7446.8948     7438.3599     7455.4296  82.105150 -34.303074  -0.000836  -0.000783
1 63176U 25046T   25179.59275815  .00000066  00000-0  83237-4 0  9995 | 2 63176  88.9830 337.2185 0011529 242.3128 117.6854 13.50952203 24851 | 2025/06/28-14:13:34  153.1056    0.1151  117.8023  106.5915     7446.8942     7438.3087     7455.4798  82.041278 -34.455811  -0.000889  -0.000734
1 63176U 25046T   25180.92594490  .00000078  00000-0  10202-3 0  9991 | 2 63176  88.9831 337.0814 0011643 237.8583 122.1439 13.50952390 25038 | 2025/06/29-22:13:21  274.5000    0.1151  122.2568  106.5915     7446.8935     7438.2231     7455.5640  81.958688 -34.652064  -0.000954  -0.000667
1 63176U 25046T   25182.18506560  .00000100  00000-0  13713-3 0  9998 | 2 63176  88.9833 336.9519 0011742 233.6745 126.3323 13.50952683 25206 | 2025/07/01-04:26:29    9.1494    0.1151  126.4406  106.5914     7446.8925     7438.1483     7455.6366  81.880342 -34.837296  -0.001010  -0.000598
1 63176U 25046T   25183.51825194  .00000155  00000-0  22241-3 0  9999 | 2 63176  88.9834 336.8148 0011857 229.3463 130.6658 13.50953182 25383 | 2025/07/02-12:26:16  130.5423    0.1151  130.7688  106.5914     7446.8906     7438.0609     7455.7204  81.796840 -35.033163  -0.001064  -0.000523
1 63176U 25046T   25184.62923938  .00000225  00000-0  32987-3 0  9993 | 2 63176  88.9834 336.7006 0011960 225.7525 134.2645 13.50954077 25536 | 2025/07/03-15:06:06  171.7021    0.1150  134.3625  106.5913     7446.8873     7437.9809     7455.7938  81.726850 -35.196128  -0.001105  -0.000457
1 63176U 25046T   25185.88835841  .00000198  00000-0  28782-3 0  9994 | 2 63176  88.9835 336.5711 0012067 221.7518 138.2713 13.50954804 25702 | 2025/07/04-21:19:14  266.3494    0.1150  138.3632  106.5913     7446.8847     7437.8985     7455.8708  81.647183 -35.380797  -0.001146  -0.000379
1 63176U 25046T   25186.92527971  .00000152  00000-0  21697-3 0  9990 | 2 63176  88.9836 336.4646 0012162 218.4373 141.5913 13.50955221 25845 | 2025/07/05-22:12:24  280.7641    0.1151  141.6778  106.5912     7446.8831     7437.8262     7455.9400  81.581369 -35.532539  -0.001175  -0.000313
1 63176U 25046T   25188.55472716  .00000111  00000-0  15272-3 0  9994 | 2 63176  88.9837 336.2971 0012335 213.3684 146.6691 13.50955522 26064 | 2025/07/07-13:18:48  149.1299    0.1151  146.7467  106.5912     7446.8820     7437.6963     7456.0678  81.477235 -35.770924  -0.001216  -0.000207
1 63176U 25046T   25189.81384552  .00000104  00000-0  14240-3 0  9990 | 2 63176  88.9838 336.1678 0012476 209.5067 150.5381 13.50955752 26230 | 2025/07/08-19:31:56  243.7755    0.1150  150.6083  106.5912     7446.8812     7437.5905     7456.1719  81.396395 -35.954744  -0.001241  -0.000123
1 63176U 25046T   25190.85076635  .00000080  00000-0  10588-3 0  9990 | 2 63176  88.9839 336.0612 0012595 206.3745 153.6766 13.50955913 26373 | 2025/07/09-20:25:06  258.1894    0.1150  153.7405  106.5912     7446.8806     7437.5012     7456.2599  81.329451 -36.106162  -0.001258  -0.000054
