# SPACE DATA - HISTORICAL TLEs
# ----------------------------
# NORAD_ID    : 63257
# OBJECT_NAME : ICEYE-X51
# --------------------------------------------------------------------+-----------------------------------------------------------------------+----------------------------------------------------------------------------------------------------------------------------------------
#                  LINE 1                                             |                 LINE 2                                                |      DERIVED PARAMETERS
# --------------------------------------------------------------------+-----------------------------------------------------------------------+----------------------------------------------------------------------------------------------------------------------------------------
# NORAD  COSPAR     TLE_EPOCH      MEANMOT1 MEANMOT2   BSTAR  #  REV  |   NORAD    INC     RAAN     ECC    ARGPER  MEANANOM   MEANMOT     REV |  CAL_DATE              LONG     ARGLAT     PERIOD        SMA         PERIGEE        APOGEE      INC_X      INC_Y      ECC_X      ECC_Y
# ------ ------   -------------- ----------  -------  ------- -- ----     -----  ------- -------- ------- -------- -------- -----------  ----   ------------------- ---------  --------  --------  ------------  ------------   ----------- ---------- ----------  ---------  ---------   
1 63257U 25052AZ  25087.53097207  .00007794  00000-0  76760-3 0  9998 | 2 63257  97.7365 342.4519 0001532  72.5845 287.5541 14.92325667  2102 | 2025/03/28-12:44:35   34.7483    0.1219  287.5374   96.4937     6968.8230     6967.7554     6969.8906  93.188251 -29.468175   0.000088   0.000126
1 63257U 25052AZ  25088.93903157  .00005957  00000-0  58784-3 0  9998 | 2 63257  97.7359 343.8349 0001394  71.7861 288.3509 14.92344830  2315 | 2025/03/29-22:32:12  181.6562    0.1218  288.3357   96.4924     6968.7634     6967.7919     6969.7348  93.871759 -27.210273   0.000079   0.000115
1 63257U 25052AZ  25090.07887760  .00005361  00000-0  52947-3 0  9991 | 2 63257  97.7351 344.9544 0001290  70.5093 289.6266 14.92357827  2487 | 2025/03/31-01:53:35  232.0059    0.1220  289.6127   96.4916     6968.7229     6967.8239     6969.6219  94.384695 -25.370831   0.000073   0.000106
1 63257U 25052AZ  25091.62100669  .00005874  00000-0  57926-3 0  9990 | 2 63257  97.7341 346.4687 0001167  72.6695 287.4652 14.92376300  2713 | 2025/04/01-14:54:14   67.1792    0.1219  287.4524   96.4904     6968.6654     6967.8522     6969.4786  95.021221 -22.867485   0.000060   0.000100
1 63257U 25052AZ  25092.62673269  .00007385  00000-0  72651-3 0  9993 | 2 63257  97.7336 347.4561 0001127  75.3817 284.7527 14.92390729  2869 | 2025/04/02-15:02:29   69.2448    0.1219  284.7402   96.4895     6968.6205     6967.8351     6969.4058  95.400688 -21.226525   0.000051   0.000100
1 63257U 25052AZ  25093.90063715  .00007472  00000-0  73460-3 0  9990 | 2 63257  97.7334 348.7068 0001156  79.9199 280.2150 14.92410278  3055 | 2025/04/03-21:36:55  167.8548    0.1219  280.2020   96.4882     6968.5596     6967.7541     6969.3652  95.841077 -19.139108   0.000042   0.000108
1 63257U 25052AZ  25095.17452285  .00009789  00000-0  95977-3 0  9995 | 2 63257  97.7336 349.9575 0001274  83.9685 276.1679 14.92435779  3243 | 2025/04/05-04:11:18  266.4571    0.1219  276.1534   96.4866     6968.4802     6967.5925     6969.3680  96.236192 -17.042651   0.000035   0.000122
1 63257U 25052AZ  25096.18020777  .00009661  00000-0  94691-3 0  9995 | 2 63257  97.7338 350.9451 0001326  85.4641 274.6730 14.92454345  3394 | 2025/04/06-04:19:29  268.5066    0.1220  274.6579   96.4854     6968.4225     6967.4984     6969.3465  96.515841 -15.381422   0.000031   0.000129
1 63257U 25052AZ  25097.18588068  .00008227  00000-0  80695-3 0  9994 | 2 63257  97.7342 351.9328 0001395  86.4285 273.7094 14.92470199  3549 | 2025/04/07-04:27:40  270.5516    0.1219  273.6934   96.4843     6968.3731     6967.4010     6969.3452  96.767038 -13.715475   0.000028   0.000137
1 63257U 25052AZ  25098.19154344  .00007622  00000-0  74785-3 0  9993 | 2 63257  97.7344 352.9206 0001400  85.8856 274.2523 14.92484672  3691 | 2025/04/08-04:35:49  272.5936    0.1219  274.2363   96.4834     6968.3281     6967.3525     6969.3036  96.989304 -12.045246   0.000027   0.000137
1 63257U 25052AZ  25099.26423885  .00008179  00000-0  80165-3 0  9998 | 2 63257  97.7347 353.9742 0001409  85.8101 274.3280 14.92501925  3852 | 2025/04/09-06:20:30  298.7674    0.1220  274.3119   96.4823     6968.2744     6967.2925     6969.2562  97.194689 -10.259825   0.000025   0.000139
1 63257U 25052AZ  25100.53804814  .00007668  00000-0  75156-3 0  9992 | 2 63257  97.7346 355.2255 0001336  86.3665 273.7707 14.92521688  4042 | 2025/04/10-12:54:47   37.3439    0.1219  273.7554   96.4810     6968.2128     6967.2819     6969.1438  97.395461  -8.134875   0.000020   0.000132
1 63257U 25052AZ  25101.81184204  .00006458  00000-0  63374-3 0  9993 | 2 63257  97.7342 356.4767 0001248  87.1964 272.9398 14.92538137  4237 | 2025/04/11-19:29:03  135.9150    0.1219  272.9255   96.4799     6968.1616     6967.2920     6969.0313  97.549472  -6.006200   0.000014   0.000124
1 63257U 25052AZ  25102.81745889  .00007130  00000-0  69878-3 0  9999 | 2 63257  97.7337 357.4645 0001191  89.3139 270.8217 14.92552170  4388 | 2025/04/12-19:37:08  137.9411    0.1220  270.8081   96.4790     6968.1180     6967.2881     6968.9479  97.638019  -4.323581   0.000007   0.000119
1 63257U 25052AZ  25104.42642666  .00006303  00000-0  61814-3 0  9990 | 2 63257  97.7329 359.0448 0001146  93.1948 266.9403 14.92572780  4628 | 2025/04/14-10:14:03  357.1755    0.1220  266.9272   96.4777     6968.0538     6967.2553     6968.8524  97.719319  -1.629267  -0.000004   0.000115
1 63257U 25052AZ  25105.43202071  .00006617  00000-0  64837-3 0  9990 | 2 63257  97.7324   0.0324 0001192  95.9899 264.1456 14.92585678  4779 | 2025/04/15-10:22:06  359.1926    0.1219  264.1320   96.4769     6968.0137     6967.1831     6968.8443  97.732384   0.055266  -0.000013   0.000119
1 63257U 25052AZ  25106.43760634  .00008169  00000-0  79870-3 0  9992 | 2 63257  97.7321   1.0199 0001284  97.7928 262.3437 14.92601468  4924 | 2025/04/16-10:30:09    1.2060    0.1219  262.3291   96.4759     6967.9645     6967.0699     6968.8592  97.716617   1.739599  -0.000020   0.000127
1 63257U 25052AZ  25107.57725770  .00007313  00000-0  71536-3 0  9991 | 2 63257  97.7318   2.1390 0001428  98.0352 262.1030 14.92616404  5092 | 2025/04/17-13:51:15   51.4830    0.1220  262.0868   96.4749     6967.9181     6966.9230     6968.9131  97.663702   3.647734  -0.000025   0.000141
1 63257U 25052AZ  25108.91800803  .00005948  00000-0  58276-3 0  9999 | 2 63257  97.7319   3.4554 0001476  98.3180 261.8206 14.92632956  5297 | 2025/04/18-22:01:55  174.1579    0.1219  261.8039   96.4738     6967.8665     6966.8381     6968.8950  97.554225   5.890454  -0.000030   0.000144
1 63257U 25052AZ  25110.19170624  .00006853  00000-0  67013-3 0  9998 | 2 63257  97.7319   4.7062 0001535  94.1718 265.9676 14.92651627  5485 | 2025/04/20-04:36:03  272.6930    0.1219  265.9501   96.4726     6967.8084     6966.7389     6968.8780  97.402398   8.018546  -0.000024   0.000152
1 63257U 25052AZ  25111.19724749  .00006039  00000-0  59114-3 0  9991 | 2 63257  97.7323   5.6937 0001603  96.1799 263.9603 14.92663354  5633 | 2025/04/21-04:44:02  274.6907    0.1219  263.9420   96.4719     6967.7719     6966.6550     6968.8889  97.250136   9.696054  -0.000033   0.000157
1 63257U 25052AZ  25112.20277809  .00006587  00000-0  64397-3 0  9991 | 2 63257  97.7325   6.6813 0001584  96.8046 263.3353 14.92679207  5785 | 2025/04/22-04:52:00  276.6855    0.1219  263.3173   96.4708     6967.7226     6966.6189     6968.8263  97.068767  11.370842  -0.000037   0.000154
1 63257U 25052AZ  25113.74457591  .00005223  00000-0  51160-3 0  9999 | 2 63257  97.7326   8.1958 0001468  97.4302 262.7084 14.92696099  6015 | 2025/04/23-17:52:11  111.7392    0.1219  262.6917   96.4697     6967.6700     6966.6472     6968.6929  96.734426  13.932406  -0.000040   0.000141
1 63257U 25052AZ  25114.88415376  .00006540  00000-0  63891-3 0  9997 | 2 63257  97.7326   9.3151 0001437  99.6559 260.4822 14.92711290  6181 | 2025/04/24-21:13:10  161.9916    0.1219  260.4660   96.4688     6967.6228     6966.6215     6968.6240  96.443809  15.819379  -0.000047   0.000136
1 63257U 25052AZ  25115.88965468  .00006031  00000-0  58942-3 0  9996 | 2 63257  97.7324  10.3029 0001401 101.2337 258.9039 14.92723246  6333 | 2025/04/25-21:21:06  163.9757    0.1218  258.8881   96.4680     6967.5856     6966.6094     6968.5617  96.156561  17.479637  -0.000051   0.000130
1 63257U 25052AZ  25116.89514689  .00006740  00000-0  65784-3 0  9992 | 2 63257  97.7321  11.2906 0001443 103.0701 257.0680 14.92737138  6488 | 2025/04/26-21:29:00  165.9558    0.1220  257.0519   96.4671     6967.5423     6966.5369     6968.5478  95.840670  19.134505  -0.000060   0.000131
1 63257U 25052AZ  25117.90063041  .00007139  00000-0  69615-3 0  9996 | 2 63257  97.7317  12.2782 0001537 104.2747 255.8643 14.92750847  6637 | 2025/04/27-21:36:54  167.9324    0.1219  255.8472   96.4662     6967.4997     6966.4288     6968.5706  95.496240  20.783489  -0.000069   0.000137
1 63257U 25052AZ  25118.90610499  .00006145  00000-0  59985-3 0  9997 | 2 63257  97.7313  13.2657 0001625 104.0860 256.0540 14.92762537  6781 | 2025/04/28-21:44:47  169.9058    0.1219  256.0359   96.4654     6967.4633     6966.3311     6968.5955  95.123479  22.426118  -0.000075   0.000144
1 63257U 25052AZ  25121.65435939  .00006708  00000-0  65374-3 0  9991 | 2 63257  97.7308  15.9648 0001868 101.7903 258.3526 14.92798149  7198 | 2025/05/01-15:42:16   79.2842    0.1219  258.3316   96.4631     6967.3525     6966.0510     6968.6540  93.961407  26.880539  -0.000087   0.000165
1 63257U 25052AZ  25123.26299967  .00012658  00000-0  12215-2 0  9995 | 2 63257  97.7317  17.5436 0002078  94.2746 265.8711 14.92999244  7431 | 2025/05/03-06:18:43  298.3987    0.1220  265.8474   96.4501     6966.7268     6965.2792     6968.1745  93.185988  29.459409  -0.000077   0.000193
1 63257U 25052AZ  25124.53637319  .00004765  00000-0  46338-3 0  9997 | 2 63257  97.7309  18.7958 0001923  99.4312 260.7125 14.93027422  7623 | 2025/05/04-12:52:22   36.8180    0.1220  260.6908   96.4483     6966.6392     6965.2995     6967.9789  92.519193  31.488535  -0.000091   0.000169
1 63257U 25052AZ  25125.54166141  .00004302  00000-0  41875-3 0  9997 | 2 63257  97.7309  19.7835 0001874  98.9594 261.1838 14.93036857  7773 | 2025/05/05-12:59:59   38.7254    0.1220  261.1626   96.4477     6966.6098     6965.3043     6967.9154  91.962654  33.078680  -0.000090   0.000164
1 63257U 25052AZ  25126.88193492  .00003728  00000-0  36062-3 0  9997 | 2 63257  97.7341  21.0913 0004523 129.9638 230.1980 14.93364756  7978 | 2025/05/06-21:09:59  161.2185    0.1220  230.1582   96.4265     6965.5900     6962.4395     6968.7406  91.186715  35.170118  -0.000396   0.000219
1 63257U 25052AZ  25127.88698381  .00003288  00000-0  31855-3 0  9991 | 2 63257  97.7310  22.0888 0001848  99.6892 260.4537 14.93394915  8120 | 2025/05/07-21:17:15  163.0482    0.1220  260.4328   96.4246     6965.4962     6964.2090     6966.7835  90.557755  36.751072  -0.000097   0.000157
1 63257U 25052AZ  25128.89202246  .00003718  00000-0  35908-3 0  9995 | 2 63257  97.7308  23.0775 0001818 101.5529 258.5895 14.93434110  8273 | 2025/05/08-21:24:30  164.8645    0.1220  258.5691   96.4221     6965.3744     6964.1081     6966.6407  89.909941  38.308116  -0.000103   0.000150
1 63257U 25052AZ  25129.89703854  .00003767  00000-0  36373-3 0  9998 | 2 63257  97.7308  24.0651 0001897 100.4683 259.6750 14.93442008  8427 | 2025/05/09-21:31:44  166.6724    0.1219  259.6536   96.4216     6965.3498     6964.0285     6966.6711  89.236306  39.852114  -0.000108   0.000156
1 63257U 25052AZ  25130.90204946  .00003761  00000-0  36303-3 0  9997 | 2 63257  97.7306  25.0532 0001984 100.6401 259.5043 14.93449450  8579 | 2025/05/10-21:38:57  168.4777    0.1220  259.4819   96.4211     6965.3267     6963.9448     6966.7086  88.535615  41.384961  -0.000116   0.000161
1 63257U 25052AZ  25131.90705538  .00003691  00000-0  35632-3 0  9997 | 2 63257  97.7305  26.0414 0002061  99.9920 260.1533 14.93456923  8723 | 2025/05/11-21:46:09  170.2813    0.1220  260.1300   96.4206     6965.3034     6963.8679     6966.7390  87.808612  42.905690  -0.000121   0.000167
1 63257U 25052AZ  25132.97905598  .00003897  00000-0  37586-3 0  9991 | 2 63257  97.7304  27.0954 0002174  99.0946 261.0520 14.93465668  8885 | 2025/05/12-23:29:50  196.2028    0.1220  261.0274   96.4200     6965.2763     6963.7620     6966.7905  87.004428  44.513601  -0.000128   0.000175
1 63257U 25052AZ  25134.18501454  .00004129  00000-0  39712-3 0  9991 | 2 63257  97.7301  28.2811 0002211  98.2295 261.9175 14.93540415  9067 | 2025/05/14-04:26:25  270.3505    0.1219  261.8924   96.4152     6965.0439     6963.5039     6966.5838  86.064419  46.304301  -0.000132   0.000178
1 63257U 25052AZ  25135.18995995  .00003870  00000-0  37250-3 0  9996 | 2 63257  97.7299  29.2691 0002305  96.5880 263.5602 14.93547604  9212 | 2025/05/15-04:33:32  272.1321    0.1220  263.5340   96.4147     6965.0215     6963.4161     6966.6269  85.253024  47.781327  -0.000135   0.000187
1 63257U 25052AZ  25136.19489938  .00003584  00000-0  34534-3 0  9997 | 2 63257  97.7297  30.2570 0002274  94.7694 265.3786 14.93554772  9369 | 2025/05/16-04:40:39  273.9131    0.1220  265.3526   96.4143     6964.9992     6963.4154     6966.5831  84.416369  49.243993  -0.000131   0.000186
1 63257U 25052AZ  25137.19983333  .00004382  00000-0  42084-3 0  9992 | 2 63257  97.7296  31.2451 0002273  93.1969 266.9511 14.93565482  9514 | 2025/05/17-04:47:45  275.6918    0.1220  266.9251   96.4136     6964.9659     6963.3828     6966.5491  83.554531  50.692358  -0.000129   0.000187
1 63257U 25052AZ  25138.20476125  .00004283  00000-0  41143-3 0  9996 | 2 63257  97.7294  32.2331 0002251  92.0622 268.0856 14.93573454  9669 | 2025/05/18-04:54:51  277.4685    0.1220  268.0598   96.4131     6964.9411     6963.3733     6966.5089  82.667851  52.125445  -0.000127   0.000186
1 63257U 25052AZ  25139.54465800  .00002778  00000-0  26868-3 0  9996 | 2 63257  97.7292  33.5503 0002167  91.0904 269.0564 14.93580019  9864 | 2025/05/19-13:04:18   39.8358    0.1220  269.0316   96.4126     6964.9207     6963.4114     6966.4300  81.447609  54.011884  -0.000123   0.000178
1 63257U 25052AZ  25140.54957665  .00002942  00000-0  28424-3 0  9996 | 2 63257  97.7293  34.5384 0002131  90.5118 269.6346 14.93585947 10013 | 2025/05/20-13:11:23   41.6093    0.1220  269.6102   96.4123     6964.9023     6963.4181     6966.3865  80.504159  55.408452  -0.000122   0.000174
1 63257U 25052AZ  25141.55449125  .00002474  00000-0  23982-3 0  9999 | 2 63257  97.7293  35.5265 0002106  90.3448 269.8013 14.93590686 10163 | 2025/05/21-13:18:28   43.3813    0.1220  269.7772   96.4120     6964.8876     6963.4208     6966.3544  79.536683  56.788486  -0.000123   0.000171
1 63257U 25052AZ  25142.55940298  .00002794  00000-0  27013-3 0  9991 | 2 63257  97.7293  36.5145 0002103  90.2458 269.9003 14.93596745 10317 | 2025/05/22-13:25:32   45.1520    0.1220  269.8762   96.4116     6964.8687     6963.4040     6966.3334  78.545654  58.151494  -0.000126   0.000168
1 63257U 25052AZ  25143.63130466  .00002603  00000-0  25201-3 0  9995 | 2 63257  97.7292  37.5685 0002141  90.0117 270.1348 14.93602014 10478 | 2025/05/23-15:09:04   71.0387    0.1220  270.1103   96.4112     6964.8524     6963.3612     6966.3435  77.462604  59.586420  -0.000131   0.000170
1 63257U 25052AZ  25144.63620862  .00002835  00000-0  27395-3 0  9993 | 2 63257  97.7293  38.5566 0002168  89.6097 270.5371 14.93607967 10627 | 2025/05/24-15:16:08   72.8062    0.1220  270.5123   96.4108     6964.8338     6963.3239     6966.3438  76.423611  60.913445  -0.000134   0.000170
1 63257U 25052AZ  25145.64110860  .00003124  00000-0  30124-3 0  9993 | 2 63257  97.7293  39.5447 0002237  89.6750 270.4726 14.93614458 10771 | 2025/05/25-15:23:11   74.5718    0.1220  270.4470   96.4104     6964.8137     6963.2556     6966.3717  75.361810  62.222293  -0.000141   0.000173
1 63257U 25052AZ  25147.58390355  .00003321  00000-0  31981-3 0  9998 | 2 63257  97.7291  41.4550 0002337  87.9969 272.1519 14.93626760 11061 | 2025/05/27-14:00:49   53.9814    0.1220  272.1251   96.4096     6964.7754     6963.1478     6966.4031  73.245606  64.699754  -0.000149   0.000180
1 63257U 25052AZ  25148.58878964  .00003888  00000-0  37335-3 0  9993 | 2 63257  97.7290  42.4430 0002393  87.0665 273.0828 14.93635498 11212 | 2025/05/28-14:07:51   55.7423    0.1219  273.0554   96.4091     6964.7483     6963.0816     6966.4149  72.119025  65.953041  -0.000152   0.000185
1 63257U 25052AZ  25149.66066225  .00004358  00000-0  41775-3 0  9998 | 2 63257  97.7287  43.4968 0002440  84.9971 275.1528 14.93645100 11372 | 2025/05/29-15:51:21   81.6186    0.1221  275.1250   96.4084     6964.7184     6963.0190     6966.4178  70.893651  67.268038  -0.000152   0.000191
1 63257U 25052AZ  25150.73252749  .00003471  00000-0  33375-3 0  9998 | 2 63257  97.7284  44.5505 0002398  83.3047 276.8446 14.93652656 11536 | 2025/05/30-17:34:50  107.4934    0.1220  276.8173   96.4080     6964.6949     6963.0248     6966.3651  69.644424  68.560152  -0.000147   0.000189
1 63257U 25052AZ  25151.87137817  .00002931  00000-0  28266-3 0  9995 | 2 63257  97.7282  45.6701 0002305  81.5052 278.6429 14.93659590 11702 | 2025/05/31-20:54:47  157.4838    0.1220  278.6168   96.4075     6964.6734     6963.0680     6966.2787  68.291360  69.907734  -0.000139   0.000184
1 63257U 25052AZ  25152.94322977  .00004557  00000-0  43629-3 0  9993 | 2 63257  97.7280  46.7239 0002256  81.0845 279.0631 14.93672881 11863 | 2025/06/01-22:38:15  183.3535    0.1221  279.0376   96.4067     6964.6321     6963.0608     6966.2033  66.993982  71.151728  -0.000138   0.000178
1 63257U 25052AZ  25154.21604399  .00005258  00000-0  50230-3 0  9991 | 2 63257  97.7278  47.9753 0002132  79.9781 280.1679 14.93687166 12051 | 2025/06/03-05:11:06  281.5714    0.1220  280.1439   96.4057     6964.5876     6963.1028     6966.0725  65.423965  72.597712  -0.000131   0.000168
1 63257U 25052AZ  25155.48884951  .00003114  00000-0  29966-3 0  9996 | 2 63257  97.7278  49.2269 0002069  79.1197 281.0256 14.93693480 12248 | 2025/06/04-11:43:56   19.7850    0.1220  281.0023   96.4053     6964.5680     6963.1271     6966.0090  63.822618  74.009434  -0.000128   0.000162
1 63257U 25052AZ  25156.56068105  .00002706  00000-0  26108-3 0  9992 | 2 63257  97.7279  50.2808 0002086  79.0868 281.0586 14.93699177 12406 | 2025/06/05-13:27:22   45.6468    0.1219  281.0351   96.4050     6964.5503     6963.0975     6966.0031  62.450631  75.170880  -0.000132   0.000161
1 63257U 25052AZ  25157.63250837  .00002669  00000-0  25753-3 0  9999 | 2 63257  97.7279  51.3347 0002079  78.9331 281.2122 14.93705262 12569 | 2025/06/06-15:10:48   71.5073    0.1219  281.1888   96.4046     6964.5314     6963.0835     6965.9793  61.057449  76.306817  -0.000134   0.000159
1 63257U 25052AZ  25158.63734309  .00002708  00000-0  26125-3 0  9999 | 2 63257  97.7280  52.3227 0002116  79.3518 280.7940 14.93710825 12713 | 2025/06/07-15:17:46   73.2497    0.1220  280.7702   96.4042     6964.5141     6963.0404     6965.9878  59.732675  77.348365  -0.000141   0.000158
1 63257U 25052AZ  25159.64217415  .00002836  00000-0  27326-3 0  9991 | 2 63257  97.7280  53.3108 0002150  79.1261 281.0200 14.93716520 12860 | 2025/06/08-15:24:43   74.9909    0.1219  280.9958   96.4038     6964.4964     6962.9990     6965.9938  58.389940  78.366938  -0.000145   0.000159
1 63257U 25052AZ  25160.84796544  .00003048  00000-0  29322-3 0  9994 | 2 63257  97.7280  54.4964 0002195  78.5501 281.5965 14.93724266 13041 | 2025/06/09-20:21:04  149.0782    0.1220  281.5719   96.4033     6964.4723     6962.9436     6966.0010  56.755937  79.558315  -0.000150   0.000160
1 63257U 25052AZ  25161.85278719  .00002913  00000-0  28045-3 0  9996 | 2 63257  97.7279  55.4845 0002236  78.0343 282.1127 14.93729913 13190 | 2025/06/10-20:28:00  150.8159    0.1219  282.0876   96.4030     6964.4548     6962.8975     6966.0120  55.375478  80.525144  -0.000154   0.000162
1 63257U 25052AZ  25162.92459211  .00002755  00000-0  26552-3 0  9998 | 2 63257  97.7277  56.5384 0002245  76.8455 283.3015 14.93736274 13353 | 2025/06/11-22:11:24  176.6682    0.1220  283.2765   96.4026     6964.4350     6962.8715     6965.9985  53.884902  81.529876  -0.000154   0.000163
1 63257U 25052AZ  25164.13036598  .00002907  00000-0  27980-3 0  9997 | 2 63257  97.7274  57.7239 0002221  75.2329 284.9137 14.93744928 13536 | 2025/06/13-03:07:43  250.7501    0.1220  284.8891   96.4020     6964.4081     6962.8613     6965.9549  52.186404  82.627017  -0.000151   0.000163
1 63257U 25052AZ  25165.13517066  .00003299  00000-0  31669-3 0  9996 | 2 63257  97.7272  58.7117 0002194  73.4149 286.7312 14.93754952 13688 | 2025/06/14-03:14:38  252.4829    0.1220  286.7071   96.4014     6964.3769     6962.8490     6965.9049  50.754095  83.514235  -0.000147   0.000163
1 63257U 25052AZ  25166.13997050  .00002255  00000-0  21815-3 0  9995 | 2 63257  97.7268  59.6995 0002099  71.5215 288.6233 14.93760125 13833 | 2025/06/15-03:21:33  254.2147    0.1220  288.6005   96.4010     6964.3609     6962.8990     6965.8227  49.306607  84.376454  -0.000138   0.000158
1 63257U 25052AZ  25167.14476764  .00002195  00000-0  21246-3 0  9992 | 2 63257  97.7266  60.6874 0002011  70.1128 290.0309 14.93764627 13989 | 2025/06/16-03:28:27  255.9453    0.1220  290.0092   96.4007     6964.3469     6962.9463     6965.7474  47.844424  85.213845  -0.000131   0.000152
1 63257U 25052AZ  25168.14956169  .00001921  00000-0  18659-3 0  9995 | 2 63257  97.7264  61.6752 0001933  69.5104 290.6324 14.93769452 14133 | 2025/06/17-03:35:22  257.6746    0.1221  290.6117   96.4004     6964.3319     6962.9857     6965.6781  46.368174  86.025820  -0.000127   0.000145
1 63257U 25052AZ  25169.22134015  .00001807  00000-0  17583-3 0  9991 | 2 63257  97.7263  62.7290 0001875  69.1676 290.9744 14.93773120 14299 | 2025/06/18-05:18:43  283.5182    0.1219  290.9543   96.4002     6964.3205     6963.0147     6965.6263  44.778164  86.863950  -0.000125   0.000140
1 63257U 25052AZ  25170.56105944  .00002071  00000-0  20066-3 0  9993 | 2 63257  97.7262  64.0462 0001816  69.1511 290.9904 14.93778261 14498 | 2025/06/19-13:27:55   45.8210    0.1221  290.9710   96.3998     6964.3045     6963.0398     6965.5692  42.769507  87.870242  -0.000124   0.000132
1 63257U 25052AZ  25171.56584579  .00001986  00000-0  19264-3 0  9991 | 2 63257  97.7263  65.0341 0001810  69.9798 290.1616 14.93781998 14645 | 2025/06/20-13:34:49   47.5466    0.1219  290.1421   96.3996     6964.2929     6963.0323     6965.5534  41.248199  88.594672  -0.000128   0.000128
1 63257U 25052AZ  25172.57062944  .00002257  00000-0  21817-3 0  9999 | 2 63257  97.7264  66.0221 0001813  70.8155 289.3260 14.93786475 14791 | 2025/06/21-13:41:42   49.2710    0.1219  289.3064   96.3993     6964.2790     6963.0163     6965.5416  39.714469  89.292834  -0.000132   0.000124
1 63257U 25052AZ  25173.57540996  .00002387  00000-0  23045-3 0  9997 | 2 63257  97.7265  67.0100 0001831  71.3555 288.7863 14.93791301 14942 | 2025/06/22-13:48:35   50.9942    0.1219  288.7664   96.3990     6964.2640     6962.9888     6965.5391  38.169084  89.964381  -0.000137   0.000122
1 63257U 25052AZ  25174.58018740  .00002524  00000-0  24331-3 0  9998 | 2 63257  97.7265  67.9979 0001856  71.2662 288.8759 14.93796209 15094 | 2025/06/23-13:55:28   52.7162    0.1220  288.8558   96.3987     6964.2487     6962.9561     6965.5413  36.612312  90.609091  -0.000141   0.000121
1 63257U 25052AZ  25175.85289948  .00002406  00000-0  23216-3 0  9999 | 2 63257  97.7260  69.2491 0001776  68.0438 292.0970 14.93802675 15287 | 2025/06/24-20:28:10  150.8971    0.1219  292.0781   96.3983     6964.2286     6962.9918     6965.4655  34.624881  91.386480  -0.000131   0.000120
1 63257U 25052AZ  25176.85766902  .00002287  00000-0  22087-3 0  9992 | 2 63257  97.7259  70.2369 0001762  67.5857 292.5549 14.93806848 15435 | 2025/06/25-20:35:02  152.6169    0.1220  292.5363   96.3980     6964.2156     6962.9886     6965.4427  33.044244  91.969720  -0.000131   0.000118
1 63257U 25052AZ  25177.86243490  .00002202  00000-0  21290-3 0  9998 | 2 63257  97.7257  71.2248 0001744  66.9151 293.2252 14.93811366 15586 | 2025/06/26-20:41:54  154.3353    0.1219  293.2068   96.3977     6964.2016     6962.9870     6965.4162  31.453595  92.525585  -0.000130   0.000116
1 63257U 25052AZ  25178.86719812  .00002031  00000-0  19675-3 0  9999 | 2 63257  97.7256  72.2127 0001804  67.4654 292.6757 14.93816690 15738 | 2025/06/27-20:48:45  156.0517    0.1220  292.6566   96.3974     6964.1851     6962.9287     6965.4414  29.853632  93.054036  -0.000138   0.000117
1 63257U 25052AZ  25179.93894121  .00001531  00000-0  14956-3 0  9996 | 2 63257  97.7253  73.2664 0001726  66.0328 294.1073 14.93820518 15897 | 2025/06/28-22:32:04  181.8829    0.1220  294.0892   96.3971     6964.1732     6962.9711     6965.3752  28.137280  93.587006  -0.000131   0.000113
1 63257U 25052AZ  25180.94369913  .00001586  00000-0  15478-3 0  9995 | 2 63257  97.7253  74.2541 0001635  64.9407 295.1983 14.93822716 16047 | 2025/06/29-22:38:55  183.5995    0.1220  295.1813   96.3970     6964.1663     6963.0277     6965.3050  26.519869  94.058125  -0.000124   0.000107
1 63257U 25052AZ  25181.94845248  .00001464  00000-0  14325-3 0  9991 | 2 63257  97.7248  75.2419 0001556  64.4712 295.6669 14.93828083 16197 | 2025/06/30-22:45:46  185.3141    0.1220  295.6508   96.3966     6964.1496     6963.0660     6965.2333  24.894284  94.500853  -0.000119   0.000101
1 63257U 25052AZ  25182.95320496  .00001920  00000-0  18616-3 0  9990 | 2 63257  97.7246  76.2297 0001482  64.6143 295.5230 14.93832675 16340 | 2025/07/01-22:52:36  187.0284    0.1220  295.5077   96.3963     6964.1354     6963.1033     6965.1675  23.261389  94.915780  -0.000115   0.000094
1 63257U 25052AZ  25183.95795487  .00002062  00000-0  19952-3 0  9999 | 2 63257  97.7245  77.2174 0001414  65.0717 295.0650 14.93836606 16496 | 2025/07/02-22:59:27  188.7415    0.1220  295.0503   96.3961     6964.1232     6963.1384     6965.1079  21.621775  95.302554  -0.000112   0.000086
1 63257U 25052AZ  25184.96270195  .00002249  00000-0  21713-3 0  9990 | 2 63257  97.7245  78.2052 0001395  67.3771 292.7597 14.93840958 16641 | 2025/07/03-23:06:17  190.4529    0.1221  292.7450   96.3958     6964.1096     6963.1381     6965.0811  19.975593  95.661139  -0.000115   0.000079
1 63257U 25052AZ  25185.96744556  .00002442  00000-0  23531-3 0  9993 | 2 63257  97.7245  79.1930 0001385  68.7588 291.3780 14.93846100 16796 | 2025/07/04-23:13:07  192.1631    0.1220  291.3632   96.3955     6964.0937     6963.1291     6965.0582  18.323473  95.991293  -0.000117   0.000073
1 63257U 25052AZ  25187.24011531  .00002722  00000-0  26156-3 0  9993 | 2 63257  97.7246  80.4443 0001406  71.1603 288.9769 14.93853600 16984 | 2025/07/06-05:45:45  290.3270    0.1220  288.9617   96.3950     6964.0703     6963.0912     6965.0495  16.222904  96.368640  -0.000124   0.000067
1 63257U 25052AZ  25188.51277889  .00002794  00000-0  26837-3 0  9999 | 2 63257  97.7247  81.6955 0001450  72.9722 287.1657 14.93860860 17171 | 2025/07/07-12:18:24   28.4883    0.1220  287.1498   96.3945     6964.0478     6963.0380     6965.0576  14.114761  96.700003  -0.000131   0.000062
1 63257U 25052AZ  25189.51750863  .00002668  00000-0  25647-3 0  9996 | 2 63257  97.7247  82.6833 0001459  73.5659 286.5721 14.93866402 17322 | 2025/07/08-12:25:12   30.1935    0.1220  286.5561   96.3942     6964.0306     6963.0145     6965.0466  12.445603  96.928963  -0.000134   0.000059
1 63257U 25052AZ  25190.52223444  .00002457  00000-0  23655-3 0  9992 | 2 63257  97.7246  83.6711 0001467  73.2558 286.8823 14.93871618 17478 | 2025/07/09-12:32:01   31.8972    0.1220  286.8662   96.3938     6964.0143     6962.9927     6965.0360  10.772735  97.129015  -0.000135   0.000057
1 63257U 25052AZ  25191.52695691  .00002115  00000-0  20432-3 0  9991 | 2 63257  97.7240  84.6585 0001341  69.9568 290.1796 14.93874572 17622 | 2025/07/10-12:38:49   33.6019    0.1220  290.1652   96.3936     6964.0052     6963.0713     6964.9390   9.097301  97.299637  -0.000121   0.000057
1 63257U 25052AZ  25192.53167611  .00001929  00000-0  18678-3 0  9990 | 2 63257  97.7239  85.6462 0001315  69.8650 290.2712 14.93879114 17779 | 2025/07/11-12:45:36   35.3036    0.1221  290.2571   96.3933     6963.9911     6963.0753     6964.9068   7.418714  97.441897  -0.000120   0.000055
1 63257U 25052AZ  25193.53639234  .00001939  00000-0  18774-3 0  9994 | 2 63257  97.7237  86.6339 0001294  69.9549 290.1810 14.93884230 17925 | 2025/07/12-12:52:24   37.0043    0.1220  290.1671   96.3930     6963.9752     6963.0740     6964.8763   5.737919  97.555101  -0.000119   0.000051
1 63257U 25052AZ  25194.54110487  .00001856  00000-0  17986-3 0  9992 | 2 63257  97.7235  87.6217 0001293  71.1228 289.0132 14.93890075 18072 | 2025/07/13-12:59:11   38.7032    0.1220  288.9992   96.3926     6963.9570     6963.0565     6964.8574   4.055256  97.639323  -0.000121   0.000047
1 63257U 25052AZ  25195.61279638  .00001637  00000-0  15930-3 0  9999 | 2 63257  97.7231  88.6752 0001207  71.4403 288.6948 14.93893613 18235 | 2025/07/14-14:42:25   64.5159    0.1220  288.6817   96.3924     6963.9460     6963.1054     6964.7865   2.259364  97.696978  -0.000114   0.000041
1 63257U 25052AZ  25196.61750460  .00001771  00000-0  17185-3 0  9990 | 2 63257  97.7228  89.6627 0001149  72.8721 287.2624 14.93897884 18382 | 2025/07/15-14:49:12   66.2142    0.1219  287.2498   96.3921     6963.9327     6963.1326     6964.7329   0.575290  97.721107  -0.000110   0.000034
1 63257U 25052AZ  25197.62221061  .00001869  00000-0  18106-3 0  9994 | 2 63257  97.7226  90.6504 0001090  74.5361 285.5980 14.93901577 18538 | 2025/07/16-14:55:58   67.9114    0.1221  285.5860   96.3919     6963.9212     6963.1622     6964.6803  -1.109286  97.716304  -0.000105   0.000028
1 63257U 25052AZ  25198.62691377  .00002103  00000-0  20307-3 0  9994 | 2 63257  97.7225  91.6380 0001071  77.2751 282.8589 14.93906067 18682 | 2025/07/17-15:02:45   69.6073    0.1220  282.8469   96.3916     6963.9073     6963.1615     6964.6531  -2.793358  97.682568  -0.000105   0.000021
1 63257U 25052AZ  25199.63161393  .00002272  00000-0  21889-3 0  9999 | 2 63257  97.7224  92.6256 0001076  80.9299 279.2043 14.93910849 18832 | 2025/07/18-15:09:31   71.3018    0.1220  279.1921   96.3913     6963.8924     6963.1431     6964.6417  -4.476597  97.619811  -0.000107   0.000012
1 63257U 25052AZ  25200.63631043  .00002435  00000-0  23418-3 0  9997 | 2 63257  97.7224  93.6132 0001111  84.3894 275.7453 14.93916121 18986 | 2025/07/19-15:16:17   72.9947    0.1220  275.7326   96.3910     6963.8760     6963.1024     6964.6497  -6.158509  97.528151  -0.000111   0.000004
1 63257U 25052AZ  25201.64100344  .00002574  00000-0  24721-3 0  9996 | 2 63257  97.7225  94.6009 0001152  86.8539 273.2813 14.93921584 19139 | 2025/07/20-15:23:02   74.6863    0.1220  273.2681   96.3906     6963.8591     6963.0568     6964.6613  -7.838769  97.407601  -0.000115  -0.000003
1 63257U 25052AZ  25202.84663002  .00002822  00000-0  27051-3 0  9999 | 2 63257  97.7226  95.7860 0001218  87.9339 272.2021 14.93928912 19312 | 2025/07/21-20:19:08  148.7143    0.1221  272.1882   96.3901     6963.8363     6962.9881     6964.6845  -9.851728  97.224740  -0.000122  -0.000008
1 63257U 25052AZ  25204.18620754  .00003676  00000-0  35059-3 0  9990 | 2 63257  97.7226  97.1028 0001295  89.6984 270.4384 14.93939561 19510 | 2025/07/23-04:28:08  270.9649    0.1220  270.4236   96.3894     6963.8032     6962.9014     6964.7050 -12.083397  96.972667  -0.000129  -0.000015
1 63257U 25052AZ  25205.79368740  .00003850  00000-0  36687-3 0  9994 | 2 63257  97.7224  98.6830 0001354  89.8317 270.3058 14.93952213 19755 | 2025/07/24-19:02:54  129.6612    0.1220  270.2903   96.3886     6963.7639     6962.8210     6964.7068 -14.752909  96.602377  -0.000134  -0.000020
1 63257U 25052AZ  25207.20022043  .00003063  00000-0  29285-3 0  9997 | 2 63257  97.7219 100.0654 0001295  89.6041 270.5328 14.93961276 19961 | 2025/07/26-04:48:19  276.0176    0.1221  270.5180   96.3880     6963.7357     6962.8339     6964.6375 -17.079068  96.217853  -0.000128  -0.000022
1 63257U 25052AZ  25208.20488163  .00002619  00000-0  25115-3 0  9991 | 2 63257  97.7215 101.0528 0001257  90.1385 269.9979 14.93967320 20113 | 2025/07/27-04:55:01  277.6990    0.1220  269.9835   96.3877     6963.7169     6962.8416     6964.5923 -18.734532  95.908857  -0.000123  -0.000024
1 63257U 25052AZ  25209.20953943  .00002390  00000-0  22963-3 0  9999 | 2 63257  97.7211 102.0403 0001206  91.2213 268.9145 14.93972628 20265 | 2025/07/28-05:01:44  279.3791    0.1220  268.9007   96.3873     6963.7004     6962.8606     6964.5403 -20.384586  95.571345  -0.000117  -0.000028
1 63257U 25052AZ  25210.21419400  .00002580  00000-0  24743-3 0  9996 | 2 63257  97.7208 103.0277 0001150  92.7956 267.3396 14.93978585 20415 | 2025/07/29-05:08:26  281.0582    0.1220  267.3264   96.3869     6963.6819     6962.8811     6964.4828 -22.028427  95.205584  -0.000111  -0.000031
1 63257U 25052AZ  25211.21884546  .00002612  00000-0  25042-3 0  9993 | 2 63257  97.7205 104.0152 0001126  95.9742 264.1606 14.93983689 20562 | 2025/07/30-05:15:08  282.7359    0.1220  264.1478   96.3866     6963.6661     6962.8820     6964.4502 -23.665882  94.811509  -0.000106  -0.000038
1 63257U 25052AZ  25212.22349310  .00002779  00000-0  26602-3 0  9997 | 2 63257  97.7203 105.0026 0001145  98.5817 261.5533 14.93989559 20713 | 2025/07/31-05:21:49  284.4117    0.1220  261.5403   96.3862     6963.6478     6962.8505     6964.4452 -25.296158  94.389414  -0.000105  -0.000046
1 63257U 25052AZ  25213.49604062  .00003361  00000-0  32059-3 0  9996 | 2 63257  97.7199 106.2533 0001151 102.0183 258.1166 14.93998110 20905 | 2025/08/01-11:54:17   22.5325    0.1220  258.1037   96.3857     6963.6213     6962.8197     6964.4228 -27.350267  93.814401  -0.000101  -0.000055
1 63257U 25052AZ  25214.50067851  .00002975  00000-0  28433-3 0  9999 | 2 63257  97.7200 107.2408 0001245 102.8174 257.3185 14.94003942 21052 | 2025/08/02-12:00:58   24.2038    0.1220  257.3046   96.3853     6963.6031     6962.7362     6964.4701 -28.963057  93.329201  -0.000108  -0.000062
1 63257U 25052AZ  25215.50531236  .00002919  00000-0  27900-3 0  9999 | 2 63257  97.7200 108.2282 0001325 104.0882 256.0485 14.94009922 21202 | 2025/08/03-12:07:38   25.8740    0.1220  256.0338   96.3849     6963.5846     6962.6619     6964.5072 -30.567054  92.816236  -0.000112  -0.000071
1 63257U 25052AZ  25216.50994208  .00003229  00000-0  30808-3 0  9998 | 2 63257  97.7201 109.2156 0001430 104.5682 255.5697 14.94016947 21354 | 2025/08/04-12:14:18   27.5423    0.1220  255.5538   96.3844     6963.5627     6962.5669     6964.5585 -32.162007  92.275800  -0.000119  -0.000080
1 63257U 25052AZ  25217.51456749  .00003213  00000-0  30650-3 0  9991 | 2 63257  97.7202 110.2031 0001499 103.9787 256.1600 14.94023088 21505 | 2025/08/05-12:20:58   29.2094    0.1220  256.1433   96.3841     6963.5436     6962.4998     6964.5875 -33.747571  91.707900  -0.000124  -0.000084
1 63257U 25052AZ  25218.58616315  .00003107  00000-0  29649-3 0  9994 | 2 63257  97.7201 111.2563 0001575 103.2445 256.8951 14.94029600 21663 | 2025/08/06-14:04:04   54.9859    0.1220  256.8775   96.3836     6963.5234     6962.4267     6964.6202 -35.427495  91.072007  -0.000130  -0.000089
1 63257U 25052AZ  25219.59077933  .00003280  00000-0  31265-3 0  9992 | 2 63257  97.7200 112.2437 0001610 102.5667 257.5734 14.94036662 21811 | 2025/08/07-14:10:43   56.6501    0.1221  257.5554   96.3832     6963.5015     6962.3803     6964.6226 -36.991598  90.447886  -0.000132  -0.000092
1 63257U 25052AZ  25220.59539199  .00002804  00000-0  26805-3 0  9996 | 2 63257  97.7199 113.2310 0001629 101.8544 258.2859 14.94041402 21965 | 2025/08/08-14:17:21   58.3133    0.1220  258.2676   96.3829     6963.4867     6962.3524     6964.6211 -38.544554  89.796972  -0.000133  -0.000094
1 63257U 25052AZ  25221.59999904  .00003701  00000-0  35194-3 0  9999 | 2 63257  97.7197 114.2183 0001666 101.1573 258.9835 14.94050676 22110 | 2025/08/09-14:23:59   59.9742    0.1221  258.9648   96.3823     6963.4579     6962.2978     6964.6180 -40.086022  89.119305  -0.000136  -0.000096
1 63257U 25052AZ  25222.60460103  .00003088  00000-0  29456-3 0  9998 | 2 63257  97.7193 115.2056 0001624 101.0069 259.1334 14.94056749 22269 | 2025/08/10-14:30:37   61.6343    0.1220  259.1151   96.3819     6963.4391     6962.3082     6964.5699 -41.615496  88.414999  -0.000131  -0.000096
1 63257U 25052AZ  25223.60919914  .00003089  00000-0  29461-3 0  9995 | 2 63257  97.7188 116.1928 0001575 101.2926 258.8471 14.94062933 22417 | 2025/08/11-14:37:14   63.2932    0.1220  258.8294   96.3815     6963.4198     6962.3231     6964.5166 -43.132404  87.684432  -0.000125  -0.000096
1 63257U 25052AZ  25224.61379301  .00002762  00000-0  26390-3 0  9992 | 2 63257  97.7184 117.1801 0001545 101.9812 258.1581 14.94068468 22562 | 2025/08/12-14:43:51   64.9503    0.1220  258.1408   96.3811     6963.4026     6962.3268     6964.4785 -44.636689  86.927853  -0.000120  -0.000098
1 63257U 25052AZ  25225.81930195  .00002177  00000-0  20916-3 0  9997 | 2 63257  97.7179 118.3648 0001533 103.7599 256.3792 14.94073252 22748 | 2025/08/13-19:39:47  138.9372    0.1220  256.3621   96.3808     6963.3878     6962.3203     6964.4553 -46.424182  85.985948  -0.000114  -0.000103
1 63257U 25052AZ  25226.82388903  .00002588  00000-0  24752-3 0  9991 | 2 63257  97.7176 119.3520 0001552 104.7369 255.4024 14.94079470 22894 | 2025/08/14-19:46:24  140.5913    0.1221  255.3852   96.3804     6963.3685     6962.2877     6964.4492 -47.898599  85.173080  -0.000111  -0.000108
1 63257U 25052AZ  25227.96241681  .00002586  00000-0  24734-3 0  9996 | 2 63257  97.7175 120.4710 0001614 105.4740 254.6659 14.94085253 23068 | 2025/08/15-23:05:52  190.4639    0.1221  254.6481   96.3800     6963.3505     6962.2266     6964.4744 -49.552758  84.221339  -0.000112  -0.000116
1 63257U 25052AZ  25229.16791230  .00002631  00000-0  25154-3 0  9998 | 2 63257  97.7174 121.6556 0001684 105.6759 254.4647 14.94091543 23241 | 2025/08/17-04:01:47  264.4452    0.1220  254.4461   96.3796     6963.3309     6962.1583     6964.5036 -51.283281  83.178815  -0.000114  -0.000124
1 63257U 25052AZ  25230.17248832  .00002660  00000-0  25420-3 0  9994 | 2 63257  97.7174 122.6429 0001798 105.3747 254.7672 14.94096639 23399 | 2025/08/18-04:08:22  266.0941    0.1220  254.7473   96.3793     6963.3151     6962.0631     6964.5671 -52.708904  82.282815  -0.000120  -0.000134
1 63257U 25052AZ  25231.17706038  .00002988  00000-0  28480-3 0  9994 | 2 63257  97.7174 123.6303 0001869 104.8232 255.3195 14.94102703 23547 | 2025/08/19-04:14:58  267.7420    0.1220  255.2988   96.3789     6963.2963     6961.9948     6964.5977 -54.119018  81.362289  -0.000124  -0.000140
1 63257U 25052AZ  25232.24859877  .00003532  00000-0  33564-3 0  9998 | 2 63257  97.7176 124.6831 0001978 104.6096 255.5344 14.94110719 23705 | 2025/08/20-05:57:58  293.4979    0.1221  255.5125   96.3784     6963.2714     6961.8940     6964.6487 -55.604930  80.354347  -0.000129  -0.000150
1 63257U 25052AZ  25233.65498580  .00003147  00000-0  29961-3 0  9992 | 2 63257  97.7174 126.0651 0002047 101.4513 258.6937 14.94118365 23916 | 2025/08/21-15:43:10   79.8004    0.1220  258.6707   96.3779     6963.2476     6961.8222     6964.6730 -57.526633  78.989726  -0.000138  -0.000151
1 63257U 25052AZ  25234.65954241  .00002763  00000-0  26362-3 0  9999 | 2 63257  97.7172 127.0522 0002080 100.0044 260.1411 14.94124007 24065 | 2025/08/22-15:49:44   81.4434    0.1220  260.1176   96.3775     6963.2301     6961.7817     6964.6784 -58.878754  77.986816  -0.000142  -0.000152
1 63257U 25052AZ  25235.93197507  .00002482  00000-0  23733-3 0  9992 | 2 63257  97.7169 128.3025 0002073  98.2412 261.9044 14.94131110 24257 | 2025/08/23-22:22:02  179.5229    0.1221  261.8809   96.3771     6963.2080     6961.7645     6964.6515 -60.566232  76.683271  -0.000143  -0.000150
1 63257U 25052AZ  25236.93652318  .00002394  00000-0  22906-3 0  9992 | 2 63257  97.7166 129.2895 0002048  97.1798 262.9655 14.94136567 24403 | 2025/08/24-22:28:35  181.1636    0.1220  262.9422   96.3767     6963.1911     6961.7650     6964.6171 -61.877967  75.628375  -0.000141  -0.000148
1 63257U 25052AZ  25237.94106771  .00002578  00000-0  24623-3 0  9993 | 2 63257  97.7162 130.2766 0002009  96.7833 263.3616 14.94142447 24552 | 2025/08/25-22:35:08  182.8031    0.1220  263.3387   96.3764     6963.1728     6961.7739     6964.5717 -63.171398  74.550857  -0.000137  -0.000147
1 63257U 25052AZ  25238.94560865  .00002934  00000-0  27951-3 0  9995 | 2 63257  97.7157 131.2636 0001967  96.4750 263.6695 14.94148394 24704 | 2025/08/26-22:41:40  184.4413    0.1221  263.6471   96.3760     6963.1543     6961.7847     6964.5240 -64.445874  73.451258  -0.000132  -0.000146
1 63257U 25052AZ  25239.95014520  .00003733  00000-0  35399-3 0  9992 | 2 63257  97.7152 132.2507 0001923  96.1474 263.9966 14.94156186 24857 | 2025/08/27-22:48:12  186.0780    0.1221  263.9747   96.3755     6963.1301     6961.7911     6964.4691 -65.701341  72.329760  -0.000128  -0.000144
1 63257U 25052AZ  25240.95467662  .00004377  00000-0  41412-3 0  9991 | 2 63257  97.7150 133.2376 0001903  96.4332 263.7105 14.94164652 25002 | 2025/08/28-22:54:44  187.7129    0.1220  263.6888   96.3749     6963.1038     6961.7787     6964.4289 -66.937251  71.187258  -0.000123  -0.000145
1 63257U 25052AZ  25241.95920221  .00003854  00000-0  36520-3 0  9990 | 2 63257  97.7145 134.2246 0001922  96.7006 263.4433 14.94171823 25150 | 2025/08/29-23:01:15  189.3450    0.1220  263.4214   96.3745     6963.0815     6961.7432     6964.4198 -68.153210  70.023306  -0.000121  -0.000149
1 63257U 25052AZ  25243.76720539  .00005193  00000-0  48730-3 0  9995 | 2 63257  97.7145 136.0012 0001915  97.3489 262.7949 14.94402359 25420 | 2025/08/31-18:24:46  120.2317    0.1220  262.7731   96.3596     6962.3654     6961.0321     6963.6987 -70.291351  67.876723  -0.000114  -0.000154
1 63257U 25052AZ  25244.77151563  .00005925  00000-0  55290-3 0  9994 | 2 63257  97.7145 136.9891 0002397 106.9855 253.1629 14.94569509 25579 | 2025/09/01-18:30:58  121.7808    0.1221  253.1366   96.3488     6961.8463     6960.1775     6963.5150 -71.451182  66.654723  -0.000105  -0.000215
1 63257U 25052AZ  25246.71287635  .00017181  00000-0  15783-2 0  9999 | 2 63257  97.7149 138.8986 0002174  89.7471 270.3998 14.94879780 25861 | 2025/09/03-17:06:32  100.6761    0.1220  270.3749   96.3288     6960.8829     6959.3696     6962.3962 -73.632802  64.237156  -0.000144  -0.000163
1 63257U 25052AZ  25248.38612855  .00012925  00000-0  11814-2 0  9992 | 2 63257  97.7154 140.5433 0002378 101.3168 258.8320 14.95144362 26115 | 2025/09/05-09:16:01  343.0495    0.1221  258.8053   96.3118     6960.0617     6958.4066     6961.7168 -75.446555  62.097638  -0.000112  -0.000210
1 63257U 25052AZ  25249.45685141  .00013926  00000-0  12664-2 0  9995 | 2 63257  97.7148 141.5969 0002507  94.3930 265.7577 14.95322883 26279 | 2025/09/06-10:57:51    8.5096    0.1221  265.7291   96.3003     6959.5077     6957.7630     6961.2525 -76.575165  60.699474  -0.000140  -0.000208
1 63257U 25052AZ  25251.39723965  .00009124  00000-0  82628-3 0  9991 | 2 63257  97.7145 143.5073 0002462  89.9886 270.1617 14.95599838 26567 | 2025/09/08-09:32:01  347.0519    0.1221  270.1335   96.2824     6958.6485     6956.9353     6960.3618 -78.555876  58.112803  -0.000146  -0.000198
1 63257U 25052AZ  25252.40074394  .00007434  00000-0  67161-3 0  9996 | 2 63257  97.7144 144.4960 0002419  88.3725 271.7773 14.95757806 26716 | 2025/09/09-09:37:04  348.3144    0.1221  271.7496   96.2723     6958.1586     6956.4754     6959.8418 -79.546848  56.748594  -0.000146  -0.000193
1 63257U 25052AZ  25253.40415578  .00007482  00000-0  67424-3 0  9995 | 2 63257  97.7137 145.4841 0002401  86.8859 273.2637 14.95853720 26863 | 2025/09/10-09:41:59  349.5437    0.1221  273.2362   96.2661     6957.8611     6956.1906     6959.5317 -80.513057  55.367994  -0.000147  -0.000190
1 63257U 25052AZ  25258.82240550  .00009635  00000-0  86339-3 0  9990 | 2 63257  97.7118 150.8228 0002228  93.6152 266.5324 14.96000394 27670 | 2025/09/15-19:44:15  140.1174    0.1221  266.5069   96.2567     6957.4064     6955.8562     6958.9565 -85.313750  47.635700  -0.000096  -0.000201
1 63257U 25052AZ  25261.89867392  .00008272  00000-0  73442-3 0  9997 | 2 63257  97.7117 153.8514 0002283  92.1021 268.0462 14.96408224 28136 | 2025/09/18-21:34:05  167.5769    0.1222  268.0201   96.2304     6956.1422     6954.5541     6957.7303 -87.711306  43.061619  -0.000093  -0.000208
1 63257U 25052AZ  25262.96856351  .00004497  00000-0  40166-3 0  9991 | 2 63257  97.7117 154.9058 0002167  85.0466 275.1003 14.96416684 28292 | 2025/09/19-23:14:43  192.7387    0.1222  275.0756   96.2299     6956.1160     6954.6086     6957.6234 -88.488862  41.440289  -0.000109  -0.000188
1 63257U 25052AZ  25263.97157878  .00005308  00000-0  47300-3 0  9990 | 2 63257  97.7114 155.8945 0002238  85.5490 274.5987 14.96426935 28446 | 2025/09/20-23:19:04  193.8233    0.1221  274.5731   96.2292     6956.0842     6954.5274     6957.6410 -89.190475  39.907103  -0.000107  -0.000197
1 63257U 25052AZ  25265.30892095  .00006827  00000-0  60661-3 0  9998 | 2 63257  97.7112 157.2124 0002361  85.1414 275.0077 14.96442971 28644 | 2025/09/22-07:24:50  315.2653    0.1221  274.9807   96.2282     6956.0345     6954.3922     6957.6768 -90.084547  37.845118  -0.000110  -0.000209
1 63257U 25052AZ  25266.98057181  .00009495  00000-0  84066-3 0  9991 | 2 63257  97.7109 158.8597 0002519  83.7634 276.3875 14.96473084 28890 | 2025/09/23-23:32:01  197.0582    0.1222  276.3588   96.2263     6955.9412     6954.1890     6957.6934 -91.134966  35.239722  -0.000116  -0.000224
1 63257U 25052AZ  25268.25100411  .00008753  00000-0  77508-3 0  9997 | 2 63257  97.7108 160.1120 0002600  82.6771 277.4746 14.96494817 29086 | 2025/09/25-06:01:26  294.4129    0.1222  277.4451   96.2249     6955.8738     6954.0653     6957.6824 -91.883269  33.239515  -0.000119  -0.000231
1 63257U 25052AZ  25269.25396341  .00008837  00000-0  78210-3 0  9991 | 2 63257  97.7109 161.1004 0002626  81.2353 278.9166 14.96512577 29231 | 2025/09/26-06:05:42  295.4782    0.1222  278.8869   96.2237     6955.8188     6953.9922     6957.6454 -92.443073  31.649617  -0.000122  -0.000233
1 63257U 25052AZ  25270.25691167  .00008228  00000-0  72824-3 0  9996 | 2 63257  97.7110 162.0889 0002629  80.0330 280.1188 14.96528451 29382 | 2025/09/27-06:09:57  296.5397    0.1221  280.0891   96.2227     6955.7696     6953.9409     6957.5983 -92.975421  30.050135  -0.000123  -0.000232
1 63257U 25052AZ  25271.25984881  .00008914  00000-0  78815-3 0  9993 | 2 63257  97.7111 163.0775 0002627  78.6433 281.5084 14.96546006 29536 | 2025/09/28-06:14:10  297.5972    0.1222  281.4789   96.2216     6955.7152     6953.8880     6957.5425 -93.480146  28.441543  -0.000124  -0.000231
1 63257U 25052AZ  25272.26277419  .00008639  00000-0  76370-3 0  9995 | 2 63257  97.7112 164.0662 0002638  76.1082 284.0433 14.96563302 29688 | 2025/09/29-06:18:23  298.6503    0.1222  284.0140   96.2205     6955.6616     6953.8267     6957.4965 -93.957090  26.824316  -0.000131  -0.000229
1 63257U 25052AZ  25278.48055436  .00005428  00000-0  48034-3 0  9997 | 2 63257  97.7102 170.1959 0002073  66.0549 294.0890 14.96691996 30617 | 2025/10/05-11:31:59   17.0576    0.1222  294.0673   96.2122     6955.2629     6953.8211     6956.7047 -96.283212  16.638094  -0.000115  -0.000172
1 63257U 25052AZ  25279.48346035  .00004595  00000-0  40919-3 0  9994 | 2 63257  97.7100 171.1841 0001971  64.3741 295.7684 14.96523538 30768 | 2025/10/06-11:36:10   18.1055    0.1222  295.7481   96.2230     6955.7848     6954.4139     6957.1558 -96.555643  14.975042  -0.000111  -0.000163
1 63257U 25052AZ  25280.68703162  .00006033  00000-0  53617-3 0  9994 | 2 63257  97.7093 172.3701 0001874  63.6778 296.4635 14.96478319 30941 | 2025/10/07-16:29:19   91.3926    0.1221  296.4443   96.2259     6955.9250     6954.6214     6957.2285 -96.844220  12.973220  -0.000105  -0.000155
1 63257U 25052AZ  25281.69000247  .00006956  00000-0  61717-3 0  9994 | 2 63257  97.7088 173.3584 0001795  63.7910 296.3496 14.96492786 31091 | 2025/10/08-16:33:36   92.4631    0.1222  296.3312   96.2250     6955.8801     6954.6316     6957.1287 -97.053081  11.300840  -0.000097  -0.000151
1 63257U 25052AZ  25282.69296524  .00005492  00000-0  48826-3 0  9990 | 2 63257  97.7084 174.3466 0001762  64.9817 295.1588 14.96503172 31248 | 2025/10/09-16:37:52   93.5302    0.1222  295.1405   96.2243     6955.8480     6954.6223     6957.0736 -97.233148   9.625295  -0.000090  -0.000152
1 63257U 25052AZ  25283.82964796  .00005310  00000-0  47210-3 0  9994 | 2 63257  97.7080 175.4667 0001762  65.7820 294.3585 14.96515565 31418 | 2025/10/10-19:54:41  142.7362    0.1221  294.3401   96.2235     6955.8095     6954.5839     6957.0352 -97.402327   7.722692  -0.000085  -0.000154
1 63257U 25052AZ  25284.96632100  .00006287  00000-0  55778-3 0  9993 | 2 63257  97.7078 176.5868 0001788  66.9803 293.1607 14.96529992 31581 | 2025/10/11-23:11:30  191.9383    0.1222  293.1419   96.2226     6955.7648     6954.5212     6957.0085 -97.534480   5.817166  -0.000080  -0.000160
1 63257U 25052AZ  25286.30356711  .00008267  00000-0  73126-3 0  9991 | 2 63257  97.7077 177.9046 0001851  69.4623 290.6797 14.96552006 31788 | 2025/10/13-07:17:08  313.3461    0.1222  290.6599   96.2212     6955.6966     6954.4091     6956.9841 -97.642366   3.572533  -0.000071  -0.000171
1 63257U 25052AZ  25287.30649030  .00006654  00000-0  58952-3 0  9999 | 2 63257  97.7078 178.8929 0001912  70.9239 289.2190 14.96564478 31931 | 2025/10/14-07:21:20  314.3978    0.1222  289.1983   96.2204     6955.6580     6954.3281     6956.9879 -97.689560   1.887845  -0.000066  -0.000179
1 63257U 25052AZ  25288.64370924  .00006581  00000-0  58291-3 0  9995 | 2 63257  97.7081 180.2108 0001992  71.4986 288.6452 14.96580627 32135 | 2025/10/15-15:26:56   75.7959    0.1222  288.6236   96.2193     6955.6080     6954.2224     6956.9935 -97.707439  -0.359482  -0.000063  -0.000189
1 63257U 25052AZ  25289.91405456  .00009132  00000-0  80620-3 0  9991 | 2 63257  97.7086 181.4626 0002058  71.8786 288.2660 14.96599600 32323 | 2025/10/16-21:56:14  173.1197    0.1222  288.2436   96.2181     6955.5492     6954.1177     6956.9806 -97.676766  -2.493955  -0.000059  -0.000197
1 63257U 25052AZ  25294.25978932  .00008538  00000-0  75234-3 0  9992 | 2 63257  97.7095 185.7453 0002144  69.3073 290.8378 14.96693942 32975 | 2025/10/21-06:14:05  297.5844    0.1221  290.8148   96.2121     6955.2569     6953.7657     6956.7481 -97.218679  -9.781351  -0.000055  -0.000207
1 63257U 25052AZ  25295.26261586  .00007077  00000-0  62435-3 0  9990 | 2 63257  97.7094 186.7338 0002124  67.7442 292.4005 14.96708473 33126 | 2025/10/22-06:18:10  298.6023    0.1222  292.3780   96.2111     6955.2119     6953.7346     6956.6891 -97.035366 -11.457073  -0.000057  -0.000205
1 63257U 25052AZ  25296.66655757  .00006264  00000-0  55302-3 0  9994 | 2 63257  97.7091 188.1178 0002020  65.5085 294.6347 14.96726663 33332 | 2025/10/23-15:59:50   84.0226    0.1222  294.6137   96.2100     6955.1555     6953.7506     6956.5604 -96.730039 -13.797384  -0.000057  -0.000194
1 63257U 25052AZ  25297.66936280  .00006070  00000-0  53587-3 0  9996 | 2 63257  97.7088 189.1062 0001966  63.4659 296.6764 14.96739352 33483 | 2025/10/24-16:03:52   85.0334    0.1222  296.6563   96.2091     6955.1162     6953.7488     6956.4836 -96.477345 -15.463875  -0.000059  -0.000188
1 63257U 25052AZ  25298.87271781  .00005640  00000-0  49808-3 0  9991 | 2 63257  97.7083 190.2924 0001851  60.7056 299.4350 14.96753898 33665 | 2025/10/25-20:56:42  158.2427    0.1221  299.4165   96.2082     6955.0711     6953.7837     6956.3585 -96.136051 -17.457709  -0.000060  -0.000175
1 63257U 25052AZ  25299.87550596  .00005385  00000-0  47568-3 0  9993 | 2 63257  97.7078 191.2808 0001729  59.3397 300.7995 14.96764411 33818 | 2025/10/26-21:00:43  159.2479    0.1222  300.7825   96.2075     6955.0386     6953.8360     6956.2411 -95.820111 -19.113358  -0.000057  -0.000163
1 63257U 25052AZ  25300.87828763  .00005559  00000-0  49077-3 0  9990 | 2 63257  97.7075 192.2692 0001629  57.9404 302.1975 14.96774723 33966 | 2025/10/27-21:04:44  160.2506    0.1221  302.1817   96.2069     6955.0066     6953.8737     6956.1396 -95.475856 -20.763345  -0.000055  -0.000153
1 63257U 25052AZ  25302.28216918  .00006563  00000-0  57819-3 0  9999 | 2 63257  97.7072 193.6531 0001469  55.1837 304.9523 14.96791712 34172 | 2025/10/29-06:46:19  305.6497    0.1222  304.9385   96.2058     6954.9540     6953.9323     6955.9757 -94.946254 -23.063081  -0.000053  -0.000137
1 63257U 25052AZ  25303.75272801  .00007285  00000-0  63666-3 0  9994 | 2 63257  97.7068 195.1023 0001289  56.3658 303.7687 14.97065729 34399 | 2025/10/30-18:03:55  115.0526    0.1222  303.7564   96.1882     6954.1053     6953.2089     6955.0017 -94.332219 -25.456849  -0.000041  -0.000122
1 63257U 25052AZ  25308.02943102  .00006275  00000-0  53990-3 0  9995 | 2 63257  97.7088 199.3031 0006271  14.2469 345.8929 14.97716841 35031 | 2025/11/04-00:42:22  214.6749    0.1223  345.8754   96.1463     6952.0897     6947.7300     6956.4493 -92.215911 -32.299154  -0.000523  -0.000347
1 63257U 25052AZ  25309.29874483  .00005285  00000-0  45467-3 0  9990 | 2 63257  97.7069 200.5744 0001103  66.9976 293.1363 14.97806200 35229 | 2025/11/05-07:10:11  311.6136    0.1223  293.1247   96.1406     6951.8132     6951.0464     6952.5800 -91.474826 -34.336489  -0.000005  -0.000110
1 63257U 25052AZ  25310.30082429  .00020640  00000-0  17558-2 0  9996 | 2 63257  97.7066 201.5636 0001138  72.8741 287.2606 14.97845333 35371 | 2025/11/06-07:13:11  312.3599    0.1222  287.2481   96.1381     6951.6921     6950.9010     6952.4832 -90.868131 -35.910477   0.000009  -0.000113
1 63257U 25052AZ  25311.30289522  .00009269  00000-0  79252-3 0  9994 | 2 63257  97.7064 202.5528 0001208  75.9842 284.1514 14.97844376 35521 | 2025/11/07-07:16:10  313.1030    0.1222  284.1380   96.1382     6951.6950     6950.8553     6952.5348 -90.234448 -37.473791   0.000018  -0.000119
1 63257U 25052AZ  25314.77623979  .00011608  00000-0  97899-3 0  9993 | 2 63257  97.7066 205.9812 0001855  74.0522 286.0905 14.98314132 36045 | 2025/11/10-18:37:47  123.4950    0.1223  286.0701   96.1080     6950.2420     6948.9527     6951.5312 -87.832160 -42.802937   0.000032  -0.000183
1 63257U 25052AZ  25316.24546186  .00045022  00000-0  37590-2 0  9999 | 2 63257  97.7062 207.4346 0001711  85.0256 275.1162 14.98376802 36267 | 2025/11/12-05:53:27  292.4106    0.1223  275.0967   96.1040     6950.0482     6948.8590     6951.2373 -86.717899 -45.016748   0.000065  -0.000158
1 63257U 25052AZ  25317.24717623  .00027475  00000-0  23006-2 0  9995 | 2 63257  97.7067 208.4241 0001808  87.3595 272.7835 14.98393168 36416 | 2025/11/13-05:55:56  293.0244    0.1223  272.7628   96.1029     6949.9976     6948.7410     6951.2541 -85.928004 -46.507819   0.000079  -0.000163
1 63257U 25052AZ  25318.44919106  .00008433  00000-0  70938-3 0  9998 | 2 63257  97.7067 209.6120 0001955  89.5444 270.6003 14.98503138 36598 | 2025/11/14-10:46:50    5.7449    0.1223  270.5779   96.0959     6949.6575     6948.2989     6951.0162 -84.945371 -48.279222   0.000095  -0.000171
1 63257U 25052AZ  25321.05263999  .00008951  00000-0  73574-3 0  9995 | 2 63257  97.7078 212.1879 0001788  91.2180 268.9248 14.99381087 36983 | 2025/11/17-01:15:48  222.9786    0.1223  268.9043   96.0396     6946.9444     6945.7023     6948.1865 -82.690666 -52.048707   0.000098  -0.000149
1 63257U 25052AZ  25322.25372056  .00007964  00000-0  64898-3 0  9995 | 2 63257  97.7096 213.3734 0002393  71.4385 288.7098 14.99751623 37167 | 2025/11/18-06:05:21  295.3605    0.1223  288.6838   96.0159     6945.8001     6944.1380     6947.4622 -81.597613 -53.749376   0.000061  -0.000231
1 63257U 25052AZ  25323.25441068  .00007868  00000-0  63499-3 0  9995 | 2 63257  97.7082 214.3757 0011271  37.9212 322.2804 15.00083008 37313 | 2025/11/19-06:06:21  295.5396    0.1225  322.2013   95.9947     6944.7771     6936.9497     6952.6046 -80.643759 -55.167712  -0.000343  -0.001074
1 63257U 25052AZ  25324.25483731  .00006983  00000-0  56017-3 0  9994 | 2 63257  97.7118 215.3574 0002329  73.1751 286.9728 15.00400024 37463 | 2025/11/20-06:06:57  295.7513    0.1224  286.9473   95.9744     6943.7989     6942.1817     6945.4161 -79.689667 -56.543372   0.000074  -0.000221
1 63257U 25052AZ  25325.65510296  .00006967  00000-0  55227-3 0  9990 | 2 63257  97.7092 216.7466 0002199  74.8146 285.3321 15.00858044 37674 | 2025/11/21-15:43:20   79.8391    0.1224  285.3078   95.9451     6942.3861     6940.8595     6943.9127 -78.293338 -58.457172   0.000081  -0.000205
1 63257U 25052AZ  25327.85467054  .00007120  00000-0  55344-3 0  9999 | 2 63257  97.7093 218.9297 0002215  62.9328 297.2122 15.01600480 38009 | 2025/11/23-20:30:43  151.6700    0.1224  297.1896   95.8977     6940.0976     6938.5603     6941.6348 -76.009777 -61.397240   0.000046  -0.000217
1 63257U 25052AZ  25329.65387082  .00010047  00000-0  77986-3 0  9999 | 2 63257  97.7100 220.7176 0002286  69.1684 290.9784 15.01545020 38278 | 2025/11/25-15:41:34   79.3658    0.1223  290.9539   95.9012     6940.2685     6938.6819     6941.8550 -74.057730 -63.739287   0.000078  -0.000215
1 63257U 25052AZ  25337.91950311  .00011865  00000-0  93422-3 0  9990 | 2 63257  97.7134 228.9237 0002427  62.0209 298.1260 15.00955100 39515 | 2025/12/03-22:04:05  174.9342    0.1224  298.1015   95.9389     6942.0868     6940.4020     6943.7717 -64.203907 -73.659805   0.000087  -0.000227
1 63257U 25052AZ  25338.98614661  .00012093  00000-0  95145-3 0  9991 | 2 63257  97.7137 229.9825 0002459  61.7717 298.3755 15.00980880 39678 | 2025/12/04-23:40:03  198.9181    0.1224  298.3507   95.9373     6942.0073     6940.3003     6943.7144 -62.832015 -74.833849   0.000091  -0.000228
1 63257U 25052AZ  25340.25276346  .00010990  00000-0  86458-3 0  9999 | 2 63257  97.7139 231.2402 0002483  60.2137 299.9334 15.01008702 39860 | 2025/12/06-06:03:58  294.8910    0.1224  299.9087   95.9355     6941.9215     6940.1979     6943.6452 -61.174457 -76.195092   0.000091  -0.000231
1 63257U 25052AZ  25341.98599537  .00008389  00000-0  66081-3 0  9999 | 2 63257  97.7139 232.9615 0002506  58.8874 301.2595 15.01038332 40120 | 2025/12/07-23:39:49  198.8418    0.1223  301.2349   95.9336     6941.8302     6940.0906     6943.5698 -58.858117 -77.998258   0.000093  -0.000233
1 63257U 25052AZ  25343.05263541  .00007681  00000-0  60668-3 0  9991 | 2 63257  97.7139 234.0209 0002389  59.4698 300.6761 15.00963897 40289 | 2025/12/09-01:15:47  222.8251    0.1224  300.6526   95.9384     6942.0597     6940.4012     6943.7182 -57.405949 -79.073151   0.000095  -0.000219
1 63257U 25052AZ  25344.71932314  .00009529  00000-0  75278-3 0  9992 | 2 63257  97.7140 235.6762 0002372  63.5994 296.5473 15.00887099 40539 | 2025/12/10-17:15:49  102.8194    0.1224  296.5230   95.9433     6942.2965     6940.6498     6943.9432 -55.097910 -80.698489   0.000116  -0.000207
1 63257U 25052AZ  25346.98610278  .00007218  00000-0  57184-3 0  9994 | 2 63257  97.7154 237.9262 0002162  66.1884 293.9567 15.00868984 40872 | 2025/12/12-23:39:59  198.8459    0.1225  293.9341   95.9444     6942.3524     6940.8514     6943.8533 -51.887967 -82.800593   0.000121  -0.000179
1 63257U 25052AZ  25352.25295632  .00004764  00000-0  37875-3 0  9992 | 2 63257  97.7177 243.1559 0002238  63.4698 296.6755 15.00908150 41669 | 2025/12/18-06:04:15  294.8745    0.1224  296.6526   95.9419     6942.2316     6940.6779     6943.7853 -44.125837 -87.187496   0.000134  -0.000180
1 63257U 25052AZ  25353.25297115  .00004215  00000-0  33563-3 0  9992 | 2 63257  97.7179 244.1491 0002250  63.0133 297.1320 15.00916989 41811 | 2025/12/19-06:04:16  294.8723    0.1224  297.1091   95.9413     6942.2043     6940.6423     6943.7663 -42.608009 -87.939443   0.000136  -0.000179
1 63257U 25052AZ  25354.25297953  .00004064  00000-0  32367-3 0  9996 | 2 63257  97.7180 245.1424 0002268  61.6512 298.4941 15.00926505 41968 | 2025/12/20-06:04:17  294.8677    0.1225  298.4713   95.9407     6942.1750     6940.6005     6943.7495 -41.077175 -88.664949   0.000136  -0.000182
1 63257U 25052AZ  25355.25298247  .00004467  00000-0  35519-3 0  9993 | 2 63257  97.7182 246.1358 0002273  60.4823 299.6627 15.00936370 42118 | 2025/12/21-06:04:17  294.8613    0.1224  299.6401   95.9401     6942.1446     6940.5666     6943.7225 -39.533877 -89.363970   0.000136  -0.000182
1 63257U 25052AZ  25356.38631003  .00005835  00000-0  46228-3 0  9998 | 2 63257  97.7183 247.2616 0002300  59.8457 300.2994 15.00950567 42282 | 2025/12/22-09:16:17  342.8504    0.1223  300.2766   95.9392     6942.1008     6940.5041     6943.6975 -37.770492 -90.123560   0.000139  -0.000183
1 63257U 25052AZ  25359.18636711  .00001815  00000-0  14725-3 0  9991 | 2 63257  97.7188 250.0436 0002128  64.2622 295.8821 15.00900999 42700 | 2025/12/25-04:28:22  270.8496    0.1224  295.8602   95.9424     6942.2536     6940.7763     6943.7310 -33.351912 -91.851041   0.000149  -0.000152
1 63257U 25052AZ  25360.18639103  .00001674  00000-0  13623-3 0  9990 | 2 63257  97.7194 251.0368 0002167  60.5817 299.5623 15.00902143 42850 | 2025/12/26-04:28:24  270.8510    0.1224  299.5407   95.9423     6942.2501     6940.7457     6943.7545 -31.754974 -92.415923   0.000144  -0.000162
1 63257U 25052AZ  25362.45311181  .00000782  00000-0  66139-4 0  9995 | 2 63257  97.7206 253.2886 0002126  64.0579 296.0863 15.00912892 43190 | 2025/12/28-10:52:28    6.8526    0.1223  296.0644   95.9416     6942.2170     6940.7411     6943.6929 -28.099665 -93.593400   0.000156  -0.000144
1 63257U 25052AZ  25364.25313737  .00000794  00000-0  67052-4 0  9992 | 2 63257  97.7210 255.0767 0002144  63.9078 296.2367 15.00908133 43469 | 2025/12/30-06:04:31  294.8476    0.1225  296.2147   95.9419     6942.2316     6940.7432     6943.7201 -25.165675 -94.425011   0.000162  -0.000141
1 63257U 25052AZ  25365.25315373  .00000802  00000-0  67657-4 0  9992 | 2 63257  97.7212 256.0705 0002128  64.4177 295.7266 15.00916879 43617 | 2025/12/31-06:04:32  294.8456    0.1223  295.7046   95.9414     6942.2047     6940.7274     6943.6820 -23.524210 -94.847480   0.000164  -0.000135
1 63257U 25052AZ  26002.25320157  .00000814  00000-0  68676-4 0  9992 | 2 63257  97.7216 258.0581 0001951  68.0291 292.1140 15.00893629 43917 | 2026/01/02-06:04:36  294.8477    0.1224  292.0933   95.9428     6942.2764     6940.9219     6943.6308 -20.220525 -95.606702   0.000162  -0.000109
1 63257U 25052AZ  26003.25322797  .00000817  00000-0  68938-4 0  9999 | 2 63257  97.7235 259.0492 0001390  74.8152 285.3225 15.00896809 44066 | 2026/01/03-06:04:38  294.8572    0.1223  285.3071   95.9426     6942.2666     6941.3016     6943.2315 -18.564142 -95.944020   0.000125  -0.000061
1 63257U 25052AZ  26004.25325051  .00000810  00000-0  68368-4 0  9996 | 2 63257  97.7219 260.0456 0002045  68.8215 291.3227 15.00909877 44217 | 2026/01/04-06:04:40  294.8481    0.1224  291.3009   95.9418     6942.2263     6940.8066     6943.6459 -16.892632 -96.250760   0.000175  -0.000106
1 63257U 25052AZ  26005.25327451  .00000801  00000-0  67669-4 0  9996 | 2 63257  97.7222 261.0392 0002061  68.5640 291.5803 15.00903320 44363 | 2026/01/05-06:04:42  294.8487    0.1223  291.5583   95.9422     6942.2465     6940.8157     6943.6773 -15.221081 -96.529514   0.000178  -0.000104
1 63257U 25052AZ  26006.31997537  .00000797  00000-0  67349-4 0  9991 | 2 63257  97.7230 262.0992 0002102  69.1328 291.0120 15.00890156 44522 | 2026/01/06-07:40:45  318.8519    0.1223  290.9895   95.9431     6942.2871     6940.8278     6943.7463 -13.432845 -96.795369   0.000184  -0.000101
1 63257U 25052AZ  26007.32000047  .00000790  00000-0  66736-4 0  9996 | 2 63257  97.7231 263.0932 0002187  66.4571 293.6882 15.00903472 44676 | 2026/01/07-07:40:48  318.8521    0.1223  293.6652   95.9422     6942.2460     6940.7277     6943.7643 -11.751658 -97.013931   0.000189  -0.000111
1 63257U 25052AZ  26008.32001844  .00000787  00000-0  66552-4 0  9995 | 2 63257  97.7233 264.0867 0002153  67.5441 292.6011 15.00910143 44820 | 2026/01/08-07:40:49  318.8509    0.1224  292.5783   95.9418     6942.2254     6940.7308     6943.7201 -10.067790 -97.203307   0.000189  -0.000102
1 63257U 25052AZ  26009.45338125  .00000780  00000-0  66016-4 0  9993 | 2 63257  97.7237 265.2133 0002062  71.1168 289.0279 15.00885942 44991 | 2026/01/09-10:52:52    6.8525    0.1224  289.0056   95.9433     6942.3001     6940.8686     6943.7316  -8.154703 -97.382865   0.000189  -0.000083
1 63257U 25052AZ  26010.58674749  .00000773  00000-0  65456-4 0  9993 | 2 63257  97.7239 266.3398 0002102  69.3129 290.8320 15.00895750 45164 | 2026/01/10-14:04:54   54.8547    0.1224  290.8095   95.9427     6942.2698     6940.8106     6943.7291  -6.238606 -97.524563   0.000192  -0.000087
1 63257U 25052AZ  26011.65343659  .00000767  00000-0  64984-4 0  9993 | 2 63257  97.7241 267.3999 0002136  68.7668 291.3784 15.00908174 45326 | 2026/01/11-15:40:56   78.8538    0.1224  291.3556   95.9419     6942.2315     6940.7487     6943.7144  -4.433228 -97.623492   0.000195  -0.000086
1 63257U 25052AZ  26013.45348295  .00000761  00000-0  64472-4 0  9990 | 2 63257  97.7247 269.1892 0002112  68.4791 291.6658 15.00895521 45595 | 2026/01/13-10:53:00    6.8557    0.1224  291.6433   95.9427     6942.2705     6940.8043     6943.7367  -1.382869 -97.714915   0.000195  -0.000080
1 63257U 25052AZ  26016.72022481  .00000761  00000-0  64466-4 0  9992 | 2 63257  97.7255 272.4366 0002177  66.2664 293.8788 15.00909889 46089 | 2026/01/16-17:17:07  102.8549    0.1224  293.8560   95.9418     6942.2262     6940.7149     6943.7375   4.154690 -97.637144   0.000203  -0.000079
1 63257U 25052AZ  26017.98690606  .00000772  00000-0  65332-4 0  9996 | 2 63257  97.7255 273.6962 0002217  67.6365 292.5093 15.00921908 46274 | 2026/01/17-23:41:08  198.8484    0.1223  292.4858   95.9410     6942.1892     6940.6501     6943.7282   6.299984 -97.522221   0.000210  -0.000071
1 63257U 25052AZ  26019.12024242  .00000779  00000-0  65825-4 0  9995 | 2 63257  97.7261 274.8228 0002249  63.9610 296.1845 15.00936742 46442 | 2026/01/19-02:53:08  246.8403    0.1224  296.1614   95.9401     6942.1434     6940.5821     6943.7047   8.216261 -97.380099   0.000210  -0.000081
1 63257U 25052AZ  26022.78679241  .00000803  00000-0  67592-4 0  9997 | 2 63257  97.7269 278.4688 0002195  62.8393 297.3054 15.01014407 46997 | 2026/01/22-18:52:58  126.7670    0.1223  297.2830   95.9351     6941.9040     6940.3802     6943.4277  14.392321 -96.661306   0.000208  -0.000070
1 63257U 25052AZ  26023.85342094  .00000806  00000-0  67933-4 0  9991 | 2 63257  97.7271 279.5292 0002200  64.8918 295.2534 15.00968429 47155 | 2026/01/23-20:28:55  150.7437    0.1224  295.2306   95.9381     6942.0457     6940.5185     6943.5730  16.178744 -96.378599   0.000212  -0.000059
1 63257U 25052AZ  26025.52008617  .00000786  00000-0  66427-4 0  9991 | 2 63257  97.7275 281.1861 0002046  68.4046 291.7396 15.00915685 47401 | 2026/01/25-12:28:55   30.7300    0.1224  291.7178   95.9414     6942.2084     6940.7880     6943.6287  18.958780 -95.870897   0.000201  -0.000037
1 63257U 25052AZ  26030.98709656  .00000812  00000-0  68663-4 0  9992 | 2 63257  97.7286 286.6230 0002018  78.1749 281.9701 15.00834542 48224 | 2026/01/30-23:41:25  198.8046    0.1224  281.9475   95.9466     6942.4586     6941.0576     6943.8596  27.957518 -93.644308   0.000201   0.000017
1 63257U 25052AZ  26031.98715671  .00000809  00000-0  68357-4 0  9993 | 2 63257  97.7286 287.6176 0002066  75.4638 284.6814 15.00846040 48371 | 2026/01/31-23:41:30  198.8172    0.1223  284.6585   95.9459     6942.4231     6940.9888     6943.8574  29.578800 -93.144908   0.000206   0.000011
1 63257U 25052AZ  26032.98720933  .00000810  00000-0  68439-4 0  9994 | 2 63257  97.7290 288.6118 0002092  76.1387 284.0069 15.00857234 48521 | 2026/02/01-23:41:34  198.8272    0.1223  283.9836   95.9452     6942.3886     6940.9362     6943.8409  31.190650 -92.618037   0.000208   0.000017
1 63257U 25052AZ  26036.65399130  .00008668  00000-0  68480-3 0  9997 | 2 63257  97.7291 292.2586 0002269  72.1006 288.0466 15.00916427 49078 | 2026/02/05-15:41:44   78.8345    0.1225  288.0219   95.9414     6942.2061     6940.6309     6943.7813  37.018565 -90.446685   0.000226   0.000017
1 63257U 25052AZ  26037.65400724  .00006675  00000-0  52871-3 0  9993 | 2 63257  97.7292 293.2531 0002266  72.2691 287.8780 15.00908925 49225 | 2026/02/06-15:41:46   78.8315    0.1224  287.8533   95.9419     6942.2292     6940.6561     6943.8023  38.582859 -89.790643   0.000226   0.000022
1 63257U 25052AZ  26038.65402144  .00006374  00000-0  50488-3 0  9990 | 2 63257  97.7294 294.2478 0002289  71.2137 288.9335 15.00920928 49378 | 2026/02/07-15:41:47   78.8275    0.1224  288.9087   95.9411     6942.1922     6940.6031     6943.7813  40.135886 -89.107499   0.000228   0.000022
1 63257U 25052AZ  26039.78738520  .00003570  00000-0  28521-3 0  9993 | 2 63257  97.7298 295.3748 0002181  72.8552 287.2910 15.00884990 49541 | 2026/02/08-18:53:50  126.8295    0.1223  287.2671   95.9434     6942.3030     6940.7889     6943.8171  41.880912 -88.301206   0.000216   0.000031
1 63257U 25052AZ  26040.78741791  .00003572  00000-0  28536-3 0  9997 | 2 63257  97.7301 296.3696 0002193  72.0655 288.0808 15.00884719 49698 | 2026/02/09-18:53:52  126.8321    0.1224  288.0569   95.9434     6942.3038     6940.7814     6943.8263  43.407788 -87.561044   0.000217   0.000032
1 63257U 25052AZ  26042.25412408  .00003677  00000-0  29347-3 0  9998 | 2 63257  97.7307 297.8286 0002225  71.1933 288.9532 15.00902314 49910 | 2026/02/11-06:05:56  294.8328    0.1224  288.9291   95.9423     6942.2496     6940.7049     6943.7942  45.623440 -86.427955   0.000220   0.000035
1 63257U 25052AZ  26043.45415529  .00003669  00000-0  29294-3 0  9990 | 2 63257  97.7311 299.0222 0002233  70.2301 289.9164 15.00898298 50095 | 2026/02/12-10:53:59    6.8332    0.1224  289.8923   95.9425     6942.2620     6940.7118     6943.8122  47.414093 -85.459181   0.000220   0.000036
1 63257U 25052AZ  26044.45417677  .00003532  00000-0  28212-3 0  9995 | 2 63257  97.7313 300.0168 0002329  68.9421 291.2052 15.00907200 50245 | 2026/02/13-10:54:00    6.8312    0.1224  291.1803   95.9420     6942.2345     6940.6177     6943.8514  48.890465 -84.623457   0.000230   0.000036
1 63257U 25052AZ  26045.45419660  .00003591  00000-0  28674-3 0  9997 | 2 63257  97.7316 301.0120 0002318  68.1783 291.9687 15.00901102 50390 | 2026/02/14-10:54:02    6.8291    0.1224  291.9441   95.9424     6942.2533     6940.6441     6943.8625  50.353039 -83.761788   0.000229   0.000037
1 63257U 25052AZ  26046.52088995  .00003971  00000-0  31658-3 0  9997 | 2 63257  97.7322 302.0728 0002300  66.7743 293.3723 15.00899490 50554 | 2026/02/15-12:30:04   30.8297    0.1224  293.3481   95.9425     6942.2583     6940.6616     6943.8550  51.895443 -82.815735   0.000227   0.000035
1 63257U 25052AZ  26047.58757903  .00003387  00000-0  27072-3 0  9992 | 2 63257  97.7322 303.1345 0002264  67.4172 292.7291 15.00908737 50710 | 2026/02/16-14:06:06   54.8277    0.1224  292.7052   95.9419     6942.2298     6940.6581     6943.8015  53.421035 -81.839941   0.000223   0.000041
1 63257U 25052AZ  26048.78760681  .00002600  00000-0  20900-3 0  9992 | 2 63257  97.7323 304.3285 0002235  67.4329 292.7131 15.00891279 50893 | 2026/02/17-18:54:09  126.8268    0.1224  292.6895   95.9430     6942.2836     6940.7320     6943.8352  55.114850 -80.709081   0.000219   0.000046
1 63257U 25052AZ  26049.92097730  .00002551  00000-0  20519-3 0  9998 | 2 63257  97.7324 305.4560 0002175  67.5348 292.6106 15.00883494 51068 | 2026/02/18-22:06:12  174.8304    0.1224  292.5876   95.9435     6942.3076     6940.7977     6943.8176  56.692375 -79.609024   0.000212   0.000049
1 63257U 25052AZ  26050.92100720  .00002516  00000-0  20239-3 0  9994 | 2 63257  97.7324 306.4512 0002216  65.9952 294.1504 15.00893458 51212 | 2026/02/19-22:06:15  174.8315    0.1224  294.1272   95.9429     6942.2769     6940.7385     6943.8153  58.066524 -78.612345   0.000216   0.000048
1 63257U 25052AZ  26052.12103477  .00002522  00000-0  20284-3 0  9997 | 2 63257  97.7327 307.6450 0002225  65.2057 294.9398 15.00904323 51390 | 2026/02/21-02:54:17  246.8305    0.1224  294.9167   95.9422     6942.2434     6940.6987     6943.7880  59.691931 -77.385748   0.000217   0.000049
1 63257U 25052AZ  26053.12105518  .00002392  00000-0  19266-3 0  9999 | 2 63257  97.7327 308.6401 0002250  65.1085 295.0373 15.00901679 51548 | 2026/02/22-02:54:19  246.8281    0.1224  295.0139   95.9423     6942.2515     6940.6895     6943.8135  61.026879 -76.337413   0.000219   0.000053
1 63257U 25052AZ  26054.52107667  .00002949  00000-0  23627-3 0  9995 | 2 63257  97.7325 310.0329 0002303  64.1589 295.9872 15.00917345 51752 | 2026/02/23-12:30:21   30.8227    0.1224  295.9635   95.9413     6942.2032     6940.6044     6943.8020  62.864220 -74.831353   0.000223   0.000056
1 63257U 25052AZ  26055.58775647  .00002763  00000-0  22164-3 0  9990 | 2 63257  97.7328 311.0940 0002308  64.3381 295.8081 15.00919928 51910 | 2026/02/24-14:06:22   54.8176    0.1224  295.7843   95.9412     6942.1953     6940.5930     6943.7975  64.239411 -73.654588   0.000222   0.000061
1 63257U 25052AZ  26056.58778753  .00002571  00000-0  20677-3 0  9996 | 2 63257  97.7332 312.0893 0002181  65.5344 294.6107 15.00883420 52064 | 2026/02/25-14:06:24   54.8202    0.1224  294.5880   95.9435     6942.3078     6940.7937     6943.8220  65.509395 -72.527908   0.000208   0.000066
1 63257U 25052AZ  26057.58781695  .00003105  00000-0  24861-3 0  9999 | 2 63257  97.7337 313.0842 0002215  63.7362 296.4089 15.00896202 52210 | 2026/02/26-14:06:27   54.8216    0.1224  296.3862   95.9427     6942.2684     6940.7307     6943.8061  66.759193 -71.379873   0.000212   0.000064
1 63257U 25052AZ  26058.65451308  .00002855  00000-0  22906-3 0  9992 | 2 63257  97.7341 314.1454 0002186  65.5352 294.6100 15.00893796 52378 | 2026/02/27-15:42:29   78.8223    0.1224  294.5872   95.9428     6942.2759     6940.7583     6943.7934  68.070003 -70.131512   0.000206   0.000074
1 63257U 25052AZ  26059.78788022  .00003002  00000-0  24053-3 0  9993 | 2 63257  97.7346 315.2734 0002176  63.5803 296.5644 15.00895037 52547 | 2026/02/28-18:54:32  126.8241    0.1224  296.5421   95.9428     6942.2720     6940.7614     6943.7827  69.437779 -68.778244   0.000206   0.000070
1 63257U 25052AZ  26060.78790105  .00003215  00000-0  25723-3 0  9991 | 2 63257  97.7349 316.2686 0002144  63.1564 296.9879 15.00906887 52698 | 2026/03/01-18:54:34  126.8224    0.1224  296.9660   95.9420     6942.2355     6940.7471     6943.7239  70.622106 -67.562037   0.000202   0.000071
1 63257U 25052AZ  26061.78792771  .00003300  00000-0  26393-3 0  9992 | 2 63257  97.7349 317.2639 0002173  63.3069 296.8377 15.00897769 52848 | 2026/03/02-18:54:36  126.8221    0.1224  296.8155   95.9426     6942.2636     6940.7550     6943.7722  71.785030 -66.325110   0.000203   0.000076
