# SPACE DATA - HISTORICAL TLEs
# ----------------------------
# NORAD_ID    : 63253
# OBJECT_NAME : ICEYE-X48
# --------------------------------------------------------------------+-----------------------------------------------------------------------+----------------------------------------------------------------------------------------------------------------------------------------
#                  LINE 1                                             |                 LINE 2                                                |      DERIVED PARAMETERS
# --------------------------------------------------------------------+-----------------------------------------------------------------------+----------------------------------------------------------------------------------------------------------------------------------------
# NORAD  COSPAR     TLE_EPOCH      MEANMOT1 MEANMOT2   BSTAR  #  REV  |   NORAD    INC     RAAN     ECC    ARGPER  MEANANOM   MEANMOT     REV |  CAL_DATE              LONG     ARGLAT     PERIOD        SMA         PERIGEE        APOGEE      INC_X      INC_Y      ECC_X      ECC_Y
# ------ ------   -------------- ----------  -------  ------- -- ----     -----  ------- -------- ------- -------- -------- -----------  ----   ------------------- ---------  --------  --------  ------------  ------------   ----------- ---------- ----------  ---------  ---------   
1 63253U 25052AV  25087.46787147  .00006516  00000-0  65037-3 0  9991 | 2 63253  97.7371 342.3814 0000504 271.5346  88.5816 14.91851993  2094 | 2025/03/28-11:13:44   12.0628    0.1220   88.5874   96.5243     6970.2980     6969.9467     6970.6494  93.152493 -29.582998  -0.000014  -0.000048
1 63253U 25052AV  25088.94345012  .00005017  00000-0  50195-3 0  9990 | 2 63253  97.7363 343.8298 0000625 255.3170 104.7980 14.91869166  2315 | 2025/03/29-22:38:34  183.2783    0.1219  104.8049   96.5232     6970.2446     6969.8089     6970.6802  93.869721 -27.218740  -0.000032  -0.000054
1 63253U 25052AV  25090.15073119  .00004619  00000-0  46242-3 0  9997 | 2 63253  97.7354 345.0145 0000722 241.3903 118.7243 14.91880958  2495 | 2025/03/31-03:37:03  257.9052    0.1219  118.7316   96.5224     6970.2078     6969.7046     6970.7111  94.411546 -25.271891  -0.000050  -0.000052
1 63253U 25052AV  25091.62628439  .00005240  00000-0  52362-3 0  9992 | 2 63253  97.7346 346.4625 0000852 226.0935 134.0214 14.91896298  2711 | 2025/04/01-15:01:50   69.1104    0.1219  134.0284   96.5215     6970.1600     6969.5662     6970.7539  95.019232 -22.877884  -0.000072  -0.000046
1 63253U 25052AV  25092.76647372  .00006402  00000-0  63820-3 0  9997 | 2 63253  97.7343 347.5811 0000933 214.1681 145.9478 14.91910872  2889 | 2025/04/02-18:23:43  119.5828    0.1219  145.9538   96.5205     6970.1147     6969.4643     6970.7650  95.447453 -21.018493  -0.000087  -0.000035
1 63253U 25052AV  25093.90665141  .00006569  00000-0  65442-3 0  9994 | 2 63253  97.7341 348.6999 0001020 201.9595 158.1581 14.91926042  3059 | 2025/04/03-21:45:34  170.0501    0.1219  158.1624   96.5195     6970.0674     6969.3565     6970.7784  95.839458 -19.150787  -0.000100  -0.000019
1 63253U 25052AV  25095.18095173  .00008637  00000-0  85800-3 0  9996 | 2 63253  97.7344 349.9502 0001141 188.1564 171.9637 14.91948413  3244 | 2025/04/05-04:20:34  268.8014    0.1219  171.9655   96.5181     6969.9977     6969.2025     6970.7930  96.234807 -17.055052  -0.000114   0.000004
1 63253U 25052AV  25096.18696581  .00008260  00000-0  82047-3 0  9999 | 2 63253  97.7346 350.9375 0001232 181.7313 178.3902 14.91964310  3394 | 2025/04/06-04:29:13  270.9693    0.1219  178.3906   96.5171     6969.9482     6969.0895     6970.8069  96.514590 -15.394350  -0.000122   0.000016
1 63253U 25052AV  25097.19296904  .00007238  00000-0  71950-3 0  9991 | 2 63253  97.7349 351.9248 0001310 178.5081 181.6142 14.91978276  3546 | 2025/04/07-04:37:52  273.1340    0.1219  181.6138   96.5162     6969.9047     6968.9917     6970.8178  96.765815 -13.729085  -0.000129   0.000022
1 63253U 25052AV  25098.19896355  .00005946  00000-0  59195-3 0  9999 | 2 63253  97.7351 352.9122 0001384 176.0379 184.0851 14.91990113  3699 | 2025/04/08-04:46:30  275.2954    0.1219  184.0840   96.5154     6969.8679     6968.9032     6970.8325  96.988231 -12.059551  -0.000136   0.000027
1 63253U 25052AV  25099.27201505  .00006278  00000-0  62446-3 0  9998 | 2 63253  97.7351 353.9654 0001486 174.5718 185.5518 14.92004016  3856 | 2025/04/09-06:31:42  301.5978    0.1220  185.5502   96.5145     6969.8246     6968.7888     6970.8603  97.193510 -10.274795  -0.000146   0.000030
1 63253U 25052AV  25100.54625135  .00006135  00000-0  61018-3 0  9996 | 2 63253  97.7349 355.2162 0001623 173.6937 186.4303 14.92019514  4041 | 2025/04/10-13:06:36   40.3277    0.1219  186.4282   96.5135     6969.7763     6968.6451     6970.9075  97.394438  -8.150708  -0.000159   0.000031
1 63253U 25052AV  25101.88753948  .00005591  00000-0  55637-3 0  9993 | 2 63253  97.7345 356.5328 0001760 171.8672 188.2576 14.92033998  4249 | 2025/04/11-21:18:03  163.1960    0.1219  188.2547   96.5125     6969.7312     6968.5045     6970.9579  97.555605  -5.910702  -0.000172   0.000035
1 63253U 25052AV  25102.89349646  .00006357  00000-0  63155-3 0  9996 | 2 63253  97.7341 357.5201 0001883 168.8646 191.2615 14.92046933  4396 | 2025/04/12-21:26:38  165.3434    0.1219  191.2573   96.5117     6969.6909     6968.3785     6971.0033  97.642568  -4.228848  -0.000183   0.000044
1 63253U 25052AV  25104.16769689  .00005802  00000-0  57672-3 0  9992 | 2 63253  97.7336 358.7707 0002062 164.1602 195.9682 14.92061422  4581 | 2025/04/14-04:01:29  264.0586    0.1219  195.9617   96.5108     6969.6458     6968.2086     6971.0829  97.711106  -2.096746  -0.000197   0.000061
1 63253U 25052AV  25105.17363597  .00005904  00000-0  58657-3 0  9999 | 2 63253  97.7333 359.7579 0002192 160.0846 200.0459 14.92073258  4732 | 2025/04/15-04:10:02  266.1989    0.1219  200.0373   96.5100     6969.6089     6968.0812     6971.1367  97.732428  -0.412965  -0.000206   0.000076
1 63253U 25052AV  25106.44781450  .00007437  00000-0  73699-3 0  9998 | 2 63253  97.7331   1.0084 0002347 155.1756 204.9577 14.92090381  4926 | 2025/04/16-10:44:51    4.9057    0.1220  204.9464   96.5089     6969.5556     6967.9199     6971.1914  97.717964   1.720004  -0.000215   0.000095
1 63253U 25052AV  25107.58785661  .00006620  00000-0  65652-3 0  9995 | 2 63253  97.7330   2.1273 0002474 150.5560 209.5798 14.92103758  5098 | 2025/04/17-14:06:30   55.3232    0.1218  209.5658   96.5080     6969.5140     6967.7897     6971.2382  97.665644   3.627835  -0.000220   0.000114
1 63253U 25052AV  25108.66082679  .00005291  00000-0  52579-3 0  9991 | 2 63253  97.7329   3.1803 0002546 148.4069 211.7303 14.92115698  5257 | 2025/04/18-15:51:35   81.5956    0.1219  211.7150   96.5073     6969.4768     6967.7023     6971.2512  97.582381   5.422046  -0.000224   0.000121
1 63253U 25052AV  25110.20320667  .00004999  00000-0  49682-3 0  9991 | 2 63253  97.7326   4.6933 0002644 145.9912 214.1477 14.92132556  5488 | 2025/04/20-04:52:37  276.8579    0.1219  214.1307   96.5062     6969.4243     6967.5816     6971.2670  97.404899   7.996673  -0.000231   0.000129
1 63253U 25052AV  25111.20909856  .00004289  00000-0  42696-3 0  9995 | 2 63253  97.7326   5.6805 0002704 145.0902 215.0495 14.92141021  5638 | 2025/04/21-05:01:06  278.9825    0.1219  215.0317   96.5056     6969.3979     6967.5134     6971.2824  97.252666   9.673679  -0.000236   0.000132
1 63253U 25052AV  25112.21498286  .00005180  00000-0  51439-3 0  9993 | 2 63253  97.7327   6.6673 0002811 143.7868 216.3542 14.92153115  5788 | 2025/04/22-05:09:34  281.1042    0.1219  216.3351   96.5048     6969.3603     6967.4012     6971.3193  97.071741  11.347147  -0.000245   0.000139
1 63253U 25052AV  25113.69026805  .00004677  00000-0  46476-3 0  9995 | 2 63253  97.7324   8.1160 0002912 141.7300 218.4126 14.92167028  6009 | 2025/04/23-16:33:59   92.2106    0.1219  218.3919   96.5039     6969.3169     6967.2875     6971.3464  96.753539  13.797635  -0.000252   0.000146
1 63253U 25052AV  25114.69613567  .00005485  00000-0  54397-3 0  9992 | 2 63253  97.7322   9.1037 0003095 140.2853 219.8593 14.92178792  6150 | 2025/04/24-16:42:26   94.3247    0.1219  219.8366   96.5032     6969.2803     6967.1233     6971.4373  96.501125  15.463368  -0.000266   0.000158
1 63253U 25052AV  25115.97022324  .00005857  00000-0  58023-3 0  9992 | 2 63253  97.7325  10.3537 0003139 136.5213 223.6254 14.92193956  6346 | 2025/04/25-23:17:07  192.9999    0.1219  223.6006   96.5022     6969.2331     6967.0455     6971.4207  96.141124  17.564903  -0.000263   0.000172
1 63253U 25052AV  25117.17724025  .00006367  00000-0  62995-3 0  9993 | 2 63253  97.7323  11.5385 0003280 133.3376 226.8117 14.92210589  6525 | 2025/04/27-04:15:13  267.5283    0.1219  226.7843   96.5011     6969.1813     6966.8954     6971.4672  95.757181  19.549035  -0.000268   0.000189
1 63253U 25052AV  25118.18307732  .00007014  00000-0  69309-3 0  9993 | 2 63253  97.7322  12.5257 0003392 130.4472 229.7043 14.92225600  6678 | 2025/04/28-04:23:37  269.6317    0.1219  229.6747   96.5002     6969.1346     6966.7706     6971.4985  95.406059  21.195916  -0.000271   0.000204
1 63253U 25052AV  25121.13348244  .00005176  00000-0  51257-3 0  9995 | 2 63253  97.7321  15.4218 0003645 122.7339 237.4232 14.92260268  7118 | 2025/05/01-03:12:12  251.7839    0.1219  237.3880   96.4979     6969.0266     6966.4864     6971.5668  94.213187  25.989205  -0.000272   0.000243
1 63253U 25052AV  25122.13929061  .00005029  00000-0  49808-3 0  9994 | 2 63253  97.7315  16.4089 0003659 120.5216 239.6364 14.92268706  7264 | 2025/05/02-03:20:34  253.8782    0.1218  239.6002   96.4974     6969.0004     6966.4504     6971.5503  93.750906  27.608217  -0.000267   0.000250
1 63253U 25052AV  25123.14508872  .00005188  00000-0  51350-3 0  9990 | 2 63253  97.7308  17.3952 0003616 120.7454 239.4122 14.92280444  7414 | 2025/05/03-03:28:55  255.9710    0.1219  239.3765   96.4966     6968.9638     6966.4438     6971.4838  93.261119  29.217683  -0.000269   0.000241
1 63253U 25052AV  25124.15087975  .00004388  00000-0  43512-3 0  9990 | 2 63253  97.7304  18.3823 0003603 118.4943 241.6639 14.92290392  7568 | 2025/05/04-03:37:16  258.0594    0.1219  241.6276   96.4960     6968.9328     6966.4219     6971.4438  92.743558  30.819857  -0.000263   0.000246
1 63253U 25052AV  25125.15666471  .00004102  00000-0  40697-3 0  9990 | 2 63253  97.7302  19.3694 0003644 116.8505 243.3087 14.92299510  7718 | 2025/05/05-03:45:35  260.1453    0.1219  243.2714   96.4954     6968.9045     6966.3650     6971.4439  92.198663  32.412938  -0.000263   0.000252
1 63253U 25052AV  25126.22949561  .00004393  00000-0  43534-3 0  9998 | 2 63253  97.7307  20.4223 0003696 115.2996 244.8607 14.92309244  7875 | 2025/05/06-05:30:28  286.3678    0.1220  244.8224   96.4947     6968.8742     6966.2985     6971.4498  91.587959  34.101840  -0.000265   0.000258
1 63253U 25052AV  25127.23526637  .00004120  00000-0  40850-3 0  9991 | 2 63253  97.7328  21.4102 0003761 112.8100 247.3516 14.92322652  8021 | 2025/05/07-05:38:47  288.4474    0.1218  247.3118   96.4939     6968.8324     6966.2114     6971.4534  90.988342  35.676628  -0.000262   0.000270
1 63253U 25052AV  25128.71037602  .00004304  00000-0  42623-3 0  9998 | 2 63253  97.7312  22.8576 0003935 110.5793 249.5848 14.92344548  8244 | 2025/05/08-17:02:56   99.4909    0.1218  249.5425   96.4925     6968.7642     6966.0220     6971.5065  90.056673  37.962917  -0.000271   0.000286
1 63253U 25052AV  25129.71612679  .00003785  00000-0  37545-3 0  9991 | 2 63253  97.7315  23.8450 0004013 108.0515 252.1141 14.92350726  8398 | 2025/05/09-17:11:13  101.5636    0.1218  252.0703   96.4921     6968.7450     6965.9485     6971.5416  89.389378  39.509306  -0.000268   0.000299
1 63253U 25052AV  25131.25826725  .00003415  00000-0  33927-3 0  9992 | 2 63253  97.7314  25.3588 0004095 104.4750 255.6923 14.92361465  8621 | 2025/05/11-06:11:54  296.7387    0.1218  255.6468   96.4914     6968.7116     6965.8579     6971.5653  88.314344  41.856937  -0.000262   0.000314
1 63253U 25052AV  25132.26400425  .00003518  00000-0  34924-3 0  9991 | 2 63253  97.7312  26.3461 0004130 102.3114 257.8568 14.92369630  8778 | 2025/05/12-06:20:09  298.8071    0.1219  257.8105   96.4908     6968.6862     6965.8081     6971.5642  87.579826  43.372360  -0.000258   0.000323
1 63253U 25052AV  25133.67202032  .00002719  00000-0  27103-3 0  9994 | 2 63253  97.7304  27.7290 0004366 103.4087 256.7619 14.92395419  8988 | 2025/05/13-16:07:42   85.6954    0.1219  256.7132   96.4892     6968.6059     6965.5634     6971.6484  86.506868  45.472990  -0.000287   0.000329
1 63253U 25052AV  25134.67771661  .00002331  00000-0  23264-3 0  9998 | 2 63253  97.7289  28.7112 0005675 110.4411 249.7418 14.92466768  9130 | 2025/05/14-16:15:54   87.7428    0.1219  249.6808   96.4846     6968.3838     6964.4292     6972.3383  85.713354  46.948470  -0.000429   0.000371
1 63253U 25052AV  25136.68891970  .00002517  00000-0  25006-3 0  9999 | 2 63253  97.7295  30.6893 0004185  94.1194 266.0503 14.92582926  9431 | 2025/05/16-16:32:02   91.7934    0.1219  266.0025   96.4771     6968.0222     6965.1061     6970.9384  84.042249  49.879410  -0.000239   0.000344
1 63253U 25052AV  25138.23082302  .00003792  00000-0  37388-3 0  9995 | 2 63253  97.7293  32.2032 0004057  91.1813 268.9871 14.92593445  9667 | 2025/05/18-05:32:23  286.8858    0.1219  268.9406   96.4764     6967.9895     6965.1626     6970.8164  82.694957  52.082244  -0.000223   0.000339
1 63253U 25052AV  25139.43752336  .00003293  00000-0  32541-3 0  9991 | 2 63253  97.7294  33.3878 0004108  89.1873 270.9817 14.92599125  9842 | 2025/05/19-10:30:02    1.3021    0.1219  270.9346   96.4760     6967.9718     6965.1094     6970.8343  81.600634  53.780778  -0.000221   0.000346
1 63253U 25052AV  25140.44310277  .00003071  00000-0  30375-3 0  9995 | 2 63253  97.7296  34.3750 0004156  87.3719 272.7976 14.92604402  9993 | 2025/05/20-10:38:04    3.3141    0.1219  272.7500   96.4757     6967.9554     6965.0595     6970.8513  80.662096  55.178809  -0.000219   0.000353
1 63253U 25052AV  25141.58275330  .00002913  00000-0  28836-3 0  9994 | 2 63253  97.7299  35.4940 0004205  85.2407 274.9292 14.92611271 10163 | 2025/05/21-13:59:09   53.5922    0.1219  274.8812   96.4752     6967.9340     6965.0040     6970.8640  79.569371  56.743710  -0.000215   0.000361
1 63253U 25052AV  25142.58832347  .00003094  00000-0  30595-3 0  9998 | 2 63253  97.7301  36.4813 0004223  83.0502 277.1197 14.92617856 10310 | 2025/05/22-14:07:11   55.6013    0.1219  277.0717   96.4748     6967.9135     6964.9710     6970.8561  78.579980  58.106447  -0.000208   0.000367
1 63253U 25052AV  25143.66092662  .00002689  00000-0  26659-3 0  9991 | 2 63253  97.7302  37.5345 0004226  80.6335 279.5362 14.92623450 10477 | 2025/05/23-15:51:44   81.7426    0.1219  279.4884   96.4744     6967.8961     6964.9515     6970.8408  77.498743  59.541052  -0.000199   0.000373
1 63253U 25052AV  25144.93463688  .00002306  00000-0  22930-3 0  9996 | 2 63253  97.7302  38.7851 0004168  77.6630 282.5056 14.92630113 10660 | 2025/05/24-22:25:52  180.2842    0.1220  282.4590   96.4740     6967.8754     6964.9712     6970.7796  76.180778  61.218307  -0.000186   0.000373
1 63253U 25052AV  25147.95130069  .00002034  00000-0  20283-3 0  9992 | 2 63253  97.7294  41.7468 0004002  71.8285 288.3369 14.92643302 11113 | 2025/05/27-22:49:52  186.2981    0.1219  288.2934   96.4731     6967.8343     6965.0458     6970.6229  72.915374  65.072143  -0.000160   0.000367
1 63253U 25052AV  25149.15795833  .00002624  00000-0  26006-3 0  9996 | 2 63253  97.7289  42.9315 0003966  69.4052 290.7593 14.92650544 11295 | 2025/05/29-03:47:27  260.7004    0.1220  290.7168   96.4727     6967.8118     6965.0484     6970.5752  71.554026  66.565451  -0.000151   0.000367
1 63253U 25052AV  25150.23053800  .00003188  00000-0  31477-3 0  9992 | 2 63253  97.7284  43.9844 0003941  67.6999 292.4638 14.92657970 11458 | 2025/05/30-05:31:58  286.8341    0.1220  292.4221   96.4722     6967.7887     6965.0427     6970.5347  70.318409  67.868708  -0.000146   0.000366
1 63253U 25052AV  25151.57125617  .00002915  00000-0  28823-3 0  9994 | 2 63253  97.7282  45.3004 0003900  65.3184 294.8441 14.92665059 11653 | 2025/05/31-13:42:36   49.4994    0.1219  294.8035   96.4717     6967.7666     6965.0492     6970.4841  68.741013  69.465633  -0.000137   0.000365
1 63253U 25052AV  25152.71085586  .00008414  00000-0  82060-3 0  9994 | 2 63253  97.7281  46.4189 0003901  63.6563 296.5056 14.92688330 11828 | 2025/06/01-17:03:37   99.7606    0.1219  296.4656   96.4702     6967.6942     6964.9761     6970.4123  67.371859  70.794168  -0.000134   0.000366
1 63253U 25052AV  25154.18562641  .00005291  00000-0  51816-3 0  9994 | 2 63253  97.7284  47.8668 0003923  61.4715 298.6899 14.92692399 12040 | 2025/06/03-04:27:18  270.6842    0.1220  298.6505   96.4700     6967.6816     6964.9481     6970.4150  65.561727  72.474134  -0.000130   0.000370
1 63253U 25052AV  25155.19114180  .00003224  00000-0  31792-3 0  9992 | 2 63253  97.7288  48.8541 0003907  59.4004 300.7600 14.92697528 12195 | 2025/06/04-04:35:14  272.6745    0.1219  300.7215   96.4696     6967.6656     6964.9433     6970.3879  64.303471  73.593356  -0.000122   0.000371
1 63253U 25052AV  25156.46478706  .00002442  00000-0  24211-3 0  9999 | 2 63253  97.7290  50.1047 0003819  55.8872 304.2709 14.92706065 12387 | 2025/06/05-11:09:17   11.1939    0.1219  304.2347   96.4691     6967.6390     6964.9781     6970.3000  62.682081  74.979425  -0.000105   0.000367
1 63253U 25052AV  25157.67139366  .00001936  00000-0  19301-3 0  9990 | 2 63253  97.7290  51.2895 0003703  52.1825 307.9729 14.92711072 12566 | 2025/06/06-16:06:48   85.5794    0.1219  307.9394   96.4688     6967.6234     6965.0433     6970.2036  61.118316  76.259484  -0.000086   0.000360
1 63253U 25052AV  25158.67689643  .00001730  00000-0  17308-3 0  9996 | 2 63253  97.7289  52.2768 0003612  49.5488 310.6045 14.92715193 12715 | 2025/06/07-16:14:43   87.5663    0.1219  310.5731   96.4685     6967.6106     6965.0939     6970.1273  59.795170  77.301200  -0.000074   0.000354
1 63253U 25052AV  25160.41976204  .00001884  00000-0  18794-3 0  9993 | 2 63253  97.7285  53.9880 0003465  46.3600 313.7907 14.92722325 12975 | 2025/06/09-10:04:27  355.0072    0.1220  313.7620   96.4680     6967.5884     6965.1742     6970.0027  57.459929  79.051985  -0.000062   0.000341
1 63253U 25052AV  25161.69339040  .00001674  00000-0  16756-3 0  9998 | 2 63253  97.7281  55.2385 0003370  44.0222 316.1265 14.92726242 13164 | 2025/06/10-16:38:28   93.5202    0.1219  316.0997   96.4678     6967.5762     6965.2282     6969.9243  55.720816  80.286812  -0.000054   0.000333
1 63253U 25052AV  25162.76591614  .00001797  00000-0  17947-3 0  9993 | 2 63253  97.7278  56.2913 0003278  42.0435 318.1035 14.92730638 13328 | 2025/06/11-18:22:55  119.6355    0.1219  318.0784   96.4675     6967.5626     6965.2786     6969.8465  54.236070  81.296812  -0.000048   0.000324
1 63253U 25052AV  25164.17359785  .00004662  00000-0  45665-3 0  9993 | 2 63253  97.7274  57.6731 0003200  39.9214 320.2240 14.92746902 13538 | 2025/06/13-04:09:58  266.4082    0.1219  320.2005   96.4665     6967.5120     6965.2823     6969.7416  52.259643  82.580715  -0.000042   0.000317
1 63253U 25052AV  25165.17908227  .00003411  00000-0  33564-3 0  9991 | 2 63253  97.7273  58.6601 0003163  38.8987 321.2460 14.92748115 13686 | 2025/06/14-04:17:52  268.3874    0.1220  321.2233   96.4664     6967.5082     6965.3044     6969.7120  50.829339  83.468578  -0.000042   0.000314
1 63253U 25052AV  25166.45268651  .00003008  00000-0  29658-3 0  9994 | 2 63253  97.7271  59.9102 0003105  36.5596 323.5835 14.92755618 13879 | 2025/06/15-10:51:52    6.8917    0.1220  323.5624   96.4659     6967.4848     6965.3214     6969.6482  48.996138  84.557463  -0.000035   0.000309
1 63253U 25052AV  25168.12847024  .00002503  00000-0  24759-3 0  9993 | 2 63253  97.7270  61.5554 0003005  32.0744 328.0658 14.92765765 14129 | 2025/06/17-03:04:59  250.1833    0.1220  328.0476   96.4652     6967.4533     6965.3595     6969.5470  46.548230  85.929208  -0.000019   0.000300
1 63253U 25052AV  25169.20096699  .00002124  00000-0  21090-3 0  9991 | 2 63253  97.7270  62.6083 0002926  29.1105 331.0277 14.92770659 14283 | 2025/06/18-04:49:23  276.2883    0.1220  331.0115   96.4649     6967.4380     6965.3994     6969.4767  44.961375  86.770048  -0.000009   0.000292
1 63253U 25052AV  25170.27346076  .00001749  00000-0  17459-3 0  9993 | 2 63253  97.7271  63.6613 0002821  26.0207 334.1153 14.92774562 14449 | 2025/06/19-06:33:47  302.3924    0.1219  334.1012   96.4647     6967.4259     6965.4604     6969.3914  43.359229  87.581752   0.000002   0.000282
1 63253U 25052AV  25171.94922749  .00001421  00000-0  14291-3 0  9993 | 2 63253  97.7272  65.3065 0002603  21.6075 338.5254 14.92779655 14697 | 2025/06/20-22:46:53  185.6780    0.1220  338.5145   96.4643     6967.4100     6965.5964     6969.2237  40.826906  88.790593   0.000014   0.000260
1 63253U 25052AV  25173.15577671  .00001502  00000-0  15070-3 0  9994 | 2 63253  97.7270  66.4913 0002481  18.2177 341.9131 14.92783310 14873 | 2025/06/22-03:44:19  260.0423    0.1220  341.9043   96.4641     6967.3987     6965.6701     6969.1273  38.982158  89.615612   0.000023   0.000247
1 63253U 25052AV  25174.42935360  .00001687  00000-0  16853-3 0  9992 | 2 63253  97.7268  67.7414 0002406  16.3825 343.7472 14.92788126 15066 | 2025/06/23-10:18:16  358.5363    0.1220  343.7395   96.4638     6967.3837     6965.7073     6969.0600  37.017694  90.444556   0.000025   0.000239
1 63253U 25052AV  25175.43480676  .00001792  00000-0  17873-3 0  9999 | 2 63253  97.7266  68.7285 0002311  13.5630 346.5651 14.92791578 15211 | 2025/06/24-10:26:07    0.5049    0.1219  346.5589   96.4636     6967.3729     6965.7628     6968.9831  35.454013  91.068663   0.000031   0.000229
1 63253U 25052AV  25176.44025691  .00001857  00000-0  18503-3 0  9996 | 2 63253  97.7264  69.7155 0002216  10.4784 349.6481 14.92795092 15362 | 2025/06/25-10:33:58    2.4726    0.1219  349.6435   96.4633     6967.3620     6965.8180     6968.9060  33.879976  91.665678   0.000038   0.000218
1 63253U 25052AV  25177.71382287  .00001981  00000-0  19693-3 0  9993 | 2 63253  97.7262  70.9658 0002098   6.7915 353.3333 14.92800288 15557 | 2025/06/26-17:07:54  100.9630    0.1220  353.3305   96.4630     6967.3458     6965.8841     6968.8076  31.871688  92.382930   0.000044   0.000205
1 63253U 25052AV  25179.18847204  .00001925  00000-0  19155-3 0  9992 | 2 63253  97.7259  72.4133 0001960   3.1684 356.9547 14.92805947 15776 | 2025/06/28-04:31:23  271.8444    0.1219  356.9535   96.4626     6967.3282     6965.9626     6968.6938  29.527746  93.158273   0.000049   0.000190
1 63253U 25052AV  25180.19391121  .00001771  00000-0  17661-3 0  9996 | 2 63253  97.7258  73.4002 0001864   0.5673 359.5548 14.92809376 15920 | 2025/06/29-04:39:13  273.8076    0.1219  359.5546   96.4624     6967.3176     6966.0188     6968.6163  27.918797  93.652938   0.000051   0.000179
1 63253U 25052AV  25181.19934701  .00001759  00000-0  17542-3 0  9998 | 2 63253  97.7256  74.3872 0001777 357.4301   2.6909 14.92813822 16073 | 2025/06/30-04:47:03  275.7696    0.1220    2.6919   96.4621     6967.3037     6966.0656     6968.5418  26.301378  94.119766   0.000055   0.000169
1 63253U 25052AV  25182.47289514  .00001839  00000-0  18315-3 0  9993 | 2 63253  97.7255  75.6373 0001643 353.7776   6.3423 14.92819908 16263 | 2025/07/01-11:20:58   14.2532    0.1220    6.3444   96.4617     6967.2848     6966.1401     6968.4295  24.241717  94.671075   0.000058   0.000154
1 63253U 25052AV  25183.61238219  .00001716  00000-0  17122-3 0  9995 | 2 63253  97.7254  76.7559 0001531 349.3732  10.7455 14.92824092 16432 | 2025/07/02-14:41:49   64.4743    0.1220   10.7488   96.4615     6967.2718     6966.2051     6968.3385  22.388904  95.126183   0.000062   0.000140
1 63253U 25052AV  25184.61780944  .00001662  00000-0  16599-3 0  9990 | 2 63253  97.7255  77.7429 0001444 345.1421  14.9756 14.92827777 16581 | 2025/07/03-14:49:38   66.4331    0.1220   14.9799   96.4612     6967.2603     6966.2542     6968.2664  20.747003  95.497828   0.000066   0.000129
1 63253U 25052AV  25185.62323420  .00001762  00000-0  17565-3 0  9999 | 2 63253  97.7254  78.7299 0001333 341.4019  18.7152 14.92832067 16732 | 2025/07/04-14:57:27   68.3906    0.1220   18.7201   96.4610     6967.2470     6966.3182     6968.1757  19.098903  95.840940   0.000066   0.000116
1 63253U 25052AV  25186.62865726  .00001933  00000-0  19210-3 0  9999 | 2 63253  97.7251  79.7170 0001233 333.4155  26.7001 14.92835432 16886 | 2025/07/05-15:05:15   70.3483    0.1219   26.7064   96.4607     6967.2365     6966.3774     6968.0955  17.444935  96.155444   0.000074   0.000099
1 63253U 25052AV  25187.63407705  .00002104  00000-0  20861-3 0  9995 | 2 63253  97.7250  80.7040 0001134 327.9487  32.1664 14.92839991 17037 | 2025/07/06-15:13:04   72.3039    0.1220   32.1733   96.4604     6967.2223     6966.4322     6968.0124  15.786001  96.441577   0.000075   0.000085
1 63253U 25052AV  25188.63949400  .00002152  00000-0  21324-3 0  9997 | 2 63253  97.7250  81.6909 0001003 323.9111  36.2041 14.92844464 17187 | 2025/07/07-15:20:52   74.2580    0.1220   36.2109   96.4601     6967.2084     6966.5096     6967.9072  14.122568  96.699166   0.000070   0.000072
1 63253U 25052AV  25189.71193526  .00002159  00000-0  21386-3 0  9992 | 2 63253  97.7250  82.7436 0000897 318.6169  41.4982 14.92849286 17345 | 2025/07/08-17:05:11  100.3413    0.1219   41.5050   96.4598     6967.1934     6966.5684     6967.8183  12.343623  96.942306   0.000067   0.000059
1 63253U 25052AV  25190.71734561  .00002109  00000-0  20902-3 0  9992 | 2 63253  97.7249  83.7305 0000789 313.8564  46.2590 14.92853815 17492 | 2025/07/09-17:12:58  102.2928    0.1219   46.2655   96.4595     6967.1793     6966.6296     6967.7290  10.672066  97.140430   0.000063   0.000048
1 63253U 25052AV  25191.72275254  .00001829  00000-0  18199-3 0  9996 | 2 63253  97.7246  84.7172 0000854 303.4199  56.6938 14.92856713 17642 | 2025/07/10-17:20:45  104.2453    0.1219   56.7020   96.4594     6967.1703     6966.5753     6967.7653   8.997667  97.309503   0.000075   0.000040
1 63253U 25052AV  25193.19734425  .00001864  00000-0  18531-3 0  9998 | 2 63253  97.7243  86.1646 0000785 290.8263  69.2872 14.92863656 17860 | 2025/07/12-04:44:10  275.1045    0.1219   69.2956   96.4589     6967.1487     6966.6017     6967.6956   6.536815  97.505430   0.000075   0.000023
1 63253U 25052AV  25194.26977118  .00001767  00000-0  17599-3 0  9990 | 2 63253  97.7241  87.2172 0000762 280.6841  79.4292 14.92867810 18022 | 2025/07/13-06:28:28  301.1828    0.1219   79.4378   96.4586     6967.1357     6966.6048     6967.6666   4.744498  97.608860   0.000075   0.000010
1 63253U 25052AV  25195.27516941  .00001570  00000-0  15694-3 0  9991 | 2 63253  97.7240  88.2041 0000717 269.5125  90.6013 14.92870809 18172 | 2025/07/14-06:36:14  303.1298    0.1220   90.6095   96.4584     6967.1264     6966.6269     6967.6260   3.062595  97.675999   0.000072  -0.000003
1 63253U 25052AV  25196.41461754  .00001563  00000-0  15620-3 0  9990 | 2 63253  97.7239  89.3225 0000701 255.8254 104.2888 14.92875201 18342 | 2025/07/15-09:57:02  353.3354    0.1220  104.2966   96.4582     6967.1127     6966.6244     6967.6011   1.155520  97.717068   0.000068  -0.000018
1 63253U 25052AV  25197.62108918  .00001533  00000-0  15332-3 0  9991 | 2 63253  97.7238  90.5067 0000733 240.6879 119.4267 14.92879359 18526 | 2025/07/16-14:54:22   67.6697    0.1219  119.4340   96.4579     6967.0998     6966.5891     6967.6105  -0.864217  97.719979   0.000064  -0.000035
1 63253U 25052AV  25199.22971310  .00001821  00000-0  18113-3 0  9993 | 2 63253  97.7230  92.0855 0000890 226.4400 133.6746 14.92885364 18765 | 2025/07/18-05:30:47  286.7811    0.1220  133.6820   96.4575     6967.0811     6966.4611     6967.7012  -3.556219  97.658272   0.000067  -0.000059
1 63253U 25052AV  25200.23509968  .00001952  00000-0  19373-3 0  9997 | 2 63253  97.7230  93.0723 0000960 217.4495 142.6658 14.92889542 18913 | 2025/07/19-05:38:32  288.7237    0.1220  142.6725   96.4572     6967.0681     6966.3993     6967.7370  -5.237568  97.582543   0.000062  -0.000073
1 63253U 25052AV  25201.44155946  .00002257  00000-0  22310-3 0  9998 | 2 63253  97.7231  94.2565 0001043 207.4975 152.6190 14.92895545 19098 | 2025/07/20-10:35:50    3.0530    0.1220  152.6245   96.4568     6967.0495     6966.3228     6967.7761  -7.253167  97.453557   0.000055  -0.000089
1 63253U 25052AV  25202.44693902  .00002461  00000-0  24272-3 0  9994 | 2 63253  97.7232  95.2433 0001107 199.3678 160.7499 14.92900812 19247 | 2025/07/21-10:43:35    4.9926    0.1219  160.7541   96.4565     6967.0331     6966.2618     6967.8043  -8.930451  97.314289   0.000046  -0.000101
1 63253U 25052AV  25203.45231485  .00002786  00000-0  27405-3 0  9991 | 2 63253  97.7231  96.2301 0001181 193.5738 166.5450 14.92906796 19390 | 2025/07/22-10:51:20    6.9309    0.1219  166.5481   96.4561     6967.0145     6966.1916     6967.8373 -10.605068  97.145956   0.000040  -0.000111
1 63253U 25052AV  25204.45768559  .00003228  00000-0  31661-3 0  9990 | 2 63253  97.7229  97.2168 0001261 188.3830 171.7369 14.92914259 19540 | 2025/07/23-10:59:04    8.8675    0.1220  171.7390   96.4556     6966.9912     6966.1127     6967.8698 -12.276354  96.948730   0.000034  -0.000121
1 63253U 25052AV  25205.59710038  .00002883  00000-0  28334-3 0  9994 | 2 63253  97.7225  98.3351 0001347 184.2604 175.8604 14.92920746 19715 | 2025/07/24-14:19:49   59.0607    0.1219  175.8615   96.4552     6966.9710     6966.0326     6967.9095 -14.166085  96.690274   0.000029  -0.000131
1 63253U 25052AV  25206.60246129  .00002523  00000-0  24852-3 0  9994 | 2 63253  97.7223  99.3215 0001491 181.8680 178.2535 14.92926572 19869 | 2025/07/25-14:27:32   60.9945    0.1220  178.2540   96.4548     6966.9529     6965.9142     6967.9917 -15.828484  96.431878   0.000029  -0.000146
1 63253U 25052AV  25207.94293763  .00002307  00000-0  22774-3 0  9999 | 2 63253  97.7218 100.6370 0001604 177.7407 182.3820 14.92933974 20069 | 2025/07/26-22:37:49  183.5705    0.1219  182.3812   96.4544     6966.9299     6965.8124     6968.0474 -18.038082  96.042583   0.000023  -0.000159
1 63253U 25052AV  25209.21638568  .00001933  00000-0  19166-3 0  9992 | 2 63253  97.7213 101.8868 0001693 175.6896 184.4339 14.92938754 20256 | 2025/07/28-05:11:35  282.0163    0.1220  184.4324   96.4541     6966.9150     6965.7355     6968.0945 -20.128511  95.625810   0.000022  -0.000168
1 63253U 25052AV  25210.28875948  .00002301  00000-0  22705-3 0  9999 | 2 63253  97.7209 102.9391 0001812 173.3015 186.8229 14.92944292 20411 | 2025/07/29-06:55:48  308.0747    0.1219  186.8204   96.4537     6966.8978     6965.6354     6968.1602 -21.881201  95.239631   0.000020  -0.000180
1 63253U 25052AV  25211.42815315  .00002474  00000-0  24368-3 0  9996 | 2 63253  97.7207 104.0572 0001947 169.9969 190.1290 14.92949534 20589 | 2025/07/30-10:16:32  358.2599    0.1220  190.1251   96.4534     6966.8815     6965.5250     6968.2379 -23.735425  94.794329   0.000014  -0.000194
1 63253U 25052AV  25212.50051918  .00002910  00000-0  28565-3 0  9995 | 2 63253  97.7206 105.1097 0002081 165.7637 194.3641 14.92956135 20747 | 2025/07/31-12:00:44   24.3142    0.1219  194.3582   96.4529     6966.8610     6965.4111     6968.3108 -25.472629  94.342254   0.000003  -0.000208
1 63253U 25052AV  25213.63990313  .00003050  00000-0  29906-3 0  9997 | 2 63253  97.7207 106.2278 0002209 161.5961 198.5338 14.92962897 20917 | 2025/08/01-15:21:27   74.4953    0.1219  198.5258   96.4525     6966.8399     6965.3009     6968.3789 -27.308735  93.827332  -0.000008  -0.000221
1 63253U 25052AV  25215.18141394  .00003043  00000-0  29829-3 0  9992 | 2 63253  97.7209 107.7407 0002379 156.0061 204.1270 14.92972226 21149 | 2025/08/03-04:21:14  269.4424    0.1220  204.1159   96.4519     6966.8109     6965.1535     6968.4683 -29.776507  93.073809  -0.000026  -0.000236
1 63253U 25052AV  25216.18674210  .00002939  00000-0  28831-3 0  9996 | 2 63253  97.7209 108.7274 0002478 152.3933 207.7418 14.92977952 21299 | 2025/08/04-04:28:54  271.3628    0.1219  207.7286   96.4515     6966.7931     6965.0667     6968.5195 -31.374852  92.547247  -0.000038  -0.000245
1 63253U 25052AV  25217.19206562  .00002774  00000-0  27232-3 0  9990 | 2 63253  97.7209 109.7140 0002558 149.5967 210.5401 14.92983770 21442 | 2025/08/05-04:36:34  273.2818    0.1219  210.5252   96.4511     6966.7750     6964.9929     6968.5571 -32.963731  91.993297  -0.000047  -0.000251
1 63253U 25052AV  25218.93461786  .00002179  00000-0  21508-3 0  9993 | 2 63253  97.7207 111.4241 0002663 145.9477 214.1913 14.92992081 21707 | 2025/08/06-22:25:50  180.6059    0.1219  214.1742   96.4506     6966.7491     6964.8939     6968.6044 -35.694281  90.968420  -0.000058  -0.000260
1 63253U 25052AV  25219.93993354  .00001615  00000-0  16079-3 0  9996 | 2 63253  97.7204 112.4106 0002703 144.5881 215.5519 14.92994678 21851 | 2025/08/07-22:33:30  182.5229    0.1220  215.5339   96.4504     6966.7410     6964.8579     6968.6242 -37.255064  90.340117  -0.000061  -0.000263
1 63253U 25052AV  25220.94524720  .00001835  00000-0  18191-3 0  9997 | 2 63253  97.7201 113.3970 0002740 143.1908 216.9500 14.92998728 22006 | 2025/08/08-22:41:09  184.4395    0.1219  216.9311   96.4502     6966.7284     6964.8196     6968.6373 -38.804636  89.685106  -0.000064  -0.000267
1 63253U 25052AV  25222.15162167  .00001814  00000-0  17988-3 0  9995 | 2 63253  97.7195 114.5806 0002838 141.1675 218.9748 14.93001871 22186 | 2025/08/10-03:38:20  258.7383    0.1219  218.9544   96.4500     6966.7187     6964.7415     6968.6958 -40.648664  88.863866  -0.000070  -0.000275
1 63253U 25052AV  25223.15693115  .00001694  00000-0  16835-3 0  9994 | 2 63253  97.7196 115.5669 0002968 138.0691 222.0757 14.93005267 22338 | 2025/08/11-03:45:58  260.6518    0.1220  222.0529   96.4498     6966.7081     6964.6404     6968.7758 -42.172328  88.151092  -0.000084  -0.000285
1 63253U 25052AV  25224.16223875  .00001691  00000-0  16807-3 0  9994 | 2 63253  97.7194 116.5534 0003056 135.9468 224.1995 14.93008247 22489 | 2025/08/12-03:53:37  262.5654    0.1219  224.1751   96.4496     6966.6988     6964.5698     6968.8279 -43.683670  87.411773  -0.000092  -0.000291
1 63253U 25052AV  25225.16754431  .00001693  00000-0  16820-3 0  9999 | 2 63253  97.7192 117.5398 0003131 133.9376 226.2102 14.93011181 22637 | 2025/08/13-04:01:15  264.4784    0.1219  226.1843   96.4494     6966.6897     6964.5084     6968.8710 -45.181904  86.646625  -0.000099  -0.000297
1 63253U 25052AV  25226.17284748  .00001802  00000-0  17872-3 0  9990 | 2 63253  97.7191 118.5261 0003189 131.8555 228.2937 14.93014861 22787 | 2025/08/14-04:08:54  266.3907    0.1219  228.2664   96.4491     6966.6783     6964.4566     6968.8999 -46.666639  85.855968  -0.000107  -0.000300
1 63253U 25052AV  25227.17814735  .00001860  00000-0  18421-3 0  9991 | 2 63253  97.7189 119.5125 0003256 129.8049 230.3457 14.93018750 22933 | 2025/08/15-04:16:31  268.3017    0.1219  230.3170   96.4489     6966.6662     6964.3978     6968.9345 -48.137643  85.039701  -0.000115  -0.000305
1 63253U 25052AV  25228.25046416  .00001837  00000-0  18201-3 0  9994 | 2 63253  97.7187 120.5647 0003320 127.4655 232.6867 14.93022672 23097 | 2025/08/16-06:00:40  294.3389    0.1219  232.6564   96.4486     6966.6540     6964.3410     6968.9669 -49.691035  84.141223  -0.000124  -0.000308
1 63253U 25052AV  25229.45681724  .00001780  00000-0  17655-3 0  9993 | 2 63253  97.7184 121.7483 0003405 124.9100 235.2440 14.93026946 23270 | 2025/08/17-10:57:49    8.6296    0.1220  235.2120   96.4484     6966.6407     6964.2685     6969.0128 -51.418317  83.096585  -0.000135  -0.000313
1 63253U 25052AV  25230.59614741  .00001638  00000-0  16280-3 0  9990 | 2 63253  97.7181 122.8661 0003444 122.5266 237.6287 14.93030575 23444 | 2025/08/18-14:18:27   58.7924    0.1220  237.5954   96.4481     6966.6294     6964.2301     6969.0287 -53.029422  82.077448  -0.000143  -0.000313
1 63253U 25052AV  25231.60143615  .00001484  00000-0  14800-3 0  9995 | 2 63253  97.7179 123.8524 0003490 120.3777 239.7788 14.93033599 23598 | 2025/08/19-14:26:04   60.6997    0.1220  239.7443   96.4479     6966.6200     6964.1886     6969.0513 -54.434280  81.152308  -0.000152  -0.000314
1 63253U 25052AV  25232.60672266  .00001324  00000-0  13262-3 0  9999 | 2 63253  97.7177 124.8387 0003542 118.2252 241.9326 14.93036446 23740 | 2025/08/20-14:33:40   62.6061    0.1220  241.8968   96.4477     6966.6111     6964.1435     6969.0787 -55.823003  80.203125  -0.000160  -0.000316
1 63253U 25052AV  25234.48325437  .00001049  00000-0  10621-3 0  9992 | 2 63253  97.7174 126.6798 0003647 114.3419 245.8182 14.93040527 24021 | 2025/08/22-11:35:53   18.1637    0.1220  245.7801   96.4475     6966.5984     6964.0577     6969.1391 -58.370750  78.368015  -0.000177  -0.000319
1 63253U 25052AV  25235.95766863  .00001156  00000-0  11643-3 0  9991 | 2 63253  97.7171 128.1262 0003720 111.1625 248.9992 14.93044669 24245 | 2025/08/23-22:59:02  188.9581    0.1219  248.9594   96.4472     6966.5855     6963.9940     6969.1771 -60.330113  76.869429  -0.000190  -0.000320
1 63253U 25052AV  25237.63313546  .00001414  00000-0  14120-3 0  9994 | 2 63253  97.7168 129.7698 0003777 108.1128 252.0504 14.93049663 24498 | 2025/08/25-15:11:42   72.1325    0.1220  252.0092   96.4469     6966.5700     6963.9387     6969.2013 -62.509892  75.107166  -0.000201  -0.000320
1 63253U 25052AV  25238.97350399  .00001838  00000-0  18196-3 0  9996 | 2 63253  97.7166 131.0846 0003810 105.4242 254.7399 14.93055403 24694 | 2025/08/26-23:21:50  194.6706    0.1220  254.6978   96.4465     6966.5521     6963.8979     6969.2064 -64.216680  73.652915  -0.000210  -0.000318
1 63253U 25052AV  25240.58193861  .00002326  00000-0  22877-3 0  9999 | 2 63253  97.7163 132.6624 0003853 102.1818 257.9834 14.93063596 24930 | 2025/08/28-13:57:59   53.7135    0.1220  257.9402   96.4460     6966.5267     6963.8425     6969.2109 -66.220113  71.856607  -0.000222  -0.000315
1 63253U 25052AV  25241.65422358  .00002411  00000-0  23686-3 0  9998 | 2 63253  97.7161 133.7143 0003864 100.0296 260.1359 14.93068557 25093 | 2025/08/29-15:42:04   79.7408    0.1219  260.0923   96.4457     6966.5112     6963.8194     6969.2031 -67.527965  70.628678  -0.000229  -0.000312
1 63253U 25052AV  25242.65948720  .00003066  00000-0  29976-3 0  9990 | 2 63253  97.7156 134.7006 0004015  98.2429 261.9246 14.93075935 25240 | 2025/08/30-15:49:39   81.6382    0.1220  261.8791   96.4452     6966.4883     6963.6912     6969.2853 -68.733363  69.455477  -0.000242  -0.000320
1 63253U 25052AV  25243.93281291  .00003027  00000-0  29592-3 0  9996 | 2 63253  97.7156 135.9497 0004018  95.5077 264.6601 14.93083918 25435 | 2025/08/31-22:23:15  180.0411    0.1220  264.6143   96.4447     6966.4634     6963.6643     6969.2626 -70.231102  67.940642  -0.000250  -0.000314
1 63253U 25052AV  25245.60823183  .00003087  00000-0  30158-3 0  9990 | 2 63253  97.7154 137.5932 0003955  92.1300 268.0373 14.93094121 25685 | 2025/09/02-14:35:51   63.2003    0.1220  267.9920   96.4440     6966.4317     6963.6765     6969.1869 -72.150639  65.898291  -0.000256  -0.000302
1 63253U 25052AV  25246.94855832  .00002761  00000-0  27028-3 0  9994 | 2 63253  97.7153 138.9077 0003903  89.8249 270.3417 14.93101218 25880 | 2025/09/03-22:45:55  185.7251    0.1219  270.2970   96.4436     6966.4096     6963.6906     6969.1286 -73.643305  64.225723  -0.000257  -0.000293
1 63253U 25052AV  25248.28887856  .00002702  00000-0  26455-3 0  9992 | 2 63253  97.7148 140.2221 0003874  87.5500 272.6163 14.93108705 26087 | 2025/09/05-06:55:59  308.2474    0.1220  272.5720   96.4431     6966.3863     6963.6876     6969.0851 -75.096791  62.519230  -0.000260  -0.000287
1 63253U 25052AV  25249.69620776  .00002925  00000-0  28587-3 0  9999 | 2 63253  97.7145 141.6025 0003864  84.7853 275.3807 14.93117154 26296 | 2025/09/06-16:42:32   94.8929    0.1219  275.3366   96.4425     6966.3601     6963.6683     6969.0519 -76.580863  60.691803  -0.000267  -0.000280
1 63253U 25052AV  25251.23756084  .00002455  00000-0  24077-3 0  9992 | 2 63253  97.7142 143.1143 0003907  82.4172 277.7491 14.93123628 26522 | 2025/09/08-05:42:05  289.7872    0.1219  277.7047   96.4421     6966.3399     6963.6182     6969.0617 -78.155187  58.650078  -0.000274  -0.000279
1 63253U 25052AV  25252.24278712  .00002209  00000-0  21714-3 0  9993 | 2 63253  97.7140 144.1003 0003938  80.6512 279.5153 14.93127835 26673 | 2025/09/09-05:49:36  291.6732    0.1220  279.4708   96.4418     6966.3268     6963.5835     6969.0702 -79.152709  57.296374  -0.000280  -0.000277
1 63253U 25052AV  25253.65009957  .00001959  00000-0  19314-3 0  9996 | 2 63253  97.7137 145.4807 0004008  77.8503 282.3166 14.93133225 26881 | 2025/09/10-15:36:08   78.3120    0.1220  282.2717   96.4415     6966.3101     6963.5180     6969.1022 -80.509771  55.372772  -0.000292  -0.000275
1 63253U 25052AV  25254.65531820  .00001884  00000-0  18598-3 0  9996 | 2 63253  97.7140 146.4667 0003895  74.6423 285.5227 14.93136885 27035 | 2025/09/11-15:43:39   80.1974    0.1220  285.4797   96.4413     6966.2987     6963.5853     6969.0121 -81.450960  53.979319  -0.000293  -0.000256
1 63253U 25052AV  25256.93380523  .00001522  00000-0  15126-3 0  9994 | 2 63253  97.7137 148.7014 0003867  70.0625 290.1011 14.93144761 27377 | 2025/09/13-22:24:40  180.4652    0.1220  290.0595   96.4407     6966.2742     6963.5803     6968.9681 -83.493574  50.762095  -0.000302  -0.000242
1 63253U 25052AV  25258.14005577  .00002050  00000-0  20185-3 0  9990 | 2 63253  97.7135 149.8845 0003846  67.4050 292.7577 14.93153075 27551 | 2025/09/15-03:21:40  254.7222    0.1221  292.7171   96.4402     6966.2483     6963.5691     6968.9276 -84.523713  49.027237  -0.000306  -0.000233
1 63253U 25052AV  25259.14526560  .00001687  00000-0  16706-3 0  9990 | 2 63253  97.7134 150.8703 0003791  65.3970 294.7645 14.93154359 27703 | 2025/09/16-03:29:10  256.6039    0.1220  294.7250   96.4401     6966.2443     6963.6034     6968.8853 -85.354610  47.565735  -0.000306  -0.000224
1 63253U 25052AV  25260.95463478  .00001628  00000-0  16136-3 0  9991 | 2 63253  97.7131 152.6448 0003726  61.9282 298.2314 14.93160286 27979 | 2025/09/17-22:54:40  187.9876    0.1220  298.1938   96.4397     6966.2259     6963.6303     6968.8215 -86.786327  44.899702  -0.000307  -0.000211
1 63253U 25052AV  25262.16087641  .00001876  00000-0  18513-3 0  9996 | 2 63253  97.7128 153.8277 0003683  59.9344 300.2241 14.93165672 28154 | 2025/09/19-03:51:39  262.2417    0.1220  300.1876   96.4394     6966.2092     6963.6435     6968.7748 -87.694474  43.098382  -0.000306  -0.000205
1 63253U 25052AV  25263.97023191  .00002900  00000-0  28311-3 0  9992 | 2 63253  97.7123 155.6021 0003552  57.1561 303.0001 14.93174865 28421 | 2025/09/20-23:17:08  193.6210    0.1221  302.9660   96.4388     6966.1806     6963.7062     6968.6550 -88.986474  40.362122  -0.000299  -0.000192
1 63253U 25052AV  25265.24347490  .00003635  00000-0  35342-3 0  9993 | 2 63253  97.7120 156.8508 0003529  55.1490 305.0061 14.93183236 28615 | 2025/09/22-05:50:36  291.9958    0.1220  304.9730   96.4383     6966.1545     6963.6962     6968.6129 -89.844646  38.413208  -0.000299  -0.000187
1 63253U 25052AV  25266.58372064  .00004948  00000-0  47887-3 0  9991 | 2 63253  97.7117 158.1650 0003531  53.3294 306.8250 14.93195397 28811 | 2025/09/23-14:00:33   54.4918    0.1220  306.7926   96.4375     6966.1167     6963.6570     6968.5764 -90.701745  36.342396  -0.000301  -0.000184
1 63253U 25052AV  25268.25900928  .00005103  00000-0  49346-3 0  9999 | 2 63253  97.7115 159.8078 0003498  49.9639 310.1888 14.93213161 29060 | 2025/09/25-06:12:58  297.6059    0.1221  310.1582   96.4363     6966.0615     6963.6247     6968.4982 -91.706153  33.727121  -0.000304  -0.000174
1 63253U 25052AV  25269.66623646  .00004257  00000-0  41252-3 0  9991 | 2 63253  97.7111 161.1878 0003369  45.9639 314.1858 14.93225873 29270 | 2025/09/26-15:59:22   84.2177    0.1220  314.1581   96.4355     6966.0219     6963.6751     6968.3688 -92.491433  31.508631  -0.000300  -0.000154
1 63253U 25052AV  25270.93943355  .00003585  00000-0  34812-3 0  9992 | 2 63253  97.7107 162.4364 0003227  42.0692 318.0775 14.93234804 29465 | 2025/09/27-22:32:47  182.5779    0.1220  318.0528   96.4349     6965.9942     6963.7462     6968.2421 -93.155678  29.485598  -0.000294  -0.000134
1 63253U 25052AV  25271.94458320  .00003910  00000-0  37915-3 0  9996 | 2 63253  97.7105 163.4221 0003138  40.3882 319.7571 14.93243178 29612 | 2025/09/28-22:40:11  184.4382    0.1221  319.7339   96.4344     6965.9681     6963.7822     6968.1540 -93.648938  27.878633  -0.000287  -0.000127
1 63253U 25052AV  25272.94972702  .00004009  00000-0  38854-3 0  9995 | 2 63253  97.7104 164.4077 0003005  37.9479 322.1952 14.93251593 29765 | 2025/09/29-22:47:36  186.2973    0.1220  322.1741   96.4338     6965.9419     6963.8487     6968.0352 -94.114530  26.263615  -0.000278  -0.000114
1 63253U 25052AV  25274.15588769  .00006314  00000-0  60835-3 0  9991 | 2 63253  97.7101 165.5904 0002972  34.3027 325.8384 14.93270583 29944 | 2025/10/01-03:44:28  260.5233    0.1220  325.8193   96.4326     6965.8829     6963.8126     6967.9531 -94.636285  24.315371  -0.000279  -0.000101
1 63253U 25052AV  25275.63006351  .00006704  00000-0  64526-3 0  9991 | 2 63253  97.7103 167.0362 0002770  31.9569 328.1818 14.93293338 30168 | 2025/10/02-15:07:17   71.2362    0.1220  328.1651   96.4312     6965.8121     6963.8826     6967.7416 -95.219860  21.919879  -0.000262  -0.000090
1 63253U 25052AV  25276.63517259  .00006282  00000-0  60480-3 0  9992 | 2 63253  97.7105 168.0219 0002698  31.2624 328.8756 14.93306064 30312 | 2025/10/03-15:14:38   73.0812    0.1220  328.8596   96.4303     6965.7725     6963.8932     6967.6519 -95.583049  20.278622  -0.000255  -0.000089
1 63253U 25052AV  25277.64027410  .00005570  00000-0  53673-3 0  9994 | 2 63253  97.7106 169.0075 0002648  30.8490 329.2885 14.93316803 30461 | 2025/10/04-15:21:59   74.9233    0.1220  329.2730   96.4296     6965.7391     6963.8946     6967.5837 -95.917821  18.631506  -0.000249  -0.000090
1 63253U 25052AV  25279.18141674  .00004274  00000-0  41299-3 0  9995 | 2 63253  97.7106 170.5187 0002606  29.9038 330.2330 14.93330166 30693 | 2025/10/06-04:21:14  269.7432    0.1220  330.2182   96.4288     6965.6976     6963.8823     6967.5128 -96.375816  16.095447  -0.000244  -0.000091
1 63253U 25052AV  25280.25350818  .00004274  00000-0  41294-3 0  9992 | 2 63253  97.7105 171.5702 0002527  27.6932 332.4422 14.93339329 30850 | 2025/10/07-06:05:03  295.7027    0.1220  332.4288   96.4282     6965.6691     6963.9089     6967.4293 -96.654857  14.324119  -0.000239  -0.000083
1 63253U 25052AV  25281.45960198  .00004507  00000-0  43504-3 0  9998 | 2 63253  97.7099 172.7529 0002429  25.4180 334.7158 14.93350800 31033 | 2025/10/08-11:01:49    9.9042    0.1219  334.7039   96.4274     6965.6334     6963.9415     6967.3254 -96.929328  12.325983  -0.000231  -0.000076
1 63253U 25052AV  25282.46467354  .00003349  00000-0  32458-3 0  9995 | 2 63253  97.7099 173.7387 0002339  22.2142 337.9179 14.93357545 31186 | 2025/10/09-11:09:07   11.7365    0.1220  337.9078   96.4270     6965.6124     6963.9832     6967.2417 -97.127046  10.656527  -0.000225  -0.000064
1 63253U 25052AV  25283.67075351  .00002601  00000-0  25323-3 0  9994 | 2 63253  97.7095 174.9215 0002231  17.8846 342.2452 14.93365233 31363 | 2025/10/10-16:05:53   85.9335    0.1220  342.2374   96.4265     6965.5885     6964.0345     6967.1426 -97.325927   8.649297  -0.000218  -0.000049
1 63253U 25052AV  25284.94383193  .00002973  00000-0  28866-3 0  9998 | 2 63253  97.7091 176.1701 0002094  12.9757 347.1516 14.93373616 31557 | 2025/10/11-22:39:07  184.2505    0.1220  347.1463   96.4260     6965.5625     6964.1039     6967.0211 -97.490891   6.526440  -0.000207  -0.000033
1 63253U 25052AV  25286.28390725  .00003596  00000-0  34795-3 0  9996 | 2 63253  97.7087 177.4844 0001973   8.2233 351.9018 14.93383256 31759 | 2025/10/13-06:48:49  306.6863    0.1219  351.8986   96.4253     6965.5325     6964.1582     6966.9068 -97.614539   4.288571  -0.000196  -0.000020
1 63253U 25052AV  25287.28895976  .00002887  00000-0  28038-3 0  9990 | 2 63253  97.7086 178.4700 0001836   3.0066 357.1165 14.93387272 31905 | 2025/10/14-06:56:06  308.5122    0.1220  357.1154   96.4251     6965.5200     6964.2411     6966.7989 -97.673765   2.608855  -0.000184  -0.000005
1 63253U 25052AV  25288.29400906  .00002911  00000-0  28265-3 0  9997 | 2 63253  97.7088 179.4555 0001726   2.2898 357.8330 14.93392760 32054 | 2025/10/15-07:03:22  310.3354    0.1221  357.8323   96.4247     6965.5029     6964.3007     6966.7052 -97.704388   0.928544  -0.000173  -0.000005
1 63253U 25052AV  25289.43305868  .00003466  00000-0  33541-3 0  9994 | 2 63253  97.7089 180.5726 0001577   1.4498 358.6726 14.93401448 32220 | 2025/10/16-10:23:36    0.3993    0.1220  358.6722   96.4242     6965.4759     6964.3775     6966.5744 -97.704021  -0.976463  -0.000158  -0.000006
1 63253U 25052AV  25290.63910233  .00005303  00000-0  51002-3 0  9990 | 2 63253  97.7089 181.7551 0001454 358.5193   1.6022 14.93415127 32404 | 2025/10/17-15:20:18   74.5821    0.1220    1.6027   96.4233     6965.4334     6964.4206     6966.4462 -97.663062  -2.992578  -0.000145  -0.000001
1 63253U 25052AV  25291.97913719  .00007338  00000-0  70324-3 0  9998 | 2 63253  97.7092 183.0692 0001295 358.0241   2.0973 14.93434495 32602 | 2025/10/18-23:29:57  197.0015    0.1219    2.0978   96.4220     6965.3732     6964.4712     6966.2752 -97.569046  -5.231549  -0.000129  -0.000002
1 63253U 25052AV  25293.11815198  .00007942  00000-0  76027-3 0  9995 | 2 63253  97.7093 184.1862 0001196 358.9315   1.1902 14.93452358 32773 | 2025/10/20-02:50:08  247.0522    0.1220    1.1905   96.4209     6965.3176     6964.4846     6966.1507 -97.448620  -7.132582  -0.000119  -0.000007
1 63253U 25052AV  25294.59215145  .00006393  00000-0  61277-3 0  9994 | 2 63253  97.7093 185.6316 0001057 356.7635   3.3578 14.93472061 32990 | 2025/10/21-14:12:41   57.6998    0.1220    3.3585   96.4196     6965.2564     6964.5201     6965.9926 -97.237699  -9.588387  -0.000106  -0.000004
1 63253U 25052AV  25295.93213592  .00004820  00000-0  46333-3 0  9996 | 2 63253  97.7091 186.9457 0000986 349.4884  10.6315 14.93485336 33195 | 2025/10/22-22:22:16  180.1023    0.1220   10.6336   96.4188     6965.2151     6964.5283     6965.9019 -96.992033 -11.815828  -0.000098   0.000006
1 63253U 25052AV  25297.20510957  .00004734  00000-0  45500-3 0  9992 | 2 63253  97.7086 188.1941 0000859 339.3076  20.8109 14.93498788 33381 | 2025/10/24-04:55:21  278.3805    0.1220   20.8144   96.4179     6965.1733     6964.5750     6965.7716 -96.711084 -13.926115  -0.000084   0.000019
1 63253U 25052AV  25298.21008207  .00004522  00000-0  43470-3 0  9993 | 2 63253  97.7082 189.1797 0000808 330.4852  29.6322 14.93507758 33534 | 2025/10/25-05:02:31  280.1767    0.1220   29.6368   96.4173     6965.1454     6964.5826     6965.7082 -96.456836 -15.587529  -0.000076   0.000028
1 63253U 25052AV  25299.21504888  .00003844  00000-0  37028-3 0  9998 | 2 63253  97.7078 190.1654 0000745 317.5625  42.5537 14.93515062 33682 | 2025/10/26-05:09:40  281.9707    0.1220   42.5595   96.4168     6965.1227     6964.6038     6965.6416 -96.174019 -17.244486  -0.000063   0.000040
1 63253U 25052AV  25300.42100253  .00004391  00000-0  42213-3 0  9992 | 2 63253  97.7075 191.3481 0000662 306.1945  53.9213 14.93525598 33869 | 2025/10/27-10:06:14  356.1204    0.1219   53.9274   96.4162     6965.0899     6964.6288     6965.5510 -95.797300 -19.225837  -0.000049   0.000045
1 63253U 25052AV  25301.62694802  .00004824  00000-0  46306-3 0  9991 | 2 63253  97.7074 192.5308 0000556 292.8538  67.2623 14.93536420 34040 | 2025/10/28-15:02:48   70.2664    0.1220   67.2682   96.4155     6965.0563     6964.6690     6965.4435 -95.379962 -21.199028  -0.000032   0.000045
1 63253U 25052AV  25302.96687623  .00005402  00000-0  51769-3 0  9994 | 2 63253  97.7075 193.8449 0000452 271.6531  88.4637 14.93550237 34248 | 2025/10/29-23:12:18  192.6465    0.1220   88.4689   96.4146     6965.0133     6964.6985     6965.3281 -94.868809 -23.380859  -0.000012   0.000044
1 63253U 25052AV  25304.30678976  .00005872  00000-0  56197-3 0  9996 | 2 63253  97.7075 195.1590 0000375 242.9188 117.1993 14.93566965 34445 | 2025/10/31-07:21:46  315.0206    0.1219  117.2031   96.4135     6964.9613     6964.7001     6965.2225 -94.307657 -25.550371   0.000008   0.000037
1 63253U 25052AV  25305.64668858  .00005136  00000-0  49206-3 0  9998 | 2 63253  97.7081 196.4730 0000364 208.5838 151.5362 14.93582288 34640 | 2025/11/01-15:31:13   77.3890    0.1220  151.5382   96.4125     6964.9137     6964.6602     6965.1672 -93.697521 -27.706449   0.000026   0.000026
1 63253U 25052AV  25307.65651294  .00004834  00000-0  46328-3 0  9993 | 2 63253  97.7086 198.4442 0000505 181.4447 178.6772 14.93603066 34945 | 2025/11/03-15:45:22   80.9336    0.1220  178.6773   96.4112     6964.8491     6964.4974     6965.2008 -92.689527 -30.913139   0.000047   0.000017
1 63253U 25052AV  25308.66141358  .00004345  00000-0  41685-3 0  9998 | 2 63253  97.7084 199.4300 0000613 179.5536 180.5684 14.93612922 35096 | 2025/11/04-15:52:26   82.7024    0.1219  180.5683   96.4105     6964.8184     6964.3915     6965.2454 -92.143771 -32.503184   0.000058   0.000020
1 63253U 25052AV  25310.26924035  .00005308  00000-0  50774-3 0  9997 | 2 63253  97.7079 201.0072 0000793 179.1613 180.9609 14.93632230 35339 | 2025/11/06-06:27:42  301.5274    0.1220  180.9607   96.4093     6964.7584     6964.2061     6965.3107 -91.213782 -35.026842   0.000074   0.000027
1 63253U 25052AV  25311.27412207  .00005657  00000-0  54059-3 0  9999 | 2 63253  97.7074 201.9929 0000893 180.4301 179.6918 14.93644041 35481 | 2025/11/07-06:34:44  303.2899    0.1220  179.6919   96.4085     6964.7217     6964.0998     6965.3437 -90.597259 -36.590610   0.000083   0.000034
1 63253U 25052AV  25312.27899550  .00005168  00000-0  49424-3 0  9997 | 2 63253  97.7072 202.9781 0000962 181.4913 178.6304 14.93655223 35632 | 2025/11/08-06:41:45  305.0498    0.1220  178.6307   96.4078     6964.6869     6964.0169     6965.3569 -89.954538 -38.142864   0.000088   0.000040
1 63253U 25052AV  25314.95862318  .00005269  00000-0  50343-3 0  9990 | 2 63253  97.7066 205.6069 0001234 173.2320 186.8917 14.93684307 36039 | 2025/11/10-23:00:25  189.7261    0.1220  186.8900   96.4059     6964.5965     6963.7371     6965.4560 -88.109905 -42.228241   0.000117   0.000040
1 63253U 25052AV  25316.29841494  .00010332  00000-0  98070-3 0  9997 | 2 63253  97.7065 206.9211 0001429 166.8387 193.2870 14.93710935 36237 | 2025/11/12-07:09:43  312.0555    0.1219  193.2832   96.4042     6964.5138     6963.5185     6965.5090 -87.118130 -44.237897   0.000139   0.000034
1 63253U 25052AV  25317.63817608  .00010359  00000-0  98233-3 0  9996 | 2 63253  97.7069 208.2353 0001642 160.0438 200.0847 14.93745107 36435 | 2025/11/13-15:18:58   74.3730    0.1220  200.0782   96.4020     6964.4075     6963.2640     6965.5511 -86.080966 -46.224514   0.000162   0.000024
1 63253U 25052AV  25319.24586036  .00005573  00000-0  53099-3 0  9996 | 2 63253  97.7075 209.8122 0001854 150.0940 210.0386 14.93765720 36673 | 2025/11/15-05:54:02  293.1430    0.1220  210.0280   96.4007     6964.3435     6963.0523     6965.6347 -84.776852 -48.576136   0.000185  -0.000000
1 63253U 25052AV  25320.25065201  .00006787  00000-0  64522-3 0  9996 | 2 63253  97.7078 210.7979 0001965 146.4145 213.7200 14.93779957 36825 | 2025/11/16-06:00:56  294.8708    0.1220  213.7075   96.3997     6964.2992     6962.9307     6965.6677 -83.928915 -50.027506   0.000196  -0.000010
1 63253U 25052AV  25321.25543368  .00007042  00000-0  66896-3 0  9993 | 2 63253  97.7080 211.7836 0002039 145.1626 214.9728 14.93794427 36977 | 2025/11/17-06:07:49  296.5959    0.1220  214.9594   96.3988     6964.2543     6962.8342     6965.6743 -83.056049 -51.464026   0.000204  -0.000011
1 63253U 25052AV  25322.26020683  .00005516  00000-0  52509-3 0  9995 | 2 63253  97.7083 212.7694 0002094 142.8843 217.2522 14.93805199 37124 | 2025/11/18-06:14:41  298.3177    0.1220  217.2377   96.3981     6964.2208     6962.7625     6965.6791 -82.158590 -52.885517   0.000209  -0.000016
1 63253U 25052AV  25323.26497282  .00004113  00000-0  39288-3 0  9990 | 2 63253  97.7083 213.7551 0002145 141.3293 218.8081 14.93814089 37278 | 2025/11/19-06:21:33  300.0372    0.1220  218.7927   96.3975     6964.1931     6962.6993     6965.6870 -81.236650 -54.291054   0.000214  -0.000018
1 63253U 25052AV  25324.26973382  .00003235  00000-0  31014-3 0  9994 | 2 63253  97.7081 214.7408 0002197 137.9365 222.2024 14.93821264 37422 | 2025/11/20-06:28:25  301.7543    0.1220  222.1855   96.3971     6964.1708     6962.6408     6965.7009 -80.290503 -55.680409   0.000218  -0.000028
1 63253U 25052AV  25325.60940707  .00003589  00000-0  34332-3 0  9996 | 2 63253  97.7075 216.0552 0002256 134.4031 225.7374 14.93832172 37626 | 2025/11/21-14:37:32   64.0411    0.1220  225.7189   96.3964     6964.1369     6962.5658     6965.7081 -78.991661 -57.507156   0.000222  -0.000037
1 63253U 25052AV  25326.68113772  .00003438  00000-0  32909-3 0  9990 | 2 63253  97.7075 217.1065 0002355 138.2406 221.8994 14.93840406 37786 | 2025/11/22-16:20:50   89.8697    0.1220  221.8814   96.3958     6964.1114     6962.4713     6965.7514 -77.923245 -58.946785   0.000235  -0.000019
1 63253U 25052AV  25327.68588079  .00003288  00000-0  31494-3 0  9998 | 2 63253  97.7072 218.0917 0002369 136.5022 223.6385 14.93847830 37938 | 2025/11/23-16:27:40   91.5816    0.1220  223.6198   96.3954     6964.0883     6962.4385     6965.7381 -76.897950 -60.277709   0.000236  -0.000022
1 63253U 25052AV  25328.69061837  .00004076  00000-0  38892-3 0  9993 | 2 63253  97.7069 219.0772 0002415 133.9719 226.1700 14.93857462 38088 | 2025/11/24-16:34:29   93.2908    0.1219  226.1500   96.3947     6964.0583     6962.3765     6965.7402 -75.849604 -61.591200   0.000240  -0.000029
1 63253U 25052AV  25329.69534891  .00005146  00000-0  48949-3 0  9992 | 2 63253  97.7065 220.0633 0002544 131.2377 228.9062 14.93869208 38235 | 2025/11/25-16:41:18   94.9960    0.1219  228.8842   96.3940     6964.0218     6962.2502     6965.7935 -74.778090 -62.887180   0.000251  -0.000038
1 63253U 25052AV  25330.70007282  .00005099  00000-0  48490-3 0  9993 | 2 63253  97.7065 221.0492 0002660 129.5292 230.6163 14.93879034 38380 | 2025/11/26-16:48:06   96.6994    0.1219  230.5927   96.3933     6963.9913     6962.1389     6965.8437 -73.684961 -64.164529   0.000262  -0.000044
1 63253U 25052AV  25331.70479036  .00004646  00000-0  44228-3 0  9996 | 2 63253  97.7065 222.0350 0002794 127.3408 232.8067 14.93887838 38532 | 2025/11/27-16:54:53   98.4002    0.1220  232.7812   96.3928     6963.9639     6962.0182     6965.9097 -72.570129 -65.422752   0.000275  -0.000052
1 63253U 25052AV  25333.17836420  .00004959  00000-0  47151-3 0  9998 | 2 63253  97.7069 223.4808 0002979 123.2867 236.8639 14.93902750 38752 | 2025/11/29-04:16:50  268.8903    0.1220  236.8353   96.3918     6963.9176     6961.8430     6965.9921 -70.896615 -67.233238   0.000290  -0.000068
1 63253U 25052AV  25334.45098387  .00004993  00000-0  47452-3 0  9994 | 2 63253  97.7072 224.7296 0003131 120.7186 239.4343 14.93915708 38947 | 2025/11/30-10:49:25    7.0367    0.1220  239.4034   96.3910     6963.8773     6961.6969     6966.0577 -69.414712 -68.762597   0.000303  -0.000079
1 63253U 25052AV  25335.65661236  .00004889  00000-0  46460-3 0  9998 | 2 63253  97.7077 225.9124 0003185 118.3634 241.7907 14.93928642 39129 | 2025/12/01-15:45:31   81.0672    0.1219  241.7585   96.3901     6963.8371     6961.6192     6966.0551 -67.980852 -70.181183   0.000307  -0.000086
1 63253U 25052AV  25336.66129449  .00005746  00000-0  54486-3 0  9995 | 2 63253  97.7079 226.8985 0003217 114.9887 245.1668 14.93941890 39272 | 2025/12/02-15:52:15   82.7556    0.1221  245.1334   96.3893     6963.7960     6961.5557     6966.0362 -66.763113 -71.340875   0.000306  -0.000100
1 63253U 25052AV  25337.66596864  .00006009  00000-0  56935-3 0  9999 | 2 63253  97.7081 227.8844 0003224 112.7613 247.3948 14.93953883 39428 | 2025/12/03-15:58:59   84.4420    0.1220  247.3607   96.3885     6963.7587     6961.5136     6966.0038 -65.525848 -72.479212   0.000304  -0.000107
1 63253U 25052AV  25338.67063089  .00008689  00000-0  82025-3 0  9994 | 2 63253  97.7079 228.8701 0003233 111.1833 248.9733 14.93973963 39571 | 2025/12/04-16:05:42   86.1245    0.1220  248.9387   96.3872     6963.6963     6961.4449     6965.9477 -64.269170 -73.595568   0.000304  -0.000110
1 63253U 25052AV  25339.94318980  .00006025  00000-0  57041-3 0  9990 | 2 63253  97.7075 230.1188 0003235 109.4639 250.6931 14.93988565 39763 | 2025/12/05-22:38:11  184.2509    0.1220  250.6581   96.3863     6963.6509     6961.3982     6965.9037 -62.649841 -74.978350   0.000303  -0.000113
1 63253U 25052AV  25340.94783183  .00005925  00000-0  56080-3 0  9993 | 2 63253  97.7068 231.1046 0003235 108.4926 251.6646 14.94000829 39917 | 2025/12/06-22:44:52  185.9262    0.1220  251.6294   96.3855     6963.6128     6961.3601     6965.8655 -61.350156 -76.044573   0.000303  -0.000113
1 63253U 25052AV  25341.95246662  .00005019  00000-0  47580-3 0  9990 | 2 63253  97.7065 232.0906 0003232 107.4558 252.7015 14.94010684 40066 | 2025/12/07-22:51:33  187.5989    0.1219  252.6661   96.3849     6963.5822     6961.3316     6965.8328 -60.032305 -77.088796   0.000303  -0.000113
1 63253U 25052AV  25343.15801950  .00004804  00000-0  45555-3 0  9992 | 2 63253  97.7062 233.2737 0003303 105.5840 254.5745 14.94022729 40243 | 2025/12/09-03:47:32  261.6018    0.1220  254.5380   96.3841     6963.5448     6961.2447     6965.8448 -58.427635 -78.311640   0.000308  -0.000119
1 63253U 25052AV  25344.16263888  .00005755  00000-0  54442-3 0  9997 | 2 63253  97.7061 234.2595 0003373 104.1650 255.9945 14.94035109 40395 | 2025/12/10-03:54:11  263.2682    0.1220  255.9570   96.3833     6963.5063     6961.1575     6965.8551 -57.071608 -79.305193   0.000314  -0.000124
1 63253U 25052AV  25345.16725041  .00006341  00000-0  59906-3 0  9994 | 2 63253  97.7060 235.2454 0003519 102.0830 258.0784 14.94047818 40540 | 2025/12/11-04:00:50  264.9308    0.1219  258.0389   96.3825     6963.4668     6961.0164     6965.9172 -55.698549 -80.275364   0.000325  -0.000136
1 63253U 25052AV  25346.17185154  .00006712  00000-0  63352-3 0  9993 | 2 63253  97.7063 236.2312 0003641  99.9675 260.1956 14.94062489 40696 | 2025/12/12-04:07:27  266.5899    0.1220  260.1545   96.3815     6963.4212     6960.8858     6965.9566 -54.309365 -81.222004   0.000333  -0.000147
1 63253U 25052AV  25347.24340655  .00007149  00000-0  67380-3 0  9991 | 2 63253  97.7061 237.2823 0003839  96.2532 263.9125 14.94096849 40857 | 2025/12/13-05:50:30  292.3521    0.1220  263.8688   96.3793     6963.3145     6960.6412     6965.9877 -52.810172 -82.204426   0.000344  -0.000171
1 63253U 25052AV  25348.24795883  .00005354  00000-0  50542-3 0  9997 | 2 63253  97.7064 238.2689 0003830  96.6119 263.5538 14.94146162 41003 | 2025/12/14-05:57:03  293.9945    0.1221  263.5102   96.3761     6963.1612     6960.4944     6965.8281 -51.387058 -83.101810   0.000347  -0.000163
1 63253U 25052AV  25349.65431081  .00003501  00000-0  33234-3 0  9991 | 2 63253  97.7069 239.6487 0003902  92.9538 267.2128 14.94155741 41215 | 2025/12/15-15:42:12   80.2867    0.1219  267.1681   96.3755     6963.1315     6960.4145     6965.8485 -49.371342 -84.315532   0.000346  -0.000180
1 63253U 25052AV  25351.59628788  .00003168  00000-0  30010-3 0  9997 | 2 63253  97.7059 241.5557 0003853  91.3899 268.7763 14.94300246 41507 | 2025/12/17-14:18:39   59.4059    0.1221  268.7322   96.3662     6962.6826     6959.9998     6965.3653 -46.537730 -85.910899   0.000343  -0.000175
1 63253U 25052AV  25352.60069014  .00002738  00000-0  25965-3 0  9996 | 2 63253  97.7013 242.5481 0004360  88.0553 272.1167 14.94373132 41655 | 2025/12/18-14:24:59   60.9825    0.1221  272.0668   96.3615     6962.4562     6959.4205     6965.4918 -45.040671 -86.699954   0.000380  -0.000214
1 63253U 25052AV  25354.14065894  .00002041  00000-0  19433-3 0  9999 | 2 63253  97.7047 244.0531 0003781  80.5659 279.5989 14.94488537 41889 | 2025/12/20-03:22:32  255.3914    0.1221  279.5562   96.3540     6962.0977     6959.4654     6964.7301 -42.749517 -87.856059   0.000308  -0.000219
1 63253U 25052AV  25355.14493459  .00001991  00000-0  18938-3 0  9994 | 2 63253  97.7059 245.0394 0003878  81.0267 279.1393 14.94554334 42030 | 2025/12/21-03:28:42  256.9330    0.1221  279.0954   96.3498     6961.8934     6959.1936     6964.5932 -41.231394 -88.579992   0.000322  -0.000216
1 63253U 25052AV  25356.21611712  .00003404  00000-0  31947-3 0  9993 | 2 63253  97.7081 246.0929 0003509  82.7404 277.4215 14.94628509 42199 | 2025/12/22-05:11:12  282.5651    0.1220  277.3816   96.3450     6961.6631     6959.2202     6964.1059 -39.596684 -89.325111   0.000300  -0.000182
1 63253U 25052AV  25358.15751634  .00004067  00000-0  37937-3 0  9997 | 2 63253  97.6963 248.0081 0007593  54.0994 306.0930 14.94741972 42486 | 2025/12/24-03:46:49  261.4366    0.1221  306.0227   96.3377     6961.3108     6956.0250     6966.5965 -36.584872 -90.587605   0.000404  -0.000643
1 63253U 25052AV  25361.83888749  .00005281  00000-0  48717-3 0  9991 | 2 63253  97.7057 251.6160 0003701  71.1556 289.0066 14.95069958 43030 | 2025/12/27-20:07:59  146.7811    0.1221  288.9665   96.3166     6960.2926     6957.7166     6962.8686 -30.814819 -92.719204   0.000295  -0.000224
1 63253U 25052AV  25363.17741189  .00007178  00000-0  65896-3 0  9990 | 2 63253  97.7039 252.9324 0004981  78.5436 281.6344 14.95133878 43237 | 2025/12/29-04:15:28  268.6370    0.1221  281.5785   96.3124     6960.0942     6956.6274     6963.5611 -28.676074 -93.400936   0.000438  -0.000238
1 63253U 25052AV  25364.24815059  .00007799  00000-0  71361-3 0  9990 | 2 63253  97.7054 253.9829 0004049  61.1640 298.9987 14.95238756 43397 | 2025/12/30-05:57:20  294.1231    0.1221  298.9581   96.3057     6959.7688     6956.9508     6962.5868 -26.959288 -93.912417   0.000287  -0.000286
1 63253U 25052AV  25365.25192613  .00008182  00000-0  74695-3 0  9996 | 2 63253  97.7106 254.9777 0003735  66.2994 293.8618 14.95312222 43540 | 2025/12/31-06:02:46  295.4783    0.1221  293.8227   96.3010     6959.5408     6956.9414     6962.1402 -25.326096 -94.371342   0.000291  -0.000234
1 63253U 25052AV  26001.25564708  .00008025  00000-0  73110-3 0  9999 | 2 63253  97.7063 255.9584 0004120  63.6306 296.5337 14.95401295 43699 | 2026/01/01-06:08:07  296.8234    0.1221  296.4915   96.2952     6959.2644     6956.3972     6962.1317 -23.706120 -94.786818   0.000314  -0.000267
1 63253U 25052AV  26002.66077054  .00008255  00000-0  74978-3 0  9996 | 2 63253  97.7078 257.3415 0003942  67.0432 293.1204 14.95512033 43906 | 2026/01/02-15:51:30   82.6704    0.1220  293.0788   96.2881     6958.9209     6956.1777     6961.6641 -21.411644 -95.332868   0.000320  -0.000230
1 63253U 25052AV  26003.66437107  .00007373  00000-0  66948-3 0  9994 | 2 63253  97.7070 258.3255 0003646  62.5320 297.6271 14.95559597 44054 | 2026/01/03-15:56:41   83.9763    0.1221  297.5901   96.2850     6958.7734     6956.2362     6961.3105 -19.771154 -95.685732   0.000283  -0.000230
1 63253U 25052AV  26004.66795897  .00005347  00000-0  48694-3 0  9995 | 2 63253  97.7074 259.3133 0003460  56.0323 304.1227 14.95569640 44201 | 2026/01/04-16:01:51   85.2734    0.1222  304.0899   96.2844     6958.7422     6956.3345     6961.1499 -18.118715 -96.012750   0.000246  -0.000243
1 63253U 25052AV  26005.67150048  .00005581  00000-0  50685-3 0  9993 | 2 63253  97.7066 260.2997 0003611  53.4241 306.7312 14.95661047 44352 | 2026/01/05-16:06:57   86.5508    0.1221  306.6980   96.2785     6958.4587     6955.9460     6960.9714 -16.463029 -96.309648   0.000250  -0.000261
1 63253U 25052AV  26006.67499128  .00004348  00000-0  39523-3 0  9997 | 2 63253  97.7054 261.2863 0003394  53.2175 306.9358 14.95741734 44505 | 2026/01/06-16:11:59   87.8120    0.1222  306.9047   96.2733     6958.2084     6955.8468     6960.5700 -14.802092 -96.577654   0.000238  -0.000242
1 63253U 25052AV  26007.67844420  .00003364  00000-0  30670-3 0  9998 | 2 63253  97.7058 262.2755 0003290  43.8862 316.2620 14.95780415 44654 | 2026/01/07-16:16:57   89.0600    0.1221  316.2359   96.2708     6958.0885     6955.7993     6960.3777 -13.132629 -96.819200   0.000194  -0.000266
1 63253U 25052AV  26008.68185402  .00004634  00000-0  41971-3 0  9995 | 2 63253  97.7078 263.2627 0002940  36.9183 323.2240 14.95851717 44802 | 2026/01/08-16:21:52   90.2952    0.1221  323.2038   96.2662     6957.8674     6955.8217     6959.9130 -11.462813 -97.033077   0.000148  -0.000254
1 63253U 25052AV  26009.68520997  .00004270  00000-0  38621-3 0  9992 | 2 63253  97.7058 264.2494 0003344  39.3429 320.8034 14.95950000 44957 | 2026/01/09-16:26:42   91.5016    0.1221  320.7792   96.2599     6957.5626     6955.2360     6959.8892  -9.789973 -97.214093   0.000185  -0.000279
1 63253U 25052AV  26010.95606057  .00004114  00000-0  37179-3 0  9990 | 2 63253  97.7046 265.4999 0002912  34.7609 325.3802 14.96006172 45144 | 2026/01/10-22:56:43  189.0151    0.1221  325.3612   96.2563     6957.3884     6955.3624     6959.4144  -7.665985 -97.403396   0.000147  -0.000252
1 63253U 25052AV  26012.22685539  .00004202  00000-0  37882-3 0  9993 | 2 63253  97.7078 266.7525 0003863  48.3206 311.8346 14.96084101 45330 | 2026/01/12-05:26:40  286.4871    0.1222  311.8016   96.2513     6957.1468     6954.4593     6959.8344  -5.535071 -97.550895   0.000274  -0.000273
1 63253U 25052AV  26013.69820542  .00002713  00000-0  24580-3 0  9996 | 2 63253  97.7054 268.1992 0002857  35.7995 324.3417 14.96189053 45559 | 2026/01/13-16:45:24   96.1907    0.1221  324.3226   96.2445     6956.8215     6954.8339     6958.8091  -3.070364 -97.657145   0.000160  -0.000237
1 63253U 25052AV  26015.30321049  .00002565  00000-0  23210-3 0  9998 | 2 63253  97.7051 269.7774 0004670  38.6163 321.5391 14.96283685 45797 | 2026/01/15-07:16:37  313.9821    0.1221  321.5058   96.2384     6956.5282     6953.2795     6959.7769  -0.379593 -97.704363   0.000290  -0.000366
1 63253U 25052AV  26016.64061789  .00003216  00000-0  28893-3 0  9994 | 2 63253  97.7063 271.0947 0002525  28.8351 331.3009 14.96388987 45993 | 2026/01/16-15:22:29   75.4690    0.1221  331.2870   96.2317     6956.2018     6954.4454     6957.9582   1.866675 -97.688467   0.000126  -0.000219
1 63253U 25052AV  26017.64361865  .00004123  00000-0  36828-3 0  9998 | 2 63253  97.7102 272.0863 0002701  22.3320 337.8019 14.96459308 46142 | 2026/01/17-15:26:48   76.5484    0.1222  337.7902   96.2271     6955.9839     6954.1051     6957.8627   3.557116 -97.645431   0.000112  -0.000246
1 63253U 25052AV  26018.64657629  .00004690  00000-0  41747-3 0  9990 | 2 63253  97.7053 273.0714 0002683  33.2395 326.8995 14.96528009 46297 | 2026/01/18-15:31:04   77.6115    0.1222  326.8827   96.2227     6955.7710     6953.9048     6957.6372   5.235086 -97.564950   0.000159  -0.000216
1 63253U 25052AV  26019.64949283  .00005084  00000-0  45138-3 0  9997 | 2 63253  97.7041 274.0589 0002870  35.9043 324.2371 14.96588316 46446 | 2026/01/19-15:35:16   78.6601    0.1222  324.2179   96.2188     6955.5841     6953.5879     6957.5804   6.915685 -97.459040   0.000184  -0.000220
1 63253U 25052AV  26020.91982780  .00011017  00000-0  97100-3 0  9997 | 2 63253  97.7056 275.3108 0002694  29.9027 330.2348 14.96611829 46630 | 2026/01/20-22:04:33  175.9848    0.1222  330.2195   96.2173     6955.5113     6953.6375     6957.3851   9.043462 -97.286176   0.000155  -0.000220
1 63253U 25052AV  26022.25699447  .00006625  00000-0  58587-3 0  9996 | 2 63253  97.7054 276.6281 0002590  26.6673 333.4682 14.96637355 46830 | 2026/01/22-06:10:04  297.3675    0.1222  333.4549   96.2157     6955.4322     6953.6307     6957.2336  11.277580 -97.052364   0.000142  -0.000216
1 63253U 25052AV  26023.25986002  .00006095  00000-0  53931-3 0  9992 | 2 63253  97.7053 277.6160 0002509  23.5652 336.5684 14.96649488 46981 | 2026/01/23-06:14:11  298.4015    0.1222  336.5570   96.2149     6955.3946     6953.6495     6957.1397  12.949195 -96.843399   0.000130  -0.000215
1 63253U 25052AV  26024.66382885  .00006305  00000-0  55652-3 0  9993 | 2 63253  97.7043 278.9983 0002524  25.0069 335.1274 14.96732353 47191 | 2026/01/24-15:55:54   83.8311    0.1221  335.1152   96.2096     6955.1379     6953.3824     6956.8934  15.281457 -96.501851   0.000141  -0.000209
1 63253U 25052AV  26026.26824472  .00005539  00000-0  48818-3 0  9998 | 2 63253  97.7106 280.5722 0004512  24.6200 335.5236 14.96838870 47432 | 2026/01/26-06:26:16  301.4190    0.1222  335.5022   96.2027     6954.8079     6951.6699     6957.9459  17.927394 -96.051912   0.000260  -0.000369
1 63253U 25052AV  26028.94196960  .00005552  00000-0  48714-3 0  9999 | 2 63253  97.7031 283.2121 0001910  12.8007 347.3262 14.97016190 47833 | 2026/01/28-22:36:26  183.9722    0.1221  347.3214   96.1913     6954.2587     6952.9304     6955.5870  22.330676 -95.116963   0.000084  -0.000172
1 63253U 25052AV  26030.14509288  .00005230  00000-0  45891-3 0  9991 | 2 63253  97.7049 284.3998 0001877 352.0597   8.0595 14.97039847 48016 | 2026/01/30-03:28:56  257.1024    0.1222    8.0625   96.1898     6954.1854     6952.8801     6955.4907  24.297890 -94.635406   0.000021  -0.000187
1 63253U 25052AV  26031.14769006  .00003449  00000-0  30433-3 0  9994 | 2 63253  97.7044 285.3877 0001763 346.8461  13.2714 14.97046601 48166 | 2026/01/31-03:32:40  258.0394    0.1221   13.2760   96.1894     6954.1645     6952.9385     6955.3906  25.925779 -94.201931   0.000007  -0.000176
1 63253U 25052AV  26032.48447869  .00003034  00000-0  26827-3 0  9994 | 2 63253  97.7041 286.7051 0001612 340.3365  19.7794 14.97056420 48368 | 2026/02/01-11:37:38   19.2851    0.1222   19.7857   96.1888     6954.1341     6953.0131     6955.2551  28.084631 -93.580685  -0.000008  -0.000161
1 63253U 25052AV  26033.48706411  .00003538  00000-0  31195-3 0  9999 | 2 63253  97.7036 287.6932 0001519 334.9397  25.1750 14.97065005 48519 | 2026/02/02-11:41:22   20.2171    0.1221   25.1824   96.1882     6954.1075     6953.0512     6955.1639  29.694078 -93.081981  -0.000019  -0.000151
1 63253U 25052AV  26034.55648190  .00004336  00000-0  38101-3 0  9998 | 2 63253  97.7032 288.7472 0001397 329.9336  30.1806 14.97075924 48673 | 2026/02/03-13:21:20   45.2081    0.1222   30.1886   96.1875     6954.0737     6953.1022     6955.0452  31.401143 -92.519638  -0.000027  -0.000137
1 63253U 25052AV  26035.69273068  .00004655  00000-0  40859-3 0  9999 | 2 63253  97.7027 289.8669 0001260 322.8943  37.2192 14.97087021 48848 | 2026/02/04-16:37:31   94.2586    0.1222   37.2279   96.1868     6954.0394     6953.1632     6954.9156  33.202923 -91.887886  -0.000037  -0.000120
1 63253U 25052AV  26036.69529458  .00006456  00000-0  56439-3 0  9999 | 2 63253  97.7024 290.8547 0001110 319.3766  40.7373 14.97101530 48998 | 2026/02/05-16:41:13   95.1816    0.1222   40.7456   96.1859     6953.9944     6953.2225     6954.7663  34.781983 -91.301548  -0.000038  -0.000104
1 63253U 25052AV  26037.69785209  .00005129  00000-0  44940-3 0  9998 | 2 63253  97.7021 291.8425 0000971 314.0460  46.0681 14.97109665 49144 | 2026/02/06-16:44:54   96.1025    0.1221   46.0761   96.1853     6953.9692     6953.2940     6954.6445  36.350697 -90.688076  -0.000040  -0.000089
1 63253U 25052AV  26038.70040330  .00004976  00000-0  43603-3 0  9994 | 2 63253  97.7020 292.8303 0000825 310.6302  49.4848 14.97119190 49296 | 2026/02/07-16:48:34   97.0204    0.1222   49.4920   96.1847     6953.9397     6953.3660     6954.5134  37.908674 -90.047839  -0.000037  -0.000074
1 63253U 25052AV  26039.70294920  .00004140  00000-0  36353-3 0  9998 | 2 63253  97.7019 293.8181 0000673 304.8074  55.3085 14.97125927 49442 | 2026/02/08-16:52:14   97.9363    0.1222   55.3148   96.1843     6953.9189     6953.4509     6954.3869  39.455380 -89.380838  -0.000035  -0.000057
1 63253U 25052AV  26041.24017476  .00004044  00000-0  35517-3 0  9993 | 2 63253  97.7020 295.3327 0000454 295.4966  64.6209 14.97138921 49679 | 2026/02/10-05:45:51  291.3365    0.1222   64.6256   96.1835     6953.8786     6953.5629     6954.1944  41.804123 -88.306829  -0.000029  -0.000035
1 63253U 25052AV  26042.51004738  .00004252  00000-0  37302-3 0  9996 | 2 63253  97.7023 296.5840 0000278 295.9383  64.1810 14.97149744 49866 | 2026/02/11-12:14:28   28.4892    0.1222   64.1839   96.1828     6953.8451     6953.6518     6954.0384  43.722695 -87.373139  -0.000017  -0.000022
1 63253U 25052AV  26043.51257098  .00004704  00000-0  41208-3 0  9998 | 2 63253  97.7026 297.5716 0000166 256.3083 103.8121 14.97159699 50011 | 2026/02/12-12:18:06   29.3971    0.1222  103.8139   96.1821     6953.8143     6953.6989     6953.9297  45.222304 -86.606820  -0.000016  -0.000004
1 63253U 25052AV  26044.58192339  .00004241  00000-0  37191-3 0  9994 | 2 63253  97.7029 298.6251 0000215 200.8806 159.2407 14.97168027 50176 | 2026/02/13-13:57:58   54.3636    0.1222  159.2416   96.1816     6953.7885     6953.6390     6953.9380  46.807157 -85.760986  -0.000016   0.000014
1 63253U 25052AV  26045.65126921  .00004181  00000-0  36663-3 0  9993 | 2 63253  97.7033 299.6790 0000268 183.0692 177.0529 14.97177132 50331 | 2026/02/14-15:37:49   79.3274    0.1223  177.0531   96.1810     6953.7603     6953.5740     6953.9467  48.376838 -84.885902  -0.000014   0.000023
1 63253U 25052AV  26046.65377429  .00004891  00000-0  42793-3 0  9994 | 2 63253  97.7034 300.6671 0000317 170.7114 189.4114 14.97187760 50481 | 2026/02/15-15:41:26   80.2285    0.1222  189.4108   96.1803     6953.7274     6953.5070     6953.9479  49.833531 -84.039119  -0.000012   0.000030
1 63253U 25052AV  26047.65627359  .00004364  00000-0  38229-3 0  9999 | 2 63253  97.7035 301.6553 0000402 168.2654 191.8577 14.97195514 50631 | 2026/02/16-15:45:02   81.1279    0.1222  191.8568   96.1798     6953.7034     6953.4239     6953.9829  51.275551 -83.167252  -0.000014   0.000038
1 63253U 25052AV  26048.65876740  .00003673  00000-0  32250-3 0  9990 | 2 63253  97.7035 302.6435 0000438 169.6092 190.5139 14.97202589 50788 | 2026/02/17-15:48:37   82.0256    0.1222  190.5130   96.1794     6953.6815     6953.3769     6953.9861  52.702268 -82.270559  -0.000017   0.000041
1 63253U 25052AV  26049.66125535  .00003519  00000-0  30915-3 0  9996 | 2 63253  97.7033 303.6317 0000497 172.1169 188.0060 14.97210749 50934 | 2026/02/18-15:52:12   82.9213    0.1221  188.0052   96.1788     6953.6562     6953.3106     6954.0018  54.113197 -81.349227  -0.000022   0.000045
1 63253U 25052AV  26050.66373855  .00003194  00000-0  28097-3 0  9995 | 2 63253  97.7030 304.6196 0000602 173.1065 187.0165 14.97217684 51088 | 2026/02/19-15:55:47   83.8154    0.1222  187.0157   96.1784     6953.6348     6953.2162     6954.0534  55.507546 -80.403909  -0.000028   0.000053
1 63253U 25052AV  26051.66621734  .00002927  00000-0  25788-3 0  9995 | 2 63253  97.7027 305.6072 0000681 176.5814 183.5413 14.97223615 51239 | 2026/02/20-15:59:21   84.7085    0.1222  183.5408   96.1780     6953.6164     6953.1429     6954.0899  56.884968 -79.434992  -0.000036   0.000058
1 63253U 25052AV  26052.66869268  .00002548  00000-0  22509-3 0  9999 | 2 63253  97.7022 306.5952 0000774 178.5061 181.6163 14.97228766 51389 | 2026/02/21-16:02:55   85.6000    0.1221  181.6160   96.1777     6953.6005     6953.0622     6954.1387  58.245911 -78.441913  -0.000045   0.000063
1 63253U 25052AV  26053.67116341  .00003296  00000-0  28966-3 0  9992 | 2 63253  97.7016 307.5831 0000902 180.3906 179.7315 14.97237079 51532 | 2026/02/22-16:06:28   86.4900    0.1221  179.7315   96.1772     6953.5747     6952.9475     6954.2019  59.589324 -77.425546  -0.000056   0.000071
1 63253U 25052AV  26054.94095374  .00002881  00000-0  25381-3 0  9992 | 2 63253  97.7013 308.8342 0000958 178.8138 181.3086 14.97244299 51727 | 2026/02/23-22:34:58  183.6147    0.1221  181.3083   96.1767     6953.5524     6952.8862     6954.2185  61.265446 -76.105776  -0.000059   0.000076
1 63253U 25052AV  26056.14390692  .00002329  00000-0  20609-3 0  9992 | 2 63253  97.7008 310.0194 0001016 179.2718 180.8505 14.97250694 51902 | 2026/02/25-03:27:13  256.6784    0.1221  180.8503   96.1763     6953.5326     6952.8261     6954.2390  62.826202 -74.821887  -0.000064   0.000079
1 63253U 25052AV  26057.14636377  .00002546  00000-0  22482-3 0  9998 | 2 63253  97.7007 311.0070 0001114 180.1689 179.9532 14.97256816 52050 | 2026/02/26-03:30:45  257.5635    0.1221  179.9532   96.1759     6953.5136     6952.7390     6954.2882  64.106434 -73.727823  -0.000073   0.000084
1 63253U 25052AV  26058.14881618  .00003131  00000-0  27522-3 0  9990 | 2 63253  97.7006 311.9946 0001248 180.6287 179.4934 14.97264209 52200 | 2026/02/27-03:34:17  258.4469    0.1222  179.4935   96.1754     6953.4907     6952.6229     6954.3585  65.367619 -72.611856  -0.000085   0.000092
1 63253U 25052AV  26059.15126424  .00003372  00000-0  29601-3 0  9996 | 2 63253  97.7006 312.9824 0001378 179.2393 180.8831 14.97271315 52356 | 2026/02/28-03:37:49  259.3281    0.1222  180.8829   96.1750     6953.4687     6952.5105     6954.4269  66.609697 -71.474160  -0.000093   0.000102
1 63253U 25052AV  26060.15370777  .00003505  00000-0  30741-3 0  9995 | 2 63253  97.7005 313.9701 0001499 177.3710 182.7520 14.97278419 52501 | 2026/03/01-03:41:20  260.2076    0.1222  182.7512   96.1745     6953.4467     6952.4044     6954.4890  67.831785 -70.315266  -0.000099   0.000113
1 63253U 25052AV  26061.15614662  .00003715  00000-0  32543-3 0  9995 | 2 63253  97.7002 314.9578 0001621 172.3773 187.7474 14.97285923 52659 | 2026/03/02-03:44:51  261.0842    0.1222  187.7449   96.1740     6953.4235     6952.2963     6954.5506  69.033572 -69.135338  -0.000098   0.000129
1 63253U 25052AV  26062.15857992  .00003938  00000-0  34464-3 0  9992 | 2 63253  97.6999 315.9456 0001746 168.4639 191.6624 14.97294170 52806 | 2026/03/03-03:48:21  261.9588    0.1223  191.6584   96.1735     6953.3980     6952.1839     6954.6120  70.214957 -67.934750  -0.000099   0.000144
