# SPACE DATA - HISTORICAL TLEs
# ----------------------------
# NORAD_ID    : 58302
# OBJECT_NAME : ICEYE-X35
# --------------------------------------------------------------------+-----------------------------------------------------------------------+----------------------------------------------------------------------------------------------------------------------------------------
#                  LINE 1                                             |                 LINE 2                                                |      DERIVED PARAMETERS
# --------------------------------------------------------------------+-----------------------------------------------------------------------+----------------------------------------------------------------------------------------------------------------------------------------
# NORAD  COSPAR     TLE_EPOCH      MEANMOT1 MEANMOT2   BSTAR  #  REV  |   NORAD    INC     RAAN     ECC    ARGPER  MEANANOM   MEANMOT     REV |  CAL_DATE              LONG     ARGLAT     PERIOD        SMA         PERIGEE        APOGEE      INC_X      INC_Y      ECC_X      ECC_Y
# ------ ------   -------------- ----------  -------  ------- -- ----     -----  ------- -------- ------- -------- -------- -----------  ----   ------------------- ---------  --------  --------  ------------  ------------   ----------- ---------- ----------  ---------  ---------   
1 64574U 25135AY  25198.27938879  .00002429  00000-0  24755-3 0  9993 | 2 64574  97.7502 312.2756 0002623  44.7929 315.3501 14.91598572  3925 | 2025/07/17-06:42:19   83.5091    0.1219  315.3290   96.5407     6971.0875     6969.2590     6972.9160  65.756313 -72.327097   0.000262  -0.000013
1 64574U 25135AY  25204.58517916  .00003595  00000-0  36347-3 0  9995 | 2 64574  97.7507 318.4729 0002079  29.1075 331.0259 14.91632934  4862 | 2025/07/23-14:02:39  193.6213    0.1219  331.0144   96.5385     6970.9805     6969.5312     6972.4297  73.180302 -64.806194   0.000203  -0.000045
1 64574U 25135AY  25205.59140834  .00003830  00000-0  38670-3 0  9991 | 2 64574  97.7511 319.4618 0002006  28.0038 332.1288 14.91639791  5012 | 2025/07/24-14:11:37  195.8675    0.1219  332.1181   96.5381     6970.9591     6969.5607     6972.3575  74.288177 -63.533804   0.000196  -0.000044
1 64574U 25135AY  25206.73179398  .00003749  00000-0  37855-3 0  9998 | 2 64574  97.7516 320.5829 0001948  25.9284 334.2032 14.91648992  5188 | 2025/07/25-17:33:46  246.4102    0.1219  334.1935   96.5375     6970.9304     6969.5725     6972.2884  75.517422 -62.068464   0.000189  -0.000045
1 64574U 25135AY  25207.87217238  .00003964  00000-0  39992-3 0  9993 | 2 64574  97.7518 321.7041 0001898  22.9843 337.1460 14.91658922  5351 | 2025/07/26-20:55:55  296.9505    0.1219  337.1376   96.5368     6970.8995     6969.5764     6972.2226  76.717638 -60.579026   0.000183  -0.000050
1 64574U 25135AY  25208.87838278  .00003341  00000-0  33785-3 0  9990 | 2 64574  97.7516 322.6934 0001826  18.0276 342.1007 14.91665206  5500 | 2025/07/27-21:04:52  299.1908    0.1219  342.0943   96.5364     6970.8799     6969.6070     6972.1528  77.751981 -59.245292   0.000172  -0.000060
1 64574U 25135AY  25210.21999035  .00003099  00000-0  31379-3 0  9997 | 2 64574  97.7515 324.0125 0001727  12.3336 347.7924 14.91673734  5707 | 2025/07/29-05:16:47   62.1750    0.1218  347.7882   96.5359     6970.8533     6969.6495     6972.0572  79.095158 -57.439636   0.000158  -0.000069
1 64574U 25135AY  25211.22619083  .00002913  00000-0  29525-3 0  9995 | 2 64574  97.7514 325.0018 0001623   7.4591 352.6651 14.91680076  5856 | 2025/07/30-05:25:42   64.4115    0.1218  352.6627   96.5354     6970.8336     6969.7022     6971.9650  80.075021 -56.065384   0.000144  -0.000075
1 64574U 25135AY  25212.56778492  .00003454  00000-0  34892-3 0  9997 | 2 64574  97.7510 326.3206 0001508   0.5161 359.6059 14.91689702  6051 | 2025/07/31-13:37:36  187.3911    0.1219  359.6058   96.5348     6970.8036     6969.7524     6971.8548  81.343842 -54.207355   0.000126  -0.000082
1 64574U 25135AY  25213.57397476  .00003782  00000-0  38147-3 0  9999 | 2 64574  97.7507 327.3097 0001415 356.3269   3.7939 14.91697512  6203 | 2025/08/01-13:46:31  189.6233    0.1219    3.7950   96.5343     6970.7793     6969.7929     6971.7656  82.267207 -52.794943   0.000114  -0.000084
1 64574U 25135AY  25215.18386860  .00003232  00000-0  32667-3 0  9994 | 2 64574  97.7508 328.8922 0001264 352.1338   7.9861 14.91708236  6442 | 2025/08/03-04:24:46   49.1902    0.1219    7.9881   96.5336     6970.7459     6969.8648     6971.6270  83.693918 -50.502940   0.000098  -0.000080
1 64574U 25135AY  25216.19004687  .00003382  00000-0  34150-3 0  9995 | 2 64574  97.7510 329.8813 0001162 349.2367  10.8827 14.91714863  6595 | 2025/08/04-04:33:40   51.4175    0.1219   10.8852   96.5332     6970.7252     6969.9152     6971.5352  84.553412 -49.050775   0.000088  -0.000076
1 64574U 25135AY  25217.19622023  .00003386  00000-0  34191-3 0  9995 | 2 64574  97.7512 330.8704 0001081 345.7519  14.3669 14.91721690  6744 | 2025/08/05-04:42:33   53.6432    0.1219   14.3700   96.5328     6970.7039     6969.9504     6971.4575  85.387712 -47.583986   0.000079  -0.000074
1 64574U 25135AY  25218.87316552  .00003138  00000-0  31712-3 0  9999 | 2 64574  97.7518 332.5191 0000984 338.5804  21.5373 14.91732460  6993 | 2025/08/06-20:57:21  297.3488    0.1218   21.5414   96.5321     6970.6704     6969.9845     6971.3563  86.721947 -45.107851   0.000065  -0.000074
1 64574U 25135AY  25219.87932708  .00002797  00000-0  28327-3 0  9995 | 2 64574  97.7521 333.5083 0000935 330.8583  29.2583 14.91737982  7143 | 2025/08/07-21:06:13  299.5706    0.1218   29.2635   96.5317     6970.6532     6970.0014     6971.3050  87.488031 -43.604100   0.000053  -0.000077
1 64574U 25135AY  25220.88548486  .00002936  00000-0  29705-3 0  9990 | 2 64574  97.7523 334.4976 0000905 323.0825  37.0331 14.91744507  7291 | 2025/08/08-21:15:05  301.7908    0.1218   37.0393   96.5313     6970.6329     6970.0020     6971.2637  88.228025 -42.087146   0.000042  -0.000080
1 64574U 25135AY  25222.09286801  .00003421  00000-0  34509-3 0  9993 | 2 64574  97.7525 335.6848 0000862 310.7395  49.3749 14.91752956  7477 | 2025/08/10-02:13:43   16.4528    0.1219   49.3824   96.5307     6970.6065     6970.0057     6971.2074  89.081274 -40.250191   0.000024  -0.000083
1 64574U 25135AY  25223.30024588  .00003196  00000-0  32269-3 0  9990 | 2 64574  97.7524 336.8722 0000830 300.5928  59.5209 14.91759934  7651 | 2025/08/11-07:12:21   91.1121    0.1219   59.5291   96.5303     6970.5848     6970.0063     6971.1634  89.896140 -38.395517   0.000011  -0.000082
1 64574U 25135AY  25224.57469346  .00003322  00000-0  33517-3 0  9993 | 2 64574  97.7522 338.1255 0000823 286.8964  73.2164 14.91767906  7845 | 2025/08/12-13:47:33  189.9170    0.1218   73.2254   96.5298     6970.5600     6969.9863     6971.1337  90.714253 -36.420007  -0.000007  -0.000082
1 64574U 25135AY  25225.58083169  .00002913  00000-0  29449-3 0  9994 | 2 64574  97.7520 339.1149 0000793 276.9902  83.1226 14.91773144  7990 | 2025/08/13-13:56:23  192.1291    0.1218   83.1316   96.5294     6970.5437     6969.9909     6971.0964  91.329421 -34.848104  -0.000019  -0.000077
1 64574U 25135AY  25226.72111662  .00003423  00000-0  34505-3 0  9997 | 2 64574  97.7520 340.2360 0000776 266.8909  93.2221 14.91781738  8169 | 2025/08/14-17:18:24  242.6343    0.1219   93.2310   96.5289     6970.5169     6969.9760     6971.0578  91.993764 -33.054514  -0.000030  -0.000071
1 64574U 25135AY  25227.72722034  .00003383  00000-0  34078-3 0  9999 | 2 64574  97.7516 341.2251 0000728 260.8122  99.3014 14.91819582  8315 | 2025/08/15-17:27:11  244.8336    0.1218   99.3096   96.5264     6970.3990     6969.8916     6970.9064  92.550271 -31.461446  -0.000034  -0.000064
1 64574U 25135AY  25228.73332344  .00003289  00000-0  33139-3 0  9994 | 2 64574  97.7516 342.2145 0000741 250.3454 109.7685 14.91825985  8465 | 2025/08/16-17:35:59  247.0327    0.1219  109.7765   96.5260     6970.3791     6969.8626     6970.8956  93.079731 -29.858650  -0.000045  -0.000059
1 64574U 25135AY  25229.87354489  .00005536  00000-0  55345-3 0  9994 | 2 64574  97.7524 343.3356 0000905 240.7025 119.4103 14.91858756  8633 | 2025/08/17-20:57:54  297.5162    0.1218  119.4193   96.5239     6970.2770     6969.6462     6970.9078  93.646883 -28.032000  -0.000065  -0.000063
1 64574U 25135AY  25230.87962318  .00005332  00000-0  53316-3 0  9992 | 2 64574  97.7525 344.3249 0000895 241.3527 118.7602 14.91865373  8783 | 2025/08/18-21:06:39  299.7067    0.1219  118.7692   96.5235     6970.2564     6969.6325     6970.8802  94.117012 -26.410971  -0.000063  -0.000064
1 64574U 25135AY  25231.88568555  .00002824  00000-0  28447-3 0  9999 | 2 64574  97.7505 345.3177 0000164 338.7438  21.3774 14.91941357  8936 | 2025/08/19-21:15:23  301.8796    0.1219   21.3781   96.5185     6970.0197     6969.9054     6970.1340  94.558565 -24.775756   0.000013  -0.000010
1 64574U 25135AY  25232.89170289  .00002468  00000-0  24929-3 0  9999 | 2 64574  97.7528 346.3044 0001031 226.2367 133.8766 14.91946875  9088 | 2025/08/20-21:24:03  304.0587    0.1218  133.8851   96.5182     6970.0025     6969.2839     6970.7211  94.973424 -23.144299  -0.000087  -0.000055
1 64574U 25135AY  25234.56832679  .00002147  00000-0  21704-3 0  9995 | 2 64574  97.7531 347.9536 0001250 219.7304 140.3823 14.92057259  9331 | 2025/08/22-13:38:23  187.6472    0.1218  140.3914   96.5110     6969.6588     6968.7875     6970.5300  95.600470 -20.401439  -0.000111  -0.000058
1 64574U 25135AY  25235.90954594  .00002481  00000-0  24950-3 0  9992 | 2 64574  97.7532 349.2734 0001315 212.2833 147.8306 14.92123900  9531 | 2025/08/23-21:49:44  310.4871    0.1219  147.8386   96.5067     6969.4512     6968.5347     6970.3677  96.045109 -18.194097  -0.000122  -0.000048
1 64574U 25135AY  25236.91544495  .00003153  00000-0  31556-3 0  9996 | 2 64574  97.7534 350.2633 0001391 206.2992 153.8157 14.92130222  9688 | 2025/08/24-21:58:14  312.6113    0.1219  153.8227   96.5063     6969.4315     6968.4621     6970.4010  96.345296 -16.532126  -0.000133  -0.000040
1 64574U 25135AY  25238.59190560  .00004311  00000-0  42871-3 0  9991 | 2 64574  97.7536 351.9133 0001536 195.1924 164.9249 14.92189178  9932 | 2025/08/26-14:12:20  196.1371    0.1219  164.9295   96.5025     6969.2480     6968.1775     6970.3184  96.781571 -13.751137  -0.000152  -0.000019
1 64574U 25135AY  25239.59775905  .00004950  00000-0  49121-3 0  9998 | 2 64574  97.7536 352.9031 0001584 190.8643 169.2542 14.92199176 10084 | 2025/08/27-14:20:46  198.2448    0.1219  169.2576   96.5019     6969.2168     6968.1129     6970.3208  97.004673 -12.077241  -0.000158  -0.000010
1 64574U 25135AY  25241.27415031  .00007552  00000-0  74557-3 0  9999 | 2 64574  97.7536 354.5528 0001622 184.2109 175.9097 14.92242385 10338 | 2025/08/29-06:34:46   81.7462    0.1219  175.9110   96.4991     6969.0823     6967.9519     6970.2127  97.312155  -9.279595  -0.000162   0.000003
1 64574U 25135AY  25242.88343002  .00007862  00000-0  77488-3 0  9995 | 2 64574  97.7535 356.1369 0001644 184.2758 175.8447 14.92295451 10578 | 2025/08/30-21:12:08  301.0890    0.1219  175.8461   96.4956     6968.9171     6967.7714     6970.0628  97.531392  -6.585921  -0.000164  -0.000001
1 64574U 25135AY  25243.88921059  .00006567  00000-0  64727-3 0  9993 | 2 64574  97.7527 357.1264 0001731 180.8202 179.3014 14.92355032 10725 | 2025/08/31-21:20:27  303.1708    0.1218  179.3016   96.4918     6968.7316     6967.5253     6969.9379  97.629782  -4.900612  -0.000173   0.000006
1 64574U 25135AY  25244.89495359  .00006930  00000-0  68255-3 0  9998 | 2 64574  97.7529 358.1165 0001838 182.0987 178.0225 14.92365108 10871 | 2025/09/01-21:28:43  305.2399    0.1219  178.0232   96.4911     6968.7002     6967.4194     6969.9811  97.700086  -3.212879  -0.000184  -0.000001
1 64574U 25135AY  25246.30291402  .00008052  00000-0  78910-3 0  9995 | 2 64574  97.7528 359.5025 0001954 179.1749 180.9474 14.92511513 11087 | 2025/09/03-07:16:11   92.1063    0.1219  180.9470   96.4817     6968.2445     6966.8829     6969.6061  97.749115  -0.848778  -0.000195   0.000005
1 64574U 25135AY  25247.91184673  .00005426  00000-0  53204-3 0  9995 | 2 64574  97.7534   1.0868 0002126 174.5109 185.6134 14.92636522 11329 | 2025/09/04-21:53:03  311.3216    0.1219  185.6110   96.4736     6967.8554     6966.3741     6969.3368  97.735815   1.854099  -0.000212   0.000016
1 64574U 25135AY  25248.91739881  .00005339  00000-0  52351-3 0  9998 | 2 64574  97.7537   2.0770 0002208 170.4065 189.7197 14.92646776 11474 | 2025/09/05-22:01:03  313.3194    0.1219  189.7154   96.4729     6967.8235     6966.2850     6969.3620  97.689478   3.542843  -0.000219   0.000029
1 64574U 25135AY  25249.92294302  .00006522  00000-0  63798-3 0  9996 | 2 64574  97.7541   3.0674 0002314 166.0058 194.1225 14.92660044 11627 | 2025/09/06-22:09:02  315.3139    0.1218  194.1160   96.4721     6967.7822     6966.1699     6969.3946  97.614046   5.230886  -0.000227   0.000044
1 64574U 25135AY  25250.92848088  .00004840  00000-0  47484-3 0  9999 | 2 64574  97.7546   4.0580 0002395 162.0934 198.0370 14.92667105 11772 | 2025/09/07-22:17:00  317.3059    0.1219  198.0285   96.4716     6967.7603     6966.0915     6969.4290  97.509522   6.917728  -0.000233   0.000057
1 64574U 25135AY  25251.93401196  .00004180  00000-0  41076-3 0  9994 | 2 64574  97.7549   5.0485 0002436 158.8064 201.3257 14.92675694 11924 | 2025/09/08-22:24:58  319.2960    0.1220  201.3156   96.4711     6967.7335     6966.0362     6969.4309  97.375666   8.602331  -0.000234   0.000068
1 64574U 25135AY  25252.93953720  .00003592  00000-0  35377-3 0  9993 | 2 64574  97.7551   6.0392 0002492 155.8532 204.2804 14.92683522 12070 | 2025/09/09-22:32:56  321.2840    0.1219  204.2687   96.4705     6967.7092     6965.9728     6969.4455  97.212574  10.284703  -0.000237   0.000077
1 64574U 25135AY  25253.94505693  .00003178  00000-0  31352-3 0  9996 | 2 64574  97.7549   7.0297 0002505 154.6179 205.5163 14.92690254 12220 | 2025/09/10-22:40:52  323.2711    0.1218  205.5039   96.4701     6967.6882     6965.9428     6969.4336  97.020061  11.963619  -0.000238   0.000079
1 64574U 25135AY  25255.62091390  .00002394  00000-0  23749-3 0  9997 | 2 64574  97.7547   8.6805 0002588 151.8886 208.2473 14.92700405 12476 | 2025/09/12-14:54:06  206.5789    0.1219  208.2333   96.4695     6967.6566     6965.8534     6969.4599  96.634950  14.753568  -0.000244   0.000086
1 64574U 25135AY  25256.96159318  .00002393  00000-0  23732-3 0  9991 | 2 64574  97.7545  10.0011 0002647 150.2323 209.9048 14.92707428 12675 | 2025/09/13-23:04:41  329.2231    0.1220  209.8897   96.4690     6967.6348     6965.7905     6969.4791  96.269064  16.976739  -0.000249   0.000090
1 64574U 25135AY  25258.30226470  .00005145  00000-0  50377-3 0  9998 | 2 64574  97.7541  11.3216 0002691 148.5629 211.5752 14.92721479 12875 | 2025/09/15-07:15:15   91.8648    0.1220  211.5591   96.4681     6967.5911     6965.7161     6969.4660  95.851875  19.190676  -0.000253   0.000093
1 64574U 25135AY  25259.57589803  .00003831  00000-0  37649-3 0  9997 | 2 64574  97.7541  12.5760 0002803 145.7445 214.3956 14.92725665 13062 | 2025/09/16-13:49:17  190.3717    0.1220  214.3775   96.4678     6967.5780     6965.6250     6969.5310  95.408789  21.284433  -0.000260   0.000104
1 64574U 25135AY  25260.98358686  .00003562  00000-0  35032-3 0  9992 | 2 64574  97.7544  13.9626 0002929 142.1648 217.9778 14.92735581 13278 | 2025/09/17-23:36:21  337.1381    0.1220  217.9572   96.4672     6967.5472     6965.5064     6969.5880  94.866093  23.587011  -0.000268   0.000119
1 64574U 25135AY  25262.25720160  .00003838  00000-0  37703-3 0  9997 | 2 64574  97.7550  15.2172 0003041 138.0776 222.0677 14.92745525 13463 | 2025/09/19-06:10:22   75.6374    0.1220  222.0444   96.4665     6967.5162     6965.3974     6969.6351  94.327489  25.658621  -0.000272   0.000137
1 64574U 25135AY  25263.26268047  .00004842  00000-0  47399-3 0  9998 | 2 64574  97.7555  16.2078 0003101 135.3372 224.8098 14.92755596 13616 | 2025/09/20-06:18:15   77.6086    0.1220  224.7848   96.4659     6967.4849     6965.3243     6969.6455  93.870276  27.285694  -0.000273   0.000148
1 64574U 25135AY  25264.26815259  .00005838  00000-0  57018-3 0  9997 | 2 64574  97.7560  17.1986 0003161 132.2151 227.9337 14.92767040 13760 | 2025/09/21-06:26:08   79.5770    0.1219  227.9068   96.4652     6967.4493     6965.2469     6969.6517  93.384898  28.904954  -0.000272   0.000161
1 64574U 25135AY  25265.27361644  .00006783  00000-0  66128-3 0  9995 | 2 64574  97.7564  18.1895 0003178 129.3555 230.7947 14.92779723 13914 | 2025/09/22-06:34:00   81.5427    0.1220  230.7665   96.4643     6967.4098     6965.1956     6969.6241  92.871442  30.515718  -0.000268   0.000171
1 64574U 25135AY  25266.34609921  .00008604  00000-0  83672-3 0  9994 | 2 64574  97.7567  19.2465 0003191 126.5567 233.5947 14.92798409 14070 | 2025/09/23-08:18:22  107.6354    0.1220  233.5653   96.4631     6967.3517     6965.1284     6969.5750  92.292996  32.223832  -0.000264   0.000179
1 64574U 25135AY  25267.95479758  .00007887  00000-0  76703-3 0  9994 | 2 64574  97.7565  20.8319 0003112 124.1390 236.0125 14.92825202 14310 | 2025/09/24-22:54:54  326.7669    0.1219  235.9829   96.4614     6967.2683     6965.1001     6969.4365  91.365945  34.764888  -0.000255   0.000179
1 64574U 25135AY  25268.96022039  .00007096  00000-0  69045-3 0  9995 | 2 64574  97.7563  21.8228 0003044 123.0304 237.1209 14.92839554 14461 | 2025/09/25-23:02:43  328.7194    0.1220  237.0916   96.4605     6967.2237     6965.1028     6969.3445  90.750885  36.339661  -0.000249   0.000175
1 64574U 25135AY  25269.96563459  .00006473  00000-0  63014-3 0  9990 | 2 64574  97.7559  22.8136 0003021 121.2781 238.8735 14.92852103 14613 | 2025/09/26-23:10:30  330.6684    0.1220  238.8439   96.4597     6967.1846     6965.0798     6969.2894  90.108568  37.903325  -0.000245   0.000177
1 64574U 25135AY  25270.97104001  .00007214  00000-0  70138-3 0  9996 | 2 64574  97.7558  23.8045 0002997 119.2258 240.9261 14.92866145 14764 | 2025/09/27-23:18:17  332.6141    0.1219  240.8961   96.4587     6967.1409     6965.0529     6969.2290  89.439516  39.455918  -0.000239   0.000180
1 64574U 25135AY  25271.97643505  .00008277  00000-0  80343-3 0  9993 | 2 64574  97.7554  24.7950 0003050 117.0693 243.0838 14.92882649 14913 | 2025/09/28-23:26:03  334.5556    0.1219  243.0526   96.4577     6967.0896     6964.9646     6969.2145  88.743728  40.995962  -0.000240   0.000188
1 64574U 25135AY  25273.24991596  .00009741  00000-0  94375-3 0  9998 | 2 64574  97.7553  26.0500 0003171 114.4986 245.6564 14.92910227 15108 | 2025/09/30-05:59:52   73.0070    0.1219  245.6233   96.4559     6967.0038     6964.7945     6969.2130  87.824452  42.929761  -0.000245   0.000201
1 64574U 25135AY  25274.32230052  .00010610  00000-0  10266-2 0  9994 | 2 64574  97.7553  27.1068 0003277 111.7485 248.4083 14.92937348 15267 | 2025/10/01-07:44:06   99.0639    0.1219  248.3734   96.4541     6966.9194     6964.6363     6969.2025  87.017734  44.542257  -0.000247   0.000216
1 64574U 25135AY  25275.59573493  .00010767  00000-0  10410-2 0  9997 | 2 64574  97.7558  28.3618 0003362 107.9324 252.2262 14.92965172 15459 | 2025/10/02-14:17:51  197.4986    0.1219  252.1895   96.4524     6966.8328     6964.4906     6969.1751  86.021730  46.437683  -0.000243   0.000232
1 64574U 25135AY  25276.60106303  .00009092  00000-0  87972-3 0  9999 | 2 64574  97.7564  29.3528 0003383 105.3083 254.8510 14.92982725 15608 | 2025/10/03-14:25:31  199.4159    0.1219  254.8136   96.4512     6966.7782     6964.4214     6969.1351  85.206230  47.918807  -0.000238   0.000241
1 64574U 25135AY  25277.80744258  .00006920  00000-0  67081-3 0  9995 | 2 64574  97.7571  30.5421 0003378 102.1344 258.0254 14.92999094 15788 | 2025/10/04-19:22:43  273.7118    0.1219  257.9875   96.4502     6966.7273     6964.3740     6969.0807  84.193889  49.677356  -0.000229   0.000248
1 64574U 25135AY  25279.21486925  .00004800  00000-0  46691-3 0  9995 | 2 64574  97.7577  31.9296 0003321  98.5951 261.5644 14.93013992 15999 | 2025/10/06-05:09:24   60.3855    0.1219  261.5268   96.4492     6966.6810     6964.3673     6968.9946  82.966821  51.701785  -0.000216   0.000252
1 64574U 25135AY  25280.28718571  .00004654  00000-0  45278-3 0  9996 | 2 64574  97.7578  32.9871 0003229  96.4255 263.7332 14.93024578 16150 | 2025/10/07-06:53:32   86.4196    0.1219  263.6964   96.4485     6966.6480     6964.3985     6968.8976  81.998575  53.224253  -0.000205   0.000249
1 64574U 25135AY  25281.29247525  .00004830  00000-0  46952-3 0  9990 | 2 64574  97.7580  33.9785 0003172  94.5266 265.6316 14.93035105 16304 | 2025/10/08-07:01:09   88.3238    0.1220  265.5954   96.4478     6966.6153     6964.4055     6968.8251  81.065562  54.635164  -0.000197   0.000248
1 64574U 25135AY  25282.29775836  .00004214  00000-0  41024-3 0  9993 | 2 64574  97.7578  34.9697 0003111  92.6044 267.5532 14.93043915 16455 | 2025/10/09-07:08:46   90.2260    0.1220  267.5176   96.4473     6966.5879     6964.4206     6968.7552  80.108143  56.029214  -0.000190   0.000247
1 64574U 25135AY  25283.30303571  .00004439  00000-0  43178-3 0  9990 | 2 64574  97.7574  35.9609 0003058  90.4275 269.7295 14.93053369 16608 | 2025/10/10-07:16:22   92.1261    0.1220  269.6945   96.4467     6966.5585     6964.4281     6968.6888  79.126592  57.406374  -0.000181   0.000246
1 64574U 25135AY  25284.30830716  .00004534  00000-0  44079-3 0  9994 | 2 64574  97.7572  36.9520 0003060  89.0838 271.0732 14.93062432 16750 | 2025/10/11-07:23:57   94.0235    0.1219  271.0381   96.4461     6966.5303     6964.3985     6968.6620  78.121631  58.766325  -0.000180   0.000247
1 64574U 25135AY  25285.31357133  .00005799  00000-0  56198-3 0  9992 | 2 64574  97.7569  37.9431 0003086  87.8058 272.3515 14.93074853 16906 | 2025/10/12-07:31:32   95.9181    0.1220  272.3162   96.4453     6966.4916     6964.3418     6968.6415  77.093220  60.108626  -0.000180   0.000250
1 64574U 25135AY  25286.31882704  .00006936  00000-0  67083-3 0  9999 | 2 64574  97.7568  38.9342 0003126  86.2410 273.9167 14.93088644 17057 | 2025/10/13-07:39:06   97.8095    0.1220  273.8810   96.4444     6966.4487     6964.2710     6968.6265  76.041904  61.433060  -0.000180   0.000256
1 64574U 25135AY  25287.32407381  .00006157  00000-0  59600-3 0  9996 | 2 64574  97.7569  39.9253 0003174  84.2093 275.9489 14.93100479 17205 | 2025/10/14-07:46:39   99.6975    0.1220  275.9127   96.4436     6966.4119     6964.2008     6968.6231  74.967991  62.739237  -0.000178   0.000263
1 64574U 25135AY  25288.59737478  .00006528  00000-0  63127-3 0  9990 | 2 64574  97.7572  41.1807 0003220  81.1928 278.9656 14.93116584 17397 | 2025/10/15-14:20:13  198.0853    0.1220  278.9292   96.4426     6966.3618     6964.1187     6968.6050  73.575661  64.366857  -0.000172   0.000272
1 64574U 25135AY  25289.60260411  .00006225  00000-0  60205-3 0  9999 | 2 64574  97.7577  42.1721 0003234  78.6029 281.5553 14.93127732 17546 | 2025/10/16-14:27:44  199.9674    0.1219  281.5190   96.4418     6966.3272     6964.0743     6968.5801  72.451321  65.630588  -0.000165   0.000278
1 64574U 25135AY  25290.74185375  .00006750  00000-0  65212-3 0  9997 | 2 64574  97.7582  43.2956 0003209  75.2622 284.8953 14.93141743 17715 | 2025/10/17-17:48:16  250.0974    0.1220  284.8598   96.4409     6966.2836     6964.0481     6968.5191  71.150903  67.038904  -0.000153   0.000282
1 64574U 25135AY  25291.94810506  .00007713  00000-0  74399-3 0  9997 | 2 64574  97.7587  44.4853 0003159  72.0605 288.0958 14.93159162 17893 | 2025/10/18-22:45:16  324.3483    0.1219  288.0614   96.4398     6966.2294     6964.0288     6968.4300  69.744014  68.502087  -0.000141   0.000283
1 64574U 25135AY  25292.95330188  .00007156  00000-0  69040-3 0  9990 | 2 64574  97.7589  45.4769 0003046  69.4644 290.6902 14.93174605 18045 | 2025/10/19-22:52:45  326.2201    0.1219  290.6575   96.4388     6966.1814     6964.0595     6968.3033  68.548225  69.698948  -0.000128   0.000276
1 64574U 25135AY  25293.95848951  .00005762  00000-0  55694-3 0  9994 | 2 64574  97.7590  46.4685 0002934  66.4795 293.6733 14.93186927 18195 | 2025/10/20-23:00:13  328.0886    0.1220  293.6425   96.4380     6966.1431     6964.0992     6968.1869  67.331831  70.874866  -0.000114   0.000270
1 64574U 25135AY  25294.96366962  .00005746  00000-0  55522-3 0  9995 | 2 64574  97.7590  47.4601 0002830  64.0640 296.0871 14.93198505 18344 | 2025/10/21-23:07:41  329.9543    0.1220  296.0580   96.4373     6966.1070     6964.1356     6968.0785  66.095199  72.029485  -0.000104   0.000263
1 64574U 25135AY  25295.96881631  .00010204  00000-0  97892-3 0  9992 | 2 64574  97.7587  48.4518 0002814  60.3779 299.7721 14.93291452 18497 | 2025/10/22-23:15:05  331.8072    0.1220  299.7441   96.4313     6965.8180     6963.8578     6967.7782  64.838445  73.162418  -0.000091   0.000266
1 64574U 25135AY  25297.30896125  .00006210  00000-0  59797-3 0  9990 | 2 64574  97.7589  49.7740 0002671  59.0745 301.0737 14.93307535 18695 | 2025/10/24-07:24:54   94.2599    0.1220  301.0475   96.4302     6965.7680     6963.9074     6967.6285  63.133110  74.639218  -0.000086   0.000253
1 64574U 25135AY  25298.31406119  .00005913  00000-0  56943-3 0  9991 | 2 64574  97.7588  50.7656 0002675  57.9753 302.1727 14.93318938 18849 | 2025/10/25-07:32:14   96.0951    0.1220  302.1467   96.4295     6965.7325     6963.8692     6967.5958  61.831899  75.720533  -0.000086   0.000253
1 64574U 25135AY  25299.52017131  .00005535  00000-0  53327-3 0  9990 | 2 64574  97.7587  51.9555 0002674  56.6479 303.4996 14.93331342 19026 | 2025/10/26-12:29:02  170.2942    0.1219  303.4740   96.4287     6965.6939     6963.8313     6967.5566  60.246078  76.988139  -0.000085   0.000253
1 64574U 25135AY  25300.52525528  .00005823  00000-0  56051-3 0  9994 | 2 64574  97.7587  52.9472 0002684  55.1475 304.9996 14.93342824 19175 | 2025/10/27-12:36:22  172.1238    0.1219  304.9744   96.4280     6965.6582     6963.7886     6967.5278  58.904577  78.019320  -0.000083   0.000255
1 64574U 25135AY  25301.59733647  .00006101  00000-0  58686-3 0  9991 | 2 64574  97.7587  54.0049 0002688  53.0563 307.0903 14.93354655 19332 | 2025/10/28-14:20:09  198.0725    0.1220  307.0657   96.4272     6965.6214     6963.7491     6967.4938  57.454358  79.093363  -0.000079   0.000257
1 64574U 25135AY  25302.93742375  .00006642  00000-0  63809-3 0  9991 | 2 64574  97.7589  55.3270 0002681  50.3436 309.8020 14.93372519 19537 | 2025/10/29-22:29:53  320.5037    0.1220  309.7784   96.4260     6965.5659     6963.6984     6967.4334  55.614259  80.398114  -0.000072   0.000258
1 64574U 25135AY  25303.94247756  .00006590  00000-0  63291-3 0  9993 | 2 64574  97.7590  56.3187 0002640  47.8491 312.2952 14.93386842 19686 | 2025/10/30-22:37:10  322.3233    0.1219  312.2728   96.4251     6965.5213     6963.6825     6967.3602  54.214489  81.348702  -0.000065   0.000256
1 64574U 25135AY  25305.61754782  .00004495  00000-0  43329-3 0  9993 | 2 64574  97.7594  57.9717 0002504  41.1569 318.9839 14.93405170 19939 | 2025/11/01-14:49:16  205.3501    0.1220  318.9651   96.4239     6965.4644     6963.7202     6967.2085  51.845532  82.879075  -0.000040   0.000247
1 64574U 25135AY  25307.82861416  .00004060  00000-0  39175-3 0  9993 | 2 64574  97.7598  60.1538 0002286  33.2854 326.8509 14.93424587 20269 | 2025/11/03-19:53:12  281.3357    0.1220  326.8366   96.4227     6965.4040     6963.8117     6966.9963  48.652463  84.793374  -0.000014   0.000228
1 64574U 25135AY  25308.83363475  .00003899  00000-0  37632-3 0  9992 | 2 64574  97.7599  61.1459 0002174  29.5538 330.5804 14.93433465 20418 | 2025/11/04-20:00:26  283.1437    0.1220  330.5682   96.4221     6965.3764     6963.8621     6966.8907  47.177059  85.623146  -0.000003   0.000217
1 64574U 25135AY  25309.90564958  .00004902  00000-0  47156-3 0  9998 | 2 64574  97.7600  62.2039 0002085  25.9901 334.1423 14.93445431 20572 | 2025/11/05-21:44:08  309.0695    0.1220  334.1319   96.4213     6965.3392     6963.8869     6966.7914  45.588072  86.479739   0.000007   0.000208
1 64574U 25135AY  25310.91065397  .00006641  00000-0  63656-3 0  9999 | 2 64574  97.7601  63.1959 0002008  24.2289 335.9025 14.93460897 20727 | 2025/11/06-21:51:20  310.8706    0.1220  335.8931   96.4203     6965.2911     6963.8925     6966.6897  44.084077  87.256125   0.000009   0.000201
1 64574U 25135AY  25312.18364561  .00006464  00000-0  61950-3 0  9993 | 2 64574  97.7600  64.4523 0001930  23.3190 336.8117 14.93478728 20916 | 2025/11/08-04:24:26   49.1466    0.1220  336.8030   96.4192     6965.2356     6963.8914     6966.5799  42.160209  88.201669   0.000008   0.000193
1 64574U 25135AY  25314.93057671  .00010013  00000-0  95515-3 0  9998 | 2 64574  97.7598  67.1635 0001848  19.7288 340.4003 14.93522925 21321 | 2025/11/10-22:20:01  318.0397    0.1220  340.3932   96.4163     6965.0982     6963.8111     6966.3854  37.940850  90.097006   0.000010   0.000185
1 64574U 25135AY  25316.27051354  .00033677  00000-0  31843-2 0  9993 | 2 64574  97.7598  68.4861 0001856  16.1991 343.9288 14.93581361 21521 | 2025/11/12-06:29:32   80.4163    0.1220  343.9229   96.4126     6964.9166     6963.6239     6966.2092  35.851152  90.948741   0.000017   0.000185
1 64574U 25135AY  25317.27544904  .00018836  00000-0  17872-2 0  9998 | 2 64574  97.7600  69.4781 0001782  14.4021 345.7249 14.93581029 21674 | 2025/11/13-06:36:38   82.1925    0.1220  345.7199   96.4126     6964.9176     6963.6764     6966.1587  34.271271  91.555981   0.000019   0.000177
1 64574U 25135AY  25318.28036390  .00007082  00000-0  67619-3 0  9991 | 2 64574  97.7603  70.4702 0001735   9.3613 350.7639 14.93594078 21824 | 2025/11/14-06:43:43   83.9620    0.1220  350.7607   96.4117     6964.8770     6963.6686     6966.0854  32.680984  92.135930   0.000031   0.000171
1 64574U 25135AY  25319.55324301  .00005798  00000-0  55447-3 0  9992 | 2 64574  97.7603  71.7270 0001663   1.6164 358.5061 14.93609300 22016 | 2025/11/15-13:16:40  182.1990    0.1220  358.5056   96.4108     6964.8297     6963.6715     6965.9880  30.652255  92.830574   0.000048   0.000159
1 64574U 25135AY  25320.55813803  .00006142  00000-0  58679-3 0  9998 | 2 64574  97.7604  72.7192 0001616 354.6326   5.4876 14.93622493 22166 | 2025/11/16-13:23:43  183.9618    0.1220    5.4894   96.4099     6964.7887     6963.6632     6965.9142  29.040207  93.347534   0.000062   0.000149
1 64574U 25135AY  25321.56302492  .00006060  00000-0  57891-3 0  9991 | 2 64574  97.7604  73.7114 0001551 348.2038  11.9145 14.93634903 22315 | 2025/11/17-13:30:45  185.7212    0.1220   11.9182   96.4091     6964.7501     6963.6699     6965.8303  27.419420  93.836407   0.000073   0.000137
1 64574U 25135AY  25322.83587149  .00005561  00000-0  53153-3 0  9998 | 2 64574  97.7605  74.9683 0001478 340.6101  19.5062 14.93648231 22507 | 2025/11/18-20:03:39  283.9457    0.1220   19.5119   96.4082     6964.7087     6963.6793     6965.7381  25.354520  94.415378   0.000084   0.000122
1 64574U 25135AY  25323.84074235  .00005520  00000-0  52752-3 0  9996 | 2 64574  97.7606  75.9606 0001404 336.4668  23.6487 14.93658939 22653 | 2025/11/19-20:10:40  285.6981    0.1220   23.6552   96.4076     6964.6754     6963.6976     6965.6532  23.715653  94.840407   0.000086   0.000111
1 64574U 25135AY  25324.84560853  .00004381  00000-0  41979-3 0  9996 | 2 64574  97.7607  76.9529 0001301 332.3516  27.7634 14.93665241 22802 | 2025/11/20-20:17:40  287.4486    0.1219   27.7703   96.4071     6964.6558     6963.7497     6965.5619  22.069670  95.236989   0.000085   0.000099
1 64574U 25135AY  25325.91745689  .00005345  00000-0  51075-3 0  9996 | 2 64574  97.7608  78.0113 0001181 329.0512  31.0638 14.93677923 22969 | 2025/11/21-22:01:08  313.3121    0.1220   31.0708   96.4063     6964.6164     6963.7939     6965.4389  20.306754  95.628499   0.000080   0.000086
1 64574U 25135AY  25327.19026655  .00004479  00000-0  42879-3 0  9992 | 2 64574  97.7610  79.2681 0001062 325.0863  35.0287 14.93689883 23152 | 2025/11/23-04:33:59   51.5213    0.1220   35.0357   96.4056     6964.5792     6963.8396     6965.3188  18.204434  96.051089   0.000076   0.000074
1 64574U 25135AY  25328.19510856  .00005091  00000-0  48646-3 0  9993 | 2 64574  97.7610  80.2604 0000966 322.6496  37.4656 14.93701413 23303 | 2025/11/24-04:40:57   53.2624    0.1219   37.4723   96.4048     6964.5434     6963.8706     6965.2161  16.538288  96.351949   0.000071   0.000066
1 64574U 25135AY  25329.19994304  .00006343  00000-0  60442-3 0  9997 | 2 64574  97.7610  81.2527 0000891 320.1055  40.0099 14.93714489 23453 | 2025/11/25-04:47:55   55.0007    0.1220   40.0165   96.4040     6964.5027     6963.8822     6965.1233  14.867181  96.623910   0.000067   0.000059
1 64574U 25135AY  25330.20476839  .00006430  00000-0  61240-3 0  9993 | 2 64574  97.7610  82.2450 0000830 314.6494  45.4658 14.93727168 23602 | 2025/11/26-04:54:51   56.7361    0.1220   45.4726   96.4031     6964.4633     6963.8853     6965.0414  13.191615  96.866890   0.000066   0.000050
1 64574U 25135AY  25331.20958547  .00005407  00000-0  51581-3 0  9995 | 2 64574  97.7610  83.2372 0000820 307.8168  52.2977 14.93738099 23758 | 2025/11/27-05:01:48   58.4692    0.1219   52.3051   96.4024     6964.4293     6963.8582     6965.0004  11.512262  97.080796   0.000070   0.000042
1 64574U 25135AY  25332.61631736  .00004027  00000-0  38544-3 0  9990 | 2 64574  97.7608  84.6265 0000895 296.0736  64.0392 14.93750512 23962 | 2025/11/28-14:47:29  204.8916    0.1220   64.0484   96.4016     6964.3907     6963.7674     6965.0141   9.155088  97.331179   0.000084   0.000032
1 64574U 25135AY  25333.82207779  .00003634  00000-0  34828-3 0  9994 | 2 64574  97.7607  85.8173 0000929 285.7185  74.3933 14.93761387 24141 | 2025/11/29-19:43:47  278.9640    0.1221   74.4036   96.4009     6964.3569     6963.7100     6965.0039   7.130378  97.500319   0.000091   0.000019
1 64574U 25135AY  25334.82687130  .00003847  00000-0  36833-3 0  9992 | 2 64574  97.7606  86.8098 0000994 276.9839  83.1267 14.93771110 24296 | 2025/11/30-19:50:41  280.6887    0.1219   83.1380   96.4003     6964.3267     6963.6345     6965.0190   5.440449  97.609100   0.000099   0.000007
1 64574U 25135AY  25335.89864442  .00004513  00000-0  43096-3 0  9993 | 2 64574  97.7606  87.8683 0001063 269.0872  91.0226 14.93782157 24459 | 2025/12/01-21:34:02  306.5257    0.1220   91.0348   96.3996     6964.2924     6963.5521     6965.0327   3.636362  97.692946   0.000106  -0.000006
1 64574U 25135AY  25337.17136375  .00006043  00000-0  57490-3 0  9996 | 2 64574  97.7609  89.1257 0001118 260.7550  99.3544 14.93798761 24649 | 2025/12/03-04:06:45   44.7021    0.1220   99.3670   96.3985     6964.2408     6963.4622     6965.0194   1.491716  97.749518   0.000110  -0.000020
1 64574U 25135AY  25338.24311587  .00010497  00000-0  99353-3 0  9997 | 2 64574  97.7611  90.1844 0001150 253.6362 106.4731 14.93819525 24802 | 2025/12/04-05:50:05   70.5307    0.1219  106.4857   96.3972     6964.1762     6963.3754     6964.9771  -0.314633  97.760594   0.000110  -0.000032
1 64574U 25135AY  25339.24787037  .00009501  00000-0  89955-3 0  9996 | 2 64574  97.7612  91.1770 0001120 244.6410 115.4694 14.93836313 24951 | 2025/12/05-05:56:55   72.2389    0.1220  115.4810   96.3961     6964.1241     6963.3441     6964.9041  -2.008121  97.740573   0.000102  -0.000046
1 64574U 25135AY  25340.25261397  .00008200  00000-0  77695-3 0  9998 | 2 64574  97.7613  92.1695 0001098 236.7898 123.3217 14.93851295 25108 | 2025/12/06-06:03:45   73.9433    0.1220  123.3322   96.3951     6964.0775     6963.3129     6964.8422  -3.700839  97.691226   0.000094  -0.000057
1 64574U 25135AY  25341.25734781  .00007732  00000-0  73270-3 0  9995 | 2 64574  97.7613  93.1619 0001072 227.7789 132.3340 14.93865544 25251 | 2025/12/07-06:10:34   75.6440    0.1220  132.3431   96.3942     6964.0332     6963.2867     6964.7798  -5.392275  97.612474   0.000083  -0.000068
1 64574U 25135AY  25342.26207233  .00007125  00000-0  67544-3 0  9997 | 2 64574  97.7613  94.1543 0001062 220.5264 139.5877 14.93878843 25403 | 2025/12/08-06:17:23   77.3416    0.1220  139.5956   96.3934     6963.9919     6963.2523     6964.7315  -7.082093  97.504440   0.000075  -0.000076
1 64574U 25135AY  25343.26678745  .00007609  00000-0  72063-3 0  9997 | 2 64574  97.7612  95.1468 0001058 213.3692 146.7461 14.93893487 25555 | 2025/12/09-06:24:10   79.0356    0.1219  146.7527   96.3924     6963.9464     6963.2096     6964.6832  -8.769947  97.367039   0.000066  -0.000083
1 64574U 25135AY  25344.27149240  .00007772  00000-0  73568-3 0  9994 | 2 64574  97.7612  96.1392 0001093 208.9805 151.1355 14.93908273 25706 | 2025/12/10-06:30:56   80.7266    0.1220  151.1415   96.3915     6963.9004     6963.1393     6964.6616 -10.455007  97.200540   0.000063  -0.000089
1 64574U 25135AY  25345.27618486  .00017367  00000-0  16337-2 0  9999 | 2 64574  97.7611  97.1317 0001111 205.5979 154.5186 14.93940619 25854 | 2025/12/11-06:37:42   82.4131    0.1220  154.5241   96.3894     6963.7999     6963.0262     6964.5736 -12.137088  97.004762   0.000060  -0.000093
1 64574U 25135AY  25346.28086837  .00006092  00000-0  57739-3 0  9995 | 2 64574  97.7609  98.1242 0001203 202.3151 157.8017 14.93941565 26006 | 2025/12/12-06:44:27   84.0967    0.1220  157.8069   96.3893     6963.7970     6962.9592     6964.6347 -13.815509  96.779777   0.000061  -0.000104
1 64574U 25135AY  25347.28553988  .00006774  00000-0  64118-3 0  9998 | 2 64574  97.7609  99.1170 0001257 201.7788 158.3379 14.93956640 26158 | 2025/12/13-06:51:10   85.7760    0.1220  158.3432   96.3883     6963.7501     6962.8748     6964.6255 -15.490315  96.525871   0.000065  -0.000108
1 64574U 25135AY  25348.29020394  .00004702  00000-0  44669-3 0  9998 | 2 64574  97.7609 100.1097 0001348 201.2351 158.8813 14.93965025 26303 | 2025/12/14-06:57:53   87.4529    0.1220  158.8869   96.3878     6963.7241     6962.7854     6964.6628 -17.160303  96.243013   0.000070  -0.000115
1 64574U 25135AY  25349.36184046  .00002874  00000-0  27512-3 0  9998 | 2 64574  97.7608 101.1684 0001461 199.9164 160.1999 14.93970350 26461 | 2025/12/15-08:41:03  113.2397    0.1220  160.2056   96.3875     6963.7075     6962.6901     6964.7249 -18.935612  95.909419   0.000075  -0.000125
1 64574U 25135AY  25350.96928617  .00003176  00000-0  30337-3 0  9991 | 2 64574  97.7609 102.7567 0001612 195.2803 164.8369 14.93981663 26704 | 2025/12/16-23:15:46  331.9153    0.1220  164.8417   96.3867     6963.6724     6962.5498     6964.7949 -21.586730  95.347819   0.000076  -0.000142
1 64574U 25135AY  25352.30881587  .00003353  00000-0  31989-3 0  9996 | 2 64574  97.7610 104.0803 0001749 190.7842 169.3341 14.93990872 26902 | 2025/12/18-07:24:41   94.1416    0.1220  169.3378   96.3861     6963.6438     6962.4258     6964.8617 -23.783445  94.823841   0.000074  -0.000159
1 64574U 25135AY  25353.58136086  .00003074  00000-0  29368-3 0  9992 | 2 64574  97.7612 105.3377 0001865 184.3133 175.8071 14.93999484 27096 | 2025/12/19-13:57:09  192.2526    0.1220  175.8087   96.3856     6963.6170     6962.3183     6964.9157 -25.858586  94.279296   0.000063  -0.000176
1 64574U 25135AY  25354.58599685  .00003151  00000-0  30085-3 0  9995 | 2 64574  97.7612 106.3304 0001944 179.2609 180.8614 14.94006253 27246 | 2025/12/20-14:03:50  193.9171    0.1220  180.8611   96.3851     6963.5960     6962.2422     6964.9497 -27.488096  93.817146   0.000052  -0.000187
1 64574U 25135AY  25355.59062821  .00003791  00000-0  36077-3 0  9991 | 2 64574  97.7613 107.3231 0002022 174.4704 185.6539 14.94014964 27391 | 2025/12/21-14:10:30  195.5800    0.1220  185.6516   96.3846     6963.5689     6962.1609     6964.9769 -29.109383  93.326928   0.000041  -0.000198
1 64574U 25135AY  25356.59525306  .00004898  00000-0  46442-3 0  9990 | 2 64574  97.7614 108.3157 0002091 169.4692 190.6572 14.94025364 27542 | 2025/12/22-14:17:09  197.2404    0.1220  190.6528   96.3839     6963.5366     6962.0805     6964.9926 -30.721774  92.808749   0.000028  -0.000207
1 64574U 25135AY  25357.86776691  .00005199  00000-0  49237-3 0  9996 | 2 64574  97.7615 109.5730 0002168 164.0414 196.0875 14.94039298 27739 | 2025/12/23-20:49:35  295.3398    0.1220  196.0806   96.3830     6963.4933     6961.9836     6965.0030 -32.750845  92.112393   0.000014  -0.000216
1 64574U 25135AY  25358.87237345  .00005198  00000-0  49218-3 0  9994 | 2 64574  97.7616 110.5658 0002227 160.9442 199.1862 14.94051355 27887 | 2025/12/24-20:56:13  296.9941    0.1220  199.1778   96.3822     6963.4558     6961.9051     6965.0066 -34.341973  91.531193   0.000006  -0.000223
1 64574U 25135AY  25359.87697168  .00005181  00000-0  49044-3 0  9997 | 2 64574  97.7614 111.5583 0002243 158.3813 201.7502 14.94063932 28037 | 2025/12/25-21:02:50  298.6460    0.1220  201.7407   96.3814     6963.4167     6961.8548     6964.9786 -35.922208  90.922419  -0.000000  -0.000224
1 64574U 25135AY  25360.88156175  .00004676  00000-0  44301-3 0  9997 | 2 64574  97.7612 112.5510 0002270 156.7411 203.3912 14.94075137 28181 | 2025/12/26-21:09:26  300.2951    0.1220  203.3809   96.3807     6963.3819     6961.8012     6964.9626 -37.491972  90.286235  -0.000003  -0.000227
1 64574U 25135AY  25361.88614368  .00005118  00000-0  48424-3 0  9993 | 2 64574  97.7609 113.5438 0002274 155.7446 204.3881 14.94087868 28335 | 2025/12/27-21:16:02  301.9416    0.1219  204.3773   96.3799     6963.3424     6961.7589     6964.9258 -39.050592  89.622792  -0.000003  -0.000227
1 64574U 25135AY  25362.89071797  .00005522  00000-0  52181-3 0  9992 | 2 64574  97.7607 114.5366 0002292 154.6193 205.5140 14.94100123 28488 | 2025/12/28-21:22:38  303.5851    0.1220  205.5027   96.3791     6963.3043     6961.7083     6964.9003 -40.597519  88.932536  -0.000003  -0.000229
1 64574U 25135AY  25363.89528216  .00006879  00000-0  64840-3 0  9997 | 2 64574  97.7604 115.5294 0002287 153.9443 206.1892 14.94116317 28630 | 2025/12/29-21:29:12  305.2253    0.1219  206.1776   96.3780     6963.2540     6961.6615     6964.8465 -42.132208  88.215491  -0.000002  -0.000229
1 64574U 25135AY  25364.89983640  .00007629  00000-0  71814-3 0  9997 | 2 64574  97.7604 116.5223 0002327 152.7657 207.3686 14.94132455 28783 | 2025/12/30-21:35:45  306.8613    0.1220  207.3563   96.3770     6963.2038     6961.5835     6964.8242 -43.654525  87.472157  -0.000003  -0.000233
1 64574U 25135AY  25365.90437970  .00008362  00000-0  78619-3 0  9995 | 2 64574  97.7605 117.5152 0002366 151.1337 209.0014 14.94149509 28936 | 2025/12/31-21:42:18  308.4933    0.1220  208.9883   96.3759     6963.1508     6961.5034     6964.7983 -45.163778  86.702644  -0.000006  -0.000237
1 64574U 25135AY  26001.90891148  .00009138  00000-0  85820-3 0  9998 | 2 64574  97.7607 118.5081 0002369 148.4044 211.7318 14.94167638 29084 | 2026/01/01-21:48:49  310.1209    0.1219  211.7175   96.3747     6963.0945     6961.4450     6964.7441 -46.659520  85.907181  -0.000013  -0.000237
1 64574U 25135AY  26002.91343308  .00008071  00000-0  75844-3 0  9990 | 2 64574  97.7609 119.5011 0002509 145.6645 214.4738 14.94181946 29233 | 2026/01/02-21:55:20  311.7436    0.1220  214.4575   96.3738     6963.0501     6961.3030     6964.7971 -48.141404  85.085832  -0.000021  -0.000250
1 64574U 25135AY  26003.91794237  .00008170  00000-0  76726-3 0  9992 | 2 64574  97.7610 120.4938 0002620 141.5174 218.6233 14.94199410 29387 | 2026/01/03-22:01:50  313.3620    0.1220  218.6046   96.3727     6962.9958     6961.1715     6964.8201 -49.608343  84.239097  -0.000036  -0.000259
1 64574U 25135AY  26004.92244282  .00006281  00000-0  59113-3 0  9996 | 2 64574  97.7610 121.4865 0002724 138.1516 221.9913 14.94210939 29533 | 2026/01/04-22:08:19  314.9773    0.1220  221.9704   96.3719     6962.9600     6961.0633     6964.8567 -51.060341  83.366988  -0.000049  -0.000268
1 64574U 25135AY  26006.19479684  .00006282  00000-0  59089-3 0  9996 | 2 64574  97.7610 122.7441 0002835 133.8464 226.2991 14.94228223 29724 | 2026/01/06-04:40:30   53.0187    0.1220  226.2756   96.3708     6962.9063     6960.9323     6964.8803 -52.877738  82.226260  -0.000066  -0.000276
1 64574U 25135AY  26007.19927735  .00005628  00000-0  52990-3 0  9999 | 2 64574  97.7610 123.7368 0002916 130.4538 229.6937 14.94239914 29870 | 2026/01/07-04:46:57   54.6270    0.1220  229.6682   96.3701     6962.8700     6960.8396     6964.9004 -54.294373  81.297811  -0.000079  -0.000281
1 64574U 25135AY  26008.20375042  .00004888  00000-0  46084-3 0  9994 | 2 64574  97.7610 124.7296 0002937 127.5628 232.5859 14.94249786 30024 | 2026/01/08-04:53:24   56.2334    0.1220  232.5592   96.3694     6962.8393     6960.7943     6964.8843 -55.694850  80.344861  -0.000089  -0.000280
1 64574U 25135AY  26009.20821493  .00004870  00000-0  45902-3 0  9990 | 2 64574  97.7610 125.7225 0002949 124.9500 235.1998 14.94261600 30178 | 2026/01/09-04:59:49   57.8366    0.1221  235.1721   96.3687     6962.8026     6960.7493     6964.8559 -57.078744  79.367689  -0.000098  -0.000278
1 64574U 25135AY  26010.94927044  .00004423  00000-0  41716-3 0  9995 | 2 64574  97.7607 127.4436 0002918 121.0248 239.1259 14.94279475 30432 | 2026/01/10-22:46:56  324.6107    0.1220  239.0972   96.3675     6962.7471     6960.7154     6964.7788 -59.436568  77.617323  -0.000107  -0.000271
1 64574U 25135AY  26011.95371670  .00004453  00000-0  41989-3 0  9990 | 2 64574  97.7606 128.4365 0002885 119.6514 240.4994 14.94289094 30580 | 2026/01/11-22:53:21  326.2084    0.1220  240.4706   96.3669     6962.7172     6960.7085     6964.7260 -60.772574  76.575643  -0.000108  -0.000268
1 64574U 25135AY  26012.95815847  .00002761  00000-0  26241-3 0  9994 | 2 64574  97.7604 129.4294 0002855 118.6945 241.4563 14.94293373 30739 | 2026/01/12-22:59:44  327.8045    0.1221  241.4276   96.3666     6962.7039     6960.7161     6964.6918 -62.090264  75.510893  -0.000106  -0.000265
1 64574U 25135AY  26013.96259733  .00002301  00000-0  21954-3 0  9998 | 2 64574  97.7605 130.4223 0002848 117.5253 242.6256 14.94297626 30889 | 2026/01/13-23:06:08  329.3996    0.1219  242.5966   96.3663     6962.6907     6960.7077     6964.6737 -63.389497  74.423700  -0.000107  -0.000264
1 64574U 25135AY  26014.96703301  .00002006  00000-0  19201-3 0  9998 | 2 64574  97.7604 131.4152 0002849 116.2321 243.9192 14.94302271 31037 | 2026/01/14-23:12:31  330.9931    0.1220  243.8899   96.3660     6962.6763     6960.6926     6964.6599 -64.669564  73.314005  -0.000108  -0.000263
1 64574U 25135AY  26016.30627648  .00002802  00000-0  26610-3 0  9993 | 2 64574  97.7605 132.7391 0002861 114.2682 245.8837 14.94310503 31235 | 2026/01/16-07:21:02   93.1163    0.1220  245.8538   96.3655     6962.6507     6960.6587     6964.6427 -66.346242  71.800359  -0.000112  -0.000263
1 64574U 25135AY  26017.31070388  .00004108  00000-0  38747-3 0  9993 | 2 64574  97.7605 133.7321 0002879 112.8357 247.3167 14.94318678 31381 | 2026/01/17-07:27:24   94.7067    0.1220  247.2863   96.3650     6962.6253     6960.6208     6964.6299 -67.580597  70.639779  -0.000114  -0.000264
1 64574U 25135AY  26018.58297037  .00004575  00000-0  43077-3 0  9995 | 2 64574  97.7606 134.9897 0002977 110.3488 249.8052 14.94329606 31574 | 2026/01/18-13:59:28  192.7174    0.1220  249.7732   96.3643     6962.5914     6960.5186     6964.6641 -69.114755  69.139609  -0.000124  -0.000271
1 64574U 25135AY  26019.58738455  .00005876  00000-0  55157-3 0  9997 | 2 64574  97.7607 135.9826 0003059 108.0053 252.1501 14.94341232 31724 | 2026/01/19-14:05:50  194.3022    0.1220  252.1167   96.3635     6962.5553     6960.4254     6964.6851 -70.302536  67.931642  -0.000134  -0.000275
1 64574U 25135AY  26020.92657948  .00014494  00000-0  13497-2 0  9990 | 2 64574  97.7608 137.3066 0003180 104.6484 255.5089 14.94379601 31923 | 2026/01/20-22:14:16  316.4065    0.1220  255.4736   96.3611     6962.4361     6960.2220     6964.6501 -71.853475  66.289155  -0.000150  -0.000281
1 64574U 25135AY  26022.26574241  .00008139  00000-0  76042-3 0  9998 | 2 64574  97.7608 138.6303 0003257 100.5333 259.6255 14.94406048 32123 | 2026/01/22-06:22:40   78.4999    0.1221  259.5888   96.3594     6962.3539     6960.0863     6964.6216 -73.365637  64.611588  -0.000167  -0.000280
1 64574U 25135AY  26023.60488719  .00007964  00000-0  74385-3 0  9994 | 2 64574  97.7609 139.9542 0003270  96.7712 263.3881 14.94426751 32327 | 2026/01/23-14:31:02  200.5875    0.1221  263.3509   96.3580     6962.2896     6960.0130     6964.5663 -74.838939  62.899339  -0.000179  -0.000273
1 64574U 25135AY  26024.94401321  .00008258  00000-0  77065-3 0  9991 | 2 64574  97.7608 141.2783 0003224  92.7669 267.3921 14.94448172 32527 | 2026/01/24-22:39:22  322.6690    0.1221  267.3552   96.3566     6962.2231     6959.9785     6964.4677 -76.272346  61.153114  -0.000189  -0.000261
1 64574U 25135AY  26025.94834398  .00007655  00000-0  71455-3 0  9993 | 2 64574  97.7605 142.2714 0003173  90.1595 269.9989 14.94464251 32676 | 2026/01/25-22:45:36  324.2255    0.1220  269.9625   96.3556     6962.1732     6959.9641     6964.3823 -77.320557  59.821792  -0.000193  -0.000251
1 64574U 25135AY  26027.28743565  .00006995  00000-0  65314-3 0  9990 | 2 64574  97.7602 143.5957 0003065  87.2467 272.9104 14.94484038 32871 | 2026/01/27-06:53:54   86.2953    0.1220  272.8753   96.3543     6962.1117     6959.9778     6964.2456 -78.682225  58.018654  -0.000194  -0.000238
1 64574U 25135AY  26028.89432360  .00007023  00000-0  65532-3 0  9991 | 2 64574  97.7600 145.1846 0002903  83.2625 276.8925 14.94506594 33110 | 2026/01/28-21:27:49  304.7720    0.1220  276.8595   96.3529     6962.0417     6960.0206     6964.0627 -80.260548  55.814533  -0.000193  -0.000217
1 64574U 25135AY  26030.16642625  .00006516  00000-0  60822-3 0  9994 | 2 64574  97.7600 146.4427 0002795  80.3204 279.8332 14.94523460 33306 | 2026/01/30-03:59:39   42.7261    0.1220  279.8016   96.3518     6961.9893     6960.0434     6963.9352 -81.466676  54.038859  -0.000191  -0.000204
1 64574U 25135AY  26031.23765998  .00004523  00000-0  42382-3 0  9999 | 2 64574  97.7602 147.5021 0002725  78.6073 281.5453 14.94533699 33463 | 2026/01/31-05:42:13   68.3677    0.1220  281.5147   96.3511     6961.9575     6960.0603     6963.8546 -82.452042  52.523495  -0.000189  -0.000196
1 64574U 25135AY  26032.30888595  .00004260  00000-0  39932-3 0  9992 | 2 64574  97.7602 148.5614 0002721  77.6063 282.5462 14.94544866 33623 | 2026/02/01-07:24:47   94.0057    0.1221  282.5158   96.3504     6961.9228     6960.0285     6963.8171 -83.408964  50.990210  -0.000188  -0.000196
1 64574U 25135AY  26033.31315365  .00004678  00000-0  43787-3 0  9990 | 2 64574  97.7602 149.5543 0002734  75.9399 284.2125 14.94555790 33771 | 2026/02/02-07:30:56   95.5392    0.1220  284.1821   96.3497     6961.8889     6959.9855     6963.7923 -84.280024  49.537201  -0.000192  -0.000195
1 64574U 25135AY  26034.45131380  .00005565  00000-0  51962-3 0  9999 | 2 64574  97.7603 150.6797 0002779  73.9952 286.1574 14.94570337 33940 | 2026/02/03-10:49:53  145.2730    0.1220  286.1268   96.3488     6961.8437     6959.9090     6963.7784 -85.236798  47.872378  -0.000198  -0.000195
1 64574U 25135AY  26035.52251358  .00005920  00000-0  55224-3 0  9996 | 2 64574  97.7603 151.7390 0002819  72.4915 287.6613 14.94584150 34106 | 2026/02/04-12:32:25  170.9013    0.1220  287.6305   96.3479     6961.8008     6959.8383     6963.7633 -86.107258  46.288405  -0.000202  -0.000197
1 64574U 25135AY  26036.52675308  .00008456  00000-0  78594-3 0  9994 | 2 64574  97.7602 152.7320 0002886  71.1923 288.9610 14.94601921 34251 | 2026/02/05-12:38:31  172.4238    0.1220  288.9297   96.3467     6961.7456     6959.7365     6963.7548 -86.896427  44.789147  -0.000208  -0.000200
1 64574U 25135AY  26037.53098159  .00009473  00000-0  87929-3 0  9991 | 2 64574  97.7603 153.7251 0002923  69.0043 291.1490 14.94619591 34408 | 2026/02/06-12:44:36  173.9428    0.1221  291.1178   96.3456     6961.6908     6959.6559     6963.7257 -87.659749  43.276375  -0.000215  -0.000198
1 64574U 25135AY  26038.60215093  .00006608  00000-0  61505-3 0  9997 | 2 64574  97.7603 154.7846 0002920  65.9550 294.1976 14.94628593 34565 | 2026/02/07-14:27:05  199.5608    0.1221  294.1671   96.3450     6961.6628     6959.6300     6963.6956 -88.444973  41.648085  -0.000221  -0.000191
1 64574U 25135AY  26039.87415179  .00005454  00000-0  50848-3 0  9990 | 2 64574  97.7604 156.0426 0002885  63.0536 297.0979 14.94641633 34754 | 2026/02/08-20:58:46  297.4779    0.1221  297.0685   96.3442     6961.6223     6959.6139     6963.6307 -89.338109  39.696324  -0.000224  -0.000182
1 64574U 25135AY  26040.94529988  .00005045  00000-0  47061-3 0  9993 | 2 64574  97.7605 157.1021 0002834  59.7103 300.4398 14.94653769 34919 | 2026/02/09-22:41:13  323.0889    0.1221  300.4118   96.3434     6961.5846     6959.6117     6963.5575 -90.056940  38.037651  -0.000227  -0.000170
1 64574U 25135AY  26042.28422451  .00004394  00000-0  41050-3 0  9997 | 2 64574  97.7603 158.4263 0002718  55.6265 304.5212 14.94666618 35114 | 2026/02/11-06:49:16   85.0997    0.1220  304.4955   96.3426     6961.5447     6959.6526     6963.4369 -90.911738  35.946240  -0.000225  -0.000152
1 64574U 25135AY  26043.28840929  .00004912  00000-0  45812-3 0  9998 | 2 64574  97.7602 159.4197 0002618  51.9919 308.1537 14.94678279 35266 | 2026/02/12-06:55:18   86.6047    0.1220  308.1301   96.3418     6961.5085     6959.6860     6963.3310 -91.521188  34.364644  -0.000223  -0.000136
1 64574U 25135AY  26044.29258878  .00004228  00000-0  39501-3 0  9994 | 2 64574  97.7602 160.4130 0002502  48.5932 311.5504 14.94685693 35411 | 2026/02/13-07:01:19   88.1078    0.1221  311.5289   96.3413     6961.4855     6959.7437     6963.2273 -92.103163  32.772916  -0.000219  -0.000121
1 64574U 25135AY  26045.29676280  .00004689  00000-0  43730-3 0  9996 | 2 64574  97.7602 161.4062 0002378  45.8437 314.2978 14.94695231 35567 | 2026/02/14-07:07:20   89.6091    0.1220  314.2783   96.3407     6961.4559     6959.8005     6963.1113 -92.657403  31.171500  -0.000211  -0.000109
1 64574U 25135AY  26046.30093248  .00003872  00000-0  36207-3 0  9990 | 2 64574  97.7603 162.3994 0002286  41.5830 318.5564 14.94700846 35714 | 2026/02/15-07:13:20   91.1088    0.1221  318.5391   96.3403     6961.4385     6959.8471     6963.0298 -93.183896  29.560747  -0.000209  -0.000093
1 64574U 25135AY  26047.30509469  .00005319  00000-0  49510-3 0  9997 | 2 64574  97.7603 163.3928 0002171  39.8505 320.2875 14.94712922 35863 | 2026/02/16-07:19:20   92.6049    0.1221  320.2716   96.3396     6961.4010     6959.8896     6962.9123 -93.682392  27.940753  -0.000199  -0.000086
1 64574U 25135AY  26048.30925132  .00005809  00000-0  54011-3 0  9993 | 2 64574  97.7605 164.3860 0002091  37.9070 322.2298 14.94722991 36014 | 2026/02/17-07:25:19   94.0991    0.1221  322.2151   96.3389     6961.3697     6959.9141     6962.8253 -94.152828  26.312743  -0.000193  -0.000079
1 64574U 25135AY  26049.31340244  .00004619  00000-0  43051-3 0  9990 | 2 64574  97.7605 165.3792 0002036  36.9362 323.1998 14.94729382 36165 | 2026/02/18-07:31:17   95.5908    0.1220  323.1858   96.3385     6961.3499     6959.9325     6962.7672 -94.594780  24.676769  -0.000188  -0.000077
1 64574U 25135AY  26050.31754784  .00004167  00000-0  38890-3 0  9993 | 2 64574  97.7606 166.3723 0002005  36.3672 323.7685 14.94737340 36314 | 2026/02/19-07:37:16   97.0801    0.1221  323.7549   96.3380     6961.3251     6959.9294     6962.7209 -95.008366  23.033569  -0.000185  -0.000078
1 64574U 25135AY  26051.65639976  .00004258  00000-0  39711-3 0  9990 | 2 64574  97.7605 167.6966 0001950  37.1340 323.0015 14.94748439 36518 | 2026/02/20-15:45:12  219.0623    0.1221  322.9881   96.3373     6961.2907     6959.9332     6962.6481 -95.515228  20.831625  -0.000177  -0.000082
1 64574U 25135AY  26052.79441627  .00004556  00000-0  42444-3 0  9998 | 2 64574  97.7606 168.8222 0001936  36.0016 324.1334 14.94758478 36687 | 2026/02/21-19:03:57  268.7449    0.1220  324.1204   96.3366     6961.2595     6959.9118     6962.6072 -95.906115  18.951308  -0.000176  -0.000081
1 64574U 25135AY  26053.93242409  .00005725  00000-0  53171-3 0  9990 | 2 64574  97.7606 169.9481 0001938  33.7215 326.4129 14.94771834 36850 | 2026/02/22-22:22:41  318.4240    0.1221  326.4006   96.3358     6961.2180     6959.8690     6962.5671 -96.259980  17.063152  -0.000177  -0.000078
1 64574U 25135AY  26054.93654030  .00005359  00000-0  49793-3 0  9996 | 2 64574  97.7607 170.9416 0001892  31.8635 328.2700 14.94781906 37009 | 2026/02/23-22:28:37  319.9030    0.1221  328.2586   96.3351     6961.1868     6959.8697     6962.5038 -96.541466  15.391553  -0.000174  -0.000073
1 64574U 25135AY  26055.94064927  .00004590  00000-0  42723-3 0  9990 | 2 64574  97.7609 171.9352 0001824  29.6189 330.5135 14.94790920 37155 | 2026/02/24-22:34:32  321.3794    0.1221  330.5032   96.3345     6961.1588     6959.8891     6962.4285 -96.794048  13.715168  -0.000170  -0.000067
1 64574U 25135AY  26057.21251116  .00004227  00000-0  39371-3 0  9992 | 2 64574  97.7610 173.1937 0001753  24.6438 335.4866 14.94802957 37343 | 2026/02/26-05:06:00   59.2468    0.1221  335.4783   96.3338     6961.1214     6959.9011     6962.3417 -97.072028  11.585964  -0.000167  -0.000054
1 64574U 25135AY  26058.28354391  .00004609  00000-0  42873-3 0  9994 | 2 64574  97.7612 174.2535 0001665  19.8178 340.3107 14.94814860 37507 | 2026/02/27-06:48:18   84.8163    0.1221  340.3043   96.3330     6961.0845     6959.9254     6962.2435 -97.269914   9.788563  -0.000162  -0.000040
1 64574U 25135AY  26059.28763146  .00004394  00000-0  40886-3 0  9990 | 2 64574  97.7611 175.2469 0001589  13.8970 346.2294 14.94823209 37657 | 2026/02/28-06:54:11   86.2862    0.1221  346.2251   96.3325     6961.0585     6959.9524     6962.1647 -97.424902   8.100693  -0.000157  -0.000025
1 64574U 25135AY  26060.29171360  .00004258  00000-0  39630-3 0  9998 | 2 64574  97.7612 176.2404 0001536   7.9719 352.1525 14.94831563 37807 | 2026/03/01-07:00:04   87.7540    0.1220  352.1501   96.3319     6961.0326     6959.9634     6962.1018 -97.550813   6.410233  -0.000153  -0.000011
1 64574U 25135AY  26061.56354198  .00005107  00000-0  47405-3 0  9994 | 2 64574  97.7613 177.4988 0001424 359.8398   0.2822 14.94844023 37992 | 2026/03/02-13:31:30  185.6098    0.1221    0.2823   96.3311     6960.9939     6960.0027     6961.9852 -97.668164   4.266334  -0.000142   0.000007
1 64574U 25135AY  26062.56761001  .00005264  00000-0  48836-3 0  9993 | 2 64574  97.7613 178.4922 0001330 353.1032   7.0170 14.94853645 38148 | 2026/03/03-13:37:21  187.0723    0.1221    7.0189   96.3305     6960.9641     6960.0383     6961.8899 -97.727450   2.572397  -0.000132   0.000019
