# SPACE DATA - HISTORICAL TLEs
# ----------------------------
# NORAD_ID    : 65567
# OBJECT_NAME : PRAETORIAN SDA_604
# --------------------------------------------------------------------+-----------------------------------------------------------------------+----------------------------------------------------------------------------------------------------------------------------------------
#                  LINE 1                                             |                 LINE 2                                                |      DERIVED PARAMETERS
# --------------------------------------------------------------------+-----------------------------------------------------------------------+----------------------------------------------------------------------------------------------------------------------------------------
# NORAD  COSPAR     TLE_EPOCH      MEANMOT1 MEANMOT2   BSTAR  #  REV  |   NORAD    INC     RAAN     ECC    ARGPER  MEANANOM   MEANMOT     REV |  CAL_DATE              LONG     ARGLAT     PERIOD        SMA         PERIGEE        APOGEE      INC_X      INC_Y      ECC_X      ECC_Y
# ------ ------   -------------- ----------  -------  ------- -- ----     -----  ------- -------- ------- -------- -------- -----------  ----   ------------------- ---------  --------  --------  ------------  ------------   ----------- ---------- ----------  ---------  ---------   
1 65569U 25203E   25266.58335648 -.00046455  00000-0 -41576-1 0  9996 | 2 65569  81.3020 257.7669 0006645 187.7503 241.4031 13.84707605  1301 | 2025/09/23-14:00:01  245.7594   69.0866  241.3363  103.9931     7325.3738     7320.5061     7330.2415 -17.227033 -79.455928   0.000052   0.000662
1 65569U 25203E   25267.87012178  .00000099  00000-0  77230-4 0  9990 | 2 65569  81.3012 256.5746 0006711 184.4531 175.6567 13.84687358  1982 | 2025/09/24-20:52:58   60.4991    0.1156  175.6625  103.9946     7325.4452     7320.5291     7330.3613 -18.876442 -79.079486   0.000105   0.000663
1 65569U 25203E   25268.95399046  .00000088  00000-0  67399-4 0  9995 | 2 65569  81.3013 255.5699 0006764 181.4841 178.6297 13.84687439  2139 | 2025/09/25-22:53:44   92.7609    0.1157  178.6316  103.9946     7325.4449     7320.4900     7330.3998 -20.260178 -78.736437   0.000152   0.000659
1 65569U 25203E   25269.96560108  .00000100  00000-0  78573-4 0  9997 | 2 65569  81.3015 254.6323 0006813 178.6101 181.5076 13.84687636  2279 | 2025/09/26-23:10:27   98.8715    0.1156  181.5055  103.9946     7325.4442     7320.4534     7330.4350 -21.545920 -78.394561   0.000196   0.000652
1 65569U 25203E   25271.19398508  .00000149  00000-0  12196-3 0  9999 | 2 65569  81.3017 253.4937 0006885 175.3882 184.7340 13.84688024  2448 | 2025/09/28-04:39:20  183.4346    0.1157  184.7275  103.9945     7325.4428     7320.3993     7330.4864 -23.099502 -77.951135   0.000248   0.000642
1 65569U 25203E   25272.27785325  .00000117  00000-0  93161-4 0  9993 | 2 65569  81.3019 252.4891 0006939 172.3564 187.7700 13.84688146  2596 | 2025/09/29-06:40:06  215.6958    0.1157  187.7593  103.9945     7325.4424     7320.3593     7330.5255 -24.462703 -77.534348   0.000295   0.000628
1 65569U 25203E   25273.28946323  .00000143  00000-0  11670-3 0  9995 | 2 65569  81.3020 251.5514 0006985 169.3785 190.7520 13.84688492  2736 | 2025/09/30-06:56:49  221.8061    0.1156  190.7371  103.9945     7325.4412     7320.3244     7330.5580 -25.728326 -77.123722   0.000339   0.000611
1 65569U 25203E   25274.44558840  .00000181  00000-0  15022-3 0  9994 | 2 65569  81.3022 250.4797 0007026 166.3605 193.7743 13.84689060  2893 | 2025/10/01-10:41:38  280.2181    0.1156  193.7551  103.9945     7325.4392     7320.2923     7330.5860 -27.166384 -76.629207   0.000384   0.000588
1 65569U 25203E   25275.52945553  .00000170  00000-0  14079-3 0  9994 | 2 65569  81.3024 249.4751 0007085 163.5566 196.5823 13.84689387  3043 | 2025/10/02-12:42:24  312.4791    0.1157  196.5591  103.9944     7325.4380     7320.2480     7330.6281 -28.505793 -76.141316   0.000426   0.000566
1 65569U 25203E   25276.61332257  .00000119  00000-0  94837-4 0  9990 | 2 65569  81.3026 248.4706 0007138 160.6551 199.4878 13.84689506  3196 | 2025/10/03-14:43:11  344.7400    0.1156  199.4605  103.9944     7325.4376     7320.2087     7330.6665 -29.836314 -75.630068   0.000467   0.000540
1 65569U 25203E   25277.84170487  .00000094  00000-0  72603-4 0  9990 | 2 65569  81.3027 247.3321 0007198 157.4728 202.6746 13.84689689  3366 | 2025/10/04-20:12:03   69.3024    0.1156  202.6428  103.9944     7325.4370     7320.1641     7330.7098 -31.333177 -75.022404   0.000511   0.000507
1 65569U 25203E   25279.21460252  .00000095  00000-0  74241-4 0  9996 | 2 65569  81.3029 246.0597 0007259 153.9487 206.2036 13.84689955  3559 | 2025/10/06-05:09:01  206.1663    0.1156  206.1669  103.9944     7325.4360     7320.1185     7330.7536 -32.991460 -74.308311   0.000556   0.000467
1 65569U 25203E   25280.29846895  .00000082  00000-0  62330-4 0  9999 | 2 65569  81.3030 245.0553 0007312 151.1541 209.0021 13.84690144  3707 | 2025/10/07-07:09:47  238.4270    0.1156  208.9615  103.9944     7325.4354     7320.0790     7330.7917 -34.288998 -73.718671   0.000590   0.000432
1 65569U 25203E   25281.45459297  .00000069  00000-0  50335-4 0  9991 | 2 65569  81.3032 243.9838 0007358 148.2093 211.9509 13.84690297  3860 | 2025/10/08-10:54:36  296.8387    0.1156  211.9063  103.9944     7325.4348     7320.0448     7330.8249 -35.661637 -73.064752   0.000623   0.000392
1 65569U 25203E   25282.61071720  .00000026  00000-0  12661-4 0  9994 | 2 65569  81.3034 242.9124 0007407 145.1741 214.9902 13.84690204  4027 | 2025/10/09-14:39:25  355.2502    0.1157  214.9416  103.9944     7325.4352     7320.0092     7330.8611 -37.021685 -72.385342   0.000653   0.000349
1 65569U 25203E   25283.83909904  .00000031  00000-0  16756-4 0  9998 | 2 65569  81.3036 241.7741 0007462 142.1277 218.0407 13.84690249  4195 | 2025/10/10-20:08:18   79.8126    0.1157  217.9880  103.9944     7325.4350     7319.9688     7330.9012 -38.452465 -71.635769   0.000682   0.000302
1 65569U 25203E   25284.85070752  .00000050  00000-0  33560-4 0  9994 | 2 65569  81.3039 240.8367 0007503 139.6340 220.5375 13.84690356  4337 | 2025/10/11-20:25:01   85.9231    0.1157  220.4817  103.9944     7325.4346     7319.9383     7330.9309 -39.619425 -70.997362   0.000703   0.000262
1 65569U 25203E   25286.29586224  .00000064  00000-0  45921-4 0  9999 | 2 65569  81.3042 239.4975 0007550 136.0788 224.0970 13.84690530  4535 | 2025/10/13-07:06:02  248.9381    0.1156  224.0368  103.9944     7325.4340     7319.9033     7330.9647 -41.268057 -70.052269   0.000727   0.000203
1 65569U 25203E   25287.30747044  .00000066  00000-0  48140-4 0  9999 | 2 65569  81.3044 238.5601 0007595 133.5112 226.6677 13.84690651  4676 | 2025/10/14-07:22:45  255.0484    0.1156  226.6044  103.9943     7325.4336     7319.8699     7330.9972 -42.408693 -69.367919   0.000743   0.000159
1 65569U 25203E   25288.60810940  .00000075  00000-0  55760-4 0  9995 | 2 65569  81.3046 237.3549 0007666 130.0863 230.0967 13.84690861  4854 | 2025/10/15-14:35:40    5.7615    0.1157  230.0294  103.9943     7325.4328     7319.8172     7331.0485 -43.858445 -68.460753   0.000760   0.000099
1 65569U 25203E   25289.61971721  .00000061  00000-0  43713-4 0  9992 | 2 65569  81.3047 236.4176 0007682 127.7457 232.4397 13.84690945  4992 | 2025/10/16-14:52:23   11.8723    0.1157  232.3700  103.9943     7325.4325     7319.8051     7331.0599 -44.972530 -67.734229   0.000766   0.000056
1 65569U 25203E   25290.84809812  .00000050  00000-0  33882-4 0  9994 | 2 65569  81.3049 235.2796 0007723 124.7491 235.4394 13.84691054  5162 | 2025/10/17-20:21:15   96.4351    0.1157  235.3666  103.9943     7325.4322     7319.7747     7331.0896 -46.309012 -66.827855   0.000772   0.000000
1 65569U 25203E   25291.93196362  .00000043  00000-0  27719-4 0  9998 | 2 65569  81.3050 234.2753 0007761 122.0672 238.1239 13.84691099  5314 | 2025/10/18-22:22:01  128.6967    0.1156  238.0484  103.9943     7325.4320     7319.7467     7331.1173 -47.473278 -66.005992   0.000775  -0.000050
1 65569U 25203E   25292.94357121  .00000050  00000-0  34069-4 0  9996 | 2 65569  81.3051 233.3380 0007798 119.6121 240.5814 13.84691240  5451 | 2025/10/19-22:38:44  134.8074    0.1157  240.5036  103.9943     7325.4315     7319.7191     7331.1439 -48.546727 -65.220661   0.000774  -0.000096
1 65569U 25203E   25294.53323992  .00000070  00000-0  51986-4 0  9991 | 2 65569  81.3053 231.8652 0007848 115.7673 244.4295 13.84691546  5672 | 2025/10/21-12:47:51  350.1245    0.1157  244.3484  103.9943     7325.4304     7319.6814     7331.1794 -50.207139 -63.951505   0.000767  -0.000168
1 65569U 25203E   25295.83387804  .00000064  00000-0  46425-4 0  9992 | 2 65569  81.3055 230.6602 0007885 112.6137 247.5855 13.84691593  5856 | 2025/10/22-20:00:47  100.8388    0.1157  247.5020  103.9943     7325.4303     7319.6542     7331.2064 -51.541041 -62.881678   0.000755  -0.000227
1 65569U 25203E   25296.91774316  .00000055  00000-0  38416-4 0  9991 | 2 65569  81.3057 229.6561 0007908 110.0499 250.1510 13.84691560  6009 | 2025/10/23-22:01:33  133.1010    0.1157  250.0658  103.9943     7325.4304     7319.6374     7331.2233 -52.635192 -61.968972   0.000742  -0.000274
1 65569U 25203E   25297.92935114  .00000011  00000-0 -54343-6 0  9990 | 2 65569  81.3059 228.7189 0007953 107.4956 252.7070 13.84691195  6143 | 2025/10/24-22:18:15  139.2124    0.1156  252.6200  103.9943     7325.4317     7319.6057     7331.2576 -53.641878 -61.099905   0.000728  -0.000321
1 65569U 25203E   25298.94095894 -.00000048  00000-0 -53033-4 0  9999 | 2 65569  81.3056 227.7820 0007930 105.2136 254.9898 13.84690800  6281 | 2025/10/25-22:34:58  145.3244    0.1157  254.9021  103.9943     7325.4330     7319.6240     7331.2421 -54.633565 -60.214402   0.000707  -0.000360
1 65569U 25203E   25300.16934044 -.00000111  00000-0 -10987-3 0  9997 | 2 65569  81.3057 226.6441 0007959 102.2660 257.9389 13.84690120  6451 | 2025/10/27-04:03:51  229.8889    0.1157  257.8497  103.9944     7325.4354     7319.6051     7331.2658 -55.818645 -59.117643   0.000682  -0.000411
1 65569U 25203E   25301.54223752 -.00000126  00000-0 -12266-3 0  9995 | 2 65569  81.3059 225.3723 0007981  98.9810 261.2251 13.84689664  6643 | 2025/10/28-13:00:49    6.7556    0.1157  261.1347  103.9944     7325.4371     7319.5906     7331.2835 -57.117167 -57.864312   0.000649  -0.000465
1 65569U 25203E   25302.84287629 -.00000071  00000-0 -73991-4 0  9994 | 2 65569  81.3062 224.1676 0008007  95.8954 264.3116 13.84689879  6828 | 2025/10/29-20:13:44  117.4714    0.1157  264.2203  103.9944     7325.4363     7319.5708     7331.3018 -58.321322 -56.650874   0.000614  -0.000514
1 65569U 25203E   25304.28802953  .00000060  00000-0  42686-4 0  9990 | 2 65569  81.3063 222.8286 0008053  92.2966 267.9113 13.84690843  7028 | 2025/10/31-06:54:45  280.4891    0.1157  267.8191  103.9943     7325.4329     7319.5337     7331.3321 -59.629278 -55.272630   0.000571  -0.000568
1 65569U 25203E   25305.51641012  .00000059  00000-0  41919-4 0  9990 | 2 65569  81.3064 221.6909 0008082  89.4283 270.7800 13.84690946  7197 | 2025/11/01-12:23:37    5.0541    0.1157  270.6874  103.9943     7325.4325     7319.5121     7331.3529 -60.715052 -54.077843   0.000531  -0.000609
1 65569U 25203E   25307.46736713  .00000051  00000-0  35127-4 0  9995 | 2 65569  81.3064 219.8837 0008091  84.7948 275.4132 13.84691097  7460 | 2025/11/03-11:13:00  351.1291    0.1157  275.3209  103.9943     7325.4320     7319.5050     7331.3590 -62.390271 -52.136213   0.000460  -0.000665
1 65569U 25203E   25308.76800466  .00000061  00000-0  43592-4 0  9992 | 2 65569  81.3065 218.6789 0008069  81.7453 278.4618 13.84691300  7646 | 2025/11/04-18:25:55  101.8463    0.1156  278.3703  103.9943     7325.4313     7319.5204     7331.3422 -63.472782 -50.812921   0.000409  -0.000696
1 65569U 25203E   25310.14090002  .00000065  00000-0  47499-4 0  9998 | 2 65569  81.3067 217.4074 0008037  78.5752 281.6307 13.84691351  7831 | 2025/11/06-03:22:53  238.7145    0.1157  281.5405  103.9943     7325.4311     7319.5437     7331.3186 -64.584853 -49.392067   0.000352  -0.000722
1 65569U 25203E   25311.15250738  .00000048  00000-0  32080-4 0  9995 | 2 65569  81.3067 216.4703 0008025  76.2147 283.9902 13.84691200  7973 | 2025/11/07-03:39:36  244.8283    0.1156  283.9009  103.9943     7325.4316     7319.5530     7331.3103 -65.384009 -48.329192   0.000309  -0.000740
1 65569U 25203E   25312.23637311  .00000033  00000-0  18448-4 0  9997 | 2 65569  81.3068 215.4663 0008197  73.6591 286.5467 13.84691008  8121 | 2025/11/08-05:40:22  277.0914    0.1157  286.4566  103.9943     7325.4323     7319.4277     7331.4370 -66.220887 -47.176158   0.000269  -0.000774
1 65569U 25203E   25314.47635904  .00000062  00000-0  44209-4 0  9997 | 2 65569  81.3068 213.3916 0008100  68.4141 291.7879 13.84691459  8435 | 2025/11/10-11:25:57    7.7727    0.1158  291.7017  103.9943     7325.4307     7319.4971     7331.3643 -67.885369 -44.747875   0.000166  -0.000793
1 65569U 25203E   25316.21054047  .00000115  00000-0  91362-4 0  9995 | 2 65569  81.3067 211.7854 0008022  64.1645 296.0338 13.84692274  8672 | 2025/11/12-05:03:10  275.3972    0.1157  295.9512  103.9942     7325.4279     7319.5514     7331.3043 -69.112886 -42.827427   0.000083  -0.000798
1 65569U 25203E   25317.22214547  .00000204  00000-0  17077-3 0  9999 | 2 65569  81.3065 210.8484 0008000  61.6893 298.5070 13.84693292  8819 | 2025/11/13-05:19:53  281.5111    0.1157  298.4264  103.9941     7325.4243     7319.5639     7331.2846 -69.803829 -41.691394   0.000035  -0.000799
1 65569U 25203E   25319.38986987  .00000204  00000-0  17077-3 0  9992 | 2 65569  81.3063 208.8405 0007970  56.6074 303.5844 13.84694280  9115 | 2025/11/15-09:21:24  346.0409    0.1157  303.5083  103.9941     7325.4208     7319.5824     7331.2591 -71.221549 -39.219962  -0.000063  -0.000794
1 65569U 25203E   25320.69050390  .00000199  00000-0  16666-3 0  9994 | 2 65569  81.3063 207.6358 0007954  53.5003 306.6886 13.84694816  9293 | 2025/11/16-16:34:19   96.7587    0.1158  306.6155  103.9940     7325.4189     7319.5922     7331.2455 -72.030383 -37.713900  -0.000123  -0.000786
1 65569U 25203E   25322.13565236  .00000170  00000-0  14055-3 0  9994 | 2 65569  81.3062 206.2972 0007904  49.9968 310.1881 13.84695181  9496 | 2025/11/18-03:15:20  259.7791    0.1157  310.1189  103.9940     7325.4176     7319.6276     7331.2076 -72.891665 -36.020873  -0.000187  -0.000768
1 65569U 25203E   25323.14725610  .00000152  00000-0  12419-3 0  9992 | 2 65569  81.3061 205.3602 0007875  47.5450 312.6372 13.84695390  9632 | 2025/11/19-03:32:02  265.8933    0.1158  312.5708  103.9940     7325.4169     7319.6481     7331.1856 -73.470878 -34.824015  -0.000231  -0.000753
1 65569U 25203E   25324.15885967  .00000138  00000-0  11201-3 0  9998 | 2 65569  81.3060 204.4232 0007860  45.1002 315.0792 13.84695581  9771 | 2025/11/20-03:48:45  272.0074    0.1158  315.0156  103.9940     7325.4162     7319.6584     7331.1740 -74.030439 -33.617848  -0.000275  -0.000736
1 65569U 25203E   25325.60400707  .00000138  00000-0  11219-3 0  9993 | 2 65569  81.3057 203.0844 0007829  41.6083 318.5668 13.84695980  9971 | 2025/11/21-14:29:46   75.0280    0.1157  318.5074  103.9939     7325.4148     7319.6797     7331.1498 -74.795413 -31.878880  -0.000335  -0.000708
1 65569U 25203E   25326.76012459  .00000138  00000-0  11218-3 0  9993 | 2 65569  81.3056 202.0135 0007798  38.8398 321.3318 13.84696328 10135 | 2025/11/22-18:14:34  133.4442    0.1157  321.2759  103.9939     7325.4136     7319.7012     7331.1259 -75.378061 -30.475375  -0.000380  -0.000681
1 65569U 25203E   25327.77172722  .00000133  00000-0  10806-3 0  9992 | 2 65569  81.3055 201.0764 0007782  36.4559 323.7126 13.84696612 10271 | 2025/11/23-18:31:17  139.5585    0.1157  323.6598  103.9939     7325.4126     7319.7119     7331.1132 -75.866303 -29.238474  -0.000418  -0.000657
1 65569U 25203E   25328.78332954  .00000140  00000-0  11401-3 0  9999 | 2 65569  81.3054 200.1393 0007763  34.0528 326.1125 13.84696976 10412 | 2025/11/24-18:47:59  145.6727    0.1157  326.0629  103.9939     7325.4113     7319.7246     7331.0980 -76.334250 -27.993754  -0.000454  -0.000630
1 65569U 25203E   25330.01170331  .00000142  00000-0  11564-3 0  9999 | 2 65569  81.3053 199.0014 0007686  30.7890 329.3716 13.84697367 10580 | 2025/11/26-00:16:51  230.2406    0.1157  329.3267  103.9938     7325.4099     7319.7796     7331.0402 -76.875025 -26.472295  -0.000496  -0.000587
1 65569U 25203E   25331.09556237  .00000134  00000-0  10837-3 0  9994 | 2 65569  81.3052 197.9975 0007619  28.0452 332.1114 13.84697629 10734 | 2025/11/27-02:17:36  262.5060    0.1157  332.0705  103.9938     7325.4090     7319.8277     7330.9902 -77.326936 -25.121315  -0.000529  -0.000548
1 65569U 25203E   25332.10716411  .00000123  00000-0  98511-4 0  9993 | 2 65569  81.3050 197.0603 0007572  25.4949 334.6580 13.84697808 10879 | 2025/11/28-02:34:18  268.6207    0.1157  334.6208  103.9938     7325.4083     7319.8615     7330.9551 -77.727297 -23.853097  -0.000558  -0.000512
1 65569U 25203E   25333.11876580  .00000108  00000-0  85535-4 0  9994 | 2 65569  81.3049 196.1233 0007532  22.9952 337.1541 13.84697923 11018 | 2025/11/29-02:51:01  274.7349    0.1158  337.1206  103.9938     7325.4079     7319.8904     7330.9254 -78.106878 -22.578805  -0.000584  -0.000475
1 65569U 25203E   25334.13036741  .00000100  00000-0  78438-4 0  9990 | 2 65569  81.3048 195.1862 0007485  20.4007 339.7447 13.84698027 11159 | 2025/11/30-03:07:43  280.8496    0.1157  339.7150  103.9938     7325.4076     7319.9245     7330.8906 -78.465605 -21.298340  -0.000609  -0.000436
1 65569U 25203E   25335.14196902  .00000089  00000-0  68942-4 0  9993 | 2 65569  81.3047 194.2491 0007436  17.7366 342.4049 13.84698057 11296 | 2025/12/01-03:24:26  286.9643    0.1157  342.3791  103.9938     7325.4075     7319.9603     7330.8546 -78.803343 -20.012182  -0.000631  -0.000394
1 65569U 25203E   25336.29808485  .00000096  00000-0  74862-4 0  9992 | 2 65569  81.3047 193.1781 0007383  14.6512 345.4858 13.84698243 11452 | 2025/12/02-07:09:14  345.3810    0.1158  345.4646  103.9938     7325.4068     7319.9985     7330.8151 -79.163631 -18.535742  -0.000653  -0.000345
1 65569U 25203E   25337.30968602  .00000109  00000-0  86310-4 0  9999 | 2 65569  81.3047 192.2410 0007346  12.0028 348.1303 13.84698469 11594 | 2025/12/03-07:25:56  351.4955    0.1158  348.1130  103.9938     7325.4060     7320.0248     7330.7872 -79.456191 -17.238561  -0.000670  -0.000302
1 65569U 25203E   25338.61031557  .00000143  00000-0  11688-3 0  9997 | 2 65569  81.3046 191.0360 0007288   8.5423 351.5856 13.84698979 11775 | 2025/12/04-14:38:51  102.2143    0.1157  351.5734  103.9937     7325.4042     7320.0654     7330.7430 -79.801042 -15.563793  -0.000687  -0.000244
1 65569U 25203E   25339.91094452  .00000169  00000-0  13955-3 0  9991 | 2 65569  81.3046 189.8311 0007220   5.0560 355.0669 13.84699531 11952 | 2025/12/05-21:51:45  212.9326    0.1158  355.0598  103.9937     7325.4023     7320.1133     7330.6912 -80.110672 -13.882301  -0.000698  -0.000185
1 65569U 25203E   25340.92254447  .00000184  00000-0  15295-3 0  9992 | 2 65569  81.3046 188.8940 0007190   2.5565 357.5628 13.84700027 12093 | 2025/12/06-22:08:27  219.0463    0.1158  357.5593  103.9936     7325.4005     7320.1335     7330.6675 -80.326998 -12.570254  -0.000705  -0.000143
1 65569U 25203E   25341.93414445  .00000155  00000-0  12709-3 0  9995 | 2 65569  81.3045 187.9568 0007140 359.6757   0.4394 13.84700187 12239 | 2025/12/07-22:25:10  225.1608    0.1157    0.4400  103.9936     7325.3999     7320.1696     7330.6303 -80.521759 -11.254691  -0.000708  -0.000095
1 65569U 25203E   25342.94574452  .00000122  00000-0  98314-4 0  9993 | 2 65569  81.3044 187.0195 0007097 357.1975   2.9141 13.84700244 12377 | 2025/12/08-22:41:52  231.2747    0.1157    2.9182  103.9936     7325.3997     7320.2009     7330.5986 -80.694992  -9.935978  -0.000708  -0.000052
1 65569U 25203E   25344.10185859  .00000096  00000-0  74922-4 0  9991 | 2 65569  81.3043 185.9485 0007038 354.0704   6.0369 13.84700359 12538 | 2025/12/10-02:26:40  289.6906    0.1158    6.0454  103.9936     7325.3993     7320.2437     7330.5550 -80.866513  -8.425931  -0.000704  -0.000000
1 65569U 25203E   25345.25797254  .00000092  00000-0  70873-4 0  9993 | 2 65569  81.3042 184.8774 0006988 350.9627   9.1403 13.84700526 12694 | 2025/12/11-06:11:28  348.1066    0.1157    9.1530  103.9936     7325.3987     7320.2798     7330.5177 -81.009790  -6.912801  -0.000697   0.000051
1 65569U 25203E   25346.99214297  .00000108  00000-0  85405-4 0  9991 | 2 65569  81.3041 183.2708 0006898 346.0922  14.0044 13.84700919 12936 | 2025/12/12-23:48:41  255.7302    0.1157   14.0235  103.9936     7325.3974     7320.3443     7330.4504 -81.171658  -4.638824  -0.000678   0.000127
1 65569U 25203E   25348.29277067  .00000112  00000-0  88914-4 0  9993 | 2 65569  81.3042 182.0658 0006837 342.4636  17.6284 13.84701149 13115 | 2025/12/14-07:01:35    6.4477    0.1157   17.6521  103.9936     7325.3966     7320.3882     7330.4049 -81.251359  -2.930789  -0.000659   0.000182
1 65569U 25203E   25349.88242655  .00000095  00000-0  73502-4 0  9991 | 2 65569  81.3040 180.5929 0006759 338.0545  22.0321 13.84701323 13330 | 2025/12/15-21:10:41  221.7690    0.1157   22.0612  103.9935     7325.3959     7320.4447     7330.3472 -81.299647  -0.841323  -0.000630   0.000246
1 65569U 25203E   25350.89402561  .00000088  00000-0  67841-4 0  9999 | 2 65569  81.3039 179.6557 0006715 335.2026  24.8808 13.84701456 13471 | 2025/12/16-21:27:23  227.8821    0.1158   24.9132  103.9935     7325.3955     7320.4765     7330.3145 -81.302432   0.488566  -0.000608   0.000285
1 65569U 25203E   25352.26690996  .00000091  00000-0  70359-4 0  9995 | 2 65569  81.3040 178.3837 0006727 331.8410  28.2382 13.84701667 13662 | 2025/12/18-06:24:21    4.7499    0.1157   28.2747  103.9935     7325.3947     7320.4669     7330.3225 -81.271652   2.293262  -0.000584   0.000334
1 65569U 25203E   25353.49527909  .00000083  00000-0  63605-4 0  9991 | 2 65569  81.3037 177.2454 0006606 327.5223  32.5526 13.84702046 13830 | 2025/12/19-11:53:12   89.3161    0.1157   32.5934  103.9935     7325.3934     7320.5542     7330.2325 -81.209756   3.907319  -0.000540   0.000381
1 65569U 25203E   25355.51856542  .00000001  00000-0 -95847-5 0  9999 | 2 65569  81.3038 175.3709 0006535 320.9421  39.1263 13.84680467 14116 | 2025/12/21-12:26:44  101.5744    0.1157   39.1736  103.9951     7325.4695     7320.6823     7330.2567 -81.038588   6.561637  -0.000473   0.000451
1 65569U 25203E   25356.81921250  .00000011  00000-0 -70553-6 0  9991 | 2 65569  81.3039 174.1661 0006423 317.0578  43.0077 13.84680582 14291 | 2025/12/22-19:39:39  212.2970    0.1157   43.0579  103.9951     7325.4691     7320.7639     7330.1742 -80.882806   8.264128  -0.000423   0.000483
1 65569U 25203E   25357.90308524  .00000015  00000-0  28107-5 0  9995 | 2 65569  81.3042 173.1622 0006441 313.5547  46.5074 13.84680539 14442 | 2025/12/23-21:40:26  244.5668    0.1157   46.5610  103.9951     7325.4692     7320.7509     7330.1876 -80.725898   9.680000  -0.000385   0.000516
1 65569U 25203E   25358.91469960  .00000015  00000-0  30782-5 0  9991 | 2 65569  81.3040 172.2248 0006365 310.6595  49.4008 13.84680591 14582 | 2025/12/24-21:57:10  250.6843    0.1157   49.4562  103.9951     7325.4691     7320.8064     7330.1317 -80.556531  10.999352  -0.000346   0.000535
1 65569U 25203E   25360.21534684  .00000024  00000-0  11156-4 0  9996 | 2 65569  81.3041 171.0198 0006311 306.6887  53.3690 13.84680620 14768 | 2025/12/26-05:10:05    1.4069    0.1158   53.4271  103.9951     7325.4690     7320.8459     7330.0921 -80.307502  12.691012  -0.000293   0.000559
1 65569U 25203E   25361.22696130  .00000037  00000-0  22467-4 0  9994 | 2 65569  81.3042 170.0827 0006278 303.5474  56.5083 13.84680708 14901 | 2025/12/27-05:26:49    7.5243    0.1157   56.5683  103.9951     7325.4686     7320.8697     7330.0676 -80.089301  14.002741  -0.000252   0.000575
1 65569U 25203E   25362.45535008  .00000052  00000-0  36142-4 0  9998 | 2 65569  81.3043 168.9447 0006250 299.6928  60.3606 13.84680903 15075 | 2025/12/28-10:55:42   92.0953    0.1157   60.4229  103.9951     7325.4680     7320.8895     7330.0464 -79.795501  15.590615  -0.000200   0.000592
1 65569U 25203E   25363.46696418  .00000075  00000-0  56393-4 0  9998 | 2 65569  81.3044 168.0076 0006258 296.6744  63.3772 13.84681161 15216 | 2025/12/29-11:12:25   98.2124    0.1157   63.4413  103.9951     7325.4670     7320.8828     7330.0513 -79.529945  16.893586  -0.000159   0.000605
1 65569U 25203E   25364.55083631  .00000095  00000-0  74079-4 0  9999 | 2 65569  81.3047 167.0035 0006277 293.3181  66.7315 13.84681424 15361 | 2025/12/30-13:13:12  130.4808    0.1157   66.7976  103.9950     7325.4661     7320.8679     7330.0643 -79.221983  18.284739  -0.000112   0.000618
1 65569U 25203E   25365.56245011  .00000112  00000-0  89195-4 0  9998 | 2 65569  81.3049 166.0664 0006299 290.2031  69.8449 13.84681721 15502 | 2025/12/31-13:29:55  136.5975    0.1158   69.9127  103.9950     7325.4651     7320.8508     7330.0794 -78.912539  19.577997  -0.000069   0.000626
1 65569U 25203E   26001.57406368  .00000127  00000-0  10223-3 0  9992 | 2 65569  81.3050 165.1294 0006287 286.9958  73.0510 13.84682075 15644 | 2026/01/01-13:46:39  142.7137    0.1157   73.1199  103.9950     7325.4638     7320.8583     7330.0693 -78.581924  20.865862  -0.000023   0.000628
1 65569U 25203E   26002.80245140  .00000125  00000-0  10043-3 0  9996 | 2 65569  81.3052 163.9915 0006323 283.2660  76.7792 13.84682376 15818 | 2026/01/02-19:15:31  227.2836    0.1157   76.8497  103.9950     7325.4628     7320.8309     7330.0947 -78.152249  22.422345   0.000030   0.000632
1 65569U 25203E   26003.95858082  .00000126  00000-0  10121-3 0  9996 | 2 65569  81.3052 162.9203 0006300 279.6712  80.3733 13.84682726 15971 | 2026/01/03-23:00:21  285.7016    0.1157   80.4445  103.9949     7325.4615     7320.8465     7330.0766 -77.719408  23.879473   0.000081   0.000625
1 65569U 25203E   26005.47600082  .00000101  00000-0  79340-4 0  9992 | 2 65569  81.3054 161.5148 0006283 274.7252  85.3187 13.84682909 16186 | 2026/01/05-11:25:26  114.8745    0.1157   85.3905  103.9949     7325.4609     7320.8583     7330.0635 -77.110496  25.778665   0.000149   0.000610
1 65569U 25203E   26006.48761396  .00000091  00000-0  70722-4 0  9993 | 2 65569  81.3055 160.5778 0006264 271.5492  88.4948 13.84683069 16328 | 2026/01/06-11:42:09  120.9892    0.1158   88.5666  103.9949     7325.4603     7320.8716     7330.0490 -76.678720  27.036239   0.000192   0.000596
1 65569U 25203E   26007.86051737  .00000102  00000-0  80020-4 0  9992 | 2 65569  81.3056 159.3058 0006243 267.0306  93.0137 13.84683338 16519 | 2026/01/07-20:39:08  257.8594    0.1157   93.0851  103.9949     7325.4594     7320.8861     7330.0327 -76.059747  28.731785   0.000251   0.000572
1 65569U 25203E   26008.94438837  .00000096  00000-0  75150-4 0  9992 | 2 65569  81.3056 158.3017 0006253 263.6758  96.3687 13.84683494 16662 | 2026/01/08-22:39:55  290.1251    0.1157   96.4399  103.9949     7325.4588     7320.8782     7330.0394 -75.544573  30.060241   0.000294   0.000552
1 65569U 25203E   26010.89535614  .00000081  00000-0  61844-4 0  9999 | 2 65569  81.3058 156.4945 0006304 257.7363 102.3088 13.84683655 16938 | 2026/01/10-21:29:18  276.2031    0.1157  102.3794  103.9949     7325.4582     7320.8403     7330.0762 -74.559190  32.427769   0.000368   0.000511
1 65569U 25203E   26011.90696904  .00000062  00000-0  44950-4 0  9990 | 2 65569  81.3060 155.5575 0006319 254.6052 105.4407 13.84683674 17073 | 2026/01/11-21:46:02  282.3170    0.1157  105.5105  103.9949     7325.4582     7320.8292     7330.0871 -74.019111  33.642783   0.000405   0.000485
1 65569U 25203E   26012.91858189  .00000054  00000-0  37288-4 0  9994 | 2 65569  81.3061 154.6204 0006327 251.3808 108.6663 13.84683746 17210 | 2026/01/12-22:02:45  288.4307    0.1158  108.7350  103.9949     7325.4579     7320.8231     7330.0927 -73.459082  34.848890   0.000440   0.000455
1 65569U 25203E   26014.14696897  .00000036  00000-0  21919-4 0  9991 | 2 65569  81.3062 153.4826 0006333 247.3940 112.6548 13.84683773 17382 | 2026/01/14-03:31:38   12.9969    0.1158  112.7218  103.9949     7325.4578     7320.8186     7330.0970 -72.752691  36.300744   0.000479   0.000414
1 65569U 25203E   26015.37535596  .00000030  00000-0  16212-4 0  9999 | 2 65569  81.3063 152.3448 0006353 243.5639 116.4866 13.84683866 17553 | 2026/01/15-09:00:30   97.5630    0.1156  116.5517  103.9949     7325.4575     7320.8036     7330.1114 -72.017610  37.738287   0.000515   0.000373
1 65569U 25203E   26016.60374308  .00000020  00000-0  72307-5 0  9995 | 2 65569  81.3065 151.2070 0006393 239.8497 120.2027 13.84683838 17728 | 2026/01/16-14:29:23  182.1291    0.1157  120.2660  103.9949     7325.4576     7320.7744     7330.1408 -71.254214  39.161000   0.000548   0.000330
1 65569U 25203E   26017.61535605  .00000016  00000-0  38701-5 0  9991 | 2 65569  81.3066 150.2700 0006435 236.9194 123.1345 13.84683822 17860 | 2026/01/17-14:46:06  188.2423    0.1156  123.1962  103.9949     7325.4577     7320.7437     7330.1716 -70.604373  40.321034   0.000572   0.000294
1 65569U 25203E   26018.62696891  .00000024  00000-0  10937-4 0  9997 | 2 65569  81.3067 149.3330 0006469 233.8375 126.2184 13.84683914 18007 | 2026/01/18-15:02:50  194.3550    0.1157  126.2782  103.9949     7325.4573     7320.7185     7330.1962 -69.935647  41.470287   0.000595   0.000255
1 65569U 25203E   26019.63858145  .00000066  00000-0  47954-4 0  9996 | 2 65569  81.3067 148.3960 0006503 230.9283 129.1296 13.84684271 18148 | 2026/01/19-15:19:33  200.4677    0.1157  129.1874  103.9948     7325.4561     7320.6923     7330.2198 -69.248132  42.608399   0.000614   0.000215
1 65569U 25203E   26020.79470974  .00000144  00000-0  11714-3 0  9996 | 2 65569  81.3067 147.3251 0006538 227.4502 132.6104 13.84684938 18308 | 2026/01/20-19:04:22  258.8816    0.1157  132.6655  103.9948     7325.4537     7320.6643     7330.2431 -68.439701  43.895180   0.000632   0.000167
1 65569U 25203E   26022.31212809  .00000155  00000-0  12770-3 0  9992 | 2 65569  81.3068 145.9196 0006586 222.7524 137.3122 13.84685341 18510 | 2026/01/22-07:29:27   88.0493    0.1157  137.3633  103.9947     7325.4523     7320.6278     7330.2768 -67.342526  45.560728   0.000651   0.000099
1 65569U 25203E   26023.46825613  .00000152  00000-0  12441-3 0  9994 | 2 65569  81.3070 144.8488 0006626 219.1134 140.9545 13.84685614 18676 | 2026/01/23-11:14:17  146.4624    0.1157  141.0023  103.9947     7325.4513     7320.5975     7330.3052 -66.479495  46.811377   0.000661   0.000046
1 65569U 25203E   26024.62438394  .00000138  00000-0  11230-3 0  9998 | 2 65569  81.3070 143.7780 0006672 215.6030 144.4683 13.84685830 18836 | 2026/01/24-14:59:06  204.8754    0.1157  144.5127  103.9947     7325.4506     7320.5630     7330.3381 -65.593079  48.045564   0.000667  -0.000007
1 65569U 25203E   26026.28631716  .00000126  00000-0  10129-3 0  9998 | 2 65569  81.3071 142.2387 0006736 210.6643 149.4121 13.84686259 19064 | 2026/01/26-06:52:17   86.3436    0.1156  149.4513  103.9947     7325.4491     7320.5146     7330.3835 -64.278858  49.790290   0.000668  -0.000083
1 65569U 25203E   26029.53803223  .00000011  00000-0 -69326-6 0  9993 | 2 65569  81.3073 139.2273 0006736 202.3001 157.7864 13.84650963 19511 | 2026/01/29-12:54:45  183.1674    0.1157  157.8156  103.9973     7325.5736     7320.6390     7330.5081 -61.574531  53.098532   0.000639  -0.000213
1 65569U 25203E   26030.76644849  .00000101  00000-0  79564-4 0  9999 | 2 65569  81.3072 138.0894 0006802 198.8178 161.2729 13.84651395 19682 | 2026/01/30-18:23:41  267.7417    0.1157  161.2979  103.9973     7325.5720     7320.5892     7330.5549 -60.507841  54.310790   0.000626  -0.000267
1 65569U 25203E   26034.23507866  .00000092  00000-0  71314-4 0  9996 | 2 65569  81.3070 134.8770 0006837 188.8007 171.3031 13.84583124 20162 | 2026/02/03-05:38:30   83.0668    0.1156  171.3149  104.0024     7325.8128     7320.8042     7330.8215 -57.369176  57.616021   0.000551  -0.000405
1 65569U 25203E   26035.31903572 -.00000844  00000-0 -76345-3 0  9995 | 2 65569  81.3065 133.8730 0006870 185.9477 174.1600 13.84577513 20312 | 2026/02/04-07:39:24  115.3598    0.1157  174.1680  104.0028     7325.8326     7320.7998     7330.8655 -56.350462  58.612050   0.000525  -0.000443
1 65569U 25203E   26037.99288789 -.00008856  00000-0 -79239-2 0  9992 | 2 65569  81.3063 131.3969 0006601 182.5939 177.5184 13.84507011 20685 | 2026/02/06-23:49:45    3.0535    0.1156  177.5217  104.0081     7326.0813     7321.2454     7330.9173 -53.765521  60.991665   0.000458  -0.000475
1 65569U 25203E   26039.72747207  .00000104  00000-0  82728-4 0  9995 | 2 65569  81.3062 129.7908 0006634 173.3157 186.8090 13.84298125 20923 | 2026/02/08-17:27:33  270.8072    0.1157  186.8000  104.0238     7326.8183     7321.9577     7331.6789 -52.034856  62.474570   0.000362  -0.000556
1 65569U 25203E   26041.17303604  .00000414  00000-0  36014-3 0  9996 | 2 65569  81.3064 128.4529 0006840 169.5670 190.5630 13.84298788 21126 | 2026/02/10-04:09:10   73.9677    0.1156  190.5486  104.0238     7326.8160     7321.8044     7331.8275 -50.562099  63.672638   0.000321  -0.000604
1 65569U 25203E   26042.61859991  .00000118  00000-0  95155-4 0  9994 | 2 65569  81.3063 127.1145 0006899 165.8182 194.3170 13.84298672 21321 | 2026/02/11-14:50:47  237.1287    0.1157  194.2975  104.0238     7326.8164     7321.7616     7331.8711 -49.061019  64.836184   0.000269  -0.000635
1 65569U 25203E   26043.70277280  .00000075  00000-0  56868-4 0  9990 | 2 65569  81.3061 126.1109 0006984 162.9133 197.2260 13.84298667 21479 | 2026/02/12-16:51:59  269.4990    0.1156  197.2023  104.0238     7326.8164     7321.6993     7331.9334 -47.917755  65.685392   0.000228  -0.000660
1 65569U 25203E   26048.61895860  .00000550  00000-0  48559-3 0  9990 | 2 65569  81.3052 121.5621 0006998 148.4009 211.7569 13.83816787 22151 | 2026/02/17-14:51:18  248.7019    0.1156  211.7147  104.0600     7328.5172     7323.3887     7333.6457 -42.556962  69.277994  -0.000000  -0.000700
1 65569U 25203E   26049.70350850 -.00000055  00000-0 -60828-4 0  9992 | 2 65569  81.3047 120.5586 0007087 146.0814 214.0796 13.83816417 22307 | 2026/02/18-16:53:03  281.2091    0.1155  214.0341  104.0600     7328.5185     7323.3248     7333.7122 -41.336882  70.012259  -0.000042  -0.000707
1 65569U 25203E   26051.22204100  .00000686  00000-0  61129-3 0  9990 | 2 65569  81.3047 119.1532 0006851 140.8438 219.3215 13.83594929 22512 | 2026/02/20-05:19:44  110.7786    0.1156  219.2718  104.0767     7329.3006     7324.2793     7334.3219 -39.607299  71.005043  -0.000119  -0.000675
1 65569U 25203E   26052.30676495 -.00000169  00000-0 -16373-3 0  9999 | 2 65569  81.3049 118.1502 0006922 138.2898 221.8787 13.83594262 22668 | 2026/02/21-07:21:44  143.3482    0.1156  221.8258  104.0768     7329.3029     7324.2296     7334.3763 -38.358398  71.687656  -0.000162  -0.000673
1 65569U 25203E   26053.68074742  .00000067  00000-0  50340-4 0  9996 | 2 65569  81.3047 116.8804 0007105 135.2197 224.9534 13.83595234 22854 | 2026/02/22-16:20:16  280.6014    0.1156  224.8959  104.0767     7329.2995     7324.0920     7334.5070 -36.760263  72.519910  -0.000218  -0.000676
1 65569U 25203E   26054.83778569  .00000035  00000-0  20974-4 0  9997 | 2 65569  81.3044 115.8103 0007153 132.4845 227.6917 13.83595190 23019 | 2026/02/23-20:06:24  339.3426    0.1156  227.6311  104.0767     7329.2997     7324.0570     7334.5423 -35.399362  73.193515  -0.000265  -0.000665
1 65569U 25203E   26055.85019383  .00000059  00000-0  42863-4 0  9999 | 2 65569  81.3041 114.8738 0007204 130.0627 230.1162 13.83595455 23158 | 2026/02/24-20:24:16  345.7412    0.1156  230.0529  104.0767     7329.2987     7324.0187     7334.5788 -34.198212  73.762043  -0.000305  -0.000653
1 65569U 25203E   26058.16436729  .00000690  00000-0  61502-3 0  9994 | 2 65569  81.3066 112.7368 0006385 121.6785 238.4995 13.83530753 23471 | 2026/02/27-03:56:41  103.2625    0.1156  238.4371  104.0815     7329.5272     7324.8473     7334.2071 -31.424878  74.988267  -0.000372  -0.000519
1 65569U 25203E   26060.55086881 -.00000100  00000-0 -10197-3 0  9992 | 2 65569  81.3040 110.5268 0007104 119.2145 240.9722 13.83530606 23801 | 2026/03/01-13:13:15  246.9566    0.1156  240.9011  104.0815     7329.5278     7324.3209     7334.7347 -28.508879  76.141869  -0.000459  -0.000542
1 65569U 25203E   26061.63564275  .00000264  00000-0  22897-3 0  9999 | 2 65569  81.3030 109.5223 0007055 116.3209 243.8672 13.83530176 23957 | 2026/03/02-15:15:19  279.5475    0.1155  243.7946  104.0816     7329.5293     7324.3583     7334.7003 -27.169326  76.629012  -0.000491  -0.000506
1 65569U 25203E   26062.64809857  .00000216  00000-0  18522-3 0  9996 | 2 65569  81.3028 108.5869 0007075 114.2275 245.9621 13.83530338 24094 | 2026/03/03-15:33:15  285.9634    0.1156  245.8881  104.0816     7329.5287     7324.3431     7334.7143 -25.914666  77.062153  -0.000519  -0.000481
1 65569U 25203E   26064.16678133  .00000220  00000-0  18846-3 0  9990 | 2 65569  81.3026 107.1822 0007124 109.6552 250.5374 13.83532144 24305 | 2026/03/05-04:00:09  115.5878    0.1157  250.4605  104.0814     7329.5223     7324.3008     7334.7439 -24.017704  77.674080  -0.000570  -0.000427
1 65569U 25203E   26065.25155414  .00000322  00000-0  28109-3 0  9999 | 2 65569  81.3026 106.1779 0007077 107.1531 253.0400 13.83531623 24457 | 2026/03/06-06:02:14  148.1790    0.1156  252.9625  104.0815     7329.5242     7324.3371     7334.7113 -22.652586  78.083117  -0.000591  -0.000389
1 65569U 25203E   26066.33632716  .00000298  00000-0  25943-3 0  9999 | 2 65569  81.3020 105.1746 0007130 105.8519 254.3424 13.83532130 24606 | 2026/03/07-08:04:18  180.7686    0.1156  254.2637  104.0814     7329.5224     7324.2964     7334.7483 -21.281721  78.467213  -0.000611  -0.000368
1 65569U 25203E   26067.49341875  .00000287  00000-0  24922-3 0  9994 | 2 65569  81.3023 104.1037 0007120 102.7232 257.4721 13.83531312 24760 | 2026/03/08-11:50:31  239.5320    0.1157  257.3925  104.0815     7329.5253     7324.3066     7334.7439 -19.811553  78.851546  -0.000635  -0.000321
1 65569U 25203E   26068.50587391  .00000164  00000-0  13822-3 0  9993 | 2 65569  81.3025 103.1681 0007188 100.9451 259.2515 13.83531462 24906 | 2026/03/09-12:08:27  245.9481    0.1157  259.1706  104.0815     7329.5247     7324.2563     7334.7932 -18.521424  79.164723  -0.000656  -0.000294
1 65569U 25203E   26069.51832879  .00000189  00000-0  16108-3 0  9996 | 2 65569  81.3023 102.2313 0007070  97.6217 262.5742 13.83530961 25046 | 2026/03/10-12:26:23  252.3672    0.1156  262.4939  104.0815     7329.5265     7324.3445     7334.7085 -17.224601  79.456763  -0.000665  -0.000240
1 65569U 25203E   26070.60310294  .00000246  00000-0  21268-3 0  9997 | 2 65569  81.3018 101.2272 0007222  97.2185 262.9792 13.83529018 25198 | 2026/03/11-14:28:28  284.9574    0.1156  262.8971  104.0817     7329.5334     7324.2400     7334.8268 -15.829462  79.745914  -0.000685  -0.000229
1 65569U 25203E   26072.19410548  .00000292  00000-0  25410-3 0  9990 | 2 65569  81.3020  99.7567 0007259  93.0545 267.1442 13.83529795 25419 | 2026/03/13-04:39:30  140.7560    0.1156  267.0611  104.0816     7329.5306     7324.2101     7334.8511 -13.777823  80.126068  -0.000708  -0.000161
1 65569U 25203E   26073.56815357  .00000292  00000-0  25458-3 0  9991 | 2 65569  81.3018  98.4845 0007145  88.6475 271.5500 13.83528946 25609 | 2026/03/14-13:38:08  278.0411    0.1157  271.4682  104.0817     7329.5336     7324.2967     7334.7706 -11.995418  80.412018  -0.000709  -0.000089
1 65569U 25203E   26074.79756497  .00000263  00000-0  22791-3 0  9991 | 2 65569  81.3011  97.3473 0007154  86.1071 274.0903 13.83528765 25774 | 2026/03/15-19:08:29    2.9782    0.1156  274.0085  104.0817     7329.5343     7324.2907     7334.7778 -10.397062  80.633554  -0.000714  -0.000043
1 65569U 25203E   26076.09929448  .00000255  00000-0  22084-3 0  9990 | 2 65569  81.3014  96.1432 0007176  81.7232 278.4738 13.83529381 25952 | 2026/03/17-02:22:59  114.0884    0.1157  278.3925  104.0816     7329.5321     7324.2724     7334.7918  -8.700368  80.834530  -0.000717   0.000027
1 65569U 25203E   26077.32870611  .00000087  00000-0  67702-4 0  9994 | 2 65569  81.3012  95.0051 0007143  79.4746 280.7215 13.83529172 26127 | 2026/03/18-07:53:20   19.8430    0.1157  280.6411  104.0817     7329.5328     7324.2973     7334.7683  -7.093076  80.991193  -0.000711   0.000069
1 65569U 25203E   26078.41347918  .00000034  00000-0  19582-4 0  9999 | 2 65569  81.3013  94.0022 0007116  77.6091 282.5861 13.83529251 26279 | 2026/03/19-09:55:24   52.5162    0.1156  282.5065  104.0816     7329.5325     7324.3169     7334.7482  -5.674406  81.103036  -0.000704   0.000104
1 65569U 25203E   26079.42593482  .00000045  00000-0  30098-4 0  9997 | 2 65569  81.3014  93.0655 0007101  75.2416 284.9526 13.83529443 26413 | 2026/03/20-10:13:20   58.9474    0.1156  284.8740  104.0816     7329.5319     7324.3272     7334.7366  -4.347799  81.185062  -0.000695   0.000144
1 65569U 25203E   26080.51070857  .00000058  00000-0  41704-4 0  9995 | 2 65569  81.3014  92.0619 0007085  72.6125 287.5805 13.83529676 26564 | 2026/03/21-12:15:25   90.6402    0.1156  287.5031  104.0816     7329.5310     7324.3381     7334.7240  -2.925157  81.248761  -0.000683   0.000187
1 65569U 25203E   26081.95707353  .00000054  00000-0  38410-4 0  9998 | 2 65569  81.3013  90.7237 0007070  69.3021 290.8893 13.83529813 26765 | 2026/03/22-22:58:11  254.5372    0.1157  290.8136  104.0816     7329.5306     7324.3486     7334.7125  -1.026885  81.294815  -0.000664   0.000242
1 65569U 25203E   26082.96952888  .00000061  00000-0  44584-4 0  9992 | 2 65569  81.3013  89.7870 0007053  66.9769 293.2131 13.83529941 26909 | 2026/03/23-23:16:07  260.9689    0.1157  293.1388  104.0816     7329.5301     7324.3606     7334.6996   0.302241  81.300738  -0.000648   0.000278
1 65569U 25203E   26083.98198410  .00000072  00000-0  54533-4 0  9995 | 2 65569  81.3012  88.8502 0007045  64.6258 295.5627 13.83530100 27049 | 2026/03/24-23:34:03  267.4007    0.1156  295.4898  104.0816     7329.5295     7324.3659     7334.6932   1.631426  81.284830  -0.000630   0.000315
1 65569U 25203E   26085.06675743  .00000073  00000-0  55758-4 0  9996 | 2 65569  81.3013  87.8466 0007015  62.0427 298.1438 13.83530219 27191 | 2026/03/26-01:36:07  300.0757    0.1156  298.0729  104.0816     7329.5291     7324.3875     7334.6708   3.054902  81.243886  -0.000607   0.000352
1 65569U 25203E   26086.07921243  .00000084  00000-0  64987-4 0  9993 | 2 65569  81.3014  86.9100 0006995  59.6554 300.5293 13.83530374 27331 | 2026/03/27-01:54:03  306.5076    0.1156  300.4602  104.0816     7329.5286     7324.4016     7334.6556   4.382514  81.183195  -0.000584   0.000385
1 65569U 25203E   26087.23630378  .00000085  00000-0  66137-4 0  9998 | 2 65569  81.3014  85.8394 0006963  56.9698 303.2127 13.83530467 27494 | 2026/03/28-05:40:16    5.4299    0.1157  303.1459  104.0816     7329.5283     7324.4247     7334.6318   5.898609  81.087139  -0.000555   0.000421
1 65569U 25203E   26089.04425848  .00000085  00000-0  66707-4 0  9996 | 2 65569  81.3016  84.1669 0006910  52.6220 307.5565 13.83530764 27740 | 2026/03/30-01:03:43  299.5616    0.1157  307.4937  104.0815     7329.5272     7324.4625     7334.5919   8.262765  80.880634  -0.000504   0.000473
1 65569U 25203E   26090.27366735  .00000089  00000-0  70212-4 0  9992 | 2 65569  81.3017  83.0295 0006864  49.6868 310.4887 13.83530982 27917 | 2026/03/31-06:34:04   24.7274    0.1156  310.4288  104.0815     7329.5264     7324.4954     7334.5574   9.866636  80.700780  -0.000466   0.000504
1 65569U 25203E   26091.43075790  .00000076  00000-0  57795-4 0  9996 | 2 65569  81.3018  81.9590 0006827  46.9079 313.2647 13.83531120 28074 | 2026/04/01-10:20:17   83.6503    0.1156  313.2077  104.0815     7329.5259     7324.5221     7334.5298  11.372633  80.502459  -0.000428   0.000532
1 65569U 25203E   26092.66016639  .00000076  00000-0  58252-4 0  9998 | 2 65569  81.3020  80.8217 0006815  44.1055 316.0644 13.83531365 28240 | 2026/04/02-15:50:38  167.8301    0.1157  316.0102  104.0815     7329.5251     7324.5300     7334.5202  12.968263  80.261070  -0.000390   0.000559
1 65569U 25203E   26093.67262039  .00000076  00000-0  57981-4 0  9995 | 2 65569  81.3022  79.8851 0006785  41.7343 318.4330 13.83531512 28380 | 2026/04/03-16:08:34  174.2628    0.1157  318.3814  104.0815     7329.5246     7324.5515     7334.4976  14.278515  80.038564  -0.000356   0.000578
1 65569U 25203E   26095.19130106  .00000071  00000-0  53687-4 0  9997 | 2 65569  81.3025  78.4802 0006719  38.0203 322.1426 13.83531691 28594 | 2026/04/05-04:35:28    4.4052    0.1156  322.0953  104.0815     7329.5239     7324.5992     7334.4486  16.236643  79.664722  -0.000300   0.000601
1 65569U 25203E   26096.34839099  .00000072  00000-0  54692-4 0  9990 | 2 65569  81.3027  77.4099 0006673  35.1800 324.9795 13.83531836 28751 | 2026/04/06-08:21:40   63.3242    0.1156  324.9356  104.0815     7329.5234     7324.6324     7334.4144  17.721924  79.347731  -0.000256   0.000616
1 65569U 25203E   26097.43316263  .00000074  00000-0  56610-4 0  9998 | 2 65569  81.3028  76.4064 0006629  32.4633 327.6930 13.83531994 28901 | 2026/04/07-10:23:45   96.0045    0.1157  327.6524  104.0814     7329.5229     7324.6641     7334.3816  19.108885  79.025286  -0.000214   0.000627
1 65569U 25203E   26098.44561597  .00000083  00000-0  64637-4 0  9990 | 2 65569  81.3029  75.4699 0006585  29.8604 330.2927 13.83532192 29047 | 2026/04/08-10:41:41  102.4377    0.1157  330.2553  104.0814     7329.5222     7324.6957     7334.3486  20.397969  78.702506  -0.000174   0.000635
1 65569U 25203E   26099.45806941  .00000091  00000-0  71515-4 0  9999 | 2 65569  81.3030  74.5334 0006552  27.4711 332.6790 13.83532333 29188 | 2026/04/09-10:59:37  108.8708    0.1156  332.6445  104.0814     7329.5217     7324.7194     7334.3240  21.681607  78.358699  -0.000136   0.000641
1 65569U 25203E   26100.90443119  .00000083  00000-0  64312-4 0  9994 | 2 65569  81.3031  73.1955 0006499  24.0163 336.1295 13.83532485 29386 | 2026/04/10-21:42:22  271.7804    0.1156  336.0993  104.0814     7329.5211     7324.7577     7334.2846  23.505294  77.831197  -0.000082   0.000645
1 65569U 25203E   26101.91688430  .00000070  00000-0  52699-4 0  9994 | 2 65569  81.3032  72.2590 0006455  21.4813 338.6613 13.83532546 29522 | 2026/04/11-22:00:18  278.2136    0.1157  338.6344  104.0814     7329.5209     7324.7897     7334.2521  24.774280  77.436719  -0.000042   0.000644
1 65569U 25203E   26103.14629149  .00000064  00000-0  47398-4 0  9996 | 2 65569  81.3035  71.1219 0006394  18.4786 341.6602 13.83532663 29698 | 2026/04/13-03:30:39    3.3799    0.1157  341.6371  104.0814     7329.5205     7324.8340     7334.2070  26.306217  76.930112   0.000004   0.000639
1 65569U 25203E   26104.15874441  .00000054  00000-0  38467-4 0  9991 | 2 65569  81.3038  70.1855 0006347  15.9393 344.1961 13.83532736 29833 | 2026/04/14-03:48:35    9.8132    0.1156  344.1763  104.0814     7329.5202     7324.8682     7334.1723  27.560039  76.490210   0.000043   0.000633
1 65569U 25203E   26105.17119719  .00000046  00000-0  30961-4 0  9996 | 2 65569  81.3040  69.2491 0006300  13.3505 346.7817 13.83532839 29974 | 2026/04/15-04:06:31   16.2463    0.1157  346.7652  104.0814     7329.5199     7324.9023     7334.1375  28.806473  76.029781   0.000081   0.000625
1 65569U 25203E   26106.25596799  .00000045  00000-0  30443-4 0  9997 | 2 65569  81.3042  68.2459 0006246  10.5793 349.5494 13.83532966 30128 | 2026/04/16-06:08:35   48.9225    0.1157  349.5364  104.0814     7329.5194     7324.9414     7334.0974  30.133280  75.513962   0.000121   0.000613
1 65569U 25203E   26107.91928324  .00000044  00000-0  29132-4 0  9996 | 2 65569  81.3045  66.7075 0006164   6.3288 353.7945 13.83533080 30350 | 2026/04/17-22:03:46  290.5697    0.1157  353.7869  104.0814     7329.5190     7325.0011     7334.0369  32.149854  74.678033   0.000180   0.000590
1 65569U 25203E   26109.29332674  .00000026  00000-0  12614-4 0  9993 | 2 65569  81.3048  65.4367 0006095   2.6958 357.4230 13.83532897 30543 | 2026/04/19-07:02:23   68.2222    0.1157  357.4199  104.0814     7329.5197     7325.0523     7333.9870  33.798268  73.946924   0.000227   0.000566
1 65569U 25203E   26110.37809757  .00000033  00000-0  18742-4 0  9991 | 2 65569  81.3050  64.4334 0006042 359.8557   0.2596 13.83532967 30695 | 2026/04/20-09:04:27  100.8984    0.1156    0.2599  104.0814     7329.5194     7325.0909     7333.9479  35.087983  73.343960   0.000262   0.000544
1 65569U 25203E   26111.39055007  .00000056  00000-0  40355-4 0  9995 | 2 65569  81.3051  63.4971 0005990 356.9723   3.1396 13.83533184 30834 | 2026/04/21-09:22:23  107.3316    0.1157    3.1434  104.0813     7329.5187     7325.1283     7333.9090  36.281841  72.760891   0.000295   0.000521
1 65569U 25203E   26112.61995657  .00000082  00000-0  63963-4 0  9994 | 2 65569  81.3054  62.3602 0005929 353.7211   6.3870 13.83533489 31005 | 2026/04/22-14:52:44  191.5120    0.1157    6.3946  104.0813     7329.5176     7325.1719     7333.8632  37.718511  72.026953   0.000331   0.000492
1 65569U 25203E   26113.99399882  .00000096  00000-0  76684-4 0  9993 | 2 65569  81.3057  61.0897 0005861 349.8663  10.2374 13.83533830 31195 | 2026/04/23-23:51:21  329.1641    0.1156   10.2493  104.0813     7329.5164     7325.2205     7333.8122  39.306408  71.173191   0.000369   0.000455
1 65569U 25203E   26115.22340482  .00000118  00000-0  96370-4 0  9992 | 2 65569  81.3059  59.9528 0005790 346.5405  13.5596 13.83534198 31362 | 2026/04/25-05:21:42   54.3300    0.1157   13.5752  104.0813     7329.5151     7325.2713     7333.7589  40.710942  70.379461   0.000399   0.000420
1 65569U 25203E   26116.30817477  .00000110  00000-0  88821-4 0  9999 | 2 65569  81.3060  58.9497 0005735 343.5359  16.5610 13.83534372 31513 | 2026/04/26-07:23:46   87.0057    0.1156   16.5797  104.0813     7329.5145     7325.3110     7333.7179  41.936853  69.656055   0.000423   0.000387
1 65569U 25203E   26117.32062650  .00000102  00000-0  82211-4 0  9995 | 2 65569  81.3062  58.0136 0005682 340.7027  19.3913 13.83534562 31651 | 2026/04/27-07:41:42   93.4382    0.1156   19.4129  104.0812     7329.5138     7325.3492     7333.6784  43.069354  68.961793   0.000443   0.000355
1 65569U 25203E   26118.83930409  .00000084  00000-0  65062-4 0  9992 | 2 65569  81.3065  56.6093 0005598 336.5155  23.5745 13.83534730 31861 | 2026/04/28-20:08:35  282.5898    0.1157   23.6002  104.0812     7329.5132     7325.4101     7333.6163  44.746644  67.885822   0.000469   0.000306
1 65569U 25203E   26119.85175566  .00000084  00000-0  65510-4 0  9998 | 2 65569  81.3067  55.6732 0005549 333.5928  26.4945 13.83534892 32003 | 2026/04/29-20:26:31  289.0221    0.1157   26.5229  104.0812     7329.5126     7325.4455     7333.5798  45.849856  67.145887   0.000484   0.000271
1 65569U 25203E   26120.93652514  .00000077  00000-0  59480-4 0  9993 | 2 65569  81.3067  54.6701 0005495 330.4136  29.6709 13.83535003 32159 | 2026/04/30-22:28:35  321.6975    0.1157   29.7021  104.0812     7329.5122     7325.4847     7333.5398  47.018319  66.332927   0.000498   0.000233
1 65569U 25203E   26121.94897645  .00000088  00000-0  68989-4 0  9997 | 2 65569  81.3068  53.7340 0005443 327.4889  32.5932 13.83535236 32297 | 2026/05/01-22:46:31  328.1295    0.1157   32.6268  104.0812     7329.5114     7325.5220     7333.5009  48.095804  65.556002   0.000507   0.000197
1 65569U 25203E   26123.17838154  .00000103  00000-0  82720-4 0  9991 | 2 65569  81.3069  52.5972 0005386 323.7786  36.3005 13.83535483 32463 | 2026/05/03-04:16:52   53.2947    0.1157   36.3371  104.0812     7329.5105     7325.5629     7333.4582  49.387003  64.588977   0.000517   0.000152
1 65569U 25203E   26124.19083263  .00000109  00000-0  87889-4 0  9994 | 2 65569  81.3070  51.6611 0005333 320.7731  39.3039 13.83535689 32608 | 2026/05/04-04:34:47   59.7222    0.1157   39.3426  104.0812     7329.5098     7325.6010     7333.4186  50.435683  63.773585   0.000521   0.000115
1 65569U 25203E   26125.27560144  .00000122  00000-0  99978-4 0  9999 | 2 65569  81.3070  50.6581 0005293 317.4516  42.6230 13.83535992 32755 | 2026/05/05-06:36:51   92.3970    0.1157   42.6641  104.0811     7329.5087     7325.6292     7333.3882  51.544297  62.880949   0.000524   0.000075
1 65569U 25203E   26126.50500604  .00000114  00000-0  92705-4 0  9993 | 2 65569  81.3071  49.5215 0005228 313.8287  46.2437 13.83536189 32927 | 2026/05/06-12:07:12  176.5756    0.1157   46.2870  104.0811     7329.5080     7325.6762     7333.3399  52.781534  61.846214   0.000522   0.000031
1 65569U 25203E   26127.73441037  .00000112  00000-0  90907-4 0  9993 | 2 65569  81.3071  48.3848 0005174 310.0633  50.0069 13.83536448 33091 | 2026/05/07-17:37:33  261.7398    0.1156   50.0523  104.0811     7329.5071     7325.7148     7333.2994  53.998043  60.786971   0.000517  -0.000014
