# SPACE DATA - HISTORICAL TLEs
# ----------------------------
# NORAD_ID    : 65567
# OBJECT_NAME : PRAETORIAN SDA_604
# --------------------------------------------------------------------+-----------------------------------------------------------------------+----------------------------------------------------------------------------------------------------------------------------------------
#                  LINE 1                                             |                 LINE 2                                                |      DERIVED PARAMETERS
# --------------------------------------------------------------------+-----------------------------------------------------------------------+----------------------------------------------------------------------------------------------------------------------------------------
# NORAD  COSPAR     TLE_EPOCH      MEANMOT1 MEANMOT2   BSTAR  #  REV  |   NORAD    INC     RAAN     ECC    ARGPER  MEANANOM   MEANMOT     REV |  CAL_DATE              LONG     ARGLAT     PERIOD        SMA         PERIGEE        APOGEE      INC_X      INC_Y      ECC_X      ECC_Y
# ------ ------   -------------- ----------  -------  ------- -- ----     -----  ------- -------- ------- -------- -------- -----------  ----   ------------------- ---------  --------  --------  ------------  ------------   ----------- ---------- ----------  ---------  ---------   
1 65573U 25203J   25266.58335648 -.00046350  00000-0 -41509-1 0  9991 | 2 65573  81.2971 257.7597 0006487 188.6880 238.6471 13.84669671  1308 | 2025/09/23-14:00:01  247.5849   67.2716  238.5836  103.9959     7325.5076     7320.7555     7330.2596 -17.235979 -79.448974   0.000040   0.000647
1 65573U 25203J   25267.87054415  .00000107  00000-0  84252-4 0  9997 | 2 65573  81.2965 256.5665 0006542 185.2521 174.8568 13.84646296  1981 | 2025/09/24-20:53:35   60.6606    0.1156  174.8635  103.9977     7325.5900     7320.7976     7330.3824 -18.886529 -79.072245   0.000093   0.000648
1 65573U 25203J   25268.88218463  .00000111  00000-0  88596-4 0  9994 | 2 65573  81.2966 255.6283 0006592 182.5368 177.5757 13.84646505  2122 | 2025/09/25-21:10:20   66.7829    0.1157  177.5789  103.9977     7325.5893     7320.7602     7330.4183 -20.178747 -78.752494   0.000135   0.000645
1 65573U 25203J   25269.96608509  .00000114  00000-0  91097-4 0  9991 | 2 65573  81.2967 254.6231 0006644 179.4233 180.6933 13.84646704  2277 | 2025/09/26-23:11:09   99.0565    0.1157  180.6924  103.9976     7325.5886     7320.7215     7330.4557 -21.557235 -78.386472   0.000183   0.000639
1 65573U 25203J   25271.26676536  .00000149  00000-0  12168-3 0  9991 | 2 65573  81.2968 253.4170 0006714 175.9570 184.1642 13.84647063  2455 | 2025/09/28-06:24:08  209.7849    0.1156  184.1586  103.9976     7325.5873     7320.6689     7330.5057 -23.202433 -77.915446   0.000237   0.000628
1 65573U 25203J   25272.27840544  .00000112  00000-0  89197-4 0  9992 | 2 65573  81.2970 252.4788 0006770 173.1662 186.9589 13.84647154  2592 | 2025/09/29-06:40:54  215.9068    0.1157  186.9495  103.9976     7325.5870     7320.6276     7330.5464 -24.475166 -77.525276   0.000279   0.000617
1 65573U 25203J   25273.29004520  .00000147  00000-0  12025-3 0  9994 | 2 65573  81.2971 251.5407 0006819 170.2776 189.8514 13.84647534  2737 | 2025/09/30-06:57:39  222.0284    0.1156  189.8380  103.9976     7325.5856     7320.5903     7330.5810 -25.741177 -77.114268   0.000322   0.000601
1 65573U 25203J   25274.51846433  .00000201  00000-0  16851-3 0  9999 | 2 65573  81.2974 250.4014 0006859 166.9920 193.1415 13.84648208  2905 | 2025/10/01-12:26:35  306.6049    0.1156  193.1236  103.9975     7325.5833     7320.5587     7330.6079 -27.269469 -76.587488   0.000370   0.000578
1 65573U 25203J   25275.53010341  .00000178  00000-0  14755-3 0  9997 | 2 65573  81.2975 249.4633 0006917 164.3767 195.7605 13.84648504  3041 | 2025/10/02-12:43:20  312.7265    0.1157  195.7390  103.9975     7325.5822     7320.5151     7330.6493 -28.519755 -76.130855   0.000408   0.000558
1 65573U 25203J   25276.54174233  .00000148  00000-0  12118-3 0  9998 | 2 65573  81.2977 248.5252 0006967 161.6601 198.4808 13.84648724  3186 | 2025/10/03-13:00:06  318.8480    0.1156  198.4555  103.9975     7325.5815     7320.4777     7330.6852 -29.762435 -75.653906   0.000446   0.000535
1 65573U 25203J   25277.84242049  .00000137  00000-0  11131-3 0  9995 | 2 65573  81.2978 247.3191 0007029 158.2824 201.8632 13.84649044  3365 | 2025/10/04-20:13:05   69.5756    0.1156  201.8332  103.9975     7325.5803     7320.4312     7330.7295 -31.348309 -75.010771   0.000492   0.000502
1 65573U 25203J   25279.14309845  .00000110  00000-0  86922-4 0  9990 | 2 65573  81.2980 246.1132 0007087 154.9271 205.2232 13.84649278  3546 | 2025/10/06-03:26:03  180.3028    0.1157  205.1886  103.9975     7325.5795     7320.3879     7330.7711 -32.920076 -74.334604   0.000535   0.000465
1 65573U 25203J   25280.29925647  .00000092  00000-0  71101-4 0  9994 | 2 65573  81.2981 245.0412 0007145 151.9302 208.2242 13.84649497  3708 | 2025/10/07-07:10:55  238.7272    0.1157  208.1855  103.9974     7325.5787     7320.3446     7330.8128 -34.305071 -73.705788   0.000571   0.000430
1 65573U 25203J   25281.45541431  .00000076  00000-0  56951-4 0  9996 | 2 65573  81.2983 243.9692 0007196 148.9846 211.1737 13.84649666  3869 | 2025/10/08-10:55:47  297.1517    0.1156  211.1310  103.9974     7325.5781     7320.3066     7330.8496 -35.678104 -73.051259   0.000604   0.000391
1 65573U 25203J   25282.53931240  .00000036  00000-0  21515-4 0  9991 | 2 65573  81.2985 242.9642 0007244 146.1407 214.0213 13.84649610  4010 | 2025/10/09-12:56:36  329.4246    0.1156  213.9749  103.9974     7325.5783     7320.2717     7330.8850 -36.954000 -72.414418   0.000633   0.000352
1 65573U 25203J   25283.83998992  .00000050  00000-0  34007-4 0  9998 | 2 65573  81.2988 241.7583 0007301 142.9099 217.2564 13.84649742  4198 | 2025/10/10-20:09:35   80.1521    0.1157  217.2058  103.9974     7325.5779     7320.2295     7330.9263 -38.469946 -71.620934   0.000663   0.000305
1 65573U 25203J   25284.85162792  .00000060  00000-0  42648-4 0  9993 | 2 65573  81.2990 240.8204 0007340 140.4165 219.7529 13.84649839  4332 | 2025/10/11-20:26:20   86.2737    0.1157  219.6992  103.9974     7325.5775     7320.2005     7330.9545 -39.637232 -70.981809   0.000684   0.000266
1 65573U 25203J   25285.86326584  .00000053  00000-0  36612-4 0  9992 | 2 65573  81.2992 239.8825 0007375 137.9084 222.2640 13.84649886  4470 | 2025/10/12-20:43:06   92.3954    0.1156  222.2072  103.9974     7325.5774     7320.1747     7330.9800 -40.793903 -70.323662   0.000702   0.000225
1 65573U 25203J   25286.87490370  .00000057  00000-0  39728-4 0  9994 | 2 65573  81.2994 238.9446 0007430 135.2027 224.9731 13.84649980  4612 | 2025/10/13-20:59:51   98.5167    0.1157  224.9130  103.9974     7325.5770     7320.1341     7331.0199 -41.939648 -69.646668   0.000720   0.000182
1 65573U 25203J   25288.60913939  .00000090  00000-0  69414-4 0  9990 | 2 65573  81.2997 237.3369 0007521 130.7499 229.4312 13.84650430  4859 | 2025/10/15-14:37:09    6.1532    0.1157  229.3658  103.9974     7325.5754     7320.0659     7331.0850 -43.877306 -68.442846   0.000745   0.000106
1 65573U 25203J   25290.27111485  .00000080  00000-0  60250-4 0  9990 | 2 65573  81.3000 235.7962 0007573 126.8047 233.3806 13.84650676  5088 | 2025/10/17-06:30:24  247.6390    0.1157  233.3110  103.9973     7325.5746     7320.0269     7331.1222 -45.701838 -67.238620   0.000757   0.000034
1 65573U 25203J   25291.28275185  .00000074  00000-0  55552-4 0  9992 | 2 65573  81.3001 234.8584 0007586 124.4588 235.7287 13.84650823  5226 | 2025/10/18-06:47:09  253.7611    0.1157  235.6569  103.9973     7325.5740     7320.0169     7331.1312 -46.796266 -66.481695   0.000759  -0.000009
1 65573U 25203J   25292.29438879  .00000082  00000-0  62265-4 0  9993 | 2 65573  81.3001 233.9207 0007617 122.0525 238.1373 13.84651010  5365 | 2025/10/19-07:03:55  259.8829    0.1157  238.0632  103.9973     7325.5734     7319.9935     7331.1533 -47.877987 -65.706960   0.000760  -0.000053
1 65573U 25203J   25293.30602566  .00000080  00000-0  60483-4 0  9990 | 2 65573  81.3003 232.9829 0007643 119.6485 240.5434 13.84651136  5502 | 2025/10/20-07:20:40  266.0050    0.1157  240.4672  103.9973     7325.5729     7319.9740     7331.1719 -48.947118 -64.914701   0.000758  -0.000098
1 65573U 25203J   25294.53444165  .00000080  00000-0  60442-4 0  9990 | 2 65573  81.3006 231.8444 0007682 116.5721 243.6224 13.84651319  5670 | 2025/10/21-12:49:35  350.5814    0.1157  243.5436  103.9973     7325.5723     7319.9448     7331.1998 -50.227448 -63.929579   0.000753  -0.000154
1 65573U 25203J   25295.54607824  .00000089  00000-0  68534-4 0  9994 | 2 65573  81.3007 230.9067 0007719 114.0918 246.1047 13.84651487  5817 | 2025/10/22-13:06:21  356.7034    0.1157  246.0239  103.9973     7325.5717     7319.9171     7331.2263 -51.267006 -63.099112   0.000746  -0.000200
1 65573U 25203J   25296.55771466  .00000095  00000-0  73481-4 0  9994 | 2 65573  81.3009 229.9690 0007753 111.6643 248.5340 13.84651656  5950 | 2025/10/23-13:23:06    2.8255    0.1156  248.4513  103.9973     7325.5711     7319.8916     7331.2506 -52.292900 -62.251819   0.000736  -0.000244
1 65573U 25203J   25297.56935081  .00000108  00000-0  85533-4 0  9997 | 2 65573  81.3010 229.0314 0007778 109.2444 250.9555 13.84651912  6091 | 2025/10/24-13:39:51    8.9477    0.1157  250.8713  103.9973     7325.5702     7319.8724     7331.2680 -53.304621 -61.387866   0.000723  -0.000288
1 65573U 25203J   25298.87002568  .00000103  00000-0  81051-4 0  9993 | 2 65573  81.3012 227.8259 0007804 106.1249 254.0768 13.84652129  6278 | 2025/10/25-20:52:50  119.6763    0.1157  253.9908  103.9972     7325.5694     7319.8526     7331.2863 -54.584459 -60.252983   0.000701  -0.000343
1 65573U 25203J   25299.88166154  .00000104  00000-0  81897-4 0  9996 | 2 65573  81.3013 226.8882 0007822 103.7175 256.4853 13.84652300  6419 | 2025/10/26-21:09:35  125.7990    0.1157  256.3982  103.9972     7325.5688     7319.8388     7331.2989 -55.563271 -59.351700   0.000682  -0.000384
1 65573U 25203J   25300.89329724  .00000099  00000-0  77523-4 0  9998 | 2 65573  81.3015 225.9506 0007836 101.3545 258.8492 13.84652434  6552 | 2025/10/27-21:26:20  131.9216    0.1156  258.7611  103.9972     7325.5684     7319.8280     7331.3087 -56.527170 -58.434689   0.000659  -0.000423
1 65573U 25203J   25302.26623142  .00000067  00000-0  49271-4 0  9996 | 2 65573  81.3015 224.6782 0007846  98.1026 262.1021 13.84652422  6746 | 2025/10/29-06:23:22  268.8026    0.1157  262.0131  103.9972     7325.5684     7319.8208     7331.3160 -57.810818 -57.165053   0.000625  -0.000475
1 65573U 25203J   25303.27786799 -.00000040  00000-0 -46230-4 0  9991 | 2 65573  81.3016 223.7407 0007867  95.6375 264.5680 13.84651684  6884 | 2025/10/30-06:40:07  274.9255    0.1158  264.4783  103.9973     7325.5710     7319.8080     7331.3340 -58.738471 -56.211584   0.000597  -0.000512
1 65573U 25203J   25304.28950441 -.00000054  00000-0 -58736-4 0  9999 | 2 65573  81.3015 222.8033 0007876  93.3076 266.8982 13.84651373  7023 | 2025/10/31-06:56:53  281.0489    0.1157  266.8081  103.9973     7325.5721     7319.8025     7331.3417 -59.650157 -55.243033   0.000568  -0.000546
1 65573U 25203J   25305.51791958 -.00000052  00000-0 -57018-4 0  9992 | 2 65573  81.3015 221.6650 0007902  90.4325 269.7737 13.84651347  7199 | 2025/11/01-12:25:48    5.6270    0.1157  269.6832  103.9973     7325.5722     7319.7835     7331.3609 -60.735831 -54.047134   0.000530  -0.000586
1 65573U 25203J   25307.46893084  .00000021  00000-0  81324-5 0  9993 | 2 65573  81.3015 219.8569 0007947  85.8144 274.3921 13.84651999  7463 | 2025/11/03-11:15:15  351.7219    0.1157  274.3013  103.9972     7325.5699     7319.7483     7331.3915 -62.410890 -52.103884   0.000463  -0.000646
1 65573U 25203J   25308.48056629  .00000069  00000-0  50357-4 0  9995 | 2 65573  81.3016 218.9192 0007994  83.3067 276.8999 13.84652317  7608 | 2025/11/04-11:32:00  357.8453    0.1156  276.8089  103.9972     7325.5688     7319.7127     7331.4248 -63.255301 -51.075601   0.000426  -0.000676
1 65573U 25203J   25309.70897933  .00000175  00000-0  14551-3 0  9995 | 2 65573  81.3017 217.7808 0007940  80.4412 279.7642 13.84653396  7776 | 2025/11/05-17:00:55   82.4244    0.1157  279.6745  103.9971     7325.5650     7319.7485     7331.3815 -64.257640 -49.808855   0.000375  -0.000700
1 65573U 25203J   25310.72061291  .00000228  00000-0  19205-3 0  9999 | 2 65573  81.3017 216.8433 0007852  78.0630 282.1406 13.84654190  7912 | 2025/11/06-17:17:40   88.5489    0.1156  282.0526  103.9971     7325.5622     7319.8101     7331.3142 -65.063998 -48.750821   0.000331  -0.000712
1 65573U 25203J   25311.73224573  .00000313  00000-0  26812-3 0  9992 | 2 65573  81.3019 215.9059 0007934  75.6619 284.5419 13.84655421  8053 | 2025/11/07-17:34:26   94.6711    0.1158  284.4539  103.9970     7325.5578     7319.7457     7331.3699 -65.853015 -47.679968   0.000292  -0.000738
1 65573U 25203J   25314.69488432  .00000271  00000-0  23066-3 0  9997 | 2 65573  81.3018 213.1604 0007844  68.7085 291.4909 13.84656653  8462 | 2025/11/10-16:40:38   86.8910    0.1157  291.4072  103.9969     7325.5535     7319.8073     7331.2996 -68.061197 -44.470846   0.000161  -0.000768
1 65573U 25203J   25316.21233313  .00000199  00000-0  16657-3 0  9990 | 2 65573  81.3018 211.7542 0007853  65.0254 295.1718 13.84656759  8674 | 2025/11/12-05:05:45  276.0766    0.1157  295.0903  103.9969     7325.5531     7319.8004     7331.3059 -69.132030 -42.787207   0.000093  -0.000780
1 65573U 25203J   25317.22396473  .00000198  00000-0  16597-3 0  9991 | 2 65573  81.3016 210.8167 0007841  62.5843 297.6110 13.84657189  8815 | 2025/11/13-05:22:30  282.2005    0.1156  297.5313  103.9969     7325.5516     7319.8076     7331.2956 -69.822677 -41.650257   0.000047  -0.000783
1 65573U 25203J   25318.66915200  .00000196  00000-0  16401-3 0  9997 | 2 65573  81.3013 209.4774 0007804  59.0836 301.1088 13.84657826  9018 | 2025/11/14-16:03:34   85.2346    0.1158  301.0322  103.9968     7325.5493     7319.8325     7331.2662 -70.776835 -40.006761  -0.000020  -0.000780
1 65573U 25203J   25319.68078280  .00000205  00000-0  17210-3 0  9998 | 2 65573  81.3014 208.5400 0007817  56.7292 303.4613 13.84658335  9159 | 2025/11/15-16:20:19   91.3581    0.1157  303.3865  103.9968     7325.5476     7319.8212     7331.2739 -71.421961 -38.843547  -0.000064  -0.000779
1 65573U 25203J   25320.69241318  .00000201  00000-0  16849-3 0  9998 | 2 65573  81.3013 207.6024 0007795  54.2997 305.8884 13.84658764  9297 | 2025/11/16-16:37:04   97.4821    0.1157  305.8160  103.9967     7325.5460     7319.8358     7331.2563 -72.047925 -37.669588  -0.000110  -0.000772
1 65573U 25203J   25322.13759916  .00000170  00000-0  14049-3 0  9992 | 2 65573  81.3013 206.2631 0007753  50.8210 309.3635 13.84659127  9499 | 2025/11/18-03:18:08  260.5164    0.1158  309.2948  103.9967     7325.5448     7319.8653     7331.2243 -72.908696 -35.975316  -0.000173  -0.000756
1 65573U 25203J   25323.14922925  .00000145  00000-0  11802-3 0  9992 | 2 65573  81.3012 205.3256 0007729  48.3797 311.8020 13.84659271  9638 | 2025/11/19-03:34:53  266.6406    0.1156  311.7359  103.9967     7325.5443     7319.8823     7331.2062 -73.487465 -34.777545  -0.000217  -0.000742
1 65573U 25203J   25324.16085921  .00000126  00000-0  10144-3 0  9998 | 2 65573  81.3010 204.3881 0007702  45.9064 314.2725 13.84659389  9774 | 2025/11/20-03:51:38  272.7648    0.1157  314.2093  103.9967     7325.5438     7319.9017     7331.1860 -74.046466 -33.570425  -0.000260  -0.000725
1 65573U 25203J   25325.60604451  .00000113  00000-0  89832-4 0  9990 | 2 65573  81.3010 203.0487 0007657  42.4400 317.7347 13.84659609  9972 | 2025/11/21-14:32:42   75.7996    0.1156  317.6756  103.9967     7325.5431     7319.9339     7331.1522 -74.810937 -31.830430  -0.000318  -0.000697
1 65573U 25203J   25326.76219278  .00000093  00000-0  71820-4 0  9992 | 2 65573  81.3009 201.9772 0007637  39.7892 320.3823 13.84659668 10130 | 2025/11/22-18:17:33  134.2272    0.1157  320.3265  103.9967     7325.5429     7319.9483     7331.1374 -75.392995 -30.425854  -0.000361  -0.000673
1 65573U 25203J   25328.06285919  .00000088  00000-0  67935-4 0  9998 | 2 65573  81.3007 200.7718 0007610  36.6587 323.5089 13.84659872 10319 | 2025/11/24-01:30:31  244.9584    0.1157  323.4570  103.9967     7325.5421     7319.9674     7331.1169 -76.016182 -28.833034  -0.000410  -0.000641
1 65573U 25203J   25329.07448822  .00000097  00000-0  75515-4 0  9997 | 2 65573  81.3006 199.8342 0007584  34.2180 325.9464 13.84660159 10450 | 2025/11/25-01:47:15  251.0828    0.1157  325.8977  103.9966     7325.5411     7319.9854     7331.0968 -76.477719 -27.585251  -0.000445  -0.000614
1 65573U 25203J   25330.15837616  .00000103  00000-0  80896-4 0  9997 | 2 65573  81.3005 198.8297 0007524  31.3496 328.8108 13.84660464 10602 | 2025/11/26-03:48:03  283.3593    0.1157  328.7661  103.9966     7325.5400     7320.0283     7331.0518 -76.949467 -26.240253  -0.000482  -0.000578
1 65573U 25203J   25331.89259684  .00000096  00000-0  74657-4 0  9991 | 2 65573  81.3003 197.2225 0007432  27.0222 333.1320 13.84660735 10843 | 2025/11/27-21:25:20  191.0015    0.1157  333.0935  103.9966     7325.5391     7320.0947     7330.9834 -77.654970 -24.071650  -0.000532  -0.000519
1 65573U 25203J   25333.04874395  .00000076  00000-0  57240-4 0  9999 | 2 65573  81.3001 196.1510 0007381  24.1250 336.0251 13.84660784 11006 | 2025/11/29-01:10:11  249.4296    0.1157  335.9907  103.9966     7325.5389     7320.1319     7330.9459 -78.091342 -22.615228  -0.000563  -0.000477
1 65573U 25203J   25334.06037250  .00000079  00000-0  59896-4 0  9995 | 2 65573  81.3000 195.2134 0007335  21.5304 338.6160 13.84660916 11146 | 2025/11/30-01:26:56  255.5543    0.1157  338.5853  103.9966     7325.5384     7320.1652     7330.9117 -78.450854 -21.334328  -0.000588  -0.000439
1 65573U 25203J   25335.07200125  .00000065  00000-0  47583-4 0  9995 | 2 65573  81.2998 194.2758 0007287  18.8947 341.2479 13.84660861 11287 | 2025/12/01-01:43:40  261.6791    0.1157  341.2210  103.9966     7325.5386     7320.2005     7330.8768 -78.789260 -20.047694  -0.000610  -0.000399
1 65573U 25203J   25336.08362970  .00000071  00000-0  52438-4 0  9996 | 2 65573  81.2998 193.3381 0007242  16.2417 343.8971 13.84660981 11428 | 2025/12/02-02:00:25  267.8040    0.1158  343.8741  103.9966     7325.5382     7320.2331     7330.8434 -79.106793 -18.755605  -0.000630  -0.000357
1 65573U 25203J   25337.09525789  .00000088  00000-0  68002-4 0  9999 | 2 65573  81.2998 192.4005 0007201  13.5845 346.5505 13.84661226 11562 | 2025/12/03-02:17:10  273.9286    0.1158  346.5313  103.9966     7325.5374     7320.2622     7330.8125 -79.403109 -17.458632  -0.000647  -0.000316
1 65573U 25203J   25338.10688589  .00000122  00000-0  98421-4 0  9997 | 2 65573  81.2998 191.4629 0007165  10.9307 349.2004 13.84661599 11709 | 2025/12/04-02:33:54  280.0533    0.1157  349.1850  103.9965     7325.5360     7320.2873     7330.7848 -79.678161 -16.156984  -0.000662  -0.000273
1 65573U 25203J   25339.91336455  .00000100  00000-0  78444-4 0  9998 | 2 65573  81.2998 189.7886 0007084   6.3410 353.7835 13.84661730 11954 | 2025/12/05-21:55:14  213.8471    0.1157  353.7747  103.9965     7325.5356     7320.3462     7330.7250 -80.116217 -13.822058  -0.000681  -0.000197
1 65573U 25203J   25341.28630351  .00000100  00000-0  78315-4 0  9990 | 2 65573  81.2999 188.5165 0007025   2.7746 357.3448 13.84652718 12147 | 2025/12/07-06:52:16  350.7355    0.1157  357.3411  103.9972     7325.5674     7320.4212     7330.7136 -80.403427 -12.040045  -0.000689  -0.000138
1 65573U 25203J   25342.58697595  .00000154  00000-0  12666-3 0  9992 | 2 65573  81.2997 187.3109 0006967 359.3715   0.7432 13.84653286 12324 | 2025/12/08-14:05:14  101.4699    0.1157    0.7442  103.9972     7325.5654     7320.4616     7330.6691 -80.638754 -10.345656  -0.000692  -0.000081
1 65573U 25203J   25343.81538862  .00000134  00000-0  10869-3 0  9991 | 2 65573  81.2996 186.1723 0006911 356.0383   4.0718 13.84653507 12494 | 2025/12/09-19:34:09  186.0525    0.1157    4.0774  103.9971     7325.5646     7320.5019     7330.6273 -80.828311  -8.741228  -0.000691  -0.000027
1 65573U 25203J   25344.82702297  .00000053  00000-0  36687-4 0  9995 | 2 65573  81.2994 185.2347 0006868 353.3851   6.7214 13.84653217 12639 | 2025/12/10-19:50:54  192.1791    0.1157    6.7306  103.9972     7325.5656     7320.5344     7330.5968 -80.960327  -7.417408  -0.000687   0.000017
1 65573U 25203J   25345.98317651  .00000028  00000-0  14558-4 0  9994 | 2 65573  81.2991 184.1629 0006801 350.1258   9.9764 13.84653087 12797 | 2025/12/11-23:35:46  250.6101    0.1157    9.9899  103.9972     7325.5661     7320.5839     7330.5482 -81.084608  -5.901697  -0.000677   0.000068
1 65573U 25203J   25346.99481028  .00000062  00000-0  44192-4 0  9991 | 2 65573  81.2990 183.2252 0006755 347.2373  12.8612 13.84653389 12937 | 2025/12/12-23:52:31  256.7367    0.1157   12.8784  103.9971     7325.5650     7320.6166     7330.5134 -81.170232  -4.573934  -0.000666   0.000112
1 65573U 25203J   25348.29548219  .00000087  00000-0  66874-4 0  9990 | 2 65573  81.2991 182.0196 0006686 343.5405  16.5534 13.84653715 13118 | 2025/12/14-07:05:29    7.4708    0.1157   16.5752  103.9971     7325.5638     7320.6660     7330.4617 -81.248599  -2.865092  -0.000647   0.000167
1 65573U 25203J   25349.88519198  .00000104  00000-0  82389-4 0  9999 | 2 65573  81.2990 180.5460 0006612 339.1953  20.8933 13.84654134 13333 | 2025/12/15-21:14:40  222.8122    0.1156   20.9203  103.9971     7325.5624     7320.7187     7330.4060 -81.295309  -0.774727  -0.000620   0.000229
1 65573U 25203J   25350.96908463  .00000123  00000-0  98646-4 0  9991 | 2 65573  81.2988 179.5412 0006555 336.0896  23.9955 13.84654519 13484 | 2025/12/16-23:15:28  255.0901    0.1157   24.0261  103.9971     7325.5610     7320.7591     7330.3629 -81.296194   0.650999  -0.000597   0.000270
1 65573U 25203J   25351.98074459  .00000207  00000-0  17408-3 0  9992 | 2 65573  81.2989 178.6038 0006470 332.5840  27.4975 13.84637983 13628 | 2025/12/17-23:32:16  261.2259    0.1158   27.5318  103.9983     7325.6193     7320.8797     7330.3590 -81.274763   1.980919  -0.000567   0.000312
1 65573U 25203J   25352.99235111  .00000092  00000-0  70934-4 0  9994 | 2 65573  81.2990 177.6659 0006492 330.2789  29.7998 13.84654730 13763 | 2025/12/18-23:48:59  267.3420    0.1157   29.8368  103.9970     7325.5603     7320.8045     7330.3160 -81.231549   3.311021  -0.000550   0.000345
1 65573U 25203J   25355.52150356  .00000059  00000-0  42119-4 0  9990 | 2 65573  81.2992 175.3217 0006497 322.3329  37.7372 13.84637776 14113 | 2025/12/21-12:30:57  102.6825    0.1157   37.7828  103.9983     7325.6201     7320.8606     7330.3795 -81.028339   6.630847  -0.000480   0.000438
1 65573U 25203J   25356.82219051  .00000033  00000-0  18411-4 0  9992 | 2 65573  81.2988 174.1159 0006311 318.2142  41.8532 13.84637925 14291 | 2025/12/22-19:43:57  213.4204    0.1157   41.9015  103.9983     7325.6195     7320.9963     7330.2427 -80.870461   8.334468  -0.000425   0.000467
1 65573U 25203J   25358.84548147  .00000020  00000-0  74879-5 0  9994 | 2 65573  81.2989 172.2406 0006205 312.1539  47.9090 13.84638010 14574 | 2025/12/24-20:17:29  225.6792    0.1157   47.9618  103.9983     7325.6192     7321.0737     7330.1648 -80.554508  10.976448  -0.000351   0.000512
1 65573U 25203J   25359.85712689  .00000038  00000-0  23141-4 0  9994 | 2 65573  81.2990 171.3029 0006187 309.0811  50.9795 13.84638110 14717 | 2025/12/25-20:34:15  231.8086    0.1157   51.0346  103.9983     7325.6189     7321.0865     7330.1512 -80.364187  12.293286  -0.000313   0.000534
1 65573U 25203J   25360.94103251  .00000062  00000-0  44351-4 0  9998 | 2 65573  81.2991 170.2982 0006160 305.7391  54.3193 13.84638327 14867 | 2025/12/26-22:35:05  264.0899    0.1158   54.3767  103.9983     7325.6181     7321.1055     7330.1307 -80.136375  13.700552  -0.000270   0.000553
1 65573U 25203J   25362.16945876  .00000079  00000-0  59912-4 0  9998 | 2 65573  81.2992 169.1597 0006125 301.9370  58.1191 13.84638576 15039 | 2025/12/28-04:04:01  348.6750    0.1157   58.1787  103.9983     7325.6172     7321.1303     7330.1042 -79.848433  15.290118  -0.000220   0.000571
1 65573U 25203J   25363.47014503  .00000107  00000-0  84404-4 0  9993 | 2 65573  81.2994 167.9541 0006093 297.7787  62.2751 13.84638979 15219 | 2025/12/29-11:17:00   99.4119    0.1156   62.3369  103.9982     7325.6158     7321.1523     7330.0793 -79.509246  16.966796  -0.000165   0.000586
1 65573U 25203J   25364.55405017  .00000124  00000-0  10021-3 0  9999 | 2 65573  81.2996 166.9495 0006115 294.5678  65.4842 13.84639261 15364 | 2025/12/30-13:17:49  131.6925    0.1158   65.5480  103.9982     7325.6148     7321.1352     7330.0944 -79.199746  18.358244  -0.000122   0.000599
1 65573U 25203J   25365.92699628  .00000126  00000-0  10187-3 0  9999 | 2 65573  81.2999 165.6771 0006130 290.2190  69.8307 13.84639618 15550 | 2025/12/31-22:14:52  268.5811    0.1157   69.8967  103.9982     7325.6136     7321.1230     7330.1042 -78.772850  20.112481  -0.000063   0.000610
1 65573U 25203J   26001.93864063  .00000118  00000-0  94620-4 0  9991 | 2 65573  81.3001 164.7395 0006154 287.0678  72.9804 13.84639832 15698 | 2026/01/01-22:31:38  274.7093    0.1156   73.0478  103.9982     7325.6128     7321.1046     7330.1210 -78.433386  21.398838  -0.000019   0.000615
1 65573U 25203J   26002.95028476  .00000124  00000-0  10022-3 0  9994 | 2 65573  81.3002 163.8019 0006188 284.0193  76.0276 13.84640138 15833 | 2026/01/02-22:48:24  280.8372    0.1157   76.0964  103.9981     7325.6117     7321.0786     7330.1448 -78.072821  22.679444   0.000024   0.000618
1 65573U 25203J   26003.96192877  .00000125  00000-0  10045-3 0  9999 | 2 65573  81.3002 162.8642 0006174 280.8695  79.1767 13.84640423 15971 | 2026/01/03-23:05:10  286.9645    0.1157   79.2462  103.9981     7325.6107     7321.0879     7330.1336 -77.691211  23.954086   0.000067   0.000614
1 65573U 25203J   26005.11809344  .00000100  00000-0  78393-4 0  9996 | 2 65573  81.3004 161.7928 0006203 277.2990  82.7461 13.84640520 16137 | 2026/01/05-02:50:03  345.3959    0.1156   82.8166  103.9981     7325.6104     7321.0663     7330.1545 -77.229916  25.402659   0.000117   0.000609
1 65573U 25203J   26006.12973755  .00000089  00000-0  68866-4 0  9996 | 2 65573  81.3005 160.8553 0006134 273.8022  86.2433 13.84640662 16273 | 2026/01/06-03:06:49  351.5220    0.1156   86.3134  103.9981     7325.6099     7321.1164     7330.1034 -76.804041  26.662907   0.000162   0.000592
1 65573U 25203J   26007.14138157  .00000082  00000-0  62049-4 0  9998 | 2 65573  81.3007 159.9177 0006104 270.4919  89.5539 13.84640764 16413 | 2026/01/07-03:23:35  357.6483    0.1157   89.6238  103.9981     7325.6095     7321.1380     7330.0811 -76.357648  27.916186   0.000205   0.000575
1 65573U 25203J   26008.15302570  .00000072  00000-0  53923-4 0  9992 | 2 65573  81.3007 158.9800 0006098 267.3879  92.6580 13.84640788 16559 | 2026/01/08-03:40:21    3.7749    0.1157   92.7278  103.9981     7325.6094     7321.1423     7330.0766 -75.890567  29.162058   0.000244   0.000559
1 65573U 25203J   26009.67049173  .00000069  00000-0  50692-4 0  9993 | 2 65573  81.3008 157.5737 0006120 262.6355  97.4107 13.84640879 16769 | 2026/01/09-16:05:30  192.9643    0.1157   97.4802  103.9981     7325.6091     7321.1258     7330.0924 -75.152103  31.015826   0.000304   0.000531
1 65573U 25203J   26010.89891651  .00000060  00000-0  42989-4 0  9996 | 2 65573  81.3009 156.4352 0006128 258.7373 101.3095 13.84640964 16930 | 2026/01/10-21:34:26  277.5459    0.1156  101.3783  103.9981     7325.6088     7321.1197     7330.0980 -74.521097  32.502960   0.000350   0.000503
1 65573U 25203J   26011.91056044  .00000051  00000-0  35184-4 0  9998 | 2 65573  81.3011 155.4976 0006152 255.6469 104.4005 13.84640996 17079 | 2026/01/11-21:51:12  283.6719    0.1157  104.4688  103.9981     7325.6087     7321.1020     7330.1154 -73.979440  33.718116   0.000386   0.000479
1 65573U 25203J   26012.92220426  .00000055  00000-0  38642-4 0  9993 | 2 65573  81.3013 154.5601 0006155 252.3467 107.7018 13.84641144 17213 | 2026/01/12-22:07:58  289.7972    0.1157  107.7690  103.9981     7325.6082     7321.0993     7330.1171 -73.418031  34.924120   0.000421   0.000449
1 65573U 25203J   26014.51192988  .00000052  00000-0  35850-4 0  9996 | 2 65573  81.3013 153.0868 0006201 247.4796 112.5705 13.84641404 17434 | 2026/01/14-12:17:10  145.1370    0.1157  112.6361  103.9980     7325.6073     7321.0647     7330.1499 -72.495822  36.800233   0.000471   0.000403
1 65573U 25203J   26015.81261433  .00000067  00000-0  48823-4 0  9992 | 2 65573  81.3016 151.8815 0006209 243.3474 116.7047 13.84641722 17619 | 2026/01/15-19:30:09  255.8687    0.1156  116.7682  103.9980     7325.6061     7321.0577     7330.1546 -71.705957  38.317174   0.000507   0.000358
1 65573U 25203J   26017.33007930  .00000091  00000-0  70470-4 0  9991 | 2 65573  81.3017 150.4752 0006268 238.9236 121.1306 13.84642118 17827 | 2026/01/17-07:55:18   85.0560    0.1157  121.1921  103.9980     7325.6047     7321.0131     7330.1964 -70.744062  40.065497   0.000546   0.000308
1 65573U 25203J   26018.63076333  .00000106  00000-0  83583-4 0  9994 | 2 65573  81.3018 149.2699 0006312 234.9330 125.1236 13.84642442 18002 | 2026/01/18-15:08:17  195.7872    0.1157  125.1827  103.9980     7325.6036     7320.9797     7330.2275 -69.885722  41.544778   0.000576   0.000259
1 65573U 25203J   26019.64240636  .00000118  00000-0  94363-4 0  9996 | 2 65573  81.3019 148.3324 0006345 231.9202 128.1383 13.84642691 18146 | 2026/01/19-15:25:03  201.9114    0.1157  128.1955  103.9979     7325.6027     7320.9546     7330.2508 -69.196707  42.682721   0.000595   0.000220
1 65573U 25203J   26020.79856933  .00000186  00000-0  15488-3 0  9992 | 2 65573  81.3019 147.2610 0006387 228.5273 131.5336 13.84643374 18301 | 2026/01/20-19:09:56  260.3386    0.1157  131.5884  103.9979     7325.6003     7320.9215     7330.2792 -68.386512  43.969124   0.000615   0.000174
1 65573U 25203J   26022.31603339  .00000167  00000-0  13773-3 0  9996 | 2 65573  81.3020 145.8548 0006429 223.7799 136.2849 13.84643625 18517 | 2026/01/22-07:35:05   89.5237    0.1157  136.3358  103.9979     7325.5994     7320.8898     7330.3091 -67.286982  45.634168   0.000634   0.000108
1 65573U 25203J   26023.61671651  .00000155  00000-0  12724-3 0  9994 | 2 65573  81.3020 144.6495 0006477 219.8336 140.2346 13.84643879 18698 | 2026/01/23-14:48:04  200.2535    0.1156  140.2820  103.9979     7325.5985     7320.8537     7330.3433 -66.312184  47.039446   0.000646   0.000051
1 65573U 25203J   26025.06191945  .00000153  00000-0  12607-3 0  9996 | 2 65573  81.3021 143.3102 0006527 215.4840 144.5884 13.84644310 18895 | 2026/01/25-01:29:09    3.2861    0.1157  144.6317  103.9978     7325.5970     7320.8156     7330.3784 -65.194692  48.576574   0.000653  -0.000014
1 65573U 25203J   26026.29034169  .00000132  00000-0  10730-3 0  9998 | 2 65573  81.3021 142.1718 0006583 211.9983 148.0775 13.84644565 19066 | 2026/01/26-06:58:05   87.8639    0.1157  148.1174  103.9978     7325.5961     7320.7737     7330.4186 -64.216728  49.862243   0.000655  -0.000067
1 65573U 25203J   26027.30198343  .00000122  00000-0  98473-4 0  9996 | 2 65573  81.3021 141.2343 0006628 209.0455 151.0335 13.84644776 19208 | 2026/01/27-07:14:51   93.9864    0.1158  151.0703  103.9978     7325.5954     7320.7400     7330.4508 -63.392299  50.906265   0.000653  -0.000112
1 65573U 25203J   26028.81944734  .00000018  00000-0  51984-5 0  9997 | 2 65573  81.3021 139.8281 0006764 206.8811 153.1997 13.84643983 19413 | 2026/01/28-19:40:00  283.1735    0.1157  153.2346  103.9979     7325.5982     7320.6431     7330.5532 -62.123950  52.446604   0.000658  -0.000155
1 65573U 25203J   26030.04787458 -.00000176  00000-0 -16747-3 0  9996 | 2 65573  81.3018 138.6896 0006774 203.0005 157.0850 13.84641639 19588 | 2026/01/30-01:08:56    7.7519    0.1157  157.1152  103.9980     7325.6064     7320.6441     7330.5688 -61.069385  53.670409   0.000643  -0.000213
1 65573U 25203J   26031.27630119 -.00000238  00000-0 -22259-3 0  9997 | 2 65573  81.3018 137.5513 0006811 199.1372 160.9530 13.84640465 19759 | 2026/01/31-06:37:52   92.3299    0.1157  160.9785  103.9981     7325.6106     7320.6211     7330.6001 -59.991129  54.873009   0.000625  -0.000270
1 65573U 25203J   26032.79381246 -.00000218  00000-0 -20520-3 0  9996 | 2 65573  81.3018 136.1449 0006774 193.9784 166.1186 13.84606708 19969 | 2026/02/01-19:03:05  281.5292    0.1156  166.1372  104.0007     7325.7296     7320.7672     7330.6921 -58.626263  56.328891   0.000587  -0.000337
1 65573U 25203J   26034.23905513  .00000026  00000-0  12950-4 0  9990 | 2 65573  81.3020 134.8059 0006894 189.6367 170.4659 13.84606544 20161 | 2026/02/03-05:44:14   84.5745    0.1157  170.4790  104.0007     7325.7302     7320.6799     7330.7806 -57.294111  57.683620   0.000561  -0.000401
1 65573U 25203J   26035.32298689 -.00000048  00000-0 -53522-4 0  9996 | 2 65573  81.3016 133.8015 0006955 187.0918 173.0142 13.84606303 20315 | 2026/02/04-07:45:06  116.8593    0.1157  173.0239  104.0007     7325.7311     7320.6360     7330.8261 -56.273884  58.678788   0.000540  -0.000439
1 65573U 25203J   26037.20180642 -.00000515  00000-0 -46963-3 0  9993 | 2 65573  81.3016 132.0605 0007004 182.3803 177.7321 13.84602977 20579 | 2026/02/06-04:50:36   76.8208    0.1156  177.7353  104.0009     7325.7428     7320.6119     7330.8738 -54.465156  60.361386   0.000490  -0.000500
1 65573U 25203J   26038.28574284 -.00000662  00000-0 -60084-3 0  9994 | 2 65573  81.3016 131.0559 0007018 179.6235 180.4928 13.84600722 20726 | 2026/02/07-06:51:28  109.1070    0.1156  180.4921  104.0011     7325.7508     7320.6095     7330.8920 -53.398488  61.307028   0.000457  -0.000532
1 65573U 25203J   26039.36968063 -.00000705  00000-0 -63908-3 0  9992 | 2 65573  81.3014 130.0515 0007075 176.4888 183.6320 13.84598816 20874 | 2026/02/08-08:52:20  141.3929    0.1157  183.6269  104.0012     7325.7575     7320.5745     7330.9405 -52.315492  62.233487   0.000421  -0.000568
1 65573U 25203J   26040.38135837 -.00001174  00000-0 -10575-2 0  9993 | 2 65573  81.3010 129.1130 0006978 173.7500 186.3745 13.84594986 21016 | 2026/02/09-09:09:09  147.5288    0.1156  186.3656  104.0015     7325.7710     7320.6591     7330.8829 -51.288888  63.081713   0.000379  -0.000586
1 65573U 25203J   26041.60982445 -.00000981  00000-0 -88482-3 0  9992 | 2 65573  81.3009 127.9744 0007051 170.6481 189.4809 13.84593604 21187 | 2026/02/10-14:38:08  232.1215    0.1157  189.4676  104.0016     7325.7759     7320.6105     7330.9413 -50.025202  64.088341   0.000338  -0.000619
1 65573U 25203J   26042.62150477 -.00000956  00000-0 -86292-3 0  9996 | 2 65573  81.3008 127.0369 0007085 168.1031 192.0295 13.84591657 21321 | 2026/02/11-14:54:58  238.2575    0.1157  192.0126  104.0018     7325.7827     7320.5924     7330.9731 -48.969849  64.898181   0.000301  -0.000641
1 65573U 25203J   26043.70544198  .00000025  00000-0  11767-4 0  9994 | 2 65573  81.3011 126.0330 0007347 164.9858 195.1518 13.84595859 21470 | 2026/02/12-16:55:50  270.5422    0.1156  195.1298  104.0015     7325.7679     7320.3857     7331.1502 -47.825463  65.746437   0.000264  -0.000686
1 65573U 25203J   26048.76448848  .00000070  00000-0  52376-4 0  9991 | 2 65573  81.3005 121.3459 0007403 151.8291 208.3268 13.84335923 22173 | 2026/02/17-18:20:51  301.4542    0.1157  208.2866  104.0210     7326.6849     7321.2610     7332.1089 -42.292801  69.434071   0.000041  -0.000739
1 65573U 25203J   26050.13773686  .00000072  00000-0  53547-4 0  9999 | 2 65573  81.3002 120.0737 0007460 148.3674 211.7932 13.84336060 22364 | 2026/02/19-03:18:20   78.4446    0.1156  211.7482  104.0210     7326.6844     7321.2187     7332.1501 -40.740633  70.355692  -0.000020  -0.000746
1 65573U 25203J   26052.16196316 -.00002434  00000-0 -22025-2 0  9994 | 2 65573  81.3020 118.1981 0007503 143.4480 216.7190 13.84005259 22647 | 2026/02/21-03:53:13   91.0305    0.1156  216.6676  104.0458     7327.8519     7322.3538     7333.3499 -38.416946  71.653007  -0.000109  -0.000742
1 65573U 25203J   26054.40305460  .00000040  00000-0  24841-4 0  9994 | 2 65573  81.2995 116.1240 0007569 137.3421 222.8324 13.84009307 22951 | 2026/02/23-09:40:23  182.0989    0.1156  222.7735  104.0455     7327.8376     7322.2911     7333.3840 -35.797413  72.994205  -0.000215  -0.000726
1 65573U 25203J   26055.48745357  .00000019  00000-0  66400-5 0  9990 | 2 65573  81.2998 115.1202 0007631 134.5510 225.6271 13.84009319 23102 | 2026/02/24-11:41:55  214.5516    0.1156  225.5646  104.0455     7327.8375     7322.2457     7333.4294 -34.513282  73.610399  -0.000265  -0.000716
1 65573U 25203J   26056.49955907  .00000034  00000-0  19954-4 0  9994 | 2 65573  81.2996 114.1829 0007668 132.0798 228.1012 13.84009475 23244 | 2026/02/25-11:59:21  220.8415    0.1156  228.0358  104.0455     7327.8370     7322.2180     7333.4560 -33.304446  74.164944  -0.000309  -0.000702
1 65573U 25203J   26057.58395765  .00000053  00000-0  37048-4 0  9990 | 2 65573  81.2993 113.1786 0007712 129.4572 230.7268 13.84009689 23397 | 2026/02/26-14:00:53  253.2951    0.1156  230.6584  104.0455     7327.8362     7322.1850     7333.4875 -31.999289  74.737017  -0.000354  -0.000685
1 65573U 25203J   26058.88523593  .00000069  00000-0  51449-4 0  9994 | 2 65573  81.2990 111.9734 0007741 126.2670 233.9203 13.84009857 23570 | 2026/02/27-21:14:44    4.2398    0.1156  233.8486  104.0455     7327.8356     7322.1632     7333.5081 -30.420143  75.393251  -0.000407  -0.000658
1 65573U 25203J   26060.18651391  .00000084  00000-0  64816-4 0  9997 | 2 65573  81.2987 110.7683 0007763 123.2232 236.9670 13.84010083 23755 | 2026/03/01-04:28:34  115.1847    0.1157  236.8925  104.0455     7327.8348     7322.1462     7333.5234 -28.827681  76.016073  -0.000456  -0.000628
1 65573U 25203J   26061.48779179  .00000087  00000-0  67512-4 0  9995 | 2 65573  81.2986 109.5632 0007768 120.1423 240.0504 13.84010198 23936 | 2026/03/02-11:42:25  226.1299    0.1156  239.9733  104.0455     7327.8344     7322.1422     7333.5267 -27.222546  76.605452  -0.000502  -0.000592
1 65573U 25203J   26062.49989669  .00000083  00000-0  63785-4 0  9998 | 2 65573  81.2985 108.6258 0007752 117.7426 242.4518 13.84010250 24073 | 2026/03/03-11:59:51  232.4210    0.1157  242.3731  104.0455     7327.8342     7322.1537     7333.5148 -25.965607  77.040466  -0.000535  -0.000561
1 65573U 25203J   26063.51200135  .00000084  00000-0  64990-4 0  9996 | 2 65573  81.2983 107.6884 0007780 115.2990 244.8974 13.84010426 24218 | 2026/03/04-12:17:16  238.7116    0.1157  244.8167  104.0455     7327.8336     7322.1326     7333.5347 -24.701690  77.454762  -0.000569  -0.000530
1 65573U 25203J   26064.59639897  .00000086  00000-0  66642-4 0  9994 | 2 65573  81.2981 106.6839 0007779 112.7029 247.4951 13.84010630 24365 | 2026/03/05-14:18:48  271.1665    0.1157  247.4128  104.0454     7327.8329     7322.1326     7333.5332 -23.339982  77.875711  -0.000601  -0.000494
1 65573U 25203J   26066.18684851  .00000077  00000-0  58952-4 0  9996 | 2 65573  81.2978 105.2108 0007792 108.9035 251.2967 13.84010886 24581 | 2026/03/07-04:29:03  126.7669    0.1157  251.2122  104.0454     7327.8320     7322.1222     7333.5418 -21.330191  78.449699  -0.000645  -0.000437
1 65573U 25203J   26067.48812508  .00000087  00000-0  67952-4 0  9993 | 2 65573  81.2977 104.0054 0007832 105.8591 254.3430 13.84011188 24760 | 2026/03/08-11:42:54  237.7125    0.1157  254.2566  104.0454     7327.8309     7322.0918     7333.5701 -19.675128  78.880957  -0.000679  -0.000390
1 65573U 25203J   26068.50022901  .00000080  00000-0  61018-4 0  9997 | 2 65573  81.2976 103.0679 0007843 103.4876 256.7155 13.84011303 24908 | 2026/03/09-12:00:19  244.0040    0.1157  256.6281  104.0454     7327.8305     7322.0833     7333.5777 -18.381843  79.192219  -0.000702  -0.000351
1 65573U 25203J   26069.51233286  .00000071  00000-0  53448-4 0  9997 | 2 65573  81.2975 102.1304 0007858 101.1306 259.0735 13.84011380 25042 | 2026/03/10-12:17:45  250.2955    0.1157  258.9851  104.0454     7327.8303     7322.0720     7333.5885 -17.083639  79.482280  -0.000722  -0.000310
1 65573U 25203J   26070.59672971  .00000069  00000-0  51081-4 0  9993 | 2 65573  81.2974 101.1259 0007859  98.5601 261.6447 13.84011482 25195 | 2026/03/11-14:19:17  282.7510    0.1157  261.5556  104.0454     7327.8299     7322.0710     7333.5888 -15.687596  79.769459  -0.000740  -0.000265
1 65573U 25203J   26072.47635070  .00000077  00000-0  58653-4 0  9992 | 2 65573  81.2971  99.3847 0007852  94.0979 266.1075 13.84011663 25452 | 2026/03/13-11:25:56  243.0078    0.1156  266.0177  104.0454     7327.8293     7322.0754     7333.5831 -13.256509  80.208998  -0.000764  -0.000183
1 65573U 25203J   26076.16361228  .00000063  00000-0  46144-4 0  9990 | 2 65573  81.2965  95.9695 0007797  86.6966 273.5083 13.83910875 25968 | 2026/03/17-03:55:36  137.4720    0.1157  273.4191  104.0529     7328.1850     7322.4712     7333.8988  -8.454758  80.855661  -0.000779  -0.000036
1 65573U 25203J   26077.46498248  .00000064  00000-0  47155-4 0  9991 | 2 65573  81.2966  94.7641 0007783  83.5601 276.6442 13.83911043 26146 | 2026/03/18-11:09:34   69.4028    0.1157  276.5556  104.0529     7328.1844     7322.4809     7333.8880  -6.751963  81.015728  -0.000778   0.000023
1 65573U 25203J   26078.47715915  .00000057  00000-0  40687-4 0  9991 | 2 65573  81.2966  93.8266 0007774  81.1164 279.0872 13.83911146 26280 | 2026/03/19-11:27:06   75.7339    0.1156  278.9992  104.0529     7328.1841     7322.4871     7333.8810  -5.425502  81.115357  -0.000774   0.000069
1 65573U 25203J   26079.48933573  .00000055  00000-0  38518-4 0  9993 | 2 65573  81.2967  92.8891 0007768  78.7625 281.4404 13.83911259 26420 | 2026/03/20-11:44:38   82.0651    0.1156  281.3531  104.0529     7328.1837     7322.4911     7333.8762  -4.097593  81.193369  -0.000769   0.000113
1 65573U 25203J   26080.71840710  .00000052  00000-0  36273-4 0  9994 | 2 65573  81.2967  91.7507 0007759  75.9039 284.2979 13.83911414 26599 | 2026/03/21-17:14:30  166.1229    0.1156  284.2117  104.0529     7328.1831     7322.4972     7333.8691  -2.483673  81.258752  -0.000758   0.000166
1 65573U 25203J   26082.30896988  .00000055  00000-0  38670-4 0  9995 | 2 65573  81.2967  90.2774 0007735  72.1428 288.0572 13.83911580 26814 | 2026/03/23-07:24:54   22.3478    0.1157  287.9729  104.0529     7328.1825     7322.5142     7333.8509  -0.393600  81.295747  -0.000737   0.000234
1 65573U 25203J   26083.46574265  .00000062  00000-0  45472-4 0  9990 | 2 65573  81.2967  89.2060 0007710  69.4579 290.7404 13.83911724 26970 | 2026/03/24-11:10:40   81.1572    0.1156  290.6577  104.0529     7328.1820     7322.5320     7333.8321   1.126567  81.288894  -0.000718   0.000281
1 65573U 25203J   26084.47791872  .00000071  00000-0  52989-4 0  9998 | 2 65573  81.2967  88.2684 0007691  67.0701 293.1267 13.83911857 27118 | 2026/03/25-11:28:12   87.4893    0.1157  293.0456  104.0529     7328.1816     7322.5455     7333.8177   2.456585  81.259576  -0.000699   0.000321
1 65573U 25203J   26086.14077904  .00000083  00000-0  64187-4 0  9993 | 2 65573  81.2967  86.7282 0007656  63.0999 297.0939 13.83912116 27344 | 2026/03/27-03:22:43  328.9684    0.1157  297.0158  104.0529     7328.1807     7322.5702     7333.7911   4.639818  81.164189  -0.000662   0.000385
1 65573U 25203J   26087.22525318  .00000085  00000-0  66058-4 0  9991 | 2 65573  81.2968  85.7237 0007645  60.5591 299.6327 13.83912200 27491 | 2026/03/28-05:24:21    1.5354    0.1156  299.5565  104.0528     7328.1804     7322.5780     7333.7828   6.061997  81.070475  -0.000636   0.000424
1 65573U 25203J   26088.23742882  .00000089  00000-0  69871-4 0  9990 | 2 65573  81.2969  84.7862 0007619  58.1328 302.0569 13.83912332 27636 | 2026/03/29-05:41:53    7.8680    0.1157  301.9829  104.0528     7328.1799     7322.5966     7333.7632   7.387648  80.960537  -0.000608   0.000459
1 65573U 25203J   26089.24960432  .00000078  00000-0  59968-4 0  9999 | 2 65573  81.2970  83.8487 0007588  55.6779 304.5094 13.83912413 27773 | 2026/03/30-05:59:25   14.2008    0.1156  304.4377  104.0528     7328.1796     7322.6190     7333.7402   8.711324  80.828925  -0.000577   0.000493
1 65573U 25203J   26090.26177964  .00000074  00000-0  56135-4 0  9992 | 2 65573  81.2972  82.9112 0007571  53.2829 306.9021 13.83912558 27914 | 2026/03/31-06:16:57   20.5336    0.1156  306.8327  104.0528     7328.1791     7322.6309     7333.7273  10.032684  80.675771  -0.000546   0.000524
1 65573U 25203J   26091.41855121  .00000070  00000-0  52018-4 0  9990 | 2 65573  81.2973  81.8399 0007531  50.4769 309.7052 13.83912737 28070 | 2026/04/01-10:02:42   79.3400    0.1157  309.6388  104.0528     7328.1785     7322.6596     7333.6973  11.539309  80.474191  -0.000507   0.000557
1 65573U 25203J   26092.43072619  .00000084  00000-0  64551-4 0  9996 | 2 65573  81.2975  80.9024 0007511  48.1300 312.0496 13.83912989 28214 | 2026/04/02-10:20:14   85.6730    0.1156  311.9856  104.0528     7328.1776     7322.6734     7333.6818  12.854493  80.274812  -0.000473   0.000583
1 65573U 25203J   26093.44290115  .00000072  00000-0  53873-4 0  9993 | 2 65573  81.2976  79.9650 0007480  45.7234 314.4535 13.83913069 28357 | 2026/04/03-10:37:46   92.0061    0.1157  314.3923  104.0528     7328.1773     7322.6958     7333.6588  14.166085  80.053868  -0.000436   0.000608
1 65573U 25203J   26094.45507605  .00000057  00000-0  40696-4 0  9992 | 2 65573  81.2978  79.0276 0007457  43.3139 316.8603 13.83913114 28494 | 2026/04/04-10:55:18   98.3392    0.1157  316.8018  104.0528     7328.1771     7322.7125     7333.6418  15.473907  79.811594  -0.000399   0.000630
1 65573U 25203J   26095.46725087  .00000054  00000-0  37902-4 0  9993 | 2 65573  81.2979  78.0902 0007424  40.8836 319.2876 13.83913183 28631 | 2026/04/05-11:12:50  104.6725    0.1157  319.2321  104.0528     7328.1769     7322.7364     7333.6173  16.777574  79.547857  -0.000360   0.000649
1 65573U 25203J   26096.91321451  .00000063  00000-0  46330-4 0  9996 | 2 65573  81.2981  76.7510 0007346  37.1870 322.9794 13.83913389 28834 | 2026/04/06-21:55:01  267.4415    0.1157  322.9287  104.0528     7328.1762     7322.7929     7333.5594  18.632175  79.134209  -0.000298   0.000671
1 65573U 25203J   26097.92538897  .00000069  00000-0  51535-4 0  9991 | 2 65573  81.2982  75.8137 0007308  34.6342 325.5289 13.83913546 28972 | 2026/04/07-22:12:33  273.7751    0.1157  325.4815  104.0527     7328.1756     7322.8202     7333.5310  19.924203  78.818928  -0.000255   0.000685
1 65573U 25203J   26098.93756336  .00000073  00000-0  55237-4 0  9991 | 2 65573  81.2983  74.8763 0007269  32.0585 328.1012 13.83913680 29113 | 2026/04/08-22:30:05  280.1089    0.1157  328.0572  104.0527     7328.1751     7322.8483     7333.5020  21.211039  78.482517  -0.000212   0.000695
1 65573U 25203J   26100.02203586  .00000078  00000-0  59281-4 0  9997 | 2 65573  81.2984  73.8720 0007229  29.4473 330.7089 13.83913813 29265 | 2026/04/10-00:31:43  312.6772    0.1156  330.6683  104.0527     7328.1747     7322.8771     7333.4722  22.583407  78.098781  -0.000167   0.000703
1 65573U 25203J   26101.17880634  .00000077  00000-0  58700-4 0  9993 | 2 65573  81.2985  72.8007 0007185  26.6207 333.5317 13.83913938 29429 | 2026/04/11-04:17:28   11.4844    0.1157  333.4950  104.0527     7328.1742     7322.9089     7333.4395  24.039672  77.662992  -0.000118   0.000709
1 65573U 25203J   26102.19098036  .00000074  00000-0  55976-4 0  9992 | 2 65573  81.2988  71.8635 0007150  24.2754 335.8738 13.83914099 29567 | 2026/04/12-04:35:00   17.8178    0.1157  335.8403  104.0527     7328.1737     7322.9340     7333.4133  25.306844  77.259682  -0.000076   0.000711
1 65573U 25203J   26103.85383739  .00000069  00000-0  51239-4 0  9995 | 2 65573  81.2992  70.3237 0007083  20.2363 339.9073 13.83914348 29790 | 2026/04/13-20:29:31  259.2991    0.1157  339.8794  104.0527     7328.1728     7322.9822     7333.3633  27.373912  76.552132  -0.000007   0.000708
1 65573U 25203J   26104.86601106  .00000063  00000-0  45648-4 0  9999 | 2 65573  81.2994  69.3864 0007035  17.6770 342.4630 13.83914479 29934 | 2026/04/14-20:47:03  265.6330    0.1157  342.4387  104.0527     7328.1723     7323.0169     7333.3277  28.622578  76.094287   0.000036   0.000703
1 65573U 25203J   26105.95048289  .00000043  00000-0  28384-4 0  9993 | 2 65573  81.2996  68.3822 0006981  14.7766 345.3593 13.83914503 30087 | 2026/04/15-22:48:41  298.2018    0.1157  345.3391  104.0527     7328.1722     7323.0564     7333.2880  29.951861  75.581155   0.000083   0.000693
1 65573U 25203J   26107.97483066  .00000017  00000-0  43860-5 0  9991 | 2 65573  81.3000  66.5078 0006883   9.5572 350.5714 13.83914372 30363 | 2026/04/17-23:23:45  310.8694    0.1157  350.5585  104.0527     7328.1727     7323.1287     7333.2167  32.408149  74.561397   0.000166   0.000668
1 65573U 25203J   26109.13160094  .00000009  00000-0 -29278-5 0  9993 | 2 65573  81.3002  65.4367 0006823   6.4406 353.6837 13.83914246 30528 | 2026/04/19-03:09:30    9.6770    0.1157  353.6751  104.0527     7328.1731     7323.1731     7333.1731  33.796356  73.942740   0.000212   0.000648
1 65573U 25203J   26110.14377492  .00000007  00000-0 -43647-5 0  9992 | 2 65573  81.3004  64.4995 0006774   3.7154 356.4052 13.83914193 30667 | 2026/04/20-03:27:02   16.0109    0.1157  356.4003  104.0527     7328.1733     7323.2092     7333.1374  35.001365  73.380239   0.000251   0.000629
1 65573U 25203J   26111.37284324  .00000005  00000-0 -60333-5 0  9998 | 2 65573  81.3000  63.3618 0006699   0.3085 359.8075 13.83914194 30837 | 2026/04/21-08:56:53  101.0529    0.1157  359.8072  104.0527     7328.1733     7323.2642     7333.0825  36.451272  72.670453   0.000297   0.000600
1 65573U 25203J   26112.60191175  .00000024  00000-0  11097-4 0  9998 | 2 65573  81.3006  62.2236 0006648 357.3636   2.7485 13.83914212 31008 | 2026/04/22-14:26:45  185.1132    0.1158    2.7522  104.0527     7328.1733     7323.3015     7333.0450  37.887888  71.932576   0.000337   0.000573
1 65573U 25203J   26113.61408554  .00000034  00000-0  20187-4 0  9993 | 2 65573  81.3009  61.2865 0006596 354.6637   5.4449 13.83914328 31144 | 2026/04/23-14:44:16  191.4426    0.1158    5.4521  104.0527     7328.1728     7323.3392     7333.0065  39.059404  71.303571   0.000369   0.000547
1 65573U 25203J   26114.84315352  .00000042  00000-0  27031-4 0  9996 | 2 65573  81.3010  60.1486 0006541 351.1400   8.9639 13.83914503 31316 | 2026/04/24-20:14:08  276.4891    0.1156    8.9756  104.0527     7328.1722     7323.3789     7332.9656  40.467754  70.513924   0.000409   0.000510
1 65573U 25203J   26115.85532716  .00000048  00000-0  32572-4 0  9995 | 2 65573  81.3012  59.2116 0006484 348.4137  11.6870 13.83914632 31455 | 2026/04/25-20:31:40  282.8223    0.1158   11.7021  104.0527     7328.1718     7323.4202     7332.9234  41.615560  69.842897   0.000437   0.000479
1 65573U 25203J   26116.93979885  .00000046  00000-0  30572-4 0  9993 | 2 65573  81.3014  58.2076 0006427 345.4030  14.6940 13.83914735 31609 | 2026/04/26-22:33:18  315.3905    0.1157   14.7127  104.0527     7328.1714     7323.4616     7332.8812  42.833078  69.103148   0.000465   0.000443
1 65573U 25203J   26117.95197242  .00000038  00000-0  23473-4 0  9998 | 2 65573  81.3016  57.2706 0006378 342.5242  17.5694 13.83914789 31740 | 2026/04/27-22:50:50  321.7239    0.1157   17.5915  104.0526     7328.1712     7323.4973     7332.8451  43.957503  68.393626   0.000490   0.000408
1 65573U 25203J   26119.10874227  .00000032  00000-0  18208-4 0  9996 | 2 65573  81.3018  56.1997 0006313 339.4160  20.6741 13.83914834 31902 | 2026/04/29-02:36:35   20.5305    0.1157   20.6997  104.0526     7328.1711     7323.5448     7332.7973  45.228189  67.560296   0.000513   0.000368
1 65573U 25203J   26120.19321400  .00000031  00000-0  17264-4 0  9997 | 2 65573  81.3020  55.1958 0006252 336.3913  23.6956 13.83914870 32053 | 2026/04/30-04:38:13   53.0981    0.1157   23.7244  104.0526     7328.1709     7323.5894     7332.7525  46.405048  66.757672   0.000533   0.000327
1 65573U 25203J   26121.27768568  .00000036  00000-0  21355-4 0  9998 | 2 65573  81.3021  54.1918 0006199 333.2729  26.8107 13.83914940 32208 | 2026/05/01-06:39:52   85.6700    0.1157   26.8428  104.0526     7328.1707     7323.6280     7332.7134  47.567724  65.934385   0.000550   0.000286
1 65573U 25203J   26122.28985921  .00000044  00000-0  29026-4 0  9996 | 2 65573  81.3023  53.2549 0006147 330.4136  29.6672 13.83915044 32343 | 2026/05/02-06:57:23   91.9985    0.1157   29.7021  104.0526     7328.1703     7323.6657     7332.6749  48.639595  65.147938   0.000563   0.000247
1 65573U 25203J   26123.51892698  .00000058  00000-0  41187-4 0  9998 | 2 65573  81.3024  52.1172 0006089 326.8927  33.1848 13.83915192 32514 | 2026/05/03-12:27:15  176.0578    0.1157   33.2230  104.0526     7328.1698     7323.7077     7332.6319  49.923600  64.169420   0.000576   0.000198
1 65573U 25203J   26124.53110038  .00000066  00000-0  48748-4 0  9991 | 2 65573  81.3024  51.1802 0006041 323.9082  36.1666 13.83915306 32654 | 2026/05/04-12:44:47  182.3904    0.1157   36.2075  104.0526     7328.1694     7323.7424     7332.5963  50.966287  63.344438   0.000583   0.000157
1 65573U 25203J   26125.76016786  .00000081  00000-0  62751-4 0  9999 | 2 65573  81.3024  50.0425 0005979 320.2823  39.7895 13.83915558 32826 | 2026/05/05-18:14:38  267.4308    0.1157   39.8334  104.0526     7328.1685     7323.7870     7332.5500  52.213963  62.319999   0.000588   0.000107
1 65573U 25203J   26126.84463896  .00000083  00000-0  63960-4 0  9992 | 2 65573  81.3025  49.0387 0005934 317.0208  43.0484 13.83915762 32979 | 2026/05/06-20:16:16  299.9977    0.1156   43.0948  104.0526     7328.1678     7323.8192     7332.5163  53.297782  61.395789   0.000590   0.000063
1 65573U 25203J   26127.85681183  .00000089  00000-0  69913-4 0  9995 | 2 65573  81.3025  48.1017 0005894 313.9513  46.1157 13.83915999 33118 | 2026/05/07-20:33:48  306.3299    0.1157   46.1644  104.0526     7328.1669     7323.8477     7332.4862  54.294661  60.516000   0.000589   0.000021
1 65573U 25203J   26128.86898455  .00000096  00000-0  75751-4 0  9994 | 2 65573  81.3025  47.1647 0005836 310.9588  49.1063 13.83916257 33253 | 2026/05/08-20:51:20  312.6618    0.1157   49.1569  104.0525     7328.1660     7323.8893     7332.4428  55.277019  59.620027   0.000583  -0.000019
