# SPACE DATA - HISTORICAL TLEs
# ----------------------------
# NORAD_ID    : 65565
# OBJECT_NAME : PRAETORIAN SDA_602
# --------------------------------------------------------------------+-----------------------------------------------------------------------+----------------------------------------------------------------------------------------------------------------------------------------
#                  LINE 1                                             |                 LINE 2                                                |      DERIVED PARAMETERS
# --------------------------------------------------------------------+-----------------------------------------------------------------------+----------------------------------------------------------------------------------------------------------------------------------------
# NORAD  COSPAR     TLE_EPOCH      MEANMOT1 MEANMOT2   BSTAR  #  REV  |   NORAD    INC     RAAN     ECC    ARGPER  MEANANOM   MEANMOT     REV |  CAL_DATE              LONG     ARGLAT     PERIOD        SMA         PERIGEE        APOGEE      INC_X      INC_Y      ECC_X      ECC_Y
# ------ ------   -------------- ----------  -------  ------- -- ----     -----  ------- -------- ------- -------- -------- -----------  ----   ------------------- ---------  --------  --------  ------------  ------------   ----------- ---------- ----------  ---------  ---------   
1 65572U 25203H   25266.58335648 -.00046688  00000-0 -41727-1 0  9996 | 2 65572  81.3015 257.7643 0006925 185.4839 247.3644 13.84788245  1303 | 2025/09/23-14:00:01  242.0671   72.7751  247.2912  103.9870     7325.0894     7320.0168     7330.1620 -17.230533 -79.454658   0.000081   0.000688
1 65572U 25203H   25267.86932873  .00000074  00000-0  54723-4 0  9991 | 2 65572  81.3007 256.5725 0006996 182.1782 177.9346 13.84764421  1982 | 2025/09/24-20:51:50   60.2120    0.1157  177.9375  103.9888     7325.1734     7320.0487     7330.2981 -18.879224 -79.078308   0.000136   0.000686
1 65572U 25203H   25268.88088312  .00000079  00000-0  59613-4 0  9992 | 2 65572  81.3009 255.6346 0007034 179.4488 180.6678 13.84764581  2122 | 2025/09/25-21:08:28   66.3027    0.1157  180.6669  103.9888     7325.1728     7320.0203     7330.3254 -20.171154 -78.758878   0.000181   0.000680
1 65572U 25203H   25269.96469124  .00000112  00000-0  88728-4 0  9993 | 2 65572  81.3010 254.6298 0007078 176.3264 183.7946 13.84764886  2271 | 2025/09/26-23:09:09   98.5423    0.1156  183.7892  103.9888     7325.1718     7319.9870     7330.3565 -21.549208 -78.393139   0.000231   0.000669
1 65572U 25203H   25271.19300680  .00000143  00000-0  11609-3 0  9999 | 2 65572  81.3012 253.4912 0007146 173.1645 186.9611 13.84765241  2446 | 2025/09/28-04:37:55  183.0805    0.1157  186.9512  103.9887     7325.1705     7319.9360     7330.4051 -23.102761 -77.949648   0.000283   0.000656
1 65572U 25203H   25272.27681458  .00000114  00000-0  90801-4 0  9994 | 2 65572  81.3013 252.4864 0007204 170.1399 189.9901 13.84765375  2599 | 2025/09/29-06:38:36  215.3200    0.1157  189.9758  103.9887     7325.1700     7319.8930     7330.4471 -24.466177 -77.532623   0.000331   0.000640
1 65572U 25203H   25273.28836815  .00000150  00000-0  12234-3 0  9998 | 2 65572  81.3015 251.5486 0007253 167.3068 192.8273 13.84765753  2737 | 2025/09/30-06:55:15  221.4100    0.1157  192.8089  103.9887     7325.1687     7319.8558     7330.4817 -25.731937 -77.121990   0.000375   0.000621
1 65572U 25203H   25274.51668275  .00000178  00000-0  14755-3 0  9998 | 2 65572  81.3017 250.4097 0007296 164.0301 196.1088 13.84766288  2900 | 2025/10/01-12:24:01  305.9481    0.1157  196.0856  103.9887     7325.1668     7319.8224     7330.5113 -27.259816 -76.595489   0.000424   0.000594
1 65572U 25203H   25275.52823571  .00000170  00000-0  14085-3 0  9990 | 2 65572  81.3019 249.4720 0007353 161.3895 198.7532 13.84766607  3048 | 2025/10/02-12:40:39  312.0381    0.1156  198.7261  103.9886     7325.1657     7319.7795     7330.5519 -28.509738 -76.139305   0.000464   0.000570
1 65572U 25203H   25276.61204228  .00000140  00000-0  11343-3 0  9994 | 2 65572  81.3020 248.4673 0007407 158.5285 201.6184 13.84766815  3191 | 2025/10/03-14:41:20  344.2772    0.1157  201.5872  103.9886     7325.1650     7319.7392     7330.5907 -29.840450 -75.627791   0.000505   0.000542
1 65572U 25203H   25277.84035600  .00000130  00000-0  10454-3 0  9997 | 2 65572  81.3022 247.3287 0007467 155.3014 204.8502 13.84767112  3362 | 2025/10/04-20:10:06   68.8147    0.1157  204.8143  103.9886     7325.1639     7319.6942     7330.6336 -31.337436 -75.020083   0.000549   0.000506
1 65572U 25203H   25279.21317694  .00000106  00000-0  83809-4 0  9994 | 2 65572  81.3024 246.0562 0007528 151.8144 208.3422 13.84767387  3554 | 2025/10/06-05:06:58  205.6509    0.1157  208.3013  103.9886     7325.1629     7319.6486     7330.6773 -32.995796 -74.305839   0.000594   0.000462
1 65572U 25203H   25280.29698280  .00000092  00000-0  71520-4 0  9998 | 2 65572  81.3025 245.0515 0007580 149.0176 211.1429 13.84767595  3701 | 2025/10/07-07:07:39  237.8900    0.1156  211.0980  103.9886     7325.1622     7319.6097     7330.7147 -34.293676 -73.715943   0.000628   0.000425
1 65572U 25203H   25281.45304221  .00000083  00000-0  63121-4 0  9994 | 2 65572  81.3027 243.9800 0007629 146.0615 214.1032 13.84767778  3869 | 2025/10/08-10:52:22  296.2782    0.1157  214.0542  103.9886     7325.1616     7319.5732     7330.7499 -35.666263 -73.061937   0.000660   0.000382
1 65572U 25203H   25282.60910165  .00000059  00000-0  41572-4 0  9991 | 2 65572  81.3029 242.9085 0007676 143.0487 217.1200 13.84767824  4022 | 2025/10/09-14:37:06  354.6665    0.1157  217.0670  103.9886     7325.1614     7319.5386     7330.7842 -37.026384 -72.382376   0.000690   0.000336
1 65572U 25203H   25283.83741468  .00000059  00000-0  41568-4 0  9990 | 2 65572  81.3031 241.7700 0007730 139.9767 220.1961 13.84767935  4191 | 2025/10/10-20:05:52   79.2043    0.1157  220.1390  103.9885     7325.1610     7319.4987     7330.8234 -38.457354 -71.632576   0.000718   0.000286
1 65572U 25203H   25284.84896659  .00000045  00000-0  29070-4 0  9994 | 2 65572  81.3033 240.8324 0007765 137.5162 222.6598 13.84767914  4332 | 2025/10/11-20:22:30   85.2944    0.1157  222.5995  103.9885     7325.1611     7319.4731     7330.8491 -39.624460 -70.993864   0.000737   0.000244
1 65572U 25203H   25285.86051846  .00000030  00000-0  15804-4 0  9992 | 2 65572  81.3036 239.8949 0007797 135.0259 225.1531 13.84767872  4474 | 2025/10/12-20:39:08   91.3846    0.1157  225.0898  103.9885     7325.1612     7319.4498     7330.8727 -40.780889 -70.336295   0.000753   0.000201
1 65572U 25203H   25287.30559223  .00000046  00000-0  29968-4 0  9998 | 2 65572  81.3039 238.5556 0007853 131.4583 228.7250 13.84768037  4673 | 2025/10/14-07:20:03  254.3705    0.1157  228.6574  103.9885     7325.1607     7319.4082     7330.9131 -42.413880 -69.364162   0.000773   0.000137
1 65572U 25203H   25288.60615860  .00000056  00000-0  38984-4 0  9991 | 2 65572  81.3041 237.3502 0007938 127.9827 232.2048 13.84768201  4857 | 2025/10/15-14:32:52    5.0575    0.1157  232.1330  103.9885     7325.1601     7319.3454     7330.9748 -43.863791 -68.456735   0.000790   0.000074
1 65572U 25203H   25289.61770990  .00000051  00000-0  34497-4 0  9999 | 2 65572  81.3042 236.4128 0007961 125.5956 234.5944 13.84768317  4998 | 2025/10/16-14:49:30   11.1479    0.1157  234.5201  103.9885     7325.1597     7319.3281     7330.9912 -44.977927 -67.730045   0.000796   0.000028
1 65572U 25203H   25290.84602213  .00000048  00000-0  31605-4 0  9992 | 2 65572  81.3044 235.2745 0007998 122.5879 237.6051 13.84768466  5161 | 2025/10/17-20:18:16   95.6863    0.1157  237.5278  103.9885     7325.1591     7319.3005     7331.0178 -46.314675 -66.823322   0.000799  -0.000030
1 65572U 25203H   25291.85757337  .00000042  00000-0  26581-4 0  9993 | 2 65572  81.3045 234.3371 0008029 120.1738 240.0215 13.84768513  5300 | 2025/10/18-20:34:54  101.7769    0.1156  239.9418  103.9885     7325.1590     7319.2776     7331.0403 -47.401763 -66.056752   0.000799  -0.000077
1 65572U 25203H   25292.94137809  .00000050  00000-0  33478-4 0  9992 | 2 65572  81.3046 233.3328 0008067 117.5348 242.6629 13.84768653  5459 | 2025/10/19-22:35:35  134.0167    0.1156  242.5808  103.9885     7325.1585     7319.2493     7331.0677 -48.552347 -65.215853   0.000796  -0.000128
1 65572U 25203H   25294.53095795  .00000071  00000-0  52694-4 0  9990 | 2 65572  81.3049 231.8598 0008109 113.6363 246.5646 13.84768975  5678 | 2025/10/21-12:44:34  349.3021    0.1157  246.4794  103.9885     7325.1573     7319.2174     7331.0973 -50.212919 -63.946459   0.000785  -0.000203
1 65572U 25203H   25295.83152307  .00000085  00000-0  64981-4 0  9994 | 2 65572  81.3050 230.6546 0008137 110.4959 249.7072 13.84769218  5856 | 2025/10/22-19:57:23   99.9904    0.1157  249.6198  103.9884     7325.1565     7319.1960     7331.1170 -51.546870 -62.876253   0.000770  -0.000263
1 65572U 25203H   25296.91532744  .00000068  00000-0  50163-4 0  9999 | 2 65572  81.3053 229.6504 0008120 108.0346 252.1697 13.84769162  6003 | 2025/10/23-21:58:04  132.2312    0.1157  252.0811  103.9885     7325.1567     7319.2087     7331.1047 -52.641097 -61.963430   0.000751  -0.000308
1 65572U 25203H   25297.92687948 -.00000013  00000-0 -22281-4 0  9990 | 2 65572  81.3050 228.7135 0008170 105.4678 254.7382 13.84768460  6148 | 2025/10/24-22:14:42  138.3222    0.1157  254.6479  103.9885     7325.1592     7319.1745     7331.1438 -53.647042 -61.094172   0.000735  -0.000356
1 65572U 25203H   25298.93843058 -.00000033  00000-0 -40243-4 0  9998 | 2 65572  81.3052 227.7762 0008200 102.9891 257.2182 13.84768308  6280 | 2025/10/25-22:31:20  144.4136    0.1157  257.1266  103.9885     7325.1597     7319.1531     7331.1663 -54.639392 -60.208574   0.000716  -0.000400
1 65572U 25203H   25299.94998266 -.00000109  00000-0 -10718-3 0  9999 | 2 65572  81.3055 226.8390 0008247 100.4456 259.7631 13.84767548  6428 | 2025/10/26-22:47:58  150.5052    0.1157  259.6701  103.9886     7325.1624     7319.1213     7331.2034 -55.617089 -59.307030   0.000694  -0.000446
1 65572U 25203H   25302.26210584 -.00000549  00000-0 -49851-3 0  9997 | 2 65572  81.3055 224.6967 0008244  94.8229 265.3869 13.84763472  6748 | 2025/10/29-06:17:25  267.2897    0.1156  265.2927  103.9889     7325.1768     7319.1379     7331.2156 -57.795200 -57.186529   0.000627  -0.000535
1 65572U 25203H   25303.27365928 -.00000020  00000-0 -28130-4 0  9994 | 2 65572  81.3055 223.7593 0008295  92.8749 267.3357 13.84764738  6889 | 2025/10/30-06:34:04  273.3826    0.1157  267.2408  103.9888     7325.1723     7319.0961     7331.2485 -58.723036 -56.233347   0.000603  -0.000570
1 65572U 25203H   25304.28521317 -.00000058  00000-0 -61958-4 0  9998 | 2 65572  81.3056 222.8221 0008329  90.4049 269.8063 13.84764459  7021 | 2025/10/31-06:50:42  279.4756    0.1158  269.7109  103.9888     7325.1733     7319.0721     7331.2744 -59.635034 -55.265389   0.000570  -0.000607
1 65572U 25203H   25305.51352837 -.00000039  00000-0 -45186-4 0  9998 | 2 65572  81.3057 221.6841 0008370  87.4851 272.7264 13.84764427  7199 | 2025/11/01-12:19:28    4.0174    0.1157  272.6306  103.9888     7325.1734     7319.0422     7331.3046 -60.720947 -54.070171   0.000529  -0.000649
1 65572U 25203H   25307.46438086  .00000028  00000-0  13902-4 0  9992 | 2 65572  81.3060 219.8767 0008443  82.6523 277.5594 13.84764950  7463 | 2025/11/03-11:08:42  350.0544    0.1158  277.4635  103.9888     7325.1715     7318.9869     7331.3562 -62.396334 -52.128334   0.000454  -0.000712
1 65572U 25203H   25308.76494907  .00000037  00000-0  21955-4 0  9997 | 2 65572  81.3061 218.6717 0008414  79.6524 280.5581 13.84765066  7640 | 2025/11/04-18:21:31  100.7471    0.1157  280.4633  103.9888     7325.1711     7319.0077     7331.3345 -63.478854 -50.804694   0.000399  -0.000741
1 65572U 25203H   25310.28227896  .00000043  00000-0  27151-4 0  9999 | 2 65572  81.3062 217.2661 0008343  76.0463 284.1621 13.84765042  7850 | 2025/11/06-06:46:28  289.8891    0.1157  284.0694  103.9888     7325.1712     7319.0598     7331.2826 -64.706066 -49.232338   0.000330  -0.000766
1 65572U 25203H   25311.72735514  .00000032  00000-0  17657-4 0  9998 | 2 65572  81.3061 215.9274 0008334  72.7084 287.4984 13.84764930  8052 | 2025/11/07-17:27:23   92.8811    0.1157  287.4073  103.9888     7325.1716     7319.0668     7331.2764 -65.838520 -47.707140   0.000266  -0.000790
1 65572U 25203H   25312.73890774  .00000048  00000-0  31956-4 0  9995 | 2 65572  81.3060 214.9903 0008297  70.1963 290.0088 13.84765158  8198 | 2025/11/08-17:44:01   98.9759    0.1157  289.9194  103.9888     7325.1708     7319.0931     7331.2485 -66.609870 -46.623930   0.000217  -0.000801
1 65572U 25203H   25315.19553434  .00000144  00000-0  11684-3 0  9999 | 2 65572  81.3062 212.7144 0008321  64.4429 295.7587 13.84766366  8530 | 2025/11/11-04:41:34  268.0622    0.1157  295.6728  103.9887     7325.1666     7319.0713     7331.2618 -68.409002 -43.942082   0.000104  -0.000826
1 65572U 25203H   25316.20708563  .00000209  00000-0  17516-3 0  9999 | 2 65572  81.3063 211.7773 0008280  61.9494 298.2499 13.84767173  8678 | 2025/11/12-04:58:12  274.1571    0.1157  298.1663  103.9886     7325.1637     7319.0985     7331.2289 -69.118600 -42.817445   0.000054  -0.000826
1 65572U 25203H   25317.21863635  .00000228  00000-0  19166-3 0  9997 | 2 65572  81.3061 210.8402 0008251  59.4906 300.7064 13.84767800  8813 | 2025/11/13-05:14:50  280.2518    0.1157  300.6251  103.9886     7325.1615     7319.1175     7331.2055 -69.809452 -41.681199   0.000005  -0.000825
1 65572U 25203H   25319.45849767  .00000222  00000-0  18633-3 0  9997 | 2 65572  81.3058 208.7651 0008198  54.1315 306.0602 13.84768849  9123 | 2025/11/15-11:00:14   10.8900    0.1157  305.9842  103.9885     7325.1578     7319.1526     7331.1630 -71.272661 -39.125962  -0.000101  -0.000814
1 65572U 25203H   25321.19258281  .00000210  00000-0  17569-3 0  9990 | 2 65572  81.3057 207.1586 0008189  50.0299 310.1576 13.84769606  9362 | 2025/11/17-04:37:19  278.4806    0.1157  310.0858  103.9884     7325.1551     7319.1566     7331.1537 -72.341456 -37.112405  -0.000182  -0.000799
1 65572U 25203H   25322.20413205  .00000190  00000-0  15840-3 0  9999 | 2 65572  81.3057 206.2215 0008165  47.5699 312.6148 13.84769927  9504 | 2025/11/18-04:53:57  284.5752    0.1158  312.5459  103.9884     7325.1540     7319.1730     7331.1350 -72.938745 -35.924315  -0.000228  -0.000784
1 65572U 25203H   25323.21568107  .00000178  00000-0  14707-3 0  9990 | 2 65572  81.3056 205.2843 0008128  45.0997 315.0819 13.84770229  9646 | 2025/11/19-05:10:34  290.6702    0.1158  315.0161  103.9884     7325.1529     7319.1990     7331.1068 -73.516493 -34.726444  -0.000273  -0.000766
1 65572U 25203H   25324.66075088  .00000152  00000-0  12425-3 0  9998 | 2 65572  81.3054 203.9455 0008090  41.6006 318.5765 13.84770507  9848 | 2025/11/20-15:51:28   93.6630    0.1157  318.5151  103.9883     7325.1519     7319.2259     7331.0780 -74.307601 -32.999219  -0.000335  -0.000736
1 65572U 25203H   25325.74455291  .00000140  00000-0  11365-3 0  9995 | 2 65572  81.3052 202.9413 0008044  38.9810 321.1925 13.84770736  9998 | 2025/11/21-17:52:09  125.9077    0.1157  321.1347  103.9883     7325.1511     7319.2588     7331.0435 -74.874339 -31.691780  -0.000379  -0.000710
1 65572U 25203H   25326.75610061  .00000164  00000-0  13551-3 0  9990 | 2 65572  81.3052 202.0042 0008002  36.4787 323.6914 13.84771320 10130 | 2025/11/22-18:08:47  132.0024    0.1158  323.6371  103.9883     7325.1491     7319.2875     7331.0107 -75.382636 -30.462990  -0.000418  -0.000682
1 65572U 25203H   25328.70693988  .00000317  00000-0  27078-3 0  9995 | 2 65572  81.3052 200.1963 0007972  32.1881 327.9761 13.84773615 10400 | 2025/11/24-16:57:59  118.0412    0.1157  327.9276  103.9881     7325.1410     7319.3014     7330.9806 -76.306176 -28.069612  -0.000487  -0.000631
1 65572U 25203H   25329.79073934  .00000314  00000-0  26811-3 0  9999 | 2 65572  81.3049 199.1923 0007934  29.3703 330.7898 13.84774249 10551 | 2025/11/25-18:58:39  150.2854    0.1157  330.7454  103.9881     7325.1388     7319.3270     7330.9505 -76.786019 -26.728151  -0.000525  -0.000595
1 65572U 25203H   25331.88608702  .00000116  00000-0  92470-4 0  9994 | 2 65572  81.3053 197.2515 0007884  24.5441 335.6089 13.84773474 10849 | 2025/11/27-21:15:57  188.6237    0.1157  335.5716  103.9881     7325.1415     7319.3663     7330.9166 -77.647552 -24.112435  -0.000588  -0.000525
1 65572U 25203H   25333.11439411  .00000001  00000-0 -93467-5 0  9993 | 2 65572  81.3046 196.1131 0007755  20.5641 339.5826 13.84772783 11012 | 2025/11/29-02:44:43  273.1696    0.1157  339.5516  103.9882     7325.1439     7319.4633     7330.8246 -78.110608 -22.564817  -0.000622  -0.000463
1 65572U 25203H   25334.12594064  .00000013  00000-0  10998-5 0  9991 | 2 65572  81.3046 195.1758 0007724  17.8515 342.2912 13.84772919 11154 | 2025/11/30-03:01:21  279.2647    0.1158  342.2643  103.9882     7325.1434     7319.4855     7330.8014 -78.469277 -21.284045  -0.000648  -0.000421
1 65572U 25203H   25335.35424720  .00000042  00000-0  26385-4 0  9996 | 2 65572  81.3043 194.0378 0007692  14.9443 345.1940 13.84773091 11323 | 2025/12/01-08:30:06    3.8082    0.1158  345.1715  103.9882     7325.1428     7319.5083     7330.7773 -78.876221 -19.721332  -0.000673  -0.000373
1 65572U 25203H   25336.36579316  .00000106  00000-0  83650-4 0  9999 | 2 65572  81.3041 193.1006 0007618  12.1571 347.9769 13.84773626 11467 | 2025/12/02-08:46:44    9.9032    0.1158  347.9587  103.9881     7325.1409     7319.5607     7330.7212 -79.188046 -18.428510  -0.000689  -0.000325
1 65572U 25203H   25337.66635234  .00000119  00000-0  95026-4 0  9999 | 2 65572  81.3042 191.8957 0007567   8.7113 351.4174 13.84773962 11647 | 2025/12/03-15:59:32  120.5966    0.1157  351.4044  103.9881     7325.1398     7319.5968     7330.6827 -79.558148 -16.759296  -0.000708  -0.000266
1 65572U 25203H   25338.67789807  .00000137  00000-0  11101-3 0  9998 | 2 65572  81.3042 190.9584 0007522   5.9855 354.1390 13.84774291 11787 | 2025/12/04-16:16:10  126.6916    0.1157  354.1302  103.9881     7325.1386     7319.6286     7330.6486 -79.821656 -15.455622  -0.000720  -0.000219
1 65572U 25203H   25339.90620344  .00000136  00000-0  11021-3 0  9995 | 2 65572  81.3042 189.8203 0007458   2.6623 357.4572 13.84774558 11950 | 2025/12/05-21:44:55  211.2353    0.1157  357.4534  103.9880     7325.1377     7319.6746     7330.6007 -80.112893 -13.867132  -0.000728  -0.000161
1 65572U 25203H   25341.27901498  .00000118  00000-0  94576-4 0  9997 | 2 65572  81.3040 188.5482 0007387 358.8491   1.2647 13.84774837 12142 | 2025/12/07-06:41:46  348.0784    0.1157    1.2666  103.9880     7325.1367     7319.7256     7330.5478 -80.400808 -12.085138  -0.000733  -0.000095
1 65572U 25203H   25342.29056046  .00000100  00000-0  78675-4 0  9993 | 2 65572  81.3040 187.6110 0007355 356.2801   3.8300 13.84774923 12287 | 2025/12/08-06:58:24  354.1727    0.1157    3.8356  103.9880     7325.1364     7319.7487     7330.5240 -80.587722 -10.768445  -0.000734  -0.000050
1 65572U 25203H   25343.51886536  .00000092  00000-0  71360-4 0  9998 | 2 65572  81.3039 186.4728 0007295 353.0372   7.0682 13.84775115 12450 | 2025/12/09-12:27:09   78.7160    0.1157    7.0785  103.9880     7325.1357     7319.7920     7330.4794 -80.785627  -9.165512  -0.000729   0.000006
1 65572U 25203H   25344.81942323  .00000089  00000-0  68214-4 0  9999 | 2 65572  81.3036 185.2677 0007236 349.5164  10.5841 13.84775312 12636 | 2025/12/10-19:39:58  189.4087    0.1157   10.5993  103.9880     7325.1350     7319.8345     7330.4355 -80.960223  -7.464422  -0.000721   0.000066
1 65572U 25203H   25345.97547448  .00000099  00000-0  77149-4 0  9994 | 2 65572  81.3035 184.1964 0007193 346.3727  13.7235 13.84775578 12797 | 2025/12/11-23:24:40  247.8023    0.1158   13.7431  103.9880     7325.1341     7319.8651     7330.4030 -81.085532  -5.949427  -0.000710   0.000118
1 65572U 25203H   25346.98701914  .00000111  00000-0  87769-4 0  9990 | 2 65572  81.3034 183.2590 0007144 343.5199  16.5725 13.84775830 12931 | 2025/12/12-23:41:18  253.8966    0.1158   16.5959  103.9880     7325.1332     7319.9001     7330.3663 -81.171912  -4.622067  -0.000695   0.000163
1 65572U 25203H   25348.28757671  .00000099  00000-0  77595-4 0  9997 | 2 65572  81.3034 182.0539 0007086 339.9037  20.1840 13.84775921 13117 | 2025/12/14-06:54:06    4.5890    0.1157   20.2120  103.9879     7325.1329     7319.9423     7330.3234 -81.251167  -2.913885  -0.000674   0.000219
1 65572U 25203H   25349.94940027  .00000064  00000-0  46557-4 0  9996 | 2 65572  81.3032 180.5138 0007010 335.2181  24.8638 13.84775881 13345 | 2025/12/15-22:47:08  246.0293    0.1157   24.8976  103.9879     7325.1330     7319.9981     7330.2679 -81.299931  -0.729077  -0.000639   0.000288
1 65572U 25203H   25350.96094501  .00000051  00000-0  34583-4 0  9999 | 2 65572  81.3032 179.5764 0006959 332.3559  27.7227 13.84775882 13488 | 2025/12/16-23:03:45  252.1232    0.1157   27.7598  103.9879     7325.1330     7320.0354     7330.2306 -81.300978   0.601087  -0.000614   0.000327
1 65572U 25203H   25352.04474311  .00000023  00000-0  96000-5 0  9993 | 2 65572  81.3032 178.5721 0006907 329.3066  30.7686 13.84775751 13637 | 2025/12/18-01:04:25  284.3664    0.1157   30.8091  103.9880     7325.1335     7320.0740     7330.1929 -81.277953   2.025993  -0.000585   0.000367
1 65572U 25203H   25353.48980714  .00000010  00000-0 -14531-5 0  9997 | 2 65572  81.3031 177.2329 0006854 325.1952  34.8756 13.84775713 13838 | 2025/12/19-11:45:19   87.3574    0.1157   34.9205  103.9880     7325.1336     7320.1129     7330.1542 -81.208302   3.925007  -0.000543   0.000418
1 65572U 25203H   25354.64585828  .00000005  00000-0 -63517-5 0  9995 | 2 65572  81.3033 176.1616 0006831 321.4325  38.6343 13.84775646 13991 | 2025/12/20-15:30:02  145.7506    0.1157   38.6832  103.9880     7325.1338     7320.1300     7330.1376 -81.120923   5.442656  -0.000504   0.000461
1 65572U 25203H   25355.94641611 -.00000000  00000-0 -10850-4 0  9999 | 2 65572  81.3032 174.9562 0006788 317.5897  42.4735 13.84775581 14174 | 2025/12/21-22:42:50  256.4423    0.1158   42.5261  103.9880     7325.1341     7320.1618     7330.1064 -80.988376   7.147955  -0.000459   0.000500
1 65572U 25203H   25357.03021361  .00000020  00000-0  71589-5 0  9992 | 2 65572  81.3031 173.9519 0006693 314.6413  45.4197 13.84775955 14328 | 2025/12/23-00:43:30  288.6841    0.1157   45.4744  103.9879     7325.1327     7320.2300     7330.0354 -80.850550   8.566365  -0.000418   0.000523
1 65572U 25203H   25358.18626427  .00000047  00000-0  31361-4 0  9995 | 2 65572  81.3034 172.8810 0006670 311.1812  48.8769 13.84776290 14485 | 2025/12/24-04:28:13  347.0756    0.1157   48.9345  103.9879     7325.1316     7320.2457     7330.0174 -80.676624  10.075974  -0.000374   0.000553
1 65572U 25203H   25359.48682087  .00000093  00000-0  71728-4 0  9995 | 2 65572  81.3031 171.6755 0006612 307.0270  53.0281 13.84776840 14663 | 2025/12/25-11:41:01   97.7664    0.1157   53.0887  103.9879     7325.1296     7320.2862     7329.9730 -80.446488  11.771007  -0.000318   0.000580
1 65572U 25203H   25360.57061782  .00000130  00000-0  10521-3 0  9995 | 2 65572  81.3033 170.6712 0006582 303.6028  56.4500 13.84777310 14817 | 2025/12/26-13:41:41  130.0081    0.1157   56.5129  103.9878     7325.1280     7320.3066     7329.9494 -80.228012  13.179253  -0.000271   0.000600
1 65572U 25203H   25361.72666774  .00000166  00000-0  13678-3 0  9990 | 2 65572  81.3037 169.6000 0006543 300.0438  60.0069 13.84777805 14979 | 2025/12/27-17:26:24  188.3989    0.1157   60.0719  103.9878     7325.1262     7320.3334     7329.9190 -79.968000  14.676874  -0.000220   0.000616
1 65572U 25203H   25362.81046435  .00000172  00000-0  14219-3 0  9996 | 2 65572  81.3039 168.5959 0006561 296.7952  63.2534 13.84778137 15123 | 2025/12/28-19:27:04  220.6401    0.1158   63.3206  103.9878     7325.1250     7320.3190     7329.9311 -79.698719  16.076016  -0.000174   0.000633
1 65572U 25203H   25363.82200779  .00000168  00000-0  13876-3 0  9994 | 2 65572  81.3041 167.6586 0006556 293.6234  66.4234 13.84778370 15261 | 2025/12/29-19:43:41  226.7318    0.1157   66.4923  103.9878     7325.1242     7320.3219     7329.9266 -79.425275  17.377638  -0.000128   0.000643
1 65572U 25203H   25364.83355110  .00000169  00000-0  13944-3 0  9993 | 2 65572  81.3042 166.7214 0006596 290.5273  69.5176 13.84778587 15408 | 2025/12/30-20:00:18  232.8236    0.1157   69.5884  103.9877     7325.1235     7320.2918     7329.9551 -79.130510  18.674456  -0.000083   0.000654
1 65572U 25203H   25365.91734735  .00000140  00000-0  11360-3 0  9996 | 2 65572  81.3043 165.7172 0006618 287.2291  72.8142 13.84778704 15556 | 2025/12/31-22:00:58  265.0642    0.1158   72.8867  103.9877     7325.1230     7320.2753     7329.9708 -78.791171  20.058430  -0.000034   0.000661
1 65572U 25203H   26001.92889028  .00000133  00000-0  10736-3 0  9999 | 2 65572  81.3044 164.7799 0006657 284.1948  75.8469 13.84778933 15693 | 2026/01/01-22:17:36  271.1556    0.1157   75.9209  103.9877     7325.1222     7320.2459     7329.9986 -78.452604  21.344657   0.000012   0.000666
1 65572U 25203H   26002.94043298  .00000131  00000-0  10598-3 0  9997 | 2 65572  81.3045 163.8427 0006657 281.0526  78.9882 13.84779237 15837 | 2026/01/02-22:34:13  277.2461    0.1157   79.0631  103.9877     7325.1212     7320.2448     7329.9975 -78.093081  22.625039   0.000059   0.000663
1 65572U 25203H   26003.95197561  .00000122  00000-0  98082-4 0  9997 | 2 65572  81.3046 162.9054 0006660 277.9311  82.1090 13.84779458 15972 | 2026/01/03-22:50:50  283.3365    0.1157   82.1846  103.9877     7325.1204     7320.2419     7329.9989 -77.712622  23.899507   0.000106   0.000658
1 65572U 25203H   26004.96351826  .00000104  00000-0  81513-4 0  9996 | 2 65572  81.3047 161.9682 0006662 274.7290  85.3106 13.84779577 16114 | 2026/01/04-23:07:27  289.4266    0.1157   85.3867  103.9877     7325.1200     7320.2400     7330.0000 -77.311408  25.167447   0.000153   0.000648
1 65572U 25203H   26006.11956701  .00000095  00000-0  73856-4 0  9998 | 2 65572  81.3049 160.8970 0006604 270.8611  89.1790 13.84779766 16272 | 2026/01/06-02:52:10  347.8143    0.1158   89.2547  103.9877     7325.1193     7320.2818     7329.9568 -76.827584  26.608441   0.000207   0.000627
1 65572U 25203H   26007.13110954  .00000087  00000-0  67110-4 0  9990 | 2 65572  81.3050 159.9598 0006584 267.5600  92.4803 13.84779904 16419 | 2026/01/07-03:08:47  353.9036    0.1157   92.5557  103.9876     7325.1188     7320.2960     7329.9417 -76.382179  27.861546   0.000252   0.000608
1 65572U 25203H   26008.14265204  .00000087  00000-0  66352-4 0  9998 | 2 65572  81.3050 159.0224 0006569 264.3633  95.6775 13.84780030 16550 | 2026/01/08-03:25:25  359.9928    0.1157   95.7524  103.9876     7325.1184     7320.3065     7329.9302 -75.916142  29.107429   0.000294   0.000587
1 65572U 25203H   26009.15419439  .00000092  00000-0  71494-4 0  9990 | 2 65572  81.3051 158.0852 0006580 261.2359  98.8053 13.84780211 16691 | 2026/01/09-03:42:02    6.0819    0.1157   98.8798  103.9876     7325.1177     7320.2978     7329.9377 -75.429983  30.345294   0.000336   0.000566
1 65572U 25203H   26010.88826688  .00000084  00000-0  64065-4 0  9997 | 2 65572  81.3053 156.4785 0006623 255.9165 104.1256 13.84780410 16937 | 2026/01/10-21:19:06  273.6630    0.1157  104.1992  103.9876     7325.1170     7320.2656     7329.9684 -74.549674  32.448389   0.000404   0.000525
1 65572U 25203H   26012.33332718  .00000072  00000-0  53741-4 0  9991 | 2 65572  81.3054 155.1396 0006655 251.5268 108.5166 13.84780537 17134 | 2026/01/12-07:59:59   76.6466    0.1157  108.5889  103.9876     7325.1166     7320.2417     7329.9914 -73.771219  34.181506   0.000457   0.000484
1 65572U 25203H   26013.48937534  .00000063  00000-0  45076-4 0  9997 | 2 65572  81.3055 154.0685 0006652 247.7492 112.2960 13.84780665 17290 | 2026/01/13-11:44:42  135.0327    0.1157  112.3665  103.9876     7325.1161     7320.2435     7329.9888 -73.119459  35.554593   0.000496   0.000444
1 65572U 25203H   26014.50091751  .00000044  00000-0  28212-4 0  9995 | 2 65572  81.3057 153.1313 0006667 244.4797 115.5671 13.84780690 17437 | 2026/01/14-12:01:19  141.1205    0.1157  115.6360  103.9876     7325.1160     7320.2324     7329.9997 -72.528307  36.745905   0.000528   0.000407
1 65572U 25203H   26016.30724274  .00000039  00000-0  24448-4 0  9999 | 2 65572  81.3059 151.4577 0006711 238.8758 121.1741 13.84780836 17686 | 2026/01/16-07:22:25   74.8485    0.1157  121.2399  103.9876     7325.1155     7320.1996     7330.0314 -71.424355  38.848564   0.000579   0.000339
1 65572U 25203H   26018.11356813  .00000035  00000-0  20396-4 0  9994 | 2 65572  81.3061 149.7842 0006773 233.4380 126.6154 13.84780874 17932 | 2026/01/18-02:43:32    8.5760    0.1157  126.6777  103.9876     7325.1154     7320.1541     7330.0767 -70.259533  40.917967   0.000622   0.000267
1 65572U 25203H   26019.34191359 -.00000265  00000-0 -24570-3 0  9996 | 2 65572  81.3058 148.6462 0006776 232.0603 127.9943 13.84768132 18103 | 2026/01/19-08:12:21   93.1279    0.1158  128.0555  103.9885     7325.1603     7320.1968     7330.1239 -69.432765  42.305132   0.000634   0.000240
1 65572U 25203H   26020.78698365  .00000197  00000-0  16419-3 0  9990 | 2 65572  81.3065 147.3073 0006812 226.7445 133.3145 13.84771317 18306 | 2026/01/20-18:53:15  256.1120    0.1158  133.3713  103.9883     7325.1491     7320.1592     7330.1390 -68.425892  43.916332   0.000661   0.000165
1 65572U 25203H   26022.30430751  .00000193  00000-0  16092-3 0  9996 | 2 65572  81.3065 145.9018 0006889 222.3758 137.6868 13.84771710 18511 | 2026/01/22-07:18:12   85.2460    0.1157  137.7399  103.9883     7325.1477     7320.1014     7330.1940 -67.328120  45.581479   0.000682   0.000099
1 65572U 25203H   26023.38810920  .00000242  00000-0  20456-3 0  9999 | 2 65572  81.3068 144.8980 0006921 218.8864 141.1795 13.84772591 18668 | 2026/01/23-09:18:52  117.4834    0.1156  141.2292  103.9882     7325.1446     7320.0749     7330.2143 -66.519503  46.754159   0.000691   0.000046
1 65572U 25203H   26024.39965740  .00000246  00000-0  20791-3 0  9998 | 2 65572  81.3065 143.9609 0006959 215.2541 144.8156 13.84773127 18800 | 2026/01/24-09:35:30  123.5710    0.1156  144.8615  103.9882     7325.1427     7320.0451     7330.2403 -65.745711  47.835639   0.000696  -0.000010
1 65572U 25203H   26025.41120506  .00000258  00000-0  21878-3 0  9995 | 2 65572  81.3065 143.0237 0006990 212.1749 147.8983 13.84773750 18947 | 2026/01/25-09:52:08  129.6589    0.1157  147.9408  103.9881     7325.1405     7320.0202     7330.2608 -64.954493  48.904609   0.000697  -0.000059
1 65572U 25203H   26026.42275207  .00000254  00000-0  21505-3 0  9999 | 2 65572  81.3068 142.0867 0007061 209.9035 150.1719 13.84774333 19088 | 2026/01/26-10:08:45  135.7477    0.1156  150.2121  103.9881     7325.1385     7319.9662     7330.3107 -64.146306  49.960455   0.000699  -0.000098
1 65572U 25203H   26027.72333566 -.00000039  00000-0 -44980-4 0  9992 | 2 65572  81.3061 140.8813 0007126 206.1192 153.9606 13.84761278 19263 | 2026/01/27-17:21:36  246.4407    0.1156  153.9964  103.9890     7325.1845     7319.9646     7330.4044 -63.080568  51.298381   0.000694  -0.000160
1 65572U 25203H   26028.80714649 -.00000054  00000-0 -58821-4 0  9993 | 2 65572  81.3067 139.8777 0007125 203.3017 156.7818 13.84761147 19418 | 2026/01/28-19:22:17  278.6807    0.1157  156.8140  103.9891     7325.1850     7319.9658     7330.4041 -62.172847  52.395769   0.000682  -0.000206
1 65572U 25203H   26030.25222738  .00000033  00000-0  18906-4 0  9993 | 2 65572  81.3066 138.5391 0007203 199.0024 161.0866 13.84761472 19616 | 2026/01/30-06:03:12   81.6673    0.1157  161.1133  103.9890     7325.1838     7319.9075     7330.4601 -60.931795  53.833814   0.000666  -0.000275
1 65572U 25203H   26031.26378379  .00000061  00000-0  43488-4 0  9992 | 2 65572  81.3065 137.6020 0007255 196.0405 164.0524 13.84761726 19752 | 2026/01/31-06:19:50   87.7578    0.1157  164.0752  103.9890     7325.1829     7319.8685     7330.4973 -60.043133  54.823071   0.000650  -0.000322
1 65572U 25203H   26034.22624183  .00000118  00000-0  94224-4 0  9995 | 2 65572  81.3064 134.8574 0007327 187.8610 172.2434 13.84743905 20167 | 2026/02/03-05:25:47   79.8958    0.1157  172.2547  103.9903     7325.2458     7319.8786     7330.6130 -57.349040  57.635218   0.000583  -0.000444
1 65572U 25203H   26035.31006681  .00000021  00000-0  82128-5 0  9997 | 2 65572  81.3063 133.8534 0007392 184.7434 175.3655 13.84743590 20319 | 2026/02/04-07:26:29  112.1405    0.1157  175.3723  103.9904     7325.2469     7319.8320     7330.6617 -56.330270  58.631179   0.000554  -0.000489
1 65572U 25203H   26037.62223046 -.00000494  00000-0 -44949-3 0  9992 | 2 65572  81.3059 131.7110 0007373 180.2019 179.9136 13.84739915 20635 | 2026/02/06-14:56:00  228.9342    0.1156  179.9137  103.9906     7325.2598     7319.8589     7330.6607 -54.098806  60.695704   0.000493  -0.000549
1 65572U 25203H   26040.29577486 -.00000508  00000-0 -46259-3 0  9991 | 2 65572  81.3055 129.2344 0007575 172.1761 187.9515 13.84688907 21006 | 2026/02/09-07:05:54  116.5099    0.1156  187.9395  103.9945     7325.4397     7319.8907     7330.9887 -51.425278  62.976385   0.000395  -0.000646
1 65572U 25203H   26041.30738416 -.00000180  00000-0 -17106-3 0  9991 | 2 65572  81.3054 128.2969 0007600 169.6093 190.5222 13.84689246 21142 | 2026/02/10-07:22:37  122.6199    0.1156  190.5063  103.9945     7325.4385     7319.8712     7331.0059 -50.387930  63.809283   0.000356  -0.000672
1 65572U 25203H   26042.60802447 -.00000078  00000-0 -79865-4 0  9998 | 2 65572  81.3053 127.0919 0007681 166.3229 193.8137 13.84689367 21322 | 2026/02/11-14:35:33  233.3323    0.1156  193.7927  103.9944     7325.4381     7319.8114     7331.0648 -49.034838  64.854733   0.000305  -0.000705
1 65572U 25203H   26043.69189121  .00000001  00000-0 -99205-5 0  9991 | 2 65572  81.3051 126.0878 0007753 163.2862 196.8552 13.84689694 21475 | 2026/02/12-16:36:19  265.5920    0.1157  196.8295  103.9944     7325.4370     7319.7575     7331.1164 -47.890679  65.703897   0.000257  -0.000731
1 65572U 25203H   26045.64285455 -.00000153  00000-0 -14715-3 0  9995 | 2 65572  81.3047 124.2800 0007753 159.2475 200.8998 13.84687938 21749 | 2026/02/14-15:25:42  251.6636    0.1156  200.8681  103.9946     7325.4431     7319.7637     7331.1226 -45.793868  67.181663   0.000181  -0.000754
1 65572U 25203H   26046.72672359 -.00000174  00000-0 -16511-3 0  9997 | 2 65572  81.3046 123.2759 0007797 156.1268 204.0252 13.84687313 21896 | 2026/02/15-17:26:28  283.9242    0.1157  203.9889  103.9946     7325.4453     7319.7337     7331.1570 -44.609493  67.973753   0.000127  -0.000769
1 65572U 25203H   26048.67792865  .00002162  00000-0  19166-2 0  9993 | 2 65572  81.3049 121.4691 0007876 151.3859 208.7732 13.84559937 22160 | 2026/02/17-16:16:13  270.0809    0.1157  208.7298  104.0042     7325.8946     7320.1247     7331.6645 -42.444301  69.346724   0.000039  -0.000787
1 65572U 25203H   26049.68963387  .00003474  00000-0  30853-2 0  9997 | 2 65572  81.3045 120.5318 0007904 147.6061 212.5582 13.84561037 22303 | 2026/02/18-16:33:04  276.2241    0.1156  212.5095  104.0041     7325.8907     7320.1004     7331.6811 -41.304028  70.031415  -0.000026  -0.000790
1 65572U 25203H   26050.91825492  .00001365  00000-0  12105-2 0  9996 | 2 65572  81.3045 119.3941 0007845 144.7255 215.4422 13.84363905 22475 | 2026/02/19-22:02:17    0.8729    0.1156  215.3901  104.0189     7326.5862     7320.8385     7332.3339 -39.905390  70.837713  -0.000080  -0.000780
1 65572U 25203H   26052.14692729  .00000028  00000-0  13994-4 0  9992 | 2 65572  81.3046 118.2565 0007875 141.5113 218.6606 13.84362639 22648 | 2026/02/21-03:31:34   85.5394    0.1156  218.6043  104.0190     7326.5907     7320.8210     7332.3603 -38.491191  71.616103  -0.000140  -0.000775
1 65572U 25203H   26054.60427156  .00000016  00000-0  38312-5 0  9994 | 2 65572  81.3041 115.9806 0007966 135.6306 224.5491 13.84362723 22983 | 2026/02/23-14:30:09  254.8735    0.1157  224.4851  104.0190     7326.5904     7320.7540     7332.4267 -35.616627  73.087705  -0.000251  -0.000756
1 65572U 25203H   26056.19431807  .00000015  00000-0  28893-5 0  9990 | 2 65572  81.3033 114.5077 0007982 131.9583 228.2255 13.84362607 23209 | 2026/02/25-04:39:49  110.3263    0.1156  228.1573  104.0190     7326.5908     7320.7427     7332.4389 -33.725871  73.978322  -0.000319  -0.000732
1 65572U 25203H   26057.27844076 -.00000001  00000-0 -11365-4 0  9998 | 2 65572  81.3030 113.5035 0007996 129.2981 230.8886 13.84362463 23351 | 2026/02/26-06:40:57  142.6803    0.1156  230.8175  104.0190     7326.5913     7320.7329     7332.4496 -32.424050  74.557755  -0.000365  -0.000711
1 65572U 25203H   26058.57938811 -.00000014  00000-0 -23016-4 0  9993 | 2 65572  81.3028 112.2984 0007997 126.1208 234.0690 13.84362276 23537 | 2026/02/27-13:54:19  253.5057    0.1156  233.9948  104.0190     7326.5919     7320.7329     7332.4510 -30.848748  75.223002  -0.000419  -0.000681
1 65572U 25203H   26060.24178365  .00000068  00000-0  49781-4 0  9994 | 2 65572  81.3026 110.7592 0008083 121.4973 238.6974 13.84313357 23763 | 2026/03/01-05:48:10  135.1409    0.1156  238.6183  104.0227     7326.7645     7320.8423     7332.6868 -28.816990  76.024298  -0.000495  -0.000639
1 65572U 25203H   26061.47049961  .00000272  00000-0  23278-3 0  9998 | 2 65572  81.3027 109.6214 0008145 118.8845 241.3130 13.84313244 23938 | 2026/03/02-11:17:31  219.8247    0.1157  241.2312  104.0227     7326.7649     7320.7973     7332.7326 -27.301724  76.581623  -0.000540  -0.000610
1 65572U 25203H   26062.48238271  .00000298  00000-0  25614-3 0  9998 | 2 65572  81.3028 108.6845 0008095 115.8959 244.3033 13.84314000 24077 | 2026/03/03-11:34:37  226.0352    0.1156  244.2197  104.0226     7326.7623     7320.8313     7332.6933 -26.045899  77.017897  -0.000577  -0.000568
1 65572U 25203H   26063.49426596  .00000262  00000-0  22367-3 0  9992 | 2 65572  81.3021 107.7463 0008253 114.9120 245.2895 13.84313732 24215 | 2026/03/04-11:51:44  232.2464    0.1156  245.2036  104.0227     7326.7632     7320.7164     7332.8100 -24.781107  77.433379  -0.000607  -0.000559
1 65572U 25203H   26064.57842655  .00000281  00000-0  24070-3 0  9994 | 2 65572  81.3026 106.7429 0008248 111.1767 249.0272 13.84313039 24368 | 2026/03/05-13:52:56  264.6138    0.1157  248.9390  104.0227     7326.7657     7320.7225     7332.8088 -23.421458  77.855944  -0.000651  -0.000507
1 65572U 25203H   26066.16852767  .00000254  00000-0  21640-3 0  9996 | 2 65572  81.3023 105.2704 0008229 107.4983 252.7073 13.84314286 24581 | 2026/03/07-04:02:40  120.0883    0.1156  252.6173  104.0226     7326.7613     7320.7321     7332.7905 -21.412969  78.431809  -0.000692  -0.000445
1 65572U 25203H   26067.54179677  .00000264  00000-0  22551-3 0  9994 | 2 65572  81.3019 103.9977 0008180 104.1540 256.0526 13.84314706 24770 | 2026/03/08-13:00:11  257.0905    0.1157  255.9617  104.0226     7326.7598     7320.7665     7332.7531 -19.665543  78.887676  -0.000721  -0.000386
1 65572U 25203H   26068.55367936  .00000194  00000-0  16281-3 0  9998 | 2 65572  81.3020 103.0603 0008251 102.7158 257.4922 13.84314665 24912 | 2026/03/09-13:17:17  263.3015    0.1157  257.3999  104.0226     7326.7599     7320.7146     7332.8052 -18.372332  79.198943  -0.000743  -0.000359
1 65572U 25203H   26069.56556226  .00000249  00000-0  21239-3 0  9992 | 2 65572  81.3023 102.1230 0008733 102.3513 257.8622 13.84310768 25054 | 2026/03/10-13:34:24  269.5085    0.1157  257.7644  104.0229     7326.7737     7320.3752     7333.1722 -17.074382  79.489178  -0.000795  -0.000362
1 65572U 25203H   26070.57744389  .00000228  00000-0  19326-3 0  9995 | 2 65572  81.3015 101.1856 0008216  96.9193 263.2899 13.84314603 25190 | 2026/03/11-13:51:31  275.7250    0.1157  263.1964  104.0226     7326.7601     7320.7405     7332.7798 -15.771499  79.757092  -0.000781  -0.000255
1 65572U 25203H   26071.58932686  .00000291  00000-0  24961-3 0  9997 | 2 65572  81.3020 100.2477 0008445  93.4494 266.7629 13.84312262 25339 | 2026/03/12-14:08:37  281.9350    0.1157  266.6663  104.0228     7326.7684     7320.5810     7332.9559 -14.463955  80.005057  -0.000820  -0.000200
1 65572U 25203H   26072.81803911  .00000328  00000-0  28321-3 0  9997 | 2 65572  81.3010  99.1097 0008256  92.0011 268.2091 13.84315424 25504 | 2026/03/13-19:37:58    6.6226    0.1156  268.1145  104.0225     7326.7573     7320.7083     7332.8062 -12.872000  80.275552  -0.000810  -0.000159
1 65572U 25203H   26074.33587073 -.00001016  00000-0 -92063-3 0  9995 | 2 65572  81.3011  97.7045 0007988  97.2322 262.9743 13.84306299 25713 | 2026/03/15-08:03:39  195.9469    0.1157  262.8835  104.0232     7326.7894     7320.9368     7332.6421 -10.899552  80.567168  -0.000772  -0.000206
1 65572U 25203H   26075.78143074  .00000295  00000-0  25357-3 0  9992 | 2 65572  81.3005  96.3638 0008126  85.0152 275.1932 13.84299226 25919 | 2026/03/16-18:45:15  359.1122    0.1157  275.1005  104.0238     7326.8144     7320.8606     7332.7682  -9.011432  80.799538  -0.000812  -0.000020
1 65572U 25203H   26076.79332485  .00000294  00000-0  25275-3 0  9998 | 2 65572  81.3004  95.4264 0008209  83.6424 276.5668 13.84298236 26058 | 2026/03/17-19:02:23    5.3280    0.1157  276.4733  104.0238     7326.8179     7320.8033     7332.8325  -7.688337  80.936052  -0.000821   0.000013
1 65572U 25203H   26077.80521832  .00000303  00000-0  26068-3 0  9999 | 2 65572  81.3011  94.4900 0008187  80.1750 280.0331 13.84298757 26191 | 2026/03/18-19:19:30  191.8414    0.1157  279.9407  104.0238     7326.8161     7320.8176     7332.8145  -6.364665  81.051588  -0.000815   0.000076
1 65572U 25203H   26079.10622451  .00000211  00000-0  17844-3 0  9993 | 2 65572  81.3007  93.2845 0008141  76.7100 283.4964 13.84298989 26377 | 2026/03/20-02:32:57  302.9902    0.1157  283.4057  104.0238     7326.8152     7320.8505     7332.7800  -4.658038  81.167152  -0.000802   0.000141
1 65572U 25203H   26080.11811788  .00000200  00000-0  16800-3 0  9998 | 2 65572  81.3009  92.3471 0008143  74.4598 285.7458 13.84299284 26510 | 2026/03/21-02:50:05  309.2208    0.1158  285.6560  104.0237     7326.8142     7320.8480     7332.7804  -3.329529  81.232694  -0.000793   0.000186
1 65572U 25203H   26081.27456742  .00000186  00000-0  15584-3 0  9992 | 2 65572  81.3009  91.2757 0008137  72.0878 288.1165 13.84299253 26678 | 2026/03/22-06:35:22    7.9084    0.1157  288.0279  104.0238     7326.8143     7320.8525     7332.7761  -1.810028  81.280749  -0.000780   0.000233
1 65572U 25203H   26082.28646068  .00000192  00000-0  16112-3 0  9991 | 2 65572  81.3014  90.3384 0008129  69.4840 290.7188 13.84299048 26812 | 2026/03/23-06:52:30   14.1396    0.1156  290.6316  104.0238     7326.8150     7320.8591     7332.7710  -0.480179  81.299982  -0.000763   0.000280
1 65572U 25203H   26083.29835387  .00000147  00000-0  12135-3 0  9998 | 2 65572  81.3011  89.4004 0008187  66.6235 293.5782 13.84299819 26950 | 2026/03/24-07:09:37   20.3670    0.1157  293.4922  104.0237     7326.8123     7320.8139     7332.8108   0.850800  81.296648  -0.000748   0.000333
1 65572U 25203H   26084.38252469  .00000213  00000-0  18019-3 0  9994 | 2 65572  81.3008  88.3967 0008096  64.5739 295.6255 13.84299268 27101 | 2026/03/25-09:10:50   52.8287    0.1157  295.5418  104.0237     7326.8143     7320.8825     7332.7460   2.274732  81.268971  -0.000721   0.000368
1 65572U 25203H   26085.39441747  .00000189  00000-0  15899-3 0  9990 | 2 65572  81.3010  87.4593 0008075  62.1757 298.0217 13.84299673 27240 | 2026/03/26-09:27:57   59.0564    0.1157  297.9400  104.0237     7326.8128     7320.8964     7332.7292   3.603996  81.221080  -0.000697   0.000408
1 65572U 25203H   26086.47858788  .00000267  00000-0  22833-3 0  9990 | 2 65572  81.3010  86.4547 0008051  59.5016 300.6934 13.84299370 27396 | 2026/03/27-11:29:09   91.5149    0.1156  300.6140  104.0237     7326.8139     7320.9151     7332.7127   5.027465  81.145408  -0.000667   0.000451
1 65572U 25203H   26087.49048067  .00000232  00000-0  19684-3 0  9996 | 2 65572  81.3010  85.5173 0008032  56.9666 303.2261 13.84299705 27532 | 2026/03/28-11:46:17   97.7471    0.1157  303.1491  104.0237     7326.8127     7320.9278     7332.6976   6.354330  81.052298  -0.000637   0.000489
1 65572U 25203H   26089.22515304  .00000256  00000-0  21819-3 0  9991 | 2 65572  81.3012  83.9105 0007968  52.8632 307.3251 13.84300189 27775 | 2026/03/30-05:24:13    5.2899    0.1156  307.2524  104.0237     7326.8110     7320.9730     7332.6490   8.624582  80.842450  -0.000581   0.000546
1 65572U 25203H   26090.38160081  .00000278  00000-0  23793-3 0  9995 | 2 65572  81.3014  82.8388 0007881  50.1904 309.9945 13.84300568 27932 | 2026/03/31-09:09:30   63.9798    0.1157  309.9253  104.0237     7326.8097     7321.0354     7332.5839  10.135143  80.667196  -0.000538   0.000576
1 65572U 25203H   26091.39349283  .00000242  00000-0  20584-3 0  9996 | 2 65572  81.3017  81.9015 0007922  47.1560 313.0261 13.84300205 28073 | 2026/04/01-09:26:37   70.2082    0.1157  312.9597  104.0237     7326.8110     7321.0067     7332.6153  11.453402  80.490906  -0.000499   0.000615
1 65572U 25203H   26092.40538400  .00000355  00000-0  30752-3 0  9993 | 2 65572  81.3014  80.9638 0007869  44.0647 316.1136 13.84301276 28212 | 2026/04/02-09:43:45   76.4421    0.1157  316.0510  104.0236     7326.8072     7321.0417     7332.5726  12.769073  80.292393  -0.000452   0.000644
1 65572U 25203H   26093.41727601  .00000337  00000-0  29125-3 0  9990 | 2 65572  81.3018  80.0275 0007863  42.4830 317.6934 13.84300840 28357 | 2026/04/03-10:00:52   82.6686    0.1157  317.6327  104.0236     7326.8087     7321.0476     7332.5698  14.079479  80.073410  -0.000423   0.000663
1 65572U 25203H   26094.42916725  .00000320  00000-0  27605-3 0  9992 | 2 65572  81.3019  79.0897 0007794  40.0392 320.1338 13.84301319 28490 | 2026/04/04-10:18:00   88.9022    0.1157  320.0765  104.0236     7326.8070     7321.0965     7332.5175  15.388170  79.832344  -0.000379   0.000681
1 65572U 25203H   26095.44105934  .00000289  00000-0  24804-3 0  9999 | 2 65572  81.3028  78.1528 0007766  39.6802 320.4922 13.84298455 28634 | 2026/04/05-10:35:07   95.1279    0.1157  320.4355  104.0238     7326.8171     7321.1271     7332.5071  16.691657  79.570936  -0.000363   0.000687
1 65572U 25203H   26096.88661708  .00000345  00000-0  29797-3 0  9993 | 2 65572  81.3022  76.8128 0007699  34.0227 326.1422 13.84301676 28834 | 2026/04/06-21:16:43  257.7538    0.1157  326.0930  104.0236     7326.8058     7321.1649     7332.4467  18.547744  79.158252  -0.000274   0.000720
1 65572U 25203H   26097.89850876  .00000263  00000-0  22478-3 0  9999 | 2 65572  81.3024  75.8764 0007696  31.3558 328.8056 13.84301615 28975 | 2026/04/07-21:33:51  263.9861    0.1157  328.7599  104.0236     7326.8060     7321.1673     7332.4447  19.838963  78.844758  -0.000228   0.000735
1 65572U 25203H   26098.98264898  .00008749  00000-0  78236-2 0  9992 | 2 65572  81.3027  74.8720 0007866  27.2568 332.9000 13.84247597 29124 | 2026/04/08-23:35:00  296.4341    0.1157  332.8589  104.0276     7326.9966     7321.2332     7332.7600  21.218078  78.485172  -0.000165   0.000769
1 65572U 25203H   26100.06684646  .00000292  00000-0  25097-3 0  9995 | 2 65572  81.3027  73.8680 0007604  25.8545 334.2990 13.84301652 29279 | 2026/04/10-01:36:15  328.9055    0.1157  334.2612  104.0236     7326.8058     7321.2345     7332.3771  22.590054  78.101335  -0.000128   0.000749
1 65572U 25203H   26101.15101622  .00000137  00000-0  11168-3 0  9996 | 2 65572  81.3030  72.8640 0007533  22.9869 337.1624 13.84300965 29425 | 2026/04/11-03:37:27    1.3653    0.1158  337.1289  104.0236     7326.8083     7321.2890     7332.3276  23.955182  77.693803  -0.000077   0.000749
1 65572U 25203H   26102.16290622  .00000215  00000-0  18199-3 0  9995 | 2 65572  81.3033  71.9260 0007407  20.4389 339.7063 13.84300860 29560 | 2026/04/12-03:54:35    7.5998    0.1157  339.6768  104.0236     7326.8086     7321.3817     7332.2356  25.223948  77.291520  -0.000031   0.000740
1 65572U 25203H   26103.39163023  .00000173  00000-0  14427-3 0  9998 | 2 65572  81.3033  70.7886 0007445  17.5296 342.6116 13.84302437 29730 | 2026/04/13-09:23:56   92.5152    0.1157  342.5861  104.0235     7326.8031     7321.3483     7332.2579  26.753220  76.775594   0.000022   0.000744
1 65572U 25203H   26104.40352076  .00000167  00000-0  13910-3 0  9998 | 2 65572  81.3036  69.8514 0007388  14.9805 345.1569 13.84302454 29877 | 2026/04/14-09:41:04   98.7487    0.1157  345.1352  104.0235     7326.8030     7321.3900     7332.2161  28.005524  76.328016   0.000067   0.000736
1 65572U 25203H   26105.63224544  .00000184  00000-0  15450-3 0  9992 | 2 65572  81.3040  68.7134 0007363  12.5213 347.6125 13.84301184 30043 | 2026/04/15-15:10:26  182.6828    0.1157  347.5944  104.0236     7326.8075     7321.4128     7332.2022  29.516061  75.757129   0.000112   0.000728
1 65572U 25203H   26106.64413520  .00000137  00000-0  11213-3 0  9999 | 2 65572  81.3043  67.7753 0007117   9.0308 351.0975 13.84302310 30184 | 2026/04/16-15:27:33  188.9147    0.1157  351.0849  104.0235     7326.8035     7321.5890     7332.0180  30.752530  75.264009   0.000162   0.000693
1 65572U 25203H   26107.87285965  .00000111  00000-0  88888-4 0  9990 | 2 65572  81.3040  66.6383 0007225   6.0470 354.0773 13.84302655 30355 | 2026/04/17-20:56:55  273.8339    0.1157  354.0687  104.0235     7326.8023     7321.5087     7332.0959  32.239826  74.638690   0.000215   0.000690
1 65572U 25203H   26109.17386200  .00000087  00000-0  67399-4 0  9995 | 2 65572  81.3043  65.4334 0007164   2.8455 357.2741 13.84302498 30535 | 2026/04/19-04:10:21   24.9808    0.1157  357.2702  104.0235     7326.8029     7321.5539     7332.0518  33.802319  73.944523   0.000265   0.000666
1 65572U 25203H   26110.18575212  .00000180  00000-0  15093-3 0  9998 | 2 65572  81.3037  64.4946 0006983 359.4620   0.6527 13.84301996 30677 | 2026/04/20-04:27:28   31.2128    0.1156    0.6536  104.0235     7326.8046     7321.6883     7331.9209  35.009061  73.380224   0.000307   0.000627
1 65572U 25203H   26111.34219797  .00000262  00000-0  22396-3 0  9995 | 2 65572  81.3044  63.4249 0007040 356.9899   3.1214 13.84302821 30832 | 2026/04/21-08:12:45   89.9007    0.1157    3.1258  104.0235     7326.8017     7321.6437     7331.9598  36.373187  72.714488   0.000348   0.000612
1 65572U 25203H   26112.57092181  .00000288  00000-0  24688-3 0  9991 | 2 65572  81.3047  62.2868 0007058 353.7945   6.3123 13.84302634 31001 | 2026/04/22-13:42:07  173.8359    0.1157    6.3212  104.0235     7326.8024     7321.6311     7331.9736  37.810427  71.977954   0.000394   0.000586
1 65572U 25203H   26113.94420175  .00000183  00000-0  15312-3 0  9999 | 2 65572  81.3051  61.0159 0006935 349.9218  10.1799 13.84303009 31198 | 2026/04/23-22:39:39  311.2167    0.1158   10.1940  104.0235     7326.8011     7321.7199     7331.8822  39.397759  71.121979   0.000437   0.000538
1 65572U 25203H   26114.95609142  .00000236  00000-0  20052-3 0  9990 | 2 65572  81.3052  60.0785 0006795 346.7310  13.3667 13.84302882 31338 | 2026/04/24-22:56:46  317.4464    0.1157   13.3847  104.0235     7326.8015     7321.8229     7331.7801  40.556091  70.468000   0.000465   0.000495
1 65572U 25203H   26116.32937046  .00000263  00000-0  22448-3 0  9991 | 2 65572  81.3057  58.8071 0006812 343.5421  16.5514 13.84303274 31527 | 2026/04/26-07:54:17   94.8226    0.1158   16.5737  104.0234     7326.8001     7321.8091     7331.7911  42.109930  69.551209   0.000503   0.000459
1 65572U 25203H   26117.34125979  .00000291  00000-0  24959-3 0  9998 | 2 65572  81.3061  57.8696 0006786 340.5832  19.5066 13.84303300 31667 | 2026/04/27-08:11:24  101.0521    0.1158   19.5326  104.0234     7326.8000     7321.8281     7331.7720  43.242484  68.853246   0.000531   0.000422
1 65572U 25203H   26118.85909381  .00000310  00000-0  26658-3 0  9992 | 2 65572  81.3058  56.4650 0006637 336.2654  23.8195 13.84304068 31873 | 2026/04/28-20:37:05  289.9032    0.1156   23.8502  104.0234     7326.7973     7321.9345     7331.6601  44.917086  67.772328   0.000558   0.000359
1 65572U 25203H   26119.87098316  .00000290  00000-0  24927-3 0  9996 | 2 65572  81.3063  55.5282 0006591 333.3044  26.7773 13.84304364 32010 | 2026/04/29-20:54:12  296.1315    0.1158   26.8114  104.0234     7326.7963     7321.9672     7331.6254  46.019410  67.029309   0.000577   0.000318
1 65572U 25203H   26120.95515002  .00000281  00000-0  24062-3 0  9993 | 2 65572  81.3063  54.5245 0006545 330.4067  29.6719 13.84304716 32169 | 2026/04/30-22:55:24  328.5898    0.1158   29.7091  104.0233     7326.7950     7321.9996     7331.5904  47.186500  66.212904   0.000594   0.000276
1 65572U 25203H   26122.03931735  .00000202  00000-0  17055-3 0  9996 | 2 65572  81.3065  53.5205 0006480 326.3926  33.6819 13.84303697 32312 | 2026/05/02-00:56:37    1.0537    0.1157   33.7231  104.0234     7326.7986     7322.0509     7331.5464  48.339571  65.376088   0.000609   0.000221
1 65572U 25203H   26123.19576091  .00000309  00000-0  26640-3 0  9992 | 2 65572  81.3065  52.4491 0006367 323.1728  36.8990 13.84304987 32471 | 2026/05/03-04:41:53   59.7385    0.1156   36.9428  104.0233     7326.7941     7322.1291     7331.4590  49.553546  64.460787   0.000613   0.000171
1 65572U 25203H   26124.49676038  .00000269  00000-0  23054-3 0  9999 | 2 65572  81.3062  51.2450 0006448 319.6574  40.4104 13.84306560 32656 | 2026/05/04-11:55:20  170.8881    0.1157   40.4583  104.0232     7326.7885     7322.0642     7331.5128  50.896992  63.405002   0.000633   0.000122
1 65572U 25203H   26125.50865027  .00000223  00000-0  18953-3 0  9992 | 2 65572  81.3061  50.3072 0006350 318.3378  41.7295 13.84304231 32798 | 2026/05/05-12:12:27  176.1290    0.1158   41.7780  104.0234     7326.7967     7322.1442     7331.4493  51.927859  62.563403   0.000628   0.000095
1 65572U 25203H   26126.52053830  .00000189  00000-0  15826-3 0  9993 | 2 65572  81.3067  49.3716 0006267 314.0621  46.0019 13.84305416 32932 | 2026/05/06-12:29:34  182.3561    0.1157   46.0536  104.0233     7326.7926     7322.2009     7331.3843  52.942897  61.707610   0.000626   0.000038
1 65572U 25203H   26127.53242584  .00000184  00000-0  15383-3 0  9994 | 2 65572  81.3064  48.4348 0006271 310.4121  49.6488 13.84306698 33078 | 2026/05/07-12:46:41  188.5843    0.1157   49.7036  104.0232     7326.7880     7322.1934     7331.3827  53.944511  60.833546   0.000627  -0.000013
1 65572U 25203H   26128.76114795  .00000172  00000-0  14379-3 0  9993 | 2 65572  81.3071  47.2967 0006211 308.6326  51.4274 13.84305519 33244 | 2026/05/08-18:16:03  273.5015    0.1157   51.4831  104.0233     7326.7922     7322.2415     7331.3429  55.142638  59.750599   0.000620  -0.000044
