# SPACE DATA - HISTORICAL TLEs
# ----------------------------
# NORAD_ID    : 65567
# OBJECT_NAME : PRAETORIAN SDA_604
# --------------------------------------------------------------------+-----------------------------------------------------------------------+----------------------------------------------------------------------------------------------------------------------------------------
#                  LINE 1                                             |                 LINE 2                                                |      DERIVED PARAMETERS
# --------------------------------------------------------------------+-----------------------------------------------------------------------+----------------------------------------------------------------------------------------------------------------------------------------
# NORAD  COSPAR     TLE_EPOCH      MEANMOT1 MEANMOT2   BSTAR  #  REV  |   NORAD    INC     RAAN     ECC    ARGPER  MEANANOM   MEANMOT     REV |  CAL_DATE              LONG     ARGLAT     PERIOD        SMA         PERIGEE        APOGEE      INC_X      INC_Y      ECC_X      ECC_Y
# ------ ------   -------------- ----------  -------  ------- -- ----     -----  ------- -------- ------- -------- -------- -----------  ----   ------------------- ---------  --------  --------  ------------  ------------   ----------- ---------- ----------  ---------  ---------   
1 65580U 25203R   25266.58335648 -.00047547  00000-0 -42282-1 0  9997 | 2 65580  81.3008 257.7596 0008542 186.3541 260.1323 13.85082038  1303 | 2025/09/23-14:00:01  228.4337   86.3900  260.0359  103.9650     7324.0535     7317.7973     7330.3097 -17.236902 -79.452560   0.000088   0.000850
1 65580U 25203R   25267.86632278  .00000105  00000-0  82029-4 0  9991 | 2 65580  81.2999 256.5697 0008604 182.8985 177.2124 13.85057555  1989 | 2025/09/24-20:47:30   59.1316    0.1157  177.2172  103.9668     7324.1398     7317.8381     7330.4415 -18.882902 -79.076607   0.000157   0.000846
1 65580U 25203R   25268.94990196  .00000116  00000-0  91966-4 0  9999 | 2 65580  81.3000 255.5645 0008653 179.9900 180.1259 13.85057822  2130 | 2025/09/25-22:47:51   91.2883    0.1157  180.1257  103.9668     7324.1389     7317.8013     7330.4765 -20.267274 -78.733269   0.000216   0.000838
1 65580U 25203R   25269.96124249  .00000113  00000-0  89452-4 0  9994 | 2 65580  81.3001 254.6263 0008698 177.1716 182.9492 13.85057987  2277 | 2025/09/26-23:04:11   97.3010    0.1157  182.9441  103.9668     7324.1383     7317.7678     7330.5089 -21.553758 -78.390955   0.000272   0.000826
1 65580U 25203R   25271.18929853  .00000141  00000-0  11448-3 0  9995 | 2 65580  81.3004 253.4872 0008764 173.9148 186.2117 13.85058334  2447 | 2025/09/28-04:32:35  181.7450    0.1156  186.2008  103.9667     7324.1371     7317.7182     7330.5560 -23.107975 -77.947268   0.000337   0.000809
1 65580U 25203R   25272.27287727  .00000125  00000-0  99687-4 0  9997 | 2 65580  81.3005 252.4820 0008825 170.9373 189.1945 13.85058510  2598 | 2025/09/29-06:32:56  213.9013    0.1157  189.1784  103.9667     7324.1365     7317.6729     7330.6000 -24.471890 -77.529981   0.000395   0.000789
1 65580U 25203R   25273.28421715  .00000144  00000-0  11646-3 0  9995 | 2 65580  81.3007 251.5438 0008871 168.0839 192.0530 13.85058824  2738 | 2025/09/30-06:49:16  219.9136    0.1157  192.0318  103.9667     7324.1354     7317.6381     7330.6326 -25.738144 -77.119075   0.000449   0.000765
1 65580U 25203R   25274.29555673  .00000159  00000-0  12988-3 0  9994 | 2 65580  81.3009 250.6057 0008910 165.3010 194.8408 13.85059203  2873 | 2025/10/01-07:05:36  225.9258    0.1157  194.8147  103.9667     7324.1340     7317.6082     7330.6598 -26.997370 -76.687537   0.000499   0.000738
1 65580U 25203R   25275.59585002  .00000176  00000-0  14510-3 0  9999 | 2 65580  81.3011 249.3995 0008970 161.8551 198.2928 13.85059712  3050 | 2025/10/02-14:18:01  336.5132    0.1157  198.2606  103.9666     7324.1322     7317.5625     7330.7020 -28.605777 -76.102420   0.000561   0.000700
1 65580U 25203R   25276.60718909  .00000152  00000-0  12366-3 0  9997 | 2 65580  81.3012 248.4615 0009022 159.1477 201.0050 13.85059934  3196 | 2025/10/03-14:34:21  342.5252    0.1157  200.9680  103.9666     7324.1315     7317.5236     7330.7393 -29.847812 -75.624026   0.000608   0.000666
1 65580U 25203R   25277.83524326  .00000122  00000-0  97245-4 0  9998 | 2 65580  81.3013 247.3224 0009083 155.9340 204.2243 13.85060172  3365 | 2025/10/04-20:02:45   66.9687    0.1156  204.1816  103.9666     7324.1306     7317.4781     7330.7831 -31.345338 -75.015806   0.000662   0.000622
1 65580U 25203R   25279.20777424  .00000089  00000-0  67976-4 0  9990 | 2 65580  81.3015 246.0495 0009143 152.4042 207.7603 13.85060360  3559 | 2025/10/06-04:59:11  203.6994    0.1157  207.7115  103.9666     7324.1300     7317.4335     7330.8264 -33.004120 -74.301157   0.000716   0.000569
1 65580U 25203R   25280.29135117  .00000079  00000-0  59035-4 0  9994 | 2 65580  81.3017 245.0445 0009193 149.6004 210.5688 13.85060542  3700 | 2025/10/07-06:59:32  235.8554    0.1157  210.5153  103.9666     7324.1293     7317.3962     7330.8624 -34.302344 -73.711028   0.000756   0.000523
1 65580U 25203R   25281.44716633  .00000086  00000-0  65789-4 0  9991 | 2 65580  81.3018 243.9725 0009251 146.6488 213.5254 13.85060786  3866 | 2025/10/08-10:43:55  294.1551    0.1157  213.4669  103.9666     7324.1284     7317.3529     7330.9040 -35.675432 -73.056459   0.000796   0.000471
1 65580U 25203R   25282.60298164  .00000043  00000-0  27736-4 0  9997 | 2 65580  81.3020 242.9005 0009295 143.5965 216.5826 13.85060745  4025 | 2025/10/09-14:28:17  352.4549    0.1157  216.5192  103.9666     7324.1286     7317.3208     7330.9364 -37.036080 -72.376405   0.000832   0.000415
1 65580U 25203R   25283.83103525  .00000045  00000-0  29100-4 0  9998 | 2 65580  81.3023 241.7616 0009350 140.4670 219.7171 13.85060822  4196 | 2025/10/10-19:56:41   76.8985    0.1157  219.6487  103.9666     7324.1283     7317.2803     7330.9764 -38.467477 -71.626233   0.000866   0.000354
1 65580U 25203R   25284.84237343  .00000060  00000-0  42521-4 0  9995 | 2 65580  81.3025 240.8237 0009390 137.9194 222.2686 13.85060926  4334 | 2025/10/11-20:13:01   82.9111    0.1157  222.1963  103.9665     7324.1280     7317.2506     7331.0053 -39.634850 -70.987148   0.000889   0.000302
1 65580U 25203R   25286.28714206  .00000061  00000-0  42958-4 0  9998 | 2 65580  81.3029 239.4839 0009434 134.3140 225.8792 13.85061027  4533 | 2025/10/13-06:53:29  245.7864    0.1157  225.8017  103.9665     7324.1276     7317.2180     7331.0372 -41.284024 -70.041352   0.000916   0.000225
1 65580U 25203R   25287.29847992  .00000071  00000-0  51756-4 0  9996 | 2 65580  81.3031 238.5460 0009484 131.6889 228.5082 13.85061196  4675 | 2025/10/14-07:09:48  251.7989    0.1158  228.4269  103.9665     7324.1270     7317.1808     7331.0732 -42.425084 -69.356372   0.000933   0.000169
1 65580U 25203R   25288.38205617  .00000073  00000-0  54019-4 0  9996 | 2 65580  81.3032 237.5412 0009552 128.7972 231.4040 13.85061335  4827 | 2025/10/15-09:10:09  283.9551    0.1157  231.3185  103.9665     7324.1265     7317.1305     7331.1225 -43.634859 -68.601818   0.000949   0.000105
1 65580U 25203R   25289.61010884  .00000064  00000-0  45926-4 0  9990 | 2 65580  81.3034 236.4025 0009580 125.8183 234.3866 13.85061470  4996 | 2025/10/16-14:38:33    8.3994    0.1157  234.2974  103.9665     7324.1260     7317.1095     7331.1425 -44.989660 -67.721292   0.000957   0.000037
1 65580U 25203R   25290.83816145  .00000055  00000-0  37786-4 0  9995 | 2 65580  81.3035 235.2638 0009608 122.7499 237.4586 13.85061592  5169 | 2025/10/17-20:06:57   92.8439    0.1157  237.3658  103.9665     7324.1256     7317.0886     7331.1626 -46.326641 -66.813932   0.000960  -0.000033
1 65580U 25203R   25291.92173720  .00000049  00000-0  32699-4 0  9992 | 2 65580  81.3035 234.2590 0009634 120.0393 240.1721 13.85061669  5312 | 2025/10/18-22:07:18  125.0011    0.1157  240.0764  103.9665     7324.1253     7317.0693     7331.1814 -47.491177 -65.991266   0.000959  -0.000096
1 65580U 25203R   25292.93307439  .00000054  00000-0  36736-4 0  9992 | 2 65580  81.3037 233.3213 0009671 117.5959 242.6182 13.85061800  5456 | 2025/10/19-22:23:37  131.0143    0.1157  242.5198  103.9665     7324.1249     7317.0417     7331.2080 -48.564899 -65.205385   0.000955  -0.000153
1 65580U 25203R   25294.23336485  .00000066  00000-0  47519-4 0  9994 | 2 65580  81.3038 232.1156 0009704 114.4467 245.7704 13.85062002  5636 | 2025/10/21-05:36:02  241.6032    0.1157  245.6690  103.9665     7324.1242     7317.0168     7331.2315 -49.926251 -64.169130   0.000944  -0.000226
1 65580U 25203R   25295.24470179  .00000072  00000-0  53237-4 0  9996 | 2 65580  81.3040 231.1779 0009736 111.8958 248.3235 13.85062149  5775 | 2025/10/22-05:52:22  247.6168    0.1157  248.2199  103.9665     7324.1236     7316.9929     7331.2544 -50.969833 -63.343639   0.000931  -0.000283
1 65580U 25203R   25296.54499191  .00000080  00000-0  60088-4 0  9996 | 2 65580  81.3043 229.9723 0009770 108.6718 251.5501 13.85062334  5956 | 2025/10/23-13:04:47  358.2059    0.1157  251.4439  103.9664     7324.1230     7316.9673     7331.2787 -52.291502 -62.257434   0.000910  -0.000356
1 65580U 25203R   25297.55632845  .00000089  00000-0  67896-4 0  9996 | 2 65580  81.3045 229.0347 0009782 106.2257 253.9977 13.85062516  6097 | 2025/10/24-13:21:06    4.2200    0.1157  253.8900  103.9664     7324.1223     7316.9579     7331.2868 -53.303379 -61.393578   0.000888  -0.000409
1 65580U 25203R   25298.85661808  .00000092  00000-0  71092-4 0  9998 | 2 65580  81.3047 227.8291 0009811 103.0498 257.1755 13.85062739  6275 | 2025/10/25-20:33:31  114.8096    0.1157  257.0659  103.9664     7324.1216     7316.9359     7331.3073 -54.583443 -60.258626   0.000857  -0.000477
1 65580U 25203R   25299.94019247  .00000103  00000-0  80797-4 0  9998 | 2 65580  81.3048 226.8246 0009831 100.3519 259.8747 13.85063001  6421 | 2025/10/26-22:33:52  146.9676    0.1157  259.7638  103.9664     7324.1206     7316.9203     7331.3210 -55.631513 -59.292539   0.000826  -0.000533
1 65580U 25203R   25301.52943426  .00000130  00000-0  10422-3 0  9998 | 2 65580  81.3050 225.3513 0009855  96.4811 263.7468 13.85063516  6640 | 2025/10/28-12:42:23    2.1331    0.1157  263.6346  103.9664     7324.1188     7316.9009     7331.3367 -57.137740 -57.842733   0.000775  -0.000609
1 65580U 25203R   25302.82972240  .00000137  00000-0  11023-3 0  9993 | 2 65580  81.3050 224.1458 0009877  93.3112 266.9175 13.85063968  6820 | 2025/10/29-19:54:48  112.7231    0.1157  266.8045  103.9663     7324.1172     7316.8832     7331.3513 -58.342011 -56.627844   0.000728  -0.000668
1 65580U 25203R   25303.91329530  .00000155  00000-0  12605-3 0  9999 | 2 65580  81.3051 223.1413 0009899  90.6460 269.5831 13.85064476  6970 | 2025/10/30-21:55:08  144.8815    0.1157  269.4697  103.9663     7324.1154     7316.8653     7331.3656 -59.325857 -55.596420   0.000685  -0.000715
1 65580U 25203R   25305.50253567  .00000124  00000-0  98940-4 0  9995 | 2 65580  81.3052 221.6680 0009941  86.7383 273.4911 13.85064715  7192 | 2025/11/01-12:03:39    0.0474    0.1157  273.3774  103.9663     7324.1146     7316.8337     7331.3955 -60.735765 -54.052774   0.000618  -0.000779
1 65580U 25203R   25307.45296635  .00000096  00000-0  74522-4 0  9992 | 2 65580  81.3052 219.8600 0009936  82.0139 278.2145 13.85064972  7462 | 2025/11/03-10:52:16  345.9339    0.1157  278.1018  103.9662     7324.1137     7316.8365     7331.3909 -62.410911 -52.109632   0.000525  -0.000844
1 65580U 25203R   25308.46430051  .00000098  00000-0  75781-4 0  9996 | 2 65580  81.3052 218.9225 0009946  79.5390 280.6888 13.85065163  7606 | 2025/11/04-11:08:35  351.9491    0.1158  280.5768  103.9662     7324.1130     7316.8285     7331.3976 -63.255160 -51.081506   0.000474  -0.000874
1 65580U 25203R   25309.69234842  .00000133  00000-0  10690-3 0  9999 | 2 65580  81.3052 217.7841 0009902  76.4977 283.7283 13.85065672  7772 | 2025/11/05-16:36:58   76.3970    0.1157  283.6180  103.9662     7324.1112     7316.8589     7331.3636 -64.257538 -49.814701   0.000407  -0.000903
1 65580U 25203R   25311.13711028  .00000163  00000-0  13360-3 0  9997 | 2 65580  81.3053 216.4449 0009874  73.0330 287.1908 13.85066217  7977 | 2025/11/07-03:17:26  239.2767    0.1157  287.0827  103.9661     7324.1093     7316.8775     7331.3411 -65.404302 -48.299370   0.000329  -0.000931
1 65580U 25203R   25312.14844378  .00000163  00000-0  13333-3 0  9994 | 2 65580  81.3053 215.5073 0009938  70.6212 289.6019 13.85066433  8110 | 2025/11/08-03:33:45  245.2919    0.1158  289.4946  103.9661     7324.1085     7316.8298     7331.3872 -66.185890 -47.222661   0.000276  -0.000955
1 65580U 25203R   25314.46006099  .00000166  00000-0  13630-3 0  9994 | 2 65580  81.3055 213.3646 0009867  64.9901 295.2280 13.85067193  8438 | 2025/11/10-11:02:29    1.9002    0.1158  295.1257  103.9661     7324.1059     7316.8792     7331.3326 -67.905363 -44.715165   0.000143  -0.000976
1 65580U 25203R   25316.19377298  .00000140  00000-0  11325-3 0  9999 | 2 65580  81.3055 211.7575 0009818  60.7289 299.4848 13.85067653  8673 | 2025/11/12-04:39:01  269.3569    0.1157  299.3868  103.9660     7324.1042     7316.9134     7331.2950 -69.132712 -42.793136   0.000043  -0.000981
1 65580U 25203R   25317.20510405  .00000205  00000-0  17054-3 0  9998 | 2 65580  81.3053 210.8201 0009822  58.2867 301.9246 13.85068526  8813 | 2025/11/13-04:55:20  275.3727    0.1157  301.8290  103.9660     7324.1012     7316.9074     7331.2949 -69.823383 -41.656296  -0.000015  -0.000982
1 65580U 25203R   25318.21643477  .00000216  00000-0  18014-3 0  9995 | 2 65580  81.3051 209.8826 0009808  55.8181 304.3905 13.85069096  8955 | 2025/11/14-05:11:39  281.3887    0.1158  304.2977  103.9659     7324.0992     7316.9157     7331.2826 -70.495432 -40.508189  -0.000074  -0.000978
1 65580U 25203R   25319.22776536  .00000212  00000-0  17712-3 0  9990 | 2 65580  81.3049 208.9451 0009781  53.3113 306.8941 13.85069517  9095 | 2025/11/15-05:27:58  287.4053    0.1157  306.8044  103.9659     7324.0977     7316.9340     7331.2614 -71.148604 -39.349242  -0.000132  -0.000969
1 65580U 25203R   25320.45580919  .00000201  00000-0  16669-3 0  9993 | 2 65580  81.3048 207.8068 0009753  50.2922 309.9094 13.85069985  9260 | 2025/11/16-10:56:21   11.8536    0.1158  309.8236  103.9659     7324.0960     7316.9528     7331.2392 -71.916178 -37.928008  -0.000201  -0.000954
1 65580U 25203R   25321.68388117  .00000369  00000-0  31547-3 0  9992 | 2 65580  81.3047 206.6685 0009887  47.6997 312.4997 13.85053107  9430 | 2025/11/17-16:24:47   96.3104    0.1158  312.4161  103.9671     7324.1555     7316.9141     7331.3969 -72.655366 -36.491808  -0.000266  -0.000952
1 65580U 25203R   25322.91193928  .00000290  00000-0  24533-3 0  9993 | 2 65580  81.3046 205.5301 0009839  44.6003 315.5944 13.85053602  9609 | 2025/11/18-21:53:11  180.7649    0.1157  315.5154  103.9671     7324.1538     7316.9475     7331.3600 -73.365937 -35.041080  -0.000334  -0.000925
1 65580U 25203R   25324.13999790  .00000120  00000-0  95686-4 0  9990 | 2 65580  81.3046 204.3917 0009791  41.4671 318.7227 13.85053299  9771 | 2025/11/20-03:21:35  265.2197    0.1157  318.6486  103.9671     7324.1548     7316.9838     7331.3259 -74.047636 -33.576564  -0.000400  -0.000893
1 65580U 25203R   25325.80148786  .00000099  00000-0  76630-4 0  9999 | 2 65580  81.3044 202.8514 0009696  37.2235 322.9593 13.85053691 10005 | 2025/11/21-19:14:08  146.5410    0.1158  322.8923  103.9671     7324.1535     7317.0520     7331.2550 -74.923236 -31.573949  -0.000484  -0.000840
1 65580U 25203R   25327.10178421  .00000104  00000-0  81761-4 0  9991 | 2 65580  81.3043 201.6459 0009665  34.0079 326.1695 13.85053982 10187 | 2025/11/23-02:26:34  257.1403    0.1157  326.1078  103.9671     7324.1524     7317.0736     7331.2312 -75.570825 -29.990659  -0.000545  -0.000798
1 65580U 25203R   25328.18536429  .00000107  00000-0  83600-4 0  9993 | 2 65580  81.3042 200.6414 0009644  31.3508 328.8223 13.85054237 10337 | 2025/11/24-04:26:55  289.3059    0.1158  328.7650  103.9670     7324.1515     7317.0881     7331.2149 -76.084882 -28.661188  -0.000594  -0.000760
1 65580U 25203R   25329.70237568  .00000112  00000-0  88462-4 0  9991 | 2 65580  81.3041 199.2351 0009576  27.5318 332.6344 13.85054694 10546 | 2025/11/25-16:51:25  118.3385    0.1157  332.5839  103.9670     7324.1499     7317.1363     7331.1635 -76.765276 -26.785239  -0.000656  -0.000698
1 65580U 25203R   25330.71371620  .00000123  00000-0  97893-4 0  9992 | 2 65580  81.3040 198.2976 0009518  24.7393 335.4219 13.85055057 10686 | 2025/11/26-17:07:45  124.3604    0.1158  335.3765  103.9670     7324.1486     7317.1775     7331.1198 -77.193158 -25.525609  -0.000696  -0.000650
1 65580U 25203R   25331.86953403  .00000119  00000-0  94907-4 0  9992 | 2 65580  81.3038 197.2262 0009467  21.7338 338.4219 13.85055281 10849 | 2025/11/27-20:52:07  182.6709    0.1158  338.3820  103.9670     7324.1479     7317.2141     7331.0816 -77.656759 -24.077701  -0.000736  -0.000595
1 65580U 25203R   25333.09759037  .00000105  00000-0  82246-4 0  9994 | 2 65580  81.3036 196.0877 0009398  18.4780 341.6717 13.85055419 11015 | 2025/11/29-02:20:31  267.1261    0.1158  341.6378  103.9670     7324.1474     7317.2641     7331.0306 -78.119642 -22.529910  -0.000774  -0.000533
1 65580U 25203R   25334.10893078  .00000101  00000-0  78618-4 0  9995 | 2 65580  81.3035 195.1501 0009350  15.8098 344.3349 13.85055554 11155 | 2025/11/30-02:36:51  273.1481    0.1157  344.3059  103.9669     7324.1469     7317.2988     7330.9950 -78.477754 -21.248558  -0.000802  -0.000481
1 65580U 25203R   25335.12027123  .00000079  00000-0  59576-4 0  9994 | 2 65580  81.3035 194.2126 0009305  13.1730 346.9668 13.85055539 11292 | 2025/12/01-02:53:11  279.1699    0.1157  346.9427  103.9670     7324.1469     7317.3318     7330.9621 -78.814912 -19.961682  -0.000826  -0.000428
1 65580U 25203R   25336.13161147  .00000087  00000-0  66686-4 0  9990 | 2 65580  81.3034 193.2749 0009254  10.5047 349.6302 13.85055691 11436 | 2025/12/02-03:09:31  285.1918    0.1158  349.6111  103.9669     7324.1464     7317.3686     7330.9242 -79.130937 -18.669162  -0.000847  -0.000373
1 65580U 25203R   25337.35966733  .00000100  00000-0  78077-4 0  9992 | 2 65580  81.3033 192.1364 0009192   7.2401 352.8887 13.85055899 11607 | 2025/12/03-08:37:55    9.6469    0.1157  352.8756  103.9669     7324.1457     7317.4133     7330.8780 -79.486161 -17.093182  -0.000867  -0.000305
1 65580U 25203R   25338.65996139  .00000109  00000-0  86178-4 0  9999 | 2 65580  81.3033 190.9310 0009147   3.7368 356.3856 13.85056209 11787 | 2025/12/04-15:50:20  120.2462    0.1158  356.3790  103.9669     7324.1446     7317.4452     7330.8440 -79.828154 -15.417277  -0.000885  -0.000232
1 65580U 25203R   25339.96025478  .00000142  00000-0  11466-3 0  9997 | 2 65580  81.3034 189.7257 0009113   0.1892 359.9267 13.85056765 11962 | 2025/12/05-23:02:46  230.8453    0.1158  359.9266  103.9669     7324.1426     7317.4681     7330.8171 -80.134891 -13.734705  -0.000898  -0.000157
1 65580U 25203R   25341.04383187  .00000180  00000-0  14863-3 0  9999 | 2 65580  81.3034 188.7210 0009020 357.3332   2.7776 13.85057460 12112 | 2025/12/07-01:03:07  263.0109    0.1158    2.7826  103.9668     7324.1402     7317.5338     7330.7465 -80.363401 -12.327475  -0.000897  -0.000095
1 65580U 25203R   25342.27188594  .00000199  00000-0  16543-3 0  9997 | 2 65580  81.3031 187.5827 0008993 353.9717   6.1331 13.85058032 12286 | 2025/12/08-06:31:30  347.4650    0.1158    6.1441  103.9668     7324.1382     7317.5516     7330.7248 -80.592139 -10.728521  -0.000899  -0.000024
1 65580U 25203R   25343.28322441  .00000183  00000-0  15139-3 0  9993 | 2 65580  81.3030 186.6451 0008951 351.1602   8.9396 13.85058293 12421 | 2025/12/09-06:47:50  353.4863    0.1158    8.9556  103.9667     7324.1372     7317.5814     7330.6931 -80.756805  -9.408305  -0.000894   0.000034
1 65580U 25203R   25344.51127823  .00000149  00000-0  12105-3 0  9999 | 2 65580  81.3029 185.5066 0008897 347.9709  12.1234 13.85058446 12595 | 2025/12/10-12:16:14   77.9401    0.1157   12.1448  103.9667     7324.1367     7317.6204     7330.6530 -80.927699  -7.801860  -0.000884   0.000101
1 65580U 25203R   25345.95604775  .00000109  00000-0  85564-4 0  9990 | 2 65580  81.3026 184.1670 0008842 344.1706  15.9174 13.85058383 12790 | 2025/12/11-22:56:42  240.8271    0.1158   15.9452  103.9667     7324.1369     7317.6609     7330.6129 -81.087676  -5.907754  -0.000866   0.000179
1 65580U 25203R   25346.96738601  .00000096  00000-0  74474-4 0  9991 | 2 65580  81.3024 183.2292 0008791 341.2541  18.8291 13.85058458 12937 | 2025/12/12-23:13:02  246.8483    0.1157   18.8616  103.9667     7324.1367     7317.6980     7330.5753 -81.173307  -4.579792  -0.000847   0.000235
1 65580U 25203R   25347.97872419  .00000100  00000-0  78012-4 0  9997 | 2 65580  81.3023 182.2914 0008752 338.4969  21.5819 13.85058629 13078 | 2025/12/13-23:29:21  252.8690    0.1157   21.6188  103.9667     7324.1361     7317.7260     7330.5461 -81.237291  -3.250613  -0.000826   0.000288
1 65580U 25203R   25349.06230065  .00000093  00000-0  71472-4 0  9998 | 2 65580  81.3022 181.2867 0008683 335.3837  24.6904 13.85058769 13227 | 2025/12/15-01:29:42  285.0340    0.1157   24.7320  103.9667     7324.1356     7317.7760     7330.4951 -81.281700  -1.825662  -0.000797   0.000344
1 65580U 25203R   25350.29035393  .00000091  00000-0  69693-4 0  9992 | 2 65580  81.3020 180.1480 0008629 331.9637  28.1055 13.85058928 13395 | 2025/12/16-06:58:06    9.4872    0.1158   28.1521  103.9667     7324.1350     7317.8150     7330.4550 -81.301729  -0.210010  -0.000763   0.000404
1 65580U 25203R   25351.59067430  .00000044  00000-0  28327-4 0  9990 | 2 65580  81.3021 178.9422 0008548 327.3902  32.6726 13.85036985 13575 | 2025/12/17-14:10:34  120.0964    0.1157   32.7255  103.9683     7324.2124     7317.9516     7330.4731 -81.288245   1.500922  -0.000711   0.000474
1 65580U 25203R   25352.89099250  .00000121  00000-0  83477-4 0  9992 | 2 65580  81.3145 177.6933 0046971 280.6586  78.9288 13.93193600 13759 | 2025/12/18-21:23:01  231.2169    0.1162   79.4576  103.3596     7295.5974     7261.3293     7329.8656 -81.248610   3.272798  -0.000682   0.004647
1 65580U 25203R   25355.49161060 -.00000142  00000-0 -13614-3 0  9990 | 2 65580  81.3020 175.3254 0008396 316.1748  43.8742 13.85037117 14114 | 2025/12/21-11:47:55   91.9090    0.1157   43.9409  103.9683     7324.2119     7318.0625     7330.3613 -81.031558   6.625843  -0.000556   0.000629
1 65580U 25203R   25356.58335648 -.00040394  00000-0 -35903-1 0  9992 | 2 65580  81.3015 174.3115 0008280 312.3430  88.3187 13.85062560  1305 | 2025/12/22-14:00:01   86.4148   40.7565   88.4135  103.9664     7324.1222     7318.0578     7330.1866 -80.901130   8.058607  -0.000494   0.000664
1 65580U 25203R   25357.87551631 -.00000008  00000-0 -17337-4 0  9999 | 2 65580  81.3021 173.1149 0008362 309.0406  51.0007 13.85037181 14441 | 2025/12/23-21:00:44  234.6830    0.1158   51.0752  103.9683     7324.2117     7318.0872     7330.3362 -80.715794   9.746387  -0.000445   0.000708
1 65580U 25203R   25358.88687014  .00000005  00000-0 -62079-5 0  9996 | 2 65580  81.3020 172.1771 0008234 306.1338  53.9057 13.85037317 14582 | 2025/12/24-21:17:05  240.7068    0.1158   53.9820  103.9683     7324.2112     7318.1804     7330.2419 -80.545364  11.066141  -0.000391   0.000725
1 65580U 25203R   25359.97046368  .00000012  00000-0 -86600-7 0  9994 | 2 65580  81.3022 171.1725 0008246 302.7161  57.3200 13.85037348 14730 | 2025/12/25-23:17:28  272.8765    0.1157   57.3996  103.9683     7324.2111     7318.1715     7330.2506 -80.339162  12.476647  -0.000334   0.000754
1 65580U 25203R   25360.98181787  .00000012  00000-0 -91650-7 0  9993 | 2 65580  81.3021 170.2347 0008210 299.8889  60.1452 13.85037285 14879 | 2025/12/26-23:33:49  278.9006    0.1157   60.2268  103.9683     7324.2113     7318.1981     7330.2245 -80.124098  13.789867  -0.000282   0.000771
1 65580U 25203R   25361.99317197  .00000025  00000-0  11955-4 0  9991 | 2 65580  81.3023 169.2970 0008190 296.8545  63.1775 13.85037340 15014 | 2025/12/27-23:50:10  284.9248    0.1158   63.2613  103.9683     7324.2111     7318.2126     7330.2096 -79.887890  15.099306  -0.000228   0.000787
1 65580U 25203R   25363.51020294  .00000043  00000-0  27516-4 0  9990 | 2 65580  81.3024 167.8904 0008181 292.2828  67.7461 13.85037516 15220 | 2025/12/29-12:14:41  113.9609    0.1157   67.8329  103.9683     7324.2105     7318.2185     7330.2024 -79.493267  17.055812  -0.000144   0.000805
1 65580U 25203R   25364.59379620  .00000067  00000-0  48984-4 0  9997 | 2 65580  81.3026 166.8859 0008172 289.0022  71.0250 13.85037814 15371 | 2025/12/30-14:15:03  146.1287    0.1158   71.1136  103.9683     7324.2094     7318.2241     7330.1948 -79.182241  18.446827  -0.000084   0.000813
1 65580U 25203R   25365.89410779  .00000103  00000-0  80902-4 0  9999 | 2 65580  81.3029 165.6802 0008196 285.0615  74.9635 13.85038273 15558 | 2025/12/31-21:27:30  256.7304    0.1157   75.0542  103.9682     7324.2078     7318.2049     7330.2107 -78.776845  20.108961  -0.000011   0.000820
1 65580U 25203R   26001.97770057  .00000120  00000-0  95259-4 0  9994 | 2 65580  81.3030 164.6757 0008231 281.8862  78.1371 13.85038631 15704 | 2026/01/01-23:27:53  288.8980    0.1156   78.2294  103.9682     7324.2066     7318.1780     7330.2351 -78.412306  21.486928   0.000049   0.000822
1 65580U 25203R   26003.49473030  .00000121  00000-0  96698-4 0  9993 | 2 65580  81.3032 163.2693 0008246 277.2896  82.7323 13.85039063 15913 | 2026/01/03-11:52:24  117.9318    0.1156   82.8260  103.9682     7324.2050     7318.1655     7330.2446 -77.861504  23.405053   0.000135   0.000813
1 65580U 25203R   26004.50608326  .00000118  00000-0  93786-4 0  9995 | 2 65580  81.3035 162.3317 0008207 274.0255  85.9964 13.85039344 16054 | 2026/01/04-12:08:45  123.9533    0.1157   86.0902  103.9682     7324.2040     7318.1931     7330.2150 -77.468377  24.676095   0.000194   0.000798
1 65580U 25203R   26005.51743609  .00000120  00000-0  96038-4 0  9997 | 2 65580  81.3036 161.3942 0008196 270.7883  89.2335 13.85039624 16190 | 2026/01/05-12:25:06  129.9748    0.1157   89.3274  103.9681     7324.2031     7318.2001     7330.2060 -77.054358  25.940340   0.000251   0.000780
1 65580U 25203R   26006.67326785  .00000128  00000-0  10268-3 0  9995 | 2 65580  81.3037 160.3225 0008176 267.3040  92.7182 13.85039940 16357 | 2026/01/06-16:09:30  188.2847    0.1158   92.8118  103.9681     7324.2019     7318.2137     7330.1902 -76.555796  27.377030   0.000311   0.000756
1 65580U 25203R   26007.82909953  .00000120  00000-0  95344-4 0  9998 | 2 65580  81.3039 159.2510 0008190 263.7888  96.2337 13.85040133 16514 | 2026/01/07-19:53:54  246.5946    0.1158   96.3270  103.9681     7324.2013     7318.2027     7330.1998 -76.030642  28.803916   0.000371   0.000730
1 65580U 25203R   26008.91269162  .00000097  00000-0  75687-4 0  9991 | 2 65580  81.3039 158.2464 0008201 260.5116  99.5115 13.85040216 16661 | 2026/01/08-21:54:16  278.7598    0.1158   99.6042  103.9681     7324.2010     7318.1944     7330.2075 -75.513946  30.132510   0.000425   0.000701
1 65580U 25203R   26010.86315744  .00000087  00000-0  66100-4 0  9995 | 2 65580  81.3041 156.4382 0008228 254.6442 105.3806 13.85040403 16939 | 2026/01/10-20:42:56  264.6564    0.1157  105.4715  103.9681     7324.2003     7318.1740     7330.2267 -74.525732  32.500338   0.000517   0.000640
1 65580U 25203R   26011.87451000  .00000068  00000-0  50036-4 0  9993 | 2 65580  81.3042 155.5006 0008256 251.6533 108.3727 13.85040439 17072 | 2026/01/11-20:59:17  270.6766    0.1158  108.4625  103.9681     7324.2002     7318.1533     7330.2470 -73.984026  33.715528   0.000561   0.000605
1 65580U 25203R   26012.88586241  .00000060  00000-0  42683-4 0  9992 | 2 65580  81.3044 154.5630 0008281 248.6500 111.3774 13.85040552 17212 | 2026/01/12-21:15:38  276.6965    0.1157  111.4657  103.9681     7324.1998     7318.1346     7330.2649 -73.422598  34.921735   0.000604   0.000567
1 65580U 25203R   26014.11393317  .00000059  00000-0  41795-4 0  9991 | 2 65580  81.3045 153.4246 0008299 244.9119 115.1177 13.85040729 17381 | 2026/01/14-02:44:03    1.1486    0.1157  115.2038  103.9681     7324.1992     7318.1208     7330.2775 -72.714387  36.373612   0.000651   0.000515
1 65580U 25203R   26015.48648248  .00000070  00000-0  51748-4 0  9990 | 2 65580  81.3047 152.1522 0008333 240.7059 119.3266 13.85041073 17571 | 2026/01/15-11:40:32  137.8887    0.1157  119.4098  103.9680     7324.1979     7318.0947     7330.3012 -71.888931  37.979414   0.000700   0.000452
1 65580U 25203R   26016.64231346  .00000077  00000-0  57841-4 0  9993 | 2 65580  81.3048 151.0808 0008372 237.3131 122.7219 13.85041301 17731 | 2026/01/16-15:24:55  196.1960    0.1157  122.8026  103.9680     7324.1971     7318.0653     7330.3290 -71.166297  39.317028   0.000736   0.000398
1 65580U 25203R   26017.79814428  .00000093  00000-0  71681-4 0  9994 | 2 65580  81.3049 150.0093 0008410 233.9354 126.1024 13.85041601 17891 | 2026/01/17-19:09:19  254.5031    0.1156  126.1802  103.9680     7324.1961     7318.0364     7330.3557 -70.418706  40.641020   0.000769   0.000341
1 65580U 25203R   26018.88173567  .00000102  00000-0  79468-4 0  9999 | 2 65580  81.3049 149.0047 0008436 230.6911 129.3499 13.85041820 18041 | 2026/01/18-21:09:41  286.6654    0.1157  129.4246  103.9680     7324.1953     7318.0166     7330.3740 -69.695336  41.869402   0.000794   0.000284
1 65580U 25203R   26020.32652365  .00000164  00000-0  13457-3 0  9992 | 2 65580  81.3049 147.6654 0008489 226.4771 133.5682 13.85042490 18241 | 2026/01/20-07:50:11   89.5481    0.1157  133.6386  103.9679     7324.1929     7317.9754     7330.4105 -68.697680  43.486958   0.000823   0.000207
1 65580U 25203R   26021.41011432  .00000185  00000-0  15268-3 0  9992 | 2 65580  81.3049 146.6609 0008526 223.2646 136.7842 13.85042912 18396 | 2026/01/21-09:50:33  121.7098    0.1156  136.8510  103.9679     7324.1915     7317.9469     7330.4361 -67.924756  44.684609   0.000840   0.000147
1 65580U 25203R   26022.63818391  .00000168  00000-0  13839-3 0  9999 | 2 65580  81.3050 145.5224 0008566 219.5584 140.4949 13.85043079 18566 | 2026/01/22-15:18:59  206.1593    0.1157  140.5573  103.9679     7324.1909     7317.9170     7330.4648 -67.023579  46.025459   0.000853   0.000076
1 65580U 25203R   26023.79401390  .00000149  00000-0  12150-3 0  9998 | 2 65580  81.3050 144.4510 0008626 216.4354 143.6217 13.85043231 18721 | 2026/01/23-19:03:22  264.4649    0.1157  143.6803  103.9679     7324.1903     7317.8725     7330.5082 -66.151260  47.270644   0.000862   0.000013
1 65580U 25203R   26025.31104030  .00000131  00000-0  10527-3 0  9996 | 2 65580  81.3051 143.0447 0008693 211.9768 148.0863 13.85043556 18938 | 2026/01/25-07:27:53   93.4900    0.1157  148.1389  103.9678     7324.1892     7317.8223     7330.5561 -64.971294  48.879957   0.000866  -0.000075
1 65580U 25203R   26026.32239119  .00000107  00000-0  83935-4 0  9992 | 2 65580  81.3051 142.1072 0008735 209.0994 150.9678 13.85043644 19078 | 2026/01/26-07:44:14   99.5065    0.1157  151.0163  103.9678     7324.1889     7317.7912     7330.5866 -64.162836  49.936457   0.000863  -0.000134
1 65580U 25203R   26027.33374192  .00000101  00000-0  78761-4 0  9990 | 2 65580  81.3052 141.1697 0008784 206.2610 153.8103 13.85043816 19211 | 2026/01/27-08:00:35  105.5230    0.1157  153.8547  103.9678     7324.1883     7317.7547     7330.6218 -63.337278  50.979650   0.000857  -0.000191
1 65580U 25203R   26029.35658278 -.00012203  00000-0 -10834-1 0  9996 | 2 65580  81.3047 139.2925 0008468 196.7800 163.3078 13.84956133 19491 | 2026/01/29-08:33:28  117.6003    0.1156  163.3356  103.9744     7324.4974     7318.2950     7330.6998 -61.632944  53.026733   0.000774  -0.000343
1 65580U 25203R   26030.80144511 -.00006239  00000-0 -55398-2 0  9995 | 2 65580  81.3057 137.9573 0008578 196.2687 163.8197 13.84958752 19694 | 2026/01/30-19:14:04  280.5094    0.1158  163.8471  103.9742     7324.4882     7318.2052     7330.7711 -60.381348  54.449147   0.000772  -0.000373
1 65580U 25203R   26033.69136931  .00000067  00000-0  49156-4 0  9990 | 2 65580  81.3048 135.2774 0008634 189.0218 171.0785 13.84875520 20092 | 2026/02/02-16:35:34  246.3986    0.1156  171.0938  103.9805     7324.7816     7318.4574     7331.1059 -57.768847  57.212157   0.000701  -0.000504
1 65580U 25203R   26035.71433462  .00000087  00000-0  66533-4 0  9994 | 2 65580  81.3035 133.4028 0008205 186.4269 173.6784 13.84833714 20378 | 2026/02/04-17:08:38  258.5296    0.1156  173.6887  103.9836     7324.9291     7318.9189     7330.9392 -55.865506  59.070334   0.000627  -0.000529
1 65580U 25203R   26039.32707418 -.00029224  00000-0 -26136-1 0  9998 | 2 65580  81.3064 130.0579 0008841 177.3520 182.7685 13.84622988 20874 | 2026/02/08-07:50:59  126.0065    0.1156  182.7636  103.9994     7325.6722     7319.1956     7332.1489 -52.325661  62.231470   0.000537  -0.000702
1 65580U 25203R   26040.33880456  .00002027  00000-0  17973-2 0  9995 | 2 65580  81.3029 129.1151 0008267 176.8521 183.2689 13.84527168 21018 | 2026/02/09-08:07:52  132.1689    0.1156  183.2635  104.0066     7326.0102     7319.9538     7332.0666 -51.292399  63.081308   0.000486  -0.000669
1 65580U 25203R   26041.35053036  .00000564  00000-0  49219-3 0  9997 | 2 65580  81.3049 128.1814 0008705 168.8309 191.3043 13.84530404 21153 | 2026/02/10-08:24:45  138.3069    0.1157  191.2848  104.0064     7325.9988     7319.6215     7332.3761 -50.258888  63.910335   0.000395  -0.000776
1 65580U 25203R   26042.57905393  .00000219  00000-0  18504-3 0  9994 | 2 65580  81.3046 127.0430 0008789 165.9511 194.1892 13.84530612 21320 | 2026/02/11-13:53:50  222.9196    0.1156  194.1645  104.0064     7325.9981     7319.5592     7332.4369 -48.979047  64.896001   0.000343  -0.000809
1 65580U 25203R   26043.59077948  .00000141  00000-0  11477-3 0  9999 | 2 65580  81.3044 126.1056 0008832 163.1932 196.9519 13.84530679 21462 | 2026/02/12-14:10:43  229.0706    0.1156  196.9224  104.0064     7325.9978     7319.5275     7332.4682 -47.910677  65.688450   0.000292  -0.000834
1 65580U 25203R   26048.57870081  .00000131  00000-0  10763-3 0  9997 | 2 65580  81.3035 121.4884 0008701 150.9101 209.2542 13.83901577 22155 | 2026/02/17-13:53:19  234.2366    0.1156  209.2055  104.0536     7328.2179     7321.8416     7334.5941 -42.466926  69.331229   0.000036  -0.000869
1 65580U 25203R   26049.59088518  .00000008  00000-0 -31494-5 0  9996 | 2 65580  81.3031 120.5513 0008740 148.7058 211.4620 13.83901573 22292 | 2026/02/18-14:10:52  240.5542    0.1156  211.4098  104.0536     7328.2179     7321.8130     7334.6227 -41.327148  70.016147  -0.000011  -0.000874
1 65580U 25203R   26051.18195573 -.00000418  00000-0 -39158-3 0  9993 | 2 65580  81.3029 119.0802 0008680 143.4295 216.7456 13.83267333 22510 | 2026/02/20-04:22:00   96.3716    0.1156  216.6861  104.1014     7330.4577     7324.0949     7336.8206 -39.515925  71.053876  -0.000113  -0.000861
1 65580U 25203R   26052.70092850 -.00000039  00000-0 -46632-4 0  9991 | 2 65580  81.3026 117.6757 0008712 139.6567 220.5237 13.83267216 22728 | 2026/02/21-16:49:20  286.0982    0.1156  220.4589  104.1014     7330.4581     7324.0719     7336.8444 -37.762334  72.000826  -0.000191  -0.000850
1 65580U 25203R   26053.93057280  .00000033  00000-0  19040-4 0  9990 | 2 65580  81.3028 116.5392 0008773 136.5343 223.6506 13.83267498 22891 | 2026/02/22-22:20:01   11.1142    0.1156  223.5813  104.1013     7330.4572     7324.0261     7336.8882 -36.326904  72.735833  -0.000255  -0.000839
1 65580U 25203R   26055.30488081  .00000041  00000-0  26915-4 0  9998 | 2 65580  81.3025 115.2686 0008829 133.2047 226.9848 13.83267693 23081 | 2026/02/24-07:19:01  148.4856    0.1156  226.9109  104.1013     7330.4565     7323.9844     7336.9285 -34.704975  73.523202  -0.000324  -0.000821
1 65580U 25203R   26056.53452480  .00000050  00000-0  34613-4 0  9992 | 2 65580  81.3023 114.1316 0008868 130.1827 230.0107 13.83267825 23252 | 2026/02/25-12:49:42  233.5026    0.1156  229.9329  104.1013     7330.4560     7323.9553     7336.9566 -33.239132  74.197197  -0.000384  -0.000799
1 65580U 25203R   26058.12593384  .00000452  00000-0  40145-3 0  9990 | 2 65580  81.3018 112.6596 0008650 126.3597 233.8359 13.83190298 23472 | 2026/02/27-03:01:20   89.4482    0.1156  233.7559  104.1072     7330.7299     7324.3888     7337.0710 -31.321962  75.026111  -0.000445  -0.000742
1 65580U 25203R   26059.13863855  .00000103  00000-0  82865-4 0  9994 | 2 65580  81.3018 111.7241 0008656 124.1823 236.0155 13.83190385 23615 | 2026/02/28-03:19:38   95.9533    0.1156  235.9333  104.1071     7330.7296     7324.3841     7337.0751 -30.092848  75.527499  -0.000485  -0.000717
1 65580U 25203R   26060.15134314  .00000056  00000-0  40083-4 0  9992 | 2 65580  81.3016 110.7876 0008664 121.6652 238.5350 13.83190357 23755 | 2026/03/01-03:37:56  102.4593    0.1156  238.4504  104.1071     7330.7297     7324.3784     7337.0810 -28.854315  76.009070  -0.000528  -0.000687
1 65580U 25203R   26061.16404767  .00000052  00000-0  36464-4 0  9990 | 2 65580  81.3014 109.8514 0008686 119.3145 240.8880 13.83190367 23896 | 2026/03/02-03:56:13  108.9650    0.1156  240.8011  104.1071     7330.7297     7324.3622     7337.0971 -27.608480  76.470187  -0.000568  -0.000657
1 65580U 25203R   26062.17675196  .00000055  00000-0  38959-4 0  9992 | 2 65580  81.3013 108.9151 0008690 116.9151 243.2894 13.83190466 24036 | 2026/03/03-04:14:31  115.4710    0.1156  243.2005  104.1071     7330.7293     7324.3589     7337.0997 -26.355178  76.911026  -0.000606  -0.000623
1 65580U 25203R   26063.47880015  .00000065  00000-0  48453-4 0  9995 | 2 65580  81.3011 107.7112 0008700 113.7932 246.4137 13.83190642 24213 | 2026/03/04-11:29:28  226.6932    0.1156  246.3224  104.1071     7330.7287     7324.3510     7337.1064 -24.733362  77.447593  -0.000652  -0.000577
1 65580U 25203R   26064.56384008  .00000072  00000-0  54365-4 0  9994 | 2 65580  81.3010 106.7080 0008724 111.1619 249.0470 13.83190846 24366 | 2026/03/05-13:31:55  259.3782    0.1156  248.9537  104.1071     7330.7280     7324.3326     7337.1233 -23.373570  77.868664  -0.000689  -0.000536
1 65580U 25203R   26065.57654382  .00000075  00000-0  57336-4 0  9995 | 2 65580  81.3007 105.7715 0008747 108.7614 251.4492 13.83191038 24509 | 2026/03/06-13:50:13  265.8845    0.1156  251.3542  104.1071     7330.7273     7324.3151     7337.1395 -22.097659  78.239998  -0.000721  -0.000496
1 65580U 25203R   26066.58924727  .00000083  00000-0  64589-4 0  9997 | 2 65580  81.3007 104.8351 0008738 106.3470 253.8647 13.83191284 24645 | 2026/03/07-14:08:30  272.3913    0.1155  253.7685  104.1071     7330.7264     7324.3208     7337.1320 -20.816068  78.590681  -0.000748  -0.000452
1 65580U 25203R   26067.60195075  .00000077  00000-0  59010-4 0  9993 | 2 65580  81.3005 103.8987 0008758 103.8876 256.3255 13.83191421 24782 | 2026/03/08-14:26:48  278.8977    0.1156  256.2280  104.1071     7330.7259     7324.3057     7337.1462 -19.528869  78.920178  -0.000775  -0.000408
1 65580U 25203R   26069.12100568  .00000076  00000-0  58005-4 0  9997 | 2 65580  81.3004 102.4940 0008757 100.1913 260.0231 13.83191625 24991 | 2026/03/10-02:54:14  108.6581    0.1156  259.9243  104.1071     7330.7252     7324.3057     7337.1447 -17.588315  79.375098  -0.000808  -0.000338
1 65580U 25203R   26070.20604485  .00000068  00000-0  51470-4 0  9995 | 2 65580  81.3002 101.4905 0008743  97.3295 262.8855 13.83191708 25146 | 2026/03/11-04:56:42  141.3446    0.1156  262.7861  104.1070     7330.7249     7324.3157     7337.1342 -16.195443  79.670761  -0.000828  -0.000282
1 65580U 25203R   26071.21874787  .00000072  00000-0  54941-4 0  9992 | 2 65580  81.3001 100.5540 0008750  95.0701 265.1454 13.83191829 25285 | 2026/03/12-05:14:59  147.8518    0.1156  265.0455  104.1070     7330.7245     7324.3101     7337.1389 -14.891100  79.924723  -0.000843  -0.000236
1 65580U 25203R   26072.30378678  .00000078  00000-0  60087-4 0  9995 | 2 65580  81.3000  99.5506 0008763  92.5322 267.6838 13.83191938 25439 | 2026/03/13-07:17:27  180.5382    0.1157  267.5835  104.1070     7330.7241     7324.3002     7337.1480 -13.489179  80.173138  -0.000857  -0.000183
1 65580U 25203R   26073.31648954  .00000088  00000-0  68967-4 0  9990 | 2 65580  81.2999  98.6140 0008757  90.0741 270.1418 13.83192095 25573 | 2026/03/14-07:35:44  187.0461    0.1156  270.0415  104.1070     7330.7236     7324.3040     7337.1431 -12.176850  80.382822  -0.000866  -0.000132
1 65580U 25203R   26074.32919208  .00000091  00000-0  72292-4 0  9995 | 2 65580  81.2998  97.6775 0008763  87.7049 272.5111 13.83192272 25715 | 2026/03/15-07:54:02  193.5535    0.1157  272.4108  104.1070     7330.7229     7324.2990     7337.1468 -10.861411  80.571007  -0.000872  -0.000082
1 65580U 25203R   26076.13758918  .00000087  00000-0  68690-4 0  9997 | 2 65580  81.2996  96.0050 0008760  83.4061 276.8092 13.83192529 25963 | 2026/03/17-03:18:07  128.0321    0.1156  276.7095  104.1070     7330.7220     7324.3003     7337.1437  -8.505178  80.853490  -0.000876   0.000009
1 65580U 25203R   26077.29496318  .00000077  00000-0  59490-4 0  9995 | 2 65580  81.2996  94.9346 0008757  80.6621 279.5525 13.83192608 26123 | 2026/03/18-07:04:44    7.6785    0.1156  279.4535  104.1070     7330.7217     7324.3022     7337.1413  -6.993277  80.998266  -0.000873   0.000067
1 65580U 25203R   26078.30766520  .00000066  00000-0  49020-4 0  9999 | 2 65580  81.2996  93.9981 0008737  78.1662 282.0474 13.83192700 26262 | 2026/03/19-07:23:02   14.2017    0.1157  281.9495  104.1070     7330.7214     7324.3166     7337.1263  -5.668484  81.101746  -0.000866   0.000119
1 65580U 25203R   26079.46503879  .00000056  00000-0  39949-4 0  9991 | 2 65580  81.2995  92.9277 0008723  75.3670 284.8453 13.83192821 26420 | 2026/03/20-11:09:39   73.2234    0.1157  284.7487  104.1070     7330.7210     7324.3264     7337.1156  -4.152435  81.193386  -0.000854   0.000177
1 65580U 25203R   26080.55007645  .00000053  00000-0  37122-4 0  9991 | 2 65580  81.2996  91.9242 0008714  72.7669 287.4440 13.83192931 26574 | 2026/03/21-13:12:06  105.0084    0.1156  287.3487  104.1070     7330.7206     7324.3326     7337.1086  -2.729822  81.253757  -0.000840   0.000230
1 65580U 25203R   26081.77978567  .00000051  00000-0  35444-4 0  9999 | 2 65580  81.2996  90.7869 0008700  69.7812 290.4279 13.83193031 26742 | 2026/03/22-18:42:53  190.2818    0.1156  290.3344  104.1069     7330.7202     7324.3425     7337.0980  -1.116533  81.291933  -0.000820   0.000289
1 65580U 25203R   26082.93715882  .00000059  00000-0  42993-4 0  9992 | 2 65580  81.2995  89.7165 0008677  67.0201 293.1870 13.83193208 26905 | 2026/03/23-22:29:30  249.3043    0.1157  293.0956  104.1069     7330.7196     7324.3588     7337.0805   0.402269  81.298505  -0.000797   0.000343
1 65580U 25203R   26083.94986023  .00000070  00000-0  53236-4 0  9996 | 2 65580  81.2995  88.7798 0008657  64.6291 295.5761 13.83193364 27040 | 2026/03/24-22:47:47  255.8244    0.1157  295.4866  104.1069     7330.7191     7324.3729     7337.0653   1.731265  81.281064  -0.000774   0.000388
1 65580U 25203R   26084.96256163  .00000077  00000-0  59663-4 0  9991 | 2 65580  81.2995  87.8432 0008643  62.1855 298.0176 13.83193473 27183 | 2026/03/25-23:06:05  262.3488    0.1156  297.9301  104.1069     7330.7187     7324.3827     7337.0546   3.059656  81.241905  -0.000749   0.000432
1 65580U 25203R   26085.97526282  .00000083  00000-0  64697-4 0  9995 | 2 65580  81.2995  86.9067 0008611  59.7005 300.5002 13.83193601 27327 | 2026/03/26-23:24:22  268.8692    0.1156  300.4151  104.1069     7330.7182     7324.4058     7337.0307   4.387087  81.181046  -0.000719   0.000474
1 65580U 25203R   26087.13263549  .00000078  00000-0  60390-4 0  9999 | 2 65580  81.2996  85.8363 0008582  56.8847 303.3132 13.83193699 27483 | 2026/03/28-03:10:59  327.8924    0.1157  303.2310  104.1069     7330.7179     7324.4267     7337.0091   5.902866  81.085024  -0.000683   0.000520
1 65580U 25203R   26088.21767217  .00000090  00000-0  71094-4 0  9997 | 2 65580  81.2998  84.8329 0008559  54.2738 305.9213 13.83193897 27636 | 2026/03/29-05:13:26    0.6644    0.1156  305.8418  104.1069     7330.7172     7324.4428     7336.9916   7.321918  80.969420  -0.000647   0.000560
1 65580U 25203R   26089.23037282  .00000098  00000-0  78993-4 0  9995 | 2 65580  81.2999  83.8963 0008526  51.7984 308.3939 13.83194108 27772 | 2026/03/30-05:31:44    7.1895    0.1157  308.3173  104.1069     7330.7164     7324.4663     7336.9666   8.644479  80.839017  -0.000610   0.000596
1 65580U 25203R   26090.38774484  .00000091  00000-0  72131-4 0  9996 | 2 65580  81.3000  82.8260 0008479  48.9043 311.2844 13.83194283 27936 | 2026/03/31-09:18:21   66.2135    0.1156  311.2113  104.1069     7330.7158     7324.5001     7336.9315  10.152989  80.663541  -0.000564   0.000633
1 65580U 25203R   26091.40044512  .00000078  00000-0  60748-4 0  9998 | 2 65580  81.3001  81.8896 0008446  46.3897 313.7959 13.83194429 28076 | 2026/04/01-09:36:38   72.7345    0.1157  313.7260  104.1068     7330.7153     7324.5238     7336.9068  11.469894  80.486942  -0.000523   0.000663
1 65580U 25203R   26092.41314551  .00000080  00000-0  61921-4 0  9990 | 2 65580  81.3003  80.9530 0008429  43.9940 316.1886 13.83194577 28212 | 2026/04/02-09:54:55   79.2556    0.1157  316.1217  104.1068     7330.7148     7324.5357     7336.8938  12.784035  80.288899  -0.000483   0.000691
1 65580U 25203R   26093.42584563  .00000080  00000-0  61722-4 0  9993 | 2 65580  81.3004  80.0165 0008394  41.4905 318.6887 13.83194733 28350 | 2026/04/03-10:13:13   85.7812    0.1157  318.6252  104.1068     7330.7142     7324.5608     7336.8676  14.094609  80.069327  -0.000439   0.000716
1 65580U 25203R   26094.43854568  .00000068  00000-0  50999-4 0  9990 | 2 65580  81.3006  79.0800 0008365  39.0282 321.1477 13.83194815 28495 | 2026/04/04-10:31:30   92.3025    0.1157  321.0875  104.1068     7330.7139     7324.5818     7336.8461  15.401439  79.828461  -0.000394   0.000738
1 65580U 25203R   26095.45124558  .00000066  00000-0  49133-4 0  9998 | 2 65580  81.3007  78.1436 0008323  36.5009 323.6713 13.83194935 28633 | 2026/04/05-10:49:47   98.8241    0.1157  323.6148  104.1068     7330.7135     7324.6122     7336.8149  16.704002  79.566200  -0.000347   0.000756
1 65580U 25203R   26096.89795957  .00000078  00000-0  60543-4 0  9995 | 2 65580  81.3008  76.8058 0008270  32.9380 327.2290 13.83195167 28832 | 2026/04/06-21:33:03  261.8644    0.1157  327.1777  104.1068     7330.7127     7324.6502     7336.7752  18.557096  79.154623  -0.000279   0.000778
1 65580U 25203R   26097.91065918  .00000077  00000-0  59243-4 0  9990 | 2 65580  81.3010  75.8693 0008212  30.2128 329.9500 13.83195277 28976 | 2026/04/07-21:51:20  268.3866    0.1156  329.9028  104.1068     7330.7123     7324.6923     7336.7323  19.848391  78.840941  -0.000227   0.000789
1 65580U 25203R   26098.99569441  .00000074  00000-0  56263-4 0  9995 | 2 65580  81.3012  74.8661 0008170  27.4948 332.6638 13.83195405 29127 | 2026/04/08-23:53:47  301.1597    0.1156  332.6208  104.1068     7330.7119     7324.7227     7336.7011  21.225768  78.481539  -0.000175   0.000798
1 65580U 25203R   26100.22540096  .00000083  00000-0  65268-4 0  9995 | 2 65580  81.3014  73.7291 0008120  24.4610 335.6930 13.83195561 29293 | 2026/04/10-05:24:34   26.4357    0.1157  335.6547  104.1068     7330.7113     7324.7588     7336.6638  22.778961  78.045093  -0.000116   0.000804
1 65580U 25203R   26101.38277150  .00000086  00000-0  68102-4 0  9994 | 2 65580  81.3016  72.6589 0008075  21.6481 338.5015 13.83195778 29451 | 2026/04/11-09:11:11   85.4603    0.1157  338.4676  104.1067     7330.7105     7324.7910     7336.6301  24.232729  77.606218  -0.000061   0.000805
1 65580U 25203R   26102.39547058  .00000084  00000-0  65416-4 0  9996 | 2 65580  81.3017  71.7226 0008037  19.1409 341.0048 13.83195947 29598 | 2026/04/12-09:29:28   91.9820    0.1157  340.9748  104.1067     7330.7099     7324.8183     7336.6016  25.497671  77.199969  -0.000012   0.000804
1 65580U 25203R   26103.62517642  .00000074  00000-0  56545-4 0  9991 | 2 65580  81.3019  70.5856 0007984  15.9918 344.1489 13.83196114 29764 | 2026/04/13-15:00:15  176.2727    0.1157  344.1239  104.1067     7330.7094     7324.8565     7336.5622  27.024604  76.679005   0.000048   0.000797
1 65580U 25203R   26104.85488223  .00000065  00000-0  48921-4 0  9998 | 2 65580  81.3022  69.4487 0007926  12.9439 347.1919 13.83196252 29939 | 2026/04/14-20:31:01  261.5446    0.1156  347.1717  104.1067     7330.7089     7324.8985     7336.5192  28.540803  76.127986   0.000105   0.000786
1 65580U 25203R   26105.86758104  .00000047  00000-0  32239-4 0  9993 | 2 65580  81.3024  68.5125 0007878  10.1239 350.0074 13.83196270 30076 | 2026/04/15-20:49:19  268.0710    0.1156  349.9917  104.1067     7330.7088     7324.9337     7336.4839  29.780925  75.651680   0.000155   0.000772
1 65580U 25203R   26107.89297887  .00000026  00000-0  12608-4 0  9999 | 2 65580  81.3028  66.6399 0007775   4.9755 355.1477 13.83196264 30359 | 2026/04/17-21:25:53  281.1147    0.1157  355.1402  104.1067     7330.7088     7325.0092     7336.4085  32.237266  74.638488   0.000245   0.000738
1 65580U 25203R   26109.12268466  .00000030  00000-0  16923-4 0  9997 | 2 65580  81.3030  65.5031 0007712   1.7048 358.4133 13.83196281 30527 | 2026/04/19-02:56:39    6.3867    0.1157  358.4109  104.1067     7330.7088     7325.0553     7336.3622  33.711802  73.984405   0.000299   0.000711
1 65580U 25203R   26110.13538353  .00000030  00000-0  16117-4 0  9990 | 2 65580  81.3032  64.5668 0007664 358.8363   1.2774 13.83196269 30661 | 2026/04/20-03:14:57   12.9131    0.1157    1.2794  104.1067     7330.7088     7325.0906     7336.3271  34.916350  73.423830   0.000343   0.000685
1 65580U 25203R   26111.36508916  .00000048  00000-0  32691-4 0  9992 | 2 65580  81.3034  63.4300 0007600 355.6450   4.4639 13.83196448 30839 | 2026/04/21-08:45:43   98.1848    0.1157    4.4707  104.1067     7330.7082     7325.1368     7336.2795  36.366267  72.716831   0.000391   0.000652
1 65580U 25203R   26112.59479477  .00000057  00000-0  41513-4 0  9990 | 2 65580  81.3036  62.2932 0007532 352.4003   7.7037 13.83196546 31009 | 2026/04/22-14:16:30  182.4752    0.1156    7.7153  104.1067     7330.7078     7325.1863     7336.2293  37.801875  71.981203   0.000435   0.000615
1 65580U 25203R   26113.96917141  .00000060  00000-0  44372-4 0  9997 | 2 65580  81.3038  61.0227 0007463 348.6122  11.4864 13.83196700 31199 | 2026/04/23-23:15:36  320.2498    0.1156   11.5034  104.1067     7330.7073     7325.2364     7336.1782  39.388688  71.125517   0.000483   0.000569
1 65580U 25203R   26115.12654104  .00000063  00000-0  46467-4 0  9994 | 2 65580  81.3040  59.9529 0007409 345.2888  14.8052 13.83196855 31350 | 2026/04/25-03:02:13   19.2742    0.1157   14.8269  104.1067     7330.7067     7325.2754     7336.1381  40.709868  70.377888   0.000522   0.000526
1 65580U 25203R   26116.28391060  .00000068  00000-0  51713-4 0  9996 | 2 65580  81.3042  58.8830 0007339 342.2102  17.8796 13.83197067 31515 | 2026/04/26-06:48:49   78.2941    0.1156   17.9054  104.1066     7330.7060     7325.3260     7336.0860  42.016983  69.605647   0.000553   0.000482
1 65580U 25203R   26117.29660892  .00000065  00000-0  48492-4 0  9997 | 2 65580  81.3044  57.9470 0007281 339.4551  20.6311 13.83197183 31658 | 2026/04/27-07:07:07   84.8194    0.1156   20.6605  104.1066     7330.7056     7325.3681     7336.0431  43.148530  68.910158   0.000578   0.000442
1 65580U 25203R   26118.30930717  .00000059  00000-0  43020-4 0  9991 | 2 65580  81.3045  57.0109 0007235 336.5629  23.5197 13.83197281 31790 | 2026/04/28-07:25:24   91.3407    0.1157   23.5528  104.1066     7330.7052     7325.4015     7336.0090  44.268632  68.196114   0.000603   0.000400
1 65580U 25203R   26119.53901212  .00000055  00000-0  39856-4 0  9993 | 2 65580  81.3047  55.8742 0007167 333.1476  26.9308 13.83197411 31963 | 2026/04/29-12:56:10  175.6260    0.1156   26.9680  104.1066     7330.7048     7325.4509     7335.9587  45.612897  67.304665   0.000627   0.000348
1 65580U 25203R   26120.55171023  .00000060  00000-0  44436-4 0  9992 | 2 65580  81.3049  54.9382 0007114 330.2535  29.8216 13.83197546 32107 | 2026/04/30-13:14:27  182.1468    0.1157   29.8622  104.1066     7330.7043     7325.4892     7335.9194  46.706384  66.550736   0.000644   0.000303
1 65580U 25203R   26121.85375052  .00000066  00000-0  49082-4 0  9992 | 2 65580  81.3050  53.7348 0007060 326.4103  33.6605 13.83197725 32289 | 2026/05/01-20:29:24  293.6731    0.1157   33.7054  104.1066     7330.7037     7325.5282     7335.8791  48.093824  65.555222   0.000663   0.000243
1 65580U 25203R   26122.86644847  .00000074  00000-0  56454-4 0  9995 | 2 65580  81.3051  52.7988 0007010 323.5051  36.5627 13.83197893 32422 | 2026/05/02-20:47:41  300.1936    0.1157   36.6106  104.1066     7330.7031     7325.5642     7335.8419  49.158348  64.760915   0.000673   0.000197
1 65580U 25203R   26123.87914634  .00000082  00000-0  64257-4 0  9990 | 2 65580  81.3052  51.8628 0006967 320.5088  39.5559 13.83198062 32562 | 2026/05/03-21:05:58  306.7142    0.1156   39.6068  104.1066     7330.7025     7325.5952     7335.8098  50.209756  63.949324   0.000681   0.000149
1 65580U 25203R   26124.89184407  .00000090  00000-0  71127-4 0  9993 | 2 65580  81.3052  50.9268 0006931 317.4743  42.5876 13.83198233 32708 | 2026/05/04-21:24:15  313.2345    0.1157   42.6414  104.1066     7330.7019     7325.6210     7335.7828  51.247704  63.120586   0.000686   0.000101
1 65580U 25203R   26126.19388382  .00000106  00000-0  85521-4 0  9997 | 2 65580  81.3053  49.7233 0006868 313.6175  46.4411 13.83198548 32889 | 2026/05/06-04:39:11   64.7557    0.1157   46.4982  104.1065     7330.7008     7325.6660     7335.7355  52.562216  62.030358   0.000686   0.000040
1 65580U 25203R   26127.20658112  .00000112  00000-0  91605-4 0  9998 | 2 65580  81.3054  48.7874 0006829 310.6266  49.4296 13.83198835 33025 | 2026/05/07-04:57:28   71.2755    0.1157   49.4891  104.1065     7330.6997     7325.6936     7335.7059  53.568462  61.163616   0.000683  -0.000007
1 65580U 25203R   26128.21927829  .00000116  00000-0  94869-4 0  9993 | 2 65580  81.3054  47.8514 0006787 307.6193  52.4346 13.83199112 33168 | 2026/05/08-05:15:45   77.7953    0.1156   52.4963  104.1065     7330.6988     7325.7234     7335.6741  54.560456  60.280384   0.000677  -0.000054
