# SPACE DATA - HISTORICAL TLEs
# ----------------------------
# NORAD_ID    : 65957
# OBJECT_NAME : KUIPER-00128
# --------------------------------------------------------------------+-----------------------------------------------------------------------+----------------------------------------------------------------------------------------------------------------------------------------
#                  LINE 1                                             |                 LINE 2                                                |      DERIVED PARAMETERS
# --------------------------------------------------------------------+-----------------------------------------------------------------------+----------------------------------------------------------------------------------------------------------------------------------------
# NORAD  COSPAR     TLE_EPOCH      MEANMOT1 MEANMOT2   BSTAR  #  REV  |   NORAD    INC     RAAN     ECC    ARGPER  MEANANOM   MEANMOT     REV |  CAL_DATE              LONG     ARGLAT     PERIOD        SMA         PERIGEE        APOGEE      INC_X      INC_Y      ECC_X      ECC_Y
# ------ ------   -------------- ----------  -------  ------- -- ----     -----  ------- -------- ------- -------- -------- -----------  ----   ------------------- ---------  --------  --------  ------------  ------------   ----------- ---------- ----------  ---------  ---------   
1 65949U 25228C   25295.58337963 -.00003592  00000-0 -94269-4 0  9994 | 2 65949  51.8792 266.9773 0006188 163.8250  55.3734 15.34613313  1980 | 2025/10/22-14:00:04  115.0962  219.2568   55.4318   93.8347     6840.2063     6835.9736     6844.4390  -2.735673 -51.807022   0.000203   0.000584
1 65949U 25228C   25296.66671295  .00034859  00000-0  10287-2 0  9997 | 2 65949  51.8801 261.7605 0006310 168.0009 280.0922 15.34640533  2154 | 2025/10/23-16:00:03  282.4861   88.0219  280.0210   93.8330     6840.1254     6835.8093     6844.4415  -7.435002 -51.344576   0.000218   0.000592
1 65949U 25228C   25297.75002315  .00084253  00000-0  24531-2 0  9999 | 2 65949  51.8805 256.5440 0006315 170.4842 146.5472 15.34659170  2315 | 2025/10/24-18:00:02   89.8237  317.0713  146.5871   93.8319     6840.0700     6835.7505     6844.3895 -12.072518 -50.456324   0.000246   0.000581
1 65949U 25228C   25298.86480216  .00037548  00000-0  11027-2 0  9993 | 2 65949  51.8806 251.1768 0006248 174.4986 185.6069 15.34759392  3064 | 2025/10/25-20:45:18   94.5360    0.0985  185.5999   93.8258     6839.7723     6835.4988     6844.0457 -16.739223 -49.105958   0.000257   0.000569
1 65949U 25228C   25299.90664618  .00016545  00000-0  49317-3 0  9997 | 2 65949  51.8804 246.1596 0006128 177.3575 182.7444 15.34778399  3229 | 2025/10/26-21:45:34  115.6475    0.0985  182.7410   93.8246     6839.7158     6835.5244     6843.9072 -20.969557 -47.453699   0.000273   0.000548
1 65949U 25228C   25300.94846592  .00020851  00000-0  61757-3 0  9994 | 2 65949  51.8797 241.1429 0006090 180.3181 179.7802 15.34815772  3383 | 2025/10/27-22:45:47  136.7498    0.0986  179.7805   93.8223     6839.6048     6835.4394     6843.7701 -25.038531 -45.437597   0.000291   0.000535
1 65949U 25228C   25302.31581981  .00040401  00000-0  11809-2 0  9990 | 2 65949  51.8790 234.5581 0005781 183.2632 176.8317 15.34875775  3591 | 2025/10/29-07:34:46  276.9331    0.0986  176.8354   93.8187     6839.4265     6835.4726     6843.3804 -30.083445 -42.266026   0.000308   0.000489
1 65949U 25228C   25303.81334179  .00049556  00000-0  14415-2 0  9997 | 2 65949  51.8787 227.3464 0006118 192.5548 167.5286 15.34934665  3823 | 2025/10/30-19:31:12  104.7403    0.0985  167.5437   93.8151     6839.2516     6835.0673     6843.4358 -35.151155 -38.154893   0.000307   0.000529
1 65949U 25228C   25305.57122347  .00033089  00000-0  96611-3 0  9997 | 2 65949  51.8798 218.8765 0006235 197.7661 162.3108 15.35003386  4091 | 2025/11/01-13:42:33   27.7867    0.0986  162.3325   93.8109     6839.0474     6834.7833     6843.3116 -40.388458 -32.562035   0.000343   0.000521
1 65949U 25228C   25307.78475662  .00016125  00000-0  47665-3 0  9990 | 2 65949  51.8805 208.2127 0005985 204.9263 155.1435 15.35064186  4431 | 2025/11/03-18:50:02  117.5113    0.0986  155.1723   93.8072     6838.8669     6834.7738     6842.9599 -45.717028 -24.526304   0.000359   0.000479
1 65949U 25228C   25308.82638125  .00014729  00000-0  43596-3 0  9998 | 2 65949  51.8801 203.1947 0005922 208.5849 151.4813 15.35098846  4598 | 2025/11/04-19:49:59  138.5445    0.0986  151.5137   93.8050     6838.7639     6834.7140     6842.8138 -47.686724 -20.433335   0.000366   0.000465
1 65949U 25228C   25309.93308394  .00017694  00000-0  52069-3 0  9992 | 2 65949  51.8793 197.8636 0005957 212.2219 147.8404 15.35133614  4760 | 2025/11/05-22:23:38  183.3833    0.0986  147.8767   93.8029     6838.6607     6834.5869     6842.7344 -49.378172 -15.914079   0.000382   0.000457
1 65949U 25228C   25311.16994906  .00025026  00000-0  72987-3 0  9999 | 2 65949  51.8781 191.9038 0005941 216.2875 143.7708 15.35189659  4956 | 2025/11/07-04:04:43  275.8376    0.0985  143.8110   93.7995     6838.4942     6834.4315     6842.5570 -50.762477 -10.700848   0.000396   0.000443
1 65949U 25228C   25312.27658177  .00036621  00000-0  10594-2 0  9997 | 2 65949  51.8777 186.5699 0005969 221.2926 138.7609 15.35245528  5129 | 2025/11/08-06:38:16  320.6549    0.0986  138.8060   93.7961     6838.3283     6834.2465     6842.4101 -51.537020  -5.935601   0.000400   0.000443
1 65949U 25228C   25314.61996508 -.00134191  00000-0 -39223-2 0  9993 | 2 65949  51.8751 175.2758 0006147 223.7079 136.3421 15.35204794  5482 | 2025/11/10-14:52:44   97.8802    0.0986  136.3907   93.7986     6838.4493     6834.2457     6842.6529 -51.698864   4.272405   0.000478   0.000387
1 65949U 25228C   25316.25003472  .00039108  00000-0  12008-2 0  9996 | 2 65949  51.8798 167.4290 0006978 241.5380 125.7816 15.33327681  5155 | 2025/11/12-06:00:02  326.8891    7.3844  125.8464   93.9134     6844.0293     6839.2535     6848.8050 -50.636088  11.291600   0.000458   0.000526
1 65949U 25228C   25317.33334491 -.00520739  00000-0 -17556-1 0  9993 | 2 65949  51.8802 162.2207 0007255 243.3117 346.5517 15.32354959  5326 | 2025/11/13-08:00:01  140.6131  229.8440  346.5323   93.9730     6846.9253     6841.9578     6851.8927 -49.402390  15.841686   0.000508   0.000518
1 65949U 25228C   25318.75003471 -.01381744  00000-0 -49248-1 0  9996 | 2 65949  51.8798 155.4278 0006548 256.5954 229.1666 15.31444722  5543 | 2025/11/14-18:00:02   42.9121  125.7053  229.1099   94.0289     6849.6381     6845.1529     6854.1232 -47.181461  21.573674   0.000403   0.000516
1 65949U 25228C   25319.83335647 -.01324333  00000-0 -48305-1 0  9993 | 2 65949  51.8791 150.2434 0007622 252.8256  84.9573 15.30565576  5703 | 2025/11/15-20:00:01  227.1392  337.8699   85.0443   94.0829     6852.2607     6847.0379     6857.4835 -45.038407  25.748454   0.000557   0.000520
1 65949U 25228C   25321.33336806 -.00946906  00000-0 -35836-1 0  9999 | 2 65949  51.8787 143.0721 0007345 261.1046  60.8778 15.28909989  5458 | 2025/11/17-08:00:03   71.5936  322.0560   60.9514   94.1847     6857.2065     6852.1699     6862.2431 -41.471428  31.169219   0.000527   0.000512
1 65949U 25228C   25322.50002315 -.00789719  00000-0 -30994-1 0  9991 | 2 65949  51.8791 137.5051 0007847 267.4257 356.6581 15.27675566  5624 | 2025/11/18-12:00:02  196.2050  264.0786  356.6529   94.2609     6860.9000     6855.5162     6866.2837 -38.252404  35.045607   0.000556   0.000554
1 65949U 25228C   25323.58335648 -.00676346  00000-0 -27036-1 0  9992 | 2 65949  51.8794 132.3479 0008131 275.9470 187.0956 15.27092153  5797 | 2025/11/19-14:00:01   33.4711  103.0311  187.0841   94.2969     6862.6473     6857.0673     6868.2273 -34.947552  38.342414   0.000541   0.000607
1 65949U 25228C   25324.75002315 -.01006736  00000-0 -42162-1 0  9992 | 2 65949  51.8797 126.7993 0008898 277.5010 119.8850 15.25743557  5410 | 2025/11/20-18:00:02  165.8263   37.4744  119.9734   94.3802     6866.6906     6860.5806     6872.8006 -31.076657  41.542083   0.000637   0.000621
1 65949U 25228C   25325.91670139 -.00956694  00000-0 -41327-1 0  9994 | 2 65949  51.8812 121.2610 0008118 281.3774  43.9912 15.24591632  5598 | 2025/11/21-22:00:03  304.5361  325.4333   44.0559   94.4515     6870.1490     6864.5718     6875.7261 -26.923094  44.348686   0.000597   0.000550
1 65949U 25228C   25327.16670139 -.00809054  00000-0 -36389-1 0  9992 | 2 65949  51.8830 115.3360 0007607 284.3929  62.3819 15.23239143  5788 | 2025/11/23-04:00:03   20.2869  346.8521   62.4592   94.5354     6874.2150     6868.9858     6879.4443 -22.202076  46.892574   0.000585   0.000486
1 65949U 25228C   25328.33336806  .00064753  00000-0  28183-2 0  9993 | 2 65949  51.8837 109.8162 0007905 291.4893 334.1517 15.21601472  5751 | 2025/11/24-08:00:03  168.0904  265.6015  334.1122   94.6371     6879.1465     6873.7086     6884.5845 -17.588778  48.811404   0.000594   0.000522
1 65949U 25228C   25329.50006943 -.00028141  00000-0 -12537-2 0  9998 | 2 65949  51.8846 104.3089 0008034 299.1169 240.7686 15.20657737  5892 | 2025/11/25-12:00:05  320.5157  179.8052  240.6883   94.6959     6881.9924     6876.4634     6887.5214 -12.823255  50.275002   0.000583   0.000552
1 65949U 25228C   25330.83334491 -.00980812  00000-0 -48584-1 0  9990 | 2 65949  51.8850  98.0261 0007934 307.6805 333.5910 15.20055888  5708 | 2025/11/26-20:00:01  346.7058  281.2310  333.5505   94.7334     6883.8089     6878.3473     6889.2705  -7.244401  51.376764   0.000554   0.000568
1 65949U 25228C   25332.00002315 -.01112765  00000-0 -56650-1 0  9996 | 2 65949  51.8852  92.5343 0008574 311.2942 234.9862 15.19012144  5889 | 2025/11/28-00:00:02  148.3428  186.2000  234.9058   94.7985     6886.9619     6881.0570     6892.8667  -2.294232  51.834453   0.000619   0.000594
1 65949U 25228C   25333.16668980 -.01431181  00000-0 -74732-1 0  9997 | 2 65949  51.8847  87.0527 0009373 312.2461 135.2121 15.18384361  4917 | 2025/11/29-04:00:01  313.7965   87.5338  135.2877   94.8376     6888.8600     6882.4031     6895.3169   2.667777  51.816070   0.000725   0.000594
1 65949U 25228C   25334.16671295 -.00757446  00000-0 -41033-1 0  9993 | 2 65949  51.8854  82.3580 0009352 320.3386 193.1110 15.16698375  5075 | 2025/11/30-04:00:03  253.4938  153.4253  193.0867   94.9431     6893.9643     6887.5170     6900.4115   6.899874  51.424571   0.000687   0.000634
1 65949U 25228C   25335.25002315 -.00671254  00000-0 -36925-1 0  9991 | 2 65949  51.8860  77.2846 0008935 325.8160 344.1750 15.15872505  5230 | 2025/12/01-06:00:02  133.0853  309.9630  344.1470   94.9948     6896.4680     6890.3060     6902.6300  11.420545  50.613518   0.000652   0.000611
1 65949U 25228C   25336.25003472  .00049647  00000-0  26389-2 0  9994 | 2 65949  51.8858  72.6068 0009098 335.5045  32.9678 15.14768047  5395 | 2025/12/02-06:00:02   80.2716    8.5291   33.0246   95.0641     6899.8198     6893.5424     6906.0973  15.510094  49.513364   0.000607   0.000677
1 65949U 25228C   25337.33335648 -.00565049  00000-0 -32828-1 0  9992 | 2 65949  51.8861  67.5463 0009817 343.6494 175.4534 15.13919329  5550 | 2025/12/03-08:00:01  325.7652  159.1117  175.4623   95.1174     6902.3983     6895.6223     6909.1744  19.817207  47.952536   0.000615   0.000765
1 65949U 25228C   25338.58334491 -.00078000  00000-0 -44787-2 0  9999 | 2 65949  51.8960  61.7183 0010440 349.1314 143.5481 15.12270068  5759 | 2025/12/04-14:00:01   89.2444  132.7505  143.6191   95.2211     6907.4159     6900.2045     6914.6272  24.588686  45.701109   0.000659   0.000810
1 65949U 25228C   25340.00003472  .00021461  00000-0  13082-2 0  9992 | 2 65949  51.8882  55.1257 0010688 355.8842 291.5817 15.10256205  4992 | 2025/12/06-00:00:02   92.4553  287.3520  291.4678   95.3481     6913.5550     6906.1658     6920.9442  29.668528  42.569517   0.000672   0.000831
1 65949U 25228C   25341.33336806 -.00038546  00000-0 -23949-2 0  9996 | 2 65949  51.8892  48.9402 0010198 359.6753 339.5457 15.09091269  5195 | 2025/12/07-08:00:03  168.1999  339.1801  339.5048   95.4217     6917.1125     6910.0584     6924.1665  34.083233  39.125725   0.000674   0.000765
1 65949U 25228C   25342.66670139 -.01237460  00000-0 -86764-1 0  9993 | 2 65949  51.8893  42.7685 0010066   8.0861  17.3103 15.07995934  5403 | 2025/12/08-16:00:03  249.5104   25.4308   17.3447   95.4910     6920.4616     6913.4954     6927.4277  38.092106  35.234797   0.000635   0.000781
1 65949U 25228C   25343.83335647 -.00116628  00000-0 -80731-2 0  9995 | 2 65949  51.8905  37.3780 0009736   8.3608 229.9756 15.05712593  5587 | 2025/12/09-20:00:01  103.1066  238.2510  229.8902   95.6358     6927.4562     6920.7116     6934.2007  41.234671  31.501205   0.000680   0.000697
1 65949U 25228C   25345.00003472 -.00509996  00000-0 -38039-1 0  9991 | 2 65949  51.9101  32.0020 0009731  13.3910  71.3206 15.04634532  5766 | 2025/12/11-00:00:02  323.2615   84.8173   71.4263   95.7043     6930.7648     6924.0204     6937.5091  44.021301  27.509699   0.000683   0.000693
1 65949U 25228C   25346.16668980 -.00914952  00000-0 -72407-1 0  9999 | 2 65949  51.8921  26.6406 0010025  20.9252 263.7974 15.03094759  5379 | 2025/12/12-04:00:01  189.7576  284.6084  263.6832   95.8023     6935.4972     6928.5444     6942.4500  46.383065  23.268032   0.000676   0.000740
1 65949U 25228C   25347.25002315 -.00775920  00000-0 -63689-1 0  9996 | 2 65949  51.9099  21.6709 0009985  21.9055   5.2499 15.01271305  5533 | 2025/12/13-06:00:02  123.3623   27.1659    5.2604   95.9187     6941.1120     6934.1813     6948.0427  48.240921  19.169019   0.000723   0.000688
1 65949U 25228C   25348.25003472 -.01555409  00000-0 -13564+0 0  9996 | 2 65949  51.8941  17.0978 0010035  32.3249 359.5466 14.99566444  5697 | 2025/12/14-06:00:02  124.2092   31.8706  359.5457   96.0278     6946.3719     6939.4012     6953.3426  49.600604  15.257054   0.000653   0.000762
1 65949U 25228C   25349.33335648 -.00035435  00000-0 -30435-2 0  9999 | 2 65949  51.8948  12.1589 0010194  39.2393  79.7094 14.96904489  5858 | 2025/12/15-08:00:01   73.1345  119.0637   79.8244   96.1985     6954.6047     6947.5151     6961.6942  50.730656  10.930270   0.000636   0.000797
1 65949U 25228C   25350.33337963 -.00033429  00000-0 -29508-2 0  9993 | 2 65949  51.8960   7.6135 0010875  42.1963  68.2678 14.95810199  5797 | 2025/12/16-08:00:04   87.1585  110.5799   68.3836   96.2689     6957.9961     6950.4293     6965.5629  51.438503   6.875698   0.000702   0.000831
1 65949U 25228C   25351.33339120 -.00026009  00000-0 -23751-2 0  9991 | 2 65949  51.8958   3.0752 0010116  47.4359  50.5161 14.94366003  5187 | 2025/12/17-08:00:04  105.1987   98.0415   50.6056   96.3619     6962.4783     6955.4351     6969.5216  51.821069   2.784033   0.000643   0.000781
1 65949U 25228C   25352.66667824 -.00050985  00000-0 -48835-2 0  9993 | 2 65949  51.8962 357.0400 0010752  50.3215  22.6995 14.92811475  5387 | 2025/12/18-16:00:00  257.4624   73.0686   22.7471   96.4623     6967.3110     6959.8198     6974.8023  51.826962  -2.679856   0.000728   0.000791
1 65949U 25228C   25353.66670139 -.00116754  00000-0 -11784-1 0  9996 | 2 65949  51.9167 352.5234 0010169  52.5141 356.6054 14.91223558  5546 | 2025/12/19-16:00:03  286.8745   49.1126  356.5985   96.5650     6972.2562     6965.1661     6979.3463  51.475309  -6.755467   0.000719   0.000720
1 65949U 25228C   25354.83335647  .00009710  00000-0  10214-2 0  9997 | 2 65949  51.8981 347.2670 0008471  64.4586 130.4250 14.89937617  5712 | 2025/12/20-20:00:01  207.5125  194.9574  130.4988   96.6483     6976.2674     6970.3578     6982.1770  50.621809 -11.438758   0.000525   0.000665
1 65949U 25228C   25356.16668980 -.00040506  00000-0 -43059-2 0  9997 | 2 65949  51.8985 341.2763 0009553  65.1538  83.8797 14.88555508  2369 | 2025/12/22-04:00:01   20.6675  149.1424   83.9886   96.7381     6980.5850     6973.9164     6987.2535  49.151906 -16.659666   0.000658   0.000692
1 65949U 25228C   25357.33336806  .00023775  00000-0  26468-2 0  9998 | 2 65949  51.9003 336.0445 0010446  60.0239 223.4936 14.86947736  2548 | 2025/12/23-08:00:03  312.5694  283.4352  223.4113   96.8427     6985.6159     6978.3188     6992.9131  47.429664 -21.072923   0.000844   0.000615
1 65949U 25228C   25358.83334491  .00028851  00000-0  33679-2 0  9994 | 2 65949  51.8987 329.3331 0011050  68.6745 326.0458 14.84895937  2761 | 2025/12/24-20:00:01   29.5481   34.6495  325.9750   96.9765     6992.0495     6984.3233     6999.7757  44.640515 -26.470729   0.000871   0.000680
1 65949U 25228C   25359.83335647  .00028260  00000-0  33660-2 0  9993 | 2 65949  51.8990 324.8724 0011260  73.1257 269.6903 14.84073721  2916 | 2025/12/25-20:00:01   86.9030  342.6870  269.5613   97.0302     6994.6318     6986.7558     7002.5078  42.446772 -29.862648   0.000887   0.000693
1 65949U 25228C   25361.00003472 -.00257452  00000-0 -31638-1 0  9994 | 2 65949  51.9002 319.6794 0010244  74.7468  24.9343 14.84125562  3093 | 2025/12/27-00:00:02   36.3850   99.7306   24.9838   97.0268     6994.4689     6987.3038     7001.6341  39.570567 -33.582748   0.000845   0.000579
1 65949U 25228C   25362.16668980 -.00020062  00000-0 -24006-2 0  9990 | 2 65949  51.8989 314.4899 0007896  80.6324 134.6973 14.83381996  3262 | 2025/12/28-04:00:01  347.0716  215.3940  134.7616   97.0755     6996.8061     6991.2814     7002.3308  36.369894 -37.023326   0.000646   0.000454
1 65949U 25228C   25363.33335648  .00028109  00000-0  34527-2 0  9999 | 2 65949  51.8985 309.3033 0006023  77.8376 250.9251 14.82828592  3445 | 2025/12/29-08:00:01  299.9751  328.6975  250.8599   97.1117     6998.5468     6994.3316     7002.7621  32.873830 -40.159253   0.000536   0.000275
1 65949U 25228C   25364.58335648 -.00019647  00000-0 -24137-2 0  9992 | 2 65949  51.8984 303.7495 0004354  89.3401  75.6508 14.82300599  3625 | 2025/12/30-14:00:01  200.5328  165.0392   75.6991   97.1463     7000.2087     6997.1608     7003.2565  28.832830 -43.152194   0.000365   0.000238
1 65949U 25228C   26001.00003472 -.00037331  00000-0 -46887-2 0  9991 | 2 65949  51.8987 297.4628 0001178  89.0611  79.4720 14.81730051  3847 | 2026/01/01-00:00:02  354.6778  168.5464   79.4853   97.1837     7002.0055     7001.1807     7002.8304  23.934259 -46.050258   0.000105   0.000053
1 65949U 25228C   26002.16668980  .00012675  00000-0  16396-2 0  9994 | 2 65949  51.8983 292.2928 0000786 103.9862 170.7676 14.81170817  4010 | 2026/01/02-04:00:01  314.7728  274.7552  170.7690   97.2204     7003.7679     7003.2174     7004.3184  19.687095 -48.019286   0.000063   0.000047
1 65949U 25228C   26003.33336806 -.00005638  00000-0 -69667-3 0  9996 | 2 65949  51.8983 287.1253 0000168  46.1116 332.9429 14.80785707  4194 | 2026/01/03-08:00:03  276.7937   19.0536  332.9420   97.2457     7004.9821     7004.8645     7005.0998  15.282095 -49.597289   0.000015  -0.000008
1 65949U 25228C   26004.50003471 -.00030724  00000-0 -39891-2 0  9994 | 2 65949  51.8979 281.9591 0002269 106.9895  14.2906 14.80248202  4362 | 2026/01/04-12:00:02  240.8843  121.2865   14.2970   97.2810     7006.6778     7005.0880     7008.2676  10.753940 -50.771496   0.000199   0.000110
1 65949U 25228C   26005.66668981  .00027032  00000-0  35597-2 0  9990 | 2 65949  51.8976 276.7976 0001036 110.0185 111.4131 14.79944496  4543 | 2026/01/05-16:00:01  207.0400  221.4427  111.4242   97.3009     7007.6363     7006.9103     7008.3623   6.142723 -51.532784   0.000092   0.000047
1 65949U 25228C   26007.00003472 -.00015304  00000-0 -19822-2 0  9992 | 2 65949  51.8970 270.9033 0001099 102.4217  27.1210 14.79949549  4744 | 2026/01/07-00:00:02   66.1416  129.5484   27.1267   97.3006     7007.6204     7006.8503     7008.3905   0.818151 -51.890551   0.000107   0.000025
1 65949U 25228C   26008.39386266  .00003508  00000-0  48862-3 0  9998 | 2 65949  51.8980 264.7379 0001034 107.3833 252.7242 14.79954928 14330 | 2026/01/08-09:27:09  344.8941    0.0962  252.7129   97.3003     7007.6034     7006.8788     7008.3280  -4.759665 -51.679280   0.000101   0.000022
1 65949U 25228C   26009.40679281  .00003573  00000-0  49711-3 0  9999 | 2 65949  51.8987 260.2584 0001038 109.3292 250.7783 14.79960034 14480 | 2026/01/09-09:45:46  355.0268    0.0963  250.7671   97.2999     7007.5873     7006.8599     7008.3147  -8.781520 -51.150366   0.000102   0.000017
1 65949U 25228C   26010.95994716  .00003094  00000-0  43441-3 0  9996 | 2 65949  51.8976 253.3893 0001067 110.4245 249.6832 14.79965354 14715 | 2026/01/10-23:02:19  202.5621    0.0962  249.6717   97.2996     7007.5705     7006.8228     7008.3182 -14.835828 -49.731872   0.000106   0.000007
1 65949U 25228C   26012.04041829 -.00001658  00000-0 -18839-3 0  9995 | 2 65949  51.8997 248.6131 0001266 112.0304 248.0793 14.79946073 14878 | 2026/01/12-00:58:12  237.3709    0.0962  248.0658   97.3008     7007.6314     7006.7442     7008.5185 -18.925947 -48.325846   0.000127   0.000001
1 65949U 25228C   26013.32348571  .00007381  00000-0  99625-3 0  9990 | 2 65949  51.8993 242.9378 0001194 117.2074 242.9010 14.79926609 15065 | 2026/01/13-07:45:49  346.2164    0.0962  242.8888   97.3021     7007.6928     7006.8561     7008.5295 -23.611976 -46.217009   0.000119   0.000000
1 65949U 25228C   26014.33641731  .00001622  00000-0  24168-3 0  9998 | 2 65949  51.8969 238.4578 0000942 114.0902 246.0159 14.79941155 15214 | 2026/01/14-08:04:26  356.3525    0.0962  246.0060   97.3012     7007.6469     7006.9868     7008.3070 -27.148639 -44.229398   0.000093  -0.000012
1 65949U 25228C   26015.75453256  .00001414  00000-0  21438-3 0  9994 | 2 65949  51.8966 232.1861 0000920 117.0250 243.0806 14.79943618 15427 | 2026/01/15-18:06:31  154.5440    0.0962  243.0712   97.3010     7007.6391     7006.9944     7008.2838 -31.817739 -40.998641   0.000090  -0.000017
1 65949U 25228C   26016.83500257  .00001193  00000-0  18537-3 0  9998 | 2 65949  51.8986 227.4064 0000929 122.1860 237.9193 14.79943463 15580 | 2026/01/16-20:02:24  189.3581    0.0963  237.9103   97.3010     7007.6396     7006.9886     7008.2906 -35.124648 -38.206332   0.000091  -0.000017
1 65949U 25228C   26017.84796281 -.00001126  00000-0 -11870-3 0  9995 | 2 65949  51.8975 222.9288 0000708 114.8282 245.2754 14.79929131 15735 | 2026/01/17-20:21:03  199.5015    0.0962  245.2680   97.3020     7007.6848     7007.1887     7008.1810 -37.999383 -35.346816   0.000066  -0.000027
1 65949U 25228C   26018.86091355  .00000152  00000-0  48898-4 0  9995 | 2 65949  51.8967 218.4495 0000882 114.3140 245.7915 14.79924882 15885 | 2026/01/18-20:39:42  209.6396    0.0963  245.7823   97.3022     7007.6983     7007.0802     7008.3163 -40.643240 -32.270645   0.000078  -0.000040
1 65949U 25228C   26020.88681359  .00005715  00000-0  77788-3 0  9998 | 2 65949  51.8965 209.4902 0000788 116.7311 243.3732 14.79938787 16181 | 2026/01/20-21:17:00  229.9209    0.0962  243.3651   97.3013     7007.6544     7007.1022     7008.2066 -45.172785 -25.547333   0.000065  -0.000044
1 65949U 25228C   26022.23740429 -.00000605  00000-0 -50342-4 0  9996 | 2 65949  51.8959 203.5173 0000232 146.2332 213.8645 14.79933546 16389 | 2026/01/22-05:41:51    3.4443    0.0962  213.8630   97.3017     7007.6709     7007.5083     7007.8335 -47.585408 -20.707811   0.000023  -0.000004
1 65949U 25228C   26023.45295280  .00001263  00000-0  19472-3 0  9998 | 2 65949  51.8964 198.1429 0000456 132.5159 227.5842 14.79923854 16563 | 2026/01/23-10:52:15   87.6119    0.0962  227.5803   97.3023     7007.7015     7007.3819     7008.0211 -49.316259 -16.159918   0.000040  -0.000022
1 65949U 25228C   26024.87108495  .00005613  00000-0  76468-3 0  9997 | 2 65949  51.8981 191.8707 0000610 115.0836 245.0190 14.79934736 16776 | 2026/01/24-20:54:21  245.8069    0.0963  245.0127   97.3016     7007.6671     7007.2397     7008.0946 -50.788223 -10.675635   0.000037  -0.000049
1 65949U 25228C   26026.15414743  .00003528  00000-0  49151-3 0  9998 | 2 65949  51.8977 186.1972 0000468  92.5520 267.5496 14.79939199 16969 | 2026/01/26-03:41:58  354.6486    0.0962  267.5442   97.3013     7007.6531     7007.3251     7007.9810 -51.594422  -5.602397   0.000007  -0.000046
1 65949U 25228C   26027.77491625  .00000930  00000-0  15117-3 0  9990 | 2 65949  51.8969 179.0299 0000263 174.8627 185.2338 14.79890358 17200 | 2026/01/27-18:35:52  226.8952    0.0962  185.2335   97.3045     7007.8072     7007.6229     7007.9915 -51.889461   0.878647   0.000026  -0.000003
1 65949U 25228C   26028.78790628  .00007869  00000-0  10613-2 0  9990 | 2 65949  51.8954 174.5509 0000263 167.3781 192.7188 14.79879060 17355 | 2026/01/28-18:54:35  237.0487    0.0962  192.7181   97.3052     7007.8429     7007.6586     7008.0272 -51.660882   4.928062   0.000025  -0.000008
1 65949U 25228C   26029.80088471  .00006245  00000-0  84826-3 0  9995 | 2 65949  51.8958 170.0713 0000154 135.0723 225.0252 14.79890571 17503 | 2026/01/29-19:13:16  247.1984    0.0963  225.0240   97.3045     7007.8066     7007.6986     7007.9145 -51.118561   8.948005   0.000009  -0.000013
1 65949U 25228C   26030.81385381  .00005591  00000-0  76236-3 0  9997 | 2 65949  51.8966 165.5915 0000085 115.1971 244.9000 14.79903071 17659 | 2026/01/30-19:31:56  257.3459    0.0962  244.8991   97.3037     7007.7671     7007.7075     7007.8267 -50.264258  12.913617   0.000002  -0.000008
1 65949U 25228C   26032.50212482  .00002477  00000-0  35400-3 0  9994 | 2 65949  51.8973 158.1263 0000089  65.1646 294.9326 14.79911595 17902 | 2026/02/01-12:03:03  154.2526    0.0963  294.9317   97.3031     7007.7402     7007.6778     7007.8026 -48.161077  19.334954  -0.000006  -0.000006
1 65949U 25228C   26033.51508269  .00003409  00000-0  47607-3 0  9995 | 2 65949  51.8979 153.6478 0000064  48.1960 311.9008 14.79918751 18054 | 2026/02/02-12:21:43  164.3947    0.0963  311.9003   97.3026     7007.7176     7007.6728     7007.7625 -46.504794  23.036843  -0.000006  -0.000002
1 65949U 25228C   26034.59556247  .00005836  00000-0  79382-3 0  9994 | 2 65949  51.8984 148.8701 0000102  19.2487 340.8479 14.79932905 18219 | 2026/02/03-14:17:36  199.2103    0.0962  340.8475   97.3017     7007.6729     7007.6015     7007.7444 -44.424896  26.830440  -0.000010   0.000002
1 65949U 25228C   26035.60850140  .00006911  00000-0  93429-3 0  9999 | 2 65949  51.8985 144.3898 0000213 353.4310   6.6650 14.79949089 18364 | 2026/02/04-14:36:14  209.3476    0.0963    6.6653   97.3006     7007.6218     7007.4726     7007.7711 -42.193331  30.218821  -0.000016   0.000014
1 65949U 25228C   26036.68895548  .00009964  00000-0  13328-2 0  9999 | 2 65949  51.8985 139.6124 0000267   4.7589 355.3376 14.79972484 18528 | 2026/02/05-16:32:05  244.1530    0.0963  355.3374   97.2991     7007.5480     7007.3609     7007.7351 -39.529975  33.627896  -0.000022   0.000016
1 65949U 25228C   26038.24208605  .00007477  00000-0  10073-2 0  9996 | 2 65949  51.8972 132.7431 0000303 358.4091   1.6871 14.79994176 18755 | 2026/02/07-05:48:36   91.6804    0.0963    1.6872   97.2977     7007.4795     7007.2672     7007.6918 -35.223268  38.113524  -0.000020   0.000023
1 65949U 25228C   26039.25498566  .00006252  00000-0  84694-3 0  9996 | 2 65949  51.8980 128.2639 0000406  13.6633 346.4341 14.80006141 18907 | 2026/02/08-06:07:10  101.8006    0.0963  346.4330   97.2969     7007.4418     7007.1572     7007.7263 -32.139624  40.748582  -0.000032   0.000025
1 65949U 25228C   26040.47047370 -.00017228  00000-0 -22355-2 0  9997 | 2 65949  51.8973 122.8867 0000762   4.4919 355.6050 14.79953855 19082 | 2026/02/09-11:17:28  185.9521    0.0962  355.6043   97.3003     7007.6068     7007.0728     7008.1408 -28.179172  43.580546  -0.000046   0.000061
1 65949U 25228C   26042.22631386 -.00003591  00000-0 -44297-3 0  9996 | 2 65949  51.8983 115.1238 0000498  56.7504 303.3506 14.79869937 19348 | 2026/02/11-05:25:53  107.5440    0.0962  303.3458   97.3058     7007.8717     7007.5227     7008.2207 -22.034749  46.988332  -0.000049   0.000007
1 65949U 25228C   26043.23931202  .00005116  00000-0  70059-3 0  9996 | 2 65949  51.8970 110.6443 0000560  68.3259 291.7763 14.79867128 19499 | 2026/02/12-05:44:36  117.7001    0.0962  291.7703   97.3060     7007.8806     7007.4881     7008.2730 -18.297081  48.564549  -0.000056   0.000001
1 65949U 25228C   26044.38736268  .00004670  00000-0  64195-3 0  9996 | 2 65949  51.8977 105.5681 0000567  68.6485 291.4538 14.79878621 19660 | 2026/02/13-09:17:48  177.2060    0.0963  291.4478   97.3053     7007.8443     7007.4470     7008.2416 -13.928488  49.993685  -0.000056   0.000006
1 65949U 25228C   26045.40034171  .00004520  00000-0  62220-3 0  9995 | 2 65949  51.8978 101.0892 0000596  66.9860 293.1165 14.79888245 19811 | 2026/02/14-09:36:29  187.3556    0.0962  293.1102   97.3046     7007.8139     7007.3962     7008.2316  -9.981867  50.928813  -0.000058   0.000012
1 65949U 25228C   26047.15615706  .00004584  00000-0  63031-3 0  9999 | 2 65949  51.8977  93.3251 0000634  61.2434 298.8592 14.79904520 20071 | 2026/02/16-03:44:51  108.9437    0.0962  298.8528   97.3036     7007.7625     7007.3182     7008.2068  -3.010138  51.810330  -0.000057   0.000027
1 65949U 25228C   26048.30417947  .00004206  00000-0  58065-3 0  9996 | 2 65949  51.8979  88.2481 0000589  59.1232 300.9788 14.79914403 20244 | 2026/02/17-07:18:01  168.4409    0.0962  300.9730   97.3029     7007.7313     7007.3186     7008.1441   1.586605  51.873642  -0.000050   0.000032
1 65949U 25228C   26049.38466424  .00003833  00000-0  53160-3 0  9995 | 2 65949  51.8977  83.4697 0000615  56.7925 303.3097 14.79923138 20403 | 2026/02/18-09:13:54  203.2586    0.0963  303.3038   97.3024     7007.7038     7007.2728     7008.1347   5.902254  51.560980  -0.000047   0.000039
1 65949U 25228C   26051.07291071  .00003238  00000-0  45358-3 0  9997 | 2 65949  51.8971  76.0033 0000723  51.8214 308.2813 14.79934765 20651 | 2026/02/20-01:44:59  100.1573    0.0962  308.2748   97.3016     7007.6671     7007.1604     7008.1737  12.552145  50.356257  -0.000044   0.000057
1 65949U 25228C   26052.08582773  .00009909  00000-0  13256-2 0  9993 | 2 65949  51.8960  71.5221 0000900  24.2241 335.8764 14.79973816 20807 | 2026/02/21-02:03:35  110.2892    0.0963  335.8722   97.2990     7007.5438     7006.9131     7008.1745  16.447858  49.220552  -0.000009   0.000090
1 65949U 25228C   26053.30131632  .00007197  00000-0  97074-3 0  9991 | 2 65949  51.8972  66.1478 0001031  42.4213 317.6829 14.79992344 20987 | 2026/02/22-07:13:53  194.4337    0.0962  317.6749   97.2978     7007.4853     7006.7628     7008.2078  20.986123  47.464745  -0.000033   0.000098
1 65949U 25228C   26054.31421219  .00004163  00000-0  57373-3 0  9994 | 2 65949  51.8984  61.6684 0001057  47.1741 312.9310 14.80005278 21139 | 2026/02/23-07:32:27  204.5531    0.0962  312.9221   97.2970     7007.4445     7006.7038     7008.1852  24.629618  45.681789  -0.000034   0.000100
1 65949U 25228C   26056.13746131 -.00006505  00000-0 -82442-3 0  9998 | 2 65949  51.8994  53.6049 0000873  69.9591 290.1465 14.79963522 21407 | 2026/02/25-03:17:56  150.7828    0.0962  290.1371   97.2997     7007.5763     7006.9645     7008.1880  30.794512  41.776139  -0.000048   0.000073
1 65949U 25228C   26057.15042375 -.00006652  00000-0 -84467-3 0  9992 | 2 65949  51.8979  49.1257 0001019  78.8057 281.3020 14.79919711 21556 | 2026/02/26-03:36:36  160.9248    0.0962  281.2905   97.3026     7007.7146     7007.0005     7008.4287  33.962075  39.242445  -0.000063   0.000080
1 65949U 25228C   26058.16338877  .00004148  00000-0  57302-3 0  9993 | 2 65949  51.8991  44.6457 0000959  74.3074 285.7994 14.79915828 21704 | 2026/02/27-03:55:16  171.0716    0.0962  285.7888   97.3028     7007.7268     7007.0548     7008.3989  36.924433  36.470575  -0.000046   0.000084
1 65949U 25228C   26059.24387198  .00004777  00000-0  65529-3 0  9991 | 2 65949  51.8982  39.8681 0000985  74.8418 285.2653 14.79926754 21869 | 2026/02/28-05:51:10  205.8878    0.0962  285.2544   97.3021     7007.6923     7007.0021     7008.3826  39.833019  33.267909  -0.000041   0.000089
1 65949U 25228C   26060.32434644  .00005731  00000-0  78005-3 0  9995 | 2 65949  51.8982  35.0898 0000999  76.9763 283.1310 14.79940012 22027 | 2026/03/01-07:47:03  240.7017    0.0962  283.1199   97.3012     7007.6505     7006.9504     7008.3506  42.465810  29.834178  -0.000038   0.000093
1 65949U 25228C   26061.60739800  .00006090  00000-0  82676-3 0  9997 | 2 65949  51.8990  29.4158 0001047  79.0895 281.0185 14.79955356 22212 | 2026/03/02-14:34:39  349.5382    0.0962  281.0067   97.3002     7007.6021     7006.8684     7008.3358  45.208098  25.489882  -0.000033   0.000099
1 65949U 25228C   26063.09304662  .00004881  00000-0  66848-3 0  9995 | 2 65949  51.8998  22.8452 0000950  82.5054 277.6016 14.79949549 22437 | 2026/03/04-02:13:59  172.4076    0.0962  277.5908   97.3006     7007.6204     7006.9547     7008.2861  47.828632  20.149719  -0.000025   0.000092
1 65949U 25228C   26064.17352294  .00001005  00000-0  16078-3 0  9994 | 2 65949  51.8965  18.0642 0000815  83.8815 276.2240 14.79936579 22598 | 2026/03/05-04:09:52  207.2265    0.0962  276.2147   97.3015     7007.6613     7007.0902     7008.2325  49.338504  16.092194  -0.000017   0.000080
1 65949U 25228C   26065.25400121 -.00000279  00000-0 -75303-5 0  9999 | 2 65949  51.9054  13.2925 0001166  68.8112 291.2975 14.79932164 22758 | 2026/03/06-06:05:45  242.0322    0.0963  291.2851   97.3018     7007.6753     7006.8582     7008.4924  50.514801  11.934211   0.000016   0.000115
1 65949U 25228C   26066.53707420  .00002930  00000-0  41319-3 0  9995 | 2 65949  51.9019   7.6176 0000855  88.0081 272.0979 14.79932701 22946 | 2026/03/07-12:53:23  350.8807    0.0962  272.0881   97.3017     7007.6736     7007.0744     7008.2727  51.443859   6.880161  -0.000008   0.000085
1 65949U 25228C   26067.55002395  .00001287  00000-0  19783-3 0  9991 | 2 65949  51.8983   3.1357 0000769  78.5165 281.5883 14.79929502 23099 | 2026/03/08-13:12:02    1.0241    0.0962  281.5797   97.3019     7007.6837     7007.1448     7008.2226  51.820597   2.838888   0.000011   0.000076
1 65949U 25228C   26069.17073845  .00006264  00000-0  84977-3 0  9996 | 2 65949  51.8992 355.9700 0000835  81.3098 278.7959 14.79941890 23333 | 2026/03/10-04:05:51  233.2436    0.0962  278.7864   97.3011     7007.6446     7007.0594     7008.2297  51.770873  -3.647413   0.000018   0.000081
1 65949U 25228C   26070.92652042  .00003777  00000-0  52416-3 0  9992 | 2 65949  51.9015 348.2065 0000852  89.6317 270.4742 14.79935301 23590 | 2026/03/11-22:14:11  154.8190    0.0961  270.4644   97.3016     7007.6654     7007.0683     7008.2624  50.805890 -10.607888   0.000018   0.000083
1 65949U 25228C   26072.14205463  .00003369  00000-0  47061-3 0  9996 | 2 65949  51.9019 342.8344 0000793  26.6737 333.4266 14.79940210 23771 | 2026/03/13-03:24:33  238.9871    0.0962  333.4225   97.3012     7007.6499     7007.0942     7008.2056  49.589968 -15.318039   0.000078   0.000013
1 65949U 25228C   26073.42514656 -.00001127  00000-0 -11887-3 0  9994 | 2 65949  51.8968 337.1568 0000605 121.3034 238.7988 14.79909078 23969 | 2026/03/14-10:12:12  347.8406    0.0963  238.7929   97.3033     7007.7481     7007.3242     7008.1721  47.826571 -20.146885  -0.000009   0.000060
1 65949U 25228C   26074.43811104  .00003481  00000-0  48567-3 0  9992 | 2 65949  51.8978 332.6767 0000747 101.4610 258.6436 14.79911406 24112 | 2026/03/15-10:30:52  357.9839    0.0962  258.6352   97.3031     7007.7408     7007.2173     7008.2643  46.107596 -23.821655   0.000020   0.000072
1 65949U 25228C   26075.85625038  .00003506  00000-0  48881-3 0  9995 | 2 65949  51.8996 326.4082 0000813  90.0617 270.0438 14.79922526 24325 | 2026/03/16-20:33:00  156.1795    0.0962  270.0345   97.3024     7007.7057     7007.1360     7008.2754  43.232389 -28.714613   0.000045   0.000068
1 65949U 25228C   26076.86920013  .00002766  00000-0  39168-3 0  9993 | 2 65949  51.8991 321.9290 0000814  90.9493 269.1562 14.79928533 24470 | 2026/03/17-20:51:38  166.3190    0.0962  269.1469   97.3020     7007.6867     7007.1163     7008.2572  40.857423 -32.002931   0.000049   0.000065
