# SPACE DATA - HISTORICAL TLEs
# ----------------------------
# NORAD_ID    : 65957
# OBJECT_NAME : KUIPER-00128
# --------------------------------------------------------------------+-----------------------------------------------------------------------+----------------------------------------------------------------------------------------------------------------------------------------
#                  LINE 1                                             |                 LINE 2                                                |      DERIVED PARAMETERS
# --------------------------------------------------------------------+-----------------------------------------------------------------------+----------------------------------------------------------------------------------------------------------------------------------------
# NORAD  COSPAR     TLE_EPOCH      MEANMOT1 MEANMOT2   BSTAR  #  REV  |   NORAD    INC     RAAN     ECC    ARGPER  MEANANOM   MEANMOT     REV |  CAL_DATE              LONG     ARGLAT     PERIOD        SMA         PERIGEE        APOGEE      INC_X      INC_Y      ECC_X      ECC_Y
# ------ ------   -------------- ----------  -------  ------- -- ----     -----  ------- -------- ------- -------- -------- -----------  ----   ------------------- ---------  --------  --------  ------------  ------------   ----------- ---------- ----------  ---------  ---------   
1 65959U 25228N   25295.58337963 -.00004792  00000-0 -13134-3 0  9999 | 2 65959  51.8786 267.0047 0005410 178.8610  25.3687 15.34194920  2234 | 2025/10/22-14:00:04  130.0375  204.2563   25.3953   93.8603     6841.4498     6837.7486     6845.1511  -2.710866 -51.807725   0.000039   0.000540
1 65959U 25228N   25296.66671295  .00035617  00000-0  10649-2 0  9993 | 2 65959  51.8794 261.7912 0005588 183.1876 248.2931 15.34222217  2402 | 2025/10/23-16:00:03  299.0678   71.4212  248.2336   93.8586     6841.3687     6837.5457     6845.1917  -7.407390 -51.347860   0.000049   0.000557
1 65959U 25228N   25297.75002315  .00086437  00000-0  25502-2 0  9995 | 2 65959  51.8798 256.5781 0005625 186.1690 112.5986 15.34234227  2565 | 2025/10/24-18:00:02  108.0534  298.8271  112.6581   93.8579     6841.3330     6837.4847     6845.1812 -12.042324 -50.462819   0.000071   0.000558
1 65959U 25228N   25298.86841059  .00038536  00000-0  11470-2 0  9990 | 2 65959  51.8800 251.1977 0005459 189.6413 170.4468 15.34328435  3062 | 2025/10/25-20:50:30   95.8351    0.0985  170.4572   93.8521     6841.0530     6837.3184     6844.7875 -16.721116 -49.111492   0.000087   0.000539
1 65959U 25228N   25299.91054063  .00032274  00000-0  96201-3 0  9997 | 2 65959  51.8801 246.1817 0005279 192.8275 167.2577 15.34368320  3222 | 2025/10/26-21:51:10  117.0480    0.0985  167.2710   93.8497     6840.9344     6837.3231     6844.5457 -20.951130 -47.461510   0.000101   0.000518
1 65959U 25228N   25301.53882388  .00041184  00000-0  12210-2 0  9995 | 2 65959  51.8790 238.3458 0005313 196.8139 163.2672 15.34422760  3473 | 2025/10/28-12:55:54  352.6749    0.0986  163.2847   93.8464     6840.7726     6837.1381     6844.4071 -27.225652 -44.161007   0.000136   0.000514
1 65959U 25228N   25302.97166234  .00037868  00000-0  11222-2 0  9995 | 2 65959  51.8783 231.4492 0005311 201.9216 158.1543 15.34473611  3694 | 2025/10/29-23:19:11  156.8108    0.0985  158.1769   93.8433     6840.6215     6836.9884     6844.2545 -32.330986 -40.571731   0.000152   0.000509
1 65959U 25228N   25304.27419675  .00033344  00000-0  98850-3 0  9998 | 2 65959  51.8781 225.1792 0005449 205.2294 154.8426 15.34523663  3898 | 2025/10/31-06:34:50  273.2809    0.0985  154.8691   93.8402     6840.4727     6836.7453     6844.2001 -36.568445 -36.797909   0.000183   0.000513
1 65959U 25228N   25305.57668618  .00038798  00000-0  11455-2 0  9998 | 2 65959  51.8788 218.9091 0005343 213.0359 147.0293 15.34580442  4096 | 2025/11/01-13:50:25   29.7378    0.0985  147.0626   93.8367     6840.3040     6836.6492     6843.9588 -40.369146 -32.584382   0.000166   0.000508
1 65959U 25228N   25307.79083719  .00037384  00000-0  11019-2 0  9993 | 2 65959  51.8800 208.2489 0005155 221.4002 138.6593 15.34651759  4430 | 2025/11/03-18:58:48  119.6804    0.0985  138.6983   93.8324     6840.0921     6836.5660     6843.6181 -45.701083 -24.554947   0.000179   0.000483
1 65959U 25228N   25308.83274983  .00027262  00000-0  80673-3 0  9991 | 2 65959  51.8796 203.2313 0005261 223.4926 136.5645 15.34686806  4593 | 2025/11/04-19:59:09  140.8160    0.0985  136.6059   93.8302     6839.9879     6836.3894     6843.5864 -47.673202 -20.463595   0.000208   0.000483
1 65959U 25228N   25309.93976181  .00017716  00000-0  52846-3 0  9996 | 2 65959  51.8791 197.9013 0005081 228.3857 131.6694 15.34707722  4761 | 2025/11/05-22:33:15  185.7634    0.0986  131.7129   93.8289     6839.9258     6836.4504     6843.4011 -49.367499 -15.946505   0.000204   0.000465
1 65959U 25228N   25311.11185566  .00015341  00000-0  45860-3 0  9998 | 2 65959  51.8781 192.2574 0005039 232.1168 127.9362 15.34754424  4942 | 2025/11/07-02:41:04  254.5184    0.0985  127.9817   93.8261     6839.7870     6836.3405     6843.2336 -50.695471 -11.013922   0.000218   0.000454
1 65959U 25228N   25312.28394574  .00040647  00000-0  11930-2 0  9995 | 2 65959  51.8770 186.6147 0005024 237.7178 122.3322 15.34747484  5123 | 2025/11/08-06:48:52  323.2718    0.0986  122.3808   93.8265     6839.8076     6836.3713     6843.2440 -51.531667  -5.975816   0.000218   0.000453
1 65959U 25228N   25314.62809551 -.00503989  00000-0 -15796-1 0  9999 | 2 65959  51.8773 175.3228 0003835 282.3862  77.6694 15.34612251  5481 | 2025/11/10-15:04:27  100.7626    0.0985   77.7123   93.8348     6840.2095     6837.5862     6842.8327 -51.704544   4.230174  -0.000051   0.000380
1 65959U 25228N   25315.99548311  .00045092  00000-0  13170-2 0  9993 | 2 65959  51.8817 168.7372 0006056 251.8766 108.1561 15.34847388  5695 | 2025/11/11-23:53:29  240.9784    0.0986  108.2220   93.8204     6839.5108     6835.3688     6843.6528 -50.882545  10.132985   0.000297   0.000528
1 65959U 25228N   25317.62322487  .00065632  00000-0  18999-2 0  9995 | 2 65959  51.8788 160.8987 0005225 259.4350 100.6047 15.34964795  5943 | 2025/11/13-14:57:26  116.4013    0.0985  100.6635   93.8132     6839.1621     6835.5886     6842.7355 -49.022430  16.976784   0.000259   0.000454
1 65959U 25228N   25318.86024132  .00057467  00000-0  16645-2 0  9991 | 2 65959  51.8785 154.9403 0005312 266.4730  93.5648 15.35005884  6139 | 2025/11/14-20:38:44  208.9068    0.0986   93.6256   93.8107     6839.0400     6835.4071     6842.6729 -46.995018  21.973780   0.000254   0.000466
1 65959U 25228N   25320.22747753  .00020232  00000-0  59702-3 0  9997 | 2 65959  51.8778 148.3525 0004597 271.1942  88.8517 15.34958224  6344 | 2025/11/16-05:27:34  349.0391    0.0986   88.9044   93.8136     6839.1816     6836.0376     6842.3256 -44.163169  27.219858   0.000233   0.000396
1 65959U 25228N   25321.52966330  .00040365  00000-0  11780-2 0  9997 | 2 65959  51.8743 142.0808 0004830 277.4158  82.6279 15.34930447  6545 | 2025/11/17-12:42:42  105.3834    0.0986   82.6828   93.8153     6839.2641     6835.9607     6842.5675 -40.922504  31.879330   0.000245   0.000416
1 65959U 25228N   25322.76673321  .00034917  00000-0  10212-2 0  9994 | 2 65959  51.8769 136.1227 0000280 111.8179 248.2836 15.34937516  6735 | 2025/11/18-18:24:05  197.8482    0.0985  248.2806   93.8149     6839.2431     6839.0516     6839.4346 -37.394207  35.956725  -0.000011  -0.000026
1 65959U 25228N   25323.87361293  .00034855  00000-0  10204-2 0  9991 | 2 65959  51.8778 130.7897 0005490 284.8037  75.2340 15.34896877  6901 | 2025/11/19-20:58:00  242.8127    0.0985   75.2948   93.8174     6839.3638     6835.6090     6843.1186 -33.890963  39.277331   0.000310   0.000453
1 65959U 25228N   25325.43623780  .00015726  00000-0  46725-3 0  9991 | 2 65959  51.8767 123.2615 0005157 292.8834  67.1607 15.34925725  7146 | 2025/11/21-10:28:10   94.4196    0.0986   67.2152   93.8156     6839.2781     6835.7511     6842.8051 -28.452350  43.378056   0.000287   0.000428
1 65959U 25228N   25326.47795455  .00063138  00000-0  18266-2 0  9993 | 2 65959  51.8772 118.2414 0004943 296.1010  63.9466 15.35001762  7300 | 2025/11/22-11:28:15  115.4810    0.0985   63.9975   93.8110     6839.0523     6835.6717     6842.4328 -24.547640  45.701830   0.000288   0.000402
1 65959U 25228N   25327.64986185  .00033426  00000-0  97598-3 0  9998 | 2 65959  51.8771 112.5991 0005559 303.3346  56.7107 15.35001028  7489 | 2025/11/23-15:35:48  184.1673    0.0986   56.7640   93.8110     6839.0544     6835.2526     6842.8563 -19.935375  47.893782   0.000311   0.000461
1 65959U 25228N   25328.69153449  .00038624  00000-0  11240-2 0  9997 | 2 65959  51.8772 107.5809 0005302 308.4250  51.6259 15.35036750  7648 | 2025/11/24-16:35:48  205.2088    0.0986   51.6736   93.8088     6838.9483     6835.3223     6842.5743 -15.669618  49.454089   0.000296   0.000440
1 65959U 25228N   25330.38419713  .00036775  00000-0  10683-2 0  9990 | 2 65959  51.8771  99.4256 0006147 311.8886  48.1575 15.35111058  7909 | 2025/11/26-09:13:14  104.3958    0.0986   48.2100   93.8043     6838.7276     6834.5239     6842.9314  -8.495744  51.176712   0.000384   0.000480
1 65959U 25228N   25331.62109544  .00021965  00000-0  64310-3 0  9998 | 2 65959  51.8780  93.4662 0005619 318.3054  41.7503 15.35147601  8090 | 2025/11/27-14:54:22  196.8481    0.0986   41.7932   93.8021     6838.6191     6834.7765     6842.4617  -3.136529  51.783096   0.000348   0.000441
1 65959U 25228N   25333.05324365  .00041604  00000-0  12025-2 0  9994 | 2 65959  51.8785  86.5644 0005614 327.2291  32.8346 15.35216360  8315 | 2025/11/29-01:16:40    0.7269    0.0986   32.8695   93.7979     6838.4149     6834.5758     6842.2540   3.108902  51.785263   0.000332   0.000453
1 65959U 25228N   25334.48533572  .00035730  00000-0  10332-2 0  9996 | 2 65959  51.8790  79.6630 0005918 329.8320  30.2325 15.35270314  8539 | 2025/11/30-11:38:53  164.5922    0.0987   30.2667   93.7946     6838.2547     6834.2078     6842.3016   9.309040  51.036971   0.000384   0.000450
1 65959U 25228N   25335.59200036 -.00132210  00000-0 -39079-2 0  9997 | 2 65959  51.8798  74.3312 0006814 338.2151  21.8544 15.34840432  8709 | 2025/12/01-14:12:28  209.4090    0.0986   21.8835   93.8208     6839.5315     6834.8710     6844.1920  14.011498  49.951893   0.000414   0.000541
1 65959U 25228N   25336.83336806 -.01147181  00000-0 -37617-1 0  9999 | 2 65959  51.8783  68.3617 0005700 330.2595  50.3648 15.34013713  4815 | 2025/12/02-20:00:03  282.9397   20.6746   50.4151   93.8714     6841.9886     6838.0887     6845.8885  19.129915  48.222447   0.000445   0.000356
1 65959U 25228N   25337.91670139 -.00278527  00000-0 -90007-2 0  9990 | 2 65959  51.8791  63.1591 0005880 341.0836 262.5050 15.32688640  4971 | 2025/12/03-22:00:03   96.2457  243.5218  262.4382   93.9525     6845.9315     6841.9061     6849.9569  23.424171  46.289840   0.000421   0.000410
1 65959U 25228N   25339.16668980 -.00540753  00000-0 -18743-1 0  9999 | 2 65959  51.8793  57.1656 0005787 353.3883 308.9118 15.31574778  5169 | 2025/12/05-04:00:01  134.7556  302.2485  308.8602   94.0209     6849.2503     6845.2866     6853.2140  28.129620  43.591126   0.000368   0.000447
1 65959U 25228N   25340.33335648  .00010975  00000-0  37720-3 0  9996 | 2 65959  51.8799  51.5821 0006241   1.4647 255.0811 15.30588069  5341 | 2025/12/06-08:00:01  247.2433  256.4767  255.0120   94.0815     6852.1936     6847.9172     6856.4701  32.237785  40.647869   0.000375   0.000499
1 65959U 25228N   25341.33336806 -.00099520  00000-0 -33546-2 0  9990 | 2 65959  51.8802  46.7969 0005892  10.1295   0.1865 15.30514538  5508 | 2025/12/07-08:00:03  139.2482   10.3162    0.1867   94.0860     6852.4131     6848.3756     6856.4505  35.516487  37.817117   0.000322   0.000494
1 65959U 25228N   25342.66670139  .00058895  00000-0  19925-2 0  9990 | 2 65959  51.8806  40.4203 0006672  11.9556 148.3901 15.30030180  5704 | 2025/12/08-16:00:03  116.9093  160.3857  148.4301   94.1158     6853.8592     6849.2863     6858.4321  39.497148  33.638845   0.000407   0.000528
1 65959U 25228N   25344.13987286  .00047884  00000-0  16203-2 0  9990 | 2 65959  51.8828  33.3753 0006585  15.1359 344.9821 15.30117235 10011 | 2025/12/10-03:21:25   95.9757    0.0984  344.9625   94.1104     6853.5992     6849.0861     6858.1123  43.326553  28.541807   0.000436   0.000493
1 65959U 25228N   25345.38084533  .00046904  00000-0  15865-2 0  9996 | 2 65959  51.8833  27.4411 0007285  19.8203 340.3063 15.30136725 10203 | 2025/12/11-09:08:25  189.8746    0.0984  340.2781   94.1092     6853.5410     6848.5482     6858.5338  46.045653  23.909720   0.000494   0.000535
1 65959U 25228N   25346.88317156 -.00314582  00000-0 -11261-1 0  9999 | 2 65959  51.8815  20.2588 0007301  26.6871 333.4487 15.29557264 10436 | 2025/12/12-21:11:46   19.3659    0.0984  333.4113   94.1449     6855.2718     6850.2668     6860.2769  48.672015  17.964548   0.000498   0.000533
1 65959U 25228N   25347.91667824 -.01242011  00000-0 -49819-1 0  9992 | 2 65959  51.8823  15.3375 0007094  36.4688 253.0506 15.27314769  3258 | 2025/12/13-22:00:00  107.9847  289.4417  252.9729   94.2831     6861.9804     6857.1125     6866.8483  50.034486  13.723091   0.000439   0.000558
1 65959U 25228N   25348.91668981 -.02013491  00000-0 -84979-1 0  9993 | 2 65959  51.8831  10.5853 0006874  33.1366 354.8784 15.26146448  3408 | 2025/12/14-22:00:01   15.2311   28.0080  354.8714   94.3553     6865.4820     6860.7627     6870.2014  51.000180   9.530882   0.000497   0.000475
1 65959U 25228N   25350.33337963 -.00008730  00000-0 -35592-3 0  9992 | 2 65959  51.8841   3.8821 0007259  37.0193 208.9409 15.22654355  3622 | 2025/12/16-08:00:04  315.3938  245.9200  208.9007   94.5717     6875.9750     6870.9837     6880.9663  51.765051   3.512740   0.000549   0.000475
1 65959U 25228N   25351.33339120 -.00967788  00000-0 -44643-1 0  9992 | 2 65959  51.8842 359.1570 0007079  42.6858 288.3780 15.22441360  3771 | 2025/12/17-08:00:04  236.0051  330.9868  288.3010   94.5849     6876.6163     6871.7483     6881.4843  51.878584  -0.763351   0.000527   0.000472
1 65959U 25228N   25352.66667824 -.00025136  00000-0 -10753-2 0  9992 | 2 65959  51.8821 352.8602 0007292  47.6670  33.2646 15.21976099  3980 | 2025/12/18-16:00:00  253.7316   80.9775   33.3105   94.6138     6878.0177     6873.0022     6883.0331  51.479798  -6.448466   0.000554   0.000474
1 65959U 25228N   25353.66670139 -.00025629  00000-0 -10960-2 0  9993 | 2 65959  51.8816 348.1375 0007305  51.3383 112.2887 15.22001764  4139 | 2025/12/19-16:00:03  176.7529  163.7044  112.3661   94.6122     6877.9403     6872.9160     6882.9647  50.773603 -10.664974   0.000564   0.000464
1 65959U 25228N   25355.34454465  .00015894  00000-0  70995-3 0  9998 | 2 65959  51.8833 340.2198 0016333  46.8847 313.3496 15.21389384 11728 | 2025/12/21-08:16:08  233.7406    0.0980  313.2133   94.6503     6879.7859     6868.5491     6891.0226  48.822070 -17.557970   0.001454   0.000744
1 65959U 25228N   25356.58335648 -.01989704  00000-0 -10743+0 0  9990 | 2 65959  51.8827 334.4073 0005806  68.7935 229.3560 15.17829231  4581 | 2025/12/22-14:00:01   28.8312  298.0990  229.3055   94.8723     6890.5396     6886.5390     6894.5402  46.792362 -22.411814   0.000423   0.000397
1 65959U 25228N   25357.83334491 -.00471875  00000-0 -27234-1 0  9993 | 2 65959  51.8841 328.5636 0006777  73.1698 210.7977 15.14146784  4779 | 2025/12/23-20:00:01  140.0848  283.9278  210.7580   95.1031     6901.7071     6897.0298     6906.3844  44.268532 -27.060245   0.000506   0.000451
1 65959U 25228N   25359.00003472 -.01080090  00000-0 -66606-1 0  9998 | 2 65959  51.8919 323.1315 0006703  78.1912  86.1564 15.12248190  4952 | 2025/12/25-00:00:02  326.2951  164.4242   86.2330   95.2225     6907.4825     6902.8524     6912.1126  41.514279 -31.134127   0.000503   0.000443
1 65959U 25228N   25360.16668980 -.02013249  00000-0 -13624+0 0  9991 | 2 65959  51.8862 317.7222 0005771  85.2593 308.5388 15.09915423  5135 | 2025/12/26-04:00:01  163.3996   33.7464  308.4871   95.3696     6914.5952     6910.6048     6918.5856  38.390174 -34.905190   0.000422   0.000393
1 65959U 25228N   25361.33335648 -.01043688  00000-0 -74807-1 0  9994 | 2 65959  51.8990 312.3372 0005855  90.0757 161.6723 15.06720918  5314 | 2025/12/27-08:00:01   11.9846  251.7691  161.6934   95.5718     6924.3652     6920.3109     6928.4194  34.953592 -38.363428   0.000432   0.000395
1 65959U 25228N   25362.50002315 -.00820532  00000-0 -61754-1 0  9993 | 2 65959  51.9026 306.9687 0005745  93.4543   5.6574 15.04708177  5492 | 2025/12/28-12:00:02  231.1394   99.1182    5.6639   95.6996     6930.5386     6926.5570     6934.5202  31.213115 -41.468317   0.000437   0.000373
1 65959U 25228N   25363.58336806 -.00979513  00000-0 -76864-1 0  9999 | 2 65959  51.8878 301.9970 0006028  96.8457 111.1172 15.03187436  5666 | 2025/12/29-14:00:03  158.3318  208.0273  111.1816   95.7964     6935.2121     6931.0316     6939.3927  27.494041 -44.004790   0.000470   0.000378
1 65959U 25228N   25364.83336806 -.01031492  00000-0 -84109-1 0  9995 | 2 65959  51.9106 296.2733 0006339 104.8688  27.5330 15.01889816  5851 | 2025/12/30-20:00:03  330.8487  132.4354   27.5666   95.8792     6939.2062     6934.8074     6943.6050  22.978402 -46.547862   0.000477   0.000417
1 65959U 25228N   26001.00003472 -.00017101  00000-0 -13835-2 0  9992 | 2 65959  51.8906 290.9496 0006440 104.4471 214.4693 14.98825013  5239 | 2026/01/01-00:00:02  210.8077  318.8747  214.4276   96.0753     6948.6625     6944.1876     6953.1375  18.553307 -48.460388   0.000525   0.000373
1 65959U 25228N   26002.16668980  .00041214  00000-0  35182-2 0  9990 | 2 65959  51.8922 285.6414 0006394 112.0761  24.5221 14.97276881  5412 | 2026/01/02-04:00:01   99.5798  136.6286   24.5525   96.1746     6953.4515     6949.0054     6957.8975  13.990952 -49.970528   0.000506   0.000391
1 65959U 25228N   26003.33336806 -.00165512  00000-0 -14986-1 0  9997 | 2 65959  51.9121 280.3457 0006416 114.8126 192.5592 14.95825954  5598 | 2026/01/03-08:00:03  355.2560  307.3558  192.5432   96.2679     6957.9472     6953.4830     6962.4115   9.322734 -51.068119   0.000525   0.000369
1 65959U 25228N   26004.50003471 -.00958592  00000-0 -94327-1 0  9991 | 2 65959  51.8931 275.0631 0006254 125.6838 345.0409 14.94475734  5779 | 2026/01/04-12:00:02  258.3357  110.7062  345.0224   96.3549     6962.1375     6957.7834     6966.4916   4.579711 -51.690619   0.000474   0.000408
1 65959U 25228N   26005.66668981 -.01658889  00000-0 -17236+0 0  9991 | 2 65959  51.8942 269.7974 0005547 128.8563 138.2812 14.93062183  4302 | 2026/01/05-16:00:01  168.3343  267.1798  138.3235   96.4461     6966.5311     6962.6667     6970.3954  -0.183499 -51.893876   0.000433   0.000346
1 65959U 25228N   26007.00003472 -.00020127  00000-0 -20421-2 0  9999 | 2 65959  51.8951 263.7946 0005882 128.3610 103.4927 14.90085831  4500 | 2026/01/07-00:00:02  330.9393  231.9192  103.5582   96.6387     6975.8048     6971.7016     6979.9079  -5.609500 -51.591035   0.000498   0.000313
1 65959U 25228N   26008.16668980  .00015742  00000-0  16892-2 0  9990 | 2 65959  51.8965 258.5577 0007605 119.9410 252.8608 14.88718731  4689 | 2026/01/08-04:00:01  256.3738   12.7185  252.7775   96.7275     6980.0747     6974.7664     6985.3831 -10.295279 -50.865056   0.000721   0.000241
1 65959U 25228N   26009.33336806 -.00045974  00000-0 -50873-2 0  9998 | 2 65959  51.8974 253.3315 0006667 146.9074   0.8756 14.87013065  4867 | 2026/01/09-08:00:03  187.7729  147.7842    0.8768   96.8384     6985.4113     6980.7542     6990.0685 -14.885933 -49.716689   0.000509   0.000431
1 65959U 25228N   26011.00002315 -.00007343  00000-0 -83224-3 0  9995 | 2 65959  51.9004 245.8946 0007050 130.8626 299.9101 14.84698618  5114 | 2026/01/11-00:00:02  153.8587   70.7026  299.8400   96.9894     6992.6690     6987.7392     6997.5988 -21.196979 -47.374461   0.000675   0.000203
1 65959U 25228N   26012.00003472  .00018600  00000-0  22376-2 0  9997 | 2 65959  51.9024 241.4414 0006299 141.1377 236.9170 14.83922599  5260 | 2026/01/12-00:00:02  212.0197   17.9942  236.8565   97.0401     6995.1067     6990.7005     6999.5129 -24.812323 -45.587364   0.000582   0.000242
1 65959U 25228N   26013.16672453  .00003163  00000-0  40411-3 0  9995 | 2 65959  51.9018 236.2490 0006328 144.9717 349.4814 14.83930815  5446 | 2026/01/13-04:00:04  161.9720  134.4399  349.4682   97.0396     6995.0809     6990.6544     6999.5073 -28.835848 -43.154266   0.000590   0.000229
1 65959U 25228N   26014.25002315 -.00069289  00000-0 -84041-2 0  9999 | 2 65959  51.9016 231.4299 0005245 139.6950  24.5950 14.83473926  5611 | 2026/01/14-06:00:02  168.0094  164.3150   24.6200   97.0695     6996.5170     6992.8474     7000.1867 -32.359177 -40.579055   0.000515   0.000101
1 65959U 25228N   26015.50002314  .00012081  00000-0  15001-2 0  9993 | 2 65959  51.9006 225.8738 0003001 153.7694 208.9914 14.82923044  5804 | 2026/01/15-12:00:01   66.3268    2.7441  208.9747   97.1055     6998.2497     6996.1495     7000.3498 -36.135331 -37.254666   0.000283   0.000101
1 65959U 25228N   26016.58336806 -.00018277  00000-0 -22360-2 0  9999 | 2 65959  51.9005 221.0625 0001262  83.4653 305.5956 14.82439351  5350 | 2026/01/16-14:00:03   75.9100   29.0491  305.5838   97.1372     6999.7718     6998.8885     7000.6552 -39.132639 -34.092499   0.000072  -0.000104
1 65959U 25228N   26017.91670139 -.00002769  00000-0 -31935-3 0  9995 | 2 65959  51.8998 215.1478 0000954   4.6256 303.1406 14.81790527  5551 | 2026/01/17-22:00:03  284.4336  307.7570  303.1314   97.1797     7001.8150     7001.1470     7002.4830 -42.436895 -29.878072  -0.000073  -0.000061
1 65959U 25228N   26019.25002315 -.00037566  00000-0 -47755-2 0  9998 | 2 65959  51.9002 209.2338 0001135 124.9657  98.4522 14.81230377  5757 | 2026/01/19-06:00:02  136.0059  223.4308   98.4651   97.2165     7003.5801     7002.7852     7004.3750 -45.289886 -25.346736   0.000102  -0.000049
1 65959U 25228N   26020.91668981  .00027268  00000-0  35529-2 0  9992 | 2 65959  51.9004 201.8552 0000884  72.5146  41.7560 14.80386790  5355 | 2026/01/20-22:00:01  134.1745  114.2773   41.7627   97.2719     7006.2405     7005.6211     7006.8598 -48.170194 -19.320556   0.000007  -0.000088
1 65959U 25228N   26022.25003472 -.00006998  00000-0 -88782-3 0  9998 | 2 65959  51.9007 195.9546 0000816 105.4276 278.3130 14.80030006  5558 | 2026/01/22-06:00:02  351.9235   23.7313  278.3037   97.2953     7007.3664     7006.7946     7007.9382 -49.901475 -14.266235   0.000042  -0.000070
1 65959U 25228N   26023.58335648 -.00028531  00000-0 -37236-2 0  9992 | 2 65959  51.9012 190.0588 0000679  76.4066 215.5634 14.79998631  5767 | 2026/01/23-14:00:01  210.8999  291.9655  215.5589   97.2974     7007.4655     7006.9896     7007.9413 -51.103428  -9.064999  -0.000004  -0.000068
1 65959U 25228N   26024.81164060  .00001625  00000-0  24184-3 0  9999 | 2 65959  51.9034 184.6270 0000426  58.0155 302.0848 14.79977743  7169 | 2026/01/24-19:28:45  231.5944    0.0962  302.0807   97.2988     7007.5314     7007.2329     7007.8299 -51.734246  -4.186977  -0.000020  -0.000038
1 65959U 25228N   26026.77000074  .00001222  00000-0  18921-3 0  9995 | 2 65959  51.8990 175.9671 0000701  72.0625 288.0413 14.79945346  7458 | 2026/01/26-18:28:48  227.1907    0.0962  288.0337   97.3009     7007.6337     7007.1424     7008.1249 -51.770489   3.650019  -0.000026  -0.000065
1 65959U 25228N   26028.79587598 -.00002446  00000-0 -29192-3 0  9993 | 2 65959  51.9015 167.0096 0000704  67.6450 292.4587 14.79943267  7753 | 2026/01/28-19:06:03  247.4602    0.0962  292.4512   97.3010     7007.6402     7007.1469     7008.1336 -50.573223  11.666824  -0.000041  -0.000057
1 65959U 25228N   26029.80885737 -.00006621  00000-0 -84131-3 0  9995 | 2 65959  51.9052 162.5304 0000359  39.5574 320.5414 14.79887705  7900 | 2026/01/29-19:24:45  257.6160    0.0962  320.5388   97.3047     7007.8156     7007.5640     7008.0672 -49.511144  15.581927  -0.000033  -0.000013
1 65959U 25228N   26031.49717111  .00004437  00000-0  61143-3 0  9992 | 2 65959  51.9013 155.0660 0000441  60.2037 299.8969 14.79881530  8157 | 2026/01/31-11:55:55  154.5356    0.0962  299.8925   97.3051     7007.8351     7007.5261     7008.1442 -47.063788  21.880238  -0.000036  -0.000025
1 65959U 25228N   26032.51014727  .00004292  00000-0  59226-3 0  9997 | 2 65959  51.9020 150.5877 0000472  46.4536 313.6466 14.79891988  8301 | 2026/02/01-12:14:36  164.6842    0.0963  313.6427   97.3044     7007.8021     7007.4713     7008.1329 -45.212268  25.488593  -0.000045  -0.000014
1 65959U 25228N   26033.52309773  .00010174  00000-0  13616-2 0  9995 | 2 65959  51.9039 146.1103 0000610  31.6074 328.4924 14.79930711  8458 | 2026/02/02-12:33:15  174.8226    0.0961  328.4887   97.3019     7007.6799     7007.2524     7008.1073 -43.086078  28.941401  -0.000061   0.000002
1 65959U 25228N   26034.53603449  .00006349  00000-0  86068-3 0  9995 | 2 65959  51.9039 141.6318 0000713  29.9037 330.1966 14.79950438  8600 | 2026/02/03-12:51:53  184.9562    0.0962  330.1925   97.3006     7007.6176     7007.1179     7008.1172 -40.694634  32.217411  -0.000071   0.000010
1 65959U 25228N   26036.29176933  .00007564  00000-0  10190-2 0  9995 | 2 65959  51.9024 133.8659 0000681  42.4166 317.6849 14.79977129  8866 | 2026/02/05-07:00:08  106.5160    0.0962  317.6796   97.2988     7007.5333     7007.0561     7008.0105 -35.966955  37.419745  -0.000068   0.000004
1 65959U 25228N   26038.25005457  .00006362  00000-0  86134-3 0  9992 | 2 65959  51.9019 125.2060 0000788  35.7327 324.3688 14.80002666  9159 | 2026/02/07-06:00:04  102.0887    0.0962  324.3635   97.2971     7007.4527     7006.9005     7008.0049 -29.922374  42.408240  -0.000074   0.000026
1 65959U 25228N   26039.26295060  .00004831  00000-0  66099-3 0  9992 | 2 65959  51.9023 120.7272 0000850  39.4801 320.6224 14.80010434  9301 | 2026/02/08-06:18:38  112.2075    0.0963  320.6162   97.2966     7007.4282     7006.8326     7008.0238 -26.519535  44.615726  -0.000080   0.000029
1 65959U 25228N   26040.41089319  .00004071  00000-0  56151-3 0  9993 | 2 65959  51.9027 115.6507 0000932  33.9260 326.1762 14.80018507  9473 | 2026/02/09-09:51:41  171.6751    0.0963  326.1703   97.2961     7007.4027     7006.7496     7008.0558 -22.467827  46.787680  -0.000080   0.000047
1 65959U 25228N   26041.49130366  .00003826  00000-0  52948-3 0  9998 | 2 65959  51.9029 110.8726 0000960  34.6474 325.4551 14.80025912  9635 | 2026/02/10-11:47:28  206.4655    0.0963  325.4489   97.2956     7007.3793     7006.7066     7008.0521 -18.492547  48.496770  -0.000079   0.000054
1 65959U 25228N   26044.66534251  .00004106  00000-0  56883-3 0  9995 | 2 65959  51.9020  96.8390 0001034  83.4151 276.6929 14.79820667 10101 | 2026/02/13-15:58:05  286.2761    0.0962  276.6811   97.3091     7008.0273     7007.3026     7008.7519  -6.180481  51.532701  -0.000103  -0.000000
1 65959U 25228N   26046.15110131  .00003587  00000-0  50047-3 0  9996 | 2 65959  51.9018  90.2703 0001053  84.6755 275.4327 14.79832654 10320 | 2026/02/15-03:37:35  109.1822    0.0962  275.4207   97.3083     7007.9894     7007.2515     7008.7274  -0.244852  51.901222  -0.000105   0.000009
1 65959U 25228N   26047.29917850  .00004414  00000-0  60885-3 0  9996 | 2 65959  51.9016  85.1945 0001072  82.7820 277.3264 14.79844789 10493 | 2026/02/16-07:10:49  168.6972    0.0962  277.3142   97.3075     7007.9511     7007.1999     7008.7024   4.347979  51.719157  -0.000105   0.000022
1 65959U 25228N   26048.37971455  .00004358  00000-0  60138-3 0  9995 | 2 65959  51.9018  80.4168 0001039  84.4551 275.6529 14.79854218 10654 | 2026/02/17-09:06:47  203.5333    0.0962  275.6411   97.3069     7007.9213     7007.1932     7008.6495   8.640592  51.177505  -0.000100   0.000027
1 65959U 25228N   26049.46024450  .00003775  00000-0  52476-3 0  9998 | 2 65959  51.9014  75.6394 0001028  82.8152 277.2928 14.79861878 10813 | 2026/02/18-11:02:45  238.3665    0.0963  277.2811   97.3064     7007.8972     7007.1767     7008.6176  12.872781  50.279686  -0.000096   0.000038
1 65959U 25228N   26051.08102873  .00003342  00000-0  46779-3 0  9994 | 2 65959  51.9007  68.4724 0001024  81.6925 278.4153 14.79872844 11058 | 2026/02/20-01:56:40  110.6135    0.0962  278.4037   97.3057     7007.8625     7007.1449     7008.5801  19.044930  48.280155  -0.000089   0.000051
1 65959U 25228N   26052.22907686  .00003655  00000-0  50878-3 0  9998 | 2 65959  51.9038  63.3977 0001040  82.1545 277.9536 14.79882065 11222 | 2026/02/21-05:29:52  170.1168    0.0963  277.9418   97.3051     7007.8334     7007.1046     7008.5622  23.242261  46.409070  -0.000086   0.000059
1 65959U 25228N   26053.24205515  .00004037  00000-0  55877-3 0  9992 | 2 65959  51.9029  58.9174 0001080  84.4679 275.6407 14.79889837 11370 | 2026/02/22-05:48:33  180.2673    0.0963  275.6284   97.3045     7007.8089     7007.0520     7008.5657  26.796080  44.450885  -0.000087   0.000064
1 65959U 25228N   26054.25502769  .00004435  00000-0  61090-3 0  9991 | 2 65959  51.9025  54.4386 0001110  82.7572 277.3517 14.79898655 11525 | 2026/02/23-06:07:14  190.4143    0.0963  277.3391   97.3040     7007.7810     7007.0032     7008.5589  30.185199  42.222308  -0.000081   0.000075
1 65959U 25228N   26055.26799426  .00004343  00000-0  59866-3 0  9997 | 2 65959  51.9027  49.9601 0001133  82.2870 277.8221 14.79906919 11673 | 2026/02/24-06:25:54  200.5590    0.0962  277.8092   97.3034     7007.7550     7006.9610     7008.5489  33.390093  39.736532  -0.000076   0.000084
1 65959U 25228N   26057.15884935  .00003944  00000-0  54625-3 0  9991 | 2 65959  51.9033  41.5996 0001121  84.6752 275.4338 14.79922150 11956 | 2026/02/26-03:48:44  171.4912    0.0962  275.4210   97.3024     7007.7069     7006.9213     7008.4924  38.813429  34.459690  -0.000066   0.000090
1 65959U 25228N   26058.17179723  .00004910  00000-0  67258-3 0  9996 | 2 65959  51.9026  37.1201 0001124  92.0568 268.0523 14.79933787 12109 | 2026/02/27-04:07:23  181.6302    0.0962  268.0394   97.3017     7007.6701     7006.8825     7008.4578  41.385694  31.322583  -0.000071   0.000087
1 65959U 25228N   26059.18474005  .00004419  00000-0  60812-3 0  9992 | 2 65959  51.9028  32.6415 0001208  84.5412 275.5688 14.79942402 12250 | 2026/02/28-04:26:01  191.7657    0.0962  275.5550   97.3011     7007.6429     7006.7964     7008.4895  43.705372  27.995376  -0.000055   0.000107
1 65959U 25228N   26060.19767482  .00005604  00000-0  76317-3 0  9993 | 2 65959  51.9030  28.1622 0001202  85.9496 274.1604 14.79954560 12402 | 2026/03/01-04:44:39  201.8999    0.0963  274.1467   97.3003     7007.6046     7006.7623     7008.4469  45.758464  24.496619  -0.000049   0.000110
1 65959U 25228N   26061.27812920  .00006095  00000-0  82707-3 0  9996 | 2 65959  51.9033  23.3840 0001159  88.2992 271.8103 14.79968021 12564 | 2026/03/02-06:40:30  236.7072    0.0962  271.7970   97.2994     7007.5621     7006.7499     7008.3743  47.640248  20.599983  -0.000043   0.000108
1 65959U 25228N   26063.10137080  .00007816  00000-0  10515-2 0  9996 | 2 65959  51.9039  15.3210 0001127  98.7419 261.3671 14.79995503 12836 | 2026/03/04-02:25:58  182.9347    0.0962  261.3543   97.2976     7007.4753     7006.6856     7008.2651  50.059269  13.714389  -0.000046   0.000103
1 65959U 25228N   26064.24931877  .00007311  00000-0  98509-3 0  9998 | 2 65959  51.9053  10.2429 0001199 106.4704 253.6390 14.80013766 13007 | 2026/03/05-05:59:01  242.4051    0.0962  253.6258   97.2964     7007.4177     7006.5775     7008.2579  51.078072   9.229884  -0.000054   0.000107
1 65959U 25228N   26065.53230534  .00007174  00000-0  96675-3 0  9992 | 2 65959  51.9043   4.5718 0001265  95.6812 264.4295 14.80032853 13198 | 2026/03/06-12:46:31  351.2147    0.0963  264.4151   97.2951     7007.3574     7006.4710     7008.2439  51.739152   4.137204  -0.000023   0.000124
1 65959U 25228N   26067.01785316  .00005026  00000-0  68595-3 0  9994 | 2 65959  51.9040 358.0018 0001218  97.3159 262.7941 14.80045607 13411 | 2026/03/08-00:25:42  174.0468    0.0962  262.7803   97.2943     7007.3172     7006.4637     7008.1707  51.872438  -1.809794  -0.000011   0.000121
1 65959U 25228N   26068.16583909 -.00022449  00000-0 -29252-2 0  9991 | 2 65959  51.9036 352.9273 0000672  91.8307 268.2732 14.79938349 13588 | 2026/03/09-03:58:48  233.5339    0.0962  268.2655   97.3014     7007.6557     7007.1848     7008.1267  51.508651  -6.390820   0.000006   0.000067
1 65959U 25228N   26069.17880641 -.00002391  00000-0 -28489-3 0  9992 | 2 65959  51.9030 348.4472 0000489  96.3036 263.7982 14.79913043 13736 | 2026/03/10-04:17:28  243.6827    0.0962  263.7926   97.3030     7007.7356     7007.3930     7008.0783  50.851475 -10.394660   0.000004   0.000049
1 65959U 25228N   26070.93460495  .00005062  00000-0  69268-3 0  9995 | 2 65959  51.9040 340.6846 0000744  88.6714 271.4334 14.79925593 13995 | 2026/03/11-22:25:49  165.2604    0.0963  271.4249   97.3022     7007.6960     7007.1746     7008.2174  48.982432 -17.168185   0.000026   0.000070
1 65959U 25228N   26072.89299363  .00000135  00000-0  46728-4 0  9999 | 2 65959  51.9051 332.0265 0000839  71.0791 289.0262 14.79905691 14288 | 2026/03/13-21:25:54  160.8682    0.0962  289.0171   97.3035     7007.7588     7007.1709     7008.3468  45.840749 -24.346769   0.000061   0.000057
1 65959U 25228N   26073.97349328  .00003505  00000-0  48888-3 0  9998 | 2 65959  51.9038 327.2487 0000798  74.9374 285.1677 14.79906968 14441 | 2026/03/14-23:21:49  195.6911    0.0963  285.1589   97.3034     7007.7548     7007.1956     7008.3140  43.652484 -28.079621   0.000059   0.000054
1 65959U 25228N   26074.98645359  .00003902  00000-0  54077-3 0  9991 | 2 65959  51.9038 322.7693 0000879  80.5259 279.5802 14.79914770 14598 | 2026/03/15-23:40:29  205.8336    0.0962  279.5703   97.3029     7007.7302     7007.1142     7008.3462  41.326109 -31.403139   0.000064   0.000060
1 65959U 25228N   26076.40458899  .00003001  00000-0  42254-3 0  9995 | 2 65959  51.9028 316.4988 0000895  81.1548 278.9515 14.79924628 14801 | 2026/03/17-09:42:36    4.0304    0.0962  278.9414   97.3023     7007.6991     7007.0719     7008.3262  37.648213 -35.728318   0.000071   0.000055
