# SPACE DATA - HISTORICAL TLEs
# ----------------------------
# NORAD_ID    : 65957
# OBJECT_NAME : KUIPER-00128
# --------------------------------------------------------------------+-----------------------------------------------------------------------+----------------------------------------------------------------------------------------------------------------------------------------
#                  LINE 1                                             |                 LINE 2                                                |      DERIVED PARAMETERS
# --------------------------------------------------------------------+-----------------------------------------------------------------------+----------------------------------------------------------------------------------------------------------------------------------------
# NORAD  COSPAR     TLE_EPOCH      MEANMOT1 MEANMOT2   BSTAR  #  REV  |   NORAD    INC     RAAN     ECC    ARGPER  MEANANOM   MEANMOT     REV |  CAL_DATE              LONG     ARGLAT     PERIOD        SMA         PERIGEE        APOGEE      INC_X      INC_Y      ECC_X      ECC_Y
# ------ ------   -------------- ----------  -------  ------- -- ----     -----  ------- -------- ------- -------- -------- -----------  ----   ------------------- ---------  --------  --------  ------------  ------------   ----------- ---------- ----------  ---------  ---------   
1 65952U 25228F   25295.58337963 -.00008083  00000-0 -23102-3 0  9995 | 2 65952  51.8784 267.0122 0005418 176.5548  24.0066 15.33978734  1308 | 2025/10/22-14:00:04  133.6983  200.5867   24.0319   93.8735     6842.0926     6838.3856     6845.7997  -2.704074 -51.807879   0.000061   0.000538
1 65952U 25228F   25296.66671295  .00031302  00000-0  94479-3 0  9997 | 2 65952  51.8792 261.8006 0005667 180.9618 245.9504 15.33986646  1305 | 2025/10/23-16:00:03  303.6269   66.8529  245.8911   93.8730     6842.0691     6838.1917     6845.9465  -7.398937 -51.348877   0.000071   0.000562
1 65952U 25228F   25297.75002315  .00081593  00000-0  24268-2 0  9994 | 2 65952  51.8796 256.5892 0005716 183.2789 110.0269 15.34006872  1308 | 2025/10/24-18:00:02  113.5041  293.3673  110.0884   93.8718     6842.0089     6838.0981     6845.9198 -12.032501 -50.464956   0.000101   0.000563
1 65952U 25228F   25298.86956612  .00041320  00000-0  12373-2 0  9993 | 2 65952  51.8798 251.2053 0005514 187.0012 173.0898 15.34103243  3060 | 2025/10/25-20:52:10   96.2417    0.0986  173.0974   93.8659     6841.7224     6837.9499     6845.4949 -16.714537 -49.113521   0.000113   0.000540
1 65952U 25228F   25299.91185142  .00033622  00000-0  10088-2 0  9999 | 2 65952  51.8798 246.1900 0005458 190.8810 169.2059 15.34140394  3221 | 2025/10/26-21:53:03  117.5112    0.0986  169.2176   93.8636     6841.6120     6837.8778     6845.3461 -20.944134 -47.464270   0.000122   0.000532
1 65952U 25228F   25301.54037824  .00039052  00000-0  11671-2 0  9997 | 2 65952  51.8790 238.3554 0005314 194.4188 165.6647 15.34192735  3476 | 2025/10/28-12:58:08  353.2240    0.0986  165.6798   93.8604     6841.4563     6837.8208     6845.0919 -27.218252 -44.165568   0.000157   0.000508
1 65952U 25228F   25302.97343043  .00033788  00000-0  10105-2 0  9999 | 2 65952  51.8782 231.4604 0005429 199.5247 160.5531 15.34240753  3690 | 2025/10/29-23:21:44  157.4359    0.0985  160.5738   93.8575     6841.3136     6837.5994     6845.0277 -32.322992 -40.577972   0.000177   0.000513
1 65952U 25228F   25304.21122929 -.00278826  00000-0 -87498-2 0  9991 | 2 65952  51.8779 225.5054 0006100 189.9909 170.0956 15.33615159  3887 | 2025/10/31-05:04:10  250.2099    0.0985  170.1076   93.8958     6843.1739     6838.9996     6847.3483 -36.358213 -37.005362   0.000346   0.000503
1 65952U 25228F   25305.58335648  .00061071  00000-0  19488-2 0  9990 | 2 65952  51.8795 218.9108 0005497 202.2662 174.2899 15.31903901  1304 | 2025/11/01-14:00:01   15.6531   16.5624  174.2962   94.0007     6848.2692     6844.5048     6852.0337 -40.368724 -32.586019   0.000265   0.000482
1 65952U 25228F   25307.83336806  .00017094  00000-0  59703-3 0  9998 | 2 65952  51.8817 208.1242 0004980 227.2790 321.3417 15.29665242  1361 | 2025/11/03-20:00:03  306.5970  188.5850  321.3060   94.1382     6854.9492     6851.5355     6858.3630 -45.755916 -24.456225   0.000126   0.000482
1 65952U 25228F   25308.91668981 -.00012976  00000-0 -44406-3 0  9990 | 2 65952  51.8822 202.9479 0004477 239.4870 157.2701 15.28876208  1532 | 2025/11/04-22:00:01  134.7005   36.7769  157.2899   94.1868     6857.3075     6854.2375     6860.3775 -47.776231 -20.228555   0.000059   0.000444
1 65952U 25228F   25310.25002315 -.00512698  00000-0 -19607-1 0  9992 | 2 65952  51.8822 196.5854 0004559 245.1377 293.9981 15.28301523  1737 | 2025/11/06-06:00:02  119.9985  179.0881  293.9504   94.2222     6859.0264     6855.8994     6862.1535 -49.723659 -14.809471   0.000066   0.000451
1 65952U 25228F   25311.33335648 -.00689075  00000-0 -27607-1 0  9993 | 2 65952  51.8822 191.4183 0005591 249.1398 131.9901 15.27095229  1904 | 2025/11/07-08:00:01  314.2393   21.1775  132.0377   94.2967     6862.6381     6858.8012     6866.4750 -50.855347 -10.271141   0.000092   0.000552
1 65952U 25228F   25312.50001156 -.00638357  00000-0 -26522-1 0  9999 | 2 65952  51.8827 185.8685 0005773 245.0194  69.9863 15.25707138  2077 | 2025/11/08-12:00:00   87.0590  315.0679   70.0485   94.3825     6866.7999     6862.8357     6870.7641 -51.610792  -5.304781   0.000189   0.000545
1 65952U 25228F   25315.00003472 -.00372308  00000-0 -16292-1 0  9994 | 2 65952  51.8838 174.0134 0005837 252.0814 111.0683 15.23214643  2460 | 2025/11/11-00:00:02  233.2426    3.2121  111.1307   94.5369     6874.2888     6870.2762     6878.3013 -51.600842   5.411266   0.000237   0.000534
1 65952U 25228F   25316.25003472 -.00618524  00000-0 -28521-1 0  9993 | 2 65952  51.8839 168.0993 0006146 255.9761 123.5779 15.22150658  2653 | 2025/11/12-06:00:02  313.9844   19.6127  123.6366   94.6030     6877.4918     6873.2649     6881.7187 -50.768732  10.699298   0.000269   0.000553
1 65952U 25228F   25317.33334491 -.00533592  00000-0 -25149-1 0  9995 | 2 65952  51.8842 162.9827 0005951 258.5477 298.9086 15.21081286  2828 | 2025/11/13-08:00:01  172.2582  197.3966  298.8489   94.6695     6880.7148     6876.6201     6884.8095 -49.612525  15.184453   0.000284   0.000523
1 65952U 25228F   25318.75003471 -.00590931  00000-0 -29164-1 0  9994 | 2 65952  51.8848 156.3054 0006428 260.6308 135.8929 15.19732769  3035 | 2025/11/14-18:00:02  131.2728   36.5749  135.9441   94.7535     6884.7846     6880.3590     6889.2101 -47.510936  20.850502   0.000351   0.000539
1 65952U 25228F   25319.83335647 -.00315990  00000-0 -15715-1 0  9994 | 2 65952  51.8850 151.2090 0006643 269.1703 295.9827 15.18593950  3204 | 2025/11/15-20:00:01  358.8035  205.0845  295.9142   94.8246     6888.2262     6883.6503     6892.8020 -45.471098  24.988647   0.000328   0.000577
1 65952U 25228F   25321.33336806  .00008277  00000-0  42723-3 0  9996 | 2 65952  51.8863 144.1610 0005992 273.2393 214.3581 15.17118645  3434 | 2025/11/17-08:00:03  264.8897  127.5587  214.3194   94.9168     6892.6910     6888.5609     6896.8211 -42.062431  30.379927   0.000323   0.000505
1 65952U 25228F   25322.50002315 -.01403026  00000-0 -76817-1 0  9994 | 2 65952  51.8861 138.6936 0005726 275.2081 106.3653 15.16730243  3615 | 2025/11/18-12:00:02   77.5269   21.6363  106.4282   94.9411     6893.8677     6889.9203     6897.8151 -38.976341  34.249266   0.000337   0.000463
1 65952U 25228F   25323.58335648 -.00033929  00000-0 -17926-2 0  9998 | 2 65952  51.8864 133.6236 0006360 285.1699 251.6282 15.14860685  3777 | 2025/11/19-14:00:01  318.4399  176.7290  251.5591   95.0582     6899.5385     6895.1504     6903.9266 -35.797349  37.559929   0.000330   0.000544
1 65952U 25228F   25324.75002315 -.00778569  00000-0 -45310-1 0  9993 | 2 65952  51.8878 128.1735 0005817 292.3271 129.9249 15.14303560  3951 | 2025/11/20-18:00:02  139.5861   62.3031  129.9760   95.0932     6901.2307     6897.2163     6905.2451 -32.068988  40.791222   0.000286   0.000506
1 65952U 25228F   25325.91670139 -.00952232  00000-0 -57479-1 0  9997 | 2 65952  51.8888 122.7308 0006240 304.1669 359.6650 15.13116730  4131 | 2025/11/21-22:00:03  324.6030  303.8315  359.6646   95.1678     6904.8389     6900.5303     6909.1476 -28.055891  43.649909   0.000245   0.000574
1 65952U 25228F   25327.16670139 -.01002684  00000-0 -63715-1 0  9994 | 2 65952  51.8899 116.9108 0006618 304.0138 328.9675 15.11436656  4322 | 2025/11/23-04:00:03   92.5056  272.9422  328.9284   95.2736     6909.9548     6905.3818     6914.5278 -23.485514  46.270859   0.000322   0.000578
1 65952U 25228F   25328.33336806 -.00382372  00000-0 -24719-1 0  9999 | 2 65952  51.8956 111.4925 0006478 303.4671 197.9407 15.09651743  4502 | 2025/11/24-08:00:03  290.6473  141.3850  197.9179   95.3862     6915.4003     6910.9205     6919.8801 -19.013480  48.287067   0.000372   0.000530
1 65952U 25228F   25329.50006943 -.01014856  00000-0 -68057-1 0  9998 | 2 65952  51.8974 106.0868 0006565 310.7363  54.0370 15.09065382  4683 | 2025/11/25-12:00:05  133.8500    4.8342   54.0979   95.4233     6917.1916     6912.6504     6921.7327 -14.380422  49.865254   0.000359   0.000549
1 65952U 25228F   25330.83334491 -.00980103  00000-0 -70276-1 0  9990 | 2 65952  51.8905  99.9241 0005979 312.0153  94.0594 15.06534823  4884 | 2025/11/26-20:00:01  220.0046   46.1430   94.1277   95.5836     6924.9354     6920.7950     6929.0758  -8.942988  51.114058   0.000369   0.000471
1 65952U 25228F   25332.00002315 -.00130666  00000-0 -93885-2 0  9991 | 2 65952  51.9020  94.5445 0006753 319.3070 294.3559 15.04433097  5065 | 2025/11/28-00:00:02   78.9501  253.5924  294.2854   95.7171     6931.3834     6926.7026     6936.0642  -4.112369  51.738825   0.000398   0.000545
1 65952U 25228F   25333.16668980 -.01578255  00000-0 -12248+0 0  9997 | 2 65952  51.8919  89.1817 0006881 317.2857 137.6577 15.04035754  5243 | 2025/11/29-04:00:01  304.1823   94.9965  137.7108   95.7424     6932.6041     6927.8338     6937.3744   0.741096  51.886608   0.000474   0.000499
1 65952U 25228F   25334.16671295 -.00548026  00000-0 -43679-1 0  9997 | 2 65952  51.9075  84.5902 0006829 325.9332 143.2065 15.02356323  5394 | 2025/11/30-04:00:03  295.5715  109.1865  143.2533   95.8494     6937.7696     6933.0318     6942.5074   4.893766  51.676296   0.000434   0.000527
1 65952U 25228F   25335.25002315 -.00954000  00000-0 -77967-1 0  9999 | 2 65952  51.9112  79.6270 0006593 331.5013 238.8274 15.01586020  5566 | 2025/12/01-06:00:02  230.4052  210.2641  238.7628   95.8986     6940.1421     6935.5665     6944.7178   9.346904  51.062786   0.000414   0.000513
1 65952U 25228F   25336.25003472 -.01044473  00000-0 -91029-1 0  9995 | 2 65952  51.8928  75.0531 0007079 333.5939 242.0349 14.99397781  5716 | 2025/12/02-06:00:02  230.6688  215.5572  241.9633   96.0386     6946.8928     6941.9751     6951.8105  13.384385  50.137021   0.000468   0.000531
1 65952U 25228F   25337.33335648 -.00000468  00000-0 -17495-4 0  9991 | 2 65952  51.8946  70.1146 0006761 343.1400 320.2037 14.97488683  5882 | 2025/12/03-08:00:01  178.9560  303.2941  320.1541   96.1610     6952.7958     6948.0950     6957.4966  17.651426  48.800376   0.000404   0.000542
1 65952U 25228F   25338.58334491 -.01210331  00000-0 -11371+0 0  9999 | 2 65952  51.8948  64.4345 0007084 348.4482 215.3436 14.96471889  5491 | 2025/12/04-14:00:01   15.4159  203.7449  215.2967   96.2263     6955.9449     6951.0173     6960.8725  22.394819  46.813912   0.000427   0.000565
1 65952U 25228F   25340.00003472 -.00951734  00000-0 -93492-1 0  9995 | 2 65952  51.9196  58.0074 0007180 353.6508 280.6379 14.94514243  5715 | 2025/12/06-00:00:02  102.7508  274.2078  280.5570   96.3524     6962.0179     6957.0192     6967.0166  27.507509  44.033871   0.000445   0.000563
1 65952U 25228F   25341.33336806 -.00218467  00000-0 -21754-1 0  9993 | 2 65952  51.8964  51.9781 0007271   0.2453 247.7598 14.92399946  2880 | 2025/12/07-08:00:03  256.3779  247.9280  247.6827   96.4889     6968.5918     6963.5249     6973.6587  31.966243  40.882706   0.000445   0.000575
1 65952U 25228F   25342.66670139 -.00001011  00000-0 -77613-4 0  9993 | 2 65952  51.8959  45.9649 0007645   1.5366 211.9653 14.90495160  3083 | 2025/12/08-16:00:03   58.2085  213.4556  211.9190   96.6122     6974.5276     6969.1955     6979.8596  36.072784  37.308695   0.000516   0.000564
1 65952U 25228F   25343.83335647 -.01012129  00000-0 -11303+0 0  9997 | 2 65952  51.8983  40.7157 0007411  11.9309 343.9109 14.89625191  3269 | 2025/12/09-20:00:01  342.2635  355.8182  343.8873   96.6686     6977.2428     6972.0720     6982.4136  39.336608  33.853579   0.000450   0.000589
1 65952U 25228F   25345.00003472  .00019440  00000-0  21455-2 0  9998 | 2 65952  51.8996  35.4791 0007359  19.1543 112.9634 14.87435836  3438 | 2025/12/11-00:00:02  272.3783  132.1953  113.0410   96.8109     6984.0876     6978.9481     6989.2272  42.263261  30.122837   0.000426   0.000600
1 65952U 25228F   25346.16668980  .00004363  00000-0  51982-3 0  9994 | 2 65952  51.8985  30.2579 0007255  22.6525 238.6913 14.86053601  3618 | 2025/12/12-04:00:01  209.5191  261.2728  238.6203   96.9009     6988.4178     6983.3477     6993.4879  44.828162  26.151295   0.000438   0.000579
1 65952U 25228F   25347.25002315 -.00028763  00000-0 -34019-2 0  9992 | 2 65952  51.8998  25.4185 0007184  27.7775 271.1578 14.84063579  3774 | 2025/12/13-06:00:02  207.8348  298.8530  271.0755   97.0309     6994.6637     6989.6387     6999.6886  46.875731  22.276784   0.000430   0.000575
1 65952U 25228F   25348.25003472 -.00043954  00000-0 -53095-2 0  9992 | 2 65952  51.9004  20.9660 0005723  48.3159 195.8495 14.83407859  3922 | 2025/12/14-06:00:02  268.0471  244.1475  195.8316   97.0738     6996.7248     6992.7206     7000.7290  48.464226  18.570684   0.000202   0.000535
1 65952U 25228F   25349.33335648 -.00045046  00000-0 -55274-2 0  9990 | 2 65952  51.9002  16.1512 0004125  47.9962 224.0997 14.82779231  4080 | 2025/12/15-08:00:01  275.9950  272.0630  224.0668   97.1149     6998.7022     6995.8152     7001.5891  49.851749  14.437240   0.000180   0.000371
1 65952U 25228F   25350.33337963 -.00043651  00000-0 -54400-2 0  9994 | 2 65952  51.9000  11.7107 0001626  29.9296 182.7130 14.82127695  4240 | 2025/12/16-08:00:04  340.8828  212.6417  182.7121   97.1576     7000.7531     6999.6147     7001.8914  50.819698  10.534151   0.000122   0.000108
1 65952U 25228F   25351.33339120 -.00037184  00000-0 -46964-2 0  9992 | 2 65952  51.8996   7.2747 0000690 338.9221 171.8958 14.81495602  4392 | 2025/12/17-08:00:04   48.1333  150.8190  171.8969   97.1991     7002.7442     7002.2610     7003.2274  51.481832   6.571870   0.000067  -0.000016
1 65952U 25228F   25352.66667824 -.00063030  00000-0 -81496-2 0  9992 | 2 65952  51.8994   1.3665 0001782  78.7385 345.7373 14.80780135  4599 | 2025/12/18-16:00:00  261.6811   64.4708  345.7323   97.2460     7004.9997     7003.7514     7006.2480  51.884640   1.237679   0.000031   0.000176
1 65952U 25228F   25353.66670139 -.00070292  00000-0 -92341-2 0  9995 | 2 65952  51.8992 356.9400 0001243  43.2366 314.5621 14.80177107  4747 | 2025/12/19-16:00:03  333.7787  357.7886  314.5520   97.2857     7006.9021     7006.0312     7007.7731  51.825201  -2.770467   0.000095   0.000080
1 65952U 25228F   25354.83335647  .00026478  00000-0  35641-2 0  9992 | 2 65952  51.9159 351.7808 0001607 147.0266 309.9480 14.79027870  4913 | 2025/12/20-20:00:01  300.9077   96.9605  309.9339   97.3612     7010.5314     7009.4048     7011.6579  51.382640  -7.421928  -0.000121   0.000106
1 65952U 25228F   25356.16668980 -.00025999  00000-0 -34655-2 0  9992 | 2 65952  51.8993 345.8936 0001364 147.7976 212.9013 14.79065165  5116 | 2025/12/22-04:00:01  164.3848    0.6904  212.8928   97.3588     7010.4135     7009.4573     7011.3697  50.334266 -12.649071  -0.000094   0.000099
1 65952U 25228F   25357.33336806  .00019754  00000-0  26678-2 0  9997 | 2 65952  51.8998 340.7422 0001211 146.5833 309.9849 14.79048386  5294 | 2025/12/23-08:00:03  134.8210   96.5576  309.9743   97.3599     7010.4665     7009.6176     7011.3155  48.995701 -17.117549  -0.000073   0.000096
1 65952U 25228F   25358.66658894  .00040113  00000-0  53527-2 0  9994 | 2 65952  51.9006 334.8534 0000756 177.4491 182.6475 14.79191097 12083 | 2025/12/24-15:59:53  358.4550    0.0962  182.6471   97.3505     7010.0156     7009.4857     7010.5456  46.981642 -22.054423  -0.000067   0.000035
1 65952U 25228F   25361.84082937  .00009061  00000-0  12161-2 0  9993 | 2 65952  51.9005 320.8203 0002392  13.3472 346.7553 14.79930226 12552 | 2025/12/27-20:10:47   78.3375    0.0962  346.7490   97.3019     7007.6814     7006.0051     7009.3576  40.231626 -32.788385   0.000215  -0.000104
1 65952U 25228F   25363.12391531  .00002203  00000-0  31815-3 0  9998 | 2 65952  51.8996 315.1459 0001147  93.2996 266.8098 14.79895396 12740 | 2025/12/29-02:58:26  187.1806    0.0963  266.7967   97.3042     7007.7913     7006.9875     7008.5951  36.791891 -36.604990   0.000076   0.000086
1 65952U 25228F   25364.13688472  .00009017  00000-0  12108-2 0  9996 | 2 65952  51.8986 310.6692 0001183  89.6001 270.5097 14.79909718 12895 | 2025/12/30-03:17:06  197.3243    0.0962  270.4961   97.3032     7007.7461     7006.9171     7008.5751  33.821838 -39.364298   0.000090   0.000076
1 65952U 25228F   25365.21736698  .00009644  00000-0  12923-2 0  9991 | 2 65952  51.8999 305.8873 0001250  95.5898 264.5207 14.79932422 13054 | 2025/12/31-05:13:00  232.1441    0.0962  264.5064   97.3017     7007.6745     7006.7985     7008.5504  30.423347 -42.047825   0.000094   0.000083
1 65952U 25228F   26001.23030575  .00009059  00000-0  12152-2 0  9996 | 2 65952  51.9003 301.4077 0001234  98.6187 261.4916 14.79951254 13200 | 2026/01/01-05:31:38  242.2802    0.0963  261.4776   97.3005     7007.6150     7006.7503     7008.4797  27.046509 -44.295908   0.000094   0.000079
1 65952U 25228F   26002.24323156  .00010131  00000-0  13547-2 0  9990 | 2 65952  51.9006 296.9297 0001246  94.3535 265.7570 14.79972344 13350 | 2026/01/02-05:50:15  252.4097    0.0963  265.7428   97.2991     7007.5484     7006.6753     7008.4216  23.505622 -46.272649   0.000106   0.000065
1 65952U 25228F   26003.52624309 -.00002859  00000-0 -34572-3 0  9998 | 2 65952  51.8991 291.2581 0002587 258.6436 101.4236 14.79970715 13546 | 2026/01/03-12:37:47    1.2734    0.0963  101.4527   97.2992     7007.5536     7005.7407     7009.3664  18.817046 -48.367710  -0.000255  -0.000044
1 65952U 25228F   26004.94438141 -.00002357  00000-0 -28023-3 0  9999 | 2 65952  51.8992 284.9832 0001418 121.8073 238.3027 14.79932924 13756 | 2026/01/04-22:39:54  159.4330    0.0962  238.2889   97.3017     7007.6729     7006.6792     7008.6666  13.417802 -50.134714   0.000097   0.000103
1 65952U 25228F   26006.15991859  .00004333  00000-0  59697-3 0  9999 | 2 65952  51.8978 279.6092 0001071 114.8301 245.2773 14.79938385 13932 | 2026/01/06-03:50:16  243.6011    0.0963  245.2662   97.3013     7007.6556     7006.9051     7008.4062   8.663147 -51.169635   0.000088   0.000061
1 65952U 25228F   26007.44297237  .00004341  00000-0  59780-3 0  9993 | 2 65952  51.8982 273.9360 0001076 115.7044 244.4029 14.79950403 14123 | 2026/01/07-10:37:52  352.4384    0.0962  244.3918   97.3006     7007.6177     7006.8637     7008.3717   3.562404 -51.775790   0.000094   0.000053
1 65952U 25228F   26008.45590195  .00004774  00000-0  65439-3 0  9992 | 2 65952  51.8972 269.4561 0001110 116.6944 243.4132 14.79960955 14276 | 2026/01/08-10:56:29    2.5711    0.0962  243.4018   97.2999     7007.5844     7006.8065     7008.3622  -0.492645 -51.894862   0.000100   0.000049
1 65952U 25228F   26010.95457352  .00001020  00000-0  16299-3 0  9998 | 2 65952  51.8978 258.4075 0000587 120.5633 239.5387 14.79889641 14647 | 2026/01/10-22:54:35  195.6098    0.0962  239.5329   97.3046     7007.8095     7007.3981     7008.2209 -10.428847 -50.839166   0.000056   0.000019
1 65952U 25228F   26011.96754964  .00003921  00000-0  54349-3 0  9999 | 2 65952  51.8974 253.9279 0000836 112.3352 247.7699 14.79895522 14791 | 2026/01/11-23:13:16  205.7562    0.0962  247.7610   97.3042     7007.7909     7007.2051     7008.3768 -14.367628 -49.868942   0.000083   0.000009
1 65952U 25228F   26013.04805014  .00002392  00000-0  34288-3 0  9994 | 2 65952  51.8977 249.1499 0000859 113.1423 246.9630 14.79899575 14954 | 2026/01/13-01:09:11  240.5791    0.0962  246.9539   97.3039     7007.7781     7007.1762     7008.3801 -18.471650 -48.499169   0.000086   0.000003
1 65952U 25228F   26014.33114072  .00002122  00000-0  30750-3 0  9995 | 2 65952  51.8974 243.4762 0000881 114.8038 245.3016 14.79904497 15149 | 2026/01/14-07:56:50  349.4300    0.0962  245.2924   97.3036     7007.7626     7007.1452     7008.3800 -23.175797 -46.435144   0.000088  -0.000003
1 65952U 25228F   26015.81682017  .00001817  00000-0  26744-3 0  9996 | 2 65952  51.8969 236.9055 0000933 124.3185 235.7866 14.79909505 15367 | 2026/01/15-19:36:13  172.3100    0.0963  235.7778   97.3032     7007.7468     7007.0930     7008.4006 -28.336825 -43.477725   0.000093   0.000002
1 65952U 25228F   26016.89729407  .00007276  00000-0  98220-3 0  9993 | 2 65952  51.8976 232.1267 0000530 107.1646 252.9375 14.79939545 15523 | 2026/01/16-21:32:06  207.1274    0.0963  252.9317   97.3013     7007.6520     7007.2806     7008.0234 -31.860841 -40.966422   0.000050  -0.000019
1 65952U 25228F   26017.97776568  .00006436  00000-0  87225-3 0  9993 | 2 65952  51.8968 227.3503 0000748 117.6366 242.4672 14.79943635 15685 | 2026/01/17-23:27:58  241.9368    0.0962  242.4596   97.3010     7007.6391     7007.1149     7008.1632 -35.160820 -38.170598   0.000072  -0.000019
1 65952U 25228F   26019.26081007  .00003024  00000-0  42530-3 0  9994 | 2 65952  51.8963 221.6761 0000726 121.9352 238.1681 14.79956166 15878 | 2026/01/19-06:15:33  350.7721    0.0962  238.1610   97.3002     7007.5995     7007.0907     7008.1083 -38.762156 -34.506828   0.000070  -0.000020
1 65952U 25228F   26020.27373760  .00004429  00000-0  60908-3 0  9996 | 2 65952  51.8962 217.1962 0000670 123.0888 237.0138 14.79964756 16022 | 2026/01/20-06:34:10    0.9050    0.0962  237.0074   97.2996     7007.5724     7007.1029     7008.0419 -41.338957 -31.373655   0.000063  -0.000023
1 65952U 25228F   26022.23204609  .00003200  00000-0  44805-3 0  9993 | 2 65952  51.8959 208.5350 0000703 125.1716 234.9312 14.79980179 16312 | 2026/01/22-05:34:08  356.4873    0.0962  234.9246   97.2986     7007.5237     7007.0311     7008.0163 -45.591870 -24.790438   0.000063  -0.000031
1 65952U 25228F   26023.51510932 -.00002367  00000-0 -28149-3 0  9992 | 2 65952  51.8989 202.8611 0000744 134.9971 225.1052 14.79941580 16505 | 2026/01/23-12:21:45  105.3291    0.0963  225.0992   97.3011     7007.6455     7007.1242     7008.1669 -47.822209 -20.162642   0.000069  -0.000028
1 65952U 25228F   26024.73064503  .00004667  00000-0  64067-3 0  9997 | 2 65952  51.8965 197.4851 0000538 107.2827 252.8195 14.79941795 16680 | 2026/01/24-17:32:07  189.4961    0.0963  252.8136   97.3011     7007.6449     7007.2679     7008.0219 -49.498628 -15.592707   0.000031  -0.000044
1 65952U 25228F   26025.74358293  .00005099  00000-0  69703-3 0  9993 | 2 65952  51.8976 193.0063 0000502 107.1254 252.9763 14.79950052 16838 | 2026/01/25-17:50:45  199.6315    0.0962  252.9708   97.3006     7007.6188     7007.2670     7007.9706 -50.566184 -11.679980   0.000025  -0.000043
1 65952U 25228F   26026.82406630 -.00002245  00000-0 -26569-3 0  9997 | 2 65952  51.8985 188.2289 0000281  98.2805 261.8189 14.79925067 16996 | 2026/01/26-19:46:39  234.4502    0.0962  261.8157   97.3022     7007.6977     7007.5008     7007.8946 -51.364162  -7.428137   0.000008  -0.000027
1 65952U 25228F   26027.83702563  .00005370  00000-0  73308-3 0  9996 | 2 65952  51.8965 183.7494 0000358  80.3791 279.7212 14.79920072 17147 | 2026/01/27-20:05:19  244.5925    0.0963  279.7172   97.3026     7007.7134     7007.4626     7007.9643 -51.785421  -3.393651  -0.000004  -0.000036
1 65952U 25228F   26030.13303483  .00006265  00000-0  84969-3 0  9990 | 2 65952  51.8966 173.5954 0000440  70.1995 289.9015 14.79947316 17482 | 2026/01/30-03:11:34    3.5722    0.0963  289.8968   97.3008     7007.6274     7007.3191     7007.9358 -51.572712   5.788999  -0.000019  -0.000039
1 65952U 25228F   26031.34857556 -.00003875  00000-0 -47975-3 0  9991 | 2 65952  51.8973 168.2203 0000606  58.2959 301.8062 14.79922226 17668 | 2026/01/31-08:21:56   87.7390    0.0962  301.8003   97.3024     7007.7066     7007.2820     7008.1313 -50.804331  10.594794  -0.000042  -0.000044
1 65952U 25228F   26032.36153074  .00000879  00000-0  14437-3 0  9994 | 2 65952  51.8974 163.7411 0000764  60.9572 299.1467 14.79923496 17811 | 2026/02/01-08:40:36   97.8786    0.0963  299.1391   97.3023     7007.7026     7007.1672     7008.2380 -49.821835  14.530137  -0.000054  -0.000054
1 65952U 25228F   26033.50954061  .00004760  00000-0  65289-3 0  9990 | 2 65952  51.8977 158.6643 0000657  52.2582 307.8440 14.79933276 17983 | 2026/02/02-12:13:44  157.3722    0.0963  307.8381   97.3017     7007.6718     7007.2114     7008.1322 -48.340876  18.882027  -0.000056  -0.000034
1 65952U 25228F   26034.52248008  .00005345  00000-0  72938-3 0  9999 | 2 65952  51.8986 154.1851 0000699  52.3693 307.7333 14.79946411 18138 | 2026/02/03-12:32:22  167.5076    0.0963  307.7270   97.3008     7007.6303     7007.1405     7008.1201 -46.719408  22.600035  -0.000063  -0.000031
1 65952U 25228F   26035.60295963 -.00007079  00000-0 -90089-3 0  9996 | 2 65952  51.8997 149.4066 0000548  68.4986 291.6034 14.79915193 18290 | 2026/02/04-14:28:15  202.3243    0.0962  291.5976   97.3029     7007.7288     7007.3448     7008.1129 -44.675296  26.413951  -0.000043  -0.000034
1 65952U 25228F   26036.68345770  .00009465  00000-0  12694-2 0  9991 | 2 65952  51.8983 144.6299 0000822  61.7539 298.3506 14.79913266 18450 | 2026/02/05-16:24:10  237.1428    0.0962  298.3423   97.3030     7007.7349     7007.1589     7008.3110 -42.319430  30.041628  -0.000074  -0.000037
1 65952U 25228F   26038.30418095  .00007209  00000-0  97364-3 0  9995 | 2 65952  51.8974 137.4616 0000878  60.0586 300.0463 14.79934705 18698 | 2026/02/07-07:18:01  109.3686    0.0962  300.0376   97.3016     7007.6672     7007.0520     7008.2825 -38.239270  35.087011  -0.000084  -0.000026
1 65952U 25228F   26040.26252247  .00005978  00000-0  81195-3 0  9994 | 2 65952  51.8988 128.8026 0000812  58.0943 302.0098 14.79959222 18983 | 2026/02/09-06:18:01  104.9616    0.0962  302.0019   97.3000     7007.5899     7007.0208     7008.1589 -32.521821  40.445229  -0.000081  -0.000010
1 65952U 25228F   26041.41053226 -.00003613  00000-0 -44519-3 0  9993 | 2 65952  51.8982 123.7245 0000774  75.8631 284.2417 14.79928768 19159 | 2026/02/10-09:51:09  164.4540    0.0962  284.2331   97.3020     7007.6860     7007.1436     7008.2284 -28.813887  43.164604  -0.000073  -0.000026
1 65952U 25228F   26043.23385613  .00004087  00000-0  56487-3 0  9994 | 2 65952  51.8988 115.6634 0000875  67.7737 292.3318 14.79926374 19427 | 2026/02/12-05:36:45  110.7082    0.0962  292.3225   97.3021     7007.6935     7007.0804     7008.3067 -22.476509  46.779183  -0.000087  -0.000005
1 65952U 25228F   26044.38186197  .00004675  00000-0  64182-3 0  9991 | 2 65952  51.8975 110.5858 0000883  72.6685 287.4374 14.79936960 19598 | 2026/02/13-09:09:52  170.1990    0.0962  287.4277   97.3014     7007.6601     7007.0414     7008.2789 -18.247662  48.583674  -0.000088  -0.000005
1 65952U 25228F   26045.46232973  .00004497  00000-0  61833-3 0  9997 | 2 65952  51.8977 105.8079 0000877  71.5182 288.5875 14.79947537 19753 | 2026/02/14-11:05:45  205.0104    0.0962  288.5780   97.3007     7007.6267     7007.0122     7008.2413 -14.137604  49.934952  -0.000088   0.000004
1 65952U 25228F   26047.28562738 -.00000030  00000-0  25072-4 0  9990 | 2 65952  51.8992  97.7552 0001975  15.8760 344.2264 14.79936375 20020 | 2026/02/16-06:51:18  151.2507    0.0962  344.2202   97.3015     7007.6620     7006.2780     7009.0460  -7.003323  51.424512  -0.000079   0.000181
1 65952U 25228F   26048.29857464 -.00010260  00000-0 -13187-2 0  9994 | 2 65952  51.8970  93.2663 0000673  90.4952 269.6087 14.79937341 20179 | 2026/02/17-07:09:56  161.3976    0.0962  269.6010   97.3014     7007.6589     7007.1873     7008.1305  -2.956926  51.812693  -0.000067  -0.000004
1 65952U 25228F   26049.31154229  .00003819  00000-0  52978-3 0  9999 | 2 65952  51.8974  88.7853 0000815  92.3631 267.7425 14.79920092 20323 | 2026/02/18-07:28:37  171.5436    0.0963  267.7332   97.3026     7007.7134     7007.1422     7008.2845   1.100169  51.885737  -0.000081  -0.000002
1 65952U 25228F   26050.32449421  .00003369  00000-0  47078-3 0  9998 | 2 65952  51.8981  84.3068 0000812  90.2657 269.8398 14.79926825 20471 | 2026/02/19-07:47:16  181.6833    0.0962  269.8305   97.3021     7007.6921     7007.1231     7008.2611   5.148377  51.642105  -0.000081   0.000008
1 65952U 25228F   26051.47250014  .00003036  00000-0  42702-3 0  9993 | 2 65952  51.8975  79.2293 0000813  88.7478 271.3578 14.79934197 20649 | 2026/02/20-11:20:24  241.1744    0.0963  271.3485   97.3016     7007.6689     7007.0991     7008.2386   9.698551  50.983219  -0.000080   0.000017
1 65952U 25228F   26053.09322227 -.00002094  00000-0 -24584-3 0  9992 | 2 65952  51.9013  72.0645 0001032  92.4613 267.6468 14.79921384 20888 | 2026/02/22-02:14:14  113.3941    0.0963  267.6350   97.3025     7007.7093     7006.9861     7008.4325  15.982806  49.379093  -0.000099   0.000028
1 65952U 25228F   26054.44382867  .00005444  00000-0  74270-3 0  9995 | 2 65952  51.8985  66.0890 0000962  77.3660 282.7409 14.79925405 21089 | 2026/02/23-10:39:06  246.9204    0.0961  282.7301   97.3022     7007.6966     7007.0225     7008.3707  21.035350  47.444371  -0.000077   0.000057
1 65952U 25228F   26055.72694347 -.00005939  00000-0 -75158-3 0  9993 | 2 65952  51.8966  60.4148 0001083  85.5941 274.5145 14.79886183 21276 | 2026/02/24-17:26:47  355.7789    0.0962  274.5021   97.3048     7007.8204     7007.0615     7008.5794  25.622247  45.130451  -0.000090   0.000061
1 65952U 25228F   26057.14512513  .00003889  00000-0  53946-3 0  9996 | 2 65952  51.8982  54.1444 0000966  87.7037 272.4036 14.79882910 21485 | 2026/02/26-03:28:58  153.9938    0.0962  272.3925   97.3050     7007.8308     7007.1538     7008.5077  30.399083  42.063273  -0.000076   0.000060
1 65952U 25228F   26058.15810110  .00004357  00000-0  60078-3 0  9997 | 2 65952  51.8985  49.6652 0000973  89.1935 270.9139 14.79892520 21631 | 2026/02/27-03:47:39  164.1427    0.0963  270.9028   97.3044     7007.8004     7007.1186     7008.4823  33.591454  39.560947  -0.000073   0.000064
1 65952U 25228F   26059.23860251  .00004376  00000-0  60310-3 0  9998 | 2 65952  51.8993  44.8883 0000960  84.1602 275.9470 14.79902197 21797 | 2026/02/28-05:43:35  198.9653    0.0963  275.9361   97.3037     7007.7699     7007.0971     7008.4426  36.769822  36.626733  -0.000060   0.000075
1 65952U 25228F   26060.25156477  .00005574  00000-0  75987-3 0  9997 | 2 65952  51.8991  40.4076 0001013  86.4960 273.6118 14.79914009 21949 | 2026/03/01-06:02:15  209.1102    0.0962  273.6002   97.3030     7007.7326     7007.0227     7008.4425  39.518691  33.642082  -0.000061   0.000081
1 65952U 25228F   26061.33204914  .00005885  00000-0  80043-3 0  9991 | 2 65952  51.8989  35.6291 0001040  89.0654 271.0427 14.79926473 22102 | 2026/03/02-07:58:09  243.9278    0.0962  271.0308   97.3021     7007.6932     7006.9644     7008.4220  42.183685  30.232970  -0.000059   0.000086
1 65952U 25228F   26064.10074382  .00006825  00000-0  92272-3 0  9995 | 2 65952  51.9003  23.3867 0001063  95.2819 264.8264 14.79964494 22519 | 2026/03/05-02:25:04  175.6290    0.0962  264.8143   97.2996     7007.5732     7006.8283     7008.3181  47.636524  20.601037  -0.000051   0.000093
1 65952U 25228F   26065.24871664  .00005738  00000-0  78018-3 0  9993 | 2 65952  51.8996  18.3093 0000958  97.4334 262.6737 14.79979895 22682 | 2026/03/06-05:58:09  235.1093    0.0962  262.6628   97.2986     7007.5246     7006.8533     7008.1959  49.272157  16.304081  -0.000042   0.000086
1 65952U 25228F   26066.26162471  .00007657  00000-0  10308-2 0  9994 | 2 65952  51.8998  13.8293 0001039  96.9979 263.1101 14.79996363 22833 | 2026/03/07-06:16:44  245.2337    0.0962  263.0983   97.2975     7007.4726     7006.7445     7008.2007  50.395337  12.405612  -0.000037   0.000097
1 65952U 25228F   26067.27452151  .00008976  00000-0  12026-2 0  9997 | 2 65952  51.9000   9.3499 0001079  96.5900 263.5185 14.80013922 22985 | 2026/03/08-06:35:18  255.3538    0.0962  263.5062   97.2964     7007.4172     7006.6611     7008.1733  51.210488   8.431842  -0.000030   0.000104
1 65952U 25228F   26069.16534678 -.00004729  00000-0 -59165-3 0  9992 | 2 65952  51.9006   0.9899 0000701 108.5669 251.5369 14.79935576 23268 | 2026/03/10-03:58:05  226.2793    0.0962  251.5293   97.3015     7007.6645     7007.1733     7008.1557  51.892854   0.896643  -0.000023   0.000066
1 65952U 25228F   26070.17829866  .00005763  00000-0  78423-3 0  9996 | 2 65952  51.8991 356.5107 0000677  93.3382 266.7658 14.79936815 23410 | 2026/03/11-04:16:45  236.4194    0.0963  266.7581   97.3015     7007.6606     7007.1862     7008.1350  51.802889  -3.158690   0.000000   0.000068
1 65952U 25228F   26071.79901798  .00000906  00000-0  14781-3 0  9991 | 2 65952  51.9001 349.3441 0000370  89.0156 271.0849 14.79928489 23650 | 2026/03/12-19:10:35  108.6459    0.0963  271.0807   97.3020     7007.6869     7007.4276     7007.9462  51.005104  -9.596861   0.000007   0.000036
1 65952U 25228F   26072.94703788  .00001177  00000-0  18348-3 0  9992 | 2 65952  51.8994 344.2672 0000717  87.0688 273.0357 14.79919613 23827 | 2026/03/13-22:43:44  168.1375    0.0963  273.0275   97.3026     7007.7149     7007.2124     7008.2173  49.955076 -14.072601   0.000023   0.000068
1 65952U 25228F   26074.02752662 -.00006897  00000-0 -87680-3 0  9999 | 2 65952  51.8976 339.4905 0000885  88.2401 271.8663 14.79924418 23986 | 2026/03/15-00:39:38  202.9532    0.0963  271.8562   97.3023     7007.6997     7007.0795     7008.3199  48.608024 -18.182982   0.000034   0.000082
1 65952U 25228F   26075.98591994  .00003294  00000-0  46106-3 0  9998 | 2 65952  51.9005 330.8295 0000732 105.9890 254.1153 14.79921905 24276 | 2026/03/16-23:39:43  198.5682    0.0962  254.1072   97.3024     7007.7077     7007.1947     7008.2206  45.318123 -25.296831   0.000017   0.000071
