# SPACE DATA - HISTORICAL TLEs
# ----------------------------
# NORAD_ID    : 65957
# OBJECT_NAME : KUIPER-00128
# --------------------------------------------------------------------+-----------------------------------------------------------------------+----------------------------------------------------------------------------------------------------------------------------------------
#                  LINE 1                                             |                 LINE 2                                                |      DERIVED PARAMETERS
# --------------------------------------------------------------------+-----------------------------------------------------------------------+----------------------------------------------------------------------------------------------------------------------------------------
# NORAD  COSPAR     TLE_EPOCH      MEANMOT1 MEANMOT2   BSTAR  #  REV  |   NORAD    INC     RAAN     ECC    ARGPER  MEANANOM   MEANMOT     REV |  CAL_DATE              LONG     ARGLAT     PERIOD        SMA         PERIGEE        APOGEE      INC_X      INC_Y      ECC_X      ECC_Y
# ------ ------   -------------- ----------  -------  ------- -- ----     -----  ------- -------- ------- -------- -------- -----------  ----   ------------------- ---------  --------  --------  ------------  ------------   ----------- ---------- ----------  ---------  ---------   
1 65958U 25228M   25295.58337963 -.00007501  00000-0 -21076-3 0  9993 | 2 65958  51.8794 266.9917 0005951 163.3877  49.7570 15.34380905  2343 | 2025/10/22-14:00:04  121.1355  213.1968   49.8091   93.8489     6840.8970     6836.8260     6844.9680  -2.722663 -51.807907   0.000200   0.000561
1 65958U 25228M   25296.66671295  .00034200  00000-0  10175-2 0  9993 | 2 65958  51.8803 261.7770 0006063 168.1735 272.9345 15.34395231  2512 | 2025/10/23-16:00:03  289.4547   81.0386  272.8651   93.8480     6840.8544     6836.7068     6845.0020  -7.420244 -51.346913   0.000208   0.000570
1 65958U 25228M   25297.75002315  .00083294  00000-0  24440-2 0  9992 | 2 65958  51.8806 256.5624 0006185 170.1718 138.9438 15.34421949  2671 | 2025/10/24-18:00:02   97.7211  309.1621  138.9903   93.8464     6840.7750     6836.5440     6845.0060 -12.056337 -50.460295   0.000244   0.000568
1 65958U 25228M   25298.86640774  .00041875  00000-0  12374-2 0  9994 | 2 65958  51.8808 251.1900 0006083 174.2816 185.8240 15.34514912  3061 | 2025/10/25-20:47:37   95.1023    0.0985  185.8169   93.8407     6840.4987     6836.3376     6844.6598 -16.727974 -49.110002   0.000253   0.000553
1 65958U 25228M   25299.90841171  .00028941  00000-0  85911-3 0  9991 | 2 65958  51.8806 246.1728 0006138 177.1229 182.9793 15.34551335  3221 | 2025/10/26-21:48:06  116.2714    0.0985  182.9756   93.8385     6840.3905     6836.1918     6844.5891 -20.958705 -47.458712   0.000276   0.000548
1 65958U 25228M   25301.53649731  .00034483  00000-0  10189-2 0  9994 | 2 65958  51.8799 238.3362 0005942 182.8305 177.2648 15.34607607  3476 | 2025/10/28-12:52:33  351.8304    0.0985  177.2680   93.8351     6840.2233     6836.1588     6844.2877 -27.233523 -44.157210   0.000287   0.000521
1 65958U 25228M   25302.90402260  .00040526  00000-0  11918-2 0  9996 | 2 65958  51.8783 231.7520 0005318 193.8226 166.2614 15.34683626  3682 | 2025/10/29-21:41:47  132.0829    0.0985  166.2759   93.8304     6839.9974     6836.3599     6843.6349 -32.116119 -40.742028   0.000220   0.000484
1 65958U 25228M   25304.20641938  .00040123  00000-0  11787-2 0  9995 | 2 65958  51.8788 225.4820 0006311 190.1636 169.9224 15.34717358  3888 | 2025/10/31-04:57:14  248.4975    0.0986  169.9350   93.8284     6839.8971     6835.5805     6844.2138 -36.373954 -36.991152   0.000356   0.000521
1 65958U 25228M   25305.24819701  .00367958  00000-0  10095-1 0  9993 | 2 65958  51.8802 220.4645 0006173 235.5986 124.4417 15.35235036  4041 | 2025/11/01-05:57:24  269.6274    0.0986  124.5000   93.7967     6838.3595     6834.1381     6842.5808 -39.470882 -33.669045  -0.000065   0.000614
1 65958U 25228M   25307.78774144  .00018478  00000-0  54852-3 0  9996 | 2 65958  51.8805 208.2343 0005808 204.4104 155.6608 15.34829048  4436 | 2025/11/03-18:54:20  118.5658    0.0986  155.6882   93.8215     6839.5653     6835.5929     6843.5377 -45.707779 -24.543537   0.000352   0.000462
1 65958U 25228M   25308.82952588  .00024488  00000-0  72171-3 0  9994 | 2 65958  51.8803 203.2171 0005776 208.5021 151.5650 15.34873119  4592 | 2025/11/04-19:54:31  139.6564    0.0986  151.5965   93.8188     6839.4344     6835.4839     6843.3848 -47.678915 -20.452055   0.000358   0.000453
1 65958U 25228M   25309.93639946  .00020592  00000-0  60843-3 0  9992 | 2 65958  51.8796 197.8863 0005701 211.8846 148.1795 15.34900322  4767 | 2025/11/05-22:28:24  184.5556    0.0985  148.2139   93.8172     6839.3536     6835.4545     6843.2527 -49.372148 -15.933733   0.000368   0.000435
1 65958U 25228M   25311.16670139  .00054770  00000-0  15915-2 0  9993 | 2 65958  51.8778 191.9620 0005589 217.1805 105.5299 15.34924905  4737 | 2025/11/07-04:00:03  311.9550  322.7721  105.5916   93.8157     6839.2806     6835.4581     6843.1030 -50.751288 -10.752344   0.000366   0.000423
1 65958U 25228M   25314.91667824  .00028750  00000-0  83948-3 0  9997 | 2 65958  51.8786 173.8954 0005505 231.8712 306.7721 15.35077749  5319 | 2025/11/10-22:00:00   27.7765  178.5927  306.7215   93.8063     6838.8266     6835.0618     6842.5913 -51.584418   5.516973   0.000384   0.000394
1 65958U 25228M   25316.57696355  .00080982  00000-0  23183-2 0  9991 | 2 65958  51.8757 165.8946 0004293 228.5642 131.4975 15.35220320  5787 | 2025/11/12-13:50:49   93.6981    0.0985  131.5343   93.7976     6838.4032     6835.4674     6841.3389 -50.311598  12.642441   0.000354   0.000243
1 65958U 25228M   25319.24579338  .00035464  00000-0  10237-2 0  9990 | 2 65958  51.8777 153.0329 0005741 248.5236 111.5138 15.35329169  6190 | 2025/11/15-05:53:56  349.9933    0.0986  111.5750   93.7910     6838.0799     6834.1542     6842.0057 -46.236885  23.525437   0.000430   0.000381
1 65958U 25228M   25320.54762316  .00042960  00000-0  12364-2 0  9997 | 2 65958  51.8706 146.7586 0004860 246.0018 114.0459 15.35337050  6392 | 2025/11/16-13:08:34  106.1992    0.0985  114.0967   93.7905     6838.0565     6834.7333     6841.3798 -43.382933  28.433787   0.000409   0.000263
1 65958U 25228M   25321.78434249  .00039273  00000-0  11305-2 0  9992 | 2 65958  51.8767 140.7957 0005687 255.0726 104.9630 15.35370488  6581 | 2025/11/17-18:49:27  198.6121    0.0985  105.0259   93.7884     6837.9573     6834.0685     6841.8460 -40.199102  32.790612   0.000461   0.000333
1 65958U 25228M   25322.89085317  .00044658  00000-0  12806-2 0  9993 | 2 65958  51.8754 135.4611 0004756 258.4678 101.5774 15.35436149  6752 | 2025/11/18-21:22:49  243.3716    0.0986  101.6308   93.7844     6837.7623     6834.5103     6841.0144 -36.975458  36.385061   0.000395   0.000265
1 65958U 25228M   25324.84344736  .00041970  00000-0  12024-2 0  9999 | 2 65958  51.8777 126.0488 0004974 271.6875  88.3541 15.35491324  7057 | 2025/11/20-20:14:33  237.6460    0.0986   88.4111   93.7811     6837.5985     6834.1975     6840.9995 -30.528683  41.943954   0.000393   0.000304
1 65958U 25228M   25326.73087178  .00037172  00000-0  10653-2 0  9998 | 2 65958  51.8780 116.9481 0005740 276.8817  83.1516 15.35535002  7346 | 2025/11/22-17:32:27  208.0881    0.0986   83.2169   93.7784     6837.4689     6833.5441     6841.3936 -23.510239  46.244952   0.000477   0.000320
1 65958U 25228M   25328.42298698  .00050310  00000-0  14319-2 0  9999 | 2 65958  51.8782 108.7913 0005694 281.5170  78.5176 15.35612348  7608 | 2025/11/24-10:09:06  107.0729    0.0986   78.5816   93.7737     6837.2393     6833.3461     6841.1324 -16.711107  49.112998   0.000492   0.000287
1 65958U 25228M   25329.65949080  .00062410  00000-0  17688-2 0  9999 | 2 65958  51.8790 102.8300 0005753 288.8231  71.2131 15.35647831  7792 | 2025/11/25-15:49:40  199.3927    0.0986   71.2755   93.7715     6837.1339     6833.2005     6841.0673 -11.520202  50.583748   0.000490   0.000302
1 65958U 25228M   25331.16670139  .00065042  00000-0  18410-2 0  9992 | 2 65958  51.8790  95.5604 0006046 294.3716 123.4666 15.35668568  5075 | 2025/11/27-04:00:03  332.9417   57.8960  123.5244   93.7702     6837.0724     6832.9387     6841.2061  -5.026817  51.634889   0.000524   0.000302
1 65958U 25228M   25332.58788074  .00035737  00000-0  10170-2 0  9990 | 2 65958  51.8802  88.7070 0006123 303.1053  56.9345 15.35771293  8245 | 2025/11/28-14:06:32  190.6189    0.0986   56.9933   93.7640     6836.7675     6832.5813     6840.9537   1.170687  51.866990   0.000520   0.000323
1 65958U 25228M   25334.16671295  .00076975  00000-0  21651-2 0  9997 | 2 65958  51.8788  81.0904 0006019 308.9293 145.8416 15.35787852  5537 | 2025/11/30-04:00:03  313.4401   94.8096  145.8803   93.7630     6836.7184     6832.6033     6840.8334   8.034777  51.252827   0.000521   0.000301
1 65958U 25228M   25335.45096541  .00047493  00000-0  13401-2 0  9992 | 2 65958  51.8789  74.8965 0005856 312.1959  47.8530 15.35908124  8683 | 2025/12/01-10:49:23  157.9527    0.0987   47.9028   93.7556     6836.3614     6832.3581     6840.3648  13.517747  50.086832   0.000521   0.000267
1 65958U 25228M   25336.49202993  .00023057  00000-0  65772-3 0  9996 | 2 65958  51.8792  69.8743 0006086 319.5401  40.5132 15.35933610  8848 | 2025/12/02-11:48:31  178.7799    0.0986   40.5585   93.7541     6836.2858     6832.1253     6840.4464  17.850641  48.711457   0.000530   0.000299
1 65958U 25228M   25338.24873470  .00083296  00000-0  23180-2 0  9992 | 2 65958  51.8802  61.3980 0005966 327.1752  32.8863 15.36083544  9119 | 2025/12/04-05:58:10  101.3932    0.0986   32.9234   93.7449     6835.8410     6831.7627     6839.9192  24.836219  45.549065   0.000524   0.000285
1 65958U 25228M   25339.48484708  .00073754  00000-0  20546-2 0  9992 | 2 65958  51.8821  55.4348 0005941 329.0905  30.9731 15.36109808  9302 | 2025/12/05-11:38:10  193.5731    0.0987   31.0082   93.7433     6835.7630     6831.7019     6839.8242  29.434982  42.723929   0.000540   0.000247
1 65958U 25228M   25340.66670139  .00092631  00000-0  25730-2 0  9994 | 2 65958  51.8803  49.7333 0006082 338.7509  81.0911 15.36087876  5747 | 2025/12/06-16:00:03  206.1287   59.9109   81.1600   93.7446     6835.8281     6831.6706     6839.9857  33.532646  39.586957   0.000535   0.000290
1 65958U 25228M   25341.89194795  .00061482  00000-0  17109-2 0  9990 | 2 65958  51.8790  43.8182 0006000 343.8549  16.2246 15.36225387  9678 | 2025/12/07-21:24:24  354.1027    0.0987   16.2438   93.7362     6835.4202     6831.3189     6839.5214  37.432791  35.919588   0.000531   0.000279
1 65958U 25228M   25343.19298653  .00041899  00000-0  11697-2 0  9999 | 2 65958  51.8800  37.5395 0005925 350.5342   9.5532 15.36298346  9877 | 2025/12/09-04:37:54  110.0297    0.0987    9.5645   93.7318     6835.2038     6831.1539     6839.2536  41.137388  31.610911   0.000523   0.000279
1 65958U 25228M   25344.55904035  .00030219  00000-0  84764-3 0  9998 | 2 65958  51.8802  30.9455 0007075 349.3271  10.7564 15.36301210 10087 | 2025/12/10-13:25:01  249.7535    0.0986   10.7715   93.7316     6835.1953     6830.3594     6840.0312  44.495407  26.677966   0.000664   0.000245
1 65958U 25228M   25346.83599615  .00083753  00000-0  23260-2 0  9999 | 2 65958  51.8812  19.9563 0008901  10.3913 349.7255 15.36123491 10436 | 2025/12/12-20:03:50    2.6577    0.0986  349.7073   93.7425     6835.7225     6829.6380     6841.8069  48.765900  17.707226   0.000768   0.000450
1 65958U 25228M   25347.91667824 -.00170379  00000-0 -52945-2 0  9992 | 2 65958  51.8818  14.7561 0005741   9.0904 205.2267 15.33453469  3021 | 2025/12/13-22:00:00  183.7684  214.2891  205.1987   93.9057     6843.6550     6839.7260     6847.5839  50.170677  13.214549   0.000525   0.000232
1 65958U 25228M   25348.91668981 -.01346500  00000-0 -46352-1 0  9994 | 2 65958  51.8824   9.9570 0005403  22.0806 314.4315 15.32481741  3171 | 2025/12/14-22:00:01   67.3623  336.4679  314.3873   93.9652     6846.5477     6842.8485     6850.2468  51.100937   8.970936   0.000458   0.000287
1 65958U 25228M   25350.33337963 -.00223708  00000-0 -78119-2 0  9996 | 2 65958  51.8828   3.1768 0005595  21.6097 209.1407 15.29972383  3398 | 2025/12/16-08:00:04  331.3089  230.7192  209.1095   94.1193     6854.0318     6850.1969     6857.8666  51.803071   2.875200   0.000508   0.000235
1 65958U 25228M   25351.33339120 -.00696833  00000-0 -25964-1 0  9996 | 2 65958  51.8826 358.4009 0005390  19.0225 321.9367 15.29481663  3559 | 2025/12/17-08:00:04  226.8658  340.9211  321.8986   94.1495     6855.4977     6851.8026     6859.1928  51.862395  -1.447833   0.000514   0.000161
1 65958U 25228M   25352.66667824 -.00953701  00000-0 -36642-1 0  9993 | 2 65958  51.8819 352.0447 0006196  27.0734  94.7925 15.28452749  3755 | 2025/12/18-16:00:00  213.6128  121.9366   94.8632   94.2129     6858.5740     6854.3244     6862.8236  51.382606  -7.180480   0.000585   0.000203
1 65958U 25228M   25353.66670139 -.00031642  00000-0 -12113-2 0  9996 | 2 65958  51.8826 347.2822 0005784  19.5568 205.1120 15.25820771  3902 | 2025/12/19-16:00:03  116.5664  224.6407  205.0839   94.3754     6866.4589     6862.4874     6870.4305  50.609723 -11.421916   0.000574   0.000069
1 65958U 25228M   25354.83335647 -.00276593  00000-0 -11787-1 0  9999 | 2 65958  51.8833 341.7501 0005074  28.5999 125.3029 15.23671848  4081 | 2025/12/20-20:00:01  254.0102  153.9502  125.3503   94.5085     6872.9135     6869.4262     6876.4008  49.273553 -16.247886   0.000499   0.000091
1 65958U 25228M   25356.16668980 -.00021075  00000-0 -87932-3 0  9996 | 2 65958  51.8839 335.4477 0004857  32.4146 236.7592 15.22729399  4294 | 2025/12/22-04:00:01  266.3558  269.1273  236.7127   94.5670     6875.7491     6872.4095     6879.0886  47.192680 -21.558990   0.000481   0.000066
1 65958U 25228M   25357.33336806 -.01064366  00000-0 -50604-1 0  9990 | 2 65958  51.8833 329.9395 0004471  43.8781 142.7377 15.21723660  4479 | 2025/12/23-08:00:03   55.5761  186.6468  142.7687   94.6295     6878.7783     6875.7028     6881.8538  44.904838 -25.989081   0.000434   0.000107
1 65958U 25228M   25358.83334491 -.01117382  00000-0 -56754-1 0  9993 | 2 65958  51.8835 322.8769 0002781  41.0327  80.3577 15.19159946  4708 | 2025/12/24-20:00:01  309.3342  121.4218   80.3891   94.7892     6886.5151     6884.6000     6888.4303  41.368825 -31.313223   0.000277   0.000019
1 65958U 25228M   25359.83335647 -.01372327  00000-0 -72831-1 0  9994 | 2 65958  51.8832 318.1826 0002643  35.2100 155.9165 15.17771564  4850 | 2025/12/25-20:00:01  245.2823  191.1389  155.9289   94.8759     6890.7141     6888.8929     6892.5354  38.667177 -34.593582   0.000263  -0.000030
1 65958U 25228M   25361.00003472 -.01120996  00000-0 -61938-1 0  9993 | 2 65958  51.8865 312.7217 0003030  59.2877  25.8943 15.16256825  5035 | 2025/12/27-00:00:02   57.8418   85.1972   25.9095   94.9707     6895.3026     6893.2133     6897.3919  35.201771 -38.118817   0.000296   0.000063
1 65958U 25228M   25362.16668980 -.01014843  00000-0 -59534-1 0  9994 | 2 65958  51.8873 307.2745 0002511  55.5857 276.6989 15.14347266  5213 | 2025/12/28-04:00:01  237.3321  332.2560  276.6703   95.0905     6901.0979     6899.3651     6902.8308  31.424729 -41.288961   0.000251   0.000013
1 65958U 25228M   25363.33335648 -.01142149  00000-0 -70528-1 0  9993 | 2 65958  51.8836 301.8418 0002181  30.0755 182.0606 15.12399605  5394 | 2025/12/29-08:00:01   64.0632  212.1352  182.0597   95.2129     6907.0214     6905.5150     6908.5279  27.372526 -44.075535   0.000192  -0.000103
1 65958U 25228M   25364.58335648  .00026565  00000-0  16275-2 0  9991 | 2 65958  51.8850 296.0336 0001946  42.0929 135.8856 15.09993752  5581 | 2025/12/30-14:00:01  195.2611  177.9940  135.9011   95.3646     6914.3561     6913.0105     6915.7016  22.772231 -46.620583   0.000181  -0.000072
1 65958U 25228M   26001.00003472 -.01407812  00000-0 -96178-1 0  9994 | 2 65958  51.8869 289.4762 0001558  50.4384 270.4382 15.08916153  5801 | 2026/01/01-00:00:02  210.3209  320.8587  270.4203   95.4327     6917.6476     6916.5699     6918.7254  17.299885 -48.917935   0.000146  -0.000054
1 65958U 25228M   26002.16668980 -.00384355  00000-0 -27192-1 0  9998 | 2 65958  51.9016 284.0902 0002130  45.0683 132.1594 15.06397283  5525 | 2026/01/02-04:00:01   60.5015  177.2458  132.1775   95.5923     6925.3569     6923.8818     6926.8320  12.635399 -50.340071   0.000183  -0.000109
1 65958U 25228M   26003.33336806 -.01239205  00000-0 -92113-1 0  9996 | 2 65958  51.8874 278.7204 0001288  40.8927 344.8046 15.05439825  5700 | 2026/01/03-08:00:03  278.5558   25.6934  344.8007   95.6531     6928.2929     6927.4006     6929.1853   7.866792 -51.287580   0.000098  -0.000083
1 65958U 25228M   26004.50003471  .00006292  00000-0  47867-3 0  9998 | 2 65958  51.8899 273.3609 0001445  43.5543 183.3590 15.03265115  5882 | 2026/01/04-12:00:02  143.8493  226.9123  183.3580   95.7915     6934.9732     6933.9711     6935.9753   3.042053 -51.800653   0.000106  -0.000099
1 65958U 25228M   26005.66668981 -.00863734  00000-0 -67420-1 0  9998 | 2 65958  51.9149 268.0098 0002003  60.9626   3.3956 15.03517715  5423 | 2026/01/05-16:00:01   12.9012   64.3596    3.3970   95.7754     6934.1965     6932.8075     6935.5854  -1.802930 -51.883584   0.000172  -0.000103
1 65958U 25228M   26007.00003472 -.01717224  00000-0 -14590+0 0  9997 | 2 65958  51.8912 261.9094 0002080  91.1995 348.3625 15.00962964  5622 | 2026/01/07-00:00:02  125.1162   79.5572  348.3577   95.9384     6942.0626     6940.6186     6943.5065  -7.303106 -51.374714   0.000206  -0.000025
1 65958U 25228M   26008.16668980 -.01582388  00000-0 -14316+0 0  9993 | 2 65958  51.8928 256.5916 0001522  31.8811 229.4321 14.98298160  5808 | 2026/01/08-04:00:01    9.8285  261.3000  229.4189   96.1090     6950.2914     6949.2335     6951.3492 -12.033448 -50.478300   0.000048  -0.000144
1 65958U 25228M   26009.33336806 -.00071110  00000-0 -64349-2 0  9991 | 2 65958  51.8936 251.2938 0002001  89.2397 343.1359 14.95262491  5947 | 2026/01/09-08:00:03  265.2180   72.3689  343.1292   96.3042     6959.6951     6958.3025     6961.0878 -16.643081 -49.152351   0.000189  -0.000067
1 65958U 25228M   26011.00002315  .00000190  00000-0  41941-4 0  9996 | 2 65958  51.8957 243.7562 0002055  85.5687 319.7209 14.92863222  4824 | 2026/01/11-00:00:02  181.4802   45.2744  319.7057   96.4589     6967.1500     6965.7183     6968.5818 -22.947845 -46.546322   0.000177  -0.000105
1 65958U 25228M   26012.00003472  .00023887  00000-0  23151-2 0  9991 | 2 65958  51.8959 239.2456 0001306  68.6134 313.8683 14.92567508  4970 | 2026/01/12-00:00:02  209.7885   22.4709  313.8575   96.4780     6968.0702     6967.1602     6968.9803 -26.537440 -44.597631   0.000080  -0.000103
1 65958U 25228M   26013.16672453  .00000871  00000-0  10759-3 0  9999 | 2 65958  51.8953 233.9822 0001306  68.4286 106.8821 14.92593992  5159 | 2026/01/13-04:00:04  123.3812  175.3250  106.8964   96.4763     6967.9878     6967.0778     6968.8978 -30.516334 -41.974701   0.000070  -0.000110
1 65958U 25228M   26014.25002315 -.00071671  00000-0 -73251-2 0  9997 | 2 65958  51.8963 229.0993 0000713 243.5349 354.9002 14.90460284  5312 | 2026/01/14-06:00:02   96.1949  238.4344  354.8995   96.6144     6974.6364     6974.1391     6975.1336 -33.979105 -39.225583  -0.000027   0.000066
1 65958U 25228M   26015.50002314  .00009102  00000-0  10235-2 0  9996 | 2 65958  51.8974 223.4890 0002122 134.7301 331.4855 14.87303003  5501 | 2026/01/15-12:00:01  325.2568  106.2040  331.4739   96.8195     6984.5035     6983.0214     6985.9856 -37.651902 -35.716585   0.000212  -0.000007
1 65958U 25228M   26016.58336806 -.00020033  00000-0 -23222-2 0  9999 | 2 65958  51.8987 218.6501 0001232 149.5407 358.9511 14.84714553  5676 | 2026/01/16-14:00:03  318.8915  148.4915  358.9508   96.9883     6992.6190     6991.7575     6993.4805 -40.531569 -32.413994   0.000122   0.000018
1 65958U 25228M   26017.91670139  .00016544  00000-0  20167-2 0  9992 | 2 65958  51.8978 212.7216 0000909  62.3909  14.1159 14.83459091  5876 | 2026/01/17-22:00:03  158.1192   76.5093   14.1184   97.0704     6996.5637     6995.9277     6997.1997 -43.661985 -28.053746   0.000008  -0.000091
1 65958U 25228M   26019.25002315 -.00019498  00000-0 -23607-2 0  9991 | 2 65958  51.8985 206.7947 0000592 181.2633 178.9273 14.82909069  5837 | 2026/01/19-06:00:02    1.6723    0.1907  178.9274   97.1064     6998.2936     6997.8793     6998.7079 -46.326029 -23.395583   0.000052   0.000028
1 65958U 25228M   26020.91668981  .00028364  00000-0  35472-2 0  9996 | 2 65958  51.8980 199.3937 0001479 106.6074 154.4689 14.82083592  5781 | 2026/01/20-22:00:01  349.8303  261.0836  154.4762   97.1605     7000.8920     6999.8565     7001.9274 -48.953265 -17.233116   0.000087  -0.000120
1 65958U 25228M   26022.25003472 -.00006335  00000-0 -77376-3 0  9999 | 2 65958  51.8986 193.4783 0001182  53.6130 124.8875 14.81452575  5852 | 2026/01/22-06:00:02  199.6399  178.5116  124.8986   97.2019     7002.8798     7002.0521     7003.7075 -50.469223 -12.096374  -0.000046  -0.000109
1 65958U 25228M   26023.58335648 -.00036851  00000-0 -47209-2 0  9996 | 2 65958  51.8983 187.5717 0000709  83.7399   8.8790 14.80900678  5550 | 2026/01/23-14:00:01   52.7381   92.6202    8.8803   97.2381     7004.6196     7004.1229     7005.1162 -51.445785  -6.838472   0.000002  -0.000071
1 65958U 25228M   26025.00004630 -.00022343  00000-0 -28929-2 0  9998 | 2 65958  51.8981 181.2988 0000737  33.9345  54.9165 14.80200443  5773 | 2026/01/25-00:00:04  214.1836   88.8579   54.9234   97.2841     7006.8285     7006.3121     7007.3449 -51.884767  -1.176343  -0.000060  -0.000043
1 65958U 25228M   26026.25002315  .00037725  00000-0  49573-2 0  9990 | 2 65958  51.8987 175.7700 0001806 125.1810 147.7188 14.79869284  5866 | 2026/01/26-06:00:02  126.8873  272.9109  147.7299   97.3059     7007.8738     7006.6082     7009.1394 -51.757328   3.828068   0.000093  -0.000155
1 65958U 25228M   26027.50002314 -.00018588  00000-0 -24110-2 0  9996 | 2 65958  51.8988 170.2430 0001386 121.0517 335.6452 14.80017831  5608 | 2026/01/27-12:00:01   39.8493   96.6903  335.6386   97.2961     7007.4049     7006.4336     7008.3761 -51.148103   8.795285   0.000050  -0.000129
1 65958U 25228M   26028.89997215 -.00013890  00000-0 -17952-2 0  9999 | 2 65958  51.8985 164.0487 0001582 144.2742 215.8326 14.79966484 17510 | 2026/01/28-21:35:57  287.9952    0.0962  215.8220   97.2995     7007.5669     7006.4583     7008.6755 -49.900181  14.262757   0.000098  -0.000124
1 65958U 25228M   26030.31809679  .00000125  00000-0  45445-4 0  9990 | 2 65958  51.8984 157.7813 0000958 105.4432 254.6636 14.79940966 17727 | 2026/01/30-07:38:03   86.1852    0.0962  254.6530   97.3012     7007.6475     7006.9761     7008.3188 -48.044799  19.625014  -0.000011  -0.000095
1 65958U 25228M   26031.33104170  .00004631  00000-0  63590-3 0  9993 | 2 65958  51.8996 153.3010 0000821 107.8009 252.3043 14.79942535 17873 | 2026/01/31-07:56:42   96.3257    0.0962  252.2953   97.3011     7007.6425     7007.0672     7008.2179 -46.366025  23.318667  -0.000013  -0.000081
1 65958U 25228M   26032.47903190  .00004571  00000-0  62779-3 0  9999 | 2 65958  51.9002 148.2249 0000813 102.8414 257.2639 14.79955987 18045 | 2026/02/01-11:29:48  155.8097    0.0962  257.2548   97.3002     7007.6001     7007.0303     7008.1698 -44.121482  27.329939  -0.000026  -0.000077
1 65958U 25228M   26033.49195639  .00004889  00000-0  66929-3 0  9996 | 2 65958  51.9003 143.7463 0000727 102.4232 257.6812 14.79967883 18193 | 2026/02/02-11:48:25  165.9404    0.0963  257.6731   97.2994     7007.5625     7007.0531     7008.0720 -41.852735  30.691851  -0.000029  -0.000067
1 65958U 25228M   26034.50488614 -.00003387  00000-0 -41532-3 0  9994 | 2 65958  51.9010 139.2671 0000863  11.3611 348.7371 14.79950600 18340 | 2026/02/03-12:07:02  176.0789    0.0963  348.7352   97.3005     7007.6171     7007.0123     7008.2218 -39.328490  33.867148  -0.000075   0.000042
1 65958U 25228M   26035.51783773 -.00004919  00000-0 -61690-3 0  9999 | 2 65958  51.9018 134.7817 0000786 127.7550 232.3484 14.79923790 18497 | 2026/02/04-12:25:41  186.2201    0.0963  232.3413   97.3023     7007.7017     7007.1509     7008.2525 -36.560019  36.839677  -0.000010  -0.000078
1 65958U 25228M   26036.53079119  .00004518  00000-0  62126-3 0  9992 | 2 65958  51.8980 130.3037 0000801 102.0312 258.0740 14.79932627 18646 | 2026/02/05-12:44:20  196.3579    0.0962  258.0650   97.3017     7007.6738     7007.1125     7008.2351 -33.569652  39.578793  -0.000049  -0.000063
1 65958U 25228M   26037.54373362  .00007163  00000-0  96724-3 0  9991 | 2 65958  51.8998 125.8291 0000730  90.9667 269.1379 14.79947508 18796 | 2026/02/06-13:02:58  206.4908    0.0962  269.1295   97.3007     7007.6268     7007.1153     7008.1384 -30.380562  42.078625  -0.000058  -0.000044
1 65958U 25228M   26039.50205668  .00005834  00000-0  79288-3 0  9991 | 2 65958  51.8999 117.1691 0000696  94.8444 265.2597 14.79972707 19083 | 2026/02/08-12:02:57  202.0778    0.0962  265.2518   97.2991     7007.5473     7007.0596     7008.0350 -23.698439  46.173408  -0.000059  -0.000037
1 65958U 25228M   26041.39289522 -.00004597  00000-0 -57420-3 0  9993 | 2 65958  51.9009 108.8102 0006017 358.4800   1.6143 14.79921325 19368 | 2026/02/10-09:25:46  173.0121    0.0962    1.6162   97.3025     7007.7095     7003.4929     7011.9260 -16.734626  49.128970  -0.000179   0.000575
1 65958U 25228M   26042.47338667  .00001336  00000-0  20443-3 0  9999 | 2 65958  51.8997 104.0298 0003013   8.8913 351.2103 14.79909429 19520 | 2026/02/11-11:21:40  207.8271    0.0963  351.2050   97.3033     7007.7470     7005.6356     7009.8585 -12.581864  50.351520  -0.000117   0.000278
1 65958U 25228M   26043.48634071  .00004449  00000-0  61241-3 0  9998 | 2 65958  51.9008  99.5499 0000603  93.0637 267.0394 14.79917036 19671 | 2026/02/12-11:40:19  217.9674    0.0962  267.0325   97.3028     7007.7230     7007.3005     7008.1456  -8.610681  51.181532  -0.000059  -0.000013
1 65958U 25228M   26044.49929277  .00004574  00000-0  62871-3 0  9994 | 2 65958  51.8999  95.0721 0000614  88.1868 271.9164 14.79927759 19820 | 2026/02/13-11:58:58  228.1062    0.0962  271.9094   97.3020     7007.6892     7007.2589     7008.1194  -4.588432  51.696672  -0.000061  -0.000003
1 65958U 25228M   26046.12002473 -.00002885  00000-0 -34975-3 0  9995 | 2 65958  51.8989  87.9068 0000578  36.4637 323.6365 14.79911093 20062 | 2026/02/15-02:52:50  100.3355    0.0963  323.6326   97.3031     7007.7418     7007.3367     7008.1468   1.895613  51.864270  -0.000033   0.000048
1 65958U 25228M   26047.13298339  .00003890  00000-0  53921-3 0  9992 | 2 65958  51.9016  83.4275 0000586  80.7139 279.3890 14.79917904 20217 | 2026/02/16-03:11:29  110.4756    0.0963  279.3824   97.3027     7007.7203     7007.3096     7008.1309   5.940675  51.560493  -0.000056   0.000016
1 65958U 25228M   26048.28102130 -.00000376  00000-0 -20385-4 0  9999 | 2 65958  51.9000  78.3497 0000662  68.7614 291.3419 14.79899160 20380 | 2026/02/17-06:44:40  169.9782    0.0962  291.3348   97.3039     7007.7795     7007.3155     7008.2434  10.480573  50.830774  -0.000056   0.000036
1 65958U 25228M   26049.29399129  .00000533  00000-0  98938-4 0  9999 | 2 65958  51.8998  73.8702 0000690  72.3153 287.7885 14.79902293 20539 | 2026/02/18-07:03:20  180.1249    0.0963  287.7810   97.3037     7007.7696     7007.2860     7008.2531  14.418508  49.856754  -0.000057   0.000038
1 65958U 25228M   26050.44202296  .00003702  00000-0  51467-3 0  9992 | 2 65958  51.8997  68.7941 0000790  45.5957 314.5070 14.79906749 20705 | 2026/02/19-10:36:30  239.6250    0.0962  314.5005   97.3034     7007.7555     7007.2019     7008.3091  18.773189  48.385393  -0.000033   0.000072
1 65958U 25228M   26052.06275931  .00003850  00000-0  53395-3 0  9994 | 2 65958  51.9001  61.6272 0000836  52.4145 307.6893 14.79917627 20947 | 2026/02/21-01:30:22  111.8534    0.0962  307.6817   97.3027     7007.7212     7007.1353     7008.3070  24.663268  45.665562  -0.000034   0.000076
1 65958U 25228M   26053.68348137  .00004437  00000-0  61067-3 0  9999 | 2 65958  51.9002  54.4597 0000882  59.7652 300.3397 14.79931785 21189 | 2026/02/22-16:24:12  344.0772    0.0962  300.3310   97.3018     7007.6765     7007.0584     7008.2945  30.168311  42.231549  -0.000036   0.000080
1 65958U 25228M   26055.23665934  .00004217  00000-0  58173-3 0  9999 | 2 65958  51.9006  47.5914 0000944  60.8051 299.3006 14.79944517 21411 | 2026/02/24-05:40:47  191.6196    0.0963  299.2912   97.3009     7007.6363     7006.9748     7008.2978  35.002451  38.321022  -0.000030   0.000090
1 65958U 25228M   26056.24959431  .00003919  00000-0  54255-3 0  9994 | 2 65958  51.9009  43.1122 0000958  62.5109 297.5951 14.79952274 21569 | 2026/02/25-05:59:24  201.7535    0.0963  297.5854   97.3004     7007.6118     7006.9405     7008.2831  37.888527  35.470592  -0.000026   0.000092
1 65958U 25228M   26057.93781568  .00000536  00000-0  99225-4 0  9994 | 2 65958  51.9017  35.6495 0001027  63.9082 296.1986 14.79951902 21818 | 2026/02/26-22:30:27   98.6391    0.0962  296.1880   97.3005     7007.6130     7006.8933     7008.3326  42.175194  30.249620  -0.000017   0.000101
1 65958U 25228M   26058.95075645  .00001631  00000-0  24284-3 0  9998 | 2 65958  51.9035  31.1661 0000935  74.4748 285.6318 14.79945962 21964 | 2026/02/27-22:49:05  108.7798    0.0963  285.6215   97.3008     7007.6317     7006.9765     7008.2869  44.412299  26.861142  -0.000025   0.000090
1 65958U 25228M   26060.09876441  .00000097  00000-0  41753-4 0  9995 | 2 65958  51.9005  26.0910 0001054  79.3901 280.7180 14.79931692 22137 | 2026/03/01-02:22:13  168.2678    0.0962  280.7061   97.3018     7007.6768     7006.9381     7008.4154  46.611666  22.825741  -0.000028   0.000102
1 65958U 25228M   26061.17923588  .00002154  00000-0  31138-3 0  9991 | 2 65958  51.9004  21.3128 0001034  82.2050 277.9030 14.79938797 22293 | 2026/03/02-04:18:05  203.0808    0.0963  277.8913   97.3013     7007.6543     7006.9297     7008.3789  48.350934  18.863686  -0.000024   0.000101
1 65958U 25228M   26063.07007023  .00000415  00000-0  83400-4 0  9997 | 2 65958  51.9031  12.9523 0000871  86.2630 273.8431 14.79933439 22573 | 2026/03/04-01:40:54  174.0073    0.0961  273.8331   97.3017     7007.6712     7007.0609     7008.2816  50.582530  11.633550  -0.000014   0.000086
1 65958U 25228M   26064.15053868  .00007566  00000-0  10199-2 0  9992 | 2 65958  51.9035   8.1765 0000770  80.1546 279.9503 14.79950848 22737 | 2026/03/05-03:36:46  208.8179    0.0962  279.9416   97.3005     7007.6163     7007.0767     7008.1559  51.375883   7.381870   0.000002   0.000077
1 65958U 25228M   26065.23100205 -.00001962  00000-0 -22836-3 0  9998 | 2 65958  51.9050   3.3953 0000502 236.4453 123.6462 14.79940989 22897 | 2026/03/06-05:32:38  243.6442    0.0963  123.6510   97.3012     7007.6474     7007.2956     7007.9992  51.813891   3.074047  -0.000025  -0.000043
1 65958U 25228M   26066.51408619  .00003692  00000-0  51303-3 0  9991 | 2 65958  51.9030 357.7247 0000733  78.8725 281.2320 14.79928378 23087 | 2026/03/07-12:20:17  352.4768    0.0963  281.2238   97.3020     7007.6872     7007.1736     7008.2009  51.862080  -2.060603   0.000017   0.000071
1 65958U 25228M   26067.52703191  .00008280  00000-0  11135-2 0  9992 | 2 65958  51.9020 353.2446 0000722  79.4603 280.6441 14.79943307 23231 | 2026/03/08-12:38:55    2.6158    0.0963  280.6360   97.3010     7007.6401     7007.1341     7008.1460  51.541664  -6.105284   0.000021   0.000069
1 65958U 25228M   26068.94517515 -.00002279  00000-0 -27013-3 0  9999 | 2 65958  51.9026 346.9739 0000775  62.2574 297.8467 14.79909810 23448 | 2026/03/09-22:41:03  160.8162    0.0962  297.8388   97.3032     7007.7458     7007.2027     7008.2889  50.567016 -11.698581   0.000051   0.000059
1 65958U 25228M   26070.16075437 -.00004187  00000-0 -52125-3 0  9990 | 2 65958  51.9032 341.5981 0000374  71.3925 288.7078 14.79877970 23629 | 2026/03/11-03:51:29  245.0025    0.0962  288.7037   97.3053     7007.8464     7007.5843     7008.1084  49.249158 -16.384828   0.000023   0.000030
1 65958U 25228M   26071.71401546  .00004445  00000-0  61258-3 0  9998 | 2 65958  51.9015 334.7327 0001060  67.7604 292.3471 14.79869390 23854 | 2026/03/12-17:08:10   92.5656    0.0963  292.3359   97.3059     7007.8734     7007.1306     7008.6163  46.935892 -22.153730   0.000078   0.000072
1 65958U 25228M   26072.92959243  .00004595  00000-0  63213-3 0  9993 | 2 65958  51.9000 329.3604 0001024  65.5319 294.5750 14.79884295 24031 | 2026/03/13-22:18:36  176.7444    0.0962  294.5643   97.3049     7007.8264     7007.1088     7008.5440  44.654241 -26.450119   0.000084   0.000059
1 65958U 25228M   26073.94256353  .00005426  00000-0  74084-3 0  9990 | 2 65958  51.9000 324.8778 0001002  90.6108 269.4969 14.79898822 24184 | 2026/03/14-22:37:17  186.8942    0.0962  269.4854   97.3039     7007.7805     7007.0783     7008.4827  42.450404 -29.859223   0.000057   0.000083
1 65958U 25228M   26074.95552985  .00003524  00000-0  49134-3 0  9997 | 2 65958  51.9018 320.3997 0001101  86.4076 273.7012 14.79905903 24337 | 2026/03/15-22:55:57  197.0375    0.0962  273.6886   97.3035     7007.7582     7006.9866     7008.5297  39.990851 -33.083662   0.000075   0.000080
1 65958U 25228M   26075.96849008  .00003319  00000-0  46440-3 0  9993 | 2 65958  51.9016 315.9206 0001140  88.9519 271.1574 14.79914041 24484 | 2026/03/16-23:14:37  207.1802    0.0962  271.1443   97.3029     7007.7325     7006.9336     7008.5314  37.284888 -36.105585   0.000081   0.000080
