# SPACE DATA - HISTORICAL TLEs
# ----------------------------
# NORAD_ID    : 65957
# OBJECT_NAME : KUIPER-00128
# --------------------------------------------------------------------+-----------------------------------------------------------------------+----------------------------------------------------------------------------------------------------------------------------------------
#                  LINE 1                                             |                 LINE 2                                                |      DERIVED PARAMETERS
# --------------------------------------------------------------------+-----------------------------------------------------------------------+----------------------------------------------------------------------------------------------------------------------------------------
# NORAD  COSPAR     TLE_EPOCH      MEANMOT1 MEANMOT2   BSTAR  #  REV  |   NORAD    INC     RAAN     ECC    ARGPER  MEANANOM   MEANMOT     REV |  CAL_DATE              LONG     ARGLAT     PERIOD        SMA         PERIGEE        APOGEE      INC_X      INC_Y      ECC_X      ECC_Y
# ------ ------   -------------- ----------  -------  ------- -- ----     -----  ------- -------- ------- -------- -------- -----------  ----   ------------------- ---------  --------  --------  ------------  ------------   ----------- ---------- ----------  ---------  ---------   
1 65956U 25228K   25295.58337963 -.00003132  00000-0 -80850-4 0  9993 | 2 65956  51.8793 266.9792 0006041 163.8543  54.3331 15.34574371  1413 | 2025/10/22-14:00:04  116.1053  218.2437   54.3894   93.8371     6840.3220     6836.1898     6844.4543  -2.733960 -51.807212   0.000198   0.000571
1 65956U 25228K   25296.66671295  .00037160  00000-0  10978-2 0  9990 | 2 65956  51.8801 261.7631 0006175 166.8589 280.0860 15.34577586  1583 | 2025/10/23-16:00:03  283.6317   86.8752  280.0163   93.8369     6840.3125     6836.0886     6844.5364  -7.432672 -51.344914   0.000225   0.000575
1 65956U 25228K   25297.75002315  .00083214  00000-0  24262-2 0  9994 | 2 65956  51.8805 256.5467 0006178 171.3215 144.4225 15.34623554  1749 | 2025/10/24-18:00:02   91.1084  315.7852  144.4637   93.8341     6840.1759     6835.9500     6844.4017 -12.070140 -50.456892   0.000233   0.000572
1 65956U 25228K   25298.86506095  .00036579  00000-0  10762-2 0  9993 | 2 65956  51.8807 251.1792 0006115 175.4787 184.6254 15.34715527  3060 | 2025/10/25-20:45:41   94.6284    0.0985  184.6198   93.8285     6839.9026     6835.7200     6844.0852 -16.737198 -49.106753   0.000242   0.000561
1 65956U 25228K   25299.90692736  .00030160  00000-0  88893-3 0  9998 | 2 65956  51.8806 246.1616 0006059 178.8815 181.2185 15.34754405  3226 | 2025/10/26-21:45:58  115.7489    0.0985  181.2170   93.8261     6839.7871     6835.6428     6843.9313 -20.967981 -47.454614   0.000256   0.000549
1 65956U 25228K   25301.53479762  .00031865  00000-0  93674-3 0  9999 | 2 65956  51.8796 238.3231 0006126 185.1487 174.9437 15.34807931  3470 | 2025/10/28-12:50:06  351.2328    0.0986  174.9499   93.8228     6839.6281     6835.4381     6843.8180 -27.243461 -44.150727   0.000274   0.000548
1 65956U 25228K   25302.90216339  .00041737  00000-0  12197-2 0  9999 | 2 65956  51.8785 231.7372 0006166 187.8595 172.2295 15.34864291  3682 | 2025/10/29-21:39:06  131.4216    0.0985  172.2390   93.8194     6839.4606     6835.2434     6843.6778 -32.126766 -40.733888   0.000312   0.000532
1 65956U 25228K   25304.26947946  .00035501  00000-0  10382-2 0  9991 | 2 65956  51.8789 225.1524 0006289 190.9109 169.1741 15.34917652  3898 | 2025/10/31-06:28:03  271.5918    0.0985  169.1876   93.8161     6839.3021     6835.0009     6843.6033 -36.586217 -36.781367   0.000351   0.000522
1 65956U 25228K   25305.57163664  .00037415  00000-0  10915-2 0  9991 | 2 65956  51.8800 218.8796 0006181 199.3448 160.7304 15.34970952  4099 | 2025/11/01-13:43:09   27.9345    0.0986  160.7538   93.8129     6839.1438     6834.9165     6843.3711 -40.386852 -32.564346   0.000325   0.000525
1 65956U 25228K   25307.78522183  .00019166  00000-0  56483-3 0  9995 | 2 65956  51.8806 208.2155 0005892 205.6130 154.4565 15.35030900  4432 | 2025/11/03-18:50:43  117.6768    0.0986  154.4856   93.8092     6838.9657     6834.9362     6842.9952 -45.715918 -24.528585   0.000348   0.000476
1 65956U 25228K   25308.82686978  .00022355  00000-0  65584-3 0  9990 | 2 65956  51.8802 203.1982 0005840 209.9681 150.0971 15.35071923  4591 | 2025/11/04-19:50:41  138.7183    0.0985  150.1304   93.8067     6838.8439     6834.8500     6842.8378 -47.685567 -20.436287   0.000350   0.000467
1 65956U 25228K   25309.93359863  .00039318  00000-0  11414-2 0  9992 | 2 65956  51.8793 197.8665 0005755 212.8681 147.1948 15.35104588  4769 | 2025/11/05-22:24:22  183.5656    0.0986  147.2305   93.8047     6838.7469     6834.8112     6842.6826 -49.377366 -15.916579   0.000364   0.000446
1 65956U 25228K   25311.17049116  .00016401  00000-0  48331-3 0  9995 | 2 65956  51.8782 191.9062 0005798 217.0773 142.9813 15.35149911  4953 | 2025/11/07-04:05:30  276.0306    0.0986  143.0213   93.8019     6838.6123     6834.6472     6842.5773 -50.762127 -10.702995   0.000381   0.000437
1 65956U 25228K   25312.66772645  .00045416  00000-0  13101-2 0  9994 | 2 65956  51.8777 184.6926 0005913 222.8233 137.2293 15.35235511  5186 | 2025/11/08-16:01:31  103.7307    0.0986  137.2753   93.7967     6838.3581     6834.3145     6842.4016 -51.703804  -4.244104   0.000399   0.000436
1 65956U 25228K   25314.62055654  .00049294  00000-0  14168-2 0  9998 | 2 65956  51.8744 175.2777 0005288 218.2793 141.7818 15.35315721  5483 | 2025/11/10-14:53:36   98.0807    0.0986  141.8193   93.7918     6838.1199     6834.5039     6841.7359 -51.698308   4.270633   0.000441   0.000292
1 65956U 25228K   25316.18288723 -.00098285  00000-0 -29030-2 0  9996 | 2 65956  51.8823 167.7517 0003925 271.2167  88.8369 15.34712016  5725 | 2025/11/12-04:23:21  309.5932    0.0986   88.8819   93.8287     6839.9130     6837.2284     6842.5977 -50.701324  11.006761   0.000075   0.000385
1 65956U 25228K   25317.33334491  .00005993  00000-0  19435-3 0  9999 | 2 65956  51.8795 162.2215 0005233 251.7396 346.2190 15.33365761  4754 | 2025/11/13-08:00:01  132.5171  237.9443  346.2047   93.9111     6843.9159     6840.3345     6847.4974 -49.401944  15.840783   0.000308   0.000423
1 65956U 25228K   25318.75003471 -.01262328  00000-0 -42742-1 0  9992 | 2 65956  51.8790 155.4246 0003885 265.8832 234.9606 15.32833063  4972 | 2025/11/14-18:00:02   27.8335  140.8074  234.9242   93.9437     6845.5015     6842.8420     6848.1610 -47.179528  21.575977   0.000187   0.000341
1 65956U 25228K   25319.83335647 -.00366870  00000-0 -12551-1 0  9996 | 2 65956  51.8784 150.2348 0004232 273.7969  84.4024 15.31265400  5131 | 2025/11/15-20:00:01  206.7314  358.2476   84.4507   94.0399     6850.1728     6847.2738     6853.0718 -45.033934  25.754866   0.000185   0.000380
1 65956U 25228K   25321.33336806 -.00224373  00000-0 -78586-2 0  9994 | 2 65956  51.8783 143.0586 0004763 276.9187  71.7233 15.29884631  5377 | 2025/11/17-08:00:03   44.9475  348.6938   71.7751   94.1247     6854.2939     6851.0292     6857.5586 -41.463763  31.178749   0.000238   0.000412
1 65956U 25228K   25322.50002315 -.00369922  00000-0 -13547-1 0  9994 | 2 65956  51.8790 137.4890 0004946 281.9637  14.0393 15.29084372  5549 | 2025/11/18-12:00:02  164.3019  296.0168   14.0531   94.1740     6856.6852     6853.2938     6860.0765 -38.242481  35.056287   0.000251   0.000426
1 65956U 25228K   25323.58335648 -.00527240  00000-0 -20557-1 0  9999 | 2 65956  51.8799 132.3254 0005030 285.8360 214.7416 15.27731175  5719 | 2025/11/19-14:00:01  355.9586  140.5448  214.7088   94.2574     6860.7335     6857.2825     6864.1844 -34.932829  38.356505   0.000265   0.000427
1 65956U 25228K   25324.75002315 -.00370141  00000-0 -14534-1 0  9995 | 2 65956  51.8811 126.7754 0004933 286.8333 152.3032 15.26809574  5896 | 2025/11/20-18:00:02  124.0997   79.1628  152.3295   94.3143     6863.4940     6860.1082     6866.8798 -31.060164  41.556164   0.000293   0.000397
1 65956U 25228K   25325.91670139 -.00530701  00000-0 -21990-1 0  9993 | 2 65956  51.8823 121.2327 0004176 287.6004  86.0038 15.25758410  5843 | 2025/11/21-22:00:03  256.3288   13.6519   86.0515   94.3793     6866.6460     6863.7785     6869.5135 -26.901756  44.362919   0.000275   0.000314
1 65956U 25228K   25327.16670139 -.00046955  00000-0 -18811-2 0  9994 | 2 65956  51.8846 115.3025 0004011 298.4109 102.6675 15.24510712  5270 | 2025/11/23-04:00:03  326.0168   41.1232  102.7123   94.4565     6870.3921     6867.6364     6873.1478 -22.175339  46.906994   0.000237   0.000323
1 65956U 25228K   25328.33336806  .00063462  00000-0  26196-2 0  9999 | 2 65956  51.8852 109.7783 0004067 300.0155  26.0530 15.23426915  5456 | 2025/11/24-08:00:03  107.7008  326.0890   26.0735   94.5237     6873.6502     6870.8547     6876.4457 -17.556994  48.824440   0.000263   0.000311
1 65956U 25228K   25329.50006943 -.00041963  00000-0 -18011-2 0  9996 | 2 65956  51.8863 104.2631 0004109 304.5307 303.0269 15.22143260  5630 | 2025/11/25-12:00:05  252.8894  247.5181  302.9874   94.6034     6877.5141     6874.6881     6880.3401 -12.783481  50.286884   0.000271   0.000309
1 65956U 25228K   25330.83334491 -.00764206  00000-0 -36139-1 0  9998 | 2 65956  51.8872  97.9750 0004519 312.7018  43.3860 15.21434710  5830 | 2025/11/26-20:00:01  271.9406  356.1234   43.4216   94.6475     6879.6492     6876.5403     6882.7581  -7.198882  51.385383   0.000286   0.000350
1 65956U 25228K   25332.00002315 -.00623974  00000-0 -30463-1 0  9996 | 2 65956  51.8882  92.4770 0004235 324.9295 302.2778 15.20253779  5715 | 2025/11/28-00:00:02   67.4732  267.1663  302.2368   94.7210     6883.2115     6880.2964     6886.1265  -2.242522  51.839718   0.000228   0.000357
1 65956U 25228K   25333.16668980  .00057482  00000-0  26913-2 0  9999 | 2 65956  51.8890  86.9889 0004172 318.2178 215.5917 15.19169223  5897 | 2025/11/29-04:00:01  227.5090  173.7817  215.5639   94.7887     6886.4871     6883.6141     6889.3602   2.725699  51.817361   0.000294   0.000296
1 65956U 25228K   25334.16671295 -.01176605  00000-0 -60410-1 0  9994 | 2 65956  51.8896  82.2904 0004295 325.9410 279.7100 15.18923991  2858 | 2025/11/30-04:00:03  161.3600  245.6025  279.6615   94.8040     6887.2283     6884.2702     6890.1864   6.961105  51.420556   0.000286   0.000320
1 65956U 25228K   25335.25002315  .00035407  00000-0  17604-2 0  9995 | 2 65956  51.8909  77.2098 0004742 339.4322  69.6214 15.17302815  3016 | 2025/12/01-06:00:02   34.0975   49.1045   69.6723   94.9052     6892.1333     6888.8650     6895.4015  11.487696  50.603343   0.000261   0.000396
1 65956U 25228K   25336.25003472 -.00761423  00000-0 -41350-1 0  9991 | 2 65956  51.8920  72.5251 0004064 353.3905 121.1109 15.16681569  3165 | 2025/12/02-06:00:02  334.3242  114.5413  121.1508   94.9441     6894.0152     6891.2134     6896.8169  15.582543  49.497111   0.000166   0.000371
1 65956U 25228K   25337.33335648  .00008795  00000-0  48640-3 0  9999 | 2 65956  51.8922  67.4635 0004132  19.1495 250.1885 15.14586818  3335 | 2025/12/03-08:00:01  215.6128  269.2935  250.1440   95.0754     6900.3702     6897.5190     6903.2215  19.888822  47.929481   0.000024   0.000412
1 65956U 25228K   25338.58334491 -.00168275  00000-0 -94477-2 0  9992 | 2 65956  51.8921  61.6338 0004836  18.1609 230.4056 15.13629847  3528 | 2025/12/04-14:00:01  333.4419  248.5238  230.3629   95.1355     6903.2784     6899.9399     6906.6168  24.654207  45.661364   0.000086   0.000476
1 65956U 25228K   25340.00003472 -.00999197  00000-0 -62024-1 0  9991 | 2 65956  51.8936  55.0408 0004674  24.5331  24.7365 15.12281212  3742 | 2025/12/06-00:00:02  330.7365   49.2920   24.7589   95.2204     6907.3819     6904.1534     6910.6104  29.734668  42.529933   0.000085   0.000460
1 65956U 25228K   25341.33336806 -.00014375  00000-0 -83976-3 0  9995 | 2 65956  51.8912  48.8523 0004836  30.3718  77.4429 15.10764743  3949 | 2025/12/07-08:00:03   39.6941  107.8688   77.4970   95.3160     6912.0035     6908.6608     6915.3461  34.144533  39.074896   0.000090   0.000475
1 65956U 25228K   25342.66670139 -.01015020  00000-0 -65737-1 0  9994 | 2 65956  51.8947  42.6671 0005737  38.4952 125.4026 15.10333046  4152 | 2025/12/08-16:00:03  111.1104  163.9514  125.4562   95.3432     6913.3205     6909.3543     6917.2867  38.158374  35.170987   0.000088   0.000567
1 65956U 25228K   25343.83335647 -.01045358  00000-0 -72725-1 0  9998 | 2 65956  51.8978  37.2711 0005512  41.0087 344.4602 15.07820160  4327 | 2025/12/09-20:00:01  316.0810   25.4520  344.4433   95.5021     6920.9994     6917.1845     6924.8142  41.299181  31.428637   0.000112   0.000540
1 65956U 25228K   25345.00003472 -.01157863  00000-0 -86343-1 0  9993 | 2 65956  51.8940  31.8972 0006154  48.3982 188.3068 15.05569369  4502 | 2025/12/11-00:00:02  171.3729  236.6948  188.2966   95.6449     6927.8955     6923.6321     6932.1589  44.057877  27.420626   0.000104   0.000607
1 65956U 25228K   25346.16668980 -.01053916  00000-0 -79232-1 0  9995 | 2 65956  51.9022  26.5321 0005737  53.7544  29.0338 15.04990234  4681 | 2025/12/12-04:00:01   31.8005   82.8201   29.0657   95.6817     6929.6727     6925.6971     6933.6482  46.436080  23.184668   0.000097   0.000565
1 65956U 25228K   25347.25002315 -.00030068  00000-0 -21443-2 0  9994 | 2 65956  51.9040  21.5586 0006112  59.3718 133.0946 15.03923678  4859 | 2025/12/13-06:00:02  318.1636  192.5175  133.1457   95.7495     6932.9485     6928.7111     6937.1860  48.272912  19.072261   0.000096   0.000604
1 65956U 25228K   25348.25003472 -.01572147  00000-0 -12441+0 0  9995 | 2 65956  51.8949  16.9710 0005788  61.8350 147.6057 15.03307694  5007 | 2025/12/14-06:00:02  306.7668  209.4762  147.6412   95.7888     6934.8423     6930.8284     6938.8562  49.635013  15.147480   0.000112   0.000568
1 65956U 25228K   25349.33335648 -.00012358  00000-0 -90096-3 0  9996 | 2 65956  51.8949  12.0095 0005934  63.2311 249.7664 15.02505536  5165 | 2025/12/15-08:00:01  239.2351  312.9337  249.7026   95.8399     6937.3103     6933.1937     6941.4269  50.759082  10.797973   0.000151   0.000574
1 65956U 25228K   25350.33337963 -.01057134  00000-0 -85801-1 0  9998 | 2 65956  51.9109   7.4293 0005743  65.1626 260.2429 15.02141202  5321 | 2025/12/16-08:00:04  232.4013  325.3406  260.1780   95.8632     6938.4320     6934.4472     6942.4167  51.475117   6.712220   0.000172   0.000548
1 65956U 25228K   25351.33339120 -.00059711  00000-0 -48717-2 0  9994 | 2 65956  51.8957   2.8636 0007269  67.8174 264.9222 14.99155146  5478 | 2025/12/17-08:00:04  230.6227  332.6566  264.8392   96.0541     6947.6424     6942.5921     6952.6926  51.830898   2.592628   0.000240   0.000686
1 65956U 25228K   25352.66667824 -.00032798  00000-0 -26418-2 0  9996 | 2 65956  51.8955 356.7869 0006059  72.7082 260.9360 14.99366691  5674 | 2025/12/18-16:00:00  357.0923  333.5756  260.8674   96.0405     6946.9889     6942.7797     6951.1980  51.813919  -2.908732   0.000212   0.000568
1 65956U 25228K   25353.66670139 -.00033817  00000-0 -27240-2 0  9997 | 2 65956  51.8957 352.2274 0006092  75.6055 259.1802 14.99380171  5834 | 2025/12/19-16:00:03    1.5043  334.7171  259.1116   96.0397     6946.9472     6942.7151     6951.1793  51.418915  -7.018466   0.000230   0.000564
1 65956U 25228K   25354.83335647  .00019067  00000-0  15604-2 0  9999 | 2 65956  51.8961 346.9075 0006002  80.7353  75.2147 14.99317704  3353 | 2025/12/20-20:00:01  246.8056  156.0165   75.2812   96.0437     6947.1402     6942.9705     6951.3098  50.547093 -11.755702   0.000228   0.000555
1 65956U 25228K   25358.87321019  .00008871  00000-0  76855-3 0  9992 | 2 65956  51.8970 328.5251 0005978 100.6800 259.4843 14.97767452 12193 | 2025/12/24-20:57:25   79.3029    0.0970  259.4170   96.1431     6951.9331     6947.7772     6956.0889  44.261341 -27.096721   0.000212   0.000559
1 65956U 25228K   25360.00002315 -.00016061  00000-0 -13326-2 0  9990 | 2 65956  51.8966 323.4005 0006007 105.4671 214.2769 14.97815348  4131 | 2025/12/26-00:00:02  171.6111  319.7053  214.2382   96.1400     6951.7849     6947.6089     6955.9608  41.663767 -30.941680   0.000217   0.000560
1 65956U 25228K   25361.00003472 -.00016639  00000-0 -13807-2 0  9991 | 2 65956  51.8960 318.8527 0006043 108.5379 206.7181 14.97835703  4288 | 2025/12/27-00:00:02  181.6368  315.2249  206.6870   96.1387     6951.7219     6947.5210     6955.9228  39.078749 -34.147418   0.000232   0.000558
1 65956U 25228K   25362.14262495  .00015719  00000-0  13405-2 0  9999 | 2 65956  51.8964 313.6552 0005886 111.3859 248.7740 14.97855347 12688 | 2025/12/28-03:25:22  194.3890    0.0970  248.7111   96.1375     6951.6611     6947.5694     6955.7529  35.824962 -37.547415   0.000248   0.000534
1 65956U 25228K   25365.07826341  .00020098  00000-0  17026-2 0  9999 | 2 65956  51.8953 300.3017 0005939 122.3351 237.8195 14.97947708 13129 | 2025/12/31-01:52:41  187.4712    0.0970  237.7619   96.1315     6951.3753     6947.2469     6955.5038  26.183942 -44.805394   0.000273   0.000527
1 65956U 25228K   26002.01301876  .00020489  00000-0  17325-2 0  9999 | 2 65956  51.8967 291.4974 0006386 134.7476 225.4015 14.98006974 13416 | 2026/01/02-00:18:44  174.6999    0.0970  225.3494   96.1277     6951.1920     6946.7530     6955.6310  19.018013 -48.286464   0.000257   0.000584
1 65956U 25228K   26007.08311570  .00009545  00000-0  81802-3 0  9995 | 2 65956  51.8944 268.4335 0006012 147.8686 212.2651 14.98108168 14172 | 2026/01/07-01:59:41  228.0114    0.0969  212.2283   96.1212     6950.8790     6946.7001     6955.0578  -1.418646 -51.875005   0.000334   0.000500
1 65956U 25228K   26008.08376129  .00007744  00000-0  66792-3 0  9997 | 2 65956  51.8948 263.8799 0005750 150.2079 209.9219 14.98112958 14323 | 2026/01/08-02:00:36  233.7876    0.0970  209.8891   96.1209     6950.8642     6946.8674     6954.8609  -5.532655 -51.599031   0.000337   0.000466
1 65956U 25228K   26010.95224160  .00005882  00000-0  51235-3 0  9990 | 2 65956  51.8943 250.8274 0005666 158.7193 201.4014 14.98142622 14756 | 2026/01/10-22:51:13  202.3294    0.0970  201.3777   96.1190     6950.7724     6946.8341     6954.7107 -17.042866 -49.015907   0.000368   0.000431
1 65956U 25228K   26011.95286115  .00005793  00000-0  50481-3 0  9992 | 2 65956  51.8947 246.2740 0005613 162.0609 198.0561 14.98152457 14901 | 2026/01/11-22:52:07  208.0958    0.0971  198.0362   96.1184     6950.7420     6946.8405     6954.6434 -20.880520 -47.508565   0.000373   0.000419
1 65956U 25228K   26013.02018326  .00003865  00000-0  34411-3 0  9992 | 2 65956  51.8948 241.4175 0005601 165.2410 194.8725 14.98158373 15060 | 2026/01/13-00:29:03  238.2438    0.0970  194.8560   96.1180     6950.7237     6946.8306     6954.6168 -24.827701 -45.570336   0.000384   0.000407
1 65956U 25228K   26014.02079410  .00003580  00000-0  32034-3 0  9997 | 2 65956  51.8947 236.8644 0005571 168.3955 191.7145 14.98164054 15214 | 2026/01/14-00:29:56  244.0066    0.0970  191.7015   96.1176     6950.7061     6946.8339     6954.5784 -28.366803 -43.455545   0.000392   0.000396
1 65956U 25228K   26015.55505885  .00002902  00000-0  26375-3 0  9994 | 2 65956  51.8936 229.8825 0005553 173.8831 186.2208 14.98169764 15446 | 2026/01/15-13:19:17   84.8421    0.0970  186.2139   96.1173     6950.6885     6946.8287     6954.5482 -33.438016 -39.684314   0.000401   0.000384
1 65956U 25228K   26016.95590470  .00004852  00000-0  42607-3 0  9995 | 2 65956  51.8943 223.5081 0005510 178.2775 181.8215 14.98179113 15659 | 2026/01/16-22:56:30  236.9067    0.0970  181.8195   96.1167     6950.6595     6946.8297     6954.4893 -37.637745 -35.727000   0.000411   0.000367
1 65956U 25228K   26018.95709998  .00005343  00000-0  46682-3 0  9997 | 2 65956  51.8946 214.4002 0005573 184.2939 175.7984 14.98190038 15959 | 2026/01/18-22:58:13  248.4240    0.0970  175.8031   96.1160     6950.6257     6946.7522     6954.4993 -42.818833 -29.318886   0.000435   0.000348
1 65956U 25228K   26020.22451271  .00006698  00000-0  57940-3 0  9991 | 2 65956  51.8932 208.6320 0005360 189.0207 171.0667 14.98202702 16148 | 2026/01/20-05:23:17  351.7149    0.0969  171.0762   96.1152     6950.5866     6946.8611     6954.3121 -45.547465 -24.866295   0.000424   0.000327
1 65956U 25228K   26021.49190850  .00006885  00000-0  59469-3 0  9990 | 2 65956  51.8925 202.8645 0005365 191.4980 168.5868 14.98222123 16330 | 2026/01/21-11:48:20   94.9967    0.0970  168.5990   96.1139     6950.5265     6946.7976     6954.2555 -47.815116 -20.162993   0.000443   0.000303
1 65956U 25228K   26022.49248529  .00007356  00000-0  63384-3 0  9993 | 2 65956  51.8953 198.3109 0005332 198.3987 161.6791 14.98218971 16483 | 2026/01/22-11:49:10  100.7512    0.0970  161.6983   96.1141     6950.5363     6946.8302     6954.2423 -49.267619 -16.304106   0.000427   0.000319
1 65956U 25228K   26023.89327920  .00008934  00000-0  76458-3 0  9990 | 2 65956  51.8941 191.9355 0005237 203.2824 156.7909 14.98237783 16693 | 2026/01/23-21:26:19  252.7976    0.0969  156.8145   96.1129     6950.4781     6946.8381     6954.1180 -50.772203 -10.732241   0.000428   0.000302
1 65956U 25228K   26025.16064932  .00009135  00000-0  78089-3 0  9999 | 2 65956  51.8948 186.1676 0005178 207.1456 152.9244 14.98255049 16886 | 2026/01/25-03:51:20  356.0712    0.0970  152.9514   96.1118     6950.4247     6946.8258     6954.0236 -51.594427  -5.575430   0.000433   0.000284
1 65956U 25228K   26026.16119258  .00010246  00000-0  87278-3 0  9997 | 2 65956  51.8936 181.6140 0005086 210.3887 149.6789 14.98271374 17035 | 2026/01/26-03:52:07    1.8090    0.0970  149.7083   96.1108     6950.3742     6946.8392     6953.9092 -51.873012  -1.461629   0.000431   0.000270
1 65956U 25228K   26027.82873563  .00008781  00000-0  75065-3 0  9999 | 2 65956  51.8939 174.0241 0004994 216.9132 143.1495 14.98302135 17288 | 2026/01/27-19:53:22  251.3629    0.0970  143.1838   96.1088     6950.2791     6946.8081     6953.7500 -51.611897   5.402681   0.000428   0.000257
1 65956U 25228K   26030.09653693  .00011882  00000-0  10063-2 0  9994 | 2 65956  51.8948 163.7036 0004760 228.6079 131.4483 14.98350379 17624 | 2026/01/30-02:19:00    0.3336    0.0971  131.4892   96.1057     6950.1299     6946.8216     6953.4381 -49.809819  14.562013   0.000402   0.000254
1 65956U 25228K   26031.49720512  .00007540  00000-0  64662-3 0  9995 | 2 65956  51.8953 157.3262 0004789 230.6425 129.4121 14.98371223 17839 | 2026/01/31-11:55:58  152.3337    0.0970  129.4545   96.1044     6950.0654     6946.7370     6953.3938 -47.884544  20.004815   0.000423   0.000225
1 65956U 25228K   26032.49767002  .00006305  00000-0  54421-3 0  9991 | 2 65956  51.8951 152.7721 0004686 234.7618 125.2914 14.98384545 17982 | 2026/02/01-11:56:38  158.0427    0.0970  125.3352   96.1035     6950.0242     6946.7674     6953.2810 -46.144795  23.743616   0.000416   0.000217
1 65956U 25228K   26033.49812429  .00007988  00000-0  68319-3 0  9995 | 2 65956  51.8958 148.2181 0004696 237.6239 122.4277 14.98402268 18133 | 2026/02/02-11:57:17  163.7479    0.0970  122.4731   96.1024     6949.9694     6946.7057     6953.2331 -44.114498  27.332858   0.000423   0.000205
1 65956U 25228K   26034.49856779  .00009320  00000-0  79297-3 0  9991 | 2 65956  51.8962 143.6646 0004612 242.3811 117.6691 14.98420758 18286 | 2026/02/03-11:57:56  169.4485    0.0970  117.7159   96.1012     6949.9122     6946.7069     6953.1175 -41.805625  30.749070   0.000414   0.000203
1 65956U 25228K   26035.49899723  .00009302  00000-0  79107-3 0  9998 | 2 65956  51.8961 139.1099 0004618 245.3020 114.7469 14.98440759 18439 | 2026/02/04-11:58:33  175.1452    0.0969  114.7949   96.0999     6949.8504     6946.6410     6953.0598 -39.231718  33.971716   0.000421   0.000191
1 65956U 25228K   26036.50024209 -.00488499  00000-0 -44851-1 0  9996 | 2 65956  51.8927 134.5615 0006412 285.8162  74.2100 14.96693119 18580 | 2026/02/05-12:00:20  181.1513    0.0969   74.2807   96.2121     6955.2594     6950.7997     6959.7191 -36.411782  36.973429   0.000317   0.000557
1 65956U 25228K   26037.58335648 -.01685511  00000-0 -17469+0 0  9995 | 2 65956  51.8957 129.6826 0003944 239.6363 191.4880 14.93230985  5644 | 2026/02/06-14:00:01  145.9209   71.1153  191.4790   96.4352     6966.0060     6963.2586     6968.7534 -33.137176  39.938594   0.000389   0.000064
1 65956U 25228K   26038.83336806 -.01151171  00000-0 -12692+0 0  9994 | 2 65956  51.8974 124.0672 0003489 255.4939  51.7820 14.90068611  5824 | 2026/02/07-20:00:03    6.6209  307.3073   51.8134   96.6398     6975.8585     6973.4246     6978.2924 -29.071100  42.990828   0.000329   0.000117
1 65956U 25228K   26039.91670139 -.00100035  00000-0 -11382-1 0  9993 | 2 65956  51.8986 119.2218 0001796 267.1042  89.8556 14.86333336  5320 | 2026/02/08-22:00:03  352.8502  356.9804   89.8762   96.8827     6987.5409     6986.2859     6988.7959 -25.336469  45.293797   0.000161   0.000080
1 65956U 25228K   26041.16668981  .00016767  00000-0  20100-2 0  9990 | 2 65956  51.8987 113.6588 0003247 258.1502 307.7382 14.84141576  5503 | 2026/02/10-04:00:01  240.7125  205.8590  307.7088   97.0258     6994.4186     6992.1475     6996.6897 -20.826390  47.536686   0.000318   0.000066
1 65956U 25228K   26042.25001157 -.00013080  00000-0 -15532-2 0  9997 | 2 65956  51.8998 108.8421 0000989 276.1343 319.2631 14.83431162  5675 | 2026/02/11-06:00:00  247.0838  235.3900  319.2557   97.0722     6996.6515     6995.9595     6997.3435 -16.761621  49.118604   0.000090   0.000042
1 65956U 25228K   26043.25003472 -.00015179  00000-0 -18073-2 0  9994 | 2 65956  51.8996 104.3961 0000968 295.4626 243.6124 14.83433609  5820 | 2026/02/12-06:00:02  308.8462  179.0651  243.6025   97.0721     6996.6438     6995.9665     6997.3211 -12.903484  50.269957   0.000074   0.000062
1 65956U 25228K   26044.36183715  .00003699  00000-0  47346-3 0  9994 | 2 65956  51.8997  99.4528 0001074 307.0167  53.0699 14.83429593 19757 | 2026/02/13-08:41:02  174.1226    0.0964   53.0797   97.0724     6996.6564     6995.9050     6997.4079  -8.523750  51.194966   0.000074   0.000078
1 65956U 25228K   26045.50713260  .00003806  00000-0  48625-3 0  9996 | 2 65956  51.8998  94.3601 0001112 312.4231  47.6639 14.83436569 19922 | 2026/02/14-12:10:16  232.6501    0.0964   47.6733   97.0719     6996.6345     6995.8565     6997.4125  -3.945665  51.749599   0.000076   0.000081
1 65956U 25228K   26047.25875153  .00003893  00000-0  49656-3 0  9991 | 2 65956  51.8995  86.5715 0001168 320.2414  39.8464 14.83446526 20182 | 2026/02/16-06:12:36  152.7472    0.0964   39.8550   97.0712     6996.6032     6995.7860     6997.4204   3.103741  51.806610   0.000080   0.000085
1 65956U 25228K   26048.26929561  .00004115  00000-0  52331-3 0  9998 | 2 65956  51.9001  82.0788 0001190 326.2231  33.8656 14.83452748 20337 | 2026/02/17-06:27:47  162.0309    0.0963   33.8732   97.0708     6996.5836     6995.7510     6997.4162   7.152406  51.404897   0.000079   0.000089
1 65956U 25228K   26049.48194296  .00003614  00000-0  46286-3 0  9997 | 2 65956  51.9001  76.6851 0001318 333.3429  26.7467 14.83458826 20511 | 2026/02/18-11:33:59  245.1720    0.0964   26.7535   97.0704     6996.5645     6995.6424     6997.4867  11.952739  50.504974   0.000085   0.000101
1 65956U 25228K   26050.56008072 -.00092388  00000-0 -11366-1 0  9991 | 2 65956  51.8988  71.8878 0003028  21.0840 339.0248 14.83072146 20679 | 2026/02/19-13:26:30  279.1424    0.0964  339.0124   97.0957     6997.7806     6995.6617     6999.8995  16.134237  49.327192  -0.000016   0.000302
1 65956U 25228K   26052.65118516 -.00103738  00000-0 -13306-1 0  9996 | 2 65956  51.8998  62.6227 0001938  52.4770 307.6369 14.81421128 20989 | 2026/02/21-15:37:42  323.2611    0.0963  307.6193   97.2040     7002.9789     7001.6217     7004.3361  23.866020  46.086900  -0.000082   0.000175
1 65956U 25228K   26053.83336806  .00018525  00000-0  24295-2 0  9998 | 2 65956  51.8995  57.3866 0001304 273.9873 273.3984 14.80326955  4498 | 2026/02/22-20:00:03  207.9764  187.3708  273.3835   97.2758     7006.4293     7005.5156     7007.3429  27.972159  43.716317   0.000114  -0.000062
1 65956U 25228K   26054.91667824  .00002640  00000-0  39635-3 0  9991 | 2 65956  51.8990  52.5942 0002039 194.1027   8.3759 14.77557602  4662 | 2026/02/23-22:00:00  228.7354  202.4820    8.3793   97.4581     7015.1812     7013.7508     7016.6116  31.526372  41.226133  -0.000081  -0.000187
1 65956U 25228K   26055.91668981 -.00058211  00000-0 -83448-2 0  9994 | 2 65956  51.9099  48.1923 0001647 161.2436 322.0964 14.76385769  4819 | 2026/02/24-22:00:01  313.2657  123.3284  322.0848   97.5355     7018.8928     7017.7368     7020.0488  34.604834  38.692934  -0.000143  -0.000081
1 65956U 25228K   26057.16668981 -.00024793  00000-0 -35239-2 0  9996 | 2 65956  51.8999  42.6976 0001523 157.4279 133.4045 14.76325477  4992 | 2026/02/26-04:00:01  242.5000  290.8451  133.4172   97.5395     7019.0839     7018.0149     7020.1529  38.143468  35.194821  -0.000143  -0.000052
1 65956U 25228K   26058.25002315  .00000674  00000-0  12695-3 0  9992 | 2 65956  51.8996  37.9345 0001419 157.5381 134.4148 14.76315960  5166 | 2026/02/27-06:00:02  277.2104  291.9645  134.4264   97.5401     7019.1140     7018.1180     7020.1100  40.933944  31.905810  -0.000137  -0.000038
1 65956U 25228K   26059.61673534  .00003356  00000-0  50976-3 0  9994 | 2 65956  51.9008  31.9236 0001447 165.0469 195.0535 14.76329523 22012 | 2026/02/28-14:48:05  348.4373    0.0961  195.0492   97.5392     7019.0710     7018.0554     7020.0867  44.051009  27.444519  -0.000138  -0.000042
1 65956U 25228K   26060.90293139  .00003530  00000-0  53448-3 0  9998 | 2 65956  51.9004  26.2682 0001481 168.2424 191.8572 14.76337346 22202 | 2026/03/01-21:40:13   98.3918    0.0961  191.8537   97.5387     7019.0462     7018.0067     7020.0858  46.540760  22.969745  -0.000143  -0.000037
1 65956U 25228K   26061.91834399  .00003863  00000-0  58185-3 0  9991 | 2 65956  51.9010  21.8033 0001433 169.7928 190.3062 14.76344499 22353 | 2026/03/02-22:02:24  109.4067    0.0961  190.3033   97.5382     7019.0236     7018.0178     7020.0294  48.188233  19.277138  -0.000140  -0.000029
1 65956U 25228K   26063.06913867  .00004787  00000-0  71346-3 0  9997 | 2 65956  51.9012  16.7432 0001381 174.4915 185.6062 14.76354665 22524 | 2026/03/04-01:39:33  169.8885    0.0962  185.6047   97.5375     7018.9914     7018.0220     7019.9607  49.700878  14.951834  -0.000135  -0.000027
1 65956U 25228K   26064.15223308  .00004492  00000-0  67123-3 0  9993 | 2 65956  51.9022  11.9807 0001309 179.2698 180.8265 14.76362016 22687 | 2026/03/05-03:39:12  205.6339    0.0961  180.8263   97.5371     7018.9681     7018.0493     7019.8868  50.771644  10.773972  -0.000128  -0.000026
1 65956U 25228K   26065.23532228  .00004094  00000-0  61443-3 0  9994 | 2 65956  51.9014   7.2183 0001290 181.6532 178.4424 14.76369006 22840 | 2026/03/06-05:38:51  241.3767    0.0960  178.4428   97.5366     7018.9459     7018.0405     7019.8513  51.490062   6.521416  -0.000127  -0.000020
1 65956U 25228K   26066.99533112  .00004815  00000-0  71697-3 0  9994 | 2 65956  51.9013 359.4794 0001266 186.8366 173.2578 14.76382314 23104 | 2026/03/07-23:53:16  164.4547    0.0961  173.2595   97.5357     7018.9037     7018.0151     7019.7923  51.899158  -0.471578  -0.000126  -0.000014
1 65956U 25228K   26068.21379042  .00003617  00000-0  54619-3 0  9995 | 2 65956  51.9017 354.1221 0001240 190.3744 169.7192 14.76388152 23284 | 2026/03/09-05:07:51  249.6591    0.0961  169.7217   97.5353     7018.8852     7018.0149     7019.7556  51.628821  -5.315194  -0.000124  -0.000010
1 65956U 25228K   26069.77074031 -.00005525  00000-0 -75885-3 0  9997 | 2 65956  51.9026 347.2756 0001228 194.7014 165.3911 14.76348517 23512 | 2026/03/10-18:29:51   98.5433    0.0960  165.3946   97.5379     7019.0108     7018.1489     7019.8728  50.627915 -11.432151  -0.000123  -0.000004
1 65956U 25228K   26070.92154952  .00002822  00000-0  43342-3 0  9995 | 2 65956  51.9026 342.2166 0001307 185.7586 174.3360 14.76336486 23682 | 2026/03/11-22:07:01  159.0258    0.0961  174.3375   97.5387     7019.0490     7018.1316     7019.9664  49.422586 -15.852063  -0.000128   0.000027
1 65956U 25228K   26072.14004520  .00003460  00000-0  52430-3 0  9993 | 2 65956  51.9004 336.8585 0001239 189.5222 170.5715 14.76344190 23868 | 2026/03/13-03:21:39  244.2442    0.0960  170.5738   97.5382     7019.0246     7018.1549     7019.8942  47.724342 -20.397026  -0.000120   0.000029
1 65956U 25228K   26073.96778183  .00002835  00000-0  43520-3 0  9992 | 2 65956  51.8995 328.8221 0001117 194.7526 165.3403 14.76350869 24131 | 2026/03/14-23:13:36  192.0681    0.0961  165.3435   97.5378     7019.0034     7018.2194     7019.7874  44.403344 -26.868218  -0.000107   0.000032
1 65956U 25228K   26074.98318710  .00001992  00000-0  31488-3 0  9994 | 2 65956  51.9017 324.3581 0001117 198.3386 161.7535 14.76352633 24284 | 2026/03/15-23:35:47  203.0797    0.0961  161.7575   97.5377     7018.9978     7018.2138     7019.7818  42.179206 -30.244025  -0.000107   0.000033
1 65956U 25228K   26076.40475091  .00002035  00000-0  32097-3 0  9995 | 2 65956  51.9008 318.1071 0001080 201.0628 159.0288 14.76357415 24490 | 2026/03/17-09:42:50    2.4953    0.0960  159.0332   97.5374     7018.9826     7018.2246     7019.7407  38.634660 -34.656257  -0.000101   0.000038
