# SPACE DATA - HISTORICAL TLEs
# ----------------------------
# NORAD_ID    : 57758
# OBJECT_NAME : WILDFIRE 3
# --------------------------------------------------------------------+-----------------------------------------------------------------------+----------------------------------------------------------------------------------------------------------------------------------------
#                  LINE 1                                             |                 LINE 2                                                |      DERIVED PARAMETERS
# --------------------------------------------------------------------+-----------------------------------------------------------------------+----------------------------------------------------------------------------------------------------------------------------------------
# NORAD  COSPAR     TLE_EPOCH      MEANMOT1 MEANMOT2   BSTAR  #  REV  |   NORAD    INC     RAAN     ECC    ARGPER  MEANANOM   MEANMOT     REV |  CAL_DATE              LONG     ARGLAT     PERIOD        SMA         PERIGEE        APOGEE      INC_X      INC_Y      ECC_X      ECC_Y
# ------ ------   -------------- ----------  -------  ------- -- ----     -----  ------- -------- ------- -------- -------- -----------  ----   ------------------- ---------  --------  --------  ------------  ------------   ----------- ---------- ----------  ---------  ---------   
1 65977U 25230D   25300.85472324  .00000238  00000-0  20009-3 0  9998 | 2 65977  81.2984  67.1597 0004040  88.8949 271.2671 13.84874563  1654 | 2025/10/27-20:30:48  276.8296    0.1157  271.2208  103.9805     7324.7850     7321.8258     7327.7442  31.557104  74.923822  -0.000369   0.000164
1 65977U 25230D   25302.29968421  .00000122  00000-0  97964-4 0  9993 | 2 65977  81.2986  65.8194 0004015  85.8799 274.2816 13.84874773  1855 | 2025/10/29-07:11:32   79.7805    0.1156  274.2357  103.9805     7324.7843     7321.8434     7327.7252  33.301059  74.165368  -0.000354   0.000190
1 65977U 25230D   25303.31115732  .00000256  00000-0  21669-3 0  9992 | 2 65977  81.2988  64.8812 0004020  83.9896 276.1719 13.84875513  1997 | 2025/10/30-07:28:03   85.8460    0.1157  276.1261  103.9805     7324.7817     7321.8371     7327.7262  34.511059  73.610337  -0.000344   0.000208
1 65977U 25230D   25304.61162205  .00000271  00000-0  22983-3 0  9990 | 2 65977  81.2992  63.6751 0003991  81.3695 278.7914 13.84875761  2177 | 2025/10/31-14:40:44  196.5018    0.1157  278.7462  103.9804     7324.7808     7321.8575     7327.7041  36.053004  72.867968  -0.000327   0.000229
1 65977U 25230D   25305.62309448  .00000293  00000-0  24951-3 0  9995 | 2 65977  81.2993  62.7370 0003977  79.2266 280.9338 13.84875946  2315 | 2025/11/01-14:57:15  202.5674    0.1157  280.8891  103.9804     7324.7801     7321.8671     7327.6932  37.241227  72.268023  -0.000313   0.000245
1 65977U 25230D   25307.79053528  .00000247  00000-0  20881-3 0  9997 | 2 65977  81.2996  60.7267 0003943  74.8570 285.3023 13.84876094  2611 | 2025/11/03-18:58:22  266.9939    0.1157  285.2587  103.9804     7324.7796     7321.8915     7327.6678  39.753554  70.917416  -0.000282   0.000276
1 65977U 25230D   25308.80200771  .00000193  00000-0  16040-3 0  9996 | 2 65977  81.2998  59.7885 0003926  72.7991 287.3596 13.84875970  2756 | 2025/11/04-19:14:53  273.0597    0.1158  287.3167  103.9804     7324.7801     7321.9043     7327.6558  40.909523  70.257159  -0.000266   0.000289
1 65977U 25230D   25309.88572728  .00000276  00000-0  23439-3 0  9991 | 2 65977  81.2999  58.7834 0003911  70.4484 289.7095 13.84876765  2906 | 2025/11/05-21:15:26  305.2728    0.1157  289.6673  103.9804     7324.7772     7321.9125     7327.6420  42.135690  69.528824  -0.000247   0.000303
1 65977U 25230D   25310.89719942  .00000246  00000-0  20740-3 0  9994 | 2 65977  81.3000  57.8453 0003892  68.4385 291.7186 13.84876627  3049 | 2025/11/06-21:31:58  311.3386    0.1157  291.6772  103.9804     7324.7777     7321.9269     7327.6285  43.268436  68.829735  -0.000230   0.000314
1 65977U 25230D   25312.12541466  .00000296  00000-0  25208-3 0  9995 | 2 65977  81.3002  56.7062 0003853  65.9722 294.1838 13.84877378  3213 | 2025/11/08-03:00:35   35.8469    0.1157  294.1435  103.9803     7324.7751     7321.9529     7327.5973  44.628312  67.956135  -0.000208   0.000324
1 65977U 25230D   25314.94308503  .00000309  00000-0  26355-3 0  9999 | 2 65977  81.3004  54.0930 0003780  59.9300 300.2231 13.84877767  3605 | 2025/11/10-22:38:02  335.6016    0.1157  300.1857  103.9803     7324.7737     7322.0050     7327.5425  47.680353  65.850885  -0.000154   0.000345
1 65977U 25230D   25316.31579481  .00000465  00000-0  40221-3 0  9998 | 2 65977  81.3005  52.8201 0003724  57.2024 302.9492 13.84879089  3792 | 2025/11/12-07:34:44  112.4045    0.1158  302.9134  103.9802     7324.7691     7322.0413     7327.4968  49.131489  64.775520  -0.000128   0.000350
1 65977U 25230D   25317.54400911  .00000416  00000-0  35811-3 0  9990 | 2 65977  81.3007  51.6812 0003684  54.4045 305.7455 13.84879086  3962 | 2025/11/13-13:03:22  196.9127    0.1157  305.7112  103.9802     7324.7691     7322.0706     7327.4675  50.409402  63.786331  -0.000102   0.000354
1 65977U 25230D   25319.49470145  .00000455  00000-0  39310-3 0  9993 | 2 65977  81.3008  49.8722 0003634  50.3766 309.7712 13.84879544  4232 | 2025/11/15-11:52:22  182.8959    0.1158  309.7392  103.9802     7324.7675     7322.1056     7327.4293  52.397934  62.163306  -0.000065   0.000358
1 65977U 25230D   25320.50617201  .00000395  00000-0  33987-3 0  9990 | 2 65977  81.3012  48.9344 0003593  47.8288 312.3174 13.84879033  4371 | 2025/11/16-12:08:53  188.9616    0.1157  312.2869  103.9802     7324.7693     7322.1375     7327.4010  53.408603  61.297685  -0.000042   0.000357
1 65977U 25230D   25321.51764157  .00000313  00000-0  26724-3 0  9996 | 2 65977  81.3012  47.9964 0003542  45.5680 314.5766 13.84879641  4515 | 2025/11/17-12:25:24  195.0272    0.1157  314.5477  103.9802     7324.7671     7322.1727     7327.3615  54.404917  60.415148  -0.000022   0.000354
1 65977U 25230D   25322.67360669  .00000293  00000-0  24903-3 0  9998 | 2 65977  81.3012  46.9243 0003494  42.9833 317.1596 13.84879778  4679 | 2025/11/18-16:09:59  253.3878    0.1157  317.1324  103.9801     7324.7666     7322.2074     7327.3259  55.525796  59.386624   0.000001   0.000349
1 65977U 25230D   25324.26305883  .00000289  00000-0  24595-3 0  9994 | 2 65977  81.3009  45.4501 0003422  39.4402 320.7004 13.84880185  4892 | 2025/11/20-06:18:48  108.6337    0.1158  320.6756  103.9801     7324.7652     7322.2587     7327.2717  57.035035  57.938253   0.000030   0.000341
1 65977U 25230D   25325.56351955  .00000335  00000-0  28645-3 0  9991 | 2 65977  81.3009  44.2441 0003359  36.2646 323.8738 13.84880033  5077 | 2025/11/21-13:31:28  219.2896    0.1157  323.8511  103.9801     7324.7657     7322.3053     7327.2261  58.241834  56.724995   0.000055   0.000331
1 65977U 25230D   25326.71948514  .00000248  00000-0  20946-3 0  9991 | 2 65977  81.3008  43.1721 0003323  33.9447 326.1922 13.84879502  5237 | 2025/11/22-17:16:03  277.6501    0.1157  326.1710  103.9802     7324.7676     7322.3336     7327.2016  59.292826  55.625361   0.000074   0.000324
1 65977U 25230D   25327.73095367  .00000258  00000-0  21858-3 0  9997 | 2 65977  81.3008  42.2340 0003258  31.6826 328.4527 13.84880434  5374 | 2025/11/23-17:32:34  283.7154    0.1158  328.4332  103.9801     7324.7643     7322.3779     7327.1507  60.195589  54.647152   0.000090   0.000313
1 65977U 25230D   25328.74242214  .00000323  00000-0  27573-3 0  9997 | 2 65977  81.3008  41.2961 0003216  29.1161 331.0175 13.84881291  5517 | 2025/11/24-17:49:05  289.7806    0.1157  330.9996  103.9800     7324.7613     7322.4056     7327.1169  61.082027  53.654506   0.000108   0.000303
1 65977U 25230D   25330.18737819  .00000273  00000-0  23174-3 0  9995 | 2 65977  81.3008  39.9559 0003158  24.8292 335.3016 13.84880514  5716 | 2025/11/26-04:29:49   92.7320    0.1157  335.2865  103.9801     7324.7640     7322.4509     7327.0772  62.320231  52.211195   0.000135   0.000286
1 65977U 25230D   25331.19884662  .00000294  00000-0  25016-3 0  9996 | 2 65977  81.3007  39.0180 0003121  21.9166 338.2124 13.84880557  5858 | 2025/11/27-04:46:20   98.7973    0.1157  338.1991  103.9801     7324.7639     7322.4778     7327.0499  63.166434  51.184035   0.000152   0.000273
1 65977U 25230D   25332.57155374  .00000199  00000-0  16624-3 0  9999 | 2 65977  81.3007  37.7449 0003051  18.2547 341.8719 13.84881116  6049 | 2025/11/28-13:43:02  235.6004    0.1157  341.8610  103.9800     7324.7619     7322.5271     7326.9967  64.288046  49.767971   0.000171   0.000253
1 65977U 25230D   25333.65526978  .00000187  00000-0  15571-3 0  9998 | 2 65977  81.3006  36.7399 0003019  14.7711 345.3533 13.84881271  6190 | 2025/11/29-15:43:35  267.8135    0.1156  345.3445  103.9800     7324.7614     7322.5500     7326.9727  65.150990  48.632665   0.000188   0.000236
1 65977U 25230D   25334.66673800  .00000196  00000-0  16331-3 0  9992 | 2 65977  81.3005  35.8017 0002959  12.1773 347.9455 13.84881325  6335 | 2025/11/30-16:00:06  273.8788    0.1157  347.9384  103.9800     7324.7612     7322.5938     7326.9286  65.938483  47.559308   0.000198   0.000220
1 65977U 25230D   25335.67820654  .00000201  00000-0  16795-3 0  9996 | 2 65977  81.3003  34.8634 0002902   9.7533 350.3679 13.84880849  6472 | 2025/12/01-16:16:37  279.9443    0.1156  350.3623  103.9801     7324.7628     7322.6372     7326.8885  66.708294  46.473028   0.000207   0.000204
1 65977U 25230D   25336.68967465  .00000471  00000-0  40712-3 0  9995 | 2 65977  81.3000  33.9251 0002857   6.9636 353.1560 13.84880217  6611 | 2025/12/02-16:33:07  286.0097    0.1157  353.1521  103.9801     7324.7651     7322.6724     7326.8578  67.460128  45.374234   0.000216   0.000187
1 65977U 25230D   25338.27912240  .00000426  00000-0  36735-3 0  9993 | 2 65977  81.3002  32.4507 0002767   1.7879 358.3287 13.84882860  6836 | 2025/12/04-06:41:56  141.2549    0.1157  358.3278  103.9799     7324.7558     7322.7290     7326.7825  68.605454  43.623550   0.000229   0.000156
1 65977U 25230D   25339.29058961  .00000355  00000-0  30460-3 0  9997 | 2 65977  81.3002  31.5128 0002756 358.6493   1.4656 13.84883408  6979 | 2025/12/05-06:58:26  147.3197    0.1157    1.4664  103.9799     7324.7538     7322.7351     7326.7725  69.310324  42.494723   0.000238   0.000138
1 65977U 25230D   25340.59104809  .00000285  00000-0  24253-3 0  9990 | 2 65977  81.2998  30.3064 0002691 355.6397   4.4736 13.84883007  7154 | 2025/12/06-14:11:06  257.9745    0.1157    4.4760  103.9799     7324.7552     7322.7841     7326.7263  70.189303  41.025835   0.000242   0.000118
1 65977U 25230D   25341.89150618  .00000241  00000-0  20328-3 0  9994 | 2 65977  81.2996  29.1001 0002623 352.1540   7.9575 13.84882431  7335 | 2025/12/07-21:23:46    8.6293    0.1157    7.9617  103.9799     7324.7573     7322.8360     7326.6786  71.037263  39.538996   0.000244   0.000095
1 65977U 25230D   25343.19196221  .00000290  00000-0  24666-3 0  9992 | 2 65977  81.2996  27.8939 0002583 347.3454  12.7637 13.84883755  7518 | 2025/12/09-04:36:25  119.2839    0.1156   12.7702  103.9798     7324.7526     7322.8606     7326.6446  71.853842  38.034857   0.000249   0.000068
1 65977U 25230D   25344.20342845  .00000297  00000-0  25243-3 0  9999 | 2 65977  81.2995  26.9556 0002540 344.3760  15.7319 13.84884244  7651 | 2025/12/10-04:52:56  125.3482    0.1158   15.7398  103.9798     7324.7509     7322.8904     7326.6114  72.466965  36.853055   0.000249   0.000050
1 65977U 25230D   25345.21489419  .00000351  00000-0  30056-3 0  9999 | 2 65977  81.2994  26.0172 0002491 341.2741  18.8324 13.84884908  7797 | 2025/12/11-05:09:26  131.4126    0.1157   18.8416  103.9798     7324.7485     7322.9239     7326.5731  73.060715  35.661245   0.000247   0.000032
1 65977U 25230D   25346.22636047  .00000370  00000-0  31765-3 0  9991 | 2 65977  81.2995  25.0790 0002442 337.6712  22.4338 13.84884916  7937 | 2025/12/12-05:25:57  137.4771    0.1157   22.4445  103.9798     7324.7485     7322.9598     7326.5372  73.634926  34.460215   0.000244   0.000012
1 65977U 25230D   25347.23782696  .00000245  00000-0  20697-3 0  9998 | 2 65977  81.2996  24.1408 0002414 334.2515  25.8521 13.84884898  8073 | 2025/12/13-05:42:28  143.5416    0.1157   25.8642  103.9798     7324.7486     7322.9804     7326.5168  74.189395  33.249941   0.000241  -0.000007
1 65977U 25230D   25348.46603564  .00000216  00000-0  18131-3 0  9998 | 2 65977  81.2994  23.0014 0002385 329.8020  30.2999 13.84885003  8247 | 2025/12/14-11:11:05  228.0484    0.1157   30.3137  103.9798     7324.7482     7323.0012     7326.4952  74.835716  31.768035   0.000237  -0.000030
1 65977U 25230D   25349.83874008  .00000170  00000-0  14019-3 0  9993 | 2 65977  81.2991  21.7278 0002336 325.2887  34.8117 13.84884116  8435 | 2025/12/15-20:07:47    4.8501    0.1157   34.8270  103.9798     7324.7513     7323.0403     7326.4624  75.523048  30.096726   0.000228  -0.000052
1 65977U 25230D   25351.35593856  .00000163  00000-0  13443-3 0  9994 | 2 65977  81.2992  20.3206 0002285 320.7554  39.3437 13.84884663  8641 | 2025/12/17-08:32:33  193.9455    0.1157   39.3603  103.9798     7324.7494     7323.0757     7326.4231  76.239474  28.233004   0.000216  -0.000074
1 65977U 25230D   25352.58414700  .00000163  00000-0  13416-3 0  9990 | 2 65977  81.2990  19.1810 0002254 316.2243  43.8735 13.84884458  8819 | 2025/12/18-14:01:10  278.4520    0.1157   43.8914  103.9798     7324.7501     7323.0991     7326.4011  76.785716  26.711068   0.000205  -0.000094
1 65977U 25230D   25353.81235454  .00000189  00000-0  15666-3 0  9991 | 2 65977  81.2988  18.0415 0002217 311.7668  48.3299 13.84885317  8983 | 2025/12/19-19:29:47    2.9579    0.1157   48.3489  103.9797     7324.7471     7323.1232     7326.3710  77.301537  25.178708   0.000192  -0.000111
1 65977U 25230D   25354.82382036  .00000175  00000-0  14502-3 0  9995 | 2 65977  81.2987  17.1031 0002183 308.1828  51.9132 13.84884988  9122 | 2025/12/20-19:46:18    9.0216    0.1157   51.9329  103.9798     7324.7483     7323.1493     7326.3472  77.703436  23.909300   0.000179  -0.000124
1 65977U 25230D   25356.55776069  .00000203  00000-0  16992-3 0  9997 | 2 65977  81.2986  15.4945 0002160 301.7890  58.3056 13.84885451  9367 | 2025/12/22-13:23:10  276.5592    0.1157   58.3267  103.9797     7324.7466     7323.1645     7326.3288  78.343892  21.718585   0.000159  -0.000147
1 65977U 25230D   25358.14720595  .00000186  00000-0  15422-3 0  9994 | 2 65977  81.2987  14.0198 0002134 295.7550  64.3386 13.84885660  9588 | 2025/12/24-03:31:58  131.8018    0.1156   64.3606  103.9797     7324.7459     7323.1828     7326.3090  78.876980  19.695195   0.000137  -0.000164
1 65977U 25230D   25359.51990860  .00000181  00000-0  15039-3 0  9999 | 2 65977  81.2985  12.7459 0002085 288.7877  71.3054 13.84885660  9771 | 2025/12/25-12:28:40  268.6022    0.1157   71.3280  103.9797     7324.7459     7323.2187     7326.2731  79.295151  17.936696   0.000109  -0.000178
1 65977U 25230D   25360.96485845  .00000236  00000-0  19887-3 0  9998 | 2 65977  81.2986  11.4054 0002076 283.5632  76.5293 13.84886117  9973 | 2025/12/26-23:09:23   71.5494    0.1156   76.5524  103.9797     7324.7443     7323.2237     7326.2649  79.693159  16.076776   0.000088  -0.000188
1 65977U 25230D   25361.97632342  .00000215  00000-0  17973-3 0  9997 | 2 65977  81.2985  10.4674 0002059 280.4443  79.6482 13.84886576 10117 | 2025/12/27-23:25:54   77.6118    0.1157   79.6714  103.9796     7324.7427     7323.2345     7326.2508  79.945566  14.769990   0.000073  -0.000192
1 65977U 25230D   25362.98778783  .00000383  00000-0  32910-3 0  9993 | 2 65977  81.2984   9.5287 0002088 277.0130  83.0790 13.84886955 10259 | 2025/12/28-23:42:24   83.6751    0.1158   83.1028  103.9796     7324.7413     7323.2119     7326.2707  80.176710  13.458269   0.000059  -0.000200
1 65977U 25230D   25364.07150023  .00000358  00000-0  30714-3 0  9998 | 2 65977  81.2987   8.5234 0002123 273.1788  86.9126 13.84886719 10409 | 2025/12/30-01:42:57  115.8856    0.1157   86.9369  103.9796     7324.7422     7323.1871     7326.2972  80.400790  12.049550   0.000043  -0.000208
1 65977U 25230D   25365.15521208  .00000270  00000-0  22916-3 0  9993 | 2 65977  81.2987   7.5179 0002081 268.7919  91.3000 13.84887666 10554 | 2025/12/31-03:43:30  148.0951    0.1157   91.3238  103.9796     7324.7388     7323.2145     7326.2631  80.599859  10.636791   0.000023  -0.000207
1 65977U 25230D   26001.16667677  .00000252  00000-0  21281-3 0  9997 | 2 65977  81.2985   6.5794 0002086 264.6954  95.3965 13.84887363 10696 | 2026/01/01-04:00:00  154.1578    0.1157   95.4203  103.9796     7324.7399     7323.2119     7326.2678  80.763070   9.315181   0.000005  -0.000209
1 65977U 25230D   26002.17814086  .00000321  00000-0  27428-3 0  9993 | 2 65977  81.2985   5.6410 0002091 260.5624  99.5297 13.84887578 10834 | 2026/01/02-04:16:31  160.2200    0.1157   99.5533  103.9796     7324.7391     7323.2075     7326.2707  80.904797   7.991240  -0.000014  -0.000209
1 65977U 25230D   26003.26185243  .00000328  00000-0  28003-3 0  9997 | 2 65977  81.2986   4.6356 0002100 256.5403 103.5520 13.84887845 10982 | 2026/01/03-06:17:04  192.4295    0.1157  103.5754  103.9795     7324.7382     7323.2000     7326.2764  81.032661   6.570410  -0.000032  -0.000208
1 65977U 25230D   26004.27331631  .00000308  00000-0  26266-3 0  9990 | 2 65977  81.2987   3.6972 0002103 252.4621 107.6306 13.84887880 11129 | 2026/01/04-06:33:34  198.4915    0.1157  107.6536  103.9795     7324.7381     7323.1977     7326.2784  81.129499   5.242428  -0.000050  -0.000204
1 65977U 25230D   26005.28477996  .00000342  00000-0  29251-3 0  9992 | 2 65977  81.2988   2.7588 0002118 248.5875 111.5056 13.84888183 11264 | 2026/01/05-06:50:04  204.5533    0.1157  111.5282  103.9795     7324.7370     7323.1856     7326.2884  81.204575   3.913036  -0.000068  -0.000201
1 65977U 25230D   26006.44073936  .00000216  00000-0  18132-3 0  9993 | 2 65977  81.2989   1.6862 0002131 244.3230 115.7707 13.84887605 11427 | 2026/01/06-10:34:39  262.9101    0.1157  115.7927  103.9796     7324.7390     7323.1781     7326.2999  81.263696   2.392260  -0.000087  -0.000195
1 65977U 25230D   26007.45220270  .00000194  00000-0  16170-3 0  9995 | 2 65977  81.2991   0.7479 0002161 241.0879 119.0062 13.84888372 11568 | 2026/01/07-10:51:10  268.9717    0.1158  119.0279  103.9795     7324.7363     7323.1534     7326.3192  81.292174   1.061193  -0.000102  -0.000191
1 65977U 25230D   26008.46366668  .00000257  00000-0  21751-3 0  9990 | 2 65977  81.2992 359.8096 0002171 237.2055 122.8893 13.84887975 11704 | 2026/01/08-11:07:40  275.0333    0.1157  122.9102  103.9795     7324.7377     7323.1475     7326.3279  81.298751  -0.270165  -0.000118  -0.000182
1 65977U 25230D   26009.47513040  .00000171  00000-0  14132-3 0  9990 | 2 65977  81.2994 358.8712 0002199 233.5651 126.5303 13.84888135 11842 | 2026/01/09-11:24:11  281.0950    0.1156  126.5505  103.9795     7324.7372     7323.1264     7326.3479  81.283623  -1.601598  -0.000134  -0.000174
1 65977U 25230D   26010.99232537  .00000270  00000-0  22895-3 0  9993 | 2 65977  81.2993 357.4636 0002245 227.5170 132.5797 13.84888424 12051 | 2026/01/10-23:48:56  110.1869    0.1156  132.5986  103.9795     7324.7361     7323.0917     7326.3805  81.219652  -3.597825  -0.000159  -0.000159
1 65977U 25230D   26012.29277783  .00000262  00000-0  22156-3 0  9991 | 2 65977  81.2995 356.2574 0002275 223.3709 136.7270 13.84889023 12234 | 2026/01/12-07:01:36  220.8366    0.1158  136.7449  103.9795     7324.7340     7323.0676     7326.4004  81.126118  -5.306764  -0.000175  -0.000145
1 65977U 25230D   26013.44873594  .00000205  00000-0  17102-3 0  9993 | 2 65977  81.2997 355.1849 0002283 219.6341 140.4650 13.84889013 12398 | 2026/01/13-10:46:10  279.1922    0.1157  140.4816  103.9795     7324.7341     7323.0618     7326.4063  81.012775  -6.824334  -0.000187  -0.000130
1 65977U 25230D   26014.46019916  .00000187  00000-0  15523-3 0  9990 | 2 65977  81.2997 354.2467 0002318 214.8070 145.2936 13.84888963 12538 | 2026/01/14-11:02:41  285.2526    0.1157  145.3087  103.9795     7324.7342     7323.0364     7326.4321  80.890173  -8.149918  -0.000203  -0.000113
1 65977U 25230D   26015.47166241  .00000193  00000-0  16044-3 0  9992 | 2 65977  81.2997 353.3085 0002359 211.6905 148.4110 13.84888631 12677 | 2026/01/15-11:19:11  291.3136    0.1157  148.4252  103.9795     7324.7354     7323.0075     7326.4633  80.745882  -9.473317  -0.000214  -0.000100
1 65977U 25230D   26016.91660961  .00000107  00000-0  83944-4 0  9999 | 2 65977  81.2999 351.9684 0002415 207.8049 152.2979 13.84888951 12870 | 2026/01/16-21:59:55   94.2576    0.1157  152.3108  103.9795     7324.7343     7322.9654     7326.5032  80.502442 -11.359160  -0.000227  -0.000082
1 65977U 25230D   26017.92807210  .00000136  00000-0  10960-3 0  9990 | 2 65977  81.3002 351.0301 0002461 203.7634 156.3410 13.84889644 13011 | 2026/01/17-22:16:25  100.3177    0.1157  156.3523  103.9794     7324.7318     7322.9292     7326.5345  80.305930 -12.675967  -0.000238  -0.000063
1 65977U 25230D   26018.93953499  .00000208  00000-0  17432-3 0  9994 | 2 65977  81.3003 350.0919 0002511 200.4788 159.6269 13.84889376 13151 | 2026/01/18-22:32:55  106.3782    0.1157  159.6369  103.9794     7324.7328     7322.8935     7326.5720  80.087707 -13.989210  -0.000247  -0.000046
1 65977U 25230D   26019.95099808  .00000176  00000-0  14578-3 0  9994 | 2 65977  81.3002 349.1536 0002540 197.3791 162.7279 13.84889727 13295 | 2026/01/19-22:49:26  112.4389    0.1156  162.7365  103.9794     7324.7315     7322.8711     7326.5920  79.847787 -15.298807  -0.000252  -0.000029
1 65977U 25230D   26020.96246087  .00000206  00000-0  17194-3 0  9991 | 2 65977  81.3003 348.2155 0002568 193.7072 166.4016 13.84889616 13438 | 2026/01/20-23:05:56  118.4987    0.1157  166.4085  103.9794     7324.7319     7322.8509     7326.6129  79.586707 -16.604061  -0.000257  -0.000009
1 65977U 25230D   26022.26291166  .00000355  00000-0  30429-3 0  9995 | 2 65977  81.3008 347.0094 0002647 188.6408 171.4704 13.84890429 13610 | 2026/01/22-06:18:35  229.1465    0.1157  171.4749  103.9793     7324.7291     7322.7902     7326.6679  79.220065 -18.275704  -0.000264   0.000020
1 65977U 25230D   26023.63560965  .00000366  00000-0  31369-3 0  9999 | 2 65977  81.3009 345.7360 0002680 185.3055 174.8074 13.84891415 13805 | 2026/01/23-15:15:16    5.9425    0.1157  174.8102  103.9793     7324.7256     7322.7626     7326.6886  78.794453 -20.031738  -0.000265   0.000042
1 65977U 25230D   26025.22504953  .00000394  00000-0  33854-3 0  9993 | 2 65977  81.3016 344.2615 0002804 179.7043 180.4116 13.84891593 14024 | 2026/01/25-05:24:04  221.1790    0.1157  180.4114  103.9793     7324.7250     7322.6711     7326.7788  78.253579 -22.052837  -0.000269   0.000077
1 65977U 25230D   26026.30875785  .00000267  00000-0  22595-3 0  9996 | 2 65977  81.3017 343.2562 0002858 177.6317 182.4854 13.84892149 14170 | 2026/01/26-07:24:36  253.3862    0.1157  182.4840  103.9792     7324.7230     7322.6296     7326.8164  77.854715 -23.422422  -0.000270   0.000094
1 65977U 25230D   26027.32021858  .00000309  00000-0  26309-3 0  9997 | 2 65977  81.3029 342.3150 0002844 176.4053 183.7125 13.84892301 14316 | 2026/01/27-07:41:06  259.4495    0.1157  183.7104  103.9792     7324.7225     7322.6393     7326.8056  77.460610 -24.698491  -0.000265   0.000103
1 65977U 25230D   26028.90965661  .00000354  00000-0  30298-3 0  9993 | 2 65977  81.3015 340.8444 0002958 170.8424 189.2787 13.84892863 14538 | 2026/01/28-21:49:54  114.6811    0.1156  189.2732  103.9792     7324.7205     7322.5538     7326.8871  76.799912 -26.677845  -0.000260   0.000140
1 65977U 25230D   26029.99336453  .00000291  00000-0  24777-3 0  9999 | 2 65977  81.3014 339.8397 0002973 168.4341 191.6884 13.84892701 14682 | 2026/01/29-23:50:26  146.8874    0.1156  191.6815  103.9792     7324.7211     7322.5434     7326.8987  76.320230 -28.020352  -0.000253   0.000156
1 65977U 25230D   26031.07707211  .00000261  00000-0  22086-3 0  9993 | 2 65977  81.3016 338.8347 0003055 165.1426 194.9822 13.84892561 14837 | 2026/01/31-01:50:59  179.0930    0.1158  194.9732  103.9792     7324.7216     7322.4838     7326.9593  75.817209 -29.354744  -0.000247   0.000180
1 65977U 25230D   26032.08853193  .00000190  00000-0  15781-3 0  9991 | 2 65977  81.3018 337.8966 0003114 162.0370 198.0898 13.84893330 14973 | 2026/02/01-02:07:29  185.1516    0.1157  198.0787  103.9791     7324.7188     7322.4379     7326.9998  75.326630 -30.592180  -0.000238   0.000200
1 65977U 25230D   26033.24448580  .00000256  00000-0  21685-3 0  9993 | 2 65977  81.3018 336.8247 0003180 158.7043 201.4247 13.84893801 15135 | 2026/02/02-05:52:03  243.5040    0.1157  201.4114  103.9791     7324.7172     7322.3879     7327.0464  74.741158 -31.995969  -0.000227   0.000223
1 65977U 25230D   26034.25594517  .00000272  00000-0  23072-3 0  9997 | 2 65977  81.3020 335.8864 0003275 156.0648 204.0662 13.84894327 15278 | 2026/02/03-06:08:33  249.5627    0.1157  204.0509  103.9791     7324.7153     7322.3165     7327.1142  74.207362 -33.215698  -0.000219   0.000244
1 65977U 25230D   26035.26740474  .00000250  00000-0  21075-3 0  9991 | 2 65977  81.3020 334.9484 0003303 153.7466 206.3859 13.84894415 15417 | 2026/02/04-06:25:03  255.6215    0.1157  206.3691  103.9790     7324.7150     7322.2957     7327.1344  73.653662 -34.426056  -0.000206   0.000258
1 65977U 25230D   26036.27886357  .00000307  00000-0  26143-3 0  9998 | 2 65977  81.3020 334.0107 0003293 151.2572 208.8767 13.84895141 15556 | 2026/02/05-06:41:33  261.6800    0.1157  208.8585  103.9790     7324.7125     7322.3004     7327.1245  73.080408 -35.626804  -0.000190   0.000269
1 65977U 25230D   26037.29032226  .00000334  00000-0  28553-3 0  9996 | 2 65977  81.3020 333.0728 0003334 148.8845 211.2510 13.84895491 15692 | 2026/02/06-06:58:03  267.7383    0.1157  211.2312  103.9790     7324.7112     7322.2692     7327.1533  72.487452 -36.818263  -0.000176   0.000283
1 65977U 25230D   26038.30178078  .00000331  00000-0  28283-3 0  9992 | 2 65977  81.3020 332.1349 0003380 146.5833 213.5538 13.84895778 15833 | 2026/02/07-07:14:33  273.7966    0.1157  213.5324  103.9789     7324.7102     7322.2345     7327.1860  71.875073 -37.999856  -0.000162   0.000296
1 65977U 25230D   26039.31323895  .00000361  00000-0  30946-3 0  9995 | 2 65977  81.3019 331.1970 0003416 143.9592 216.1795 13.84896213 15977 | 2026/02/08-07:31:03  279.8548    0.1156  216.1564  103.9789     7324.7087     7322.2066     7327.2108  71.243347 -39.171219  -0.000145   0.000309
1 65977U 25230D   26040.83042678  .00000265  00000-0  22425-3 0  9997 | 2 65977  81.3019 329.7899 0003538 140.2294 219.9123 13.84896029 16189 | 2026/02/09-19:55:48  108.9420    0.1157  219.8863  103.9789     7324.7093     7322.1178     7327.3008  70.259973 -40.908863  -0.000121   0.000332
1 65977U 25230D   26041.84188467  .00000207  00000-0  17300-3 0  9998 | 2 65977  81.3020 328.8522 0003472 137.3145 222.8282 13.84896398 16327 | 2026/02/10-20:12:18  115.0004    0.1157  222.8012  103.9789     7324.7080     7322.1649     7327.2512  69.581167 -42.053257  -0.000097   0.000333
1 65977U 25230D   26042.92558983  .00000070  00000-0  51271-4 0  9996 | 2 65977  81.3015 327.8473 0003521 135.4212 224.7229 13.84896311 16477 | 2026/02/11-22:12:50  147.2060    0.1157  224.6945  103.9789     7324.7083     7322.1293     7327.2874  68.832516 -43.266831  -0.000081   0.000343
1 65977U 25230D   26044.15378828  .00000151  00000-0  12299-3 0  9997 | 2 65977  81.3013 326.7075 0003612 132.2141 227.9323 13.84896236 16643 | 2026/02/13-03:41:27  231.7055    0.1157  227.9016  103.9789     7324.7086     7322.0629     7327.3543  67.958067 -44.627374  -0.000056   0.000357
1 65977U 25230D   26045.23749227  .00000309  00000-0  26364-3 0  9995 | 2 65977  81.3018 325.7036 0003718 129.5874 230.5612 13.84896893 16799 | 2026/02/14-05:41:59  263.9088    0.1157  230.5283  103.9789     7324.7063     7321.9830     7327.4296  67.166157 -45.811462  -0.000034   0.000370
1 65977U 25230D   26046.24895007  .00000251  00000-0  21205-3 0  9990 | 2 65977  81.3019 324.7658 0003766 127.6148 232.5352 13.84896726 16939 | 2026/02/15-05:58:29  269.9669    0.1158  232.5010  103.9789     7324.7069     7321.9484     7327.4654  66.407447 -46.904690  -0.000016   0.000376
1 65977U 25230D   26047.26040701  .00000203  00000-0  16978-3 0  9994 | 2 65977  81.3020 323.8275 0003746 124.7196 235.4314 13.84897609 17072 | 2026/02/16-06:14:59  276.0256    0.1157  235.3961  103.9788     7324.7038     7321.9599     7327.4476  65.630526 -47.985927   0.000009   0.000374
1 65977U 25230D   26048.27186429  .00000278  00000-0  23605-3 0  9991 | 2 65977  81.3017 322.8899 0003773 122.4745 237.6777 13.84897323 17210 | 2026/02/17-06:31:29  282.0836    0.1157  237.6412  103.9788     7324.7048     7321.9411     7327.4684  64.836283 -49.053265   0.000030   0.000376
1 65977U 25230D   26049.86129690  .00000243  00000-0  20460-3 0  9992 | 2 65977  81.3015 321.4157 0003831 119.6990 240.4548 13.84897246 17431 | 2026/02/18-20:40:16  137.3186    0.1156  240.4166  103.9788     7324.7050     7321.8989     7327.5111  63.552683 -50.704934   0.000059   0.000379
1 65977U 25230D   26051.16174071  .00000266  00000-0  22509-3 0  9992 | 2 65977  81.3014 320.2097 0003895 117.5900 242.5653 13.84898172 17617 | 2026/02/20-03:52:54  247.9646    0.1157  242.5257  103.9788     7324.7018     7321.8488     7327.5547  62.471336 -52.031239   0.000082   0.000381
1 65977U 25230D   26052.24544441  .00000253  00000-0  21333-3 0  9994 | 2 65977  81.3011 319.2048 0003912 115.1150 245.0413 13.84898186 17762 | 2026/02/21-05:53:26  280.1700    0.1157  245.0007  103.9788     7324.7017     7321.8363     7327.5671  61.548981 -53.118658   0.000106   0.000377
1 65977U 25230D   26053.69038247  .00000198  00000-0  16466-3 0  9995 | 2 65977  81.3010 317.8647 0003990 112.6143 247.5436 13.84898202 17963 | 2026/02/22-16:34:09   83.1104    0.1157  247.5014  103.9788     7324.7017     7321.7791     7327.6242  60.289785 -54.543510   0.000133   0.000376
1 65977U 25230D   26055.20756661  .00000236  00000-0  19852-3 0  9996 | 2 65977  81.3009 316.4581 0004000 108.8628 251.2963 13.84898524 18179 | 2026/02/24-04:58:53  272.1975    0.1157  251.2529  103.9787     7324.7005     7321.7706     7327.6304  58.932647 -56.006959   0.000167   0.000363
1 65977U 25230D   26056.21902244  .00000244  00000-0  20556-3 0  9990 | 2 65977  81.3005 315.5202 0004003 106.5951 253.5646 13.84898802 18310 | 2026/02/25-05:15:23  278.2558    0.1157  253.5206  103.9787     7324.6995     7321.7675     7327.6316  58.007705 -56.963826   0.000187   0.000354
1 65977U 25230D   26057.23047839  .00000241  00000-0  20291-3 0  9996 | 2 65977  81.3006 314.5816 0004050 104.4958 255.6649 13.84899010 18450 | 2026/02/26-05:31:53  284.3145    0.1157  255.6199  103.9787     7324.6988     7321.7323     7327.6653  57.066871 -57.906474   0.000208   0.000347
1 65977U 25230D   26058.81990910  .00000203  00000-0  16960-3 0  9994 | 2 65977  81.2998 313.1081 0004095 101.1470 259.0147 13.84899195 18679 | 2026/02/27-19:40:40  139.5487    0.1156  258.9686  103.9787     7324.6982     7321.6987     7327.6976  55.558413 -59.354193   0.000239   0.000332
1 65977U 25230D   26059.83136449  .00000214  00000-0  17940-3 0  9997 | 2 65977  81.3000 312.1697 0004093  99.4794 260.6826 13.84899415 18815 | 2026/02/28-19:57:09  145.6077    0.1157  260.6363  103.9787     7324.6974     7321.6994     7327.6954  54.579026 -60.256285   0.000254   0.000321
1 65977U 25230D   26060.98731325  .00000231  00000-0  19413-3 0  9995 | 2 65977  81.2998 311.0976 0004100  97.1074 263.0549 13.84900023 18977 | 2026/03/01-23:41:43  203.9604    0.1157  263.0083  103.9786     7324.6952     7321.6921     7327.6984  53.441910 -61.266792   0.000273   0.000306
1 65977U 25230D   26062.14326203  .00000254  00000-0  21499-3 0  9992 | 2 65977  81.2997 310.0255 0004088  94.8908 265.2716 13.84900213 19130 | 2026/03/03-03:26:17  262.3133    0.1157  265.2249  103.9786     7324.6946     7321.7002     7327.6889  52.286153 -62.255919   0.000289   0.000289
1 65977U 25230D   26063.15471677  .00000314  00000-0  26747-3 0  9998 | 2 65977  81.2994 309.0873 0004080  92.9677 267.1947 13.84900727 19277 | 2026/03/04-03:42:47  268.3721    0.1157  267.1480  103.9786     7324.6928     7321.7043     7327.6812  51.259579 -63.103471   0.000303   0.000273
1 65977U 25230D   26064.16617186  .00000349  00000-0  29849-3 0  9991 | 2 65977  81.2993 308.1494 0004119  90.8209 269.3420 13.84900447 19411 | 2026/03/05-03:59:17  274.4303    0.1157  269.2948  103.9786     7324.6937     7321.6767     7327.7108  50.219727 -63.933991   0.000320   0.000259
1 65977U 25230D   26065.17762708  .00000304  00000-0  25878-3 0  9993 | 2 65977  81.2992 307.2114 0004135  88.8645 271.2986 13.84899910 19554 | 2026/03/06-04:15:46  280.4889    0.1157  271.2512  103.9786     7324.6956     7321.6669     7327.7244  49.166308 -64.747464   0.000334   0.000243
1 65977U 25230D   26066.18908135  .00000201  00000-0  16768-3 0  9995 | 2 65977  81.2990 306.2729 0004128  86.4415 273.7215 13.84900434 19695 | 2026/03/07-04:32:16  286.5480    0.1158  273.6743  103.9786     7324.6938     7321.6702     7327.7174  48.099084 -65.543921   0.000347   0.000223
1 65977U 25230D   26067.34502756  .00000336  00000-0  28729-3 0  9992 | 2 65977  81.2988 305.2002 0004056  84.3575 275.8044 13.84901868 19852 | 2026/03/08-08:16:50  344.9018    0.1157  275.7582  103.9785     7324.6887     7321.7178     7327.6596  46.863487 -66.432736   0.000353   0.000200
1 65977U 25230D   26068.64546907  .00000230  00000-0  19292-3 0  9990 | 2 65977  81.2986 303.9943 0004098  81.8891 278.2731 13.84901754 20034 | 2026/03/09-15:29:28   95.5481    0.1157  278.2266  103.9785     7324.6891     7321.6875     7327.6908  45.454895 -67.404116   0.000369   0.000179
1 65977U 25230D   26069.72917019  .00000177  00000-0  14673-3 0  9994 | 2 65977  81.2983 302.9892 0004109  79.5466 280.6154 13.84901113 20189 | 2026/03/10-17:30:00  127.7540    0.1157  280.5691  103.9785     7324.6914     7321.6817     7327.7011  44.265375 -68.190836   0.000380   0.000157
1 65977U 25230D   26070.88511697  .00000101  00000-0  78809-4 0  9994 | 2 65977  81.2981 301.9175 0004128  77.5002 282.6617 13.84901611 20342 | 2026/03/11-21:14:34  186.1060    0.1157  282.6155  103.9785     7324.6896     7321.6660     7327.7133  42.982111 -69.006660   0.000389   0.000137
1 65977U 25230D   26072.61903675  .00000173  00000-0  14313-3 0  9996 | 2 65977  81.2979 300.3092 0004124  73.5910 286.5700 13.84902094 20588 | 2026/03/13-14:51:24   93.6353    0.1157  286.5247  103.9785     7324.6879     7321.6672     7327.7086  41.028307 -70.185658   0.000400   0.000099
1 65977U 25230D   26073.63049023  .00000122  00000-0  97916-4 0  9992 | 2 65977  81.2976 299.3709 0004123  71.3304 288.8301 13.84901956 20723 | 2026/03/14-15:07:54   99.6943    0.1158  288.7854  103.9785     7324.6884     7321.6685     7327.7084  39.873319 -70.847852   0.000405   0.000077
1 65977U 25230D   26074.85868306  .00000177  00000-0  14626-3 0  9996 | 2 65977  81.2974 298.2315 0004131  69.1215 291.0384 13.84901909 20890 | 2026/03/15-20:36:30  184.1943    0.1157  290.9942  103.9785     7324.6886     7321.6628     7327.7144  38.456533 -71.626548   0.000410   0.000053
1 65977U 25230D   26075.87013593  .00000195  00000-0  16223-3 0  9994 | 2 65977  81.2969 297.2929 0004105  67.1195 293.0394 13.84902010 21034 | 2026/03/16-20:52:59  190.2539    0.1156  292.9961  103.9785     7324.6882     7321.6815     7327.6950  37.277835 -72.246446   0.000409   0.000032
1 65977U 25230D   26076.88158854  .00000161  00000-0  13227-3 0  9990 | 2 65977  81.2967 296.3544 0004099  65.1199 295.0384 13.84902498 21175 | 2026/03/17-21:09:29  196.3128    0.1157  294.9958  103.9784     7324.6865     7321.6841     7327.6889  36.089407 -72.847156   0.000410   0.000011
1 65977U 25230D   26077.89304044  .00000307  00000-0  26179-3 0  9998 | 2 65977  81.2960 295.4158 0004103  63.1863 296.9713 13.84903050 21318 | 2026/03/18-21:25:58   22.7559    0.1157  296.9294  103.9784     7324.6846     7321.6792     7327.6899  34.890961 -73.427927   0.000410  -0.000010
1 65977U 25230D   26079.04931239 -.00029442  00000-0 -26328-1 0  9996 | 2 65977  81.2946 294.3441 0003465  50.0526 310.0935 13.84645890 21472 | 2026/03/20-01:11:00   81.3912    0.1157  310.0631  103.9977     7325.5914     7323.0531     7328.1298  33.510913 -74.066394   0.000334  -0.000093
1 65977U 25230D   26080.06100077 -.00027767  00000-0 -24850-1 0  9994 | 2 65977  81.2949 293.4074 0002757  62.7372 297.4066 13.84589043 21615 | 2026/03/21-01:27:50   87.5472    0.1157  297.3785  104.0020     7325.7920     7323.7722     7327.8117  32.295734 -74.604600   0.000275  -0.000019
1 65977U 25230D   26083.24112296  .00000226  00000-0  19195-3 0  9990 | 2 65977  81.2961 290.4546 0001061 124.2502 235.8756 13.84180185 22051 | 2026/03/24-05:47:13  158.6759    0.1157  235.8655  104.0327     7327.2345     7326.4571     7328.0119  28.410147 -76.170331   0.000061   0.000087
1 65977U 25230D   26084.54224193  .00000190  00000-0  15982-3 0  9994 | 2 65977  81.2955 289.2517 0001039  86.7901 273.3374 13.84180959 22230 | 2026/03/25-13:00:49  268.8706    0.1156  273.3255  104.0326     7327.2317     7326.4704     7327.9930  26.804643 -76.749394   0.000100   0.000029
1 65977U 25230D   26085.84335829  .00000222  00000-0  18878-3 0  9990 | 2 65977  81.2953 288.0455 0001043  84.1710 275.9566 13.84181719 22417 | 2026/03/26-20:14:26   20.0602    0.1157  275.9447  104.0326     7327.2291     7326.4648     7327.9933  25.183020 -77.296451   0.000102   0.000022
1 65977U 25230D   26086.91667824  .00040193  00000-0  35898-1 0  9992 | 2 65977  81.2963 287.0503 0001040  79.6848 225.9453 13.84159831  5409 | 2026/03/27-22:00:00  103.0747  305.6215  225.9367  104.0342     7327.3063     7326.5443     7328.0683  23.836980 -77.723142   0.000103   0.000012
1 65977U 25230D   26087.94005287 -.00029442  00000-0 -26672-1 0  9991 | 2 65977  81.2952 286.1032 0000845  85.5158 274.6095 13.83890400 22704 | 2026/03/28-22:33:40   58.9750    0.1156  274.5998  104.0545     7328.2573     7327.6381     7328.8766  22.548712 -78.105474   0.000083   0.000017
1 65977U 25230D   26089.09691321 -.00015937  00000-0 -14442-1 0  9995 | 2 65977  81.2953 285.0318 0001038 104.5873 255.5398 13.83794118 22861 | 2026/03/30-02:19:33  117.8103    0.1156  255.5283  104.0617     7328.5972     7327.8365     7329.3579  21.084351 -78.513540   0.000090   0.000051
1 65977U 25230D   26090.25386675  .00000225  00000-0  19329-3 0  9991 | 2 65977  81.2953 283.9602 0000891  93.6697 266.4562 13.83714083 23028 | 2026/03/31-06:05:34  176.6823    0.1157  266.4460  104.0677     7328.8798     7328.2268     7329.5328  19.612315 -78.894125   0.000085   0.000027
1 65977U 25230D   26091.77234871  .00000256  00000-0  22111-3 0  9996 | 2 65977  81.2951 282.5536 0000897  93.3095 266.8164 13.83714021 23239 | 2026/04/01-18:32:10    5.7610    0.1156  266.8061  104.0677     7328.8800     7328.2226     7329.5374  17.669721 -79.351586   0.000086   0.000025
1 65977U 25230D   26092.78466999  .00000241  00000-0  20730-3 0  9995 | 2 65977  81.2952 281.6159 0000890  96.1583 263.9674 13.83713845 23379 | 2026/04/02-18:49:55   12.1463    0.1156  263.9573  104.0678     7328.8807     7328.2284     7329.5329  16.368768 -79.630226   0.000085   0.000027
1 65977U 25230D   26093.86929907  .00000317  00000-0  27631-3 0  9999 | 2 65977  81.2951 280.6114 0000913  96.0239 264.1021 13.83714566 23528 | 2026/04/03-20:51:47   44.7697    0.1156  264.0917  104.0677     7328.8781     7328.2090     7329.5472  14.970242 -79.904850   0.000087   0.000026
1 65977U 25230D   26094.95441237 -.00047433  00000-0 -43489-1 0  9994 | 2 65977  81.2954 279.6075 0000877  71.1030 289.0221 13.83313248 23673 | 2026/04/04-22:54:21   77.5696    0.1156  289.0126  104.0979     7330.2955     7329.6527     7330.9384  13.568024 -80.155167   0.000087  -0.000014
1 65977U 25230D   26096.25002315 -.00004576  00000-0 -43103-2 0  9994 | 2 65977  81.2970 278.4054 0001055 109.4463 214.5194 13.81548351  4224 | 2026/04/06-06:00:02  222.9203  323.9588  214.5125  104.2309     7336.5371     7335.7631     7337.3111  11.883692 -80.423753   0.000093   0.000049
1 65977U 25230D   26097.25003472 -.00005101  00000-0 -48457-2 0  9992 | 2 65977  81.2971 277.4787 0001154 103.2648 154.8903 13.81039372  4350 | 2026/04/07-06:00:02  290.6432  258.1607  154.8959  104.2693     7338.3395     7337.4927     7339.1864  10.581436 -80.605531   0.000108   0.000041
1 65977U 25230D   26098.57476380  .00000153  00000-0  13236-3 0  9998 | 2 65977  81.2958 276.2657 0001050 112.1138 248.0128 13.81542852 24175 | 2026/04/08-13:47:39  307.4290    0.1154  248.0016  104.2313     7336.5565     7335.7862     7337.3269   8.872563 -80.810177   0.000092   0.000050
1 65977U 25230D   26099.80594144  .00000258  00000-0  23087-3 0  9995 | 2 65977  81.2960 275.1293 0001047 109.7282 250.3986 13.81542881 24349 | 2026/04/09-19:20:33   33.2316    0.1155  250.3873  104.2313     7336.5564     7335.7883     7337.3246   7.268158 -80.970448   0.000095   0.000044
1 65977U 25230D   26100.89227480  .00000212  00000-0  18820-3 0  9992 | 2 65977  81.2961 274.1270 0001066 110.2396 249.8873 13.81542830 24496 | 2026/04/10-21:24:52   66.4688    0.1154  249.8758  104.2313     7336.5566     7335.7745     7337.3387   5.850675 -81.085298   0.000097   0.000044
1 65977U 25230D   26102.19587456  .00000172  00000-0  15012-3 0  9994 | 2 65977  81.2960 272.9240 0001117 110.4738 249.6537 13.81542940 24674 | 2026/04/12-04:42:03  178.5512    0.1155  249.6417  104.2313     7336.5562     7335.7367     7337.3757   4.147013 -81.190159   0.000103   0.000044
1 65977U 25230D   26103.20978511  .00000178  00000-0  15595-3 0  9995 | 2 65977  81.2959 271.9885 0001131 110.4634 249.6643 13.81543263 24810 | 2026/04/13-05:02:05  185.5079    0.1155  249.6521  104.2313     7336.5551     7335.7253     7337.3848   2.820879 -81.246945   0.000105   0.000043
1 65977U 25230D   26104.44096255  .00000139  00000-0  11986-3 0  9995 | 2 65977  81.2963 270.8524 0001140 111.1296 248.9981 13.81542910 24988 | 2026/04/14-10:34:59  271.3104    0.1155  248.9859  104.2313     7336.5563     7335.7200     7337.3927   1.209416 -81.287303   0.000106   0.000043
1 65977U 25230D   26105.81698380  .00000148  00000-0  12749-3 0  9992 | 2 65977  81.2964 269.5828 0001160 110.5305 249.5974 13.81543225 25178 | 2026/04/15-19:36:27   48.6877    0.1154  249.5849  104.2313     7336.5552     7335.7042     7337.4062  -0.591956 -81.294245   0.000109   0.000040
1 65977U 25230D   26107.69996016  .00000155  00000-0  13493-3 0  9992 | 2 65977  81.2965 267.8456 0001153 110.9486 249.1793 13.81543414 25437 | 2026/04/17-16:47:56   10.0363    0.1156  249.1670  104.2313     7336.5545     7335.7086     7337.4004  -3.056140 -81.239036   0.000109   0.000037
1 65977U 25230D   26108.85871499  .00000101  00000-0  83374-4 0  9995 | 2 65977  81.2967 266.7765 0001194 110.3879 249.7404 13.81543618 25593 | 2026/04/18-20:36:32   69.5536    0.1155  249.7276  104.2312     7336.5538     7335.6778     7337.4298  -4.571396 -81.168071   0.000114   0.000035
1 65977U 25230D   26109.87262503  .00000143  00000-0  12360-3 0  9990 | 2 65977  81.2968 265.8409 0001206 109.5941 250.5345 13.81543952 25734 | 2026/04/19-20:56:34   76.5103    0.1156  250.5215  104.2312     7336.5526     7335.6678     7337.4374  -5.896153 -81.082705   0.000116   0.000032
1 65977U 25230D   26110.88653514  .00000196  00000-0  17251-3 0  9991 | 2 65977  81.2969 264.9056 0001210 109.9784 250.1502 13.81544061 25875 | 2026/04/20-21:16:36   83.4670    0.1156  250.1372  104.2312     7336.5522     7335.6645     7337.4400  -7.218916 -80.975757   0.000117   0.000031
1 65977U 25230D   26111.90044571  .00000146  00000-0  12596-3 0  9994 | 2 65977  81.2969 263.9701 0001233 110.0774 250.0514 13.81543888 26013 | 2026/04/21-21:36:38   90.4237    0.1155  250.0381  104.2312     7336.5529     7335.6483     7337.4575  -8.540032 -80.847101   0.000120   0.000030
1 65977U 25230D   26113.13162221  .00000176  00000-0  15406-3 0  9990 | 2 65977  81.2973 262.8342 0001253 109.7046 250.4244 13.81544082 26185 | 2026/04/23-03:09:32  176.2258    0.1155  250.4109  104.2312     7336.5522     7335.6329     7337.4714 -10.141108 -80.662314   0.000122   0.000027
1 65977U 25230D   26114.50764274  .00000223  00000-0  19849-3 0  9996 | 2 65977  81.2975 261.5648 0001241 109.2450 250.8840 13.81544320 26375 | 2026/04/24-12:11:00  313.6031    0.1156  250.8706  104.2312     7336.5513     7335.6409     7337.4618 -11.925593 -80.418056   0.000122   0.000023
1 65977U 25230D   26115.81124131  .00000264  00000-0  23689-3 0  9995 | 2 65977  81.2977 260.3621 0001266 110.6143 249.5148 13.81544240 26554 | 2026/04/25-19:28:11   65.6857    0.1155  249.5012  104.2312     7336.5516     7335.6228     7337.4804 -13.610936 -80.150224   0.000124   0.000024
1 65977U 25230D   26116.82515117  .00000117  00000-0  98728-4 0  9999 | 2 65977  81.2977 259.4268 0001270 109.7298 250.3994 13.81544457 26699 | 2026/04/26-19:48:13   72.6423    0.1155  250.3857  104.2312     7336.5508     7335.6191     7337.4826 -14.917442 -79.917369   0.000125   0.000020
1 65977U 25230D   26117.83906065  .00000135  00000-0  11547-3 0  9990 | 2 65977  81.2978 258.4915 0001250 109.5269 250.6021 13.81544702 26835 | 2026/04/27-20:08:14   79.5950    0.1155  250.5886  104.2312     7336.5500     7335.6329     7337.4670 -16.219993 -79.663317   0.000124   0.000017
1 65977U 25230D   26118.85297015  .00000238  00000-0  21221-3 0  9995 | 2 65977  81.2981 257.5563 0001273 108.9316 251.1977 13.81544460 26971 | 2026/04/28-20:28:16   86.5513    0.1155  251.1839  104.2312     7336.5508     7335.6169     7337.4848 -17.518129 -79.388262   0.000126   0.000014
1 65977U 25230D   26119.86687944  .00000190  00000-0  16702-3 0  9996 | 2 65977  81.2983 256.6210 0001284 109.0103 251.1192 13.81545057 27119 | 2026/04/29-20:48:18   93.5078    0.1156  251.1053  104.2311     7336.5487     7335.6067     7337.4907 -18.811723 -79.091925   0.000128   0.000013
1 65977U 25230D   26120.88078918  .00000134  00000-0  11512-3 0  9997 | 2 65977  81.2984 255.6859 0001300 108.0843 252.0454 13.81544835 27256 | 2026/04/30-21:08:20  100.4641    0.1155  252.0312  104.2311     7336.5495     7335.5958     7337.5033 -20.100011 -78.774484   0.000130   0.000009
1 65977U 25230D   26121.89469848  .00000147  00000-0  12725-3 0  9996 | 2 65977  81.2985 254.7506 0001305 107.4156 252.7142 13.81544865 27390 | 2026/05/01-21:28:21  107.4165    0.1155  252.6999  104.2311     7336.5494     7335.5920     7337.5068 -21.383222 -78.435986   0.000130   0.000005
1 65977U 25230D   26123.05345082  .00000288  00000-0  25949-3 0  9997 | 2 65977  81.2986 253.6815 0001334 109.1969 250.9331 13.81545860 27559 | 2026/05/03-01:16:58  166.9382    0.1156  250.9187  104.2311     7336.5459     7335.5672     7337.5246 -22.843004 -78.023455   0.000133   0.000007
1 65977U 25230D   26124.06736060  .00000192  00000-0  16932-3 0  9995 | 2 65977  81.2987 252.7465 0001339 107.2530 252.8771 13.81545593 27696 | 2026/05/04-01:36:59  173.8903    0.1154  252.8624  104.2311     7336.5468     7335.5645     7337.5292 -24.113187 -77.640407   0.000134  -0.000000
1 65977U 25230D   26125.29853577  .00000244  00000-0  21772-3 0  9990 | 2 65977  81.2989 251.6109 0001335 105.6856 254.4447 13.81545913 27863 | 2026/05/05-07:09:53  259.6921    0.1156  254.4300  104.2311     7336.5457     7335.5663     7337.5251 -25.647243 -77.147457   0.000133  -0.000006
1 65977U 25230D   26126.31244508  .00000174  00000-0  15235-3 0  9991 | 2 65977  81.2991 250.6760 0001347 106.3551 253.7752 13.81545610 28003 | 2026/05/06-07:29:55  266.6484    0.1155  253.7604  104.2311     7336.5468     7335.5585     7337.5350 -26.902661 -76.718906   0.000135  -0.000007
1 65977U 25230D   26127.39877595  .00000157  00000-0  13623-3 0  9998 | 2 65977  81.2992 249.6739 0001352 106.4960 253.6344 13.81545690 28159 | 2026/05/07-09:34:14  299.8854    0.1155  253.6195  104.2311     7336.5465     7335.5546     7337.5384 -28.240322 -76.236764   0.000135  -0.000009
1 65977U 25230D   26128.62995082  .00000122  00000-0  10386-3 0  9992 | 2 65977  81.2993 248.5385 0001347 106.0541 254.0762 13.81545881 28320 | 2026/05/08-15:07:07   24.6974    0.1155  254.0614  104.2311     7336.5458     7335.5576     7337.5340 -29.745458 -75.662302   0.000134  -0.000013
