# SPACE DATA - HISTORICAL TLEs
# ----------------------------
# NORAD_ID    : 57758
# OBJECT_NAME : WILDFIRE 3
# --------------------------------------------------------------------+-----------------------------------------------------------------------+----------------------------------------------------------------------------------------------------------------------------------------
#                  LINE 1                                             |                 LINE 2                                                |      DERIVED PARAMETERS
# --------------------------------------------------------------------+-----------------------------------------------------------------------+----------------------------------------------------------------------------------------------------------------------------------------
# NORAD  COSPAR     TLE_EPOCH      MEANMOT1 MEANMOT2   BSTAR  #  REV  |   NORAD    INC     RAAN     ECC    ARGPER  MEANANOM   MEANMOT     REV |  CAL_DATE              LONG     ARGLAT     PERIOD        SMA         PERIGEE        APOGEE      INC_X      INC_Y      ECC_X      ECC_Y
# ------ ------   -------------- ----------  -------  ------- -- ----     -----  ------- -------- ------- -------- -------- -----------  ----   ------------------- ---------  --------  --------  ------------  ------------   ----------- ---------- ----------  ---------  ---------   
1 65987U 25230P   25301.57915900  .00000294  00000-0  25099-3 0  9997 | 2 65987  81.2986  66.4924 0003341  75.0685 285.0842 13.84658953  1758 | 2025/10/28-13:53:59  179.0171    0.1157  285.0472  103.9967     7325.5454     7323.0979     7327.9928  32.427630  74.551399  -0.000262   0.000208
1 65987U 25230P   25302.80756826  .00000199  00000-0  16617-3 0  9994 | 2 65987  81.2988  65.3535 0003308  72.9577 287.1942 13.84658790  1927 | 2025/10/29-19:22:53  263.5949    0.1157  287.1580  103.9967     7325.5459     7323.1227     7327.9692  33.903109  73.892314  -0.000247   0.000220
1 65987U 25230P   25303.89145777  .00000243  00000-0  20531-3 0  9991 | 2 65987  81.2988  64.3484 0003276  71.0290 289.1222 13.84659270  2079 | 2025/10/30-21:23:41  295.8692    0.1157  289.0867  103.9967     7325.5443     7323.1444     7327.9441  35.194068  73.286236  -0.000233   0.000230
1 65987U 25230P   25305.62568088  .00000312  00000-0  26678-3 0  9993 | 2 65987  81.2993  62.7407 0003229  67.2575 292.8923 13.84659712  2310 | 2025/11/01-15:00:58  203.5080    0.1157  292.8582  103.9967     7325.5427     7323.1773     7327.9081  37.236560  72.270428  -0.000208   0.000247
1 65987U 25230P   25307.72120008  .00000261  00000-0  22178-3 0  9996 | 2 65987  81.2997  60.7979 0003168  62.9792 297.1688 13.84660349  2607 | 2025/11/03-17:18:31  241.9049    0.1157  297.1365  103.9966     7325.5404     7323.2197     7327.8612  39.665445  70.966849  -0.000176   0.000263
1 65987U 25230P   25308.80508987  .00000192  00000-0  16029-3 0  9993 | 2 65987  81.2998  59.7929 0003138  60.7643 299.3828 13.84659762  2752 | 2025/11/04-19:19:19  274.1795    0.1158  299.3515  103.9967     7325.5425     7323.2438     7327.8413  40.904128  70.260300  -0.000160   0.000270
1 65987U 25230P   25309.88897818  .00000268  00000-0  22783-3 0  9994 | 2 65987  81.2999  58.7880 0003100  58.3289 301.8170 13.84660921  2901 | 2025/11/05-21:20:07  306.4537    0.1157  301.7868  103.9966     7325.5384     7323.2675     7327.8093  42.130108  69.532207  -0.000141   0.000276
1 65987U 25230P   25310.90060838  .00000196  00000-0  16379-3 0  9997 | 2 65987  81.3000  57.8501 0003067  56.4561 303.6888 13.84660373  3042 | 2025/11/06-21:36:52  312.5766    0.1157  303.6596  103.9966     7325.5404     7323.2936     7327.7871  43.262669  68.833360  -0.000126   0.000280
1 65987U 25230P   25312.12901469  .00000297  00000-0  25394-3 0  9996 | 2 65987  81.3002  56.7112 0003012  53.9352 306.2083 13.84661470  3214 | 2025/11/08-03:05:46   37.1540    0.1156  306.1804  103.9965     7325.5365     7323.3300     7327.7429  44.622381  67.960030  -0.000106   0.000282
1 65987U 25230P   25314.94712332  .00000373  00000-0  32127-3 0  9994 | 2 65987  81.3004  54.0985 0002906  47.3438 312.7963 13.84662681  3605 | 2025/11/10-22:43:51  337.0668    0.1157  312.7719  103.9964     7325.5322     7323.4034     7327.6610  47.674031  65.855461  -0.000058   0.000285
1 65987U 25230P   25316.32004738  .00000459  00000-0  39831-3 0  9996 | 2 65987  81.3005  52.8259 0002828  44.5649 315.5735 13.84663282  3798 | 2025/11/12-07:40:52  113.9470    0.1157  315.5508  103.9964     7325.5301     7323.4584     7327.6018  49.124932  64.780494  -0.000036   0.000280
1 65987U 25230P   25317.54845246  .00000443  00000-0  38334-3 0  9998 | 2 65987  81.3007  51.6872 0002774  41.7749 318.3619 13.84663586  3966 | 2025/11/13-13:09:46  198.5239    0.1157  318.3408  103.9964     7325.5290     7323.4969     7327.5611  50.402722  63.791610  -0.000017   0.000277
1 65987U 25230P   25319.35493001  .00000417  00000-0  36074-3 0  9997 | 2 65987  81.3008  50.0126 0002719  37.8311 322.3037 13.84663922  4214 | 2025/11/15-08:31:05  132.3130    0.1157  322.2846  103.9964     7325.5278     7323.5360     7327.5197  52.245450  62.291517   0.000010   0.000272
1 65987U 25230P   25320.51107492  .00000482  00000-0  41858-3 0  9991 | 2 65987  81.3010  48.9410 0002665  34.7271 325.4059 13.84664302  4378 | 2025/11/16-12:15:56  190.7381    0.1157  325.3886  103.9963     7325.5265     7323.5743     7327.4788  53.401411  61.303686   0.000029   0.000265
1 65987U 25230P   25321.52270228  .00000265  00000-0  22510-3 0  9994 | 2 65987  81.3010  48.0030 0002613  32.7677 327.3641 13.84664251  4515 | 2025/11/17-12:32:41  196.8603    0.1156  327.3479  103.9963     7325.5267     7323.6125     7327.4408  54.397824  60.421266   0.000042   0.000258
1 65987U 25230P   25322.53432788  .00000313  00000-0  26806-3 0  9993 | 2 65987  81.3009  47.0650 0002586  30.9980 329.1329 13.84665294  4652 | 2025/11/18-12:49:25  202.9815    0.1157  329.1177  103.9963     7325.5230     7323.6286     7327.4174  55.379590  59.522579   0.000053   0.000253
1 65987U 25230P   25323.69047377  .00000223  00000-0  18803-3 0  9995 | 2 65987  81.3010  45.9934 0002510  28.4675 331.6618 13.84664100  4818 | 2025/11/19-16:34:16  261.4067    0.1156  331.6481  103.9963     7325.5272     7323.6885     7327.3659  56.483157  58.476539   0.000067   0.000242
1 65987U 25230P   25325.56920797  .00000251  00000-0  21279-3 0  9991 | 2 65987  81.3007  44.2509 0002392  23.5258 336.6008 13.84664788  5074 | 2025/11/21-13:39:39  221.3480    0.1157  336.5899  103.9963     7325.5248     7323.7725     7327.2771  58.234958  56.731768   0.000090   0.000221
1 65987U 25230P   25326.72535215  .00000231  00000-0  19534-3 0  9996 | 2 65987  81.3007  43.1792 0002348  21.0898 339.0355 13.84665089  5235 | 2025/11/22-17:24:30  279.7725    0.1157  339.0259  103.9963     7325.5237     7323.8037     7327.2438  59.285860  55.632640   0.000102   0.000212
1 65987U 25230P   25327.73697795  .00000284  00000-0  24253-3 0  9992 | 2 65987  81.3007  42.2417 0002214  19.9105 340.2138 13.84665332  5377 | 2025/11/23-17:41:14  285.8934    0.1157  340.2052  103.9962     7325.5229     7323.9010     7327.1447  60.188170  54.655174   0.000103   0.000196
1 65987U 25230P   25329.25441661  .00000312  00000-0  26758-3 0  9994 | 2 65987  81.3007  40.8352 0002214  14.5085 345.6135 13.84665860  5582 | 2025/11/25-06:06:21  115.0758    0.1157  345.6072  103.9962     7325.5210     7323.8991     7327.1429  61.511580  53.161353   0.000126   0.000182
1 65987U 25230P   25330.33830123  .00000271  00000-0  23073-3 0  9991 | 2 65987  81.3007  39.8305 0002191  10.2990 349.8211 13.84666024  5731 | 2025/11/26-08:07:09  147.3491    0.1157  349.8167  103.9962     7325.5204     7323.9154     7327.1255  62.434276  52.074609   0.000140   0.000168
1 65987U 25230P   25331.92799897  .00000181  00000-0  15055-3 0  9990 | 2 65987  81.3006  38.3565 0002122   5.6554 354.4626 13.84665886  5951 | 2025/11/27-22:16:19    2.6833    0.1157  354.4603  103.9962     7325.5209     7323.9664     7327.0754  63.753070  50.451299   0.000153   0.000147
1 65987U 25230P   25333.15640097  .00000227  00000-0  19118-3 0  9999 | 2 65987  81.3004  37.2176 0002046   1.5970 358.5193 13.84665954  6127 | 2025/11/29-03:45:13   87.2594    0.1157  358.5187  103.9962     7325.5207     7324.0219     7327.0195  64.743099  49.174040   0.000159   0.000128
1 65987U 25230P   25334.24028461  .00000245  00000-0  20741-3 0  9999 | 2 65987  81.3005  36.2128 0002008 358.3044   1.8106 13.84666809  6275 | 2025/11/30-05:46:00  119.5319    0.1157    1.8113  103.9961     7325.5177     7324.0467     7326.9886  65.595548  48.031191   0.000165   0.000114
1 65987U 25230P   25335.25190952  .00000298  00000-0  25505-3 0  9997 | 2 65987  81.3004  35.2749 0001964 354.8837   5.2300 13.84667198  6415 | 2025/12/01-06:02:44  125.6532    0.1158    5.2321  103.9961     7325.5163     7324.0776     7326.9550  66.372887  46.950984   0.000170   0.000099
1 65987U 25230P   25336.26353487  .00000276  00000-0  23546-3 0  9992 | 2 65987  81.3003  34.3368 0001920 351.5159   8.5965 13.84667102  6557 | 2025/12/02-06:19:29  131.7748    0.1157    8.5998  103.9961     7325.5166     7324.1101     7326.9231  67.132599  45.857964   0.000173   0.000084
1 65987U 25230P   25337.49193654  .00000260  00000-0  22075-3 0  9995 | 2 65987  81.3001  33.1978 0001876 346.9218  13.1890 13.84667450  6727 | 2025/12/03-11:48:23  216.3508    0.1157   13.1939  103.9961     7325.5154     7324.1411     7326.8897  68.030732  44.514333   0.000176   0.000065
1 65987U 25230P   25338.64807881  .00000316  00000-0  27103-3 0  9996 | 2 65987  81.3000  32.1259 0001851 342.9972  17.1122 13.84667552  6885 | 2025/12/04-15:33:14  274.7749    0.1156   17.1184  103.9961     7325.5150     7324.1591     7326.8710  68.851476  43.233833   0.000179   0.000048
1 65987U 25230P   25339.94873841  .00000277  00000-0  23609-3 0  9992 | 2 65987  81.2997  30.9197 0001806 338.3463  21.7617 13.84668095  7064 | 2025/12/05-22:46:10   25.5019    0.1157   21.7694  103.9960     7325.5131     7324.1901     7326.8361  69.746060  41.774733   0.000178   0.000029
1 65987U 25230P   25341.89972723  .00000351  00000-0  30217-3 0  9994 | 2 65987  81.2996  29.1106 0001710 332.3769  27.7297 13.84668517  7339 | 2025/12/07-21:35:36   11.5914    0.1157   27.7388  103.9960     7325.5116     7324.2590     7326.7643  71.030016  39.552013   0.000171   0.000004
1 65987U 25230P   25343.12812742  .00000233  00000-0  19693-3 0  9990 | 2 65987  81.2997  27.9717 0001691 327.5101  32.5951 13.84668996  7509 | 2025/12/09-03:04:30   96.1665    0.1156   32.6055  103.9960     7325.5100     7324.2712     7326.7487  71.802218  38.132437   0.000169  -0.000013
1 65987U 25230P   25344.13975083  .00000275  00000-0  23463-3 0  9996 | 2 65987  81.2997  27.0336 0001631 324.4194  35.6853 13.84669013  7640 | 2025/12/10-03:21:14  102.2867    0.1156   35.6962  103.9960     7325.5099     7324.3151     7326.7047  72.416906  36.951765   0.000161  -0.000024
1 65987U 25230P   25345.22363249  .00000304  00000-0  25981-3 0  9992 | 2 65987  81.2996  26.0285 0001604 319.5257  40.5780 13.84669724  7795 | 2025/12/11-05:22:01  134.5585    0.1157   40.5900  103.9959     7325.5074     7324.3324     7326.6824  73.053860  35.675742   0.000155  -0.000040
1 65987U 25230P   25346.81332700  .00000238  00000-0  20137-3 0  9990 | 2 65987  81.2996  24.5546 0001570 313.7557  46.3469 13.84669139  8013 | 2025/12/12-19:31:11  349.8904    0.1156   46.3599  103.9960     7325.5094     7324.3593     7326.6596  73.947326  33.784878   0.000146  -0.000058
1 65987U 25230P   25347.82494995  .00000260  00000-0  22109-3 0  9993 | 2 65987  81.2994  23.6163 0001565 309.8048  50.2971 13.84669170  8153 | 2025/12/13-19:47:55  356.0108    0.1157   50.3109  103.9960     7325.5093     7324.3629     7326.6558  74.490478  32.569329   0.000140  -0.000070
1 65987U 25230P   25349.34238375  .00000261  00000-0  22163-3 0  9991 | 2 65987  81.2992  22.2090 0001528 303.2085  56.8925 13.84670079  8367 | 2025/12/15-08:13:01  185.1908    0.1157   56.9072  103.9959     7325.5061     7324.3868     7326.6255  75.267712  30.729977   0.000126  -0.000087
1 65987U 25230P   25350.78755943  .00000241  00000-0  20353-3 0  9993 | 2 65987  81.2991  20.8689 0001477 296.4664  63.6341 13.84670047  8568 | 2025/12/16-18:54:05  348.2191    0.1157   63.6493  103.9959     7325.5062     7324.4243     7326.5882  75.965714  28.961249   0.000109  -0.000100
1 65987U 25230P   25351.79918191  .00000255  00000-0  21677-3 0  9996 | 2 65987  81.2991  19.9307 0001447 291.8273  68.2730 13.84670333  8703 | 2025/12/17-19:10:49  354.3387    0.1157   68.2884  103.9959     7325.5052     7324.4452     7326.5652  76.429740  27.713507   0.000096  -0.000108
1 65987U 25230P   25353.17209491 -.00002829  00000-0 -25295-2 0  9996 | 2 65987  81.2989  18.6577 0001426 288.4528  71.6474 13.84685141  8893 | 2025/12/19-04:07:49  131.2136    0.1157   71.6629  103.9948     7325.4530     7324.4084     7326.4976  77.026376  26.008624   0.000086  -0.000114
1 65987U 25230P   25354.40049730  .00000176  00000-0  14643-3 0  9998 | 2 65987  81.2988  17.5185 0001436 279.4216  80.6778 13.84670434  9066 | 2025/12/20-09:36:42  215.7893    0.1156   80.6940  103.9959     7325.5049     7324.4529     7326.5568  77.528146  24.472055   0.000065  -0.000128
1 65987U 25230P   25355.48437873  .00000199  00000-0  16693-3 0  9998 | 2 65987  81.2989  16.5135 0001423 275.6338  84.4656 13.84670259  9219 | 2025/12/21-11:37:30  248.0599    0.1156   84.4818  103.9959     7325.5055     7324.4631     7326.5479  77.945547  23.108501   0.000054  -0.000132
1 65987U 25230P   25356.49600084  .00000172  00000-0  14239-3 0  9991 | 2 65987  81.2988  15.5748 0001458 272.1695  87.9295 13.84670703  9359 | 2025/12/22-11:54:14  254.1801    0.1157   87.9462  103.9958     7325.5039     7324.4359     7326.5720  78.313569  21.828417   0.000044  -0.000139
1 65987U 25230P   25357.79665801  .00000128  00000-0  10327-3 0  9998 | 2 65987  81.2989  14.3686 0001468 266.2243  93.8746 13.84670659  9539 | 2025/12/23-19:07:11    4.9049    0.1157   93.8914  103.9958     7325.5041     7324.4287     7326.5795  78.755814  20.175056   0.000027  -0.000144
1 65987U 25230P   25359.09731472  .00000141  00000-0  11525-3 0  9997 | 2 65987  81.2988  13.1624 0001469 260.1460  99.9531 13.84671218  9713 | 2025/12/25-02:20:07  115.6294    0.1157   99.9697  103.9958     7325.5021     7324.4260     7326.5782  79.162962  18.512706   0.000008  -0.000147
1 65987U 25230P   25360.10893672  .00000184  00000-0  15349-3 0  9997 | 2 65987  81.2986  12.2243 0001476 256.2663 103.8330 13.84671196  9859 | 2025/12/26-02:36:52  121.7483    0.1157  103.8494  103.9958     7325.5022     7324.4209     7326.5834  79.455250  17.214110  -0.000004  -0.000148
1 65987U 25230P   25361.12055851  .00000246  00000-0  20826-3 0  9994 | 2 65987  81.2985  11.2858 0001493 251.5134 108.5861 13.84671506  9990 | 2025/12/27-02:53:36  127.8675    0.1157  108.6023  103.9958     7325.5011     7324.4074     7326.5948  79.726446  15.910369  -0.000019  -0.000148
1 65987U 25230P   25362.13218034  .00000261  00000-0  22154-3 0  9993 | 2 65987  81.2984  10.3477 0001518 246.9120 113.1876 13.84671842 10136 | 2025/12/28-03:10:20  133.9865    0.1156  113.2036  103.9958     7325.4999     7324.3879     7326.6119  79.976150  14.602921  -0.000033  -0.000148
1 65987U 25230P   25363.50509602  .00000256  00000-0  21762-3 0  9997 | 2 65987  81.2984   9.0743 0001540 241.5584 118.5417 13.84671516 10326 | 2025/12/29-12:07:20  270.8622    0.1156  118.5572  103.9958     7325.5011     7324.3729     7326.6292  80.280922  12.821989  -0.000051  -0.000145
1 65987U 25230P   25364.51671743  .00000272  00000-0  23135-3 0  9999 | 2 65987  81.2985   8.1361 0001568 239.2298 120.8704 13.84672013 10462 | 2025/12/30-12:24:04  276.9811    0.1156  120.8858  103.9957     7325.4993     7324.3507     7326.6479  80.480205  11.505769  -0.000060  -0.000145
1 65987U 25230P   25365.52833906  .00000266  00000-0  22643-3 0  9998 | 2 65987  81.2986   7.1976 0001592 235.9911 124.1095 13.84672169 10604 | 2025/12/31-12:40:48  283.1001    0.1157  124.1246  103.9957     7325.4988     7324.3325     7326.6650  80.657963  10.186038  -0.000072  -0.000142
1 65987U 25230P   26001.53995977  .00000318  00000-0  27266-3 0  9998 | 2 65987  81.2985   6.2592 0001636 232.8400 127.2607 13.84672891 10745 | 2026/01/01-12:57:32  289.2190    0.1156  127.2756  103.9957     7325.4962     7324.2978     7326.6947  80.813867   8.863690  -0.000084  -0.000140
1 65987U 25230P   26002.98513282  .00000299  00000-0  25515-3 0  9996 | 2 65987  81.2985   4.9192 0001700 225.8951 134.2066 13.84672816 10947 | 2026/01/02-23:38:35   92.2447    0.1157  134.2206  103.9957     7325.4965     7324.2511     7326.7418  80.999046   6.971411  -0.000107  -0.000132
1 65987U 25230P   26003.99675394  .00000191  00000-0  15907-3 0  9996 | 2 65987  81.2987   3.9811 0001703 222.6188 137.4837 13.84672792 11086 | 2026/01/03-23:55:19   98.3627    0.1157  137.4969  103.9957     7325.4966     7324.2490     7326.7441  81.102527   5.644358  -0.000117  -0.000124
1 65987U 25230P   26005.08063304  .00000295  00000-0  25212-3 0  9995 | 2 65987  81.2988   2.9757 0001734 217.6437 142.4599 13.84672797 11233 | 2026/01/05-01:56:06  130.6318    0.1157  142.4720  103.9957     7325.4965     7324.2263     7326.7668  81.189180   4.220417  -0.000132  -0.000113
1 65987U 25230P   26006.30903051  .00000151  00000-0  12391-3 0  9998 | 2 65987  81.2987   1.8363 0001797 213.1851 146.9194 13.84672274 11402 | 2026/01/06-07:25:00  215.2042    0.1157  146.9306  103.9957     7325.4984     7324.1820     7326.8148  81.256950   2.605135  -0.000147  -0.000103
1 65987U 25230P   26007.46516760  .00000257  00000-0  21827-3 0  9994 | 2 65987  81.2990   0.7644 0001789 209.5449 150.5607 13.84673112 11568 | 2026/01/07-11:09:50  273.6239    0.1157  150.5708  103.9957     7325.4954     7324.1849     7326.8060  81.291765   1.084602  -0.000154  -0.000090
1 65987U 25230P   26008.47678823  .00000241  00000-0  20404-3 0  9998 | 2 65987  81.2991 359.8261 0001830 205.5599 154.5468 13.84673278 11709 | 2026/01/08-11:26:34  279.7416    0.1157  154.5558  103.9957     7325.4948     7324.1543     7326.8354  81.298726  -0.246753  -0.000165  -0.000078
1 65987U 25230P   26010.93358099  .00000190  00000-0  15844-3 0  9997 | 2 65987  81.2993 357.5479 0001916 196.9119 163.1974 13.84673512 12040 | 2026/01/10-22:24:21   88.8841    0.1156  163.2037  103.9956     7325.4940     7324.0905     7326.8976  81.224857  -3.478322  -0.000186  -0.000048
1 65987U 25230P   26011.94520081  .00000254  00000-0  21549-3 0  9991 | 2 65987  81.2996 356.6097 0001957 193.2117 166.8989 13.84673987 12189 | 2026/01/11-22:41:05   95.0013    0.1157  166.9040  103.9956     7325.4923     7324.0587     7326.9259  81.157314  -4.807845  -0.000193  -0.000033
1 65987U 25230P   26012.95682103  .00000222  00000-0  18675-3 0  9998 | 2 65987  81.2997 355.6716 0002002 189.8581 170.2537 13.84674105 12322 | 2026/01/12-22:57:49  101.1185    0.1157  170.2576  103.9956     7325.4919     7324.0254     7326.9585  81.067821  -6.135932  -0.000199  -0.000019
1 65987U 25230P   26014.47425168  .00000128  00000-0  10378-3 0  9990 | 2 65987  81.2998 354.2645 0002071 185.5175 174.5959 13.84673847 12537 | 2026/01/14-11:22:55  290.2947    0.1156  174.5981  103.9956     7325.4928     7323.9757     7327.0100  80.892800  -8.124798  -0.000207   0.000001
1 65987U 25230P   26015.99168158  .00000102  00000-0  80488-4 0  9993 | 2 65987  81.2999 352.8574 0002144 180.6811 179.4344 13.84674317 12745 | 2026/01/15-23:48:01  119.4701    0.1157  179.4346  103.9956     7325.4912     7323.9206     7327.0618  80.668994 -10.108769  -0.000213   0.000024
1 65987U 25230P   26017.29233604  .00000139  00000-0  11324-3 0  9999 | 2 65987  81.3000 351.6513 0002180 177.2504 182.8665 13.84674102 12926 | 2026/01/17-07:00:57  230.1924    0.1157  182.8653  103.9956     7325.4919     7323.8950     7327.0889  80.438442 -11.804534  -0.000214   0.000042
1 65987U 25230P   26018.37621396  .00000238  00000-0  20143-3 0  9997 | 2 65987  81.3000 350.6463 0002245 174.3631 185.7551 13.84674656 13077 | 2026/01/18-09:01:44  262.4605    0.1156  185.7525  103.9955     7325.4900     7323.8454     7327.1346  80.219021 -13.213581  -0.000217   0.000058
1 65987U 25230P   26019.60460883  .00000297  00000-0  25383-3 0  9992 | 2 65987  81.3002 349.5073 0002310 171.4698 188.6498 13.84675222 13248 | 2026/01/19-14:30:38  347.0310    0.1156  188.6458  103.9955     7325.4880     7323.7958     7327.1802  79.940708 -14.805600  -0.000218   0.000075
1 65987U 25230P   26020.97752193  .00000209  00000-0  17551-3 0  9993 | 2 65987  81.3003 348.2346 0002349 167.1017 193.0201 13.84675275 13438 | 2026/01/20-23:27:37  123.9035    0.1157  193.0140  103.9955     7325.4878     7323.7670     7327.2086  79.592238 -16.577529  -0.000213   0.000098
1 65987U 25230P   26021.98914088  .00000316  00000-0  27092-3 0  9998 | 2 65987  81.3008 347.2968 0002438 163.7300 196.3935 13.84675810 13578 | 2026/01/21-23:44:21  130.0195    0.1156  196.3856  103.9955     7325.4859     7323.7000     7327.2719  79.310740 -17.878102  -0.000213   0.000118
1 65987U 25230P   26023.57882786  .00000365  00000-0  31426-3 0  9994 | 2 65987  81.3009 345.8225 0002479 159.7886 200.3370 13.84675979 13797 | 2026/01/23-13:53:30  345.3459    0.1157  200.3271  103.9954     7325.4853     7323.6693     7327.3013  78.824605 -19.912758  -0.000205   0.000140
1 65987U 25230P   26024.87948049  .00000289  00000-0  24635-3 0  9992 | 2 65987  81.3009 344.6167 0002530 156.6111 203.5161 13.84676303 13979 | 2026/01/24-21:06:27   96.0670    0.1156  203.5045  103.9954     7325.4842     7323.6308     7327.3375  78.388114 -21.567104  -0.000197   0.000158
1 65987U 25230P   26025.89109892  .00000350  00000-0  30073-3 0  9992 | 2 65987  81.3010 343.6788 0002591 153.7930 206.3359 13.84676704 14115 | 2026/01/25-21:23:10  102.1829    0.1157  206.3227  103.9954     7325.4828     7323.5847     7327.3808  78.024682 -22.847356  -0.000191   0.000175
1 65987U 25230P   26027.26400919  .00000398  00000-0  34357-3 0  9990 | 2 65987  81.3012 342.4059 0002670 150.2635 209.8675 13.84676958 14308 | 2026/01/27-06:20:10  239.0546    0.1158  209.8523  103.9954     7325.4819     7323.5260     7327.4378  77.498076 -24.575055  -0.000181   0.000196
1 65987U 25230P   26028.92595302  .00000276  00000-0  23530-3 0  9991 | 2 65987  81.3014 340.8653 0002707 147.4072 212.7253 13.84676714 14536 | 2026/01/28-22:13:22  120.5316    0.1157  212.7085  103.9954     7325.4827     7323.4997     7327.4657  76.809544 -26.649796  -0.000168   0.000213
1 65987U 25230P   26030.15434542  .00000252  00000-0  21359-3 0  9998 | 2 65987  81.3014 339.7265 0002763 144.1538 215.9805 13.84677702 14700 | 2026/01/30-03:42:15  205.1006    0.1157  215.9619  103.9953     7325.4792     7323.4552     7327.5033  76.264721 -28.171084  -0.000154   0.000229
1 65987U 25230P   26031.23822129  .00000322  00000-0  27585-3 0  9995 | 2 65987  81.3014 338.7216 0002829 141.3326 218.8034 13.84677476 14852 | 2026/01/31-05:43:02  237.3675    0.1157  218.7831  103.9953     7325.4800     7323.4077     7327.5524  75.758929 -29.504275  -0.000142   0.000245
1 65987U 25230P   26032.32209659  .00000330  00000-0  28271-3 0  9995 | 2 65987  81.3017 337.7168 0002868 138.9241 221.2132 13.84678196 15006 | 2026/02/01-07:43:49  269.6344    0.1157  221.1916  103.9953     7325.4775     7323.3766     7327.5784  75.230166 -30.828374  -0.000129   0.000256
1 65987U 25230P   26033.33371419  .00000298  00000-0  25437-3 0  9995 | 2 65987  81.3017 336.7788 0002889 135.6539 224.4849 13.84678009 15148 | 2026/02/02-08:00:32  275.7503    0.1156  224.4617  103.9953     7325.4782     7323.3618     7327.5945  74.715410 -32.055795  -0.000110   0.000267
1 65987U 25230P   26034.56210627  .00000227  00000-0  19139-3 0  9998 | 2 65987  81.3019 335.6403 0002978 133.4625 226.6780 13.84678600 15317 | 2026/02/03-13:29:25    0.3190    0.1157  226.6532  103.9953     7325.4761     7323.2946     7327.6576  74.063917 -33.534089  -0.000097   0.000281
1 65987U 25230P   26035.57372366  .00000237  00000-0  20044-3 0  9997 | 2 65987  81.3020 334.7026 0003018 130.9983 229.1435 13.84678258 15454 | 2026/02/04-13:46:09    6.4348    0.1156  229.1173  103.9953     7325.4773     7323.2665     7327.6881  73.505296 -34.741713  -0.000082   0.000291
1 65987U 25230P   26036.80211472  .00000305  00000-0  26122-3 0  9993 | 2 65987  81.3022 333.5638 0003042 129.0797 231.0630 13.84679125 15623 | 2026/02/05-19:15:02   91.0042    0.1156  231.0359  103.9952     7325.4742     7323.2458     7327.7026  72.800482 -36.195822  -0.000067   0.000297
1 65987U 25230P   26037.81373104  .00000334  00000-0  28674-3 0  9992 | 2 65987  81.3022 332.6262 0003061 126.7510 233.3928 13.84679312 15762 | 2026/02/06-19:31:46   97.1197    0.1156  233.3646  103.9952     7325.4736     7323.2312     7327.7159  72.198446 -37.382244  -0.000050   0.000302
1 65987U 25230P   26038.82534722  .00000278  00000-0  23681-3 0  9999 | 2 65987  81.3019 331.6883 0003117 123.3581 236.7874 13.84679819 15904 | 2026/02/07-19:48:29  103.2348    0.1156  236.7575  103.9952     7325.4718     7323.1884     7327.7551  71.576609 -38.558889  -0.000027   0.000310
1 65987U 25230P   26039.83696345  .00000322  00000-0  27607-3 0  9993 | 2 65987  81.3018 330.7509 0003196 122.1358 238.0110 13.84679403 16047 | 2026/02/08-20:05:13  109.3499    0.1157  237.9799  103.9952     7325.4732     7323.1320     7327.8145  70.936120 -39.724672  -0.000016   0.000319
1 65987U 25230P   26040.84857955  .00000306  00000-0  26167-3 0  9994 | 2 65987  81.3018 329.8128 0003203 119.9359 240.2116 13.84679372 16188 | 2026/02/09-20:21:57  115.4662    0.1157  240.1798  103.9952     7325.4734     7323.1270     7327.8197  70.276232 -40.880728   0.000001   0.000320
1 65987U 25230P   26041.93245453  .00000109  00000-0  86489-4 0  9994 | 2 65987  81.3019 328.8077 0003187 117.0208 243.1275 13.84678984 16337 | 2026/02/10-22:22:44  147.7338    0.1157  243.0949  103.9952     7325.4747     7323.1401     7327.8094  69.548399 -42.107234   0.000023   0.000318
1 65987U 25230P   26043.23310198  .00000224  00000-0  18851-3 0  9993 | 2 65987  81.3020 327.6026 0003296 115.3806 244.7692 13.84680436 16511 | 2026/02/12-05:35:40  258.4524    0.1156  244.7350  103.9951     7325.4696     7323.0551     7327.8841  68.647526 -43.560675   0.000040   0.000327
1 65987U 25230P   26044.24471752  .00000279  00000-0  23738-3 0  9999 | 2 65987  81.3018 326.6644 0003404 114.6002 245.5510 13.84680336 16656 | 2026/02/13-05:52:23  264.5679    0.1157  245.5155  103.9951     7325.4700     7322.9764     7327.9635  67.924895 -44.678756   0.000052   0.000336
1 65987U 25230P   26045.25633291  .00000326  00000-0  27905-3 0  9992 | 2 65987  81.3019 325.7270 0003369 110.7826 249.3693 13.84680528 16795 | 2026/02/14-06:09:07  270.6833    0.1158  249.3332  103.9951     7325.4693     7323.0013     7327.9372  67.184944 -45.784083   0.000079   0.000328
1 65987U 25230P   26046.26794829  .00000292  00000-0  24950-3 0  9998 | 2 65987  81.3018 324.7892 0003382 108.5679 251.5845 13.84680659 16934 | 2026/02/15-06:25:50  276.7992    0.1156  251.5477  103.9951     7325.4688     7322.9913     7327.9463  66.426516 -46.877507   0.000097   0.000324
1 65987U 25230P   26047.27956315  .00000212  00000-0  17834-3 0  9995 | 2 65987  81.3018 323.8516 0003410 107.0051 253.1480 13.84681415 17077 | 2026/02/16-06:42:34  282.9145    0.1157  253.1106  103.9950     7325.4661     7322.9682     7327.9641  65.650543 -47.958199   0.000112   0.000322
1 65987U 25230P   26048.29117840  .00000237  00000-0  19997-3 0  9999 | 2 65987  81.3018 322.9139 0003442 105.1219 255.0319 13.84681077 17210 | 2026/02/17-06:59:17  289.0301    0.1157  254.9938  103.9951     7325.4673     7322.9459     7327.9888  64.856905 -49.026162   0.000129   0.000319
1 65987U 25230P   26049.80860076  .00000201  00000-0  16815-3 0  9990 | 2 65987  81.3017 321.5072 0003455 102.7259 257.4284 13.84681100 17428 | 2026/02/18-19:24:23  118.2040    0.1157  257.3898  103.9951     7325.4673     7322.9363     7327.9982  63.633733 -50.603502   0.000150   0.000311
1 65987U 25230P   26050.82021539  .00000211  00000-0  17672-3 0  9990 | 2 65987  81.3014 320.5697 0003472 100.6023 259.5525 13.84681397 17566 | 2026/02/19-19:41:06  124.3194    0.1157  259.5134  103.9950     7325.4662     7322.9228     7328.0096  62.797022 -51.637696   0.000167   0.000304
1 65987U 25230P   26051.83183038  .00000148  00000-0  12142-3 0  9991 | 2 65987  81.3012 319.6319 0003454  98.3354 261.8195 13.84681120 17703 | 2026/02/20-19:57:50  130.4356    0.1157  261.7803  103.9951     7325.4672     7322.9370     7327.9974  61.943306 -52.658446   0.000183   0.000293
1 65987U 25230P   26053.13247687  .00000177  00000-0  14668-3 0  9994 | 2 65987  81.3012 318.4261 0003476  96.3062 263.8491 13.84681914 17885 | 2026/02/22-03:10:46  241.1557    0.1157  263.8095  103.9950     7325.4644     7322.9181     7328.0107  60.821464 -53.950297   0.000201   0.000284
1 65987U 25230P   26054.14409098  .00000323  00000-0  27710-3 0  9997 | 2 65987  81.3012 317.4883 0003517  94.3905 265.7654 13.84681913 18022 | 2026/02/23-03:27:29  247.2711    0.1157  265.7252  103.9950     7325.4644     7322.8880     7328.0408  59.930315 -54.938534   0.000217   0.000277
1 65987U 25230P   26055.22796384  .00000277  00000-0  23588-3 0  9991 | 2 65987  81.3008 316.4836 0003541  91.7253 268.4309 13.84681315 18177 | 2026/02/24-05:28:16  279.5380    0.1156  268.3903  103.9950     7325.4665     7322.8726     7328.0604  58.957496 -55.980656   0.000236   0.000264
1 65987U 25230P   26056.23957743  .00000190  00000-0  15813-3 0  9997 | 2 65987  81.3007 315.5454 0003550  89.4642 270.6922 13.84682344 18313 | 2026/02/25-05:44:59  285.6540    0.1157  270.6515  103.9950     7325.4629     7322.8623     7328.0634  58.032896 -56.938448   0.000251   0.000251
1 65987U 25230P   26058.11828944  .00000295  00000-0  25190-3 0  9991 | 2 65987  81.3003 313.8041 0003654  83.4036 276.7537 13.84682097 18570 | 2026/02/27-02:50:20  245.5825    0.1157  276.7121  103.9950     7325.4637     7322.7870     7328.1405  56.275647 -58.675296   0.000291   0.000221
1 65987U 25230P   26059.12990229  .00000248  00000-0  20964-3 0  9991 | 2 65987  81.3001 312.8661 0003554  82.2485 277.9075 13.84682845 18716 | 2026/02/28-03:07:03  251.6995    0.1157  277.8672  103.9949     7325.4611     7322.8576     7328.0646  55.307428 -59.588545   0.000291   0.000204
1 65987U 25230P   26060.14151508  .00000346  00000-0  29686-3 0  9993 | 2 65987  81.2995 311.9288 0003534  81.9185 278.2373 13.84683275 18851 | 2026/03/01-03:23:46  257.8147    0.1157  278.1972  103.9949     7325.4596     7322.8708     7328.0484  54.324863 -60.484858   0.000294   0.000197
1 65987U 25230P   26061.15312820  .00000277  00000-0  23571-3 0  9991 | 2 65987  81.2994 310.9912 0003544  80.6467 279.5091 13.84683608 18999 | 2026/03/02-03:40:30  263.9301    0.1157  279.4690  103.9949     7325.4584     7322.8623     7328.0546  53.327781 -61.365627   0.000302   0.000186
1 65987U 25230P   26062.16474075  .00000265  00000-0  22541-3 0  9997 | 2 65987  81.2994 310.0530 0003514  79.7275 280.4278 13.84684084 19133 | 2026/03/03-03:57:13  270.0464    0.1157  280.3882  103.9948     7325.4567     7322.8826     7328.0309  52.315834 -62.230587   0.000305   0.000175
1 65987U 25230P   26063.17635354  .00000280  00000-0  23818-3 0  9993 | 2 65987  81.2993 309.1151 0003500  77.2381 282.9167 13.84684112 19277 | 2026/03/04-04:13:56  276.1625    0.1157  282.8776  103.9948     7325.4566     7322.8927     7328.0205  51.290127 -63.078515   0.000314   0.000155
1 65987U 25230P   26064.18796605  .00000281  00000-0  23950-3 0  9990 | 2 65987  81.2992 308.1770 0003496  73.9712 286.1830 13.84684230 19417 | 2026/03/05-04:30:40  282.2788    0.1157  286.1445  103.9948     7325.4562     7322.8952     7328.0172  50.250457 -63.909714   0.000324   0.000132
1 65987U 25230P   26065.19957784  .00000310  00000-0  26497-3 0  9991 | 2 65987  81.2988 307.2391 0003468  72.0317 288.1217 13.84684809 19559 | 2026/03/06-04:47:23  288.3948    0.1156  288.0839  103.9948     7325.4542     7322.9137     7327.9946  49.197363 -64.723368   0.000327   0.000114
1 65987U 25230P   26066.64473843  .00000176  00000-0  14572-3 0  9992 | 2 65987  81.2986 305.8992 0003514  70.4427 289.7109 13.84684871 19752 | 2026/03/07-15:28:25   91.4168    0.1157  289.6730  103.9948     7325.4540     7322.8798     7328.0281  47.670332 -65.855917   0.000337   0.000099
1 65987U 25230P   26067.80086551  .00000253  00000-0  21458-3 0  9994 | 2 65987  81.2984 304.8271 0003498  68.2700 291.8829 13.84685466 19911 | 2026/03/08-19:13:14  149.8348    0.1157  291.8457  103.9947     7325.4519     7322.8894     7328.0143  46.429670 -66.736164   0.000341   0.000079
1 65987U 25230P   26069.10150923  .00000223  00000-0  18749-3 0  9990 | 2 65987  81.2981 303.6206 0003446  65.5218 294.6298 13.84685486 20094 | 2026/03/10-02:26:10  260.5564    0.1157  294.5939  103.9947     7325.4518     7322.9274     7327.9761  45.014025 -67.698734   0.000340   0.000055
1 65987U 25230P   26072.57085555  .00000244  00000-0  20783-3 0  9997 | 2 65987  81.2971 300.4057 0001514  73.7732 286.3591 13.84226366 20573 | 2026/03/13-13:42:01   76.1748    0.1157  286.3425  104.0292     7327.0715     7325.9622     7328.1808  41.146053 -70.115767   0.000147   0.000037
1 65987U 25230P   26073.58280318  .00000216  00000-0  18339-3 0  9996 | 2 65987  81.2969 299.4677 0001508  72.8656 287.2666 13.84225916 20712 | 2026/03/14-13:59:14   82.4115    0.1157  287.2501  104.0293     7327.0731     7325.9682     7328.1780  39.992614 -70.779777   0.000147   0.000032
1 65987U 25230P   26074.59475012  .00000139  00000-0  11360-3 0  9996 | 2 65987  81.2968 298.5294 0001502  73.6384 286.4937 13.84226165 20851 | 2026/03/15-14:16:26   88.6482    0.1156  286.4772  104.0292     7327.0722     7325.9717     7328.1727  38.828136 -71.425105   0.000147   0.000032
1 65987U 25230P   26075.83335647 -.00026847  00000-0 -24170-1 0  9990 | 2 65987  81.2974 297.3823 0001484  70.7490 338.2594 13.84236272  5407 | 2026/03/16-20:00:01  128.0381   49.0021  338.2531  104.0285     7327.0365     7325.9492     7328.1239  37.390747 -72.188637   0.000147   0.000021
1 65987U 25230P   26076.83548971  .00000224  00000-0  19069-3 0  9999 | 2 65987  81.2967 296.4533 0001496  69.7729 290.3589 13.84226186 21169 | 2026/03/17-20:03:06  179.5994    0.1157  290.3428  104.0292     7327.0721     7325.9760     7328.1683  36.215097 -72.784752   0.000149   0.000016
1 65987U 25230P   26082.18614936 -.00025394  00000-0 -23123-1 0  9990 | 2 65987  81.2955 291.4978 0001463  65.2355 294.8953 13.83562824 21901 | 2026/03/23-04:28:03  136.7420    0.1156  294.8801  104.0791     7329.4140     7328.3417     7330.4863  29.791996 -75.639905   0.000146  -0.000008
1 65987U 25230P   26083.25002315 -.00043055  00000-0 -39308-1 0  9997 | 2 65987  81.2961 290.5122 0001164  84.9309 172.0852 13.83530580  5455 | 2026/03/24-06:00:02  264.9497  257.0179  172.0870  104.0815     7329.5279     7328.6747     7330.3810  28.486708 -76.141732   0.000112   0.000031
1 65987U 25230P   26084.58335648 -.00004172  00000-0 -38005-2 0  9993 | 2 65987  81.2963 289.2778 0001059  89.5591 324.7020 13.83522002  5640 | 2026/03/25-14:00:01  229.5920   54.2541  324.6950  104.0822     7329.5581     7328.7819     7330.3343  26.839866 -76.737931   0.000100   0.000034
1 65987U 25230P   26085.83336806  .00004098  00000-0  37223-2 0  9995 | 2 65987  81.2962 288.1215 0001033  71.0584  82.6790 13.83293354  5125 | 2026/03/26-20:00:03  222.7588  153.7491   82.6907  104.0994     7330.3658     7329.6086     7331.1230  25.285808 -77.263834   0.000103  -0.000001
1 65987U 25230P   26086.88746014  .00000185  00000-0  15816-3 0  9995 | 2 65987  81.2951 287.1465 0001043  74.8013 285.3259 13.83300483 22558 | 2026/03/27-21:17:56   37.9071    0.1157  285.3144  104.0989     7330.3406     7329.5761     7331.1052  23.967090 -77.681863   0.000104   0.000004
1 65987U 25230P   26087.97241339  .00000259  00000-0  22541-3 0  9991 | 2 65987  81.2952 286.1424 0001034  73.5611 286.5659 13.83300879 22706 | 2026/03/28-23:20:16   70.6479    0.1156  286.5545  104.0988     7330.3392     7329.5813     7331.0972  22.602145 -78.090029   0.000103  -0.000001
1 65987U 25230P   26089.05736713  .00000243  00000-0  21034-3 0  9996 | 2 65987  81.2951 285.1381 0001024  73.6750 286.4519 13.83300744 22851 | 2026/03/30-01:22:36  103.3887    0.1156  286.4406  104.0988     7330.3397     7329.5891     7331.0903  21.229928 -78.474094   0.000102  -0.000002
1 65987U 25230P   26090.50397137  .00000243  00000-0  21039-3 0  9996 | 2 65987  81.2948 283.7992 0001003  74.5541 285.5726 13.83301186 23058 | 2026/03/31-12:05:43  266.3874    0.1156  285.5615  104.0988     7330.3381     7329.6029     7331.0734  19.390427 -78.948438   0.000100  -0.000003
1 65987U 25230P   26091.51659398  .00000221  00000-0  19036-3 0  9998 | 2 65987  81.2949 282.8618 0000995  75.5799 284.5467 13.83301600 23196 | 2026/04/01-12:23:53  272.8771    0.1156  284.5357  104.0988     7330.3367     7329.6073     7331.0660  18.096259 -79.255196   0.000099  -0.000003
1 65987U 25230P   26092.81853758  .00000220  00000-0  18940-3 0  9990 | 2 65987  81.2951 281.6569 0000972  75.2444 284.8820 13.83301551 23371 | 2026/04/02-19:38:41   24.3630    0.1156  284.8712  104.0988     7330.3368     7329.6243     7331.0494  16.425726 -79.618395   0.000097  -0.000005
1 65987U 25230P   26093.90348974  .00000300  00000-0  26216-3 0  9994 | 2 65987  81.2950 280.6527 0000961  74.7921 285.3342 13.83302456 23522 | 2026/04/03-21:41:01   57.1038    0.1157  285.3236  104.0987     7330.3337     7329.6292     7331.0381  15.027817 -79.893941   0.000096  -0.000008
1 65987U 25230P   26094.91611804 -.00000487  00000-0 -45448-3 0  9997 | 2 65987  81.2951 279.7155 0000863  73.8537 286.2714 13.83297233 23667 | 2026/04/04-21:59:12   63.5986    0.1156  286.2619  104.0991     7330.3521     7329.7195     7330.9847  13.719038 -80.129154   0.000086  -0.000010
1 65987U 25230P   26097.01600102 -.00147347  00000-0 -14035+0 0  9991 | 2 65987  81.2952 277.7750 0001044  85.4857 274.6418 13.81807536 23958 | 2026/04/07-00:23:02  103.6632    0.1156  274.6299  104.2113     7335.6196     7334.8538     7336.3855  10.997880 -80.547850   0.000104   0.000006
1 65987U 25230P   26099.19138649 -.00127765  00000-0 -12586+0 0  9995 | 2 65987  81.2962 275.7756 0001215  76.3476 283.7814 13.79673311 24253 | 2026/04/09-04:35:35  171.1156    0.1155  283.7679  104.3725     7343.1827     7342.2905     7344.0749   8.181049 -80.883512   0.000120  -0.000017
1 65987U 25230P   26100.25001157  .00006738  00000-0  62710-2 0  9999 | 2 65987  81.2962 274.7887 0000946  86.6654 158.2416 13.81918027  4766 | 2026/04/10-06:00:00  309.5299  244.9110  158.2456  104.2030     7335.2286     7334.5347     7335.9225   6.786713 -81.012423   0.000095   0.000002
1 65987U 25230P   26101.50002315 -.00011688  00000-0 -10929-1 0  9991 | 2 65987  81.2961 273.6348 0000827  90.8458 249.4001 13.81940215  4949 | 2026/04/11-12:00:02  305.8461  340.2370  249.3912  104.2013     7335.1501     7334.5435     7335.7567   5.153903 -81.132565   0.000082   0.000006
1 65987U 25230P   26102.52891846  .00000133  00000-0  11935-3 0  9990 | 2 65987  81.2964 272.7093 0000860  54.0563 306.0671 13.78930037 24712 | 2026/04/12-12:41:38  298.3367    0.1154  306.0591  104.4288     7345.8212     7345.1895     7346.4529   3.842766 -81.205528   0.000072  -0.000047
1 65987U 25230P   26103.90754505  .00000196  00000-0  18100-3 0  9993 | 2 65987  81.2964 271.4428 0000815  52.3783 307.7444 13.78930539 24909 | 2026/04/13-21:46:51   77.6401    0.1153  307.7370  104.4288     7345.8194     7345.2207     7346.4181   2.046958 -81.270626   0.000066  -0.000048
1 65987U 25230P   26104.92337558  .00000156  00000-0  14179-3 0  9999 | 2 65987  81.2965 270.5098 0000777  53.3804 306.7421 13.78930215 25046 | 2026/04/14-22:09:39   85.2901    0.1154  306.7350  104.4288     7345.8206     7345.2498     7346.3913   0.723341 -81.293282   0.000063  -0.000046
1 65987U 25230P   26105.93920556  .00000133  00000-0  11934-3 0  9998 | 2 65987  81.2965 269.5767 0000742  54.3552 305.7670 13.78930576 25180 | 2026/04/15-22:32:27   92.9404    0.1153  305.7601  104.4288     7345.8193     7345.2742     7346.3643  -0.600611 -81.294281   0.000060  -0.000044
1 65987U 25230P   26107.00002315 -.00029636  00000-0 -29202-1 0  9998 | 2 65987  81.2966 268.6019 0000773  53.1575 170.1633 13.78947867  4357 | 2026/04/17-00:00:02  253.7180  223.3223  170.1648  104.4274     7345.7579     7345.1901     7346.3257  -1.983558 -81.272398   0.000061  -0.000048
1 65987U 25230P   26108.18854330  .00000158  00000-0  14365-3 0  9992 | 2 65987  81.2974 267.5107 0000680  56.4532 303.6686 13.78931192 25491 | 2026/04/18-04:31:30  187.2321    0.1153  303.6621  104.4287     7345.8171     7345.3176     7346.3166  -3.530975 -81.220684   0.000055  -0.000040
1 65987U 25230P   26109.49461047  .00000170  00000-0  15541-3 0  9997 | 2 65987  81.2972 266.3111 0000609  57.6073 302.5140 13.78930993 25676 | 2026/04/19-11:52:14  300.2045    0.1154  302.5081  104.4287     7345.8178     7345.3704     7346.2652  -5.230579 -81.128760   0.000049  -0.000036
1 65987U 25230P   26110.87341848 -.00021692  00000-0 -21425-1 0  9997 | 2 65987  81.2963 265.0444 0000905  55.9995 304.1244 13.78758991 25864 | 2026/04/20-20:57:43   78.5862    0.1153  304.1158  104.4417     7346.4287     7345.7639     7347.0936  -7.022678 -80.992409   0.000070  -0.000057
1 65987U 25230P   26111.91668981 -.00129757  00000-0 -13284+0 0  9996 | 2 65987  81.2984 264.0873 0001074  81.3102  51.5246 13.77403131  5037 | 2026/04/21-22:00:01  323.4784  132.8444   51.5342  104.5446     7351.2490     7350.4594     7352.0385  -8.374793 -80.865893   0.000104  -0.000027
1 65987U 25230P   26113.16668980 -.00005514  00000-0 -56785-2 0  9994 | 2 65987  81.2992 262.9340 0000534  61.0735 143.9259 13.76245304  5203 | 2026/04/23-04:00:01  343.9455  205.0030  143.9295  104.6325     7355.3714     7354.9786     7355.7642 -10.000825 -80.681741   0.000043  -0.000031
1 65987U 25230P   26114.25002315  .00050954  00000-0  52019-1 0  9990 | 2 65987  81.2980 261.9542 0000329  78.5379  90.9009 13.76208174  5356 | 2026/04/24-06:00:02   51.6400  169.4426   90.9047  104.6353     7355.5037     7355.2617     7355.7457 -11.378845 -80.497743   0.000031  -0.000011
1 65987U 25230P   26115.50002315 -.00043845  00000-0 -43515-1 0  9993 | 2 65987  81.2979 260.7980 0000400  83.8869 185.9779 13.78619201  5246 | 2026/04/25-12:00:02   42.8631  269.8643  185.9774  104.4523     7346.9253     7346.6315     7347.2192 -13.000806 -80.251652   0.000039  -0.000011
1 65987U 25230P   26116.58335648 -.00035896  00000-0 -35598-1 0  9999 | 2 65987  81.2979 259.8034 0000402  81.0847 162.3865 13.78610093  5394 | 2026/04/26-14:00:01  101.3970  243.4726  162.3879  104.4530     7346.9577     7346.6623     7347.2530 -14.391869 -80.013890   0.000038  -0.000013
1 65987U 25230P   26117.83336806  .00035866  00000-0  35245-1 0  9999 | 2 65987  81.2980 258.6558 0000388  65.4217 258.4215 13.78578712  5256 | 2026/04/27-20:00:03  113.6594  323.8388  258.4171  104.4554     7347.0692     7346.7841     7347.3543 -15.991525 -79.709698   0.000031  -0.000023
1 65987U 25230P   26118.85676102  .00000116  00000-0  10328-3 0  9995 | 2 65987  81.2983 257.7169 0000356  87.3181 272.8014 13.78593323 26968 | 2026/04/28-20:33:44   87.7746    0.1154  272.7973  104.4543     7347.0173     7346.7557     7347.2788 -17.295578 -79.437249   0.000034  -0.000009
1 65987U 25230P   26119.87283927  .00000159  00000-0  14491-3 0  9999 | 2 65987  81.2987 256.7843 0000339  94.3136 265.8056 13.78593520 27103 | 2026/04/29-20:56:53   95.5124    0.1153  265.8017  104.4543     7347.0166     7346.7675     7347.2656 -18.586317 -79.145609   0.000033  -0.000005
1 65987U 25230P   26120.88891775  .00000120  00000-0  10664-3 0  9994 | 2 65987  81.2987 255.8517 0000335 101.4608 258.6583 13.78593525 27246 | 2026/04/30-21:20:02  103.2499    0.1153  258.6545  104.4543     7347.0166     7346.7704     7347.2627 -19.872046 -78.832610   0.000033  -0.000002
1 65987U 25230P   26122.41303500  .00000202  00000-0  18801-3 0  9991 | 2 65987  81.2989 254.4529 0000363 111.9979 248.1213 13.78593721 27459 | 2026/05/02-09:54:46  295.3508    0.1153  248.1174  104.4543     7347.0159     7346.7492     7347.2826 -21.790580 -78.324209   0.000036   0.000004
1 65987U 25230P   26123.42911310  .00000209  00000-0  19447-3 0  9991 | 2 65987  81.2991 253.5205 0000396 115.7961 244.3233 13.78594117 27597 | 2026/05/03-10:17:55  303.0878    0.1153  244.3192  104.4542     7347.0145     7346.7235     7347.3054 -23.062300 -77.959438   0.000039   0.000006
1 65987U 25230P   26124.44519153  .00000151  00000-0  13720-3 0  9997 | 2 65987  81.2993 252.5879 0000399 119.2685 240.8509 13.78594018 27733 | 2026/05/04-10:41:04  310.8253    0.1154  240.8469  104.4542     7347.0148     7346.7217     7347.3079 -24.328190 -77.573935   0.000039   0.000008
1 65987U 25230P   26125.75157735  .00000172  00000-0  15774-3 0  9990 | 2 65987  81.2994 251.3890 0000390 129.9010 230.2177 13.78594518 27914 | 2026/05/05-18:02:16   62.9288    0.1153  230.2143  104.4542     7347.0130     7346.7265     7347.2996 -25.945993 -77.048023   0.000036   0.000014
1 65987U 25230P   26126.84023225  .00000218  00000-0  20374-3 0  9990 | 2 65987  81.2995 250.3900 0000422 132.8475 227.2714 13.78594542 28067 | 2026/05/06-20:09:56   97.0047    0.1153  227.2678  104.4542     7347.0129     7346.7029     7347.3230 -27.285412 -76.584039   0.000039   0.000017
1 65987U 25230P   26127.85631044  .00000060  00000-0  47344-4 0  9998 | 2 65987  81.2998 249.4574 0000433 137.1690 222.9498 13.78594498 28202 | 2026/05/07-20:33:05  104.7423    0.1154  222.9464  104.4542     7347.0131     7346.6950     7347.3312 -28.528401 -76.130072   0.000039   0.000019
