# SPACE DATA - HISTORICAL TLEs
# ----------------------------
# NORAD_ID    : 57758
# OBJECT_NAME : WILDFIRE 3
# --------------------------------------------------------------------+-----------------------------------------------------------------------+----------------------------------------------------------------------------------------------------------------------------------------
#                  LINE 1                                             |                 LINE 2                                                |      DERIVED PARAMETERS
# --------------------------------------------------------------------+-----------------------------------------------------------------------+----------------------------------------------------------------------------------------------------------------------------------------
# NORAD  COSPAR     TLE_EPOCH      MEANMOT1 MEANMOT2   BSTAR  #  REV  |   NORAD    INC     RAAN     ECC    ARGPER  MEANANOM   MEANMOT     REV |  CAL_DATE              LONG     ARGLAT     PERIOD        SMA         PERIGEE        APOGEE      INC_X      INC_Y      ECC_X      ECC_Y
# ------ ------   -------------- ----------  -------  ------- -- ----     -----  ------- -------- ------- -------- -------- -----------  ----   ------------------- ---------  --------  --------  ------------  ------------   ----------- ---------- ----------  ---------  ---------   
1 65984U 25230L   25300.85028396  .00000183  00000-0  15032-3 0  9991 | 2 65984  81.3005  67.1541 0004912 120.3043 239.8601 13.85394015  1654 | 2025/10/27-20:24:24  275.2302    0.1157  239.8114  103.9415     7322.9540     7319.3569     7326.5510  31.565242  74.922672  -0.000487  -0.000064
1 65984U 25230L   25302.87247076  .00000367  00000-0  31231-3 0  9996 | 2 65984  81.3007  65.2773 0004953 116.0484 244.1183 13.85396164  1930 | 2025/10/29-20:56:21  287.0852    0.1156  244.0672  103.9414     7322.9464     7319.3193     7326.5734  34.002146  73.848885  -0.000495  -0.000011
1 65984U 25230L   25304.31689154  .00000249  00000-0  20841-3 0  9998 | 2 65984  81.3010  63.9364 0004989 113.3207 246.8476 13.85395238  2135 | 2025/10/31-07:36:19   89.8396    0.1157  246.7950  103.9415     7322.9496     7319.2962     7326.6031  35.721104  73.033248  -0.000498   0.000024
1 65984U 25230L   25305.61686875  .00000269  00000-0  22606-3 0  9992 | 2 65984  81.3013  62.7304 0004954 110.1733 249.9958 13.85395823  2319 | 2025/11/01-14:48:17  200.3179    0.1158  249.9425  103.9414     7322.9476     7319.3198     7326.5754  37.250468  72.265511  -0.000492   0.000061
1 65984U 25230L   25307.78349758  .00000185  00000-0  15215-3 0  9993 | 2 65984  81.3016  60.7195 0004968 105.5333 254.6373 13.85395791  2618 | 2025/11/03-18:48:14  264.4492    0.1157  254.5824  103.9414     7322.9477     7319.3097     7326.5857  39.763444  70.914164  -0.000483   0.000118
1 65984U 25230L   25308.79459027  .00000231  00000-0  19209-3 0  9995 | 2 65984  81.3018  59.7811 0004974 103.3263 256.8449 13.85396365  2759 | 2025/11/04-19:04:12  270.3770    0.1157  256.7894  103.9414     7322.9457     7319.3032     7326.5881  40.919604  70.253603  -0.000476   0.000145
1 65984U 25230L   25309.95012489  .00000218  00000-0  18094-3 0  9997 | 2 65984  81.3019  58.7086 0004969 100.7157 259.4560 13.85396943  2913 | 2025/11/05-22:48:10  328.5804    0.1157  259.4000  103.9413     7322.9436     7319.3049     7326.5824  42.227463  69.475465  -0.000465   0.000175
1 65984U 25230L   25311.10565949  .00000284  00000-0  23919-3 0  9996 | 2 65984  81.3020  57.6362 0004972  98.1728 261.9993 13.85396810  3077 | 2025/11/07-02:32:08   26.7838    0.1157  261.9429  103.9413     7322.9441     7319.3031     7326.5851  43.520411  68.673059  -0.000454   0.000204
1 65984U 25230L   25312.11675155  .00000357  00000-0  30335-3 0  9990 | 2 65984  81.3021  56.6979 0004963  96.1408 264.0314 13.85397450  3212 | 2025/11/08-02:48:07   32.7117    0.1156  263.9748  103.9413     7322.9418     7319.3075     7326.5762  44.639199  67.951258  -0.000442   0.000227
1 65984U 25230L   25314.93336541  .00000311  00000-0  26293-3 0  9993 | 2 65984  81.3024  54.0839 0004927  89.9253 270.2469 13.85398038  3606 | 2025/11/10-22:24:02  332.0829    0.1157  270.1904  103.9412     7322.9398     7319.3318     7326.5478  47.691984  65.844931  -0.000399   0.000290
1 65984U 25230L   25316.30556049  .00000491  00000-0  42066-3 0  9998 | 2 65984  81.3025  52.8106 0004911  87.1369 273.0351 13.85399354  3794 | 2025/11/12-07:20:00  108.6991    0.1158  272.9789  103.9411     7322.9351     7319.3388     7326.5314  49.143438  64.768967  -0.000376   0.000316
1 65984U 25230L   25317.60553478  .00000410  00000-0  34977-3 0  9998 | 2 65984  81.3026  51.6043 0004881  84.3752 275.7962 13.85399584  3975 | 2025/11/13-14:31:58  219.1781    0.1158  275.7406  103.9411     7322.9343     7319.3600     7326.5087  50.496148  63.720106  -0.000351   0.000339
1 65984U 25230L   25319.26661252  .00000396  00000-0  33765-3 0  9999 | 2 65984  81.3028  50.0629 0004872  80.7397 279.4311 13.85399646  4200 | 2025/11/15-06:23:55  100.3453    0.1157  279.3760  103.9411     7322.9341     7319.3664     7326.5018  52.192028  62.338893  -0.000318   0.000369
1 65984U 25230L   25320.27770273  .00000486  00000-0  41635-3 0  9991 | 2 65984  81.3030  49.1245 0004858  78.3198 281.8504 13.85399780  4347 | 2025/11/16-06:39:53  106.2734    0.1157  281.7959  103.9411     7322.9336     7319.3762     7326.4911  53.206110  61.475911  -0.000295   0.000386
1 65984U 25230L   25321.28879285  .00000322  00000-0  27253-3 0  9995 | 2 65984  81.3033  48.1867 0004838  76.2767 283.8929 13.85400364  4485 | 2025/11/17-06:55:51  112.2008    0.1158  283.8391  103.9411     7322.9316     7319.3887     7326.4744  54.205357  60.597078  -0.000274   0.000399
1 65984U 25230L   25322.37210324  .00000326  00000-0  27565-3 0  9999 | 2 65984  81.3032  47.1813 0004803  73.9346 286.2340 13.85400420  4637 | 2025/11/18-08:55:49  144.2667    0.1157  286.1811  103.9411     7322.9314     7319.4142     7326.4486  55.260219  59.636553  -0.000248   0.000411
1 65984U 25230L   25323.67207576  .00000261  00000-0  21931-3 0  9997 | 2 65984  81.3030  45.9747 0004788  71.2405 288.9271 13.85400647  4819 | 2025/11/19-16:07:47  254.7457    0.1157  288.8752  103.9411     7322.9306     7319.4244     7326.4368  56.503629  58.459539  -0.000219   0.000426
1 65984U 25230L   25324.68316602  .00000173  00000-0  14160-3 0  9998 | 2 65984  81.3029  45.0363 0004753  69.0742 291.0923 13.85400265  4953 | 2025/11/20-16:23:45  260.6743    0.1157  291.0415  103.9411     7322.9319     7319.4513     7326.4125  57.453397  57.526243  -0.000194   0.000434
1 65984U 25230L   25325.69425453  .00000266  00000-0  22298-3 0  9999 | 2 65984  81.3028  44.0982 0004701  66.7979 293.3673 13.85401307  5098 | 2025/11/21-16:39:43  266.6021    0.1157  293.3178  103.9410     7322.9283     7319.4857     7326.3708  58.387456  56.577825  -0.000168   0.000439
1 65984U 25230L   25327.21088808  .00000273  00000-0  22949-3 0  9999 | 2 65984  81.3027  42.6907 0004667  64.4922 295.6718 13.85401774  5309 | 2025/11/23-05:03:40   95.4938    0.1158  295.6236  103.9410     7322.9266     7319.5090     7326.3442  59.759490  55.126513  -0.000138   0.000446
1 65984U 25230L   25328.22197722  .00000325  00000-0  27478-3 0  9997 | 2 65984  81.3026  41.7523 0004657  61.4999 298.6626 13.85401627  5445 | 2025/11/24-05:19:38  101.4224    0.1157  298.6158  103.9410     7322.9271     7319.5168     7326.3374  60.654231  54.140346  -0.000107   0.000453
1 65984U 25230L   25329.30528678  .00000294  00000-0  24755-3 0  9995 | 2 65984  81.3028  40.7473 0004621  58.4225 301.7383 13.85401786  5597 | 2025/11/25-07:19:36  133.4883    0.1158  301.6933  103.9410     7322.9266     7319.5426     7326.3105  61.594655  53.068293  -0.000074   0.000456
1 65984U 25230L   25330.31637503  .00000270  00000-0  22695-3 0  9991 | 2 65984  81.3028  39.8090 0004562  55.9208 304.2381 13.85402348  5735 | 2025/11/26-07:35:34  139.4168    0.1157  304.1949  103.9409     7322.9246     7319.5839     7326.2653  62.455426  52.052522  -0.000046   0.000454
1 65984U 25230L   25331.90522856  .00000274  00000-0  23074-3 0  9997 | 2 65984  81.3027  38.3343 0004518  52.3140 307.8426 13.85401952  5959 | 2025/11/27-21:43:31  354.4471    0.1157  307.8017  103.9410     7322.9260     7319.6175     7326.2345  63.774261  50.427896  -0.000005   0.000452
1 65984U 25230L   25333.20519853  .00000255  00000-0  21376-3 0  9997 | 2 65984  81.3024  37.1277 0004453  48.8537 311.3003 13.85402764  6131 | 2025/11/29-04:55:29  104.9268    0.1157  311.2620  103.9409     7322.9231     7319.6622     7326.1840  64.821770  49.073601   0.000031   0.000444
1 65984U 25230L   25334.50516963  .00000142  00000-0  11413-3 0  9996 | 2 65984  81.3024  35.9213 0004369  45.7549 314.3967 13.85402060  6313 | 2025/11/30-12:07:26  215.4065    0.1158  314.3609  103.9409     7322.9256     7319.7262     7326.1250  65.840602  47.697960   0.000063   0.000432
1 65984U 25230L   25335.58847734  .00000203  00000-0  16769-3 0  9995 | 2 65984  81.3023  34.9160 0004333  42.9049 317.2446 13.85402993  6462 | 2025/12/01-14:07:24  247.4725    0.1158  317.2109  103.9409     7322.9223     7319.7493     7326.0953  66.667241  46.535394   0.000091   0.000424
1 65984U 25230L   25336.59956527  .00000252  00000-0  21134-3 0  9994 | 2 65984  81.3022  33.9774 0004296  40.5883 319.5594 13.85402837  6601 | 2025/12/02-14:23:22  253.4011    0.1158  319.5275  103.9409     7322.9229     7319.7769     7326.0688  67.420506  45.437023   0.000114   0.000414
1 65984U 25230L   25337.61065247  .00000242  00000-0  20252-3 0  9997 | 2 65984  81.3020  33.0389 0004242  37.7662 322.3792 13.85403590  6740 | 2025/12/03-14:39:20  259.3299    0.1157  322.3495  103.9408     7322.9202     7319.8138     7326.0266  68.155515  44.326526   0.000139   0.000401
1 65984U 25230L   25338.62173970  .00000288  00000-0  24279-3 0  9995 | 2 65984  81.3019  32.1004 0004199  35.4959 324.6477 13.85403781  6889 | 2025/12/04-14:55:18  265.2581    0.1157  324.6198  103.9408     7322.9195     7319.8446     7325.9944  68.872320  43.204195   0.000160   0.000388
1 65984U 25230L   25339.84948763  .00000358  00000-0  30420-3 0  9993 | 2 65984  81.3020  30.9611 0004173  32.3574 327.7838 13.85404616  7055 | 2025/12/05-20:23:15  349.5992    0.1157  327.7583  103.9408     7322.9166     7319.8607     7325.9724  69.717829  41.826301   0.000187   0.000373
1 65984U 25230L   25340.86057523  .00000284  00000-0  23924-3 0  9991 | 2 65984  81.3017  30.0225 0004152  30.2792 329.8604 13.85403984  7195 | 2025/12/06-20:39:13  355.5275    0.1157  329.8365  103.9408     7322.9188     7319.8783     7325.9593  70.393369  40.678497   0.000206   0.000361
1 65984U 25230L   25341.87166150  .00000311  00000-0  26266-3 0  9993 | 2 65984  81.3015  29.0841 0004101  27.8682 332.2694 13.85404335  7333 | 2025/12/07-20:55:11    1.4556    0.1157  332.2475  103.9408     7322.9176     7319.9145     7325.9207  71.049962  39.520081   0.000224   0.000344
1 65984U 25230L   25343.17162892  .00000353  00000-0  30001-3 0  9995 | 2 65984  81.3016  27.8775 0004009  24.0257 336.1086 13.85405103  7512 | 2025/12/09-04:07:08  111.9351    0.1157  336.0900  103.9407     7322.9149     7319.9791     7325.8506  71.866494  38.015224   0.000247   0.000315
1 65984U 25230L   25344.18271531  .00000235  00000-0  19617-3 0  9997 | 2 65984  81.3016  26.9390 0003978  21.4995 338.6328 13.85405208  7656 | 2025/12/10-04:23:06  117.8632    0.1157  338.6162  103.9407     7322.9145     7320.0015     7325.8276  72.479511  36.833010   0.000264   0.000298
1 65984U 25230L   25345.19380105  .00000251  00000-0  21045-3 0  9993 | 2 65984  81.3017  26.0005 0003939  18.5448 341.5852 13.85405518  7792 | 2025/12/11-04:39:04  123.7915    0.1157  341.5709  103.9407     7322.9134     7320.0289     7325.7979  73.073173  35.640957   0.000281   0.000276
1 65984U 25230L   25346.20488688  .00000290  00000-0  24447-3 0  9993 | 2 65984  81.3017  25.0620 0003890  16.1996 343.9285 13.85405484  7936 | 2025/12/12-04:55:02  129.7193    0.1158  343.9162  103.9407     7322.9135     7320.0649     7325.7622  73.647140  34.439297   0.000292   0.000257
1 65984U 25230L   25347.21597213  .00000341  00000-0  28942-3 0  9991 | 2 65984  81.3014  24.1232 0003845  13.4592 346.6667 13.85406001  8070 | 2025/12/13-05:10:59  135.6476    0.1157  346.6565  103.9406     7322.9117     7320.0961     7325.7274  74.201248  33.227886   0.000305   0.000235
1 65984U 25230L   25348.22705794  .00000267  00000-0  22415-3 0  9994 | 2 65984  81.3013  23.1844 0003754  11.0110 349.1129 13.85405835  8217 | 2025/12/14-05:26:57  141.5759    0.1158  349.1048  103.9407     7322.9123     7320.1633     7325.6613  74.735615  32.007642   0.000311   0.000211
1 65984U 25230L   25349.38258494  .00000160  00000-0  12985-3 0  9995 | 2 65984  81.3014  22.1121 0003764   7.6480 352.4734 13.85405297  8375 | 2025/12/15-09:10:55  199.7793    0.1157  352.4677  103.9407     7322.9142     7320.1579     7325.6705  75.321614  30.603467   0.000327   0.000187
1 65984U 25230L   25350.61033160  .00000146  00000-0  11760-3 0  9998 | 2 65984  81.3012  20.9723 0003714   4.7090 355.4102 13.85405356  8544 | 2025/12/16-14:38:52  284.1203    0.1158  355.4068  103.9407     7322.9140     7320.1943     7325.6337  75.915286  29.099046   0.000335   0.000161
1 65984U 25230L   25351.62141655  .00000129  00000-0  10259-3 0  9992 | 2 65984  81.3010  20.0336 0003661   1.6675 358.4494 13.85405828  8685 | 2025/12/17-14:54:50  290.0484    0.1158  358.4483  103.9407     7322.9123     7320.2314     7325.5932  76.381630  27.851377   0.000340   0.000135
1 65984U 25230L   25353.21026404  .00000178  00000-0  14629-3 0  9992 | 2 65984  81.3008  18.5587 0003585 357.2247   2.8890 13.85406513  8909 | 2025/12/19-05:02:46  145.0776    0.1158    2.8911  103.9406     7322.9099     7320.2846     7325.5352  77.073002  25.876098   0.000345   0.000098
1 65984U 25230L   25354.79911220  .00000147  00000-0  11907-3 0  9997 | 2 65984  81.3007  17.0838 0003516 352.9123   7.1984 13.85406330  9124 | 2025/12/20-19:10:43    0.1069    0.1158    7.2035  103.9406     7322.9106     7320.3358     7325.4853  77.713397  23.883712   0.000346   0.000061
1 65984U 25230L   25355.81019681  .00000166  00000-0  13522-3 0  9997 | 2 65984  81.3005  16.1450 0003470 349.5872  10.5213 13.85406801  9265 | 2025/12/21-19:26:41    6.0350    0.1158   10.5286  103.9406     7322.9089     7320.3678     7325.4499  78.094094  22.607162   0.000345   0.000035
1 65984U 25230L   25357.03794219  .00000198  00000-0  16370-3 0  9999 | 2 65984  81.3005  15.0051 0003394 345.8200  14.2862 13.85407090  9430 | 2025/12/23-00:54:38   90.3756    0.1158   14.2958  103.9406     7322.9079     7320.4225     7325.3933  78.528379  21.049108   0.000339   0.000005
1 65984U 25230L   25358.12124692  .00000186  00000-0  15304-3 0  9995 | 2 65984  81.3007  13.9996 0003370 342.8111  17.2932 13.85407347  9581 | 2025/12/24-02:54:35  122.4405    0.1158   17.3047  103.9405     7322.9070     7320.4392     7325.3748  78.885859  19.667869   0.000336  -0.000019
1 65984U 25230L   25359.13233126  .00000193  00000-0  15883-3 0  9990 | 2 65984  81.3007  13.0611 0003336 339.5066  20.5957 13.85407632  9727 | 2025/12/25-03:10:33  128.3679    0.1158   20.6092  103.9405     7322.9060     7320.4630     7325.3489  79.197420  18.373144   0.000331  -0.000043
1 65984U 25230L   25360.14341584  .00000176  00000-0  14396-3 0  9990 | 2 65984  81.3005  12.1222 0003315 336.5583  23.5423 13.85407495  9864 | 2025/12/26-03:26:31  134.2955    0.1158   23.5575  103.9405     7322.9065     7320.4789     7325.3340  79.487657  17.072894   0.000325  -0.000065
1 65984U 25230L   25361.15450002  .00000224  00000-0  18618-3 0  9993 | 2 65984  81.3005  11.1834 0003278 333.4676  26.6313 13.85407793 10000 | 2025/12/27-03:42:28  140.2229    0.1157   26.6481  103.9405     7322.9054     7320.5050     7325.3058  79.756716  15.768243   0.000316  -0.000087
1 65984U 25230L   25362.31002445  .00000295  00000-0  24888-3 0  9990 | 2 65984  81.3006  10.1109 0003245 330.1248  29.9724 13.85408403 10166 | 2025/12/28-07:26:26  198.4249    0.1158   29.9910  103.9405     7322.9033     7320.5270     7325.2795  80.037985  14.272647   0.000305  -0.000110
1 65984U 25230L   25363.46554940  .00000259  00000-0  21692-3 0  9999 | 2 65984  81.3005   9.0381 0003201 326.2755  33.8199 13.85408335 10327 | 2025/12/29-11:10:23  256.6274    0.1158   33.8403  103.9405     7322.9035     7320.5594     7325.2476  80.291081  12.771594   0.000291  -0.000134
1 65984U 25230L   25364.54885352  .00000248  00000-0  20731-3 0  9994 | 2 65984  81.3004   8.0321 0003180 322.7366  37.3570 13.85408700 10478 | 2025/12/30-13:10:20  288.6924    0.1157   37.3791  103.9404     7322.9022     7320.5735     7325.2309  80.502838  11.359932   0.000278  -0.000155
1 65984U 25230L   26001.13769861  .00000317  00000-0  26808-3 0  9992 | 2 65984  81.3005   6.5569 0003105 317.2013  42.8902 13.85409433 10699 | 2026/01/01-03:18:17  143.7200    0.1157   42.9144  103.9404     7322.8996     7320.6259     7325.1734  80.768709   9.283693   0.000250  -0.000184
1 65984U 25230L   26002.14878197  .00000364  00000-0  30949-3 0  9990 | 2 65984  81.3008   5.6188 0003031 313.3382  46.7522 13.85409463 10833 | 2026/01/02-03:34:14  149.6458    0.1157   46.7775  103.9404     7322.8995     7320.6799     7325.1191  80.910176   7.960117   0.000229  -0.000199
1 65984U 25230L   26003.23208589  .00000321  00000-0  27150-3 0  9996 | 2 65984  81.3008   4.6127 0003067 310.7401  49.3489 13.85409552 10983 | 2026/01/03-05:34:12  181.7104    0.1157   49.3756  103.9404     7322.8992     7320.6533     7325.1451  81.037473   6.538199   0.000218  -0.000216
1 65984U 25230L   26004.24316929  .00000259  00000-0  21703-3 0  9994 | 2 65984  81.3008   3.6740 0003056 307.1713  52.9165 13.85409196 11129 | 2026/01/04-05:50:09  187.6369    0.1157   52.9444  103.9404     7322.9005     7320.6626     7325.1383  81.133711   5.209712   0.000200  -0.000231
1 65984U 25230L   26005.47091296  .00000265  00000-0  22269-3 0  9992 | 2 65984  81.3009   2.5342 0003006 303.1769  56.9100 13.85409077 11297 | 2026/01/05-11:18:06  271.9755    0.1158   56.9389  103.9404     7322.9009     7320.6996     7325.1021  81.221388   3.594777   0.000175  -0.000244
1 65984U 25230L   26006.48199559  .00000270  00000-0  22660-3 0  9996 | 2 65984  81.3009   1.5955 0002977 299.9483  60.1378 13.85409550 11433 | 2026/01/06-11:34:04  277.9013    0.1157   60.1674  103.9404     7322.8992     7320.7192     7325.0792  81.269380   2.263671   0.000156  -0.000254
1 65984U 25230L   26007.49307879  .00000211  00000-0  17529-3 0  9997 | 2 65984  81.3010   0.6571 0002933 296.0563  64.0293 13.85409367 11578 | 2026/01/07-11:50:02  283.8267    0.1158   64.0595  103.9404     7322.8999     7320.7520     7325.0477  81.295653   0.932385   0.000132  -0.000262
1 65984U 25230L   26008.50416128  .00000232  00000-0  19315-3 0  9996 | 2 65984  81.3010 359.7182 0002921 292.9138  67.1711 13.85410034 11712 | 2026/01/08-12:05:59  289.7526    0.1158   67.2020  103.9403     7322.8975     7320.7585     7325.0365  81.300017  -0.399864   0.000112  -0.000270
1 65984U 25230L   26010.95964786  .00000215  00000-0  17853-3 0  9992 | 2 65984  81.3014 357.4389 0002881 284.7653  75.3185 13.85410300 12056 | 2026/01/10-23:01:53   98.4284    0.1157   75.3504  103.9403     7322.8966     7320.7868     7325.0063  81.220191  -3.632932   0.000061  -0.000282
1 65984U 25230L   26011.97073005  .00000308  00000-0  26061-3 0  9994 | 2 65984  81.3016 356.5003 0002846 281.0819  79.0019 13.85410706 12198 | 2026/01/11-23:17:51  104.3532    0.1158   79.0339  103.9403     7322.8951     7320.8110     7324.9792  81.149982  -4.962919   0.000038  -0.000282
1 65984U 25230L   26013.19847370  .00000142  00000-0  11405-3 0  9996 | 2 65984  81.3017 355.3606 0002832 276.5898  83.4937 13.85410259 12366 | 2026/01/13-04:45:48  188.6910    0.1157   83.5259  103.9403     7322.8967     7320.8229     7324.9706  81.035314  -6.576035   0.000010  -0.000283
1 65984U 25230L   26014.20955566  .00000094  00000-0  71992-4 0  9990 | 2 65984  81.3016 354.4222 0002825 273.2149  86.8685 13.85411037 12502 | 2026/01/14-05:01:45  194.6156    0.1157   86.9008  103.9403     7322.8940     7320.8253     7324.9627  80.916648  -7.902294  -0.000012  -0.000282
1 65984U 25230L   26015.36507803  .00000202  00000-0  16682-3 0  9990 | 2 65984  81.3017 353.3496 0002827 269.1412  90.9421 13.85411063 12663 | 2026/01/15-08:45:42  252.8153    0.1157   90.9745  103.9403     7322.8939     7320.8237     7324.9641  80.754643  -9.415625  -0.000037  -0.000280
1 65984U 25230L   26016.44838091  .00000152  00000-0  12354-3 0  9992 | 2 65984  81.3018 352.3439 0002819 265.1289  94.9547 13.85410795 12810 | 2026/01/16-10:45:40  284.8774    0.1158   94.9869  103.9403     7322.8948     7320.8305     7324.9591  80.577041 -10.831583  -0.000061  -0.000275
1 65984U 25230L   26017.89278401  .00000191  00000-0  15774-3 0  9997 | 2 65984  81.3018 351.0032 0002806 259.1652 100.9189 13.85410924 13015 | 2026/01/17-21:25:36   87.6264    0.1157  100.9505  103.9403     7322.8944     7320.8396     7324.9492  80.301550 -12.713919  -0.000095  -0.000264
1 65984U 25230L   26018.97608627  .00000182  00000-0  14925-3 0  9991 | 2 65984  81.3021 349.9979 0002821 255.9846 104.0998 13.85411131 13161 | 2026/01/18-23:25:33  119.6880    0.1157  104.1311  103.9403     7322.8936     7320.8278     7324.9594  80.066421 -14.120896  -0.000115  -0.000258
1 65984U 25230L   26019.98716912  .00000160  00000-0  12985-3 0  9990 | 2 65984  81.3024 349.0595 0002824 252.2923 107.7926 13.85410791 13306 | 2026/01/19-23:41:31  125.6123    0.1157  107.8234  103.9403     7322.8948     7320.8269     7324.9628  79.824713 -15.430342  -0.000135  -0.000248
1 65984U 25230L   26020.99825021  .00000287  00000-0  24206-3 0  9994 | 2 65984  81.3023 348.1208 0002812 248.6224 111.4634 13.85411900 13442 | 2026/01/20-23:57:28  131.5359    0.1158  111.4934  103.9402     7322.8909     7320.8317     7324.9501  79.561112 -16.735993  -0.000154  -0.000235
1 65984U 25230L   26022.29821210  .00000428  00000-0  36587-3 0  9997 | 2 65984  81.3025 346.9142 0002803 243.2967 116.7904 13.85412145 13622 | 2026/01/22-07:09:25  242.0087    0.1158  116.8191  103.9402     7322.8901     7320.8375     7324.9427  79.191246 -18.407692  -0.000179  -0.000215
1 65984U 25230L   26023.30929385  .00000353  00000-0  29986-3 0  9994 | 2 65984  81.3026 345.9759 0002816 239.7999 120.2880 13.85412324 13762 | 2026/01/23-07:25:22  247.9322    0.1158  120.3159  103.9402     7322.8894     7320.8273     7324.9516  78.879285 -19.702059  -0.000196  -0.000202
1 65984U 25230L   26024.39259463  .00000326  00000-0  27630-3 0  9991 | 2 65984  81.3027 344.9707 0002875 235.5312 124.5573 13.85413255 13910 | 2026/01/24-09:25:20  279.9929    0.1156  124.5844  103.9401     7322.8862     7320.7808     7324.9915  78.521607 -21.082844  -0.000219  -0.000187
1 65984U 25230L   26025.62033607  .00000310  00000-0  26183-3 0  9993 | 2 65984  81.3030 343.8310 0002898 231.5699 128.5198 13.85413237 14087 | 2026/01/25-14:53:17    4.3284    0.1157  128.5458  103.9401     7322.8862     7320.7640     7325.0084  78.087019 -22.640568  -0.000236  -0.000168
1 65984U 25230L   26026.84807695  .00000310  00000-0  26231-3 0  9998 | 2 65984  81.3031 342.6915 0002944 227.2213 132.8697 13.85413347 14255 | 2026/01/26-20:21:13   88.6635    0.1157  132.8944  103.9401     7322.8858     7320.7300     7325.0417  77.621425 -24.189015  -0.000255  -0.000147
1 65984U 25230L   26028.94245729  .00000385  00000-0  32744-3 0  9993 | 2 65984  81.3034 340.7483 0002959 219.7956 140.2984 13.85414314 14542 | 2026/01/28-22:37:08  126.6449    0.1157  140.3201  103.9400     7322.8824     7320.7156     7325.0493  76.756852 -26.807248  -0.000277  -0.000104
1 65984U 25230L   26030.09797788  .00000232  00000-0  19380-3 0  9991 | 2 65984  81.3034 339.6756 0002993 216.9938 143.1014 13.85414426 14707 | 2026/01/30-02:21:05  184.8427    0.1158  143.1220  103.9400     7322.8820     7320.6903     7325.0738  76.241540 -28.239519  -0.000287  -0.000086
1 65984U 25230L   26031.25349762  .00000397  00000-0  33842-3 0  9996 | 2 65984  81.3034 338.6035 0003012 212.7776 147.3195 13.85414392 14868 | 2026/01/31-06:05:02  243.0390    0.1157  147.3381  103.9400     7322.8821     7320.6765     7325.0878  75.699815 -29.661099  -0.000295  -0.000059
1 65984U 25230L   26032.33679801  .00000353  00000-0  30012-3 0  9994 | 2 65984  81.3035 337.5982 0003045 208.2194 151.8799 13.85414120 15015 | 2026/02/01-08:04:59  275.0980    0.1157  151.8963  103.9400     7322.8831     7320.6533     7325.1129  75.167855 -30.984717  -0.000303  -0.000031
1 65984U 25230L   26033.34787780  .00000270  00000-0  22705-3 0  9990 | 2 65984  81.3035 336.6599 0003087 204.8313 155.2696 13.85414663 15151 | 2026/02/02-08:20:56  281.0200    0.1157  155.2844  103.9400     7322.8812     7320.6206     7325.1418  74.650380 -32.211488  -0.000309  -0.000008
1 65984U 25230L   26034.57561758  .00000235  00000-0  19567-3 0  9994 | 2 65984  81.3036 335.5206 0003148 200.9343 159.1686 13.85414968 15322 | 2026/02/03-13:48:53    5.3537    0.1157  159.1814  103.9400     7322.8801     7320.5749     7325.1854  73.995245 -33.689452  -0.000314   0.000019
1 65984U 25230L   26036.09223699  .00000213  00000-0  17641-3 0  9999 | 2 65984  81.3038 334.1134 0003209 196.8398 163.2653 13.85415105 15537 | 2026/02/05-02:12:49  194.2366    0.1157  163.2759  103.9400     7322.8796     7320.5297     7325.2295  73.145769 -35.496539  -0.000317   0.000050
1 65984U 25230L   26037.24775542  .00000374  00000-0  31848-3 0  9999 | 2 65984  81.3040 333.0411 0003254 193.2825 166.8248 13.85415930 15694 | 2026/02/06-05:56:46  252.4322    0.1158  166.8333  103.9399     7322.8767     7320.4939     7325.2596  72.468853 -36.859269  -0.000316   0.000077
1 65984U 25230L   26038.25883484  .00000312  00000-0  26338-3 0  9996 | 2 65984  81.3040 332.1031 0003306 189.8780 170.2313 13.85415860 15831 | 2026/02/07-06:12:43  258.3534    0.1157  170.2377  103.9399     7322.8770     7320.4560     7325.2979  71.855739 -38.040678  -0.000314   0.000102
1 65984U 25230L   26039.26991347  .00000303  00000-0  25616-3 0  9994 | 2 65984  81.3039 331.1650 0003294 187.2015 172.9096 13.85416591 15978 | 2026/02/08-06:28:40  264.2746    0.1158  172.9143  103.9399     7322.8744     7320.4622     7325.2866  71.223211 -39.211968  -0.000306   0.000121
1 65984U 25230L   26040.28099214  .00000329  00000-0  27879-3 0  9991 | 2 65984  81.3038 330.2268 0003333 184.1401 175.9729 13.85416774 16117 | 2026/02/09-06:44:37  270.1957    0.1157  175.9756  103.9398     7322.8738     7320.4330     7325.3145  70.571521 -40.372866  -0.000300   0.000144
1 65984U 25230L   26042.88090904  .00000306  00000-0  25829-3 0  9994 | 2 65984  81.3043 327.8145 0003733 173.1997 186.9211 13.85415982 16478 | 2026/02/11-21:08:30  131.1329    0.1156  186.9159  103.9399     7322.8765     7320.1429     7325.6102  68.810105 -43.307720  -0.000290   0.000235
1 65984U 25230L   26043.89198764  .00000222  00000-0  18429-3 0  9994 | 2 65984  81.3040 326.8761 0003596 172.4200 187.7013 13.85416090 16610 | 2026/02/12-21:24:27  137.0557    0.1158  187.6958  103.9399     7322.8762     7320.2429     7325.5095  68.091356 -44.428681  -0.000273   0.000235
1 65984U 25230L   26044.90306529  .00000261  00000-0  21888-3 0  9993 | 2 65984  81.3040 325.9381 0003718 169.5283 190.5952 13.85417013 16757 | 2026/02/13-21:40:24  142.9760    0.1157  190.5874  103.9398     7322.8729     7320.1503     7325.5956  67.354913 -45.537414  -0.000265   0.000261
1 65984U 25230L   26046.13080322  .00000224  00000-0  18643-3 0  9994 | 2 65984  81.3039 324.7987 0003691 166.1899 193.9360 13.85417147 16927 | 2026/02/15-03:08:21  227.3088    0.1157  193.9258  103.9398     7322.8724     7320.1696     7325.5753  66.436004 -46.867703  -0.000242   0.000279
1 65984U 25230L   26047.14188089  .00000257  00000-0  21543-3 0  9994 | 2 65984  81.3039 323.8602 0003724 163.8177 196.3100 13.85417819 17062 | 2026/02/16-03:24:18  233.2300    0.1157  196.2980  103.9398     7322.8701     7320.1430     7325.5971  65.659437 -47.949583  -0.000228   0.000295
1 65984U 25230L   26048.15295884  .00000207  00000-0  17119-3 0  9997 | 2 65984  81.3038 322.9223 0003806 161.2802 198.8495 13.85418008 17209 | 2026/02/17-03:40:15  239.1505    0.1156  198.8354  103.9397     7322.8694     7320.0823     7325.6565  64.865687 -49.017859  -0.000214   0.000315
1 65984U 25230L   26049.16403626  .00000249  00000-0  20847-3 0  9992 | 2 65984  81.3038 321.9842 0003873 158.9644 201.1673 13.85418108 17348 | 2026/02/18-03:56:12  245.0711    0.1157  201.1513  103.9397     7322.8691     7320.0329     7325.7052  64.054463 -50.073283  -0.000199   0.000332
1 65984U 25230L   26050.17511424  .00000215  00000-0  17834-3 0  9996 | 2 65984  81.3036 321.0458 0003879 156.3836 203.7500 13.85417844 17489 | 2026/02/19-04:12:09  250.9922    0.1157  203.7321  103.9398     7322.8700     7320.0294     7325.7105  63.225644 -51.115490  -0.000179   0.000344
1 65984U 25230L   26051.18619131  .00000230  00000-0  19197-3 0  9993 | 2 65984  81.3034 320.1077 0003937 153.8362 206.2995 13.85418471 17624 | 2026/02/20-04:28:06  256.9125    0.1157  206.2795  103.9397     7322.8678     7319.9848     7325.7508  62.380143 -52.143653  -0.000160   0.000360
1 65984U 25230L   26052.19726881  .00000184  00000-0  15083-3 0  9994 | 2 65984  81.3032 319.1695 0004109 152.2519 207.8859 13.85418241 17761 | 2026/02/21-04:44:04  262.8331    0.1158  207.8639  103.9397     7322.8686     7319.8596     7325.8776  61.517832 -53.157941  -0.000150   0.000383
1 65984U 25230L   26053.71388535  .00000109  00000-0  85530-4 0  9995 | 2 65984  81.3031 317.7621 0004082 148.1130 212.0275 13.85417792 17979 | 2026/02/22-17:07:59   91.7146    0.1157  212.0027  103.9398     7322.8702     7319.8810     7325.8594  60.193572 -54.652795  -0.000112   0.000393
1 65984U 25230L   26054.72496191  .00000174  00000-0  14198-3 0  9998 | 2 65984  81.3028 316.8237 0004098 145.2056 214.9370 13.85418566 18114 | 2026/02/23-17:23:56   97.6350    0.1157  214.9101  103.9397     7322.8674     7319.8665     7325.8683  59.290207 -55.631076  -0.000085   0.000401
1 65984U 25230L   26056.16935770  .00000196  00000-0  16137-3 0  9998 | 2 65984  81.3027 315.4829 0004117 141.4470 218.6982 13.85418661 18313 | 2026/02/25-04:03:52  260.3794    0.1157  218.6687  103.9397     7322.8671     7319.8523     7325.8819  57.972177 -57.003120  -0.000050   0.000409
1 65984U 25230L   26058.11929285  .00000288  00000-0  24229-3 0  9992 | 2 65984  81.3023 313.6738 0004176 134.5872 225.5627 13.85418207 18580 | 2026/02/27-02:51:46  246.0824    0.1157  225.5285  103.9397     7322.8687     7319.8107     7325.9267  56.143445 -58.804571   0.000013   0.000417
1 65984U 25230L   26059.13036928  .00000224  00000-0  18652-3 0  9991 | 2 65984  81.3021 312.7351 0004251 134.6657 225.4848 13.85418422 18724 | 2026/02/28-03:07:43  252.0046    0.1158  225.4501  103.9397     7322.8679     7319.7550     7325.9809  55.172398 -59.716312   0.000019   0.000425
1 65984U 25230L   26060.14144608  .00000184  00000-0  15101-3 0  9990 | 2 65984  81.3019 311.7969 0004317 132.4837 227.6685 13.85418958 18866 | 2026/03/01-03:23:40  257.9253    0.1156  227.6319  103.9397     7322.8661     7319.7048     7326.0273  54.187077 -60.611547   0.000043   0.000430
1 65984U 25230L   26061.15252241  .00000261  00000-0  21868-3 0  9998 | 2 65984  81.3017 310.8587 0004390 130.6898 229.4641 13.85419373 19009 | 2026/03/02-03:39:37  263.8458    0.1157  229.4259  103.9396     7322.8646     7319.6499     7326.0793  53.187231 -61.490526   0.000065   0.000434
1 65984U 25230L   26062.16359899  .00000264  00000-0  22118-3 0  9999 | 2 65984  81.3016 309.9202 0004406 128.7135 231.4417 13.85419424 19147 | 2026/03/03-03:55:34  269.7671    0.1157  231.4022  103.9396     7322.8644     7319.6380     7326.0909  52.172868 -62.353364   0.000087   0.000432
1 65984U 25230L   26063.17467522  .00000296  00000-0  24964-3 0  9990 | 2 65984  81.3015 308.9816 0004448 126.7538 233.4029 13.85419831 19285 | 2026/03/04-04:11:31  275.6883    0.1158  233.3620  103.9396     7322.8630     7319.6058     7326.1202  51.144398 -63.199560   0.000110   0.000431
1 65984U 25230L   26064.18575129  .00000321  00000-0  27194-3 0  9992 | 2 65984  81.3014 308.0435 0004505 124.6650 235.4932 13.85419925 19423 | 2026/03/05-04:27:28  281.6088    0.1157  235.4507  103.9396     7322.8626     7319.5637     7326.1616  50.102766 -64.028357   0.000134   0.000430
1 65984U 25230L   26065.19682648  .00000381  00000-0  32457-3 0  9993 | 2 65984  81.3005 307.1060 0004605 124.0447 236.1148 13.85420256 19567 | 2026/03/06-04:43:25  287.5286    0.1157  236.0710  103.9396     7322.8615     7319.4893     7326.2337  49.047901 -64.838836   0.000149   0.000436
1 65984U 25230L   26066.42456029  .00000390  00000-0  33258-3 0  9992 | 2 65984  81.3002 305.9662 0004541 119.5709 240.5902 13.85421617 19735 | 2026/03/07-10:11:22   11.8611    0.1158  240.5449  103.9395     7322.8567     7319.5314     7326.1820  47.748249 -65.801423   0.000188   0.000413
1 65984U 25230L   26067.79673402  .00000264  00000-0  22186-3 0  9997 | 2 65984  81.3003 304.6928 0004605 115.4239 244.7395 13.85422124 19928 | 2026/03/08-19:07:17  148.4672    0.1157  244.6918  103.9394     7322.8549     7319.4827     7326.2271  46.274196 -66.846373   0.000229   0.000399
1 65984U 25230L   26069.09668816  .00000229  00000-0  19087-3 0  9992 | 2 65984  81.3000 303.4858 0004575 112.7600 247.4041 13.85421138 20106 | 2026/03/10-02:19:13  258.9383    0.1157  247.3557  103.9395     7322.8584     7319.5082     7326.2086  44.855673 -67.806036   0.000254   0.000380
1 65984U 25230L   26070.17998221  .00000262  00000-0  22005-3 0  9990 | 2 65984  81.2998 302.4803 0004600 110.6961 249.4689 13.85421585 20258 | 2026/03/11-04:19:10  290.9965    0.1156  249.4195  103.9395     7322.8568     7319.4883     7326.2253  43.658773 -68.582571   0.000276   0.000368
1 65984U 25230L   26071.33549573  .00000308  00000-0  26002-3 0  9993 | 2 65984  81.2997 301.4076 0004649 108.2815 251.8849 13.85422315 20417 | 2026/03/12-08:03:06  349.1916    0.1158  251.8343  103.9394     7322.8542     7319.4498     7326.2586  42.367131 -69.387805   0.000301   0.000355
1 65984U 25230L   26072.63544961  .00000227  00000-0  18896-3 0  9995 | 2 65984  81.2995 300.2009 0004694 105.2276 254.9401 13.85421700 20590 | 2026/03/13-15:15:02   99.6617    0.1158  254.8882  103.9395     7322.8564     7319.4190     7326.2937  40.896374 -70.264467   0.000329   0.000334
1 65984U 25230L   26073.86318269  .00000222  00000-0  18478-3 0  9992 | 2 65984  81.2993 299.0611 0004737 102.6019 257.5668 13.85421916 20768 | 2026/03/14-20:42:58  183.9945    0.1157  257.5138  103.9395     7322.8556     7319.3868     7326.3245  39.490487 -71.063898   0.000354   0.000315
1 65984U 25230L   26074.94647664  .00000226  00000-0  18784-3 0  9990 | 2 65984  81.2989 298.0553 0004752 100.3163 259.8531 13.85421751 20917 | 2026/03/15-22:42:55  216.0532    0.1158  259.7995  103.9395     7322.8562     7319.3764     7326.3360  38.236786 -71.745797   0.000373   0.000295
1 65984U 25230L   26076.02976997  .00000213  00000-0  17668-3 0  9991 | 2 65984  81.2987 297.0494 0004781  98.1159 262.0541 13.85422408 21063 | 2026/03/17-00:42:52  248.1119    0.1157  261.9998  103.9394     7322.8539     7319.3528     7326.3550  36.971279 -72.405823   0.000391   0.000275
1 65984U 25230L   26077.11306362  .00000283  00000-0  23843-3 0  9994 | 2 65984  81.2987 296.0435 0004789  95.5440 264.6263 13.85422198 21211 | 2026/03/18-02:42:48  280.1709    0.1157  264.5717  103.9394     7322.8546     7319.3477     7326.3616  35.694471 -73.043709   0.000408   0.000251
1 65984U 25230L   26078.12413730  .00000218  00000-0  18103-3 0  9995 | 2 65984  81.2985 295.1049 0004783  93.4809 266.6895 13.85422512 21358 | 2026/03/19-02:58:45  106.7054    0.1157  266.6348  103.9394     7322.8535     7319.3510     7326.3561  34.493073 -73.618435   0.000420   0.000229
1 65984U 25230L   26079.56852772  .00000232  00000-0  19336-3 0  9992 | 2 65984  81.2985 293.7632 0004826  91.8234 268.3476 13.85423055 21551 | 2026/03/20-13:38:40  268.9017    0.1157  268.2923  103.9394     7322.8516     7319.3176     7326.3856  32.759845 -74.405905   0.000435   0.000208
1 65984U 25230L   26080.57960147  .00000161  00000-0  13056-3 0  9995 | 2 65984  81.2982 292.8249 0004827  88.6923 271.4788 13.85423096 21693 | 2026/03/21-13:54:37  274.8349    0.1158  271.4235  103.9394     7322.8515     7319.3167     7326.3862  31.536887 -74.932116   0.000449   0.000177
1 65984U 25230L   26081.95177530 -.00000171  00000-0 -16066-3 0  9991 | 2 65984  81.2980 291.5513 0004780  86.0897 274.0806 13.85420374 21888 | 2026/03/22-22:50:33   51.8119    0.1157  274.0260  103.9396     7322.8611     7319.3607     7326.3614  29.863530 -75.614379   0.000456   0.000145
1 65984U 25230L   26083.32435686 -.00028897  00000-0 -25620-1 0  9992 | 2 65984  81.2978 290.2775 0003631  84.4844 275.6728 13.85142775 22077 | 2026/03/24-07:47:04  188.9481    0.1158  275.6314  103.9604     7323.8394     7321.1801     7326.4987  28.175160 -76.259377   0.000351   0.000093
1 65984U 25230L   26084.84138478 -.00007377  00000-0 -65464-2 0  9990 | 2 65984  81.2970 288.8694 0003003  83.8133 276.3366 13.85001463 22286 | 2026/03/25-20:11:35   17.5119    0.1157  276.3024  103.9710     7324.3376     7322.1381     7326.5371  26.292433 -76.927954   0.000293   0.000066
1 65984U 25230L   26085.85280037  .00000228  00000-0  19101-3 0  9995 | 2 65984  81.2970 287.9307 0002808  79.0578 281.0895 13.84964357 22424 | 2026/03/26-20:28:01   23.5697    0.1157  281.0579  103.9738     7324.4684     7322.4117     7326.5251  25.028619 -77.348371   0.000279   0.000034
1 65984U 25230L   26086.93645203  .00000217  00000-0  18187-3 0  9996 | 2 65984  81.2969 286.9252 0002801  77.7793 282.3678 13.84964319 22574 | 2026/03/27-22:28:29   55.8426    0.1157  282.3364  103.9738     7324.4685     7322.4170     7326.5201  23.667397 -77.775576   0.000279   0.000023
1 65984U 25230L   26088.02010306  .00000278  00000-0  23591-3 0  9990 | 2 65984  81.2969 285.9196 0002789  75.9280 284.2187 13.84964782 22723 | 2026/03/29-00:28:56   88.1116    0.1157  284.1877  103.9738     7324.4669     7322.4241     7326.5097  22.298780 -78.178964   0.000279   0.000009
1 65984U 25230L   26089.17660028 -.00053555  00000-0 -48155-1 0  9998 | 2 65984  81.2971 284.8481 0002702  49.0466 311.0925 13.84494865 22880 | 2026/03/30-04:14:18  146.8266    0.1158  311.0692  104.0091     7326.1242     7324.1446     7328.1037  20.832977 -78.582476   0.000243  -0.000119
1 65984U 25230L   26090.26089271 -.00061774  00000-0 -55818-1 0  9991 | 2 65984  81.2970 283.8435 0002748  66.7497 293.3948 13.84267699 23035 | 2026/03/31-06:15:41  179.3234    0.1156  293.3659  104.0261     7326.9257     7324.9122     7328.9391  19.451989 -78.935558   0.000271  -0.000045
1 65984U 25230L   26091.50001156 -.00104183  00000-0 -98001-1 0  9998 | 2 65984  81.2968 282.6973 0002986  54.3411 353.0085 13.82221259  4876 | 2026/04/01-12:00:00  219.8150   47.3454  353.0043  104.1801     7334.1558     7331.9658     7336.3457  17.869056 -79.308679   0.000275  -0.000116
1 65984U 25230L   26092.58335648 -.00030541  00000-0 -27645-1 0  9995 | 2 65984  81.2966 281.6918 0002778  65.9389 338.9309 13.83944308  5020 | 2026/04/02-14:00:01  254.4545   44.8584  338.9195  104.0504     7328.0670     7326.0313     7330.1027  16.474524 -79.609844   0.000271  -0.000060
1 65984U 25230L   26093.58654076  .00000225  00000-0  19224-3 0  9995 | 2 65984  81.2966 280.7623 0002744  62.4227 297.7208 13.83923416 23497 | 2026/04/03-14:04:37  302.2522    0.1157  297.6930  104.0520     7328.1408     7326.1299     7330.1516  15.180916 -79.866620   0.000263  -0.000079
1 65984U 25230L   26094.83335647  .00023358  00000-0  20993-1 0  9999 | 2 65984  81.2970 279.6067 0002720  58.9523  29.6070 13.83908263  5339 | 2026/04/04-20:00:01  305.3142   88.5747   29.6224  104.0531     7328.1943     7326.2010     7330.1875  13.567172 -80.156934   0.000253  -0.000099
1 65984U 25230L   26095.90006714  .00000195  00000-0  16479-3 0  9998 | 2 65984  81.2968 278.6191 0002679  58.3822 301.7596 13.83923611 23816 | 2026/04/05-21:36:05   59.8531    0.1157  301.7335  104.0520     7328.1401     7326.1769     7330.1033  12.183540 -80.378673   0.000247  -0.000105
1 65984U 25230L   26096.91224962 -.00001808  00000-0 -16416-2 0  9991 | 2 65984  81.2938 277.6780 0002250  27.0905 333.0369 13.83911243 23955 | 2026/04/06-21:53:38   66.2058    0.1157  333.0252  104.0529     7328.1837     7326.5349     7329.8326  10.861312 -80.564966   0.000128  -0.000185
1 65984U 25230L   26097.92444925 -.00002784  00000-0 -25232-2 0  9996 | 2 65984  81.2966 276.7453 0002547  53.9119 306.2273 13.83897258 24098 | 2026/04/07-22:11:12   72.5280    0.1157  306.2038  104.0540     7328.2331     7326.3666     7330.0996   9.548768 -80.733873   0.000222  -0.000125
1 65984U 25230L   26098.93664630 -.00000287  00000-0 -26942-3 0  9991 | 2 65984  81.2974 275.8067 0002662  49.7467 310.3922 13.83881900 24235 | 2026/04/08-22:28:46   78.8683    0.1157  310.3690  104.0551     7328.2873     7326.3365     7330.2381   8.225072 -80.880254   0.000220  -0.000151
1 65984U 25230L   26100.23804695  .00000221  00000-0  18901-3 0  9997 | 2 65984  81.2972 274.6012 0002646  46.9997 313.1381 13.83879539 24414 | 2026/04/10-05:42:47  190.1589    0.1157  313.1160  104.0553     7328.2957     7326.3566     7330.2347   6.521645 -81.035195   0.000207  -0.000164
1 65984U 25230L   26101.46714686  .00000182  00000-0  15382-3 0  9999 | 2 65984  81.2971 273.4626 0002590  45.2702 314.8665 13.83879585 24587 | 2026/04/11-11:12:41  275.2108    0.1157  314.8455  104.0553     7328.2955     7326.3975     7330.1935   4.910100 -81.148687   0.000195  -0.000171
1 65984U 25230L   26102.47934649  .00000196  00000-0  16591-3 0  9992 | 2 65984  81.2970 272.5251 0002557  43.3550 316.7807 13.83879873 24728 | 2026/04/12-11:30:15  281.5507    0.1156  316.7606  104.0553     7328.2945     7326.4206     7330.1683   3.581705 -81.218062   0.000184  -0.000178
1 65984U 25230L   26103.70844627  .00000178  00000-0  14985-3 0  9990 | 2 65984  81.2972 271.3867 0002497  40.9867 319.1477 13.83879726 24892 | 2026/04/13-17:00:09    5.6170    0.1157  319.1290  104.0553     7328.2950     7326.4651     7330.1249   1.967402 -81.273391   0.000168  -0.000184
1 65984U 25230L   26104.86524546  .00000170  00000-0  14239-3 0  9997 | 2 65984  81.2973 270.3153 0002433  38.4051 321.7278 13.83880142 25058 | 2026/04/14-20:45:57   64.4347    0.1156  321.7105  104.0553     7328.2935     7326.5106     7330.0765   0.447379 -81.296069   0.000152  -0.000190
1 65984U 25230L   26105.87744488  .00000134  00000-0  11024-3 0  9997 | 2 65984  81.2975 269.3778 0002394  36.3649 323.7670 13.83880255 25195 | 2026/04/15-21:03:31   70.7745    0.1157  323.7508  104.0552     7328.2931     7326.5387     7330.0475  -0.882828 -81.292706   0.000140  -0.000194
1 65984U 25230L   26110.57694179  .00000123  00000-0  10056-3 0  9993 | 2 65984  81.2978 265.0253 0002161  26.7214 333.4054 13.83880506 25847 | 2026/04/20-13:50:47  331.2846    0.1157  333.3943  104.0552     7328.2922     7326.7086     7329.8759  -7.049808 -80.991558   0.000080  -0.000201
1 65984U 25230L   26111.80604131  .00000092  00000-0  72256-4 0  9995 | 2 65984  81.2979 263.8870 0002092  24.2132 335.9123 13.83880107 26015 | 2026/04/21-19:20:41   56.3365    0.1157  335.9025  104.0553     7328.2937     7326.7606     7329.8267  -8.657387 -80.835625   0.000065  -0.000199
1 65984U 25230L   26112.81824028  .00000126  00000-0  10299-3 0  9992 | 2 65984  81.2980 262.9495 0002033  21.2715 338.8526 13.83880359 26152 | 2026/04/22-19:38:15   62.6768    0.1157  338.8442  104.0552     7328.2928     7326.8029     7329.7826  -9.978851 -80.683253   0.000050  -0.000197
1 65984U 25230L   26114.48113825  .00000135  00000-0  11154-3 0  9994 | 2 65984  81.2984 261.4095 0001987  18.2681 341.8547 13.83880986 26389 | 2026/04/24-11:32:50  305.1563    0.1157  341.8476  104.0552     7328.2905     7326.8344     7329.7467 -12.143656 -80.386326   0.000033  -0.000196
1 65984U 25230L   26115.49333740  .00000204  00000-0  17294-3 0  9994 | 2 65984  81.2988 260.4722 0001909  14.4922 345.6289 13.83880740 26528 | 2026/04/25-11:50:24  311.4967    0.1157  345.6235  104.0552     7328.2914     7326.8924     7329.6904 -13.457076 -80.177316   0.000017  -0.000190
1 65984U 25230L   26116.50553602  .00000215  00000-0  18362-3 0  9997 | 2 65984  81.2989 259.5350 0001823  12.1043 348.0157 13.83881360 26664 | 2026/04/26-12:07:58  316.8507    0.1157  348.0114  104.0552     7328.2892     7326.9533     7329.6252 -14.766714 -79.946578   0.000005  -0.000182
1 65984U 25230L   26117.80693469  .00000176  00000-0  14782-3 0  9995 | 2 65984  81.2990 258.3299 0001751   9.1535 350.9653 13.83881090 26840 | 2026/04/27-19:21:59   68.1410    0.1156  350.9621  104.0552     7328.2902     7327.0070     7329.5734 -16.444857 -79.618428  -0.000008  -0.000175
1 65984U 25230L   26118.81913334  .00000141  00000-0  11682-3 0  9991 | 2 65984  81.2992 257.3926 0001699   6.2196 353.8981 13.83881164 26983 | 2026/04/28-19:39:33   74.4807    0.1156  353.8960  104.0552     7328.2899     7327.0448     7329.5350 -17.745118 -79.338961  -0.000019  -0.000169
1 65984U 25230L   26119.90363138  .00000197  00000-0  16674-3 0  9990 | 2 65984  81.2992 256.3884 0001643   2.2840 357.8323 13.83881634 27130 | 2026/04/29-21:41:13  107.0552    0.1156  357.8316  104.0551     7328.2883     7327.0842     7329.4923 -19.132863 -79.015780  -0.000032  -0.000161
1 65984U 25230L   26121.34962929  .00000162  00000-0  13511-3 0  9993 | 2 65984  81.2996 255.0494 0001542 357.7233   2.3916 13.83881506 27339 | 2026/05/01-08:23:27  270.8188    0.1156    2.3923  104.0552     7328.2887     7327.1587     7329.4187 -20.974170 -78.547496  -0.000046  -0.000147
1 65984U 25230L   26122.36182727  .00000204  00000-0  17320-3 0  9995 | 2 65984  81.2999 254.1122 0001495 355.2493   4.8649 13.83882097 27479 | 2026/05/02-08:41:01  277.1580    0.1157    4.8664  104.0551     7328.2866     7327.1910     7329.3822 -22.256208 -78.194213  -0.000053  -0.000140
1 65984U 25230L   26123.44632553  .00000226  00000-0  19345-3 0  9995 | 2 65984  81.2998 253.1082 0001444 352.0090   8.1044 13.83882038 27622 | 2026/05/03-10:42:42  309.7359    0.1157    8.1067  104.0551     7328.2868     7327.2286     7329.3450 -23.622897 -77.792135  -0.000061  -0.000131
1 65984U 25230L   26124.45852363  .00000227  00000-0  19440-3 0  9997 | 2 65984  81.2999 252.1710 0001394 348.2373  11.8751 13.83882317 27766 | 2026/05/04-11:00:16  316.0755    0.1157   11.8784  104.0551     7328.2859     7327.2643     7329.3074 -24.892174 -77.395435  -0.000069  -0.000121
1 65984U 25230L   26125.75992138  .00000226  00000-0  19335-3 0  9998 | 2 65984  81.3002 250.9661 0001332 342.8098  17.3013 13.83882375 27945 | 2026/05/05-18:14:17   66.3800    0.1156   17.3058  104.0551     7328.2856     7327.3095     7329.2618 -26.514233 -76.855175  -0.000079  -0.000107
1 65984U 25230L   26126.84441942  .00000208  00000-0  17730-3 0  9998 | 2 65984  81.3002 249.9621 0001284 339.1973  20.9131 13.83882256 28092 | 2026/05/06-20:15:57   98.9535    0.1157   20.9184  104.0551     7328.2861     7327.3451     7329.2270 -27.856835 -76.378788  -0.000084  -0.000097
1 65984U 25230L   26127.85661777  .00000130  00000-0  10652-3 0  9990 | 2 65984  81.3002 249.0250 0001230 335.5200  24.5898 13.83882003 28231 | 2026/05/07-20:33:31  105.2926    0.1157   24.5957  104.0551     7328.2870     7327.3856     7329.1883 -29.102265 -75.912981  -0.000088  -0.000086
