# SPACE DATA - HISTORICAL TLEs
# ----------------------------
# NORAD_ID    : 57758
# OBJECT_NAME : WILDFIRE 3
# --------------------------------------------------------------------+-----------------------------------------------------------------------+----------------------------------------------------------------------------------------------------------------------------------------
#                  LINE 1                                             |                 LINE 2                                                |      DERIVED PARAMETERS
# --------------------------------------------------------------------+-----------------------------------------------------------------------+----------------------------------------------------------------------------------------------------------------------------------------
# NORAD  COSPAR     TLE_EPOCH      MEANMOT1 MEANMOT2   BSTAR  #  REV  |   NORAD    INC     RAAN     ECC    ARGPER  MEANANOM   MEANMOT     REV |  CAL_DATE              LONG     ARGLAT     PERIOD        SMA         PERIGEE        APOGEE      INC_X      INC_Y      ECC_X      ECC_Y
# ------ ------   -------------- ----------  -------  ------- -- ----     -----  ------- -------- ------- -------- -------- -----------  ----   ------------------- ---------  --------  --------  ------------  ------------   ----------- ---------- ----------  ---------  ---------   
1 65982U 25230J   25300.85405429  .00000242  00000-0  20349-3 0  9998 | 2 65982  81.3015  67.1620 0004398  91.4623 268.7038 13.84952997  1654 | 2025/10/27-20:29:50  276.5817    0.1157  268.6534  103.9746     7324.5085     7321.2871     7327.7298  31.555299  74.927945  -0.000410   0.000160
1 65982U 25230J   25302.29893375  .00000115  00000-0  91158-4 0  9995 | 2 65982  81.3017  65.8221 0004370  88.3056 271.8602 13.84953094  1856 | 2025/10/29-07:10:27   79.5026    0.1157  271.8101  103.9746     7324.5081     7321.3073     7327.7089  33.298833  74.169766  -0.000393   0.000191
1 65982U 25230J   25303.31034980  .00000252  00000-0  21283-3 0  9991 | 2 65982  81.3018  64.8842 0004388  86.4678 273.6981 13.84953781  1991 | 2025/10/30-07:26:54   85.5471    0.1157  273.6479  103.9746     7324.5057     7321.2917     7327.7197  34.508478  73.614860  -0.000385   0.000210
1 65982U 25230J   25304.32176543  .00000247  00000-0  20811-3 0  9995 | 2 65982  81.3020  63.9464 0004373  84.1459 276.0196 13.84953815  2130 | 2025/10/31-07:43:20   91.5918    0.1157  275.9698  103.9746     7324.5056     7321.3026     7327.7086  35.708796  73.040380  -0.000371   0.000231
1 65982U 25230J   25305.54991269  .00000265  00000-0  22394-3 0  9998 | 2 65982  81.3023  62.8076 0004346  81.6454 278.5196 13.84953928  2308 | 2025/11/01-13:11:52  176.0747    0.1157  278.4703  103.9746     7324.5052     7321.3219     7327.6884  37.153521  72.316526  -0.000354   0.000253
1 65982U 25230J   25307.78947472  .00000237  00000-0  19896-3 0  9995 | 2 65982  81.3026  60.7308 0004318  77.0450 283.1189 13.84954487  2619 | 2025/11/03-18:56:50  266.6023    0.1157  283.0707  103.9745     7324.5032     7321.3405     7327.6659  39.749946  70.922878  -0.000320   0.000290
1 65982U 25230J   25308.80088993  .00000194  00000-0  16142-3 0  9996 | 2 65982  81.3028  59.7929 0004303  74.9187 285.2446 13.84954450  2759 | 2025/11/04-19:13:16  272.6472    0.1157  285.1970  103.9745     7324.5033     7321.3516     7327.6551  40.905637  70.262893  -0.000303   0.000306
1 65982U 25230J   25309.95679221  .00000242  00000-0  20398-3 0  9995 | 2 65982  81.3029  58.7211 0004284  72.3386 287.8239 13.84955357  2917 | 2025/11/05-22:57:46  330.9839    0.1158  287.7772  103.9745     7324.5001     7321.3623     7327.6380  42.212824  69.485531  -0.000281   0.000323
1 65982U 25230J   25311.11269495  .00000309  00000-0  26312-3 0  9990 | 2 65982  81.3030  57.6493 0004265  70.0051 290.1565 13.84955073  3074 | 2025/11/07-02:42:16   29.3209    0.1157  290.1106  103.9745     7324.5011     7321.3772     7327.6250  43.505243  68.683853  -0.000261   0.000338
1 65982U 25230J   25312.12410928  .00000307  00000-0  26145-3 0  9993 | 2 65982  81.3032  56.7115 0004237  67.9706 292.1901 13.84955715  3213 | 2025/11/08-02:58:43   35.3657    0.1157  292.1451  103.9744     7324.4989     7321.3955     7327.6023  44.623672  67.962771  -0.000241   0.000348
1 65982U 25230J   25314.94162051  .00000303  00000-0  25821-3 0  9992 | 2 65982  81.3034  54.0990 0004164  61.7649 298.3928 13.84956099  3600 | 2025/11/10-22:35:56  335.0623    0.1157  298.3508  103.9744     7324.4975     7321.4476     7327.5474  47.675216  65.858307  -0.000182   0.000375
1 65982U 25230J   25316.31425277  .00000454  00000-0  39162-3 0  9997 | 2 65982  81.3035  52.8263 0004111  58.9497 301.2064 13.84957410  3794 | 2025/11/12-07:32:31  111.8371    0.1158  301.1661  103.9743     7324.4929     7321.4818     7327.5040  49.126292  64.783227  -0.000153   0.000382
1 65982U 25230J   25317.54239761  .00000417  00000-0  35887-3 0  9993 | 2 65982  81.3037  51.6877 0004071  56.1058 304.0485 13.84957482  3968 | 2025/11/13-13:01:03  196.3202    0.1156  304.0098  103.9743     7324.4926     7321.5108     7327.4744  50.404025  63.794404  -0.000124   0.000388
1 65982U 25230J   25318.55381102  .00000305  00000-0  25980-3 0  9991 | 2 65982  81.3038  50.7500 0004042  53.9868 306.1663 13.84957237  4100 | 2025/11/14-13:17:29  202.3648    0.1157  306.1289  103.9743     7324.4935     7321.5330     7327.4541  51.441347  62.961065  -0.000103   0.000391
1 65982U 25230J   25320.28766152  .00000414  00000-0  35571-3 0  9994 | 2 65982  81.3040  49.1424 0003997  50.5813 309.5697 13.84957750  4341 | 2025/11/16-06:54:13  109.8697    0.1157  309.5344  103.9743     7324.4917     7321.5641     7327.4193  53.187555  61.493287  -0.000068   0.000394
1 65982U 25230J   25321.29907405  .00000332  00000-0  28324-3 0  9991 | 2 65982  81.3042  48.2049 0003945  47.5700 312.5790 13.84958200  4484 | 2025/11/17-07:10:39  115.9146    0.1157  312.5457  103.9743     7324.4901     7321.6006     7327.3796  54.186706  60.614964  -0.000040   0.000392
1 65982U 25230J   25322.38273021  .00000306  00000-0  26042-3 0  9998 | 2 65982  81.3041  47.2000 0003903  45.3681 314.7794 13.84958100  4631 | 2025/11/18-09:11:07  148.1053    0.1157  314.7476  103.9743     7324.4905     7321.6317     7327.3492  55.241364  59.655246  -0.000017   0.000390
1 65982U 25230J   25324.26106749  .00000256  00000-0  21584-3 0  9999 | 2 65982  81.3040  45.4584 0003824  40.9410 319.2033 13.84958407  4894 | 2025/11/20-06:15:56  107.9029    0.1157  319.1747  103.9742     7324.4894     7321.6885     7327.2903  57.028816  57.948724   0.000024   0.000382
1 65982U 25230J   25325.27247963  .00000279  00000-0  23688-3 0  9997 | 2 65982  81.3039  44.5206 0003759  38.4964 321.6461 13.84958592  5030 | 2025/11/21-06:32:22  113.9478    0.1158  321.6194  103.9742     7324.4887     7321.7355     7327.2420  57.969551  57.007503   0.000046   0.000373
1 65982U 25230J   25326.71735451  .00000253  00000-0  21335-3 0  9990 | 2 65982  81.3038  43.1808 0003698  35.3831 324.7571 13.84958107  5233 | 2025/11/22-17:12:59  276.8690    0.1157  324.7326  103.9743     7324.4904     7321.7818     7327.1990  59.286567  55.636417   0.000073   0.000362
1 65982U 25230J   25327.72876587  .00000289  00000-0  24535-3 0  9992 | 2 65982  81.3039  42.2432 0003638  33.6425 326.4962 13.84958938  5371 | 2025/11/23-17:29:25  282.9130    0.1157  326.4732  103.9742     7324.4875     7321.8229     7327.1522  60.189108  54.658901   0.000089   0.000353
1 65982U 25230J   25328.95690954  .00000224  00000-0  18797-3 0  9992 | 2 65982  81.3038  41.1042 0003603  30.0771 330.0592 13.84958392  5545 | 2025/11/24-22:57:56    7.3967    0.1157  330.0386  103.9742     7324.4894     7321.8504     7327.1285  61.263649  53.451597   0.000116   0.000341
1 65982U 25230J   25330.18505183  .00000255  00000-0  21535-3 0  9997 | 2 65982  81.3038  39.9657 0003556  26.1102 334.0234 13.84958593  5712 | 2025/11/26-04:26:28   91.8796    0.1157  334.0055  103.9742     7324.4887     7321.8841     7327.0933  62.313599  52.223781   0.000144   0.000325
1 65982U 25230J   25331.19646253  .00000309  00000-0  26298-3 0  9994 | 2 65982  81.3038  39.0279 0003517  23.7274 336.4044 13.84959421  5854 | 2025/11/27-04:42:54   97.9240    0.1157  336.3883  103.9742     7324.4858     7321.9098     7327.0618  63.159997  51.196901   0.000161   0.000313
1 65982U 25230J   25332.56909181  .00000201  00000-0  16779-3 0  9992 | 2 65982  81.3037  37.7552 0003431  20.0847 340.0444 13.84960045  6044 | 2025/11/28-13:39:29  234.6988    0.1157  340.0310  103.9741     7324.4836     7321.9706     7326.9966  64.281470  49.781364   0.000183   0.000290
1 65982U 25230J   25333.65274715  .00000198  00000-0  16450-3 0  9992 | 2 65982  81.3039  36.7505 0003380  17.5934 342.5339 13.84959339  6194 | 2025/11/29-15:39:57  266.8894    0.1157  342.5223  103.9742     7324.4861     7322.0104     7326.9618  65.144635  48.646692   0.000197   0.000275
1 65982U 25230J   25334.66415786  .00000198  00000-0  16441-3 0  9999 | 2 65982  81.3036  35.8123 0003338  14.4056 345.7195 13.84959664  6333 | 2025/11/30-15:56:23  272.9345    0.1157  345.7101  103.9741     7324.4850     7322.0400     7326.9299  65.932197  47.573320   0.000214   0.000257
1 65982U 25230J   25335.67556887  .00000187  00000-0  15499-3 0  9999 | 2 65982  81.3035  34.8744 0003296  11.5095 348.6137 13.84959575  6478 | 2025/12/01-16:12:49  278.9792    0.1157  348.6062  103.9742     7324.4853     7322.0711     7326.8994  66.701996  46.487664   0.000227   0.000239
1 65982U 25230J   25336.68697919  .00000242  00000-0  20391-3 0  9992 | 2 65982  81.3031  33.9365 0003259   8.3919 351.7292 13.84960132  6615 | 2025/12/02-16:29:15  285.0238    0.1157  351.7238  103.9741     7324.4833     7322.0963     7326.8704  67.453670  45.389387   0.000241   0.000219
1 65982U 25230J   25338.27633729  .00000384  00000-0  32941-3 0  9999 | 2 65982  81.3031  32.4626 0003179   3.8291 356.2890 13.84961719  6833 | 2025/12/04-06:37:55  140.2361    0.1157  356.2866  103.9740     7324.4777     7322.1493     7326.8062  68.598839  43.639355   0.000256   0.000188
1 65982U 25230J   25339.28774730  .00000366  00000-0  31355-3 0  9997 | 2 65982  81.3032  31.5246 0003120   0.8708 359.2454 13.84961840  6977 | 2025/12/05-06:54:21  146.2805    0.1157  359.2449  103.9740     7324.4773     7322.1920     7326.7625  69.304128  42.510565   0.000263   0.000167
1 65982U 25230J   25340.58813192  .00000318  00000-0  27074-3 0  9998 | 2 65982  81.3030  30.3188 0003075 357.6659   2.4483 13.84961488  7152 | 2025/12/06-14:06:54  256.9085    0.1157    2.4498  103.9740     7324.4785     7322.2262     7326.7308  70.183185  41.042640   0.000272   0.000144
1 65982U 25230J   25341.88851587  .00000243  00000-0  20431-3 0  9999 | 2 65982  81.3026  29.1127 0003021 354.1852   5.9270 13.84961474  7331 | 2025/12/07-21:19:27    7.5366    0.1158    5.9306  103.9740     7324.4786     7322.2658     7326.6913  71.031187  39.556076   0.000277   0.000119
1 65982U 25230J   25343.18889865  .00000249  00000-0  20963-3 0  9990 | 2 65982  81.3026  27.9066 0002956 349.6618  10.4478 13.84962084  7513 | 2025/12/09-04:32:00  118.1648    0.1157   10.4539  103.9740     7324.4764     7322.3113     7326.6415  71.848061  38.052187   0.000282   0.000089
1 65982U 25230J   25344.20030731  .00000303  00000-0  25754-3 0  9998 | 2 65982  81.3028  26.9687 0002918 346.6089  13.4990 13.84962645  7650 | 2025/12/10-04:48:26  124.2084    0.1157   13.5068  103.9739     7324.4744     7322.3372     7326.6117  72.461478  36.871119   0.000284   0.000069
1 65982U 25230J   25345.21171600  .00000323  00000-0  27577-3 0  9998 | 2 65982  81.3027  26.0306 0002867 343.6266  16.4798 13.84962838  7793 | 2025/12/11-05:04:52  130.2520    0.1157   16.4891  103.9739     7324.4738     7322.3738     7326.5737  73.055338  35.679780   0.000283   0.000048
1 65982U 25230J   25346.22312479  .00000339  00000-0  28983-3 0  9990 | 2 65982  81.3025  25.0925 0002811 340.1261  19.9786 13.84963054  7935 | 2025/12/12-05:21:17  136.2959    0.1157   19.9896  103.9739     7324.4730     7322.4141     7326.5319  73.629521  34.478836   0.000280   0.000026
1 65982U 25230J   25347.23453331  .00000356  00000-0  30498-3 0  9998 | 2 65982  81.3026  24.1546 0002757 337.5391  22.5645 13.84963293  8073 | 2025/12/13-05:37:43  142.3388    0.1157   22.5766  103.9739     7324.4722     7322.4528     7326.4915  74.184122  33.269037   0.000276   0.000008
1 65982U 25230J   25348.24594215  .00000251  00000-0  21151-3 0  9997 | 2 65982  81.3026  23.2166 0002739 334.0323  26.0697 13.84963458  8213 | 2025/12/14-05:54:09  148.3825    0.1158   26.0835  103.9739     7324.4716     7322.4654     7326.4778  74.718810  32.050151   0.000274  -0.000013
1 65982U 25230J   25349.32959434  .00000210  00000-0  17566-3 0  9995 | 2 65982  81.3024  22.2115 0002728 330.3385  29.7617 13.84963283  8363 | 2025/12/15-07:54:36  180.5723    0.1157   29.7772  103.9739     7324.4722     7322.4741     7326.4703  75.269333  30.734471   0.000270  -0.000035
1 65982U 25230J   25350.62997719  .00000126  00000-0  10074-3 0  9991 | 2 65982  81.3021  21.0054 0002672 325.8794  34.2191 13.84962832  8547 | 2025/12/16-15:07:10  291.1996    0.1157   34.2363  103.9739     7324.4738     7322.5167     7326.4309  75.899303  29.143220   0.000260  -0.000061
1 65982U 25230J   25352.21933193  .00000195  00000-0  16243-3 0  9994 | 2 65982  81.3021  19.5314 0002627 320.4614  39.6351 13.84964223  8767 | 2025/12/18-05:15:50  146.4099    0.1157   39.6543  103.9738     7324.4689     7322.5447     7326.3930  76.623848  27.181195   0.000247  -0.000090
1 65982U 25230J   25353.80868818  .00000204  00000-0  17007-3 0  9991 | 2 65982  81.3020  18.0569 0002610 315.2996  44.7950 13.84963417  8989 | 2025/12/19-19:24:30    1.6211    0.1157   44.8161  103.9739     7324.4717     7322.5600     7326.3834  77.297809  25.200476   0.000233  -0.000117
1 65982U 25230J   25354.82009586  .00000157  00000-0  12872-3 0  9995 | 2 65982  81.3019  17.1189 0002553 311.4402  48.6536 13.84964002  9122 | 2025/12/20-19:40:56    7.6635    0.1158   48.6756  103.9738     7324.4697     7322.5997     7326.3396  77.699898  23.931669   0.000218  -0.000133
1 65982U 25230J   25356.12047730  .00000146  00000-0  11874-3 0  9992 | 2 65982  81.3020  15.9130 0002534 307.2304  52.8622 13.84964528  9305 | 2025/12/22-02:53:29  118.2897    0.1158   52.8854  103.9738     7324.4678     7322.6118     7326.3238  78.186436  22.291173   0.000203  -0.000152
1 65982U 25230J   25357.20412816  .00000208  00000-0  17374-3 0  9993 | 2 65982  81.3019  14.9079 0002496 303.3637  56.7281 13.84964800  9450 | 2025/12/23-04:53:56  150.4780    0.1157   56.7520  103.9738     7324.4668     7322.6387     7326.2950  78.565328  20.916218   0.000186  -0.000166
1 65982U 25230J   25358.79348368  .00000159  00000-0  13029-3 0  9996 | 2 65982  81.3016  13.4334 0002486 297.5570  62.5334 13.84964256  9677 | 2025/12/24-19:02:36    5.6884    0.1157   62.5587  103.9738     7324.4688     7322.6479     7326.2896  79.077238  18.887576   0.000163  -0.000188
1 65982U 25230J   25360.09386463  .00000164  00000-0  13444-3 0  9997 | 2 65982  81.3016  12.2272 0002455 292.5787  67.5110 13.84964750  9852 | 2025/12/26-02:15:09  116.3142    0.1157   67.5370  103.9738     7324.4670     7322.6689     7326.2652  79.457311  17.218767   0.000140  -0.000202
1 65982U 25230J   25361.17751546  .00000198  00000-0  16441-3 0  9992 | 2 65982  81.3018  11.2220 0002434 288.6183  71.4710 13.84965127 10007 | 2025/12/27-04:15:37  148.5022    0.1157   71.4974  103.9737     7324.4657     7322.6829     7326.2485  79.747350  15.822224   0.000121  -0.000211
1 65982U 25230J   25362.26116607  .00000253  00000-0  21389-3 0  9995 | 2 65982  81.3015  10.2166 0002422 285.0139  75.0749 13.84965556 10155 | 2025/12/28-06:16:04  180.6904    0.1156   75.1017  103.9737     7324.4642     7322.6902     7326.2382  80.012405  14.420437   0.000103  -0.000219
1 65982U 25230J   25363.77827711  .00000313  00000-0  26645-3 0  9994 | 2 65982  81.3015   8.8094 0002440 279.1335  80.9546 13.84965445 10360 | 2025/12/29-18:40:43    9.7536    0.1157   80.9822  103.9737     7324.4646     7322.6774     7326.2517  80.342408  12.451159   0.000075  -0.000232
1 65982U 25230J   25364.93417038  .00000373  00000-0  32004-3 0  9992 | 2 65982  81.3017   7.7374 0002445 275.3931  84.6947 13.84966467 10525 | 2025/12/30-22:25:12   68.0868    0.1157   84.7226  103.9736     7324.4610     7322.6701     7326.2518  80.561491  10.945894   0.000056  -0.000238
1 65982U 25230J   26001.09006440  .00000314  00000-0  26748-3 0  9992 | 2 65982  81.3017   6.6652 0002457 270.7357  89.3518 13.84966112 10686 | 2026/01/01-02:09:41  126.4204    0.1157   89.3800  103.9737     7324.4622     7322.6626     7326.2618  80.752209   9.436484   0.000032  -0.000244
1 65982U 25230J   26002.10147127  .00000306  00000-0  26078-3 0  9990 | 2 65982  81.3015   5.7268 0002478 268.7535  91.3338 13.84966185 10824 | 2026/01/02-02:26:07  132.4624    0.1157   91.3622  103.9737     7324.4620     7322.6470     7326.2770  80.895725   8.112684   0.000019  -0.000247
1 65982U 25230J   26003.11287743  .00000381  00000-0  32679-3 0  9998 | 2 65982  81.3016   4.7884 0002468 264.1311  95.9564 13.84966812 10962 | 2026/01/03-02:42:32  138.5037    0.1156   95.9845  103.9736     7324.4598     7322.6521     7326.2674  81.017840   6.786740  -0.000005  -0.000247
1 65982U 25230J   26004.12428421  .00000295  00000-0  25028-3 0  9994 | 2 65982  81.3017   3.8503 0002482 260.1570  99.9306 13.84966438 11109 | 2026/01/04-02:58:58  144.5450    0.1156   99.9586  103.9736     7324.4611     7322.6431     7326.2790  81.118194   5.459397  -0.000026  -0.000247
1 65982U 25230J   26005.13569042  .00000236  00000-0  19882-3 0  9997 | 2 65982  81.3019   2.9123 0002479 256.2830 103.8051 13.84966734 11246 | 2026/01/05-03:15:23  150.5856    0.1157  103.8327  103.9736     7324.4600     7322.6443     7326.2758  81.196896   4.130733  -0.000046  -0.000244
1 65982U 25230J   26006.21934051  .00000161  00000-0  13227-3 0  9997 | 2 65982  81.3018   1.9072 0002478 252.0020 108.0867 13.84966432 11394 | 2026/01/06-05:15:51  182.7723    0.1157  108.1137  103.9736     7324.4611     7322.6461     7326.2761  81.256762   2.705787  -0.000069  -0.000238
1 65982U 25230J   26007.30298983  .00000214  00000-0  17877-3 0  9999 | 2 65982  81.3020   0.9020 0002477 247.9197 112.1697 13.84966618 11546 | 2026/01/07-07:16:18  214.9586    0.1157  112.1960  103.9736     7324.4604     7322.6462     7326.2747  81.291925   1.279874  -0.000089  -0.000231
1 65982U 25230J   26008.31439575  .00000246  00000-0  20723-3 0  9994 | 2 65982  81.3021 359.9642 0002479 245.0463 115.0437 13.84967148 11689 | 2026/01/08-07:32:43  220.9988    0.1157  115.0694  103.9736     7324.4586     7322.6428     7326.2743  81.302084  -0.050800  -0.000105  -0.000225
1 65982U 25230J   26009.47028849  .00000207  00000-0  17301-3 0  9995 | 2 65982  81.3023 358.8919 0002496 240.1921 119.8988 13.84967169 11844 | 2026/01/09-11:17:12  279.3309    0.1157  119.9236  103.9736     7324.4585     7322.6303     7326.2867  81.287096  -1.572288  -0.000128  -0.000214
1 65982U 25230J   26010.98739752  .00000218  00000-0  18229-3 0  9997 | 2 65982  81.3023 357.4846 0002517 234.3507 125.7416 13.84967337 12050 | 2026/01/10-23:41:51  108.3914    0.1157  125.7650  103.9736     7324.4579     7322.6143     7326.3015  81.223962  -3.568188  -0.000156  -0.000198
1 65982U 25230J   26012.28777660  .00000206  00000-0  17148-3 0  9998 | 2 65982  81.3025 356.2788 0002540 230.1170 129.9764 13.84967330 12235 | 2026/01/12-06:54:23  219.0143    0.1157  129.9987  103.9736     7324.4579     7322.5975     7326.3183  81.131088  -5.276658  -0.000175  -0.000184
1 65982U 25230J   26013.44366847  .00000261  00000-0  22027-3 0  9991 | 2 65982  81.3026 355.2068 0002563 226.0290 134.0656 13.84967886 12398 | 2026/01/13-10:38:52  277.3455    0.1157  134.0867  103.9735     7324.4560     7322.5787     7326.3332  81.018267  -6.793611  -0.000193  -0.000169
1 65982U 25230J   26014.45507468  .00000159  00000-0  12995-3 0  9998 | 2 65982  81.3027 354.2686 0002581 222.3348 137.7610 13.84967506 12532 | 2026/01/14-10:55:18  283.3856    0.1157  137.7809  103.9736     7324.4573     7322.5669     7326.3477  80.896267  -8.119299  -0.000207  -0.000154
1 65982U 25230J   26015.82769608  .00000197  00000-0  16398-3 0  9999 | 2 65982  81.3026 352.9956 0002660 217.4082 142.6891 13.84968058 12724 | 2026/01/15-19:51:52   60.1537    0.1158  142.7076  103.9735     7324.4554     7322.5071     7326.4037  80.695822  -9.914492  -0.000229  -0.000135
1 65982U 25230J   26016.98358824  .00000151  00000-0  12342-3 0  9996 | 2 65982  81.3030 351.9239 0002658 213.4740 146.6249 13.84968534 12883 | 2026/01/16-23:36:22  118.4843    0.1157  146.6417  103.9735     7324.4537     7322.5068     7326.4005  80.496665 -11.422116  -0.000240  -0.000114
1 65982U 25230J   26017.99499406  .00000151  00000-0  12279-3 0  9999 | 2 65982  81.3032 350.9858 0002695 209.8191 150.2813 13.84968172 13024 | 2026/01/17-23:52:47  124.5239    0.1157  150.2966  103.9735     7324.4550     7322.4810     7326.4289  80.299068 -12.738524  -0.000252  -0.000096
1 65982U 25230J   26019.29537230  .00000231  00000-0  19393-3 0  9995 | 2 65982  81.3034 349.7799 0002750 205.4842 154.6180 13.84968468 13206 | 2026/01/19-07:05:20  235.1459    0.1157  154.6315  103.9735     7324.4539     7322.4397     7326.4681  80.013393 -14.425662  -0.000265  -0.000072
1 65982U 25230J   26020.30677737  .00000299  00000-0  25437-3 0  9996 | 2 65982  81.3035 348.8421 0002791 202.3408 157.7628 13.84968917 13343 | 2026/01/20-07:21:45  241.1850    0.1157  157.7749  103.9735     7324.4523     7322.4081     7326.4966  79.766670 -15.733326  -0.000274  -0.000054
1 65982U 25230J   26021.46266867  .00000300  00000-0  25516-3 0  9993 | 2 65982  81.3036 347.7700 0002832 198.8484 161.2568 13.84969295 13502 | 2026/01/21-11:06:14  299.5157    0.1156  161.2672  103.9734     7324.4510     7322.3767     7326.5253  79.458424 -17.223073  -0.000281  -0.000033
1 65982U 25230J   26022.47407347  .00000326  00000-0  27778-3 0  9995 | 2 65982  81.3038 346.8321 0002855 195.5149 164.5921 13.84969588 13649 | 2026/01/22-11:22:39  305.5544    0.1157  164.6008  103.9734     7324.4500     7322.3588     7326.5411  79.166053 -18.521444  -0.000285  -0.000012
1 65982U 25230J   26023.62996403  .00000400  00000-0  34370-3 0  9998 | 2 65982  81.3039 345.7602 0002907 191.8876 168.2213 13.84970325 13808 | 2026/01/23-15:07:08    3.8843    0.1157  168.2281  103.9733     7324.4474     7322.3182     7326.5766  78.805815 -19.999194  -0.000290   0.000012
1 65982U 25230J   26024.85809848  .00000291  00000-0  24700-3 0  9994 | 2 65982  81.3040 344.6215 0002962 188.4142 171.6966 13.84970003 13971 | 2026/01/24-20:35:39   88.3600    0.1157  171.7015  103.9734     7324.4485     7322.2790     7326.6180  78.392909 -21.561359  -0.000294   0.000036
1 65982U 25230J   26025.86950256  .00000267  00000-0  22608-3 0  9994 | 2 65982  81.3041 343.6835 0003025 185.4862 174.6262 13.84970214 14119 | 2026/01/25-20:52:05   94.3987    0.1156  174.6294  103.9734     7324.4478     7322.2321     7326.6634  78.029531 -22.841826  -0.000297   0.000057
1 65982U 25230J   26027.31436500  .00000316  00000-0  26943-3 0  9998 | 2 65982  81.3043 342.3439 0003084 180.8948 179.2204 13.84970776 14318 | 2026/01/27-07:32:41  257.3102    0.1157  179.2209  103.9733     7324.4458     7322.1869     7326.7046  77.474392 -24.659842  -0.000295   0.000089
1 65982U 25230J   26028.90371298  .00000297  00000-0  25287-3 0  9994 | 2 65982  81.3044 340.8702 0003153 176.6786 183.4393 13.84971499 14538 | 2026/01/28-21:41:20  112.5130    0.1157  183.4371  103.9733     7324.4432     7322.1338     7326.7526  76.814657 -26.644210  -0.000291   0.000120
1 65982U 25230J   26030.13184580  .00000272  00000-0  23051-3 0  9998 | 2 65982  81.3045 339.7316 0003193 173.4238 186.6961 13.84971329 14705 | 2026/01/30-03:09:51  196.9879    0.1156  186.6918  103.9733     7324.4438     7322.1051     7326.7825  76.270136 -28.165369  -0.000285   0.000144
1 65982U 25230J   26031.28773458  .00000269  00000-0  22785-3 0  9992 | 2 65982  81.3045 338.6599 0003258 169.8699 190.2524 13.84971954 14865 | 2026/01/31-06:54:20  255.3164    0.1157  190.2458  103.9732     7324.4416     7322.0553     7326.8279  75.730001 -29.586969  -0.000278   0.000170
1 65982U 25230J   26032.37138096  .00000350  00000-0  29933-3 0  9999 | 2 65982  81.3046 337.6551 0003319 166.2251 193.8998 13.84971492 15015 | 2026/02/01-08:54:47  287.4994    0.1158  193.8907  103.9733     7324.4433     7322.0123     7326.8742  75.199606 -30.910471  -0.000268   0.000196
1 65982U 25230J   26033.52726972  .00000270  00000-0  22856-3 0  9991 | 2 65982  81.3048 336.5833 0003383 163.0632 197.0639 13.84972230 15173 | 2026/02/02-12:39:16  345.8283    0.1157  197.0525  103.9732     7324.4407     7321.9628     7326.9185  74.608442 -32.311777  -0.000258   0.000219
1 65982U 25230J   26035.11661655  .00000298  00000-0  25364-3 0  9991 | 2 65982  81.3050 335.1100 0003481 158.5150 201.6154 13.84972728 15391 | 2026/02/04-02:47:55  201.0297    0.1157  201.6007  103.9732     7324.4389     7321.8893     7326.9885  73.753187 -34.219445  -0.000240   0.000252
1 65982U 25230J   26036.85044922  .00000353  00000-0  30170-3 0  9998 | 2 65982  81.3051 333.5021 0003477 154.5947 205.5381 13.84973129 15639 | 2026/02/05-20:24:38  108.5239    0.1156  205.5209  103.9731     7324.4375     7321.8908     7326.9842  72.764057 -36.275491  -0.000215   0.000274
1 65982U 25230J   26037.86185082  .00000346  00000-0  29543-3 0  9997 | 2 65982  81.3043 332.5630 0003656 152.1590 207.9763 13.84973604 15775 | 2026/02/06-20:41:03  114.5619    0.1157  207.9567  103.9731     7324.4358     7321.7580     7327.1136  72.159031 -37.462827  -0.000208   0.000300
1 65982U 25230J   26038.94549650  .00000214  00000-0  17885-3 0  9992 | 2 65982  81.3048 331.5600 0003669 149.8735 210.2633 13.84973057 15926 | 2026/02/07-22:41:30  146.7440    0.1156  210.2421  103.9731     7324.4377     7321.7504     7327.1251  71.492637 -38.720452  -0.000191   0.000313
1 65982U 25230J   26040.24587013  .00000251  00000-0  21126-3 0  9997 | 2 65982  81.3048 330.3543 0003684 145.7296 214.4099 13.84973287 16101 | 2026/02/09-05:54:03  257.3632    0.1157  214.3861  103.9731     7324.4369     7321.7386     7327.1352  70.662057 -40.216219  -0.000162   0.000331
1 65982U 25230J   26041.25727130  .00000307  00000-0  26146-3 0  9994 | 2 65982  81.3050 329.4167 0003713 142.8415 217.3000 13.84973686 16241 | 2026/02/10-06:10:28  263.4001    0.1157  217.2742  103.9731     7324.4355     7321.7160     7327.1551  69.994691 -41.367213  -0.000141   0.000344
1 65982U 25230J   26042.77437254  .00000252  00000-0  21215-3 0  9998 | 2 65982  81.3050 328.0100 0003854 139.7299 220.4144 13.84974752 16456 | 2026/02/11-18:35:05   92.4558    0.1157  220.3858  103.9730     7324.4318     7321.6089     7327.2546  68.958069 -43.073051  -0.000117   0.000367
1 65982U 25230J   26043.78577443  .00000168  00000-0  13853-3 0  9990 | 2 65982  81.3046 327.0735 0003824 137.1777 222.9678 13.84974128 16595 | 2026/02/12-18:51:30   98.4926    0.1156  222.9379  103.9731     7324.4340     7321.6331     7327.2348  68.244524 -44.194150  -0.000094   0.000371
1 65982U 25230J   26045.23063259  .00000302  00000-0  25645-3 0  9999 | 2 65982  81.3048 325.7330 0003903 133.4809 226.6673 13.84974645 16798 | 2026/02/14-05:32:06  261.4035    0.1157  226.6348  103.9730     7324.4321     7321.5734     7327.2909  67.192134 -45.778680  -0.000062   0.000385
1 65982U 25230J   26046.24203331  .00000294  00000-0  24955-3 0  9991 | 2 65982  81.3048 324.7952 0003957 131.5016 228.6481 13.84974986 16938 | 2026/02/15-05:48:31  267.4409    0.1157  228.6141  103.9730     7324.4309     7321.5327     7327.3292  66.433876 -46.872280  -0.000043   0.000393
1 65982U 25230J   26047.25343383  .00000215  00000-0  18018-3 0  9991 | 2 65982  81.3049 323.8574 0004003 129.4415 230.7097 13.84975433 17072 | 2026/02/16-06:04:56  273.4783    0.1157  230.6742  103.9730     7324.4294     7321.4974     7327.3613  65.657901 -47.953381  -0.000023   0.000400
1 65982U 25230J   26048.26483384  .00000400  00000-0  34363-3 0  9996 | 2 65982  81.3046 322.9203 0004044 127.2707 232.8819 13.84975602 17212 | 2026/02/17-06:21:21  279.5149    0.1157  232.8450  103.9730     7324.4288     7321.4668     7327.3908  64.864614 -49.020606  -0.000001   0.000404
1 65982U 25230J   26049.85417792  .00000203  00000-0  16875-3 0  9991 | 2 65982  81.3045 321.4476 0004081 123.4588 236.6959 13.84975364 17439 | 2026/02/18-20:30:00  134.7159    0.1156  236.6568  103.9730     7324.4296     7321.4405     7327.4187  63.583250 -50.671413   0.000036   0.000406
1 65982U 25230J   26050.86557765  .00000217  00000-0  18143-3 0  9994 | 2 65982  81.3044 320.5100 0004160 122.0313 238.1249 13.84975690 17577 | 2026/02/19-20:46:25  140.7528    0.1157  238.0844  103.9729     7324.4285     7321.3815     7327.4754  62.745499 -51.705008   0.000054   0.000412
1 65982U 25230J   26051.87697723  .00000240  00000-0  20212-3 0  9991 | 2 65982  81.3042 319.5724 0004165 119.6050 240.5522 13.84976218 17714 | 2026/02/20-21:02:50  146.7901    0.1156  240.5106  103.9729     7324.4266     7321.3760     7327.4772  61.890872 -52.724690   0.000078   0.000409
1 65982U 25230J   26053.10510557  .00000206  00000-0  17222-3 0  9997 | 2 65982  81.3041 318.4335 0004170 116.2940 243.8645 13.84976398 17885 | 2026/02/22-02:31:21  231.2644    0.1156  243.8216  103.9729     7324.4260     7321.3717     7327.4802  60.830602 -53.944366   0.000110   0.000402
1 65982U 25230J   26054.11650523  .00000211  00000-0  17630-3 0  9996 | 2 65982  81.3039 317.4959 0004230 114.5490 245.6109 13.84976410 18028 | 2026/02/23-02:47:46  237.3014    0.1158  245.5668  103.9729     7324.4259     7321.3277     7327.5241  59.939592 -54.932408   0.000130   0.000402
1 65982U 25230J   26055.20014733  .00000223  00000-0  18650-3 0  9990 | 2 65982  81.3035 316.4911 0004263 112.2654 247.8956 13.84976732 18171 | 2026/02/24-04:48:12  269.4843    0.1157  247.8503  103.9729     7324.4248     7321.3024     7327.5472  58.966781 -55.974796   0.000154   0.000397
1 65982U 25230J   26056.21154670  .00000196  00000-0  16276-3 0  9998 | 2 65982  81.3032 315.5536 0004271 109.8860 250.2757 13.84976751 18315 | 2026/02/25-05:04:37  275.5218    0.1156  250.2296  103.9729     7324.4247     7321.2964     7327.5530  58.042829 -56.931892   0.000178   0.000388
1 65982U 25230J   26057.22294561  .00000222  00000-0  18564-3 0  9996 | 2 65982  81.3035 314.6152 0004295 107.9531 252.2095 13.84977059 18456 | 2026/02/26-05:21:02  281.5598    0.1157  252.1626  103.9728     7324.4236     7321.2778     7327.5695  57.102856 -57.875063   0.000198   0.000381
1 65982U 25230J   26058.23434601  .00000240  00000-0  20195-3 0  9992 | 2 65982  81.3036 313.6777 0004465 102.3371 257.8286 13.84977119 18594 | 2026/02/27-05:37:27  287.5952    0.1157  257.7786  103.9728     7324.4234     7321.1531     7327.6938  56.148345 -58.801690   0.000250   0.000370
1 65982U 25230J   26059.39022892  .00000299  00000-0  25448-3 0  9995 | 2 65982  81.3031 312.6059 0004360 103.4231 256.7413 13.84977638 18756 | 2026/02/28-09:21:55  345.9255    0.1158  256.6927  103.9728     7324.4216     7321.2281     7327.6150  55.038277 -59.841308   0.000244   0.000362
1 65982U 25230J   26060.83508489  .00000179  00000-0  14749-3 0  9996 | 2 65982  81.3027 311.2662 0004379 100.2553 259.9098 13.84977436 18950 | 2026/03/01-20:02:31  148.8367    0.1157  259.8604  103.9728     7324.4223     7321.2149     7327.6297  53.623876 -61.111447   0.000272   0.000343
1 65982U 25230J   26062.13545416  .00000215  00000-0  17981-3 0  9994 | 2 65982  81.3025 310.0600 0004371  97.6220 262.5434 13.84977688 19133 | 2026/03/03-03:15:03  259.4573    0.1157  262.4937  103.9728     7324.4214     7321.2199     7327.6229  52.325432 -62.226567   0.000294   0.000323
1 65982U 25230J   26063.14685201  .00000298  00000-0  25288-3 0  9993 | 2 65982  81.3023 309.1225 0004380  95.6684 264.4973 13.84978355 19271 | 2026/03/04-03:31:28  265.4946    0.1157  264.4473  103.9727     7324.4191     7321.2110     7327.6272  51.300167 -63.074217   0.000311   0.000309
1 65982U 25230J   26064.15825024  .00000362  00000-0  30955-3 0  9993 | 2 65982  81.3023 308.1848 0004432  93.2563 266.9102 13.84978157 19416 | 2026/03/05-03:47:52  271.5317    0.1158  266.8595  103.9728     7324.4198     7321.1736     7327.6659  50.261073 -63.905309   0.000332   0.000293
1 65982U 25230J   26065.16964883  .00000248  00000-0  20936-3 0  9993 | 2 65982  81.3022 307.2466 0004432  91.0664 269.1001 13.84977712 19553 | 2026/03/06-04:04:17  277.5703    0.1157  269.0493  103.9728     7324.4213     7321.1751     7327.6675  49.207892 -64.719634   0.000348   0.000275
1 65982U 25230J   26066.18104609  .00000152  00000-0  12389-3 0  9995 | 2 65982  81.3020 306.3085 0004411  88.8463 271.3200 13.84978575 19695 | 2026/03/07-04:20:42  283.6085    0.1158  271.2695  103.9727     7324.4183     7321.1875     7327.6491  48.141576 -65.516440   0.000361   0.000254
1 65982U 25230J   26067.48141487  .00000202  00000-0  16801-3 0  9993 | 2 65982  81.3013 305.1029 0004473  85.8018 274.3650 13.84978425 19879 | 2026/03/08-11:33:14   34.2281    0.1157  274.3139  103.9727     7324.4188     7321.1426     7327.6950  46.752041 -66.514269   0.000384   0.000230
1 65982U 25230J   26068.49281242  .00000130  00000-0  10452-3 0  9995 | 2 65982  81.3012 304.1645 0004466  84.3104 275.8562 13.84978264 20010 | 2026/03/09-11:49:38   40.2667    0.1157  275.8053  103.9728     7324.4194     7321.1483     7327.6905  45.656381 -67.270944   0.000393   0.000213
1 65982U 25230J   26069.50420963  .00000131  00000-0  10515-3 0  9994 | 2 65982  81.3010 303.2265 0004459  82.1092 278.0571 13.84978402 20154 | 2026/03/10-12:06:03   46.3048    0.1157  278.0065  103.9727     7324.4189     7321.1529     7327.6848  44.548897 -68.009178   0.000403   0.000191
1 65982U 25230J   26070.51560705  .00000098  00000-0  76539-4 0  9997 | 2 65982  81.3008 302.2884 0004470  79.9252 280.2409 13.84978314 20294 | 2026/03/11-12:22:28   52.3431    0.1157  280.1905  103.9727     7324.4192     7321.1452     7327.6932  43.429360 -68.729257   0.000414   0.000169
1 65982U 25230J   26071.59924619  .00000156  00000-0  12785-3 0  9991 | 2 65982  81.3006 301.2833 0004468  77.9172 282.2486 13.84979193 20441 | 2026/03/12-14:22:54   84.5267    0.1158  282.1986  103.9727     7324.4161     7321.1436     7327.6887  42.216966 -69.480323   0.000422   0.000147
1 65982U 25230J   26072.61064293  .00000129  00000-0  10381-3 0  9998 | 2 65982  81.3005 300.3452 0004460  75.8163 284.3490 13.84979620 20584 | 2026/03/13-14:39:19   90.5650    0.1158  284.2995  103.9726     7324.4146     7321.1479     7327.6813  41.073711 -70.162109   0.000428   0.000124
1 65982U 25230J   26073.62203956  .00000199  00000-0  16588-3 0  9993 | 2 65982  81.3003 299.4071 0004472  73.4700 286.6948 13.84979857 20722 | 2026/03/14-14:55:44   96.6032    0.1157  286.6457  103.9726     7324.4138     7321.1383     7327.6892  39.919399 -70.824998   0.000436   0.000100
1 65982U 25230J   26074.85025849 -.00010536  00000-0 -93662-2 0  9997 | 2 65982  81.3001 298.2680 0003502  73.5112 286.6429 13.84892483 20895 | 2026/03/15-20:24:22  181.1224    0.1156  286.6044  103.9792     7324.7218     7322.1567     7327.2869  38.503433 -71.604412   0.000343   0.000071
1 65982U 25230J   26076.07875647 -.00028777  00000-0 -25714-1 0  9990 | 2 65982  81.3001 297.1293 0003142  75.7490 284.4016 13.84685924 21064 | 2026/03/17-01:53:24  265.7348    0.1157  284.3667  103.9947     7325.4502     7323.1486     7327.7519  37.072853 -72.355441   0.000306   0.000070
1 65982U 25230J   26077.09042699 -.00015069  00000-0 -13468-1 0  9999 | 2 65982  81.3011 296.1897 0003179  82.6778 277.4740 13.84595741 21209 | 2026/03/18-02:10:12  271.8717    0.1157  277.4379  104.0015     7325.7683     7323.4395     7328.0972  35.881797 -72.954544   0.000301   0.000103
1 65982U 25230J   26078.10217021  .00000227  00000-0  19232-3 0  9990 | 2 65982  81.2998 295.2536 0002436  69.2341 290.9076 13.84517738 21341 | 2026/03/19-02:27:07   98.6338    0.1156  290.8815  104.0073     7326.0435     7324.2589     7327.8281  34.684573 -73.529843   0.000243   0.000019
1 65982U 25230J   26079.54750462  .00000199  00000-0  16670-3 0  9991 | 2 65982  81.2994 293.9138 0002427  67.0485 293.0928 13.84517811 21549 | 2026/03/20-13:08:24  261.1727    0.1157  293.0672  104.0073     7326.0432     7324.2652     7327.8213  32.955669 -74.320363   0.000243   0.000004
1 65982U 25230J   26080.55923851  .00000161  00000-0  13349-3 0  9997 | 2 65982  81.2992 292.9759 0002397  65.9842 294.1565 13.84517766 21688 | 2026/03/21-13:25:18  267.3450    0.1156  294.1314  104.0073     7326.0434     7324.2873     7327.7994  31.734647 -74.849663   0.000240  -0.000004
1 65982U 25230J   26081.93230657 -.00000425  00000-0 -38955-3 0  9990 | 2 65982  81.2975 291.6999 0002072  70.1762 289.9618 13.84517356 21877 | 2026/03/22-22:22:31   44.6489    0.1157  289.9395  104.0074     7326.0448     7324.5269     7327.5628  30.059355 -75.536208   0.000207   0.000007
1 65982U 25230J   26082.94439513 -.00029505  00000-0 -26564-1 0  9995 | 2 65982  81.2982 290.7634 0001271  58.6186 301.5095 13.84251457 22016 | 2026/03/23-22:39:55   50.9548    0.1157  301.4971  104.0273     7326.9830     7326.0517     7327.9142  28.821003 -76.018071   0.000125  -0.000023
1 65982U 25230J   26083.95636685 -.00026543  00000-0 -23911-1 0  9998 | 2 65982  81.2992 289.8282 0001408  80.2735 279.8581 13.84200342 22157 | 2026/03/24-22:57:10   57.2083    0.1157  279.8422  104.0312     7327.1633     7326.1317     7328.1950  27.576767 -76.479290   0.000139   0.000025
1 65982U 25230J   26085.04072103  .00000252  00000-0  21571-3 0  9998 | 2 65982  81.2986 288.8236 0000893  92.2980 267.8279 13.84055762 22302 | 2026/03/26-00:58:38   89.7372    0.1157  267.8177  104.0421     7327.6736     7327.0192     7328.3280  26.231448 -76.950461   0.000083   0.000032
1 65982U 25230J   26086.05290494 -.00014105  00000-0 -12747-1 0  9992 | 2 65982  81.2986 287.8865 0001133  76.5408 283.5874 13.83945284 22444 | 2026/03/27-01:16:10   96.0649    0.1156  283.5748  104.0504     7328.0636     7327.2333     7328.8938  24.969434 -77.369178   0.000113   0.000009
1 65982U 25230J   26087.06528264 -.00029386  00000-0 -26675-1 0  9995 | 2 65982  81.2992 286.9496 0001028  97.0769 263.0504 13.83771499 22585 | 2026/03/28-01:34:00  102.4711    0.1156  263.0387  104.0634     7328.6771     7327.9237     7329.4305  23.701187 -77.767690   0.000094   0.000042
1 65982U 25230J   26089.01770883  .00000255  00000-0  22087-3 0  9995 | 2 65982  81.2984 285.1415 0000836 104.1680 255.9569 13.83591578 22855 | 2026/03/30-00:25:30   89.0342    0.1156  255.9476  104.0770     7329.3124     7328.6997     7329.9252  21.235446 -78.476020   0.000073   0.000041
1 65982U 25230J   26090.24706392  .00000250  00000-0  21626-3 0  9999 | 2 65982  81.2983 284.0036 0000846 104.8529 255.2722 13.83592385 23022 | 2026/03/31-05:55:46  174.1763    0.1157  255.2628  104.0769     7329.3096     7328.6895     7329.9296  19.672795 -78.882157   0.000074   0.000041
1 65982U 25230J   26091.76567958  .00000236  00000-0  20342-3 0  9998 | 2 65982  81.2982 282.5979 0000885 106.7290 253.3964 13.83592217 23233 | 2026/04/01-18:22:34    3.3040    0.1157  253.3867  104.0769     7329.3102     7328.6615     7329.9588  17.731745 -79.340926   0.000077   0.000043
1 65982U 25230J   26092.77808957  .00000241  00000-0  20800-3 0  9992 | 2 65982  81.2980 281.6609 0000883 106.2773 253.8480 13.83592501 23379 | 2026/04/02-18:40:26    9.7179    0.1156  253.8383  104.0769     7329.3092     7328.6620     7329.9563  16.431871 -79.620088   0.000078   0.000041
1 65982U 25230J   26093.86281448  .00000304  00000-0  26517-3 0  9994 | 2 65982  81.2981 280.6565 0000924 107.8800 252.2457 13.83592575 23529 | 2026/04/03-20:42:27   42.3788    0.1156  252.2356  104.0769     7329.3089     7328.6317     7329.9861  15.033689 -79.895990   0.000081   0.000044
1 65982U 25230J   26094.87522403  .00000212  00000-0  18105-3 0  9997 | 2 65982  81.2985 279.7195 0000914 108.1094 252.0162 13.83593158 23663 | 2026/04/04-21:00:19   48.7926    0.1156  252.0062  104.0768     7329.3068     7328.6369     7329.9767  13.725207 -80.131547   0.000081   0.000043
1 65982U 25230J   26096.90160585 -.00074811  00000-0 -69538-1 0  9994 | 2 65982  81.2980 277.8467 0000523 120.3454 239.7754 13.82708047 23945 | 2026/04/06-21:38:18   62.1893    0.1156  239.7702  104.1435     7332.4343     7332.0508     7332.8178  11.099051 -80.536798   0.000041   0.000032
1 65982U 25230J   26097.91668981  .00038631  00000-0  35614-1 0  9995 | 2 65982  81.2989 276.9079 0001149 107.2454 262.1669 13.82319112  4453 | 2026/04/07-22:00:01   60.2812    9.3993  262.1539  104.1728     7333.8096     7332.9670     7334.6523   9.778121 -80.708732   0.000105   0.000047
1 65982U 25230J   26098.92826549  .00000181  00000-0  15675-3 0  9999 | 2 65982  81.2981 275.9748 0000955  95.1213 265.0051 13.82287405 24222 | 2026/04/08-22:16:42   75.6795    0.1155  264.9942  104.1752     7333.9218     7333.2214     7334.6222   8.462404 -80.856470   0.000094   0.000018
1 65982U 25230J   26100.01401333  .00000210  00000-0  18370-3 0  9991 | 2 65982  81.2982 274.9718 0000928  93.9328 266.1933 13.82288107 24379 | 2026/04/10-00:20:10  108.7041    0.1155  266.1827  104.1751     7333.9193     7333.2387     7334.5999   7.045743 -80.992313   0.000092   0.000014
1 65982U 25230J   26101.17214486  .00000217  00000-0  19049-3 0  9991 | 2 65982  81.2983 273.9022 0000938  96.1900 263.9362 13.82287719 24536 | 2026/04/11-04:07:53  168.0002    0.1155  263.9255  104.1751     7333.9207     7333.2328     7334.6086   5.532642 -81.109823   0.000092   0.000016
1 65982U 25230J   26102.18550981  .00000178  00000-0  15390-3 0  9997 | 2 65982  81.2984 272.9662 0000958  97.2026 262.9239 13.82287774 24677 | 2026/04/12-04:27:08  174.7604    0.1156  262.9130  104.1751     7333.9205     7333.2179     7334.6231   4.206935 -81.189479   0.000094   0.000017
1 65982U 25230J   26103.92270648  .00000123  00000-0  10311-3 0  9997 | 2 65982  81.2984 271.3617 0000949  97.9270 262.1994 13.82287821 24918 | 2026/04/13-22:08:41   83.2057    0.1156  262.1886  104.1751     7333.9203     7333.2243     7334.6163   1.931968 -81.275441   0.000094   0.000015
1 65982U 25230J   26105.15322015  .00000121  00000-0  10134-3 0  9991 | 2 65982  81.2985 270.2253 0000960  98.8856 261.2408 13.82288308 25086 | 2026/04/15-03:40:38  168.7697    0.1155  261.2299  104.1751     7333.9186     7333.2145     7334.6226   0.319683 -81.297871   0.000095   0.000015
1 65982U 25230J   26106.16658454  .00000156  00000-0  13390-3 0  9997 | 2 65982  81.2987 269.2894 0000968  99.4685 260.6580 13.82288459 25229 | 2026/04/16-03:59:52  175.5258    0.1156  260.6471  104.1751     7333.9181     7333.2081     7334.6280  -1.008266 -81.292448   0.000096   0.000015
1 65982U 25230J   26107.90378075  .00000173  00000-0  14920-3 0  9997 | 2 65982  81.2988 267.6849 0000984  99.0185 261.1082 13.82288361 25462 | 2026/04/17-21:41:26   83.9750    0.1156  261.0971  104.1751     7333.9184     7333.1967     7334.6401  -3.284075 -81.232443   0.000098   0.000011
1 65982U 25230J   26109.13429448  .00000117  00000-0  97123-4 0  9990 | 2 65982  81.2989 266.5486 0001002 100.8452 259.2817 13.82288703 25631 | 2026/04/19-03:13:23  169.5387    0.1156  259.2704  104.1751     7333.9172     7333.1823     7334.6521  -4.894346 -81.151442   0.000099   0.000013
1 65982U 25230J   26110.36480793  .00000197  00000-0  17130-3 0  9994 | 2 65982  81.2996 265.4122 0001019 101.7262 258.4008 13.82289034 25801 | 2026/04/20-08:45:19  255.0983    0.1156  258.3894  104.1750     7333.9160     7333.1687     7334.6634  -6.502885 -81.039111   0.000101   0.000013
1 65982U 25230J   26111.37817241  .00000196  00000-0  17121-3 0  9997 | 2 65982  81.2991 264.4763 0000990 102.7749 257.3517 13.82288705 25946 | 2026/04/21-09:04:34  261.8591    0.1155  257.3406  104.1751     7333.9172     7333.1911     7334.6432  -7.825647 -80.921585   0.000098   0.000012
1 65982U 25230J   26112.82583558  .00000146  00000-0  12451-3 0  9995 | 2 65982  81.2995 263.1394 0000987 103.6459 256.4807 13.82288887 26146 | 2026/04/22-19:49:12   65.2369    0.1156  256.4697  104.1750     7333.9165     7333.1927     7334.6404  -9.711561 -80.717373   0.000098   0.000012
1 65982U 25230J   26114.49064775  .00000185  00000-0  16044-3 0  9990 | 2 65982  81.2997 261.6019 0000996 103.5869 256.5398 13.82289202 26372 | 2026/04/24-11:46:31  308.3996    0.1156  256.5287  104.1750     7333.9154     7333.1850     7334.6459 -11.873839 -80.427938   0.000099   0.000009
1 65982U 25230J   26115.79354431  .00000203  00000-0  17750-3 0  9991 | 2 65982  81.2999 260.3988 0001019 104.5346 255.5923 13.82289143 26550 | 2026/04/25-19:02:42   59.2454    0.1156  255.5810  104.1750     7333.9156     7333.1683     7334.6630 -13.559961 -80.161095   0.000102   0.000009
1 65982U 25230J   26116.80690836  .00000205  00000-0  17923-3 0  9990 | 2 65982  81.3000 259.4631 0001033 104.6705 255.4565 13.82288985 26693 | 2026/04/26-19:21:56   66.0014    0.1155  255.4450  104.1750     7333.9162     7333.1586     7334.6738 -14.867228 -79.929066   0.000103   0.000007
1 65982U 25230J   26117.82027213  .00000145  00000-0  12320-3 0  9995 | 2 65982  81.3003 258.5273 0001056 105.1838 254.9434 13.82289149 26834 | 2026/04/27-19:41:11   72.7614    0.1155  254.9317  104.1750     7333.9156     7333.1412     7334.6901 -16.170711 -79.675886   0.000105   0.000007
1 65982U 25230J   26118.90601892  .00000111  00000-0  92183-4 0  9995 | 2 65982  81.3004 257.5248 0001026 105.7409 254.3860 13.82289129 26984 | 2026/04/28-21:44:40  105.7898    0.1156  254.3747  104.1750     7333.9157     7333.1632     7334.6681 -17.562269 -79.380865   0.000102   0.000006
1 65982U 25230J   26120.49844649  .00000212  00000-0  18577-3 0  9997 | 2 65982  81.3006 256.0544 0001027 107.9297 252.1970 13.82289828 27209 | 2026/04/30-11:57:45  322.6847    0.1155  252.1858  104.1750     7333.9132     7333.1600     7334.6664 -19.593488 -78.904264   0.000102   0.000007
1 65982U 25230J   26121.80134234  .00000139  00000-0  11754-3 0  9993 | 2 65982  81.3008 254.8514 0001018 106.8547 253.2721 13.82290129 27381 | 2026/05/01-19:13:55   73.5263    0.1156  253.2609  104.1749     7333.9122     7333.1656     7334.6587 -21.245798 -78.475704   0.000102   0.000003
1 65982U 25230J   26122.81470578  .00000152  00000-0  13007-3 0  9997 | 2 65982  81.3009 253.9158 0001036 107.2441 252.8828 13.82290028 27521 | 2026/05/02-19:33:10   80.2863    0.1156  252.8715  104.1750     7333.9125     7333.1527     7334.6723 -22.524390 -78.118424   0.000104   0.000002
1 65982U 25230J   26124.11760128  .00000166  00000-0  14261-3 0  9993 | 2 65982  81.3010 252.7129 0001061 107.7794 252.3477 13.82290288 27705 | 2026/05/04-02:49:20  192.1135    0.1155  252.3361  104.1749     7333.9116     7333.1335     7334.6897 -24.159397 -77.628449   0.000106   0.000001
1 65982U 25230J   26125.27573034  .00000238  00000-0  20947-3 0  9997 | 2 65982  81.3014 251.6436 0001070 108.0149 252.1124 13.82290563 27866 | 2026/05/05-06:37:03  251.4091    0.1156  252.1007  104.1749     7333.9106     7333.1259     7334.6953 -25.603997 -77.164454   0.000107  -0.000001
1 65982U 25230J   26126.28909333  .00000228  00000-0  20054-3 0  9992 | 2 65982  81.3014 250.7081 0001084 108.0560 252.0714 13.82290734 28005 | 2026/05/06-06:56:17  258.1648    0.1156  252.0596  104.1749     7333.9100     7333.1150     7334.7050 -26.860435 -76.736137   0.000108  -0.000002
1 65982U 25230J   26127.30245639  .00000223  00000-0  19561-3 0  9994 | 2 65982  81.3014 249.7725 0001090 108.8055 251.3219 13.82290541 28145 | 2026/05/07-07:15:32  264.9249    0.1156  251.3101  104.1749     7333.9107     7333.1113     7334.7101 -28.109846 -76.287314   0.000109  -0.000003
1 65982U 25230J   26128.60535171  .00000133  00000-0  11237-3 0  9993 | 2 65982  81.3016 248.5696 0001108 109.7076 250.4199 13.82290425 28322 | 2026/05/08-14:31:42   15.7665    0.1155  250.4079  104.1749     7333.9111     7333.0985     7334.7237 -29.705225 -75.680577   0.000111  -0.000003
