# SPACE DATA - HISTORICAL TLEs
# ----------------------------
# NORAD_ID    : 61559
# OBJECT_NAME : QIANFAN-26
# --------------------------------------------------------------------+-----------------------------------------------------------------------+----------------------------------------------------------------------------------------------------------------------------------------
#                  LINE 1                                             |                 LINE 2                                                |      DERIVED PARAMETERS
# --------------------------------------------------------------------+-----------------------------------------------------------------------+----------------------------------------------------------------------------------------------------------------------------------------
# NORAD  COSPAR     TLE_EPOCH      MEANMOT1 MEANMOT2   BSTAR  #  REV  |   NORAD    INC     RAAN     ECC    ARGPER  MEANANOM   MEANMOT     REV |  CAL_DATE              LONG     ARGLAT     PERIOD        SMA         PERIGEE        APOGEE      INC_X      INC_Y      ECC_X      ECC_Y
# ------ ------   -------------- ----------  -------  ------- -- ----     -----  ------- -------- ------- -------- -------- -----------  ----   ------------------- ---------  --------  --------  ------------  ------------   ----------- ---------- ----------  ---------  ---------   
1 66035U 25233C   25302.97123542  .00000783  00000-0  32161-3 0  9994 | 2 66035  88.9942  67.0694 0014696 170.9700 189.1761 14.26072624  1800 | 2025/10/29-23:18:34  320.9663    0.1193  189.1493  100.9766     7183.0256     7172.4694     7193.5817  34.673553  81.961652  -0.000778  -0.001247
1 66035U 25233C   25305.63760012  .00000758  00000-0  31083-3 0  9993 | 2 66035  88.9946  66.7623 0015032 162.6054 197.5658 14.26076768  2180 | 2025/11/01-15:18:08  203.7677    0.1193  197.5139  100.9763     7183.0117     7172.2142     7193.8092  35.112517  81.774996  -0.000979  -0.001141
1 66035U 25233C   25307.74261936  .00000663  00000-0  27127-3 0  9997 | 2 66035  88.9949  66.5199 0015263 156.2943 203.8956 14.26079668  2488 | 2025/11/03-17:49:22  243.8731    0.1192  203.8249  100.9761     7183.0019     7172.0385     7193.9653  35.458285  81.625990  -0.001120  -0.001037
1 66035U 25233C   25308.79512721  .00000679  00000-0  27807-3 0  9996 | 2 66035  88.9950  66.3987 0015362 153.1314 207.0679 14.26081309  2631 | 2025/11/04-19:04:58  263.9251    0.1193  206.9879  100.9760     7182.9964     7171.9619     7194.0309  35.630912  81.550893  -0.001185  -0.000978
1 66035U 25233C   25309.91780088  .00000750  00000-0  30764-3 0  9990 | 2 66035  88.9952  66.2695 0015465 149.7700 210.4389 14.26083461  2796 | 2025/11/05-22:01:37  309.3138    0.1193  210.3493  100.9759     7182.9892     7171.8807     7194.0977  35.814797  81.470522  -0.001251  -0.000910
1 66035U 25233C   25311.11063971  .00000794  00000-0  32596-3 0  9993 | 2 66035  88.9953  66.1321 0015588 146.2417 213.9772 14.26085550  2969 | 2025/11/07-02:39:19   20.0389    0.1192  213.8775  100.9757     7182.9822     7171.7853     7194.1790  36.010107  81.384492  -0.001317  -0.000835
1 66035U 25233C   25312.16314263  .00000932  00000-0  38373-3 0  9995 | 2 66035  88.9954  66.0110 0015688 143.1233 217.1042 14.26088136  3115 | 2025/11/08-03:54:55   40.0899    0.1192  216.9959  100.9755     7182.9735     7171.7048     7194.2421  36.182081  81.308291  -0.001370  -0.000764
1 66035U 25233C   25314.89964321  .00000981  00000-0  40398-3 0  9997 | 2 66035  88.9956  65.6961 0015880 135.0990 225.1491 14.26093683  3503 | 2025/11/10-21:35:29  308.2216    0.1193  225.0203  100.9751     7182.9549     7171.5483     7194.3614  36.628488  81.108388  -0.001485  -0.000564
1 66035U 25233C   25316.30297065  .00001470  00000-0  60854-3 0  9992 | 2 66035  88.9957  65.5347 0015960 131.0021 229.2555 14.26099583  3704 | 2025/11/12-07:16:16   94.9546    0.1192  229.1171  100.9747     7182.9350     7171.4711     7194.3990  36.856863  81.004977  -0.001530  -0.000454
1 66035U 25233C   25317.49618475  .00001535  00000-0  65138-3 0  9997 | 2 66035  88.9948  65.3969 0015918 128.1758 232.0871 14.24841785  3877 | 2025/11/13-11:54:30  165.8202    0.1192  231.9434  101.0639     7187.1616     7175.7211     7198.6022  37.051204  80.915281  -0.001547  -0.000374
1 66035U 25233C   25318.55045181  .00001218  00000-0  53524-3 0  9997 | 2 66035  88.9960  65.2768 0016371 124.8109 235.4626 14.22885735  4028 | 2025/11/14-13:12:39  186.5050    0.1191  235.3082  101.2028     7193.7470     7181.9701     7205.5238  37.221234  80.838529  -0.001612  -0.000287
1 66035U 25233C   25319.74638299  .00001139  00000-0  51121-3 0  9990 | 2 66035  89.0000  65.1475 0017132 108.1406 252.1652 14.21721057  4198 | 2025/11/15-17:54:47  258.3160    0.1190  251.9784  101.2857     7197.6752     7185.3441     7210.0062  37.405249  80.757955  -0.001701   0.000200
1 66035U 25233C   25321.15562102  .00000926  00000-0  43905-3 0  9991 | 2 66035  88.9982  64.9906 0015956 111.8239 248.4649 14.18693812  4397 | 2025/11/17-03:44:05   47.2046    0.1188  248.2949  101.5018     7207.9106     7196.4097     7219.4115  37.625497  80.653590  -0.001593   0.000089
1 66035U 25233C   25322.21359623  .00000397  00000-0  18424-3 0  9991 | 2 66035  88.9963  64.8594 0016662 112.5973 247.6981 14.18700559  4540 | 2025/11/18-05:07:34   69.2431    0.1189  247.5216  101.5013     7207.8878     7195.8780     7219.8975  37.809278  80.565501  -0.001665   0.000074
1 66035U 25233C   25323.69617036  .00000303  00000-0  14582-3 0  9997 | 2 66035  89.0027  64.6935 0017663 101.6450 258.6721 14.16086010  4755 | 2025/11/19-16:42:29  244.5752    0.1187  258.4737  101.6887     7216.7571     7204.0101     7229.5040  38.045132  80.461472  -0.001716   0.000417
1 66035U 25233C   25325.60572392  .00000252  00000-0  12581-3 0  9995 | 2 66035  88.9965  64.4756 0017061 102.5540 257.7556 14.13652578  5027 | 2025/11/21-14:32:14  214.1221    0.1186  257.5646  101.8638     7225.0365     7212.7099     7237.3632  38.348185  80.310608  -0.001663   0.000383
1 66035U 25233C   25326.73962237  .00000207  00000-0  10688-3 0  9997 | 2 66035  88.9961  64.3486 0017259  99.6423 260.6713 14.11110476  5186 | 2025/11/22-17:45:03  263.5661    0.1185  260.4762  102.0473     7233.7112     7221.2265     7246.1958  38.525932  80.225048  -0.001659   0.000476
1 66035U 25233C   25328.37142510  .00000190  00000-0  10163-3 0  9992 | 2 66035  88.9960  64.1641 0017316  93.0566 267.2600 14.08951294  5417 | 2025/11/24-08:54:51  132.8050    0.1184  267.0618  102.2037     7241.0996     7228.5609     7253.6383  38.784023  80.100484  -0.001597   0.000670
1 66035U 25233C   25329.50843530  .00000195  00000-0  10681-3 0  9998 | 2 66035  88.9963  64.0386 0017592  91.0725 269.2474 14.07661406  5576 | 2025/11/25-12:12:08  183.3716    0.1183  269.0458  102.2973     7245.5224     7232.7761     7258.2688  38.959513  80.015610  -0.001596   0.000740
1 66035U 25233C   25330.71827779  .00000164  00000-0  93873-4 0  9991 | 2 66035  89.0056  63.8876 0018826  85.8858 274.4475 14.04640851  5747 | 2025/11/26-17:14:19  260.2449    0.1182  274.2324  102.5173     7255.9059     7242.2460     7269.5659  39.174347  79.921007  -0.001627   0.000948
1 66035U 25233C   25332.00129399  .00000144  00000-0  83343-4 0  9997 | 2 66035  88.9962  63.7617 0017460  83.9479 276.3691 14.03317372  5923 | 2025/11/28-00:01:51    3.5376    0.1181  276.1702  102.6140     7260.4673     7247.7905     7273.1441  39.345713  79.826302  -0.001476   0.000933
1 66035U 25233C   25333.78660492  .00000125  00000-0  75819-4 0  9995 | 2 66035  88.9962  63.5648 0017357  79.4900 280.8233 13.99885740  6172 | 2025/11/29-18:52:42  288.2098    0.1179  280.6279  102.8655     7272.3278     7259.7053     7284.9504  39.619807  79.690617  -0.001387   0.001043
1 66035U 25233C   25335.21737241  .00000157  00000-0  10194-3 0  9991 | 2 66035  89.0022  63.4185 0017898  81.2060 279.1143 13.97279135  6370 | 2025/12/01-05:13:00   84.8356    0.1177  278.9117  103.0574     7281.3693     7268.3371     7294.4015  39.825846  79.594558  -0.001459   0.001036
1 66035U 25233C   25336.50699073  .00000184  00000-0  12482-3 0  9996 | 2 66035  88.9961  63.2654 0017208  72.5833 287.7224 13.95839524  6552 | 2025/12/02-12:10:03  190.5370    0.1177  287.5344  103.1637     7286.3749     7273.8365     7298.9133  40.035644  79.482407  -0.001235   0.001199
1 66035U 25233C   25337.51149937  .00000206  00000-0  14543-3 0  9992 | 2 66035  88.9959  63.1558 0017233  69.6789 290.6236 13.93939015  6691 | 2025/12/03-12:16:33  193.2630    0.1175  290.4386  103.3044     7292.9963     7280.4283     7305.5643  40.187521  79.405500  -0.001172   0.001264
1 66035U 25233C   25338.66029115  .00000150  00000-0  10384-3 0  9991 | 2 66035  88.9961  63.0310 0017220  66.4337 293.8645 13.93619014  6850 | 2025/12/04-15:50:49  248.0895    0.1176  293.6839  103.3281     7294.1126     7281.5522     7306.6731  40.360475  79.317954  -0.001095   0.001329
1 66035U 25233C   25339.66510744 -.01755265  00000-0 -16042+1 0  9996 | 2 66035  88.9957  62.9213 0015480  63.8287 296.4475 13.87264784  6994 | 2025/12/05-15:57:45  250.9454    0.1172  296.2885  103.8014     7316.3690     7305.0432     7327.6947  40.512083  79.240178  -0.000926   0.001240
1 66035U 25233C   25340.74552304  .00000140  00000-0  10323-3 0  9996 | 2 66035  88.9928  62.8073 0016297  64.4353 295.8502 13.89690249  7146 | 2025/12/06-17:53:33  281.0646    0.1173  295.6820  103.6202     7307.8535     7295.9439     7319.7631  40.668339  79.156836  -0.000986   0.001297
1 66035U 25233C   25341.97065298  .00000125  00000-0  94352-4 0  9991 | 2 66035  88.9961  62.6719 0016821  57.8867 302.3935 13.87427233  7319 | 2025/12/07-23:17:44    3.4597    0.1173  302.2306  103.7892     7315.7979     7303.4920     7328.1038  40.856802  79.063440  -0.000855   0.001448
1 66035U 25233C   25343.48663559  .00000122  00000-0  96353-4 0  9993 | 2 66035  88.9964  62.5094 0016535  54.3515 305.9193 13.84949355  7520 | 2025/12/09-11:40:45  190.8795    0.1172  305.7657  103.9749     7324.5213     7312.4102     7336.6324  41.081013  78.947512  -0.000747   0.001475
1 66035U 25233C   25344.49911255  .00000104  00000-0  83143-4 0  9997 | 2 66035  89.0003  62.4002 0015898  54.8465 305.4191 13.82680581  7663 | 2025/12/10-11:58:43  196.4836    0.1170  305.2705  104.1455     7332.5314     7320.8742     7344.1887  41.233211  78.872528  -0.000728   0.001413
1 66035U 25233C   25345.58402442 -.01952627  00000-0 -20710+1 0  9997 | 2 66035  88.9954  62.2834 0017044  47.1076 313.1519 13.78213484  7811 | 2025/12/11-14:00:59  228.2441    0.1168  313.0092  104.4831     7348.3671     7335.8426     7360.8917  41.391631  78.783971  -0.000566   0.001608
1 66035U 25233C   25346.81727600 -.02064227  00000-0 -22815+1 0  9999 | 2 66035  88.9956  62.1520 0013391  61.8493 298.4024 13.75990148  7981 | 2025/12/12-19:36:52  313.5694    0.1166  298.2673  104.6519     7356.2807     7346.4299     7366.1315  41.572296  78.689015  -0.000749   0.001110
1 66035U 25233C   25347.90665419  .00000048  00000-0  34719-4 0  9996 | 2 66035  88.9960  62.0372 0016351  43.1346 317.1099 13.78056722  8132 | 2025/12/13-21:45:34  346.9413    0.1168  316.9822  104.4950     7348.9244     7336.9082     7360.9406  41.730064  78.605914  -0.000428   0.001578
1 66035U 25233C   25348.92319590  .00000041  00000-0  27485-4 0  9990 | 2 66035  88.9959  61.9293 0016229  40.3019 319.9347 13.78057207  8270 | 2025/12/14-22:09:24  354.0141    0.1167  319.8148  104.4949     7348.9227     7336.9961     7360.8492  41.877974  78.527100  -0.000344   0.001586
1 66035U 25233C   25350.59439132  .00000048  00000-0  35926-4 0  9997 | 2 66035  88.9917  61.7602 0013907  28.4515 331.7406 13.75697448  8502 | 2025/12/16-14:15:55  237.5052    0.1165  331.6650  104.6742     7357.3241     7347.0923     7367.5559  42.107566  78.399462  -0.000005   0.001391
1 66035U 25233C   25351.61383203  .00000041  00000-0  30649-4 0  9998 | 2 66035  88.9956  61.6442 0015952  33.1427 327.0733 13.73697076  8644 | 2025/12/17-14:43:55  245.6008    0.1165  326.9738  104.8266     7364.4648     7352.7170     7376.2126  42.268058  78.317483  -0.000133   0.001590
1 66035U 25233C   25352.63438625  .00000042  00000-0  32516-4 0  9996 | 2 66035  88.9924  61.5403 0015726  36.9678 323.2565 13.71452673  8789 | 2025/12/18-15:13:30  254.1018    0.1163  323.1485  104.9982     7372.4973     7360.9033     7384.0913  42.408484  78.237892  -0.000233   0.001555
1 66035U 25233C   25353.72946495  .00000046  00000-0  37854-4 0  9990 | 2 66035  88.9954  61.4218 0015538  27.9113 332.2879 13.69957168  8931 | 2025/12/19-17:30:25  289.5531    0.1163  332.2050  105.1128     7377.8618     7366.3981     7389.3255  42.571641  78.152649   0.000018   0.001554
1 66035U 25233C   25354.89814122  .00000049  00000-0  42082-4 0  9992 | 2 66035  88.9955  61.2999 0015309  24.3379 335.8503 13.69664298  9097 | 2025/12/20-21:33:19  351.5614    0.1163  335.7784  105.1353     7378.9135     7367.6171     7390.2099  42.737867  78.061987   0.000116   0.001526
1 66035U 25233C   25356.28814294 -.02145497  00000-0 -28832+1 0  9991 | 2 66035  88.9914  61.1493 0015676  27.3876 332.8106 13.64197018  9285 | 2025/12/22-06:54:55  133.4727    0.1160  332.7284  105.5566     7398.6153     7387.0172     7410.2133  42.940924  77.945791   0.000040   0.001567
1 66035U 25233C   25358.63316264 -.02151232  00000-0 -30113+1 0  9995 | 2 66035  88.9935  60.9114 0013449 353.8000   6.2989 13.61685974  9604 | 2025/12/24-15:11:45  260.3283    0.1158    6.3158  105.7513     7407.7082     7397.7456     7417.6708  43.265215  77.768658   0.000777   0.001098
1 66035U 25233C   25360.61590848  .00000035  00000-0  30287-4 0  9994 | 2 66035  89.0027  60.7057 0017030  10.6110 349.5403 13.61575488  9873 | 2025/12/26-14:46:54  256.2244    0.1158  349.5048  105.7598     7408.1089     7395.4929     7420.7249  43.548638  77.620853   0.000546   0.001613
1 66035U 25233C   25362.08705678  .00000040  00000-0  38673-4 0  9999 | 2 66035  88.9927  60.5489 0014535   2.4317 357.6907 13.58575197 10078 | 2025/12/28-02:05:21   67.4735    0.1157  357.6840  105.9934     7419.0117     7408.2281     7429.7952  43.755981  77.492676   0.000660   0.001295
1 66035U 25233C   25363.19204254  .00000041  00000-0  40208-4 0  9994 | 2 66035  88.9950  60.4397 0013968 357.5738   2.5347 13.57806883 10220 | 2025/12/29-04:36:32  106.4806    0.1156    2.5418  106.0534     7421.8101     7411.4433     7432.1769  43.904729  77.411141   0.000740   0.001185
1 66035U 25233C   25364.59288472  .00000050  00000-0  53300-4 0  9990 | 2 66035  88.9949  60.2957 0013786 352.4677   7.6268 13.56293118 10411 | 2025/12/30-14:13:45  252.3225    0.1155    7.6478  106.1717     7427.3314     7417.0921     7437.5707  44.099096  77.300465   0.000834   0.001098
1 66035U 25233C   25365.62619870  .00000058  00000-0  65297-4 0  9991 | 2 66035  88.9946  60.1899 0013650 349.5391  10.5477 13.55665613 10554 | 2025/12/31-15:01:43  265.4476    0.1155   10.5764  106.2209     7429.6232     7419.4818     7439.7646  44.241612  77.218642   0.000882   0.001041
1 66035U 25233C   26001.95490349  .00000063  00000-0  74655-4 0  9997 | 2 66035  88.9949  60.0409 0012146 339.5177  20.5488 13.55043954 10734 | 2026/01/01-22:55:03   25.2602    0.1154   20.5977  106.2696     7431.8954     7422.8686     7440.9221  44.442422  77.103589   0.000936   0.000774
1 66035U 25233C   26003.13765560  .00000068  00000-0  84483-4 0  9994 | 2 66035  88.9947  59.9333 0013454 341.3524  18.7133 13.52899678 10897 | 2026/01/03-03:18:13   92.3252    0.1152   18.7628  106.4380     7439.7461     7429.7366     7449.7555  44.587042  77.019818   0.001011   0.000888
1 66035U 25233C   26004.17308562  .00000071  00000-0  88606-4 0  9999 | 2 66035  88.9944  59.8276 0013259 338.2117  21.8469 13.52899030 11031 | 2026/01/04-04:09:14  106.2133    0.1152   21.9035  106.4381     7439.7484     7429.8841     7449.6128  44.728902  76.937173   0.001044   0.000817
1 66035U 25233C   26005.28247472  .00000066  00000-0  80796-4 0  9990 | 2 66035  88.9942  59.7145 0013168 334.7366  25.3141 13.52899211 11182 | 2026/01/05-06:46:45  146.8079    0.1153   25.3787  106.4381     7439.7478     7429.9511     7449.5444  44.880585  76.848557   0.001086   0.000745
1 66035U 25233C   26006.46582280  .00000136  00000-0  18704-3 0  9997 | 2 66035  88.9941  59.5938 0013091 331.0128  29.0296 13.52899623 11347 | 2026/01/06-11:10:47  214.1085    0.1153   29.1025  106.4381     7439.7463     7430.0069     7449.4856  45.042325  76.753754   0.001127   0.000667
1 66035U 25233C   26007.50209597  .00000114  00000-0  15861-3 0  9997 | 2 66035  88.9945  59.4940 0013802 269.1440  90.8130 13.50534635 11486 | 2026/01/07-12:03:01  228.3735    0.1151   90.9711  106.6244     7448.4291     7438.1488     7458.7095  45.176153  76.675526   0.001179  -0.000718
1 66035U 25233C   26008.61376727  .00000108  00000-0  15108-3 0  9997 | 2 66035  88.9940  59.3754 0012797 322.9609  37.0657 13.50167916 11638 | 2026/01/08-14:43:49  269.7199    0.1151   37.1542  106.6534     7449.7778     7440.2443     7459.3113  45.334516  76.581419   0.001184   0.000486
1 66035U 25233C   26009.65129021  .00000060  00000-0  76068-4 0  9995 | 2 66035  88.9939  59.2701 0012742 319.6745  40.3460 13.50168001 11771 | 2026/01/09-15:37:51  284.3622    0.1151   40.4406  106.6534     7449.7775     7440.2850     7459.2700  45.475132  76.497886   0.001205   0.000414
1 66035U 25233C   26010.91113946  .00000074  00000-0  98050-4 0  9995 | 2 66035  88.9938  59.1422 0012673 315.6179  44.3955 13.50168201 11943 | 2026/01/10-21:52:02   19.2847    0.1151   44.4972  106.6534     7449.7767     7440.3356     7459.2178  45.645732  76.396097   0.001225   0.000323
1 66035U 25233C   26011.94866235  .00000064  00000-0  82065-4 0  9993 | 2 66035  88.9937  59.0368 0012620 312.2629  47.7451 13.50168304 12083 | 2026/01/11-22:46:04   33.9263    0.1152   47.8523  106.6534     7449.7764     7440.3747     7459.1780  45.786140  76.311913   0.001238   0.000247
1 66035U 25233C   26013.13440288  .00000055  00000-0  67330-4 0  9990 | 2 66035  88.9936  58.9163 0012567 308.4124  51.5898 13.50168386 12246 | 2026/01/13-03:13:32  102.0879    0.1152   51.7028  106.6534     7449.7761     7440.4139     7459.1382  45.946480  76.215365   0.001246   0.000160
1 66035U 25233C   26014.54246977  .00000065  00000-0  83325-4 0  9998 | 2 66035  88.9934  58.7733 0012511 303.8250  56.1709 13.50168533 12430 | 2026/01/14-13:01:09  250.5292    0.1151   56.2901  106.6534     7449.7755     7440.4551     7459.0959  46.136453  76.100282   0.001250   0.000057
1 66035U 25233C   26015.65279301 -.01996824  00000-0 -34350+1 0  9998 | 2 66035  88.9927  58.6606 0015612 295.8288  64.1251 13.48308553 12588 | 2026/01/15-15:40:01  291.4946    0.1150   64.2862  106.8005     7456.6252     7444.9839     7468.2665  46.285688  76.008788   0.001554  -0.000150
1 66035U 25233C   26016.83884022  .00000086  00000-0  11412-3 0  9991 | 2 66035  88.9847  58.5420 0009936 299.7755  60.2407 13.50967094 12748 | 2026/01/16-20:07:55  359.6970    0.1151   60.3396  106.5903     7446.8395     7439.4403     7454.2387  46.438749  75.905991   0.000993  -0.000029
1 66035U 25233C   26017.94982227  .00000093  00000-0  12522-3 0  9991 | 2 66035  88.9934  58.4272 0005454 297.1568  62.9026 13.50953761 12892 | 2026/01/17-22:47:44   40.8171    0.1151   62.9583  106.5914     7446.8885     7442.8270     7450.9500  46.595298  75.820204   0.000544  -0.000042
1 66035U 25233C   26019.28297558  .00000096  00000-0  12984-3 0  9991 | 2 66035  88.9928  58.2908 0004467 288.7993  71.2673 13.50988032 13071 | 2026/01/19-06:47:29  162.1955    0.1151   71.3158  106.5887     7446.7626     7443.4361     7450.0890  46.775351  75.708553   0.000435  -0.000100
1 66035U 25233C   26020.91204642 -.02076796  00000-0 -35542+1 0  9991 | 2 66035  88.9923  58.1248 0004470 167.7153 192.4106 13.48847336 13299 | 2026/01/20-21:53:20   30.3734    0.1149  192.3996  106.7578     7454.6394     7451.3072     7457.9717  46.994236  75.572291  -0.000311  -0.000321
1 66035U 25233C   26023.94902953  .00000096  00000-0  13039-3 0  9993 | 2 66035  88.9925  57.8158 0001946  90.0542 270.0832 13.50993838 13709 | 2026/01/23-22:46:36   46.9782    0.1151  270.0609  106.5882     7446.7412     7445.2921     7448.1904  47.401224  75.317920  -0.000165   0.000103
1 66035U 25233C   26025.13404718  .00000087  00000-0  11544-3 0  9991 | 2 66035  88.9924  57.6950 0001929  89.7877 270.3495 13.50993982 13868 | 2026/01/25-03:13:01  114.8736    0.1151  270.3274  106.5882     7446.7407     7445.3042     7448.1772  47.559862  75.217729  -0.000163   0.000104
1 66035U 25233C   26026.24500134  .00000050  00000-0  58148-4 0  9995 | 2 66035  88.9923  57.5818 0001918  89.3745 270.7626 13.50993918 14014 | 2026/01/26-05:52:48  156.0254    0.1151  270.7406  106.5882     7446.7409     7445.3126     7448.1692  47.708324  75.123533  -0.000161   0.000105
1 66035U 25233C   26027.28189180  .00000054  00000-0  64827-4 0  9999 | 2 66035  88.9922  57.4762 0001910  89.5691 270.5679 13.50993992 14157 | 2026/01/27-06:45:55  170.4337    0.1151  270.5460  106.5882     7446.7407     7445.3183     7448.1630  47.846647  75.035392  -0.000160   0.000104
1 66035U 25233C   26028.91129095  .00000066  00000-0  84349-4 0  9993 | 2 66035  88.9920  57.3101 0001895  89.3796 270.7572 13.50994144 14375 | 2026/01/28-21:52:15   38.7897    0.1151  270.7355  106.5882     7446.7401     7445.3289     7448.1513  48.063865  74.896201  -0.000158   0.000104
1 66035U 25233C   26030.09630838  .00000081  00000-0  10611-3 0  9994 | 2 66035  88.9920  57.1894 0001883  88.9873 271.1494 13.50994292 14530 | 2026/01/30-02:18:41  106.6848    0.1151  271.1278  106.5882     7446.7396     7445.3373     7448.1418  48.221535  74.794783  -0.000156   0.000105
1 66035U 25233C   26031.13319850  .00000064  00000-0  81274-4 0  9993 | 2 66035  88.9919  57.0837 0001877  89.0903 271.0463 13.50994363 14672 | 2026/01/31-03:11:48  121.0930    0.1151  271.0248  106.5882     7446.7393     7445.3415     7448.1371  48.359381  74.705612  -0.000156   0.000104
1 66035U 25233C   26032.46634285  .00000059  00000-0  72828-4 0  9991 | 2 66035  88.9919  56.9478 0001870  89.1076 271.0289 13.50994462 14852 | 2026/02/01-11:11:32  242.4750    0.1151  271.0075  106.5881     7446.7389     7445.3464     7448.1315  48.536439  74.590699  -0.000155   0.000104
1 66035U 25233C   26033.57729629  .00000050  00000-0  58663-4 0  9993 | 2 66035  88.9918  56.8347 0001859  88.8803 271.2561 13.50994554 15001 | 2026/02/02-13:51:18  283.6265    0.1151  271.2348  106.5881     7446.7386     7445.3542     7448.1229  48.683530  74.494660  -0.000154   0.000105
1 66035U 25233C   26035.13263101  .00000039  00000-0  42332-4 0  9998 | 2 66035  88.9918  56.6762 0001848  88.5928 271.5434 13.50994674 15211 | 2026/02/04-03:10:59  125.2387    0.1150  271.5222  106.5881     7446.7382     7445.3620     7448.1143  48.889421  74.359700  -0.000152   0.000105
1 66035U 25233C   26036.31764790  .00000032  00000-0  30805-4 0  9994 | 2 66035  88.9919  56.5554 0001840  88.5462 271.5900 13.50994734 15377 | 2026/02/05-07:37:24  193.1336    0.1151  271.5689  106.5881     7446.7379     7445.3677     7448.1081  49.046144  74.256542  -0.000151   0.000105
1 66035U 25233C   26037.50266472  .00000022  00000-0  15186-4 0  9994 | 2 66035  88.9919  56.4346 0001833  88.8261 271.3100 13.50994805 15534 | 2026/02/06-12:03:50  261.0285    0.1151  271.2890  106.5881     7446.7377     7445.3727     7448.1027  49.202595  74.152970  -0.000151   0.000104
1 66035U 25233C   26038.61361807  .00000023  00000-0  16407-4 0  9993 | 2 66035  88.9920  56.3214 0001826  88.7656 271.3704 13.50994822 15683 | 2026/02/07-14:43:36  302.1800    0.1151  271.3495  106.5881     7446.7376     7445.3778     7448.0974  49.349059  74.055698  -0.000150   0.000105
1 66035U 25233C   26039.79863493  .00000032  00000-0  30230-4 0  9991 | 2 66035  88.9920  56.2006 0001825  88.6250 271.5110 13.50994862 15844 | 2026/02/08-19:10:02   10.0749    0.1151  271.4901  106.5881     7446.7375     7445.3784     7448.0965  49.505085  73.951488  -0.000149   0.000105
1 66035U 25233C   26040.90958826  .00000034  00000-0  34544-4 0  9995 | 2 66035  88.9920  56.0874 0001816  89.0330 271.1029 13.50994901 15994 | 2026/02/09-21:49:48   51.2264    0.1151  271.0821  106.5881     7446.7373     7445.3850     7448.0896  49.651095  73.853536  -0.000149   0.000104
1 66035U 25233C   26041.94647795  .00000050  00000-0  59324-4 0  9991 | 2 66035  88.9920  55.9818 0001815  89.0631 271.0728 13.50994987 16139 | 2026/02/10-22:42:55   65.6343    0.1151  271.0520  106.5881     7446.7370     7445.3854     7448.0886  49.787128  73.761901  -0.000149   0.000104
1 66035U 25233C   26043.13149475  .00000054  00000-0  65590-4 0  9992 | 2 66035  88.9920  55.8611 0001815  88.8663 271.2696 13.50995040 16295 | 2026/02/12-03:09:21  133.5291    0.1151  271.2488  106.5881     7446.7368     7445.3852     7448.0884  49.942405  73.656855  -0.000148   0.000105
1 66035U 25233C   26044.24244787  .00000048  00000-0  55686-4 0  9995 | 2 66035  88.9920  55.7478 0001815  88.6814 271.4545 13.50995085 16442 | 2026/02/13-05:49:07  174.6805    0.1151  271.4337  106.5881     7446.7366     7445.3851     7448.0882  50.087961  73.557952  -0.000148   0.000106
1 66035U 25233C   26045.42746446  .00000050  00000-0  59354-4 0  9994 | 2 66035  88.9920  55.6271 0001813  88.7762 271.3597 13.50995172 16604 | 2026/02/14-10:15:32  242.5752    0.1151  271.3389  106.5881     7446.7363     7445.3862     7448.0864  50.242807  73.452273  -0.000147   0.000106
1 66035U 25233C   26046.46435384  .00000053  00000-0  63563-4 0  9995 | 2 66035  88.9920  55.5215 0001820  88.4272 271.7087 13.50995281 16746 | 2026/02/15-11:08:40  256.9830    0.1151  271.6879  106.5881     7446.7359     7445.3806     7448.0912  50.378100  73.359547  -0.000147   0.000107
1 66035U 25233C   26047.50124318  .00000037  00000-0  38931-4 0  9996 | 2 66035  88.9921  55.4158 0001815  88.6807 271.4552 13.50995308 16881 | 2026/02/16-12:01:47  271.3908    0.1151  271.4344  106.5881     7446.7358     7445.3842     7448.0874  50.513405  73.266566  -0.000147   0.000106
1 66035U 25233C   26048.53813240  .00000024  00000-0  18807-4 0  9995 | 2 66035  88.9922  55.3102 0001813  88.9404 271.1955 13.50995371 17025 | 2026/02/17-12:54:54  285.7986    0.1151  271.1747  106.5881     7446.7356     7445.3855     7448.0857  50.648411  73.173425  -0.000147   0.000106
1 66035U 25233C   26049.57502170  .00000014  00000-0  35153-5 0  9990 | 2 66035  88.9922  55.2046 0001818  89.2013 270.9346 13.50995376 17167 | 2026/02/18-13:48:01  300.2063    0.1151  270.9138  106.5881     7446.7356     7445.3818     7448.0894  50.783189  73.079952  -0.000148   0.000106
1 66035U 25233C   26050.83410148  .00000019  00000-0  11308-4 0  9994 | 2 66035  88.9923  55.0764 0001824  89.4887 270.6473 13.50995437 17336 | 2026/02/19-20:01:06   34.8442    0.1151  270.6264  106.5881     7446.7354     7445.3771     7448.0936  50.946636  72.966223  -0.000149   0.000106
1 66035U 25233C   26051.94505421  .00000029  00000-0  25632-4 0  9992 | 2 66035  88.9924  54.9632 0001813  89.8716 270.2643 13.50995527 17483 | 2026/02/20-22:40:52   75.9954    0.1151  270.2435  106.5881     7446.7350     7445.3849     7448.0851  51.090754  72.865507  -0.000148   0.000104
1 66035U 25233C   26053.13007061  .00000018  00000-0  90378-5 0  9990 | 2 66035  88.9926  54.8426 0001825  89.8444 270.2917 13.50995470 17645 | 2026/02/22-03:07:18  143.8898    0.1152  270.2708  106.5881     7446.7352     7445.3762     7448.0943  51.244128  72.757970  -0.000149   0.000105
1 66035U 25233C   26054.24102346  .00000035  00000-0  36138-4 0  9997 | 2 66035  88.9927  54.7294 0001833  89.9445 270.1917 13.50995525 17795 | 2026/02/23-05:47:04  185.0409    0.1152  270.1707  106.5881     7446.7350     7445.3700     7448.1000  51.387835  72.656666  -0.000150   0.000106
1 66035U 25233C   26055.27791273  .00000045  00000-0  51842-4 0  9994 | 2 66035  88.9928  54.6239 0001841  90.0204 270.1158 13.50995582 17935 | 2026/02/24-06:40:11  199.4485    0.1151  270.0947  106.5881     7446.7348     7445.3639     7448.1058  51.521590  72.562003  -0.000150   0.000107
1 66035U 25233C   26056.46292898  .00000057  00000-0  70323-4 0  9993 | 2 66035  88.9929  54.5032 0001852  90.1874 269.9489 13.50995677 18098 | 2026/02/25-11:06:37  267.3430    0.1151  269.9277  106.5881     7446.7345     7445.3553     7448.1136  51.674394  72.453387  -0.000151   0.000107
1 66035U 25233C   26057.57388160  .00000056  00000-0  67939-4 0  9992 | 2 66035  88.9930  54.3901 0001859  90.2615 269.8749 13.50995739 18248 | 2026/02/26-13:46:23  308.4939    0.1151  269.8536  106.5880     7446.7342     7445.3499     7448.1186  51.817372  72.351324  -0.000152   0.000108
1 66035U 25233C   26058.68483412  .00000055  00000-0  67212-4 0  9994 | 2 66035  88.9931  54.2770 0001865  90.2222 269.9142 13.50995821 18399 | 2026/02/27-16:26:09  349.6450    0.1150  269.8928  106.5880     7446.7339     7445.3451     7448.1228  51.960148  72.248978  -0.000152   0.000108
1 66035U 25233C   26059.79578649  .00000066  00000-0  84106-4 0  9997 | 2 66035  88.9933  54.1640 0001872  90.1944 269.9421 13.50995982 18549 | 2026/02/28-19:05:55   30.7957    0.1150  269.9206  106.5880     7446.7334     7445.3393     7448.1274  52.102655  72.146523  -0.000152   0.000109
1 66035U 25233C   26060.83267532  .00000053  00000-0  64030-4 0  9990 | 2 66035  88.9934  54.0586 0001872  90.3128 269.8237 13.50996045 18684 | 2026/03/01-19:59:03   45.2031    0.1150  269.8022  106.5880     7446.7331     7445.3391     7448.1271  52.235345  72.050635  -0.000152   0.000109
1 66035U 25233C   26061.94361977  .00000048  00000-0  55110-4 0  9994 | 2 66035  88.9936  53.9455 0001897  90.9426 269.1943 13.51004747 18837 | 2026/03/02-22:38:48   86.3508    0.1152  269.1726  106.5873     7446.7011     7445.2885     7448.1138  52.377586  71.947546  -0.000155   0.000109
1 66035U 25233C   26062.98050184  .00000026  00000-0  21026-4 0  9999 | 2 66035  88.9937  53.8401 0001899  90.8897 269.2472 13.51004813 18978 | 2026/03/03-23:31:55  100.7557    0.1151  269.2254  106.5873     7446.7009     7445.2868     7448.1150  52.509909  71.851152  -0.000155   0.000110
1 66035U 25233C   26064.16550992  .00000025  00000-0  19412-4 0  9998 | 2 66035  88.9940  53.7196 0001915  90.6908 269.4462 13.51004863 19137 | 2026/03/05-03:58:20  168.6471    0.1151  269.4243  106.5873     7446.7007     7445.2747     7448.1268  52.661082  71.740800  -0.000156   0.000111
1 66035U 25233C   26065.27645500  .00000033  00000-0  32628-4 0  9994 | 2 66035  88.9942  53.6068 0001930  90.7314 269.4058 13.51004936 19283 | 2026/03/06-06:38:05  209.7949    0.1151  269.3837  106.5873     7446.7004     7445.2632     7448.1377  52.802337  71.637147  -0.000157   0.000113
1 66035U 25233C   26066.46146302  .00000048  00000-0  56180-4 0  9997 | 2 66035  88.9944  53.4863 0001937  90.7009 269.4364 13.51005049 19448 | 2026/03/07-11:04:30  277.6862    0.1151  269.4142  106.5873     7446.7000     7445.2576     7448.1425  52.953001  71.526099  -0.000157   0.000113
1 66035U 25233C   26067.49834505  .00000042  00000-0  47013-4 0  9999 | 2 66035  88.9946  53.3810 0001953  90.6459 269.4916 13.51005063 19581 | 2026/03/08-11:57:37  292.0908    0.1151  269.4692  106.5873     7446.7000     7445.2456     7448.1543  53.084484  71.428821  -0.000158   0.000115
1 66035U 25233C   26068.60929003  .00000053  00000-0  63658-4 0  9996 | 2 66035  88.9947  53.2681 0001975  90.6261 269.5116 13.51005134 19731 | 2026/03/09-14:37:22  333.2387    0.1151  269.4890  106.5873     7446.6997     7445.2290     7448.1704  53.225189  71.324160  -0.000160   0.000116
1 66035U 25233C   26069.79429786  .00000066  00000-0  83119-4 0  9998 | 2 66035  88.9949  53.1478 0001977  90.4466 269.6911 13.51005258 19891 | 2026/03/10-19:03:47   41.1298    0.1150  269.6684  106.5873     7446.6993     7445.2271     7448.1715  53.374946  71.212410  -0.000159   0.000117
1 66035U 25233C   26070.83117966  .00000070  00000-0  89679-4 0  9991 | 2 66035  88.9950  53.0425 0001999  90.2693 269.8687 13.51005360 20032 | 2026/03/11-19:56:53   55.5343    0.1151  269.8458  106.5873     7446.6989     7445.2103     7448.1875  53.505793  71.114275  -0.000160   0.000119
1 66035U 25233C   26071.94212427  .00000069  00000-0  88095-4 0  9991 | 2 66035  88.9952  52.9297 0002013  90.0268 270.1114 13.51005489 20181 | 2026/03/12-22:36:39   96.6819    0.1151  270.0883  106.5873     7446.6984     7445.1994     7448.1974  53.645814  71.008959  -0.000161   0.000121
1 66035U 25233C   26072.97900586  .00000061  00000-0  75654-4 0  9994 | 2 66035  88.9953  52.8244 0002026  89.8724 270.2659 13.51005560 20321 | 2026/03/13-23:29:46  111.0865    0.1151  270.2427  106.5873     7446.6982     7445.1895     7448.2069  53.776287  70.910327  -0.000161   0.000123
1 66035U 25233C   26074.23807622  .00000045  00000-0  50339-4 0  9997 | 2 66035  88.9956  52.6966 0002054  89.8317 270.3070 13.51005637 20493 | 2026/03/15-05:42:49  205.7202    0.1152  270.2835  106.5873     7446.6979     7445.1683     7448.2274  53.934502  70.790439  -0.000163   0.000125
1 66035U 25233C   26075.27495758  .00000059  00000-0  73533-4 0  9991 | 2 66035  88.9958  52.5914 0002068  89.6100 270.5288 13.51005796 20635 | 2026/03/16-06:35:56  220.1246    0.1151  270.5051  106.5873     7446.6973     7445.1573     7448.2373  54.064510  70.691450  -0.000163   0.000127
1 66035U 25233C   26076.60809063  .00000050  00000-0  58137-4 0  9991 | 2 66035  88.9960  52.4562 0002099  89.6584 270.4808 13.51005916 20817 | 2026/03/17-14:35:39  341.5013    0.1151  270.4567  106.5872     7446.6968     7445.1338     7448.2599  54.231291  70.563837  -0.000166   0.000129
