# SPACE DATA - HISTORICAL TLEs
# ----------------------------
# NORAD_ID    : 61559
# OBJECT_NAME : QIANFAN-26
# --------------------------------------------------------------------+-----------------------------------------------------------------------+----------------------------------------------------------------------------------------------------------------------------------------
#                  LINE 1                                             |                 LINE 2                                                |      DERIVED PARAMETERS
# --------------------------------------------------------------------+-----------------------------------------------------------------------+----------------------------------------------------------------------------------------------------------------------------------------
# NORAD  COSPAR     TLE_EPOCH      MEANMOT1 MEANMOT2   BSTAR  #  REV  |   NORAD    INC     RAAN     ECC    ARGPER  MEANANOM   MEANMOT     REV |  CAL_DATE              LONG     ARGLAT     PERIOD        SMA         PERIGEE        APOGEE      INC_X      INC_Y      ECC_X      ECC_Y
# ------ ------   -------------- ----------  -------  ------- -- ----     -----  ------- -------- ------- -------- -------- -----------  ----   ------------------- ---------  --------  --------  ------------  ------------   ----------- ---------- ----------  ---------  ---------   
1 66037U 25233E   25302.97092303  .00000791  00000-0  32454-3 0  9990 | 2 66037  88.9942  67.0693 0014726 171.0318 189.1142 14.26143013  1806 | 2025/10/29-23:18:07  320.8537    0.1193  189.0875  100.9716     7182.7892     7172.2118     7193.3666  34.673696  81.961591  -0.000778  -0.001250
1 66037U 25233E   25305.63715637  .00000742  00000-0  30387-3 0  9997 | 2 66037  88.9946  66.7623 0015048 162.7446 197.4262 14.26147021  2186 | 2025/11/01-15:17:30  203.6079    0.1193  197.3747  100.9714     7182.7758     7171.9671     7193.5844  35.112517  81.774996  -0.000977  -0.001144
1 66037U 25233E   25307.74207177  .00000673  00000-0  27491-3 0  9991 | 2 66037  88.9950  66.5199 0015294 156.3630 203.8269 14.26150070  2484 | 2025/11/03-17:48:35  243.6754    0.1192  203.7562  100.9711     7182.7655     7171.7802     7193.7508  35.458325  81.626082  -0.001121  -0.001041
1 66037U 25233E   25308.79452780  .00000654  00000-0  26685-3 0  9992 | 2 66037  88.9951  66.3987 0015398 153.1717 207.0276 14.26151603  2638 | 2025/11/04-19:04:07  263.7087    0.1193  206.9476  100.9710     7182.7604     7171.7004     7193.8204  35.630953  81.550984  -0.001187  -0.000981
1 66037U 25233E   25309.91714612  .00000753  00000-0  30834-3 0  9993 | 2 66037  88.9952  66.2694 0015498 149.8146 210.3943 14.26153821  2791 | 2025/11/05-22:00:41  309.0775    0.1192  210.3046  100.9709     7182.7529     7171.6211     7193.8848  35.814939  81.470460  -0.001252  -0.000913
1 66037U 25233E   25311.10992619  .00000792  00000-0  32470-3 0  9993 | 2 66037  88.9953  66.1321 0015618 146.2778 213.9412 14.26155876  2965 | 2025/11/07-02:38:17   19.7812    0.1192  213.8414  100.9707     7182.7460     7171.5280     7193.9640  36.010107  81.384492  -0.001319  -0.000837
1 66037U 25233E   25312.16237725  .00000917  00000-0  37693-3 0  9991 | 2 66037  88.9954  66.0110 0015714 143.1789 217.0487 14.26158417  3115 | 2025/11/08-03:53:49   39.8135    0.1193  216.9404  100.9706     7182.7375     7171.4505     7194.0245  36.182081  81.308291  -0.001372  -0.000766
1 66037U 25233E   25314.89874303  .00000975  00000-0  40082-3 0  9992 | 2 66037  88.9956  65.6961 0015915 135.1559 225.0924 14.26163982  3506 | 2025/11/10-21:34:11  307.8964    0.1193  224.9634  100.9702     7182.7188     7171.2875     7194.1501  36.628488  81.108388  -0.001487  -0.000567
1 66037U 25233E   25316.30200145  .00001436  00000-0  59357-3 0  9995 | 2 66037  88.9957  65.5346 0015998 131.0755 229.1823 14.26169721  3709 | 2025/11/12-07:14:52   94.6046    0.1192  229.0437  100.9697     7182.6995     7171.2087     7194.1904  36.857005  81.004912  -0.001533  -0.000457
1 66037U 25233E   25317.56492884  .00001612  00000-0  66700-3 0  9993 | 2 66037  88.9959  65.3893 0016089 127.4424 232.8236 14.26174388  3883 | 2025/11/13-13:33:29  190.6403    0.1193  232.6769  100.9694     7182.6839     7171.1277     7194.2401  37.062395  80.911366  -0.001569  -0.000357
1 66037U 25233E   25318.75769189  .00001347  00000-0  55622-3 0  9996 | 2 66037  88.9960  65.2521 0016176 124.0050 236.2683 14.26176385  4050 | 2025/11/14-18:11:04  261.3406    0.1193  236.1143  100.9693     7182.6772     7171.0585     7194.2959  37.256080  80.822475  -0.001597  -0.000260
1 66037U 25233E   25319.81012694  .00001266  00000-0  52246-3 0  9995 | 2 66037  88.9961  65.1311 0016226 120.9959 239.2831 14.26179365  4202 | 2025/11/15-19:26:34  281.3698    0.1193  239.1234  100.9691     7182.6672     7171.0126     7194.3218  37.426723  80.743707  -0.001613  -0.000173
1 66037U 25233E   25321.28353232  .00001121  00000-0  46184-3 0  9999 | 2 66037  88.9963  64.9617 0016283 116.7906 243.4956 14.26182886  4418 | 2025/11/17-06:48:17   93.4102    0.1194  243.3288  100.9688     7182.6553     7170.9598     7194.3509  37.665370  80.632880  -0.001628  -0.000050
1 66037U 25233E   25322.47628690  .00000913  00000-0  37495-3 0  9997 | 2 66037  88.9964  64.8245 0016334 113.4381 246.8532 14.26184771  4583 | 2025/11/18-11:25:51  164.1096    0.1193  246.6812  100.9687     7182.6490     7170.9169     7194.3812  37.858387  80.542546  -0.001633   0.000050
1 66037U 25233E   25323.59887818  .00000754  00000-0  30871-3 0  9994 | 2 66037  88.9965  64.6954 0016367 110.2590 250.0365 14.26186277  4744 | 2025/11/19-14:22:23  209.4739    0.1193  249.8603  100.9686     7182.6440     7170.8881     7194.3998  38.039814  80.457129  -0.001630   0.000144
1 66037U 25233E   25324.65130616  .00000720  00000-0  29425-3 0  9995 | 2 66037  88.9965  64.5744 0016382 107.2950 253.0037 14.26187952  4899 | 2025/11/20-15:37:52  229.5030    0.1193  252.8243  100.9685     7182.6383     7170.8717     7194.4049  38.209642  80.376615  -0.001622   0.000232
1 66037U 25233E   25325.84405598  .00000737  00000-0  30142-3 0  9997 | 2 66037  88.9965  64.4373 0016399 103.9273 256.3745 14.26190063  5064 | 2025/11/21-20:15:26  300.2026    0.1193  256.1920  100.9683     7182.6312     7170.8525     7194.4100  38.401861  80.284955  -0.001606   0.000331
1 66037U 25233E   25326.96664282  .00000806  00000-0  33005-3 0  9996 | 2 66037  88.9965  64.3082 0016388 100.6659 259.6380 14.26191775  5220 | 2025/11/22-23:11:57  345.5674    0.1192  259.4533  100.9682     7182.6255     7170.8546     7194.3964  38.582663  80.198224  -0.001583   0.000425
1 66037U 25233E   25328.08922810  .00000795  00000-0  32560-3 0  9997 | 2 66037  88.9964  64.1791 0016400  97.5561 262.7496 14.26193850  5381 | 2025/11/24-02:08:29   30.9318    0.1193  262.5632  100.9680     7182.6185     7170.8390     7194.3980  38.763226  80.110995  -0.001557   0.000514
1 66037U 25233E   25329.28197324  .00000800  00000-0  32760-3 0  9993 | 2 66037  88.9964  64.0420 0016393  94.1803 266.1265 14.26195903  5554 | 2025/11/25-06:46:02  101.6317    0.1194  265.9391  100.9679     7182.6116     7170.8372     7194.3861  38.954808  80.018011  -0.001522   0.000608
1 66037U 25233E   25330.33439398  .00000780  00000-0  31934-3 0  9990 | 2 66037  88.9965  63.9210 0016369  91.1280 269.1789 14.26197485  5707 | 2025/11/26-08:01:31  121.6614    0.1194  268.9914  100.9678     7182.6063     7170.8491     7194.3635  39.123751  79.935656  -0.001484   0.000691
1 66037U 25233E   25331.80857885  .00000680  00000-0  28925-3 0  9993 | 2 66037  88.9936  63.7513 0016220  91.6185 268.6866 14.24064411  5917 | 2025/11/27-19:24:21  293.9925    0.1193  268.5008  101.1190     7189.7770     7178.1152     7201.4388  39.359052  79.816827  -0.001474   0.000676
1 66037U 25233E   25333.63693519  .00000600  00000-0  26169-3 0  9998 | 2 66037  88.9966  63.5427 0016394  81.9733 278.3318 14.22653119  6171 | 2025/11/29-15:17:11  234.2115    0.1192  278.1459  101.2193     7194.5311     7182.7364     7206.3258  39.650721  79.675687  -0.001351   0.000928
1 66037U 25233E   25334.76331869  .00000602  00000-0  27413-3 0  9995 | 2 66037  88.9973  63.4110 0015754  81.9646 278.3331 14.20401576  6338 | 2025/11/30-18:19:10  280.9588    0.1190  278.1544  101.3798     7202.1320     7190.7858     7213.4783  39.834071  79.584962  -0.001296   0.000895
1 66037U 25233E   25335.82032889  .00000580  00000-0  26667-3 0  9998 | 2 66037  88.9967  63.2938 0016516  75.8046 284.4978 14.19867225  6486 | 2025/12/01-19:41:16  302.6369    0.1191  284.3145  101.4179     7203.9389     7192.0408     7215.8369  39.996511  79.502778  -0.001248   0.001081
1 66037U 25233E   25337.01848580  .00000803  00000-0  37450-3 0  9994 | 2 66037  88.9964  63.1566 0016218  72.8672 287.4292 14.19429278  6653 | 2025/12/03-00:26:37   15.2975    0.1190  287.2518  101.4492     7205.4206     7193.7348     7217.1063  40.186638  79.406507  -0.001167   0.001126
1 66037U 25233E   25338.28807956  .00001117  00000-0  53174-3 0  9996 | 2 66037  88.9965  63.0131 0016099  69.5705 290.7212 14.18632812  6836 | 2025/12/04-06:54:50  113.7508    0.1190  290.5485  101.5062     7208.1172     7196.5129     7219.7216  40.385434  79.305698  -0.001089   0.001185
1 66037U 25233E   25339.91038741  .00000836  00000-0  39649-3 0  9993 | 2 66037  88.9964  62.8289 0015995  64.8524 295.4322 14.18634192  7060 | 2025/12/05-21:50:57  339.5720    0.1189  295.2665  101.5061     7208.1126     7196.5832     7219.6419  40.640139  79.175364  -0.000978   0.001266
1 66037U 25233E   25341.25055137  .00000899  00000-0  42679-3 0  9997 | 2 66037  88.9963  62.6767 0015886  60.9422 299.3357 14.18636731  7254 | 2025/12/07-06:00:47  103.5108    0.1190  299.1768  101.5059     7208.1040     7196.6532     7219.5547  40.850270  79.067040  -0.000880   0.001323
1 66037U 25233E   25342.59071336  .00000942  00000-0  44763-3 0  9999 | 2 66037  88.9963  62.5244 0015789  57.0497 303.2208 14.18639201  7440 | 2025/12/08-14:10:37  227.4498    0.1190  303.0693  101.5057     7208.0956     7196.7147     7219.4764  41.060297  78.958175  -0.000779   0.001373
1 66037U 25233E   25344.07294190  .00000709  00000-0  34328-3 0  9996 | 2 66037  88.9962  62.3563 0015197  52.3461 307.9104 14.17384187  7651 | 2025/12/10-01:45:02   42.6951    0.1189  307.7728  101.5956     7212.3499     7201.3893     7223.3105  41.291728  78.837280  -0.000635   0.001381
1 66037U 25233E   25345.13197435  .00000721  00000-0  35084-3 0  9992 | 2 66037  88.9961  62.2363 0015164  49.3042 310.9461 14.17146736  7805 | 2025/12/11-03:10:02   65.1168    0.1189  310.8147  101.6126     7213.1555     7202.2175     7224.0935  41.456708  78.750538  -0.000557   0.001410
1 66037U 25233E   25346.75623477 -.01886726  00000-0 -11377+1 0  9997 | 2 66037  88.9937  62.0462 0019438  87.5892 272.7518 14.10425270  8031 | 2025/12/12-18:08:58  291.5509    0.1185  272.5293  102.0969     7236.0538     7221.9884     7250.1193  41.716638  78.610437  -0.001677   0.000983
1 66037U 25233E   25347.95906753  .00000105  00000-0  46241-4 0  9999 | 2 66037  88.9961  61.9164 0014919  40.8968 319.3336 14.15437854  8201 | 2025/12/13-23:01:03    5.9967    0.1188  319.2220  101.7353     7218.9600     7208.1901     7229.7300  41.895748  78.517846  -0.000331   0.001455
1 66037U 25233E   25349.30225451  .00000476  00000-0  23639-3 0  9995 | 2 66037  88.9961  61.7646 0014781  36.7823 323.4375 14.15439366  8394 | 2025/12/15-07:15:14  131.0303    0.1188  323.3365  101.7352     7218.9549     7208.2846     7229.6252  42.103626  78.406572  -0.000220   0.001462
1 66037U 25233E   25350.64597192  .00000400  00000-0  20118-3 0  9994 | 2 66037  88.9959  61.6124 0014838  32.7946 327.4159 14.14452632  8581 | 2025/12/16-15:30:11  256.2545    0.1188  327.3242  101.8062     7222.3118     7211.5954     7233.0283  42.311661  78.294275  -0.000114   0.001479
1 66037U 25233E   25351.84925309  .00000099  00000-0  45144-4 0  9993 | 2 66037  88.9960  61.4769 0014763  30.2764 329.9272 14.13521545  8755 | 2025/12/17-20:22:55  330.7641    0.1187  329.8423  101.8732     7225.4830     7214.8161     7236.1500  42.496750  78.194081  -0.000045   0.001476
1 66037U 25233E   25352.98225184  .00000110  00000-0  51599-4 0  9998 | 2 66037  88.9984  61.3533 0015507  23.4319 336.7571 14.12622523  8919 | 2025/12/18-23:34:26   19.8986    0.1188  336.6869  101.9381     7228.5484     7217.3390     7239.7577  42.666484  78.104330   0.000141   0.001544
1 66037U 25233E   25354.11607022  .00000108  00000-0  51541-4 0  9994 | 2 66037  88.9955  61.2218 0014710  23.6147 336.5710 14.11892978  9075 | 2025/12/20-02:47:08   69.3256    0.1186  336.5039  101.9907     7231.0382     7220.4013     7241.6751  42.844233  78.003658   0.000132   0.001465
1 66037U 25233E   25355.25036543  .00000104  00000-0  50501-4 0  9995 | 2 66037  88.9957  61.0946 0014393  19.9955 340.1790 14.10779194  9235 | 2025/12/21-06:00:31  118.9283    0.1185  340.1230  102.0713     7234.8435     7224.4304     7245.2567  43.017397  77.908524   0.000223   0.001422
1 66037U 25233E   25356.52724862 -.02078520  00000-0 -13372+1 0  9996 | 2 66037  88.9947  60.9516 0016869  20.4339 339.7515 14.07275754  9416 | 2025/12/22-12:39:14  219.9969    0.1184  339.6845  102.3254     7246.8461     7234.6214     7259.0708  43.211223  77.800044   0.000253   0.001668
1 66037U 25233E   25358.51714505 -.02112450  00000-0 -14104+1 0  9995 | 2 66037  88.9952  60.7274 0013996 359.2264   0.8893 14.05303347  9692 | 2025/12/24-12:24:41  218.6148    0.1182    0.8918  102.4690     7253.6254     7243.4732     7263.7775  43.515570  77.630798   0.000701   0.001212
1 66037U 25233E   25360.72174529  .00000062  00000-0  28550-4 0  9992 | 2 66037  88.9949  60.4824 0014129   5.3421 354.7910 14.07038403 10007 | 2025/12/26-17:19:18  294.6715    0.1184  354.7763  102.3426     7247.6610     7237.4208     7257.9013  43.846977  77.443753   0.000579   0.001289
1 66037U 25233E   25361.78848088  .00000317  00000-0  18153-3 0  9997 | 2 66037  88.9949  60.3634 0014020   2.1690 357.9551 14.07039718 10150 | 2025/12/27-18:55:24  319.8757    0.1184  357.9494  102.3425     7247.6565     7237.4953     7257.8177  44.007728  77.352518   0.000647   0.001244
1 66037U 25233E   25362.92633173  .00000361  00000-0  20778-3 0  9996 | 2 66037  88.9948  60.2363 0013897 358.7825   1.3321 14.07040739 10316 | 2025/12/28-22:13:55   10.7601    0.1183    1.3358  102.3425     7247.6530     7237.5810     7257.7251  44.179162  77.254618   0.000715   0.001191
1 66037U 25233E   25364.13529757  .00000374  00000-0  21534-3 0  9998 | 2 66037  88.9946  60.1013 0013758 355.1430   4.9617 14.07041659 10481 | 2025/12/30-03:14:49   87.3244    0.1184    4.9754  102.3424     7247.6499     7237.6785     7257.6212  44.360967  77.150136   0.000784   0.001130
1 66037U 25233E   25365.27314710  .00000427  00000-0  24727-3 0  9991 | 2 66037  88.9945  59.9741 0013625 351.6982   8.3973 14.07042737 10649 | 2025/12/31-06:33:19  138.2081    0.1183    8.4201  102.3423     7247.6462     7237.7712     7257.5211  44.532085  77.051375   0.000845   0.001069
1 66037U 25233E   26001.62434242  .00000458  00000-0  26615-3 0  9993 | 2 66037  88.9943  59.8231 0013453 347.5661  12.5188 14.07043917 10834 | 2026/01/01-14:59:03  266.1318    0.1184   12.5523  102.3422     7247.6421     7237.8919     7257.3924  44.734894  76.933573   0.000911   0.000990
1 66037U 25233E   26002.69107492  .00000410  00000-0  23731-3 0  9999 | 2 66037  88.9941  59.7039 0013323 344.2098  15.8668 14.07044538 10986 | 2026/01/02-16:35:08  291.3344    0.1184   15.9086  102.3422     7247.6400     7237.9839     7257.2960  44.894752  76.840166   0.000960   0.000924
1 66037U 25233E   26003.90003762  .00000370  00000-0  21319-3 0  9994 | 2 66037  88.9940  59.5688 0013175 340.3686  19.6988 14.07045233 11158 | 2026/01/03-21:36:03    7.8969    0.1184   19.7498  102.3421     7247.6376     7238.0888     7257.1863  45.075760  76.734007   0.001010   0.000846
1 66037U 25233E   26005.10899981  .00000291  00000-0  16583-3 0  9993 | 2 66037  88.9938  59.4337 0013025 336.4343  23.6241 14.07045741 11325 | 2026/01/05-02:36:57   84.4590    0.1183   23.6840  102.3421     7247.6358     7238.1958     7257.0759  45.256467  76.627336   0.001056   0.000763
1 66037U 25233E   26006.24684601  .00000254  00000-0  14354-3 0  9993 | 2 66037  88.9937  59.3065 0012894 332.6608  27.3895 14.07046347 11482 | 2026/01/06-05:55:27  135.3405    0.1184   27.4576  102.3420     7247.6338     7238.2887     7256.9789  45.426422  76.526589   0.001094   0.000683
1 66037U 25233E   26007.45580726  .00000208  00000-0  11634-3 0  9997 | 2 66037  88.9936  59.1713 0012757 328.5387  31.5032 14.07046823 11653 | 2026/01/07-10:56:21  211.9017    0.1184   31.5797  102.3420     7247.6321     7238.3863     7256.8779  45.606823  76.419098   0.001129   0.000593
1 66037U 25233E   26008.59365272  .00000213  00000-0  11912-3 0  9995 | 2 66037  88.9935  59.0441 0012640 324.5857  35.4485 14.07047458 11816 | 2026/01/08-14:14:51  262.7825    0.1183   35.5326  102.3420     7247.6299     7238.4689     7256.7909  45.776314  76.317574   0.001158   0.000507
1 66037U 25233E   26009.66038275  .00000160  00000-0  87586-4 0  9996 | 2 66037  88.9934  58.9248 0012532 320.8005  39.2269 14.07047672 11968 | 2026/01/09-15:50:57  287.9828    0.1183   39.3178  102.3419     7247.6292     7238.5465     7256.7119  45.935069  76.222009   0.001180   0.000423
1 66037U 25233E   26010.72715678  .00000136  00000-0  74220-4 0  9998 | 2 66037  88.9936  58.8043 0011898 317.7938  42.2328 14.06297203 12110 | 2026/01/10-17:27:06  313.1943    0.1183   42.3245  102.3966     7250.2074     7241.5811     7258.8337  46.095375  76.125404   0.001140   0.000340
1 66037U 25233E   26012.29435220  .00000121  00000-0  69427-4 0  9991 | 2 66037  88.9936  58.6322 0011763 311.7299  48.2875 14.02856849 12333 | 2026/01/12-07:03:52  159.1106    0.1181   48.3882  102.6477     7262.0562     7253.5138     7270.5985  46.323826  75.986604   0.001157   0.000212
1 66037U 25233E   26013.43605983  .00000022  00000-0  57579-5 0  9999 | 2 66037  88.9931  58.5041 0011809 307.6155  52.3953 14.02182918 12490 | 2026/01/13-10:27:55  211.3854    0.1181   52.5026  102.6970     7264.3829     7255.8044     7272.9614  46.493337  75.882419   0.001174   0.000126
1 66037U 25233E   26014.65041676 -.02120161  00000-0 -16326+1 0  9998 | 2 66037  88.9923  58.3697 0011433 322.8872  37.1514 13.97296194 12662 | 2026/01/14-15:36:36  289.8574    0.1178   37.2306  103.0562     7281.3100     7272.9853     7289.6348  46.670789  75.772468   0.001066   0.000415
1 66037U 25233E   26015.79500081  .00000051  00000-0  25965-4 0  9998 | 2 66037  88.9928  58.2433 0011686 297.7485  62.2508 13.98404346 12825 | 2026/01/15-19:04:48  343.2015    0.1179   62.3694  102.9745     7277.4629     7268.9584     7285.9673  46.838099  75.669749   0.001166  -0.000082
1 66037U 25233E   26016.94004832  .00000066  00000-0  37208-4 0  9998 | 2 66037  88.9922  58.1180 0011369 292.7284  67.2692 13.97532955 12980 | 2026/01/16-22:33:40   36.6742    0.1178   67.3894  103.0387     7280.4877     7272.2105     7288.7648  47.003152  75.566628   0.001122  -0.000181
1 66037U 25233E   26018.58846317  .00000084  00000-0  51965-4 0  9998 | 2 66037  88.9925  57.9357 0011690 286.9108  73.0786 13.95312853 13210 | 2026/01/18-14:07:23  271.9188    0.1176   73.2068  103.2027     7288.2083     7279.6884     7296.7282  47.243506  75.416949   0.001128  -0.000306
1 66037U 25233E   26019.66422687  .00000062  00000-0  36655-4 0  9993 | 2 66037  88.9911  57.8202 0011977 286.6633  73.3228 13.94631161 13366 | 2026/01/19-15:56:29  300.3729    0.1176   73.4543  103.2531     7290.5831     7281.8512     7299.3150  47.394694  75.320375   0.001154  -0.000320
1 66037U 25233E   26020.95695606 -.02080997  00000-0 -18493+1 0  9995 | 2 66037  88.9919  57.6770 0015654 256.9447 102.9978 13.88932766 13540 | 2026/01/20-22:58:01   47.2164    0.1172  103.1725  103.6767     7310.5103     7299.0664     7321.9542  47.583223  75.202361   0.001100  -0.001114
1 66037U 25233E   26023.83748708  .00000083  00000-0  59149-4 0  9998 | 2 66037  88.9889  57.3648 0010996 268.7489  91.2423 13.87686305 13941 | 2026/01/23-20:05:58    7.3102    0.1172   91.3683  103.7699     7314.8873     7306.8439     7322.9308  47.990668  74.939443   0.000913  -0.000613
1 66037U 25233E   26024.91950473  .00000024  00000-0  94489-5 0  9994 | 2 66037  88.9921  57.2458 0011240 261.4955  98.4942 13.87071710 14097 | 2026/01/24-22:04:05   38.0236    0.1171   98.6216  103.8158     7317.0479     7308.8235     7325.2723  48.147941  74.842299   0.000845  -0.000741
1 66037U 25233E   26026.07395674  .00000008  00000-0 -40935-5 0  9999 | 2 66037  88.9925  57.1285 0011028 255.4287 104.5661 13.86107117 14258 | 2026/01/26-01:46:29   94.8764    0.1171  104.6884  103.8881     7320.4421     7312.3692     7328.5151  48.301279  74.743906   0.000746  -0.000812
1 66037U 25233E   26027.37316854 -.01971653  00000-0 -19880+1 0  9991 | 2 66037  88.9913  56.9807 0008835 221.9712 138.0781 13.81317335 14430 | 2026/01/27-08:57:21  203.9665    0.1169  138.1457  104.2483     7337.3550     7330.8725     7343.8376  48.493273  74.618053   0.000137  -0.000873
1 66037U 25233E   26028.96529842  .00000026  00000-0  11878-4 0  9997 | 2 66037  88.9916  56.8097 0011374 250.8785 109.1153 13.83084229 14657 | 2026/01/28-23:10:01   58.9290    0.1169  109.2384  104.1151     7331.1047     7322.7663     7339.4431  48.715920  74.473244   0.000695  -0.000900
1 66037U 25233E   26031.06480225 -.02153043  00000-0 -22594+1 0  9998 | 2 66037  88.9917  56.5678 0009413 265.6485  94.3607 13.79304507 14942 | 2026/01/31-01:33:18   97.0463    0.1167   94.4682  104.4004     7344.4916     7337.5782     7351.4050  49.029962  74.266988   0.000744  -0.000577
1 66037U 25233E   26033.67645269 -.01782739  00000-0 -21005+1 0  9993 | 2 66037  88.9910  56.3040 0013808 226.8120 133.1890 13.72184845 15305 | 2026/02/02-16:14:05  320.0866    0.1162  133.3042  104.9421     7369.8746     7359.6982     7380.0509  49.370992  74.039876   0.000313  -0.001345
1 66037U 25233E   26035.06182204 -.02150989  00000-0 -26530+1 0  9998 | 2 66037  88.9908  56.1610 0012021 234.2065 125.7980 13.69514702 15492 | 2026/02/04-01:29:01  100.3245    0.1161  125.9096  105.1467     7379.4508     7370.5800     7388.3216  49.555517  73.916258   0.000418  -0.001127
1 66037U 25233E   26037.03498975 -.02149528  00000-0 -28363+1 0  9995 | 2 66037  88.9944  55.9530 0012510 235.9952 124.0019 13.65355595 15760 | 2026/02/06-00:50:23   92.8252    0.1158  124.1206  105.4670     7394.4293     7385.1788     7403.6797  49.825542  73.738854   0.000468  -0.001160
1 66037U 25233E   26038.35355646 -.02108525  00000-0 -29475+1 0  9995 | 2 66037  88.9902  55.8148 0017283 215.8428 144.1571 13.61659156 15947 | 2026/02/07-08:29:07  208.9442    0.1157  144.2729  105.7533     7407.8054     7395.0025     7420.6084  50.000898  73.614984   0.000050  -0.001728
1 66037U 25233E   26039.82302792  .00000007  00000-0 -74525-5 0  9996 | 2 66037  88.9916  55.6594 0013086 205.8679 154.1825 13.61349795 16140 | 2026/02/08-19:45:09   19.5072    0.1156  154.2477  105.7774     7408.9277     7399.2323     7418.6230  50.201166  73.480255  -0.000193  -0.001294
1 66037U 25233E   26040.92582095  .00000014  00000-0  22715-5 0  9996 | 2 66037  88.9867  55.5503 0013184 198.8733 161.1937 13.59906544 16291 | 2026/02/09-22:13:10   57.6922    0.1156  161.2423  105.8896     7414.1687     7404.3939     7423.9436  50.338221  73.380490  -0.000354  -0.001270
1 66037U 25233E   26042.25138530  .00000028  00000-0  21711-4 0  9994 | 2 66037  88.9915  55.4080 0013701 197.8563 162.2112 13.58161260 16473 | 2026/02/11-06:01:59  176.3437    0.1154  162.2591  106.0257     7420.5190     7410.3522     7430.6859  50.523038  73.259195  -0.000395  -0.001312
1 66037U 25233E   26043.50409418  .00000076  00000-0  87956-4 0  9995 | 2 66037  88.9915  55.2786 0014195 193.8253 166.2516 13.57811756 16646 | 2026/02/12-12:05:53  268.6736    0.1155  166.2902  106.0530     7421.7923     7411.2571     7432.3276  50.688362  73.144904  -0.000506  -0.001326
1 66037U 25233E   26044.75795210  .00000083  00000-0  10211-3 0  9998 | 2 66037  88.9852  55.1403 0017331 184.0220 176.0797 13.55010505 16812 | 2026/02/13-18:11:27    1.4118    0.1152  176.0932  106.2722     7432.0177     7419.1372     7444.8981  50.861170  73.017171  -0.000888  -0.001488
1 66037U 25233E   26045.88007068  .00000057  00000-0  69042-4 0  9998 | 2 66037  88.9927  55.4782 0001798  88.9466 271.1891 13.50995525 16969 | 2026/02/14-21:07:18   46.1086    0.1151  271.1685  106.5881     7446.7350     7445.3961     7448.0740  50.433922  73.322031  -0.000146   0.000105
1 66037U 25233E   26046.97855671  .00000061  00000-0  76788-4 0  9990 | 2 66037  88.9915  54.9232 0014861 183.0024 177.1040 13.50357792 17119 | 2026/02/15-23:29:07   83.2306    0.1150  177.1126  106.6384     7449.0794     7438.0093     7460.1495  51.141094  72.829084  -0.000789  -0.001259
1 66037U 25233E   26048.09003552  .00000068  00000-0  87160-4 0  9991 | 2 66037  88.9916  54.8100 0014963 179.7642 180.3518 13.50357949 17260 | 2026/02/17-02:09:39  124.5621    0.1149  180.3507  106.6384     7449.0788     7437.9328     7460.2249  51.284941  72.727984  -0.000867  -0.001219
1 66037U 25233E   26049.57102227  .00000052  00000-0  60734-4 0  9995 | 2 66037  88.9916  54.6590 0014302 174.0848 186.0475 13.51810356 17468 | 2026/02/18-13:42:16  299.3118    0.1151  186.0303  106.5238     7443.7423     7433.0962     7454.3883  51.476434  72.592573  -0.000943  -0.001075
1 66037U 25233E   26050.82934586  .00000042  00000-0  45066-4 0  9996 | 2 66037  88.9918  54.5305 0014395 170.4587 189.6840 13.51810389 17635 | 2026/02/19-19:54:15   33.6666    0.1150  189.6563  106.5238     7443.7422     7433.0269     7454.4574  51.639227  72.477105  -0.001018  -0.001018
1 66037U 25233E   26051.93993444  .00000044  00000-0  50072-4 0  9992 | 2 66037  88.9887  54.4213 0017754 168.8326 191.3222 13.50662769 17787 | 2026/02/20-22:33:30   74.6703    0.1149  191.2823  106.6143     7447.9581     7434.7350     7461.1812  51.775464  72.376032  -0.001293  -0.001217
1 66037U 25233E   26053.05172876  .00000046  00000-0  52743-4 0  9994 | 2 66037  88.9919  54.3042 0015352 164.2846 195.8785 13.49974263 17934 | 2026/02/22-01:14:29  116.1209    0.1151  195.8305  106.6687     7450.4902     7439.0522     7461.9282  51.925143  72.272663  -0.001200  -0.000958
1 66037U 25233E   26054.08872630  .00000059  00000-0  72255-4 0  9997 | 2 66037  88.9925  54.1973 0015810 164.6913 195.4719 13.50970317 18077 | 2026/02/23-02:07:45  130.5689    0.1150  195.4237  106.5901     7446.8277     7435.0542     7458.6011  52.060247  72.176144  -0.001231  -0.000993
1 66037U 25233E   26055.27374689  .00000070  00000-0  89033-4 0  9995 | 2 66037  88.9923  54.0779 0015541 161.0683 199.1050 13.51001741 18238 | 2026/02/24-06:34:11  198.4536    0.1151  199.0468  106.5876     7446.7122     7435.1393     7458.2851  52.210426  72.067336  -0.001271  -0.000895
1 66037U 25233E   26056.45877689  .00000080  00000-0  10519-3 0  9997 | 2 66037  88.9923  53.9572 0014123 156.7726 203.4066 13.50971894 18398 | 2026/02/25-11:00:38  266.3472    0.1150  203.3424  106.5899     7446.8219     7436.3047     7457.3390  52.362128  71.957189  -0.001214  -0.000722
1 66037U 25233E   26058.08808154 -.00243788  00000-0 -39179+0 0  9994 | 2 66037  88.9940  53.7943 0008540 150.1296 210.0344 13.50464492 18612 | 2026/02/27-02:06:50  134.6809    0.1151  209.9855  106.6300     7448.6871     7442.3259     7455.0482  52.567505  71.809397  -0.000781  -0.000346
1 66037U 25233E   26059.79036502 -.01907431  00000-0 -33488+1 0  9994 | 2 66037  88.9924  53.6180 0004216 154.4165 205.7194 13.47545086 18848 | 2026/02/28-18:58:07   29.3852    0.1149  205.6984  106.8610     7459.4414     7456.2965     7462.5863  52.787265  71.646018  -0.000372  -0.000198
1 66037U 25233E   26061.79075199 -.02058278  00000-0 -35247+1 0  9994 | 2 66037  88.9920  53.4132 0004845 155.5036 204.6345 13.48769001 19119 | 2026/03/02-18:58:40   31.6988    0.1150  204.6114  106.7640     7454.9281     7451.3162     7458.5400  53.042783  71.456555  -0.000424  -0.000234
1 66037U 25233E   26062.90220481  .00000067  00000-0  84412-4 0  9995 | 2 66037  88.9932  53.3012 0002031  93.9787 266.1596 13.51015287 19262 | 2026/03/03-21:39:10   73.0291    0.1151  266.1364  106.5865     7446.6624     7445.1500     7448.1748  53.183080  71.353694  -0.000171   0.000110
1 66037U 25233E   26064.16126622  .00000057  00000-0  69653-4 0  9996 | 2 66037  88.9934  53.1731 0002049  93.6042 266.5343 13.51015327 19438 | 2026/03/05-03:52:13  167.6601    0.1151  266.5109  106.5865     7446.6623     7445.1364     7448.1881  53.342597  71.234771  -0.000171   0.000112
1 66037U 25233E   26065.27220285  .00000017  00000-0  77696-5 0  9992 | 2 66037  88.9936  53.0602 0002072  93.3814 266.7574 13.51015251 19586 | 2026/03/06-06:31:58  208.8049    0.1151  266.7337  106.5865     7446.6625     7445.1196     7448.2055  53.482980  71.129682  -0.000173   0.000115
1 66037U 25233E   26066.45720192  .00000015  00000-0  47621-5 0  9998 | 2 66037  88.9939  52.9397 0002090  92.9097 267.2293 13.51015260 19748 | 2026/03/07-10:58:22  276.6929    0.1151  267.2054  106.5865     7446.6625     7445.1062     7448.2189  53.632637  71.017283  -0.000173   0.000117
1 66037U 25233E   26067.49407600  .00000046  00000-0  52008-4 0  9997 | 2 66037  88.9940  52.8343 0002109  92.6589 267.4804 13.51015390 19883 | 2026/03/08-11:51:28  291.0946    0.1152  267.4563  106.5865     7446.6620     7445.0915     7448.2325  53.763248  70.918581  -0.000174   0.000119
1 66037U 25233E   26068.53095011  .00000054  00000-0  65025-4 0  9994 | 2 66037  88.9942  52.7289 0002134  92.3603 267.7792 13.51015447 20025 | 2026/03/09-12:44:34  305.4965    0.1151  267.7548  106.5865     7446.6618     7445.0727     7448.2509  53.893738  70.819719  -0.000175   0.000122
1 66037U 25233E   26069.79001126  .00000088  00000-0  11742-3 0  9990 | 2 66037  88.9943  52.6009 0002147  92.0061 268.1336 13.51015669 20197 | 2026/03/10-18:57:36   40.1273    0.1151  268.1090  106.5865     7446.6610     7445.0622     7448.2598  54.051877  70.699222  -0.000175   0.000124
1 66037U 25233E   26070.90094752  .00000078  00000-0  10251-3 0  9995 | 2 66037  88.9945  52.4881 0002169  91.6066 268.5334 13.51015766 20346 | 2026/03/11-21:37:21   81.2719    0.1152  268.5086  106.5865     7446.6607     7445.0455     7448.2758  54.191082  70.592830  -0.000176   0.000127
1 66037U 25233E   26071.93782127  .00000060  00000-0  74607-4 0  9996 | 2 66037  88.9946  52.3827 0002184  91.1801 268.9600 13.51015813 20483 | 2026/03/12-22:30:27   95.6737    0.1151  268.9350  106.5865     7446.6605     7445.0341     7448.2868  54.320912  70.493101  -0.000176   0.000130
1 66037U 25233E   26072.97469494  .00000062  00000-0  77278-4 0  9999 | 2 66037  88.9948  52.2774 0002202  90.7047 269.4356 13.51015911 20622 | 2026/03/13-23:23:33  110.0753    0.1151  269.4104  106.5865     7446.6601     7445.0204     7448.2999  54.450497  70.393308  -0.000176   0.000133
1 66037U 25233E   26074.23375566  .00000046  00000-0  52256-4 0  9997 | 2 66037  88.9950  52.1496 0002229  90.3455 269.7951 13.51015984 20795 | 2026/03/15-05:36:36  204.7057    0.1151  269.7696  106.5865     7446.6598     7445.0000     7448.3197  54.607499  70.271837  -0.000177   0.000136
1 66037U 25233E   26075.27063833  .00000038  00000-0  39530-4 0  9994 | 2 66037  88.9952  52.0444 0002248  90.0163 270.1246 13.51001486 20934 | 2026/03/16-06:29:43  219.1103    0.1151  270.0988  106.5876     7446.7131     7445.0391     7448.3871  54.736555  70.171612  -0.000177   0.000138
1 66037U 25233E   26076.60377565  .00000020  00000-0  11866-4 0  9995 | 2 66037  88.9955  51.9090 0002285  89.7091 270.4322 13.51001536 21113 | 2026/03/17-14:29:26  340.4888    0.1151  270.4060  106.5876     7446.7129     7445.0114     7448.4145  54.902415  70.042301  -0.000179   0.000142
