# SPACE DATA - HISTORICAL TLEs
# ----------------------------
# NORAD_ID    : 61559
# OBJECT_NAME : QIANFAN-26
# --------------------------------------------------------------------+-----------------------------------------------------------------------+----------------------------------------------------------------------------------------------------------------------------------------
#                  LINE 1                                             |                 LINE 2                                                |      DERIVED PARAMETERS
# --------------------------------------------------------------------+-----------------------------------------------------------------------+----------------------------------------------------------------------------------------------------------------------------------------
# NORAD  COSPAR     TLE_EPOCH      MEANMOT1 MEANMOT2   BSTAR  #  REV  |   NORAD    INC     RAAN     ECC    ARGPER  MEANANOM   MEANMOT     REV |  CAL_DATE              LONG     ARGLAT     PERIOD        SMA         PERIGEE        APOGEE      INC_X      INC_Y      ECC_X      ECC_Y
# ------ ------   -------------- ----------  -------  ------- -- ----     -----  ------- -------- ------- -------- -------- -----------  ----   ------------------- ---------  --------  --------  ------------  ------------   ----------- ---------- ----------  ---------  ---------   
1 66042U 25233K   25302.97037297  .00000742  00000-0  30363-3 0  9990 | 2 66042  88.9942  67.0692 0015160 172.0481 188.0956 14.26205513  1801 | 2025/10/29-23:17:20  320.6575    0.1193  188.0712  100.9672     7182.5794     7171.6906     7193.4682  34.673839  81.961531  -0.000778  -0.001301
1 66042U 25233K   25305.63648973  .00000737  00000-0  30142-3 0  9994 | 2 66042  88.9947  66.7622 0015483 163.6750 196.4945 14.26209539  2183 | 2025/11/01-15:16:32  203.3686    0.1192  196.4442  100.9669     7182.5659     7171.4451     7193.6866  35.112700  81.775027  -0.000986  -0.001194
1 66042U 25233K   25307.74131339  .00000651  00000-0  26551-3 0  9995 | 2 66042  88.9950  66.5198 0015721 157.2855 202.9038 14.26212386  2486 | 2025/11/03-17:47:29  243.4024    0.1193  202.8338  100.9667     7182.5563     7171.2646     7193.8480  35.458468  81.626020  -0.001135  -0.001088
1 66042U 25233K   25308.79372353  .00000637  00000-0  25963-3 0  9994 | 2 66042  88.9951  66.3986 0015835 154.0828 206.1162 14.26213892  2635 | 2025/11/04-19:02:57  263.4188    0.1193  206.0365  100.9666     7182.5512     7171.1777     7193.9248  35.631095  81.550922  -0.001204  -0.001028
1 66042U 25233K   25309.91629295  .00000742  00000-0  30330-3 0  9990 | 2 66042  88.9952  66.2693 0015932 150.7064 209.5026 14.26216085  2793 | 2025/11/05-21:59:27  308.7696    0.1192  209.4128  100.9665     7182.5439     7171.1007     7193.9871  35.815081  81.470397  -0.001273  -0.000958
1 66042U 25233K   25311.10902115  .00000779  00000-0  31888-3 0  9998 | 2 66042  88.9953  66.1320 0016057 147.1323 213.0872 14.26218093  2966 | 2025/11/07-02:36:59   19.4541    0.1192  212.9869  100.9663     7182.5371     7171.0041     7194.0701  36.010249  81.384430  -0.001343  -0.000881
1 66042U 25233K   25312.16142648  .00000896  00000-0  36771-3 0  9998 | 2 66042  88.9954  66.0108 0016159 144.0083 216.2202 14.26220545  3117 | 2025/11/08-03:52:27   39.4695    0.1193  216.1110  100.9662     7182.5289     7170.9227     7194.1352  36.182365  81.308165  -0.001399  -0.000808
1 66042U 25233K   25314.89767358  .00000948  00000-0  38925-3 0  9992 | 2 66042  88.9957  65.6960 0016358 135.9621 224.2879 14.26225909  3500 | 2025/11/10-21:32:38  307.5088    0.1193  224.1572  100.9658     7182.5109     7170.7617     7194.2600  36.628671  81.108416  -0.001520  -0.000604
1 66042U 25233K   25316.30087121  .00001416  00000-0  58442-3 0  9990 | 2 66042  88.9957  65.5345 0016448 131.8583 228.4017 14.26231601  3706 | 2025/11/12-07:13:15   94.1945    0.1192  228.2609  100.9654     7182.4918     7170.6780     7194.3055  36.857146  81.004848  -0.001570  -0.000492
1 66042U 25233K   25317.56374404  .00001581  00000-0  65320-3 0  9998 | 2 66042  88.9959  65.3893 0016543 128.2026 232.0660 14.26236152  3882 | 2025/11/13-13:31:47  190.2100    0.1193  231.9167  100.9650     7182.4765     7170.5945     7194.3585  37.062395  80.911366  -0.001608  -0.000389
1 66042U 25233K   25318.61613674  .00001337  00000-0  55129-3 0  9995 | 2 66042  88.9960  65.2682 0016622 125.1842 235.0911 14.26237761  4036 | 2025/11/14-14:47:14  210.2231    0.1193  234.9351  100.9649     7182.4711     7170.5324     7194.4098  37.233367  80.832941  -0.001635  -0.000302
1 66042U 25233K   25319.80884522  .00001253  00000-0  51617-3 0  9994 | 2 66042  88.9962  65.1311 0016679 121.7423 238.5399 14.26241036  4202 | 2025/11/15-19:24:44  280.9040    0.1193  238.3770  100.9647     7182.4601     7170.4805     7194.4397  37.426765  80.743798  -0.001656  -0.000200
1 66042U 25233K   25321.28218705  .00001101  00000-0  45279-3 0  9992 | 2 66042  88.9963  64.9616 0016742 117.5223 242.7675 14.26244485  4418 | 2025/11/17-06:46:20   92.9211    0.1194  242.5971  100.9645     7182.4485     7170.4237     7194.4734  37.665511  80.632814  -0.001673  -0.000073
1 66042U 25233K   25322.47489020  .00000894  00000-0  36647-3 0  9991 | 2 66042  88.9964  64.8244 0016792 114.1149 246.1803 14.26246377  4581 | 2025/11/18-11:23:50  163.6016    0.1193  246.0044  100.9643     7182.4422     7170.3814     7194.5029  37.858528  80.542480  -0.001679   0.000031
1 66042U 25233K   25323.59743308  .00000755  00000-0  30863-3 0  9997 | 2 66042  88.9965  64.6953 0016834 110.9128 249.3870 14.26247910  4746 | 2025/11/19-14:20:18  208.9480    0.1194  249.2066  100.9642     7182.4370     7170.3461     7194.5279  38.039954  80.457062  -0.001678   0.000129
1 66042U 25233K   25324.64981569  .00000711  00000-0  29007-3 0  9997 | 2 66042  88.9965  64.5743 0016849 107.9272 252.3760 14.26249545  4898 | 2025/11/20-15:35:44  228.9606    0.1193  252.1921  100.9641     7182.4315     7170.3299     7194.5332  38.209782  80.376548  -0.001670   0.000220
1 66042U 25233K   25327.46112925  .00000608  00000-0  26998-3 0  9993 | 2 66042  88.9964  64.2523 0016804 101.3234 258.9846 14.21681477  5298 | 2025/11/23-11:04:01  164.1217    0.1191  258.7957  101.2885     7197.8088     7185.7136     7209.9040  38.660846  80.160453  -0.001627   0.000419
1 66042U 25233K   25328.79966829  .00000591  00000-0  27371-3 0  9997 | 2 66042  88.9965  64.0987 0017055  96.9359 263.3771 14.19474304  5481 | 2025/11/24-19:11:31  287.4636    0.1189  263.1830  101.4460     7205.2682     7192.9796     7217.5568  38.875647  80.056612  -0.001613   0.000554
1 66042U 25233K   25329.92793066  .00000606  00000-0  28441-3 0  9990 | 2 66042  88.9981  63.9769 0016437  86.0354 274.2714 14.18824763  5646 | 2025/11/25-22:16:13  334.8782    0.1189  274.0835  101.4924     7207.4671     7195.6202     7219.3140  39.046446  79.975227  -0.001424   0.000822
1 66042U 25233K   25330.98701667  .00000539  00000-0  26545-3 0  9992 | 2 66042  88.9967  63.8509 0017062  91.5730 268.7413 14.16130962  5794 | 2025/11/26-23:41:18  357.3115    0.1188  268.5458  101.6855     7216.6044     7204.2914     7228.9173  39.221609  79.887909  -0.001552   0.000710
1 66042U 25233K   25333.81871442  .00000445  00000-0  24004-3 0  9990 | 2 66042  88.9966  63.5312 0017463  82.9922 277.3248 14.10877242  6194 | 2025/11/29-19:38:56  299.8308    0.1185  277.1263  102.0642     7234.5084     7221.8747     7247.1420  39.666712  79.667727  -0.001457   0.000963
1 66042U 25233K   25335.23835654  .00000466  00000-0  26508-3 0  9997 | 2 66042  88.9891  63.3646 0020285  95.1521 265.1978 14.08026050  6393 | 2025/12/01-05:43:14   92.4349    0.1183  264.9662  102.2708     7244.2714     7229.5764     7258.9664  39.894833  79.545347  -0.001888   0.000743
1 66042U 25233K   25336.51776916  .00000668  00000-0  38573-3 0  9993 | 2 66042  88.9965  63.2313 0017565  75.6791 284.6341 14.07786124  6578 | 2025/12/02-12:25:35  194.4545    0.1183  284.4392  102.2883     7245.0945     7232.3685     7257.8205  40.083122  79.458923  -0.001324   0.001154
1 66042U 25233K   25337.58464321  .00000688  00000-0  40871-3 0  9991 | 2 66042  88.9965  63.1101 0017288  73.0246 287.2829 14.06287590  6720 | 2025/12/03-14:01:53  219.7076    0.1182  287.0936  102.3973     7250.2405     7237.7063     7262.7747  40.251114  79.373955  -0.001246   0.001198
1 66042U 25233K   25338.65300946  .00000790  00000-0  48665-3 0  9995 | 2 66042  88.9967  62.9937 0017520  70.0859 290.2208 14.04433147  6872 | 2025/12/04-15:40:20  245.4897    0.1182  290.0323  102.5325     7256.6213     7243.9077     7269.3349  40.412375  79.292197  -0.001197   0.001280
1 66042U 25233K   25339.79354344 -.02048453  00000-0 -15167+1 0  9992 | 2 66042  88.9956  62.8676 0017227  65.4000 294.8971 13.99338174  7032 | 2025/12/05-19:02:42  297.3418    0.1179  294.7179  102.9058     7274.2248     7261.6935     7286.7561  40.586287  79.202084  -0.001067   0.001353
1 66042U 25233K   25341.65062668  .00000695  00000-0  46853-3 0  9996 | 2 66042  88.9943  62.6641 0017269  65.3843 294.9132 13.99319662  7297 | 2025/12/07-15:36:54  247.9253    0.1179  294.7336  102.9072     7274.2890     7261.7270     7286.8510  40.866739  79.056278  -0.001064   0.001360
1 66042U 25233K   25343.15320661  .00000577  00000-0  39668-3 0  9998 | 2 66042  88.9963  62.4973 0017256  57.9298 302.3553 13.98032708  7509 | 2025/12/09-03:40:37   70.5143    0.1179  302.1881  103.0019     7278.7525     7266.1923     7291.3127  41.097638  78.938746  -0.000874   0.001488
1 66042U 25233K   25344.51415586  .00000549  00000-0  39174-3 0  9991 | 2 66042  88.9964  62.3476 0017121  54.3108 305.9659 13.95895325  7694 | 2025/12/10-12:20:23  201.9555    0.1177  305.8069  103.1596     7286.1807     7273.7061     7298.6554  41.303792  78.831187  -0.000768   0.001530
1 66042U 25233K   25345.59017554  .00000511  00000-0  37186-3 0  9993 | 2 66042  88.9962  62.2304 0017176  51.7353 308.5366 13.94645587  7847 | 2025/12/11-14:09:51  230.5052    0.1177  308.3824  103.2520     7290.5328     7278.0106     7303.0550  41.464863  78.746357  -0.000698   0.001570
1 66042U 25233K   25346.81065522 -.02025323  00000-0 -17900+1 0  9998 | 2 66042  88.9947  62.0960 0013678  34.7452 325.4611 13.89153899  8015 | 2025/12/12-19:27:20  311.2808    0.1173  325.3721  103.6602     7309.7344     7299.7362     7319.7327  41.648764  78.647550  -0.000163   0.001358
1 66042U 25233K   25347.89036554  .00000065  00000-0  41369-4 0  9992 | 2 66042  88.9962  61.9794 0017041  45.6701 314.5866 13.90386295  8168 | 2025/12/13-21:22:07  341.1069    0.1174  314.4473  103.5683     7305.4144     7292.9652     7317.8635  41.809435  78.563954  -0.000517   0.001624
1 66042U 25233K   25349.33145340  .00000050  00000-0  30917-4 0  9998 | 2 66042  88.9959  61.8237 0017053  42.4165 317.8322 13.87628798  8365 | 2025/12/15-07:57:17  141.4827    0.1173  317.7008  103.7742     7315.0894     7302.6150     7327.5638  42.022634  78.449783  -0.000419   0.001653
1 66042U 25233K   25350.63015516  .00000049  00000-0  31408-4 0  9998 | 2 66042  88.9912  61.7050 0012219  46.9663 313.2529 13.85300632  8548 | 2025/12/16-15:07:25  250.4436    0.1171  313.1508  103.9486     7323.2830     7314.3347     7332.2314  42.182841  78.358418  -0.000391   0.001158
1 66042U 25233K   25351.85890345  .00000051  00000-0  34058-4 0  9991 | 2 66042  88.9960  61.5524 0016706  35.2392 324.9879 13.83720235  8719 | 2025/12/17-20:36:49  334.1488    0.1171  324.8779  104.0673     7328.8581     7316.6145     7341.1017  42.393675  78.250012  -0.000198   0.001659
1 66042U 25233K   25352.87136919  .00000055  00000-0  38244-4 0  9999 | 2 66042  88.9957  61.4436 0016413  31.8043 328.4114 13.83157537  8851 | 2025/12/18-20:54:46  339.7546    0.1170  328.3127  104.1096     7330.8457     7318.8135     7342.8778  42.542045  78.169105  -0.000093   0.001639
1 66042U 25233K   25354.10184352 -.02015159  00000-0 -21733+1 0  9997 | 2 66042  88.9951  61.3125 0014709  24.8590 335.3281 13.77358542  9028 | 2025/12/20-02:26:39   64.0978    0.1166  335.2576  104.5479     7351.4076     7340.5944     7362.2208  42.720507  78.071033   0.000098   0.001468
1 66042U 25233K   25355.18992230  .00000060  00000-0  45548-4 0  9993 | 2 66042  88.9957  61.1964 0016171  25.4950 334.7012 13.80123249  9174 | 2025/12/21-04:33:29   96.9857    0.1169  334.6219  104.3385     7341.5866     7329.7145     7353.4587  42.878905  77.984832   0.000093   0.001614
1 66042U 25233K   25356.27791478 -.02116366  00000-0 -23400+1 0  9995 | 2 66042  88.9938  61.0772 0015994  43.3831 316.8590 13.76059257  9329 | 2025/12/22-06:40:11  129.8086    0.1166  316.7335  104.6467     7356.0344     7344.2691     7367.7996  43.040136  77.893794  -0.000399   0.001549
1 66042U 25233K   25358.60397715 -.02152062  00000-0 -24842+1 0  9994 | 2 66042  88.9959  60.8341 0016136 355.1763   4.9243 13.73527827  9643 | 2025/12/24-14:29:43  249.8684    0.1165    4.9402  104.8395     7365.0698     7353.1855     7376.9541  43.371266  77.712312   0.000902   0.001338
1 66042U 25233K   25360.64315937  .00000018  00000-0  60388-5 0  9996 | 2 66042  88.9954  60.6188 0015299   9.4584 350.6864 13.72635630  9926 | 2025/12/26-15:26:08  266.1550    0.1164  350.6580  104.9077     7368.2609     7356.9882     7379.5336  43.662733  77.548352   0.000521   0.001438
1 66042U 25233K   25361.88359706  .00000015  00000-0  24020-5 0  9995 | 2 66042  88.9952  60.4877 0015226   5.4773 354.6552 13.70251779 10097 | 2025/12/27-21:12:22  354.0786    0.1162  354.6389  105.0902     7376.8042     7365.5723     7388.0362  43.839960  77.448070   0.000620   0.001391
1 66042U 25233K   25362.90678421  .00000016  00000-0  43418-5 0  9990 | 2 66042  88.9959  60.3818 0014948   1.6730 358.4479 13.68723164 10234 | 2025/12/28-21:45:46    3.5520    0.1163  358.4433  105.2075     7382.2956     7371.2605     7393.3306  43.983379  77.367516   0.000701   0.001321
1 66042U 25233K   25364.44280791  .00000022  00000-0  11020-4 0  9990 | 2 66042  88.9954  60.2205 0014684 357.5067   2.6017 13.66940209 10449 | 2025/12/30-10:37:38  198.2083    0.1161    2.6094  105.3448     7388.7135     7377.8639     7399.5631  44.200762  77.242953   0.000784   0.001242
1 66042U 25233K   25365.83504640  .00000031  00000-0  22934-4 0  9992 | 2 66042  88.9949  60.0756 0014509 352.9848   7.1106 13.64851765 10630 | 2025/12/31-20:02:28  340.9443    0.1160    7.1312  105.5060     7396.2489     7385.5177     7406.9801  44.395717  77.130490   0.000872   0.001160
1 66042U 25233K   26002.52369953  .00000042  00000-0  39797-4 0  9990 | 2 66042  88.9939  59.8804 0017601 348.6894  11.3864 13.60960734 10864 | 2026/01/02-12:34:07  230.7386    0.1157   11.4263  105.8076     7410.3396     7397.2967     7423.3825  44.657732  76.977927   0.001165   0.001320
1 66042U 25233K   26003.55302933  .00000044  00000-0  41327-4 0  9993 | 2 66042  88.9949  59.7941 0014074 344.9300  15.1435 13.60914468 11004 | 2026/01/03-13:16:21  242.4005    0.1157   15.1857  105.8112     7410.5075     7400.0780     7420.9371  44.774130  76.911439   0.001000   0.000990
1 66042U 25233K   26004.58338865  .00000039  00000-0  36113-4 0  9991 | 2 66042  88.9948  59.6876 0014003 341.1623  18.9012 13.59132248 11141 | 2026/01/04-14:00:04  254.4619    0.1156   18.9533  105.9500     7416.9844     7406.5984     7427.3704  44.916963  76.827995   0.001059   0.000916
1 66042U 25233K   26005.61499046  .00000044  00000-0  44684-4 0  9993 | 2 66042  88.9949  59.5825 0013354 337.4645  22.5922 13.57803528 11285 | 2026/01/05-14:45:35  266.9673    0.1156   22.6511  106.0536     7421.8223     7411.9112     7431.7334  45.057867  76.745559   0.001066   0.000805
1 66042U 25233K   26006.64668329  .00000033  00000-0  29479-4 0  9992 | 2 66042  88.9947  59.4760 0013382 334.2137  25.8349 13.57803616 11425 | 2026/01/06-15:31:13  279.5082    0.1155   25.9018  106.0536     7421.8220     7411.8901     7431.7539  45.200340  76.661502   0.001113   0.000742
1 66042U 25233K   26007.67748097 -.02001661  00000-0 -31066+1 0  9990 | 2 66042  88.9940  59.3701 0010465 339.8085  20.2653 13.54908627 11561 | 2026/01/07-16:15:34  291.6921    0.1154   20.3069  106.2802     7432.3902     7424.6122     7440.1682  45.341600  76.577225   0.000811   0.000661
1 66042U 25233K   26008.71056795  .00000012  00000-0 -55481-7 0  9993 | 2 66042  88.9943  59.2630 0013254 325.1452  34.8833 13.56716661 11703 | 2026/01/08-17:03:13  304.7740    0.1155   34.9703  106.1386     7425.7855     7415.9434     7435.6277  45.484816  76.492594   0.001207   0.000548
1 66042U 25233K   26010.03918019  .00000007  00000-0 -70349-5 0  9999 | 2 66042  88.9926  59.1329 0012546 324.1495  35.8815 13.54336387 11888 | 2026/01/10-00:56:25   64.5116    0.1154   35.9659  106.3251     7434.4836     7425.1563     7443.8109  45.657516  76.387657   0.001152   0.000496
1 66042U 25233K   26011.59171604  .00000013  00000-0  86641-6 0  9991 | 2 66042  88.9943  58.9694 0012962 316.7084  43.3049 13.53348665 12090 | 2026/01/11-14:12:04  265.1359    0.1153   43.4069  106.4027     7438.1005     7428.4592     7447.7418  45.876187  76.258514   0.001248   0.000350
1 66042U 25233K   26012.77467197  .00000020  00000-0  12149-4 0  9995 | 2 66042  88.9942  58.8486 0012884 312.8286  47.1783 13.53348840 12251 | 2026/01/12-18:35:31  332.2932    0.1153   47.2867  106.4027     7438.0999     7428.5166     7447.6831  46.036813  76.161535   0.001262   0.000261
1 66042U 25233K   26014.18076253  .00000024  00000-0  18382-4 0  9990 | 2 66042  88.9946  58.7036 0012595 307.1154  52.8845 13.50984549 12447 | 2026/01/14-04:20:17  120.0238    0.1151   52.9997  106.5889     7446.7754     7437.3961     7456.1546  46.229618  76.045127   0.001253   0.000128
1 66042U 25233K   26015.51391313  .00000036  00000-0  37558-4 0  9994 | 2 66042  88.9939  58.5697 0012587 303.4118  56.5829 13.50988044 12627 | 2026/01/15-12:20:02  241.4111    0.1152   56.7034  106.5887     7446.7625     7437.3893     7456.1358  46.406843  75.936283   0.001258   0.000044
1 66042U 25233K   26016.55082558  .00000037  00000-0  38951-4 0  9996 | 2 66042  88.9931  58.4639 0008820 299.9592  60.0683 13.50973534 12765 | 2026/01/16-13:13:11  255.7946    0.1151   60.1559  106.5898     7446.8158     7440.2477     7453.3839  46.546566  75.849779   0.000882  -0.000024
1 66042U 25233K   26017.58773761  .00000038  00000-0  40930-4 0  9994 | 2 66042  88.9936  58.3588 0005147 296.6182  63.4442 13.50988590 12904 | 2026/01/17-14:06:20  270.1752    0.1152   63.4970  106.5886     7446.7605     7442.9277     7450.5934  46.685885  75.764695   0.000513  -0.000045
1 66042U 25233K   26018.92089808  .00000032  00000-0  30976-4 0  9998 | 2 66042  88.9937  58.2234 0003284 297.6284  62.4534 13.50975420 13085 | 2026/01/18-22:06:05   31.5430    0.1152   62.4868  106.5897     7446.8089     7444.3634     7449.2544  46.864852  75.654242   0.000328  -0.000024
1 66042U 25233K   26020.32813769  .00000021  00000-0  14553-4 0  9997 | 2 66042  88.9932  58.0801 0001918 103.8450 256.2914 13.50985559 13273 | 2026/01/20-07:52:31  179.6250    0.1150  256.2700  106.5889     7446.7717     7445.3434     7448.1999  47.053657  75.536369  -0.000182   0.000060
1 66042U 25233K   26021.51315910  .00000018  00000-0  99447-5 0  9996 | 2 66042  88.9927  57.9585 0001820  88.1769 271.9591 13.50993037 13437 | 2026/01/21-12:18:56  247.5227    0.1152  271.9383  106.5883     7446.7442     7445.3889     7448.0995  47.213598  75.435912  -0.000151   0.000101
1 66042U 25233K   26022.92036739  .00000008  00000-0 -63935-5 0  9994 | 2 66042  88.9931  57.8162 0001943  90.0857 270.0517 13.50993708 13622 | 2026/01/22-22:05:19   35.6456    0.1151  270.0294  106.5882     7446.7417     7445.2948     7448.1886  47.401018  75.318758  -0.000165   0.000103
1 66042U 25233K   26023.95725790  .00000011  00000-0 -10774-5 0  9997 | 2 66042  88.9931  57.7107 0001929  89.7045 270.4327 13.50993789 13765 | 2026/01/23-22:58:27   50.0539    0.1151  270.4106  106.5882     7446.7414     7445.3049     7448.1779  47.539623  75.231350  -0.000163   0.000104
1 66042U 25233K   26025.14227546  .00000048  00000-0  55597-4 0  9996 | 2 66042  88.9930  57.5901 0001914  89.5338 270.6033 13.50993983 13921 | 2026/01/25-03:24:52  117.9489    0.1152  270.5814  106.5882     7446.7407     7445.3154     7448.1660  47.697816  75.131035  -0.000161   0.000104
1 66042U 25233K   26026.32729309  .00000051  00000-0  60684-4 0  9998 | 2 66042  88.9929  57.4694 0001906  89.4311 270.7059 13.50994056 14087 | 2026/01/26-07:51:18  185.8441    0.1152  270.6841  106.5882     7446.7404     7445.3211     7448.1598  47.855929  75.030303  -0.000160   0.000104
1 66042U 25233K   26027.51231056  .00000069  00000-0  88317-4 0  9999 | 2 66042  88.9928  57.3487 0001894  89.5024 270.6344 13.50994214 14243 | 2026/01/27-12:17:43  253.7393    0.1151  270.6127  106.5882     7446.7398     7445.3294     7448.1503  48.013828  74.929238  -0.000159   0.000104
1 66042U 25233K   26028.84545510  .00000082  00000-0  10888-3 0  9991 | 2 66042  88.9927  57.2130 0001879  89.1198 271.0168 13.50994356 14423 | 2026/01/28-20:17:27   15.1212    0.1151  270.9953  106.5882     7446.7393     7445.3401     7448.1386  48.191102  74.815228  -0.000156   0.000104
1 66042U 25233K   26030.10453592  .00000078  00000-0  10249-3 0  9997 | 2 66042  88.9926  57.0847 0001868  88.9107 271.2258 13.50994479 14596 | 2026/01/30-02:30:31  109.7597    0.1151  271.2044  106.5881     7446.7389     7445.3478     7448.1299  48.358458  74.707044  -0.000155   0.000104
1 66042U 25233K   26031.14142586  .00000057  00000-0  69866-4 0  9997 | 2 66042  88.9926  56.9791 0001863  89.0652 271.0712 13.50994545 14737 | 2026/01/31-03:23:39  124.1678    0.1151  271.0499  106.5881     7446.7386     7445.3513     7448.1260  48.496066  74.617789  -0.000155   0.000104
1 66042U 25233K   26032.32644291  .00000055  00000-0  65997-4 0  9997 | 2 66042  88.9925  56.8585 0001855  88.7108 271.4256 13.50994618 14894 | 2026/02/01-07:50:04  192.0625    0.1151  271.4043  106.5881     7446.7384     7445.3570     7448.1197  48.652964  74.515463  -0.000153   0.000105
1 66042U 25233K   26033.43739620  .00000042  00000-0  47167-4 0  9996 | 2 66042  88.9925  56.7454 0001846  88.7304 271.4058 13.50994708 15044 | 2026/02/02-10:29:51  233.2140    0.1151  271.3847  106.5881     7446.7380     7445.3634     7448.1127  48.799960  74.419278  -0.000152   0.000105
1 66042U 25233K   26034.47428594  .00000036  00000-0  37772-4 0  9990 | 2 66042  88.9925  56.6397 0001838  88.7747 271.3615 13.50994789 15183 | 2026/02/03-11:22:58  247.6220    0.1151  271.3404  106.5881     7446.7377     7445.3690     7448.1064  48.937167  74.329125  -0.000151   0.000104
1 66042U 25233K   26035.51117559  .00000031  00000-0  29986-4 0  9995 | 2 66042  88.9925  56.5341 0001831  88.7727 271.3634 13.50994868 15327 | 2026/02/04-12:16:05  262.0300    0.1151  271.3424  106.5881     7446.7374     7445.3739     7448.1009  49.074077  74.238804  -0.000151   0.000104
1 66042U 25233K   26036.62212877  .00000039  00000-0  42072-4 0  9996 | 2 66042  88.9925  56.4210 0001824  88.7827 271.3534 13.50994971 15474 | 2026/02/05-14:55:51  303.1813    0.1152  271.3325  106.5881     7446.7371     7445.3788     7448.0954  49.220526  74.141789  -0.000150   0.000104
1 66042U 25233K   26037.80714551  .00000034  00000-0  34024-4 0  9996 | 2 66042  88.9926  56.3003 0001818  88.7745 271.3615 13.50994997 15632 | 2026/02/06-19:22:17   11.0761    0.1152  271.3407  106.5881     7446.7370     7445.3832     7448.0908  49.376661  74.038019  -0.000149   0.000104
1 66042U 25233K   26038.91809873  .00000033  00000-0  31767-4 0  9991 | 2 66042  88.9926  56.1872 0001813  88.9275 271.2084 13.50995018 15789 | 2026/02/07-22:02:03   52.2275    0.1151  271.1876  106.5881     7446.7369     7445.3868     7448.0870  49.522713  73.940407  -0.000149   0.000104
1 66042U 25233K   26039.95498831  .00000043  00000-0  47813-4 0  9994 | 2 66042  88.9926  56.0815 0001809  88.9116 271.2243 13.50995095 15922 | 2026/02/08-22:55:10   66.6354    0.1152  271.2036  106.5881     7446.7366     7445.3895     7448.0837  49.659035  73.848921  -0.000148   0.000104
1 66042U 25233K   26041.14000498  .00000052  00000-0  61336-4 0  9992 | 2 66042  88.9926  55.9609 0001807  88.9810 271.1549 13.50995158 16086 | 2026/02/10-03:21:36  134.5300    0.1152  271.1342  106.5881     7446.7364     7445.3908     7448.0820  49.814367  73.744232  -0.000148   0.000104
1 66042U 25233K   26042.25095801  .00000052  00000-0  61322-4 0  9992 | 2 66042  88.9926  55.8477 0001807  88.7194 271.4164 13.50995218 16231 | 2026/02/11-06:01:22  175.6814    0.1151  271.3957  106.5881     7446.7362     7445.3905     7448.0818  49.959967  73.645669  -0.000147   0.000105
1 66042U 25233K   26043.43597446  .00000059  00000-0  72686-4 0  9997 | 2 66042  88.9926  55.7270 0001798  89.3429 270.7928 13.50995345 16396 | 2026/02/12-10:27:48  243.5762    0.1151  270.7722  106.5881     7446.7357     7445.3968     7448.0746  50.114999  73.540259  -0.000147   0.000103
1 66042U 25233K   26044.47286381  .00000045  00000-0  50464-4 0  9990 | 2 66042  88.9926  55.6215 0001798  89.3440 270.7917 13.50995376 16535 | 2026/02/13-11:20:55  257.9839    0.1151  270.7711  106.5881     7446.7356     7445.3967     7448.0745  50.250325  73.447857  -0.000147   0.000103
1 66042U 25233K   26045.50975312  .00000047  00000-0  53903-4 0  9997 | 2 66042  88.9926  55.5159 0001806  89.0772 271.0586 13.50995440 16679 | 2026/02/14-12:14:02  272.3915    0.1151  271.0379  106.5881     7446.7353     7445.3905     7448.0802  50.385609  73.355117  -0.000147   0.000105
1 66042U 25233K   26046.54664233  .00000038  00000-0  40622-4 0  9993 | 2 66042  88.9927  55.4103 0001808  88.7810 271.3549 13.50995502 16816 | 2026/02/15-13:07:09  286.7991    0.1152  271.3342  106.5881     7446.7351     7445.3887     7448.0815  50.520779  73.262211  -0.000147   0.000106
1 66042U 25233K   26047.58353151  .00000036  00000-0  37869-4 0  9999 | 2 66042  88.9928  55.3048 0001806  89.2006 270.9352 13.50995554 16954 | 2026/02/16-14:00:17  301.2068    0.1151  270.9145  106.5881     7446.7349     7445.3900     7448.0798  50.655649  73.169144  -0.000147   0.000105
1 66042U 25233K   26048.76854757  .00000030  00000-0  28138-4 0  9991 | 2 66042  88.9928  55.1842 0001804  89.8598 270.2759 13.50995622 17113 | 2026/02/17-18:26:42    9.1013    0.1150  270.2552  106.5881     7446.7347     7445.3913     7448.0781  50.809548  73.062359  -0.000148   0.000103
1 66042U 25233K   26049.87950024  .00000026  00000-0  21997-4 0  9999 | 2 66042  88.9929  55.0711 0001812  90.1493 269.9866 13.50995643 17269 | 2026/02/18-21:06:28   50.2522    0.1151  269.9658  106.5881     7446.7346     7445.3852     7448.0839  50.953729  72.962002  -0.000149   0.000103
1 66042U 25233K   26050.91638940  .00000022  00000-0  15134-4 0  9998 | 2 66042  88.9930  54.9655 0001823  89.9313 270.2047 13.50995655 17400 | 2026/02/19-21:59:36   64.6598    0.1151  270.1838  106.5881     7446.7346     7445.3770     7448.0921  51.088174  72.868049  -0.000149   0.000105
1 66042U 25233K   26051.95327849  .00000035  00000-0  35810-4 0  9993 | 2 66042  88.9931  54.8600 0001820  90.3686 269.7673 13.50995730 17543 | 2026/02/20-22:52:43   79.0675    0.1150  269.7464  106.5880     7446.7343     7445.3790     7448.0896  51.222318  72.773937  -0.000150   0.000104
1 66042U 25233K   26053.13829455  .00000031  00000-0  29714-4 0  9997 | 2 66042  88.9932  54.7394 0001819  90.5683 269.5677 13.50995762 17705 | 2026/02/22-03:19:08  146.9618    0.1152  269.5469  106.5880     7446.7342     7445.3796     7448.0887  51.375442  72.666042  -0.000150   0.000104
1 66042U 25233K   26054.17518373  .00000030  00000-0  27476-4 0  9998 | 2 66042  88.9933  54.6339 0001834  90.5103 269.6258 13.50995750 17846 | 2026/02/23-04:12:15  161.3693    0.1151  269.6048  106.5880     7446.7342     7445.3685     7448.0999  51.509214  72.571401  -0.000150   0.000105
1 66042U 25233K   26055.28613626  .00000040  00000-0  43387-4 0  9998 | 2 66042  88.9934  54.5209 0001843  90.4415 269.6948 13.50995837 17995 | 2026/02/24-06:52:02  202.5200    0.1152  269.6737  106.5880     7446.7339     7445.3614     7448.1063  51.652299  72.469754  -0.000151   0.000106
1 66042U 25233K   26056.47115223  .00000051  00000-0  60059-4 0  9997 | 2 66042  88.9935  54.4003 0001847  90.5977 269.5385 13.50995931 18153 | 2026/02/25-11:18:27  270.4145    0.1150  269.5173  106.5880     7446.7335     7445.3581     7448.1089  51.804782  72.360954  -0.000151   0.000106
1 66042U 25233K   26057.58210462  .00000047  00000-0  53867-4 0  9995 | 2 66042  88.9937  54.2873 0001854  90.6099 269.5265 13.50995991 18302 | 2026/02/26-13:58:13  311.5651    0.1152  269.5053  106.5880     7446.7333     7445.3527     7448.1139  51.947509  72.258805  -0.000152   0.000107
1 66042U 25233K   26058.61899346  .00000047  00000-0  54571-4 0  9997 | 2 66042  88.9938  54.1818 0001864  90.7195 269.4170 13.50996061 18448 | 2026/02/27-14:51:21  325.9725    0.1151  269.3956  106.5880     7446.7331     7445.3450     7448.1211  52.080532  72.163112  -0.000153   0.000107
1 66042U 25233K   26059.80400913  .00000048  00000-0  55932-4 0  9990 | 2 66042  88.9939  54.0614 0001875  91.1281 269.0085 13.50996170 18605 | 2026/02/28-19:17:46   33.8665    0.1151  268.9870  106.5880     7446.7327     7445.3364     7448.1289  52.232117  72.053592  -0.000154   0.000107
1 66042U 25233K   26060.98902474  .00000042  00000-0  46055-4 0  9990 | 2 66042  88.9941  53.9409 0001879  91.2517 268.8849 13.50996259 18765 | 2026/03/01-23:44:11  101.7606    0.1151  268.8634  106.5880     7446.7323     7445.3331     7448.1316  52.383657  71.943744  -0.000154   0.000107
1 66042U 25233K   26062.09997406  .00000065  00000-0  81787-4 0  9999 | 2 66042  88.9941  53.8278 0001898  91.1493 268.9875 13.51005630 18913 | 2026/03/03-02:23:57  142.9103    0.1151  268.9658  106.5873     7446.6979     7445.2845     7448.1113  52.525569  71.840201  -0.000155   0.000109
1 66042U 25233K   26063.13685563  .00000061  00000-0  76546-4 0  9996 | 2 66042  88.9944  53.7226 0001903  91.3993 268.7376 13.51005586 19052 | 2026/03/04-03:17:04  157.3147    0.1151  268.7158  106.5873     7446.6981     7445.2810     7448.1152  52.657563  71.743880  -0.000156   0.000109
1 66042U 25233K   26064.17373713  .00000057  00000-0  70079-4 0  9992 | 2 66042  88.9946  53.6172 0001911  91.3677 268.7693 13.51005661 19192 | 2026/03/05-04:10:10  171.7194    0.1151  268.7474  106.5873     7446.6978     7445.2747     7448.1208  52.789571  71.647052  -0.000157   0.000110
1 66042U 25233K   26065.28468164  .00000042  00000-0  46713-4 0  9992 | 2 66042  88.9949  53.5044 0001928  91.3944 268.7428 13.51005684 19345 | 2026/03/06-06:49:56  212.8670    0.1151  268.7207  106.5873     7446.6977     7445.2620     7448.1334  52.930700  71.543226  -0.000158   0.000111
1 66042U 25233K   26066.46968905  .00000041  00000-0  44381-4 0  9999 | 2 66042  88.9951  53.3841 0001944  91.0541 269.0833 13.51005747 19501 | 2026/03/07-11:16:21  280.7578    0.1151  269.0610  106.5873     7446.6975     7445.2498     7448.1451  53.080917  71.432094  -0.000158   0.000113
1 66042U 25233K   26067.50657043  .00000060  00000-0  74777-4 0  9996 | 2 66042  88.9952  53.2788 0001960  91.0586 269.0790 13.51005876 19648 | 2026/03/08-12:09:27  295.1621    0.1151  269.0565  106.5872     7446.6970     7445.2374     7448.1565  53.212168  71.334500  -0.000159   0.000114
1 66042U 25233K   26068.61751474  .00000050  00000-0  58487-4 0  9991 | 2 66042  88.9954  53.1660 0001981  90.9462 269.1916 13.51005911 19799 | 2026/03/09-14:49:13  336.3097    0.1151  269.1689  106.5872     7446.6969     7445.2217     7448.1721  53.352623  71.229761  -0.000160   0.000116
1 66042U 25233K   26069.87658478  .00000061  00000-0  76224-4 0  9991 | 2 66042  88.9955  53.0382 0001981  90.8760 269.2618 13.51006044 19967 | 2026/03/10-21:02:16   70.9437    0.1151  269.2391  106.5872     7446.6964     7445.2212     7448.1716  53.511430  71.110659  -0.000160   0.000117
1 66042U 25233K   26070.98752889  .00000058  00000-0  71867-4 0  9990 | 2 66042  88.9957  52.9255 0002003  90.8247 269.3133 13.51006135 20115 | 2026/03/11-23:42:02  112.0911    0.1150  269.2903  106.5872     7446.6960     7445.2045     7448.1876  53.651321  71.005425  -0.000162   0.000118
1 66042U 25233K   26072.02440997  .00000056  00000-0  68492-4 0  9999 | 2 66042  88.9958  52.8203 0002021  90.7786 269.3596 13.51006227 20255 | 2026/03/13-00:35:09  126.4953    0.1150  269.3364  106.5872     7446.6957     7445.1907     7448.2007  53.781663  70.906877  -0.000163   0.000120
1 66042U 25233K   26073.28347975  .00000059  00000-0  72892-4 0  9992 | 2 66042  88.9961  52.6926 0002035  90.6770 269.4614 13.51006330 20422 | 2026/03/14-06:48:12  221.1289    0.1151  269.4381  106.5872     7446.6953     7445.1799     7448.2107  53.939747  70.787071  -0.000163   0.000121
1 66042U 25233K   26074.54254942  .00000045  00000-0  51277-4 0  9992 | 2 66042  88.9963  52.5649 0002063  90.4490 269.6898 13.51006412 20598 | 2026/03/15-13:01:16  315.7623    0.1152  269.6662  106.5872     7446.6950     7445.1588     7448.2313  54.097504  70.666834  -0.000165   0.000124
1 66042U 25233K   26075.87568187  .00000059  00000-0  73337-4 0  9994 | 2 66042  88.9965  52.4297 0002087  90.2729 269.8661 13.51006585 20778 | 2026/03/16-21:00:58   77.1390    0.1151  269.8422  106.5872     7446.6944     7445.1403     7448.2485  54.264227  70.539143  -0.000166   0.000126
1 66042U 25233K   26076.91256260  .00000051  00000-0  59876-4 0  9990 | 2 66042  88.9968  52.3247 0002107  90.0204 270.1189 13.51006675 20910 | 2026/03/17-21:54:05   91.5427    0.1152  270.0948  106.5872     7446.6941     7445.1250     7448.2631  54.393588  70.439818  -0.000167   0.000129
