# SPACE DATA - HISTORICAL TLEs
# ----------------------------
# NORAD_ID    : 61559
# OBJECT_NAME : QIANFAN-26
# --------------------------------------------------------------------+-----------------------------------------------------------------------+----------------------------------------------------------------------------------------------------------------------------------------
#                  LINE 1                                             |                 LINE 2                                                |      DERIVED PARAMETERS
# --------------------------------------------------------------------+-----------------------------------------------------------------------+----------------------------------------------------------------------------------------------------------------------------------------
# NORAD  COSPAR     TLE_EPOCH      MEANMOT1 MEANMOT2   BSTAR  #  REV  |   NORAD    INC     RAAN     ECC    ARGPER  MEANANOM   MEANMOT     REV |  CAL_DATE              LONG     ARGLAT     PERIOD        SMA         PERIGEE        APOGEE      INC_X      INC_Y      ECC_X      ECC_Y
# ------ ------   -------------- ----------  -------  ------- -- ----     -----  ------- -------- ------- -------- -------- -----------  ----   ------------------- ---------  --------  --------  ------------  ------------   ----------- ---------- ----------  ---------  ---------   
1 66049U 25233S   25302.96973139  .00000699  00000-0  28465-3 0  9991 | 2 66049  88.9942  67.0691 0015750 171.1650 188.9824 14.26330131  1808 | 2025/10/29-23:16:24  320.4223    0.1193  188.9543  100.9584     7182.1610     7170.8491     7193.4729  34.673982  81.961470  -0.000829  -0.001339
1 66049U 25233S   25305.63561549  .00000736  00000-0  30012-3 0  9999 | 2 66049  88.9946  66.7620 0016070 162.8336 197.3404 14.26334193  2186 | 2025/11/01-15:15:17  203.0487    0.1192  197.2856  100.9581     7182.1474     7170.6057     7193.6891  35.112945  81.774812  -0.001042  -0.001224
1 66049U 25233S   25307.74025539  .00000657  00000-0  26714-3 0  9993 | 2 66049  88.9949  66.5195 0016315 156.3916 203.8029 14.26337111  2480 | 2025/11/03-17:45:58  243.0155    0.1192  203.7276  100.9579     7182.1376     7170.4199     7193.8552  35.458855  81.625742  -0.001195  -0.001111
1 66049U 25233S   25308.79257365  .00000639  00000-0  25987-3 0  9994 | 2 66049  88.9950  66.3983 0016426 153.1809 207.0237 14.26338623  2637 | 2025/11/04-19:01:18  262.9984    0.1192  206.9383  100.9578     7182.1325     7170.3351     7193.9299  35.631482  81.550644  -0.001266  -0.001047
1 66049U 25233S   25309.91504501  .00000739  00000-0  30154-3 0  9999 | 2 66049  88.9951  66.2690 0016521 149.8089 210.4060 14.26340819  2799 | 2025/11/05-21:57:39  308.3135    0.1193  210.3104  100.9576     7182.1251     7170.2595     7193.9907  35.815467  81.470118  -0.001335  -0.000973
1 66049U 25233S   25311.10766900  .00000777  00000-0  31712-3 0  9999 | 2 66049  88.9952  66.1317 0016649 146.2335 213.9922 14.26342844  2965 | 2025/11/07-02:35:02   18.9601    0.1192  213.8857  100.9575     7182.1183     7170.1608     7194.0758  36.010635  81.384150  -0.001406  -0.000891
1 66049U 25233S   25312.15998233  .00000912  00000-0  37338-3 0  9992 | 2 66049  88.9953  66.0105 0016746 143.1144 217.1205 14.26345393  3112 | 2025/11/08-03:50:22   38.9421    0.1193  217.0049  100.9573     7182.1098     7170.0826     7194.1369  36.182750  81.307884  -0.001463  -0.000815
1 66049U 25233S   25314.89599026  .00000949  00000-0  38866-3 0  9999 | 2 66049  88.9956  65.6955 0016949 135.0330 225.2240 14.26350756  3506 | 2025/11/10-21:30:13  306.8946    0.1193  225.0863  100.9569     7182.0918     7169.9188     7194.2647  36.629338  81.108005  -0.001585  -0.000600
1 66049U 25233S   25316.29906515  .00001416  00000-0  58304-3 0  9999 | 2 66049  88.9957  65.5341 0017026 130.9173 229.3499 14.26356483  3707 | 2025/11/12-07:10:39   93.5357    0.1194  229.2021  100.9565     7182.0725     7169.8444     7194.3007  36.857711  81.004591  -0.001633  -0.000482
1 66049U 25233S   25317.56227350  .00001504  00000-0  63446-3 0  9994 | 2 66049  88.9958  65.3879 0017076 127.4003 232.8747 14.25125428  3886 | 2025/11/13-13:29:40  189.6742    0.1192  232.7189  101.0437     7186.2080     7173.9368     7198.4791  37.064330  80.910369  -0.001665  -0.000378
1 66049U 25233S   25319.24930405  .00001181  00000-0  51822-3 0  9999 | 2 66049  88.9962  65.1957 0017451 122.3169 237.9715 14.22920763  4121 | 2025/11/15-05:58:59   78.8468    0.1191  237.8022  101.2003     7193.6289     7181.0753     7206.1825  37.335704  80.785944  -0.001730  -0.000228
1 66049U 25233S   25320.58675551  .00001004  00000-0  46065-3 0  9993 | 2 66049  88.9967  65.0433 0017300 117.1244 243.1713 14.20506604  4313 | 2025/11/16-14:04:55  201.7927    0.1190  242.9946  101.3723     7201.7770     7189.3179     7214.2361  37.550664  80.686803  -0.001729  -0.000065
1 66049U 25233S   25321.64413042  .00000851  00000-0  39865-3 0  9995 | 2 66049  88.9964  64.9226 0017561 114.0632 246.2397 14.19272319  4463 | 2025/11/17-15:27:32  223.6034    0.1189  246.0557  101.4604     7205.9518     7193.2974     7218.6062  37.720429  80.607248  -0.001756   0.000031
1 66049U 25233S   25323.68987093  .00000426  00000-0  20521-3 0  9990 | 2 66049  89.0055  64.6921 0020029  92.5860 267.7622 14.16871241  4758 | 2025/11/19-16:33:24  242.2715    0.1189  267.5329  101.6324     7214.0905     7199.6414     7228.5396  38.048295  80.463074  -0.001847   0.000774
1 66049U 25233S   25324.82046565  .00000379  00000-0  18520-3 0  9990 | 2 66049  88.9963  64.5622 0018198 105.0042 255.3162 14.15839524  4914 | 2025/11/20-19:41:28  290.5577    0.1188  255.1146  101.7064     7217.5946     7204.4601     7230.7292  38.226670  80.368297  -0.001790   0.000330
1 66049U 25233S   25326.30616505  .00000365  00000-0  18865-3 0  9999 | 2 66049  88.9964  64.3951 0018140 100.6567 259.6663 14.12862817  5123 | 2025/11/22-07:20:52  107.0384    0.1186  259.4619  101.9207     7227.7287     7214.6176     7240.8398  38.460940  80.256559  -0.001753   0.000468
1 66049U 25233S   25327.43957147  .00000345  00000-0  17943-3 0  9998 | 2 66049  88.9965  64.2671 0018169  96.5870 263.7384 14.12294624  5281 | 2025/11/23-10:32:58  156.3074    0.1185  263.5315  101.9617     7229.6672     7216.5316     7242.8027  38.640182  80.170527  -0.001716   0.000596
1 66049U 25233S   25328.50314334  .00000360  00000-0  19399-3 0  9996 | 2 66049  88.9971  64.1484 0018365  94.1579 266.1706 14.10468165  5430 | 2025/11/24-12:04:31  180.3572    0.1186  265.9607  102.0938     7235.9071     7222.6184     7249.1958  38.806450  80.090844  -0.001706   0.000679
1 66049U 25233S   25329.63922653  .00000393  00000-0  22072-3 0  9998 | 2 66049  88.9972  64.0112 0017942  88.7033 271.6206 14.08483245  5598 | 2025/11/25-15:20:29  230.6087    0.1184  271.4151  102.2376     7242.7037     7229.7088     7255.6985  38.998168  79.997778  -0.001595   0.000823
1 66049U 25233S   25330.77678628  .00000400  00000-0  23405-3 0  9995 | 2 66049  88.9965  63.8919 0017870  88.8528 271.4701 14.06304445  5750 | 2025/11/26-18:38:34  281.3718    0.1182  271.2654  102.3960     7250.1826     7237.2265     7263.1386  39.164345  79.915775  -0.001589   0.000818
1 66049U 25233S   25331.98700054  .00000380  00000-0  22668-3 0  9995 | 2 66049  88.9964  63.7602 0017968  85.1262 275.1970 14.05135046  5926 | 2025/11/27-23:41:16  358.3731    0.1181  274.9919  102.4813     7254.2046     7241.1702     7267.2389  39.347891  79.825451  -0.001538   0.000928
1 66049U 25233S   25333.27027030  .00000304  00000-0  18854-3 0  9993 | 2 66049  89.0002  63.6225 0017084  81.8270 278.4847 14.02573002  6107 | 2025/11/29-06:29:11  101.7643    0.1180  278.2910  102.6685     7263.0359     7250.6277     7275.4441  39.541311  79.734060  -0.001407   0.000969
1 66049U 25233S   25334.48372566  .00000186  00000-0  11326-3 0  9999 | 2 66049  88.9967  63.4839 0017911  79.0421 281.2773 14.01803736  6277 | 2025/11/30-11:36:33  179.9352    0.1180  281.0759  102.7248     7265.6928     7252.6792     7278.7064  39.732512  79.635043  -0.001421   0.001090
1 66049U 25233S   25335.69773580  .00000168  00000-0  10464-3 0  9996 | 2 66049  88.9908  63.3572 0014273  88.6626 271.6188 13.99908345  6446 | 2025/12/01-16:44:44  258.3401    0.1179  271.4553  102.8639     7272.2495     7261.8699     7282.6292  39.905868  79.541713  -0.001260   0.000670
1 66049U 25233S   25336.98528228  .00000168  00000-0  10775-3 0  9991 | 2 66049  88.9967  63.2075 0017320  71.7676 288.5385 13.98381105  6626 | 2025/12/02-23:38:48    3.2509    0.1178  288.3502  102.9762     7277.5435     7264.9388     7290.1482  40.116215  79.442444  -0.001224   0.001225
1 66049U 25233S   25339.78110612 -.01904338  00000-0 -16798+1 0  9999 | 2 66049  88.9955  62.9028 0014368  50.5056 309.7385 13.89015191  7012 | 2025/12/05-18:44:47  292.8699    0.1173  309.6117  103.6706     7310.2211     7299.7177     7320.7244  40.537575  79.226915  -0.000571   0.001319
1 66049U 25233S   25340.78831274  .00000264  00000-0  19698-3 0  9992 | 2 66049  88.9965  62.7933 0017356  61.5926 298.6995 13.91753043  7150 | 2025/12/06-18:55:10  296.5185    0.1175  298.5249  103.4666     7300.6308     7287.9599     7313.3018  40.689372  79.150187  -0.000980   0.001432
1 66049U 25233S   25341.93949926  .00000227  00000-0  17291-3 0  9990 | 2 66049  88.9962  62.6688 0017053  58.6376 301.6464 13.89993997  7318 | 2025/12/07-22:32:52  352.2129    0.1175  301.4799  103.5976     7306.7889     7294.3286     7319.2491  40.861126  79.061318  -0.000886   0.001457
1 66049U 25233S   25343.16413684  .00000204  00000-0  15947-3 0  9995 | 2 66049  89.0050  62.5475 0015540  50.1950 310.0587 13.88236794  7487 | 2025/12/09-03:56:21   74.4411    0.1172  309.9222  103.7287     7312.9534     7301.5891     7324.3178  41.032471  78.982444  -0.000601   0.001433
1 66049U 25233S   25344.53531810  .00000206  00000-0  16857-3 0  9992 | 2 66049  88.9987  62.3893 0016915  52.9457 307.3258 13.85503874  7673 | 2025/12/10-12:50:51  209.5583    0.1172  307.1715  103.9333     7322.5668     7310.1807     7334.9530  41.247473  78.863265  -0.000724   0.001529
1 66049U 25233S   25346.77598463 -.01653780  00000-0 -17715+1 0  9992 | 2 66049  88.9956  62.1482 0020049  38.4543 321.8048 13.77583706  7984 | 2025/12/12-18:37:25  298.6602    0.1168  321.6625  104.5309     7350.6065     7335.8693     7365.3438  41.577515  78.686257  -0.000369   0.001971
1 66049U 25233S   25348.87859094  .00000040  00000-0  26033-4 0  9994 | 2 66049  88.9960  61.9234 0016204  41.1154 319.1230 13.78876612  8276 | 2025/12/14-21:05:10  337.9164    0.1167  319.0013  104.4328     7346.0109     7334.1075     7357.9144  41.886108  78.522876  -0.000366   0.001579
1 66049U 25233S   25350.62169544  .00000043  00000-0  30507-4 0  9998 | 2 66049  88.9943  61.7435 0015408  41.4560 318.7771 13.75946141  8511 | 2025/12/16-14:55:14  247.3373    0.1166  318.6606  104.6553     7356.4375     7345.1027     7367.7723  42.131646  78.389475  -0.000352   0.001500
1 66049U 25233S   25351.85871126  .00000044  00000-0  32685-4 0  9990 | 2 66049  88.9958  61.6080 0015861  33.1941 327.0215 13.74652172  8687 | 2025/12/17-20:36:32  334.0353    0.1165  326.9224  104.7538     7361.0533     7349.3779     7372.7286  42.317626  78.290938  -0.000133   0.001581
1 66049U 25233S   25352.94926469 -.01767624  00000-0 -21704+1 0  9995 | 2 66049  88.9955  61.4925 0015215  45.5005 314.7398 13.69624112  8830 | 2025/12/18-22:46:56    7.8002    0.1163  314.6158  105.1383     7379.0578     7367.8306     7390.2850  42.475220  78.205209  -0.000445   0.001455
1 66049U 25233S   25354.40893117  .00000049  00000-0  40359-4 0  9990 | 2 66049  88.9956  61.3389 0015496  25.9727 334.2210 13.71053868  9038 | 2025/12/20-09:48:51  174.9191    0.1163  334.1436  105.0287     7373.9269     7362.5003     7385.3536  42.684769  78.091147   0.000073   0.001548
1 66049U 25233S   25355.50364139  .00000054  00000-0  45753-4 0  9998 | 2 66049  88.9955  61.2240 0015324  22.8275 337.3565 13.71054223  9185 | 2025/12/21-12:05:14  210.2184    0.1163  337.2888  105.0287     7373.9256     7362.6258     7385.2254  42.841238  78.005303   0.000159   0.001524
1 66049U 25233S   25358.64817491 -.02136821  00000-0 -28499+1 0  9990 | 2 66049  88.9941  60.8912 0016936  18.9255 341.2530 13.64640550  9615 | 2025/12/24-15:33:22  265.6881    0.1160  341.1905  105.5223     7397.0121     7384.4845     7409.5396  43.292922  77.753924   0.000299   0.001667
1 66049U 25233S   25360.70088344  .00000035  00000-0  28875-4 0  9992 | 2 66049  88.9952  60.6819 0014876   8.2256 351.9143 13.63429480  9899 | 2025/12/26-16:49:16  286.9343    0.1159  351.8903  105.6160     7401.3917     7390.3814     7412.4020  43.577204  77.596217   0.000535   0.001388
1 66049U 25233S   25361.94971568  .00000033  00000-0  27719-4 0  9992 | 2 66049  88.9989  60.5537 0013945   5.0136 355.1158 13.60923100 10061 | 2025/12/27-22:47:35   17.8836    0.1158  355.1022  105.8105     7410.4762     7400.1423     7420.8101  43.752537  77.501740   0.000577   0.001270
1 66049U 25233S   25363.49533558  .00000036  00000-0  32850-4 0  9992 | 2 66049  88.9949  60.3934 0014359   0.0865   0.0291 13.59206867 10279 | 2025/12/29-11:53:16  216.0043    0.1157    0.0292  105.9441     7416.7129     7406.0632     7427.3626  43.967220  77.375550   0.000708   0.001249
1 66049U 25233S   25364.52596375  .00000047  00000-0  47270-4 0  9997 | 2 66049  88.9948  60.2871 0014257 357.0059   3.1010 13.59207067 10416 | 2025/12/30-12:37:23  228.1612    0.1158    3.1099  105.9441     7416.7122     7406.1382     7427.2862  44.110649  77.293758   0.000770   0.001200
1 66049U 25233S   25365.63102022  .00000062  00000-0  69584-4 0  9991 | 2 66049  88.9946  60.1732 0014075 352.0448   8.0482 13.57809290 10561 | 2025/12/31-15:08:40  267.1986    0.1156    8.0708  106.0532     7421.8013     7411.3551     7432.2475  44.264117  77.205743   0.000862   0.001112
1 66049U 25233S   26001.73640020  .00000069  00000-0  78799-4 0  9990 | 2 66049  88.9944  60.0596 0013983 348.6736  11.4103 13.57809742 10711 | 2026/01/01-17:40:24  306.3476    0.1157   11.4421  106.0531     7421.7997     7411.4218     7432.1776  44.417005  77.117656   0.000922   0.001051
1 66049U 25233S   26002.84177998  .00000071  00000-0  82411-4 0  9991 | 2 66049  88.9943  59.9459 0013883 345.2796  14.7953 13.57809960 10860 | 2026/01/02-20:12:09  345.4965    0.1156   14.8360  106.0531     7421.7989     7411.4952     7432.1026  44.569903  77.029275   0.000978   0.000986
1 66049U 25233S   26003.94715931  .00000162  00000-0  20765-3 0  9992 | 2 66049  88.9942  59.8323 0013811 341.8484  18.2177 13.57810532 11017 | 2026/01/03-22:43:54   24.6450    0.1157   18.2673  106.0531     7421.7968     7411.5465     7432.0470  44.722490  76.940669   0.001031   0.000918
1 66049U 25233S   26005.12623053  .00000139  00000-0  17583-3 0  9995 | 2 66049  88.9940  59.7110 0013715 338.1699  21.8870 13.57810783 11173 | 2026/01/05-03:01:46   90.4033    0.1156   21.9457  106.0531     7421.7959     7411.6169     7431.9749  44.885179  76.845642   0.001083   0.000842
1 66049U 25233S   26006.45343211  .00000119  00000-0  15383-3 0  9991 | 2 66049  88.9977  59.5680 0012717 336.6546  23.4029 13.55915313 11355 | 2026/01/06-10:52:56  209.6464    0.1155   23.4609  106.2013     7428.7110     7419.2639     7438.1581  45.078706  76.736568   0.001026   0.000751
1 66049U 25233S   26007.78268605  .00000101  00000-0  12965-3 0  9995 | 2 66049  88.9938  59.4386 0013560 328.7453  31.2893 13.54865953 11539 | 2026/01/07-18:47:04  329.6403    0.1154   31.3701  106.2836     7432.5463     7422.4677     7442.6248  45.249914  76.631206   0.001195   0.000640
1 66049U 25233S   26008.81674009  .00000037  00000-0  36773-4 0  9991 | 2 66049  88.9918  59.3186 0012364 319.8427  40.1811 13.53939361 11675 | 2026/01/08-19:36:06  343.0497    0.1153   40.2726  106.3563     7435.9369     7426.7432     7445.1307  45.409290  76.534547   0.001168   0.000406
1 66049U 25233S   26010.14840410  .00000040  00000-0  43908-4 0  9993 | 2 66049  88.9924  59.2154 0006992 308.5816  51.4708 13.51161609 11853 | 2026/01/10-03:33:42  103.8359    0.1151   51.5335  106.5750     7446.1248     7440.9185     7451.3311  45.547376  76.453148   0.000693   0.000095
1 66049U 25233S   26011.62970873  .00000046  00000-0  53614-4 0  9995 | 2 66049  88.9936  59.0463 0013491 316.2729  43.7353 13.50970732 12055 | 2026/01/11-15:06:46  278.7790    0.1152   43.8423  106.5900     7446.8261     7436.7796     7456.8727  45.773435  76.319418   0.001301   0.000356
1 66049U 25233S   26013.18506955  .00000048  00000-0  56385-4 0  9994 | 2 66049  88.9936  58.8871 0009949 312.7277  47.3035 13.50956964 12268 | 2026/01/13-04:26:30  120.3781    0.1151   47.3874  106.5911     7446.8767     7439.4678     7454.2856  45.985316  76.191939   0.000975   0.000200
1 66049U 25233S   26014.59229894  .00000056  00000-0  67735-4 0  9994 | 2 66049  88.9932  58.7448 0006109 308.5952  51.4651 13.50985940 12458 | 2026/01/14-14:12:54  268.4809    0.1151   51.5199  106.5888     7446.7703     7442.2210     7451.3195  46.174197  76.077153   0.000606   0.000078
1 66049U 25233S   26015.62803259 -.01995067  00000-0 -33970+1 0  9990 | 2 66049  88.9925  58.6399 0005538 286.7868  73.2674 13.49004788 12594 | 2026/01/15-15:04:22  282.4769    0.1150   73.3282  106.7454     7454.0594     7449.9313     7458.1874  46.313041  75.991890   0.000536  -0.000139
1 66049U 25233S   26016.88826397  .00000063  00000-0  78959-4 0  9997 | 2 66049  88.9929  58.5111 0001182  95.7087 264.4199 13.51017871 12766 | 2026/01/16-21:19:06   17.4567    0.1151  264.4064  106.5863     7446.6529     7445.7727     7447.5331  46.483962  75.887928  -0.000106   0.000051
1 66049U 25233S   26017.99920430  .00000062  00000-0  78003-4 0  9992 | 2 66049  88.9934  58.3994 0001849  85.5431 274.5931 13.51003428 12915 | 2026/01/17-23:58:51   58.5943    0.1151  274.5720  106.5874     7446.7060     7445.3291     7448.0829  46.632081  75.797587  -0.000149   0.000109
1 66049U 25233S   26019.25828966  .00000057  00000-0  69960-4 0  9990 | 2 66049  88.9927  58.2696 0001999  91.1577 268.9803 13.50989340 13084 | 2026/01/19-06:11:56  153.2341    0.1151  268.9574  106.5886     7446.7578     7445.2692     7448.2464  46.803308  75.691156  -0.000172   0.000102
1 66049U 25233S   26020.96102849 -.02024736  00000-0 -34917+1 0  9999 | 2 66049  88.9920  58.0964 0004383 171.7188 188.4034 13.48249838 13312 | 2026/01/20-23:03:52   48.0874    0.1149  188.3961  106.8051     7456.8417     7453.5734     7460.1100  47.031531  75.548733  -0.000283  -0.000335
1 66049U 25233S   26022.29490242  .00000028  00000-0  24688-4 0  9996 | 2 66049  88.9924  57.9606 0001962  90.6447 269.4929 13.50990394 13499 | 2026/01/22-07:04:39  169.7171    0.1151  269.4704  106.5885     7446.7539     7445.2928     7448.2149  47.210674  75.437388  -0.000167   0.000102
1 66049U 25233S   26023.55398678  .00000031  00000-0  29403-4 0  9990 | 2 66049  88.9923  57.8323 0001942  90.2736 269.8638 13.50990537 13667 | 2026/01/23-13:17:44  264.3570    0.1151  269.8415  106.5885     7446.7534     7445.3072     7448.1995  47.379426  75.331398  -0.000165   0.000103
1 66049U 25233S   26024.88713498  .00000059  00000-0  73037-4 0  9990 | 2 66049  88.9922  57.6965 0001938  90.3748 269.7626 13.50990594 13844 | 2026/01/24-21:17:28   25.7402    0.1152  269.7404  106.5885     7446.7531     7445.3100     7448.1963  47.557786  75.218805  -0.000164   0.000102
1 66049U 25233S   26025.92402794  .00000055  00000-0  66795-4 0  9999 | 2 66049  88.9921  57.5908 0001923  90.1481 269.9890 13.50990670 13980 | 2026/01/25-22:10:36   40.1496    0.1151  269.9670  106.5884     7446.7529     7445.3209     7448.1849  47.696416  75.130858  -0.000163   0.000103
1 66049U 25233S   26027.25717599  .00000063  00000-0  79073-4 0  9991 | 2 66049  88.9920  57.4549 0001914  89.8352 270.3019 13.50990786 14169 | 2026/01/27-06:10:20  161.5328    0.1152  270.2800  106.5884     7446.7524     7445.3271     7448.1778  47.874431  75.017431  -0.000161   0.000103
1 66049U 25233S   26028.88657896  .00000069  00000-0  88227-4 0  9991 | 2 66049  88.9919  57.2889 0001899  89.6958 270.4411 13.50990934 14380 | 2026/01/28-21:16:40   29.8901    0.1151  270.4193  106.5884     7446.7519     7445.3378     7448.1660  48.091520  74.878328  -0.000159   0.000103
1 66049U 25233S   26030.07159914  .00000067  00000-0  85167-4 0  9991 | 2 66049  88.9918  57.1681 0001889  89.4317 270.7051 13.50991060 14546 | 2026/01/30-01:43:06   97.7863    0.1152  270.6835  106.5884     7446.7514     7445.3447     7448.1581  48.249229  74.776683  -0.000158   0.000104
1 66049U 25233S   26031.10849175  .00000056  00000-0  68370-4 0  9996 | 2 66049  88.9917  57.0625 0001887  89.7020 270.4348 13.50991123 14685 | 2026/01/31-02:36:13  112.1953    0.1152  270.4132  106.5884     7446.7512     7445.3460     7448.1564  48.386911  74.687546  -0.000158   0.000103
1 66049U 25233S   26032.29351176  .00000039  00000-0  42266-4 0  9993 | 2 66049  88.9917  56.9417 0001880  89.5070 270.6297 13.50991173 14846 | 2026/02/01-07:02:39  180.0914    0.1152  270.6082  106.5884     7446.7510     7445.3510     7448.1510  48.544271  74.585363  -0.000157   0.000104
1 66049U 25233S   26033.33040420  .00000050  00000-0  58174-4 0  9994 | 2 66049  88.9917  56.8360 0001872  89.0759 271.0607 13.50991277 14982 | 2026/02/02-07:55:46  194.5005    0.1152  271.0393  106.5884     7446.7506     7445.3566     7448.1447  48.681785  74.495681  -0.000155   0.000105
1 66049U 25233S   26034.51542408  .00000032  00000-0  30669-4 0  9997 | 2 66049  88.9917  56.7152 0001862  89.2200 270.9164 13.50991316 15141 | 2026/02/03-12:22:12  262.3966    0.1151  270.8951  106.5884     7446.7505     7445.3639     7448.1371  48.838740  74.392877  -0.000154   0.000104
1 66049U 25233S   26035.77450765  .00000043  00000-0  47478-4 0  9998 | 2 66049  88.9917  56.5869 0001853  88.9866 271.1497 13.50991420 15315 | 2026/02/04-18:35:17  357.0361    0.1151  271.1285  106.5884     7446.7501     7445.3702     7448.1300  49.005202  74.283328  -0.000153   0.000105
1 66049U 25233S   26036.81139993  .00000038  00000-0  40563-4 0  9993 | 2 66049  88.9917  56.4812 0001846  88.9119 271.2244 13.50991493 15451 | 2026/02/05-19:28:24   11.4451    0.1152  271.2033  106.5884     7446.7498     7445.3752     7448.1245  49.142158  74.192796  -0.000152   0.000105
1 66049U 25233S   26037.84829229  .00000032  00000-0  31007-4 0  9992 | 2 66049  88.9917  56.3755 0001841  88.9919 271.1443 13.50991497 15598 | 2026/02/06-20:21:32   25.8541    0.1151  271.1232  106.5884     7446.7498     7445.3789     7448.1208  49.278946  74.102012  -0.000151   0.000105
1 66049U 25233S   26038.95924825  .00000037  00000-0  39040-4 0  9993 | 2 66049  88.9918  56.2623 0001831  89.2588 270.8773 13.50991585 15744 | 2026/02/07-23:01:19   67.0066    0.1151  270.8563  106.5884     7446.7495     7445.3860     7448.1130  49.425309  74.004590  -0.000151   0.000104
1 66049U 25233S   26040.21833175  .00000032  00000-0  31007-4 0  9992 | 2 66049  88.9918  56.1339 0001829  89.4901 270.6460 13.50991596 15917 | 2026/02/09-05:14:23  161.6460    0.1151  270.6250  106.5884     7446.7495     7445.3875     7448.1115  49.591029  73.893642  -0.000151   0.000103
1 66049U 25233S   26041.25522396  .00000046  00000-0  52441-4 0  9997 | 2 66049  88.9918  56.0283 0001828  89.4313 270.7048 13.50991669 16050 | 2026/02/10-06:07:31  176.0548    0.1152  270.6839  106.5884     7446.7492     7445.3879     7448.1105  49.727136  73.802116  -0.000151   0.000104
1 66049U 25233S   26042.58837108  .00000041  00000-0  45154-4 0  9992 | 2 66049  88.9918  55.8924 0001830  89.2055 270.9306 13.50991717 16236 | 2026/02/11-14:07:15  297.4377    0.1151  270.9096  106.5884     7446.7490     7445.3863     7448.1118  49.902048  73.683961  -0.000150   0.000105
1 66049U 25233S   26043.77339058  .00000048  00000-0  56207-4 0  9993 | 2 66049  88.9918  55.7716 0001829  89.2750 270.8611 13.50991809 16391 | 2026/02/12-18:33:40    5.3336    0.1151  270.8401  106.5884     7446.7487     7445.3867     7448.1107  50.057289  73.578586  -0.000150   0.000105
1 66049U 25233S   26044.88434635  .00000043  00000-0  47994-4 0  9991 | 2 66049  88.9917  55.6584 0001827  89.3981 270.7380 13.50991862 16545 | 2026/02/13-21:13:27   46.4858    0.1152  270.7171  106.5884     7446.7485     7445.3880     7448.1090  50.202505  73.479461  -0.000150   0.000105
1 66049U 25233S   26046.14342951  .00000037  00000-0  38145-4 0  9992 | 2 66049  88.9918  55.5301 0001838  88.7829 271.3532 13.50991893 16717 | 2026/02/15-03:26:32  141.1251    0.1150  271.3321  106.5884     7446.7484     7445.3797     7448.1171  50.366975  73.366943  -0.000149   0.000107
1 66049U 25233S   26047.18032135  .00000023  00000-0  16256-4 0  9991 | 2 66049  88.9919  55.4245 0001821  89.6102 270.5258 13.50991945 16859 | 2026/02/16-04:19:39  155.5339    0.1151  270.5049  106.5883     7446.7482     7445.3921     7448.1042  50.502166  73.274071  -0.000149   0.000104
1 66049U 25233S   26048.21721327  .00000032  00000-0  31405-4 0  9997 | 2 66049  88.9920  55.3188 0001831  89.4372 270.6989 13.50992017 16992 | 2026/02/17-05:12:47  169.9426    0.1151  270.6779  106.5883     7446.7479     7445.3844     7448.1114  50.637314  73.180862  -0.000150   0.000106
1 66049U 25233S   26049.25410515  .00000025  00000-0  20163-4 0  9997 | 2 66049  88.9920  55.2132 0001838  89.5600 270.5761 13.50992037 17138 | 2026/02/18-06:05:54  184.3513    0.1150  270.5550  106.5883     7446.7478     7445.3791     7448.1166  50.772105  73.087409  -0.000150   0.000106
1 66049U 25233S   26050.43912436  .00000021  00000-0  13825-4 0  9991 | 2 66049  88.9922  55.0924 0001830  90.0013 270.1348 13.50992088 17294 | 2026/02/19-10:32:20  252.2470    0.1151  270.1138  106.5883     7446.7477     7445.3849     7448.1104  50.926201  72.980365  -0.000150   0.000105
1 66049U 25233S   26051.69820727  .00000026  00000-0  21455-4 0  9994 | 2 66049  88.9923  54.9642 0001838  89.9469 270.1893 13.50992149 17462 | 2026/02/20-16:45:25  346.8859    0.1151  270.1682  106.5883     7446.7474     7445.3787     7448.1161  51.089425  72.866317  -0.000150   0.000106
1 66049U 25233S   26052.80916288  .00000029  00000-0  26686-4 0  9990 | 2 66049  88.9924  54.8510 0001853  89.9218 270.2145 13.50992155 17610 | 2026/02/21-19:25:11   28.0381    0.1151  270.1933  106.5883     7446.7474     7445.3675     7448.1273  51.233346  72.765318  -0.000151   0.000107
1 66049U 25233S   26053.92011838  .00000027  00000-0  23964-4 0  9995 | 2 66049  88.9925  54.7379 0001850  89.8764 270.2599 13.50992198 17761 | 2026/02/22-22:04:58   69.1902    0.1151  270.2387  106.5883     7446.7473     7445.3696     7448.1249  51.376940  72.664125  -0.000151   0.000107
1 66049U 25233S   26054.95701017  .00000043  00000-0  47337-4 0  9992 | 2 66049  88.9926  54.6323 0001861  89.7951 270.3413 13.50992281 17904 | 2026/02/23-22:58:05   83.5987    0.1151  270.3200  106.5883     7446.7470     7445.3611     7448.1328  51.510835  72.569392  -0.000151   0.000108
1 66049U 25233S   26056.14202926  .00000041  00000-0  44919-4 0  9991 | 2 66049  88.9927  54.5116 0001865  90.0462 270.0903 13.50992320 18063 | 2026/02/25-03:24:31  151.4942    0.1151  270.0689  106.5883     7446.7468     7445.3580     7448.1356  51.663655  72.460799  -0.000152   0.000108
1 66049U 25233S   26057.17892095  .00000038  00000-0  39635-4 0  9992 | 2 66049  88.9928  54.4060 0001869  90.1344 270.0022 13.50992352 18208 | 2026/02/26-04:17:38  165.9027    0.1152  269.9808  106.5883     7446.7467     7445.3549     7448.1385  51.797175  72.365538  -0.000152   0.000108
1 66049U 25233S   26058.21581258  .00000035  00000-0  36113-4 0  9999 | 2 66049  88.9929  54.3005 0001883  90.1681 269.9686 13.50992407 18346 | 2026/02/27-05:10:46  180.3111    0.1151  269.9470  106.5883     7446.7465     7445.3443     7448.1487  51.930394  72.270121  -0.000153   0.000109
1 66049U 25233S   26059.77114070  .00000055  00000-0  66832-4 0  9998 | 2 66049  88.9930  54.1423 0001891  90.6901 269.4466 13.51002956 18555 | 2026/02/28-18:30:26   21.9204    0.1150  269.4249  106.5875     7446.7077     7445.2996     7448.1159  52.129800  72.126541  -0.000155   0.000109
1 66049U 25233S   26060.80802423  .00000050  00000-0  58449-4 0  9990 | 2 66049  88.9932  54.0367 0001902  90.2867 269.8502 13.51002992 18693 | 2026/03/01-19:23:33   36.3259    0.1151  269.8284  106.5875     7446.7076     7445.2912     7448.1240  52.262763  72.030502  -0.000155   0.000111
1 66049U 25233S   26061.91897078  .00000030  00000-0  27481-4 0  9993 | 2 66049  88.9933  53.9237 0001905  90.5096 269.6274 13.51003033 18846 | 2026/03/02-22:03:19   77.4746    0.1152  269.6056  106.5875     7446.7074     7445.2888     7448.1260  52.404780  71.927369  -0.000155   0.000111
1 66049U 25233S   26062.95585416  .00000038  00000-0  40517-4 0  9991 | 2 66049  88.9935  53.8182 0001915  90.5753 269.5618 13.51003144 18986 | 2026/03/03-22:56:25   91.8800    0.1152  269.5399  106.5875     7446.7070     7445.2810     7448.1331  52.537251  71.830915  -0.000156   0.000111
1 66049U 25233S   26064.14086370  .00000046  00000-0  52286-4 0  9994 | 2 66049  88.9938  53.6977 0001924  90.7033 269.4338 13.51003226 19140 | 2026/03/05-03:22:50  159.7719    0.1151  269.4118  106.5875     7446.7067     7445.2740     7448.1395  52.688382  71.720505  -0.000156   0.000112
1 66049U 25233S   26065.25181019  .00000027  00000-0  23731-4 0  9995 | 2 66049  88.9940  53.5848 0001947  90.7251 269.4123 13.51003219 19296 | 2026/03/06-06:02:36  200.9203    0.1151  269.3900  106.5875     7446.7068     7445.2569     7448.1566  52.829721  71.616706  -0.000158   0.000114
1 66049U 25233S   26066.51088279  .00000034  00000-0  34438-4 0  9993 | 2 66049  88.9942  53.4569 0001963  90.5975 269.5401 13.51003304 19460 | 2026/03/07-12:15:40  295.5551    0.1151  269.5176  106.5875     7446.7064     7445.2447     7448.1682  52.989577  71.498758  -0.000159   0.000115
1 66049U 25233S   26067.54776601  .00000049  00000-0  57498-4 0  9997 | 2 66049  88.9944  53.3515 0001980  90.5217 269.6161 13.51003423 19602 | 2026/03/08-13:08:46  309.9603    0.1151  269.5934  106.5874     7446.7060     7445.2316     7448.1805  53.121134  71.401319  -0.000160   0.000117
1 66049U 25233S   26068.58464921  .00000050  00000-0  59050-4 0  9999 | 2 66049  88.9946  53.2462 0001984  90.3074 269.8304 13.51003480 19746 | 2026/03/09-14:01:53  324.3655    0.1151  269.8077  106.5874     7446.7058     7445.2284     7448.1832  53.252388  71.303731  -0.000160   0.000118
1 66049U 25233S   26069.84372155  .00000047  00000-0  54595-4 0  9991 | 2 66049  88.9947  53.1183 0001989  90.1886 269.9493 13.51003558 19915 | 2026/03/10-20:14:57   59.0004    0.1151  269.9265  106.5874     7446.7055     7445.2244     7448.1867  53.411484  71.184759  -0.000159   0.000119
1 66049U 25233S   26070.88060463  .00000057  00000-0  69617-4 0  9995 | 2 66049  88.9949  53.0129 0002011  90.0043 270.1338 13.51003664 20054 | 2026/03/11-21:08:04   73.4055    0.1151  270.1108  106.5874     7446.7051     7445.2076     7448.2027  53.542464  71.086544  -0.000161   0.000121
1 66049U 25233S   26071.91748763  .00000053  00000-0  62723-4 0  9993 | 2 66049  88.9950  52.9076 0002027  89.9641 270.1742 13.51003736 20197 | 2026/03/12-22:01:10   87.8104    0.1151  270.1510  106.5874     7446.7049     7445.1954     7448.2143  53.673079  70.988102  -0.000162   0.000122
1 66049U 25233S   26072.95437055  .00000048  00000-0  54982-4 0  9999 | 2 66049  88.9951  52.8024 0002035  89.7874 270.3510 13.51003801 20339 | 2026/03/13-22:54:17  102.2154    0.1151  270.3277  106.5874     7446.7046     7445.1892     7448.2200  53.803389  70.889513  -0.000162   0.000124
1 66049U 25233S   26074.28750562  .00000055  00000-0  66395-4 0  9997 | 2 66049  88.9954  52.6670 0002062  89.8511 270.2877 13.51003931 20515 | 2026/03/15-06:54:00  223.5930    0.1152  270.2641  106.5874     7446.7041     7445.1686     7448.2397  53.970945  70.762407  -0.000164   0.000125
1 66049U 25233S   26075.84282968  .00000052  00000-0  62527-4 0  9990 | 2 66049  88.9957  52.5092 0002086  89.6201 270.5189 13.51004078 20720 | 2026/03/16-20:13:40   65.2003    0.1151  270.4950  106.5874     7446.7036     7445.1502     7448.2570  54.165812  70.613734  -0.000165   0.000128
1 66049U 25233S   26076.87971235  .00000049  00000-0  57033-4 0  9998 | 2 66049  88.9959  52.4041 0002110  89.5105 270.6288 13.51004159 20861 | 2026/03/17-21:06:47   79.6049    0.1151  270.6046  106.5874     7446.7033     7445.1320     7448.2746  54.295372  70.514415  -0.000166   0.000130
