# SPACE DATA - HISTORICAL TLEs
# ----------------------------
# NORAD_ID    : 66721
# OBJECT_NAME : FLOCK 4H 18
# --------------------------------------------------------------------+-----------------------------------------------------------------------+----------------------------------------------------------------------------------------------------------------------------------------
#                  LINE 1                                             |                 LINE 2                                                |      DERIVED PARAMETERS
# --------------------------------------------------------------------+-----------------------------------------------------------------------+----------------------------------------------------------------------------------------------------------------------------------------
# NORAD  COSPAR     TLE_EPOCH      MEANMOT1 MEANMOT2   BSTAR  #  REV  |   NORAD    INC     RAAN     ECC    ARGPER  MEANANOM   MEANMOT     REV |  CAL_DATE              LONG     ARGLAT     PERIOD        SMA         PERIGEE        APOGEE      INC_X      INC_Y      ECC_X      ECC_Y
# ------ ------   -------------- ----------  -------  ------- -- ----     -----  ------- -------- ------- -------- -------- -----------  ----   ------------------- ---------  --------  --------  ------------  ------------   ----------- ---------- ----------  ---------  ---------   
1 66712U 25276AY  25352.14003907  .00005022  00000-0  25129-3 0  9996 | 2 66712  97.4436  63.8328 0002412 239.5681 120.5315 15.17861023  2946 | 2025/12/18-03:21:39   73.4818    0.1234  120.5553   94.8703     6890.4434     6888.7814     6892.1054  42.971861  87.456700   0.000133  -0.000201
1 66712U 25276AY  25353.59036390  .00004085  00000-0  20497-3 0  9999 | 2 66712  97.4436  65.2587 0002472 231.7535 128.3477 15.17874170  3164 | 2025/12/19-14:10:07  235.6007    0.1234  128.3699   94.8695     6890.4036     6888.7003     6892.1069  40.782274  88.498934   0.000112  -0.000220
1 66712U 25276AY  25354.64513830  .00004533  00000-0  22699-3 0  9999 | 2 66712  97.4434  66.2958 0002532 226.2441 133.8583 15.17884555  3322 | 2025/12/20-15:28:59  255.3209    0.1233  133.8792   94.8689     6890.3722     6888.6275     6892.1168  39.173698  89.222405   0.000097  -0.000234
1 66712U 25276AY  25355.76582955  .00008372  00000-0  41608-3 0  9993 | 2 66712  97.4429  67.3976 0002624 222.4547 137.6484 15.17899211  3490 | 2025/12/21-18:22:47  298.7718    0.1234  137.6687   94.8680     6890.3278     6888.5198     6892.1358  37.450619  89.958712   0.000089  -0.000247
1 66712U 25276AY  25356.88650982  .00011493  00000-0  56940-3 0  9996 | 2 66712  97.4425  68.4998 0002692 215.5676 144.5379 15.17918122  3665 | 2025/12/22-21:16:34  342.2167    0.1234  144.5558   94.8668     6890.2706     6888.4157     6892.1254  35.713112  90.662089   0.000065  -0.000261
1 66712U 25276AY  25358.13902001  .00016359  00000-0  80798-3 0  9992 | 2 66712  97.4422  69.7308 0002751 210.2124 149.8951 15.17941665  3850 | 2025/12/24-03:20:11   73.1219    0.1233  149.9109   94.8653     6890.1993     6888.3038     6892.0948  33.757041  91.408121   0.000048  -0.000271
1 66712U 25276AY  25359.25967394  .00013728  00000-0  67849-3 0  9991 | 2 66712  97.4418  70.8326 0002758 205.1176 154.9924 15.17957399  4023 | 2025/12/25-06:13:55  116.5576    0.1234  155.0058   94.8643     6890.1517     6888.2514     6892.0520  31.992995  92.039952   0.000029  -0.000274
1 66712U 25276AY  25360.57807703  .00007375  00000-0  36623-3 0  9992 | 2 66712  97.4416  72.1291 0002979 200.6685 159.4429 15.17964831  4228 | 2025/12/26-13:52:25  231.1843    0.1234  159.4549   94.8639     6890.1292     6888.0767     6892.1818  29.902223  92.740080   0.000015  -0.000298
1 66712U 25276AY  25361.83336806 -.00048531  00000-0 -24001-2 0  9990 | 2 66712  97.4416  73.3636 0003168 195.7763 179.7370 15.18015587  1308 | 2025/12/27-20:00:03  307.6899   15.5135  179.7372   94.8607     6889.9757     6887.7929     6892.1584  27.897251  93.362781  -0.000005  -0.000317
1 66712U 25276AY  25362.88523918  .00011088  00000-0  54808-3 0  9992 | 2 66712  97.4420  74.3981 0003139 192.7850 167.3305 15.18006091  4572 | 2025/12/28-21:14:44  341.7636    0.1234  167.3384   94.8613     6890.0044     6887.8416     6892.1672  26.207197  93.851618  -0.000015  -0.000314
1 66712U 25276AY  25364.16670139  .00057558  00000-0  28130-2 0  9993 | 2 66712  97.4423  75.6592 0003084 184.3407 334.3218 15.18011973  1303 | 2025/12/30-04:00:03  284.5450  158.6472  334.3065   94.8609     6889.9866     6887.8617     6892.1115  24.135384  94.405959  -0.000054  -0.000304
1 66712U 25276AY  25365.19233044  .00018228  00000-0  89654-3 0  9997 | 2 66712  97.4423  76.6671 0003296 182.1155 178.0066 15.18063907  4922 | 2025/12/31-04:36:57   92.3148    0.1234  178.0079   94.8577     6889.8294     6887.5586     6892.1003  22.471024  94.815900  -0.000064  -0.000323
1 66712U 25276AY  26001.24697693  .00017967  00000-0  88331-3 0  9995 | 2 66712  97.4419  77.7045 0003341 179.5174 180.6064 15.18081643  5088 | 2026/01/01-05:55:38  111.9880    0.1234  180.6060   94.8566     6889.7758     6887.4739     6892.0777  20.750608  95.206807  -0.000074  -0.000326
1 66712U 25276AY  26002.63117665  .00017618  00000-0  86549-3 0  9997 | 2 66712  97.4418  79.0655 0003437 177.7155 182.4096 15.18111742  5296 | 2026/01/02-15:08:53  250.3019    0.1234  182.4079   94.8547     6889.6847     6887.3167     6892.0527  18.483412  95.672712  -0.000079  -0.000335
1 66712U 25276AY  26003.94943733  .00011035  00000-0  54349-3 0  9995 | 2 66712  97.4414  80.3622 0003564 171.6073 188.5221 15.18132934  5499 | 2026/01/03-22:47:11    4.8741    0.1234  188.5161   94.8534     6889.6206     6887.1651     6892.0761  16.313562  96.066093  -0.000110  -0.000339
1 66712U 25276AY  26005.13585355  .00007363  00000-0  36372-3 0  9995 | 2 66712  97.4409  81.5287 0003653 167.9301 192.2021 15.18150699  5672 | 2026/01/05-03:15:37   71.9840    0.1234  192.1933   94.8522     6889.5669     6887.0501     6892.0836  14.354407  96.377798  -0.000128  -0.000342
1 66712U 25276AY  26006.19043233  .00007056  00000-0  34851-3 0  9995 | 2 66712  97.4404  82.5657 0003759 164.5632 195.5717 15.18168331  5834 | 2026/01/06-04:34:13   91.6321    0.1233  195.5601   94.8511     6889.5135     6886.9237     6892.1033  12.607739  96.621304  -0.000146  -0.000346
1 66712U 25276AY  26007.70637263  .00005389  00000-0  26685-3 0  9998 | 2 66712  97.4400  84.0564 0003833 161.1972 198.9405 15.18186578  6067 | 2026/01/07-16:57:10  277.3713    0.1234  198.9262   94.8500     6889.4583     6886.8176     6892.0990  10.089857  96.916193  -0.000160  -0.000348
1 66712U 25276AY  26009.15638510  .00006179  00000-0  30530-3 0  9997 | 2 66712  97.4399  85.4824 0003911 157.4632 202.6774 15.18205531  6283 | 2026/01/09-03:45:11   79.3761    0.1233  202.6601   94.8488     6889.4010     6886.7065     6892.0954   7.674885  97.137172  -0.000178  -0.000348
1 66712U 25276AY  26010.73819569  .00006110  00000-0  30175-3 0  9998 | 2 66712  97.4394  87.0381 0004036 151.9648 208.1804 15.18226828  6523 | 2026/01/10-17:43:00  288.8267    0.1234  208.1586   94.8475     6889.3365     6886.5560     6892.1171   5.034878  97.309232  -0.000208  -0.000346
1 66712U 25276AY  26011.92453920  .00006493  00000-0  32028-3 0  9998 | 2 66712  97.4395  88.2048 0004144 148.2890 211.8594 15.18243094  6706 | 2026/01/11-22:11:20  355.9098    0.1233  211.8343   94.8465     6889.2873     6886.4324     6892.1423   3.052490  97.391676  -0.000229  -0.000346
1 66712U 25276AY  26013.17677923  .00004264  00000-0  21144-3 0  9999 | 2 66712  97.4396  89.4364 0004227 144.9913 215.1599 15.18254050  6898 | 2026/01/13-04:14:33   86.7161    0.1233  215.1320   94.8458     6889.2542     6886.3421     6892.1663   0.958466  97.434886  -0.000246  -0.000344
1 66712U 25276AY  26014.62673142  .00003553  00000-0  17670-3 0  9998 | 2 66712  97.4396  90.8625 0004326 141.3135 218.8409 15.18264671  7117 | 2026/01/14-15:02:29  248.6987    0.1233  218.8098   94.8451     6889.2221     6886.2418     6892.2023  -1.466748  97.428560  -0.000265  -0.000342
1 66712U 25276AY  26015.74714193  .00003635  00000-0  18065-3 0  9994 | 2 66712  97.4398  91.9646 0004402 138.5019 221.6550 15.18273279  7289 | 2026/01/15-17:55:53  292.0462    0.1234  221.6215   94.8446     6889.1960     6886.1634     6892.2286  -3.340433  97.382525  -0.000280  -0.000340
1 66712U 25276AY  26017.19707329  .00005699  00000-0  28115-3 0  9997 | 2 66712  97.4394  93.3906 0004479 134.7902 225.3697 15.18290887  7505 | 2026/01/17-04:43:47   94.0217    0.1234  225.3332   94.8435     6889.1428     6886.0571     6892.2284  -5.762820  97.268837  -0.000299  -0.000334
1 66712U 25276AY  26018.64698983  .00005407  00000-0  26681-3 0  9996 | 2 66712  97.4391  94.8163 0004542 130.8769 229.2859 15.18305383  7727 | 2026/01/18-15:31:39  255.9921    0.1234  229.2465   94.8426     6889.0989     6885.9699     6892.2279  -8.181117  97.095044  -0.000317  -0.000325
1 66712U 25276AY  26019.76736865  .00005950  00000-0  29316-3 0  9993 | 2 66712  97.4387  95.9181 0004586 128.1462 232.0186 15.18318976  7897 | 2026/01/19-18:25:00  299.3290    0.1234  231.9772   94.8417     6889.0578     6885.8985     6892.2171 -10.046589  96.919380  -0.000330  -0.000319
1 66712U 25276AY  26022.13985118  .00009308  00000-0  45553-3 0  9997 | 2 66712  97.4378  98.2513 0004657 121.0629 239.1063 15.18398161  8255 | 2026/01/22-03:21:23   73.4235    0.1234  239.0605   94.8368     6888.8183     6885.6102     6892.0264 -13.983793  96.429137  -0.000360  -0.000295
1 66712U 25276AY  26023.45786191  .00008900  00000-0  43547-3 0  9991 | 2 66712  97.4368  99.5470 0004818 117.7255 242.4469 15.18418048  8452 | 2026/01/23-10:59:19  187.9076    0.1235  242.3980   94.8355     6888.7581     6885.4391     6892.0771 -16.160537  96.087289  -0.000383  -0.000292
1 66712U 25276AY  26024.51225559  .00010148  00000-0  49568-3 0  9991 | 2 66712  97.4366 100.5840 0004740 115.5357 244.6368 15.18438488  8617 | 2026/01/24-12:17:38  207.4915    0.1234  244.5877   94.8343     6888.6963     6885.4311     6891.9616 -17.896848  95.778880  -0.000383  -0.000279
1 66712U 25276AY  26025.83022895  .00009761  00000-0  47663-3 0  9998 | 2 66712  97.4367 101.8803 0004738 112.3114 247.8622 15.18462912  8813 | 2026/01/25-19:55:31  321.9635    0.1233  247.8119   94.8327     6888.6224     6885.3586     6891.8863 -20.059073  95.349589  -0.000392  -0.000266
1 66712U 25276AY  26027.14817910  .00010113  00000-0  49329-3 0  9998 | 2 66712  97.4370 103.1768 0004712 108.8924 251.2821 15.18490054  9014 | 2026/01/27-03:33:22   76.4272    0.1234  251.2310   94.8310     6888.5404     6885.2945     6891.7862 -22.211410  94.871609  -0.000399  -0.000250
1 66712U 25276AY  26028.66379371  .00009458  00000-0  46119-3 0  9994 | 2 66712  97.4374 104.6678 0004721 105.2336 254.9421 15.18519077  9240 | 2026/01/28-15:55:51  262.0501    0.1235  254.8899   94.8292     6888.4526     6885.2005     6891.7046 -24.672543  94.261936  -0.000409  -0.000235
1 66712U 25276AY  26030.17937683  .00009990  00000-0  48647-3 0  9998 | 2 66712  97.4369 106.1587 0004737 101.4076 258.7691 15.18551506  9475 | 2026/01/30-04:18:18   87.6620    0.1235  258.7159   94.8272     6888.3545     6885.0915     6891.6175 -27.116576  93.587610  -0.000420  -0.000219
1 66712U 25276AY  26031.36546548  .00006755  00000-0  32997-3 0  9993 | 2 66712  97.4369 107.3249 0004745  99.1353 261.0418 15.18568778  9656 | 2026/01/31-08:46:16  154.6564    0.1234  260.9881   94.8261     6888.3023     6885.0338     6891.5708 -29.015712  93.016331  -0.000425  -0.000211
1 66712U 25276AY  26032.74921972  .00006355  00000-0  31046-3 0  9994 | 2 66712  97.4366 108.6856 0004745  95.7108 264.4668 15.18587752  9861 | 2026/02/01-17:58:52  292.8106    0.1235  264.4127   94.8249     6888.2449     6884.9764     6891.5134 -31.216243  92.300797  -0.000432  -0.000196
1 66712U 25276AY  26034.13295515  .00006579  00000-0  32107-3 0  9993 | 2 66712  97.4358 110.0466 0004800  91.4238 268.7546 15.18608900 10071 | 2026/02/03-03:11:27   70.9574    0.1234  268.6996   94.8236     6888.1810     6884.8746     6891.4873 -33.399463  91.532568  -0.000447  -0.000176
1 66712U 25276AY  26035.18721474  .00007507  00000-0  36568-3 0  9994 | 2 66712  97.4351 111.0833 0004806  89.0153 271.1632 15.18628513 10232 | 2026/02/04-04:29:35   90.4932    0.1234  271.1081   94.8224     6888.1216     6884.8112     6891.4321 -35.049828  90.912641  -0.000451  -0.000165
1 66712U 25276AY  26036.63680093  .00010730  00000-0  52059-3 0  9991 | 2 66712  97.4348 112.5090 0004701  85.3549 274.8222 15.18658675 10452 | 2026/02/05-15:16:59  252.3487    0.1234  274.7685   94.8205     6888.0304     6884.7924     6891.2685 -37.300823  90.012159  -0.000447  -0.000144
1 66712U 25276AY  26037.75692009  .00008903  00000-0  43244-3 0  9990 | 2 66712  97.4345 113.6106 0004686  82.5634 277.6132 15.18674850 10628 | 2026/02/06-18:09:57  295.5946    0.1234  277.5600   94.8195     6887.9815     6884.7538     6891.2092 -39.024325  89.278126  -0.000450  -0.000131
1 66712U 25276AY  26039.14057853  .00007207  00000-0  35056-3 0  9995 | 2 66712  97.4343 114.9715 0004620  78.9739 281.2014 15.18693892 10839 | 2026/02/08-03:22:25   73.7158    0.1234  281.1495   94.8183     6887.9240     6884.7417     6891.1062 -41.133585  88.325936  -0.000448  -0.000111
1 66712U 25276AY  26040.19478245  .00006771  00000-0  32939-3 0  9996 | 2 66712  97.4341 116.0081 0004665  74.1697 286.0052 15.18708758 10996 | 2026/02/09-04:40:29   93.2321    0.1235  285.9538   94.8174     6887.8790     6884.6658     6891.0922 -42.724678  87.567150  -0.000459  -0.000082
1 66712U 25276AY  26041.51252321  .00005882  00000-0  28647-3 0  9991 | 2 66712  97.4341 117.3042 0004596  72.8556 287.3182 15.18724796 11190 | 2026/02/10-12:18:02  207.6226    0.1235  287.2679   94.8164     6887.8305     6884.6649     6890.9962 -44.694453  86.578344  -0.000452  -0.000081
1 66712U 25276AY  26042.76436336  .00007027  00000-0  34142-3 0  9999 | 2 66712  97.4341 118.5356 0004513  69.3177 290.8541 15.18742831 11389 | 2026/02/11-18:20:40  298.2895    0.1235  290.8058   94.8153     6887.7760     6884.6675     6890.8844 -46.544728  85.597851  -0.000447  -0.000062
1 66712U 25276AY  26044.14795903  .00006526  00000-0  31716-3 0  9998 | 2 66712  97.4341 119.8967 0004438  66.5599 293.6101 15.18761785 11599 | 2026/02/13-03:33:03   76.3884    0.1234  293.5635   94.8141     6887.7187     6884.6619     6890.7755 -48.564839  84.468102  -0.000441  -0.000050
1 66712U 25276AY  26045.20211558  .00006620  00000-0  32152-3 0  9995 | 2 66712  97.4341 120.9337 0004401  63.8364 296.3323 15.18776478 11752 | 2026/02/14-04:51:02   95.8881    0.1235  296.2871   94.8132     6887.6743     6884.6430     6890.7055 -50.085595  83.575337  -0.000439  -0.000037
1 66712U 25276AY  26046.78333395  .00006739  00000-0  32705-3 0  9998 | 2 66712  97.4338 122.4889 0004337  58.8472 301.3187 15.18796315 11992 | 2026/02/15-18:48:00  305.1328    0.1234  301.2762   94.8119     6887.6143     6884.6271     6890.6014 -52.335222  82.184974  -0.000434  -0.000010
1 66712U 25276AY  26048.16688320  .00007330  00000-0  35526-3 0  9995 | 2 66712  97.4334 123.8495 0004247  55.6940 304.4696 15.18814544 12200 | 2026/02/17-04:00:18   83.2159    0.1235  304.4295   94.8108     6887.5592     6884.6340     6890.4843 -54.271702  80.918785  -0.000425   0.000003
1 66712U 25276AY  26049.74806217  .00006039  00000-0  29317-3 0  9993 | 2 66712  97.4326 125.4042 0004116  51.2888 308.8713 15.18832321 12442 | 2026/02/18-17:57:12  292.4476    0.1234  308.8346   94.8097     6887.5054     6884.6705     6890.3403 -56.446692  79.415883  -0.000411   0.000024
1 66712U 25276AY  26051.19745779  .00005611  00000-0  27251-3 0  9990 | 2 66712  97.4321 126.8297 0003990  47.3544 312.8026 15.18850132 12664 | 2026/02/20-04:44:20   94.2363    0.1234  312.7690   94.8086     6887.4516     6884.7035     6890.1997 -58.404560  77.986675  -0.000397   0.000040
1 66712U 25276AY  26052.44919405  .00006794  00000-0  32903-3 0  9991 | 2 66712  97.4318 128.0612 0003945  44.2566 315.8983 15.18868595 12853 | 2026/02/21-10:46:50  184.8657    0.1234  315.8668   94.8074     6887.3958     6884.6787     6890.1128 -60.066981  76.713190  -0.000391   0.000053
1 66712U 25276AY  26053.63503661  .00008374  00000-0  40450-3 0  9998 | 2 66712  97.4313 129.2274 0003797  41.0302 319.1218 15.18887036 13033 | 2026/02/22-15:14:27  251.7745    0.1235  319.0933   94.8063     6887.3400     6884.7249     6889.9551 -61.615537  75.474392  -0.000374   0.000064
1 66712U 25276AY  26055.15025864  .00007472  00000-0  36111-3 0  9998 | 2 66712  97.4311 130.7176 0003707  36.5861 323.5626 15.18909523 13262 | 2026/02/24-03:36:22   77.2610    0.1235  323.5374   94.8049     6887.2720     6884.7189     6889.8252 -63.557352  73.846342  -0.000362   0.000081
1 66712U 25276AY  26056.20431068  .00007100  00000-0  34315-3 0  9994 | 2 66712  97.4315 131.7547 0003618  34.0518 326.0948 15.18926860 13428 | 2026/02/25-04:54:12   96.7237    0.1235  326.0717   94.8038     6887.2196     6884.7278     6889.7114 -64.883812  72.684167  -0.000351   0.000089
1 66712U 25276AY  26058.18063250  .00006449  00000-0  31178-3 0  9996 | 2 66712  97.4312 133.6985 0003449  28.4931 331.6491 15.18952679 13725 | 2026/02/27-04:20:06   88.2081    0.1234  331.6303   94.8022     6887.1416     6884.7662     6889.5170 -67.311658  70.441319  -0.000328   0.000105
1 66712U 25276AY  26059.76166546  .00006782  00000-0  32747-3 0  9996 | 2 66712  97.4312 135.2534 0003304  22.9180 337.2202 15.18973912 13969 | 2026/02/28-18:16:47  297.3874    0.1235  337.2055   94.8008     6887.0774     6884.8019     6889.3529 -69.198284  68.588893  -0.000307   0.000123
1 66712U 25276AY  26061.14504907  .00007694  00000-0  37080-3 0  9996 | 2 66712  97.4310 136.6139 0003191  18.7026 341.4326 15.18996217 14170 | 2026/03/02-03:28:52   75.4115    0.1236  341.4210   94.7994     6887.0100     6884.8123     6889.2076 -70.807135  66.926447  -0.000290   0.000133
1 66712U 25276AY  26062.19904220  .00007382  00000-0  35573-3 0  9993 | 2 66712  97.4307 137.6505 0003112  15.2952 344.8376 15.19012647 14334 | 2026/03/03-04:46:37   94.8537    0.1235  344.8283   94.7984     6886.9603     6884.8171     6889.1036 -72.006098  65.634314  -0.000277   0.000142
