# SPACE DATA - HISTORICAL TLEs
# ----------------------------
# NORAD_ID    : 66721
# OBJECT_NAME : FLOCK 4H 18
# --------------------------------------------------------------------+-----------------------------------------------------------------------+----------------------------------------------------------------------------------------------------------------------------------------
#                  LINE 1                                             |                 LINE 2                                                |      DERIVED PARAMETERS
# --------------------------------------------------------------------+-----------------------------------------------------------------------+----------------------------------------------------------------------------------------------------------------------------------------
# NORAD  COSPAR     TLE_EPOCH      MEANMOT1 MEANMOT2   BSTAR  #  REV  |   NORAD    INC     RAAN     ECC    ARGPER  MEANANOM   MEANMOT     REV |  CAL_DATE              LONG     ARGLAT     PERIOD        SMA         PERIGEE        APOGEE      INC_X      INC_Y      ECC_X      ECC_Y
# ------ ------   -------------- ----------  -------  ------- -- ----     -----  ------- -------- ------- -------- -------- -----------  ----   ------------------- ---------  --------  --------  ------------  ------------   ----------- ---------- ----------  ---------  ---------   
1 66729U 25276BR  25352.74358273  .00004593  00000-0  23509-3 0  9991 | 2 66729  97.4409  64.3907 0003603 280.7965  79.2863 15.17106884  3035 | 2025/12/18-17:50:45  290.8113    0.1234   79.3269   94.9175     6892.7266     6890.2432     6895.2101  42.117087  87.868538   0.000348  -0.000092
1 66729U 25276BR  25353.75001156 -.00020405  00000-0 -10287-2 0  9998 | 2 66729  97.4409  65.3785 0003413 273.7061 179.5795 15.17142905  1308 | 2025/12/19-18:00:00  199.9271   93.2859  179.5798   94.9153     6892.6175     6890.2651     6894.9700  40.596018  88.581558   0.000319  -0.000122
1 66729U 25276BR  25355.18397106  .00005279  00000-0  26948-3 0  9992 | 2 66729  97.4401  66.7866 0003669 268.7658  91.3155 15.17129278  3406 | 2025/12/21-04:24:55   89.3621    0.1233   91.3575   94.9161     6892.6588     6890.1299     6895.1877  38.406684  89.551659   0.000334  -0.000152
1 66729U 25276BR  25356.23926475  .00009988  00000-0  50638-3 0  9990 | 2 66729  97.4400  67.8234 0003719 265.3627  94.7182 15.17143911  3565 | 2025/12/22-05:44:32  109.2715    0.1234   94.7607   94.9152     6892.6145     6890.0511     6895.1779  36.779958  90.231859   0.000332  -0.000168
1 66729U 25276BR  25357.75623433  .00009373  00000-0  47523-3 0  9993 | 2 66729  97.4391  69.3114 0003716 257.5397 102.5421 15.17160807  3794 | 2025/12/23-18:08:58  295.3869    0.1234  102.5837   94.9141     6892.5633     6890.0020     6895.1246  34.424134  91.155676   0.000311  -0.000203
1 66729U 25276BR  25358.81150523  .00007197  00000-0  36564-3 0  9991 | 2 66729  97.4390  70.3476 0003686 251.4831 108.6002 15.17172639  3954 | 2025/12/24-19:28:34  315.2868    0.1233  108.6402   94.9134     6892.5275     6889.9869     6895.0681  32.770001  91.763205   0.000290  -0.000228
1 66729U 25276BR  25359.93272013  .00006230  00000-0  31688-3 0  9993 | 2 66729  97.4388  71.4483 0003660 245.7136 114.3715 15.17186222  4125 | 2025/12/25-22:23:07  358.9268    0.1233  114.4097   94.9125     6892.4863     6889.9637     6895.0090  31.001151  92.375583   0.000268  -0.000249
1 66729U 25276BR  25361.18583016  .00007622  00000-0  38668-3 0  9992 | 2 66729  97.4386  72.6783 0003721 240.1679 119.9185 15.17203880  4311 | 2025/12/27-04:27:35   90.0502    0.1233  119.9554   94.9114     6892.4329     6889.8682     6894.9975  29.011023  93.019575   0.000253  -0.000273
1 66729U 25276BR  25362.24107045  .00012711  00000-0  64185-3 0  9992 | 2 66729  97.4387  73.7146 0003830 235.9983 124.0887 15.17222868  4478 | 2025/12/28-05:47:08  109.9399    0.1233  124.1250   94.9102     6892.3754     6889.7356     6895.0151  27.323967  93.529146   0.000245  -0.000295
1 66729U 25276BR  25363.42820206  .00014938  00000-0  75297-3 0  9993 | 2 66729  97.4388  74.8800 0003977 231.8000 128.2876 15.17246389  4653 | 2025/12/29-10:16:36  177.3114    0.1234  128.3234   94.9088     6892.3041     6889.5631     6895.0452  25.416083  94.065628   0.000238  -0.000319
1 66729U 25276BR  25364.54936725  .00015536  00000-0  78249-3 0  9996 | 2 66729  97.4391  75.9811 0003953 227.0939 132.9963 15.17264997  4826 | 2025/12/30-13:11:05  220.9323    0.1233  133.0294   94.9076     6892.2478     6889.5233     6894.9723  23.603838  94.536961   0.000216  -0.000331
1 66729U 25276BR  25365.86836511  .00017440  00000-0  87722-3 0  9996 | 2 66729  97.4394  77.2764 0003987 219.2666 140.8279 15.17287234  5028 | 2025/12/31-20:50:26  335.7720    0.1233  140.8567   94.9062     6892.1804     6889.4325     6894.9284  21.460834  95.046669   0.000178  -0.000357
1 66729U 25276BR  26001.92354707  .00016994  00000-0  85432-3 0  9992 | 2 66729  97.4391  78.3123 0004036 214.7465 145.3505 15.17311476  5184 | 2026/01/01-22:09:54  355.6391    0.1233  145.3768   94.9047     6892.1070     6889.3254     6894.8887  19.738928  95.418829   0.000158  -0.000371
1 66729U 25276BR  26003.17656013  .00011011  00000-0  55492-3 0  9994 | 2 66729  97.4383  79.5429 0004225 211.2641 148.8342 15.17325290  5372 | 2026/01/03-04:14:14   86.7269    0.1233  148.8592   94.9038     6892.0652     6889.1533     6894.9771  17.684980  95.819955   0.000150  -0.000395
1 66729U 25276BR  26004.42955472  .00016814  00000-0  84440-3 0  9995 | 2 66729  97.4379  80.7729 0004379 210.0789 150.0193 15.17347952  5563 | 2026/01/04-10:18:33  177.8101    0.1233  150.0444   94.9024     6891.9966     6888.9786     6895.0146  15.623979  96.177106   0.000156  -0.000409
1 66729U 25276BR  26006.14415389  .00006809  00000-0  34416-3 0  9995 | 2 66729  97.4374  82.4561 0004458 200.1684 159.9374 15.17368709  5824 | 2026/01/06-03:27:34   75.0650    0.1233  159.9549   94.9011     6891.9337     6888.8613     6895.0061  12.792147  96.594037   0.000097  -0.000435
1 66729U 25276BR  26007.19927866  .00005492  00000-0  27819-3 0  9995 | 2 66729  97.4371  83.4919 0004533 195.7238 164.3855 15.17380898  5981 | 2026/01/07-04:46:57   94.9106    0.1233  164.3995   94.9004     6891.8968     6888.7727     6895.0209  11.043879  96.809200   0.000073  -0.000447
1 66729U 25276BR  26008.71600705  .00005827  00000-0  29478-3 0  9999 | 2 66729  97.4366  84.9810 0004670 190.6455 169.4680 15.17398353  6212 | 2026/01/08-17:11:03  280.9345    0.1233  169.4778   94.8993     6891.8440     6888.6255     6895.0624   8.524347  97.063003   0.000046  -0.000465
1 66729U 25276BR  26010.95809783  .00005708  00000-0  28867-3 0  9994 | 2 66729  97.4365  87.1823 0004889 182.9237 177.1969 15.17421700  6550 | 2026/01/10-22:59:39    8.0887    0.1233  177.1996   94.8978     6891.7733     6888.4039     6895.1427   4.789815  97.318699   0.000001  -0.000489
1 66729U 25276BR  26012.14507070  .00006428  00000-0  32445-3 0  9998 | 2 66729  97.4366  88.3478 0005001 178.7369 181.3879 15.17437708  6738 | 2026/01/12-03:28:54   75.3991    0.1234  181.3865   94.8968     6891.7248     6888.2782     6895.1713   2.809325  97.396092  -0.000025  -0.000499
1 66729U 25276BR  26013.20014947  .00004285  00000-0  21742-3 0  9999 | 2 66729  97.4367  89.3840 0005080 174.9075 185.2211 15.17446083  6898 | 2026/01/13-04:48:12   95.2274    0.1233  185.2158   94.8963     6891.6994     6888.1985     6895.2004   1.047544  97.431069  -0.000051  -0.000505
1 66729U 25276BR  26014.45304942  .00002834  00000-0  14491-3 0  9995 | 2 66729  97.4366  90.6142 0005186 171.1754 188.9572 15.17452519  7080 | 2026/01/14-10:52:23  186.2721    0.1234  188.9480   94.8959     6891.6800     6888.1059     6895.2540  -1.044482  97.431002  -0.000074  -0.000513
1 66729U 25276BR  26015.70594438  .00002716  00000-0  13899-3 0  9995 | 2 66729  97.4365  91.8443 0005309 167.0946 193.0425 15.17459209  7278 | 2026/01/15-16:56:33  277.3146    0.1234  193.0288   94.8955     6891.6597     6888.0009     6895.3185  -3.135852  97.386025  -0.000102  -0.000521
1 66729U 25276BR  26016.95883233  .00004890  00000-0  24740-3 0  9999 | 2 66729  97.4364  93.0746 0005416 163.2205 196.9209 15.17471529  7464 | 2026/01/16-23:00:43    8.3546    0.1233  196.9028   94.8947     6891.6224     6887.8899     6895.3549  -5.226113  97.296145  -0.000128  -0.000526
1 66729U 25276BR  26018.47547154  .00005353  00000-0  27037-3 0  9994 | 2 66729  97.4361  94.5636 0005545 158.4356 201.7112 15.17486992  7694 | 2026/01/18-11:24:40  194.3452    0.1233  201.6877   94.8937     6891.5756     6887.7542     6895.3970  -7.752567  97.127191  -0.000162  -0.000530
1 66729U 25276BR  26019.79427381  .00005260  00000-0  26564-3 0  9990 | 2 66729  97.4356  95.8583 0005636 154.4453 205.7061 15.17501884  7895 | 2026/01/19-19:03:45  309.1146    0.1234  205.6781   94.8928     6891.5305     6887.6464     6895.4146  -9.945112  96.926730  -0.000190  -0.000531
1 66729U 25276BR  26021.44270605  .00025544  00000-0  12699-2 0  9990 | 2 66729  97.4354  97.4771 0005651 150.5274 209.6279 15.17607525  8147 | 2026/01/21-10:37:29  182.5522    0.1233  209.5959   94.8862     6891.2107     6887.3165     6895.1049 -12.679261  96.606902  -0.000212  -0.000524
1 66729U 25276BR  26022.76144578  .00008737  00000-0  43766-3 0  9990 | 2 66729  97.4344  98.7717 0005778 146.1179 214.0425 15.17597479  8346 | 2026/01/22-18:16:28  297.2987    0.1234  214.0055   94.8868     6891.2411     6887.2593     6895.2228 -14.858522  96.294790  -0.000245  -0.000523
1 66729U 25276BR  26025.46475724  .00010534  00000-0  52594-3 0  9997 | 2 66729  97.4342 101.4260 0006047 137.1975 222.9730 15.17655633  8752 | 2026/01/25-11:09:15  190.4909    0.1233  222.9258   94.8832     6891.0650     6886.8980     6895.2321 -19.301925  95.503189  -0.000315  -0.000516
1 66729U 25276BR  26027.17899711  .00011474  00000-0  57190-3 0  9994 | 2 66729  97.4349 103.1092 0006162 132.2995 227.8761 15.17695015  9013 | 2026/01/27-04:17:45   87.6186    0.1233  227.8238   94.8807     6890.9458     6886.6996     6895.1920 -22.098985  94.895704  -0.000350  -0.000507
1 66729U 25276BR  26028.82726820  .00011401  00000-0  56773-3 0  9993 | 2 66729  97.4348 104.7271 0006029 128.4091 231.7685 15.17727882  9268 | 2026/01/28-19:51:15  321.0009    0.1234  231.7143   94.8787     6890.8464     6886.6919     6895.0008 -24.769428  94.233835  -0.000362  -0.000482
1 66729U 25276BR  26030.73920968  .00008614  00000-0  42941-3 0  9999 | 2 66729  97.4346 106.6055 0006223 122.5798 237.6038 15.17770077  9555 | 2026/01/30-17:44:27  289.2999    0.1234  237.5436   94.8760     6890.7186     6886.4305     6895.0067 -27.844895  93.371104  -0.000407  -0.000471
1 66729U 25276BR  26031.92590956  .00006318  00000-0  31574-3 0  9990 | 2 66729  97.4337 107.7709 0006304 119.4050 240.7814 15.17786251  9737 | 2026/01/31-22:13:18  356.5133    0.1234  240.7184   94.8750     6890.6697     6886.3258     6895.0136 -29.737904  92.784605  -0.000429  -0.000462
1 66729U 25276BR  26033.17852337  .00006719  00000-0  33538-3 0  9990 | 2 66729  97.4329 109.0007 0006329 116.0224 244.1663 15.17804548  9928 | 2026/02/02-04:17:04   87.4569    0.1234  244.1010   94.8739     6890.6143     6886.2532     6894.9754 -31.722175  92.124229  -0.000447  -0.000448
1 66729U 25276BR  26034.43112064  .00007978  00000-0  39734-3 0  9998 | 2 66729  97.4326 110.2308 0006320 113.0821 247.1080 15.17825778 10111 | 2026/02/03-10:20:48  178.3950    0.1234  247.0413   94.8725     6890.5501     6886.1952     6894.9049 -33.692451  91.421717  -0.000460  -0.000434
1 66729U 25276BR  26035.68369926  .00008778  00000-0  43650-3 0  9998 | 2 66729  97.4323 111.4606 0006307 109.6030 250.5885 15.17849596 10306 | 2026/02/04-16:24:31  269.3267    0.1234  250.5204   94.8711     6890.4780     6886.1321     6894.8238 -35.646711  90.677258  -0.000476  -0.000414
1 66729U 25276BR  26036.73848538  .00011326  00000-0  56161-3 0  9990 | 2 66729  97.4320 112.4963 0006391 106.3900 253.8037 15.17875339 10469 | 2026/02/05-17:43:25  289.0514    0.1234  253.7334   94.8695     6890.4001     6885.9964     6894.8037 -37.279799  90.017838  -0.000497  -0.000401
1 66729U 25276BR  26038.18879428  .00008489  00000-0  42163-3 0  9996 | 2 66729  97.4313 113.9208 0006436 102.4088 257.7866 15.17898485 10687 | 2026/02/07-04:31:51   91.1659    0.1233  257.7145   94.8680     6890.3300     6885.8954     6894.7646 -39.505806  89.062616  -0.000518  -0.000381
1 66729U 25276BR  26039.44131675  .00007637  00000-0  37950-3 0  9993 | 2 66729  97.4309 115.1504 0006423  99.2479 260.9481 15.17916094 10875 | 2026/02/08-10:35:29  182.0784    0.1233  260.8754   94.8669     6890.2767     6885.8511     6894.7023 -41.407727  88.193993  -0.000530  -0.000363
1 66729U 25276BR  26040.75974476  .00007639  00000-0  37938-3 0  9991 | 2 66729  97.4312 116.4449 0006322  95.8801 264.3153 15.17935495 11073 | 2026/02/09-18:14:01  296.7181    0.1233  264.2432   94.8657     6890.2180     6885.8620     6894.5740 -43.389715  87.236296  -0.000534  -0.000338
1 66729U 25276BR  26041.94631509  .00007452  00000-0  37004-3 0  9997 | 2 66729  97.4312 117.6102 0006372  92.7606 267.4357 15.17953333 11257 | 2026/02/10-22:42:41    3.8867    0.1234  267.3628   94.8646     6890.1640     6885.7736     6894.5544 -45.154859  86.335841  -0.000550  -0.000322
1 66729U 25276BR  26043.19878938  .00007627  00000-0  37842-3 0  9999 | 2 66729  97.4316 118.8404 0006399  89.2153 270.9814 15.17974202 11442 | 2026/02/12-04:46:15   94.7814    0.1234  270.9081   94.8633     6890.1009     6885.6919     6894.5099 -46.998222  85.346844  -0.000565  -0.000301
1 66729U 25276BR  26044.71492192  .00005844  00000-0  29060-3 0  9994 | 2 66729  97.4313 120.3293 0006396  84.9542 275.2422 15.17994168 11675 | 2026/02/13-17:09:29  280.5949    0.1234  275.1692   94.8620     6890.0405     6885.6336     6894.4473 -49.199794  84.096602  -0.000578  -0.000273
1 66729U 25276BR  26046.16511827  .00005893  00000-0  29285-3 0  9995 | 2 66729  97.4311 121.7533 0006291  80.8865 279.3080 15.18011719 11894 | 2026/02/15-03:57:46   82.6728    0.1234  279.2369   94.8609     6889.9874     6885.6529     6894.3219 -51.274373  82.847800  -0.000581  -0.000242
1 66729U 25276BR  26047.54937679  .00007929  00000-0  39254-3 0  9994 | 2 66729  97.4310 123.1128 0006285  77.7081 282.4857 15.18035790 12104 | 2026/02/16-13:11:06  221.0115    0.1235  282.4154   94.8594     6889.9145     6885.5842     6894.2448 -53.225493  81.607884  -0.000587  -0.000223
1 66729U 25276BR  26048.66995318  .00006177  00000-0  30646-3 0  9992 | 2 66729  97.4303 124.2123 0006316  74.4028 285.7903 15.18050702 12279 | 2026/02/17-16:04:43  264.4247    0.1234  285.7206   94.8585     6889.8694     6885.5178     6894.2210 -54.781250  80.570950  -0.000599  -0.000202
1 66729U 25276BR  26049.72460270  .00005786  00000-0  28719-3 0  9997 | 2 66729  97.4298 125.2481 0006272  71.3560 288.8355 15.18064702 12436 | 2026/02/18-17:23:25  284.1038    0.1235  288.7675   94.8576     6889.8270     6885.5057     6894.1483 -56.228502  79.567088  -0.000601  -0.000179
1 66729U 25276BR  26050.77924368  .00005747  00000-0  28516-3 0  9999 | 2 66729  97.4296 126.2843 0006135  68.9789 291.2101 15.18076981 12596 | 2026/02/19-18:42:06  303.7804    0.1234  291.1445   94.8568     6889.7899     6885.5630     6894.0168 -57.658089  78.537072  -0.000592  -0.000162
1 66729U 25276BR  26052.16344859  .00006252  00000-0  30981-3 0  9996 | 2 66729  97.4293 127.6438 0006057  65.1527 295.0336 15.18092949 12808 | 2026/02/21-03:55:21   82.1017    0.1234  294.9707   94.8559     6889.7416     6885.5685     6893.9147 -59.505009  77.146759  -0.000591  -0.000134
1 66729U 25276BR  26053.67946205  .00008149  00000-0  40244-3 0  9996 | 2 66729  97.4290 129.1326 0005963  60.7162 299.4667 15.18116945 13033 | 2026/02/22-16:18:25  267.8754    0.1234  299.4072   94.8544     6889.6690     6885.5607     6893.7773 -61.489123  75.574452  -0.000588  -0.000102
1 66729U 25276BR  26054.93180266  .00006774  00000-0  33496-3 0  9996 | 2 66729  97.4289 130.3622 0005964  57.7921 302.3890 15.18135052 13227 | 2026/02/23-22:21:47  358.7246    0.1234  302.3313   94.8532     6889.6142     6885.5052     6893.7232 -63.096646  74.237483  -0.000590  -0.000085
1 66729U 25276BR  26056.11821609  .00005423  00000-0  26875-3 0  9994 | 2 66729  97.4288 131.5275 0005852  54.2150 305.9627 15.18150484 13408 | 2026/02/25-02:50:13   65.8409    0.1234  305.9084   94.8523     6889.5675     6885.5357     6893.5993 -64.593292  72.938863  -0.000582  -0.000059
1 66729U 25276BR  26057.63416947  .00007255  00000-0  35822-3 0  9994 | 2 66729  97.4332 133.0121 0005211  50.2599 309.9093 15.18164737 13639 | 2026/02/26-15:13:12  251.6022    0.1234  309.8635   94.8514     6889.5244     6885.9343     6893.1145 -66.464330  71.244097  -0.000520  -0.000030
1 66729U 25276BR  26059.15010325  .00007825  00000-0  38568-3 0  9996 | 2 66729  97.4289 134.5049 0005606  45.1987 314.9702 15.18197738 13862 | 2026/02/28-03:36:08   77.3400    0.1234  314.9247   94.8493     6889.4245     6885.5623     6893.2868 -68.294761  69.485366  -0.000561   0.000003
1 66729U 25276BR  26060.20465021  .00007981  00000-0  39312-3 0  9992 | 2 66729  97.4287 135.5403 0005546  42.4998 317.6665 15.18215035 14028 | 2026/03/01-04:54:41   96.9835    0.1235  317.6237   94.8482     6889.3722     6885.5514     6893.1931 -69.539079  68.239784  -0.000554   0.000019
1 66729U 25276BR  26061.45690916  .00007959  00000-0  39180-3 0  9991 | 2 66729  97.4281 136.7698 0005463  38.9598 321.2029 15.18235184 14218 | 2026/03/02-10:57:56  187.8052    0.1235  321.1637   94.8470     6889.3113     6885.5476     6893.0749 -70.986865  66.731550  -0.000545   0.000041
1 66729U 25276BR  26062.70915172  .00008533  00000-0  41959-3 0  9990 | 2 66729  97.4275 137.9993 0005318  34.6297 325.5282 15.18255919 14407 | 2026/03/03-17:01:10  278.6220    0.1234  325.4937   94.8457     6889.2485     6885.5848     6892.9122 -72.401946  65.192607  -0.000527   0.000068
