# SPACE DATA - HISTORICAL TLEs
# ----------------------------
# NORAD_ID    : 66721
# OBJECT_NAME : FLOCK 4H 18
# --------------------------------------------------------------------+-----------------------------------------------------------------------+----------------------------------------------------------------------------------------------------------------------------------------
#                  LINE 1                                             |                 LINE 2                                                |      DERIVED PARAMETERS
# --------------------------------------------------------------------+-----------------------------------------------------------------------+----------------------------------------------------------------------------------------------------------------------------------------
# NORAD  COSPAR     TLE_EPOCH      MEANMOT1 MEANMOT2   BSTAR  #  REV  |   NORAD    INC     RAAN     ECC    ARGPER  MEANANOM   MEANMOT     REV |  CAL_DATE              LONG     ARGLAT     PERIOD        SMA         PERIGEE        APOGEE      INC_X      INC_Y      ECC_X      ECC_Y
# ------ ------   -------------- ----------  -------  ------- -- ----     -----  ------- -------- ------- -------- -------- -----------  ----   ------------------- ---------  --------  --------  ------------  ------------   ----------- ---------- ----------  ---------  ---------   
1 66733U 25276BV  25352.67646775  .00005137  00000-0  26186-3 0  9994 | 2 66733  97.4449  64.3397 0003225 285.2215  74.8662 15.17196723  3023 | 2025/12/18-16:14:06  266.6298    0.1234   74.9019   94.9119     6892.4545     6890.2317     6894.6774  42.197016  87.834619   0.000317  -0.000058
1 66733U 25276BV  25353.75001156 -.00020106  00000-0 -10110-2 0  9996 | 2 66733  97.4452  65.3942 0003061 277.3808 182.5821 15.17234301  2615 | 2025/12/19-18:00:00  193.2341   99.9613  182.5805   94.9095     6892.3407     6890.2310     6894.4505  40.573534  88.596588   0.000292  -0.000091
1 66733U 25276BV  25354.91837990  .00166437  00000-0  79948-2 0  9998 | 2 66733  97.4405  66.5451 0007921 250.1182 109.9199 15.18050520  3368 | 2025/12/20-22:02:28  353.7722    0.1234  110.0052   94.8585     6889.8700     6884.4125     6895.3274  38.783958  89.389348   0.000576  -0.000544
1 66733U 25276BV  25356.16668980  .00049182  00000-0  24622-2 0  9994 | 2 66733  97.4434  67.7693 0003219 269.5696  61.8569 15.17216162  2979 | 2025/12/22-04:00:01  111.7815  331.4590   61.8894   94.9107     6892.3957     6890.1770     6894.6143  36.866427  90.200237   0.000297  -0.000124
1 66733U 25276BV  25357.75464969 -.00025633  00000-0 -12832-2 0  9998 | 2 66733  97.4431  69.3282 0003011 266.6326  93.4563 15.17439355  3793 | 2025/12/23-18:06:41  294.7909    0.1233   93.4907   94.8967     6891.7198     6889.6447     6893.7949  34.398817  91.169508   0.000275  -0.000123
1 66733U 25276BV  25358.83334491 -.00051747  00000-0 -26128-2 0  9992 | 2 66733  97.4435  70.3881 0003201 252.5740 235.1160 15.17309070  3382 | 2025/12/24-20:00:01  195.5234  127.6599  235.0859   94.9049     6892.1143     6889.9081     6894.3205  32.706640  91.790584   0.000256  -0.000193
1 66733U 25276BV  25359.83335647 -.00050016  00000-0 -25240-2 0  9999 | 2 66733  97.4433  71.3705 0003185 247.3664 299.1175 15.17318686  3530 | 2025/12/25-20:00:01  136.7370  186.4520  299.0856   94.9043     6892.0852     6889.8901     6894.2803  31.127994  92.337667   0.000239  -0.000210
1 66733U 25276BV  25360.92034634 -.00026773  00000-0 -13478-2 0  9996 | 2 66733  97.4427  72.4387 0003094 232.2735 127.8218 15.17251433  4275 | 2025/12/26-22:05:17  354.4451    0.1233  127.8498   94.9085     6892.2889     6890.1564     6894.4213  29.400996  92.901352   0.000176  -0.000254
1 66733U 25276BV  25362.17334964  .00012128  00000-0  61084-3 0  9998 | 2 66733  97.4428  73.6694 0003342 239.1019 120.9886 15.17326213  4462 | 2025/12/28-04:09:37   85.5354    0.1233  121.0214   94.9038     6892.0624     6889.7591     6894.3657  27.398896  93.511495   0.000227  -0.000245
1 66733U 25276BV  25363.49229704  .00033516  00000-0  16761-2 0  9994 | 2 66733  97.4436  74.9655 0003308 253.9337 106.1533 15.17351906  4665 | 2025/12/29-11:48:54  200.3639    0.1234  106.1897   94.9022     6891.9846     6889.7047     6894.2645  25.276930  94.108087   0.000283  -0.000171
1 66733U 25276BV  25364.74526566  .00023317  00000-0  11676-2 0  9997 | 2 66733  97.4432  76.1968 0003132 233.5061 126.5884 15.17384280  4852 | 2025/12/30-17:53:10  291.4288    0.1233  126.6172   94.9002     6891.8866     6889.7280     6894.0451  23.248749  94.629134   0.000200  -0.000241
1 66733U 25276BV  25365.86632429  .00022139  00000-0  11080-2 0  9997 | 2 66733  97.4437  77.2977 0003639 219.8729 140.2238 15.17412477  5025 | 2025/12/31-20:47:30  335.0118    0.1234  140.2505   94.8984     6891.8012     6889.2933     6894.3091  21.426444  95.058835   0.000166  -0.000324
1 66733U 25276BV  26001.92142429  .00020250  00000-0  10135-2 0  9990 | 2 66733  97.4429  78.3353 0003607 217.7143 142.3838 15.17431239  5181 | 2026/01/01-22:06:51  354.8487    0.1233  142.4090   94.8972     6891.7444     6889.2585     6894.2302  19.701391  95.430467   0.000158  -0.000324
1 66733U 25276BV  26003.17433186  .00009136  00000-0  45920-3 0  9993 | 2 66733  97.4428  79.5663 0005175 162.5047 197.6366 15.17465935  5379 | 2026/01/03-04:11:02   85.8562    0.1233  197.6186   94.8950     6891.6393     6888.0729     6895.2058  17.646660  95.831595  -0.000242  -0.000457
1 66733U 25276BV  26004.50003471  .00057009  00000-0  28314-2 0  9990 | 2 66733  97.4421  80.8683 0003931 207.8603 189.7359 15.17449277  5003 | 2026/01/04-12:00:02  165.6590   37.5886  189.7283   94.8961     6891.6898     6888.9806     6894.3989  15.464485  96.207134   0.000126  -0.000372
1 66733U 25276BV  26006.14168117  .00007696  00000-0  38711-3 0  9991 | 2 66733  97.4417  82.4817 0003932 201.1701 158.9370 15.17498770  5825 | 2026/01/06-03:24:01   74.1455    0.1233  158.9532   94.8930     6891.5399     6888.8302     6894.2497  12.749550  96.604006   0.000093  -0.000382
1 66733U 25276BV  26007.19671443  .00006078  00000-0  30635-3 0  9998 | 2 66733  97.4411  83.5182 0004017 196.1627 163.9479 15.17513213  5984 | 2026/01/07-04:43:16   93.9573    0.1233  163.9606   94.8921     6891.4962     6888.7279     6894.2645  10.999892  96.818234   0.000068  -0.000396
1 66733U 25276BV  26008.51549385  .00006262  00000-0  31541-3 0  9996 | 2 66733  97.4407  84.8139 0004129 191.6728 168.4411 15.17529586  6180 | 2026/01/08-12:22:18  208.7188    0.1234  168.4506   94.8911     6891.4466     6888.6011     6894.2921   8.807760  97.041813   0.000047  -0.000410
1 66733U 25276BV  26009.63644554  .00006366  00000-0  32044-3 0  9998 | 2 66733  97.4406  85.9153 0004234 188.6382 171.4780 15.17543345  6357 | 2026/01/09-15:16:28  252.2625    0.1234  171.4852   94.8902     6891.4050     6888.4871     6894.3228   6.940800  97.193085   0.000034  -0.000422
1 66733U 25276BV  26010.95519893  .00006626  00000-0  33322-3 0  9991 | 2 66733  97.4407  87.2111 0004354 183.5702 176.5501 15.17560120  6559 | 2026/01/10-22:55:29    7.0137    0.1233  176.5531   94.8892     6891.3542     6888.3537     6894.3547   4.741101  97.325290   0.000006  -0.000435
1 66733U 25276BV  26012.14206293  .00007128  00000-0  35800-3 0  9992 | 2 66733  97.4410  88.3777 0004435 179.2543 180.8698 15.17577674  6735 | 2026/01/12-03:24:34   74.2842    0.1233  180.8690   94.8881     6891.3010     6888.2447     6894.3573   2.758622  97.401943  -0.000018  -0.000443
1 66733U 25276BV  26013.19704394  .00004725  00000-0  23842-3 0  9996 | 2 66733  97.4410  89.4144 0004549 175.3271 184.8006 15.17586844  6899 | 2026/01/13-04:43:44   94.0769    0.1233  184.7962   94.8875     6891.2733     6888.1384     6894.4081   0.995893  97.435911  -0.000042  -0.000453
1 66733U 25276BV  26014.71357003  .00003030  00000-0  15406-3 0  9991 | 2 66733  97.4410  90.9047 0004664 170.6551 189.4771 15.17595919  7125 | 2026/01/14-17:07:32  280.0262    0.1234  189.4683   94.8869     6891.2458     6888.0317     6894.4599  -1.538529  97.428853  -0.000068  -0.000461
1 66733U 25276BV  26015.76853912  .00003731  00000-0  18890-3 0  9995 | 2 66733  97.4408  91.9411 0004754 167.3489 192.7865 15.17604311  7286 | 2026/01/15-18:26:41  299.8153    0.1234  192.7745   94.8864     6891.2204     6887.9443     6894.4965  -3.300525  97.384886  -0.000088  -0.000467
1 66733U 25276BV  26017.15317616  .00005930  00000-0  29806-3 0  9998 | 2 66733  97.4405  93.3017 0004855 163.3381 196.8013 15.17620107  7494 | 2026/01/17-03:40:34   78.2848    0.1233  196.7852   94.8854     6891.1726     6887.8269     6894.5182  -5.611954  97.278759  -0.000112  -0.000472
1 66733U 25276BV  26018.47186383  .00005983  00000-0  30058-3 0  9998 | 2 66733  97.4401  94.5976 0005014 158.9123 201.2318 15.17635069  7693 | 2026/01/18-11:19:29  193.0115    0.1233  201.2110   94.8845     6891.1273     6887.6721     6894.5825  -7.810523  97.126561  -0.000142  -0.000481
1 66733U 25276BV  26019.72460298  .00005927  00000-0  29765-3 0  9998 | 2 66733  97.4397  95.8283 0005117 154.7258 205.4227 15.17651393  7883 | 2026/01/19-17:23:25  283.9973    0.1233  205.3975   94.8834     6891.0779     6887.5517     6894.6040  -9.894776  96.936002  -0.000170  -0.000483
1 66733U 25276BV  26022.16404818  .00010857  00000-0  54068-3 0  9998 | 2 66733  97.4386  98.2252 0005176 148.5811 211.5733 15.17742410  8258 | 2026/01/22-03:56:13   82.1992    0.1234  211.5423   94.8778     6890.8024     6887.2357     6894.3691 -13.939980  96.436288  -0.000204  -0.000476
1 66733U 25276BV  26023.94412329  .00012741  00000-0  63309-3 0  9993 | 2 66733  97.4380  99.9740 0005326 142.9410 217.2192 15.17778806  8522 | 2026/01/23-22:39:32    3.0262    0.1233  217.1823   94.8755     6890.6922     6887.0222     6894.3622 -16.876385  95.965366  -0.000242  -0.000474
1 66733U 25276BV  26025.13081382  .00011136  00000-0  55346-3 0  9996 | 2 66733  97.4379 101.1400 0005472 139.0689 221.0956 15.17804912  8705 | 2026/01/25-03:08:22   70.2341    0.1233  221.0544   94.8739     6890.6132     6886.8427     6894.3837 -18.825683  95.601977  -0.000272  -0.000475
1 66733U 25276BV  26026.18563168  .00010274  00000-0  51060-3 0  9990 | 2 66733  97.4377 102.1767 0005521 136.2363 223.9309 15.17828347  8861 | 2026/01/26-04:27:18   89.9688    0.1233  223.8870   94.8724     6890.5423     6886.7380     6894.3465 -20.552271  95.245522  -0.000289  -0.000470
1 66733U 25276BV  26027.83375359  .00010918  00000-0  54182-3 0  9999 | 2 66733  97.4379 103.7967 0005544 132.2338 227.9367 15.17863444  9119 | 2026/01/27-20:00:36  323.2939    0.1234  227.8896   94.8702     6890.4361     6886.6160     6894.2561 -23.236749  94.626623  -0.000310  -0.000460
1 66733U 25276BV  26030.14105564  .00011140  00000-0  55183-3 0  9996 | 2 66733  97.4387 106.0645 0005667 125.3330 234.8434 15.17918853  9463 | 2026/01/30-03:23:07   73.9231    0.1233  234.7903   94.8667     6890.2684     6886.3637     6894.1731 -26.963170  93.633796  -0.000354  -0.000443
1 66733U 25276BV  26031.45947958  .00006615  00000-0  32902-3 0  9997 | 2 66733  97.4384 107.3603 0005774 121.4936 238.6863 15.17939427  9666 | 2026/01/31-11:01:39  188.5559    0.1234  238.6298   94.8654     6890.2061     6886.2277     6894.1845 -29.073624  92.999818  -0.000380  -0.000435
1 66733U 25276BV  26032.77788691  .00006064  00000-0  30177-3 0  9990 | 2 66733  97.4377 108.6559 0005773 118.2973 241.8844 15.17957526  9863 | 2026/02/01-18:40:09  303.1846    0.1234  241.8261   94.8643     6890.1513     6886.1737     6894.1290 -31.168745  92.318009  -0.000394  -0.000422
1 66733U 25276BV  26034.16219484  .00007983  00000-0  39582-3 0  9994 | 2 66733  97.4372 110.0163 0005725 114.7762 245.4068 15.17982127 10078 | 2026/02/03-03:53:33   81.5382    0.1234  245.3472   94.8628     6890.0769     6886.1323     6894.0215 -33.351532  91.551533  -0.000406  -0.000403
1 66733U 25276BV  26035.48056095  .00008661  00000-0  42879-3 0  9994 | 2 66733  97.4367 111.3117 0005730 111.3529 248.8317 15.18008128 10272 | 2026/02/04-11:32:00  196.1525    0.1234  248.7705   94.8612     6889.9982     6886.0503     6893.9462 -35.412538  90.773689  -0.000421  -0.000388
1 66733U 25276BV  26036.73298615  .00011889  00000-0  58664-3 0  9994 | 2 66733  97.4362 112.5424 0005846 107.7072 252.4800 15.18039894 10464 | 2026/02/05-17:35:30  287.0267    0.1233  252.4161   94.8592     6889.9021     6885.8743     6893.9299 -37.353825  89.991693  -0.000446  -0.000378
1 66733U 25276BV  26038.18313733  .00008974  00000-0  44346-3 0  9997 | 2 66733  97.4356 113.9675 0005849 103.8430 256.3455 15.18064272 10689 | 2026/02/07-04:23:43   89.0841    0.1234  256.2804   94.8576     6889.8283     6885.7985     6893.8582 -39.580132  89.034315  -0.000462  -0.000359
1 66733U 25276BV  26039.69918111  .00007651  00000-0  37839-3 0  9995 | 2 66733  97.4354 115.4576 0005804 100.0071 260.1818 15.18086153 10919 | 2026/02/08-16:46:49  274.8636    0.1234  260.1163   94.8563     6889.7621     6885.7633     6893.7610 -41.881929  87.974776  -0.000473  -0.000337
1 66733U 25276BV  26040.75380528  .00008147  00000-0  40251-3 0  9992 | 2 66733  97.4354 116.4940 0005765  97.2020 262.9869 15.18104146 11079 | 2026/02/09-18:05:28  294.5314    0.1233  262.9213   94.8552     6889.7077     6885.7358     6893.6796 -43.466331  87.202840  -0.000480  -0.000320
1 66733U 25276BV  26042.73119236  .00007823  00000-0  38623-3 0  9998 | 2 66733  97.4355 118.4375 0005886  92.6826 267.5082 15.18137434 11378 | 2026/02/11-17:32:55  286.3944    0.1234  267.4408   94.8531     6889.6070     6885.5518     6893.6622 -46.398769  85.678649  -0.000504  -0.000304
1 66733U 25276BV  26043.78578138  .00006906  00000-0  34125-3 0  9998 | 2 66733  97.4356 119.4739 0005862  89.9512 270.2393 15.18153355 11533 | 2026/02/12-18:51:31  306.0498    0.1233  270.1721   94.8521     6889.5588     6885.5202     6893.5975 -47.940949  84.825477  -0.000511  -0.000288
1 66733U 25276BV  26045.16991383  .00009202  00000-0  45315-3 0  9998 | 2 66733  97.4347 120.8353 0005810  85.1124 275.0774 15.18176678 11743 | 2026/02/14-04:04:40   84.3410    0.1235  275.0111   94.8506     6889.4883     6885.4855     6893.4911 -49.942297  83.661746  -0.000522  -0.000254
1 66733U 25276BV  26046.75175806  .00008924  00000-0  43935-3 0  9994 | 2 66733  97.4351 122.3889 0005641  82.4277 277.7598 15.18198367 11988 | 2026/02/15-18:02:31  293.8128    0.1234  277.6957   94.8493     6889.4226     6885.5363     6893.3090 -52.192399  82.277289  -0.000512  -0.000237
1 66733U 25276BV  26048.13585008  .00008476  00000-0  41720-3 0  9999 | 2 66733  97.4348 123.7490 0005735  79.0424 281.1455 15.18220213 12198 | 2026/02/17-03:15:37   72.0896    0.1234  281.0810   94.8479     6889.3566     6885.4055     6893.3076 -54.130461  81.015020  -0.000529  -0.000222
1 66733U 25276BV  26049.19038343  .00006268  00000-0  30937-3 0  9996 | 2 66733  97.4344 124.7853 0005708  76.3831 283.8038 15.18232625 12354 | 2026/02/18-04:34:09   91.7257    0.1234  283.7403   94.8471     6889.3190     6885.3866     6893.2514 -55.586605  80.022445  -0.000532  -0.000206
1 66733U 25276BV  26050.77216712  .00006204  00000-0  30607-3 0  9994 | 2 66733  97.4335 126.3400 0005621  71.6888 288.4957 15.18251789 12593 | 2026/02/19-18:31:55  301.1746    0.1234  288.4346   94.8459     6889.2610     6885.3886     6893.1335 -57.736722  78.484125  -0.000535  -0.000174
1 66733U 25276BV  26051.82667896  .00006371  00000-0  31411-3 0  9993 | 2 66733  97.4333 127.3766 0005549  68.8692 291.3134 15.18264418 12758 | 2026/02/20-19:50:25  320.8036    0.1233  291.2541   94.8451     6889.2228     6885.4000     6893.0457 -59.147016  77.426601  -0.000533  -0.000155
1 66733U 25276BV  26053.14480455  .00006495  00000-0  31999-3 0  9992 | 2 66733  97.4330 128.6719 0005465  64.8512 295.3288 15.18282098 12951 | 2026/02/22-03:28:31   75.3353    0.1234  295.2722   94.8440     6889.1693     6885.4044     6892.9343 -60.881968  76.069544  -0.000531  -0.000128
1 66733U 25276BV  26054.46291031  .00008367  00000-0  41088-3 0  9998 | 2 66733  97.4326 129.9673 0005469  61.7650 298.4135 15.18307447 13156 | 2026/02/23-11:06:35  189.8587    0.1234  298.3584   94.8425     6889.0927     6885.3250     6892.8603 -62.585860  74.673433  -0.000535  -0.000111
1 66733U 25276BV  26055.58328581  .00006415  00000-0  31573-3 0  9993 | 2 66733  97.4325 131.0685 0005370  58.5617 301.6141 15.18322806 13329 | 2026/02/24-13:59:55  233.1996    0.1234  301.5617   94.8415     6889.0462     6885.3468     6892.7456 -64.009338  73.456767  -0.000529  -0.000090
1 66733U 25276BV  26057.16497341  .00006968  00000-0  34241-3 0  9998 | 2 66733  97.4328 132.6232 0005205  53.7808 306.3907 15.18344936 13569 | 2026/02/26-03:57:33   82.6158    0.1235  306.3427   94.8401     6888.9793     6885.3936     6892.5650 -65.978956  71.693290  -0.000517  -0.000058
1 66733U 25276BV  26058.94434043  .00008193  00000-0  40163-3 0  9997 | 2 66733  97.4330 134.3722 0005138  49.1314 311.0365 15.18375861 13833 | 2026/02/27-22:39:51    3.1963    0.1235  310.9921   94.8382     6888.8857     6885.3462     6892.4252 -68.136514  69.646285  -0.000513  -0.000031
1 66733U 25276BV  26060.13056576  .00007700  00000-0  37750-3 0  9993 | 2 66733  97.4326 135.5378 0005071  46.0884 314.0768 15.18394827 14016 | 2026/03/01-03:08:00   70.2437    0.1234  314.0350   94.8370     6888.8284     6885.3350     6892.3217 -69.538885  68.245550  -0.000507  -0.000014
1 66733U 25276BV  26061.18497530  .00007927  00000-0  38832-3 0  9991 | 2 66733  97.4323 136.5740 0004975  42.8284 317.3337 15.18412462 14178 | 2026/03/02-04:26:21   89.8373    0.1234  317.2950   94.8359     6888.7750     6885.3479     6892.2022 -70.761456  66.976634  -0.000497   0.000005
1 66733U 25276BV  26062.63476905  .00009313  00000-0  45522-3 0  9990 | 2 66733  97.4318 137.9987 0004807  38.0670 322.0903 15.18438121 14396 | 2026/03/03-15:14:04  251.7722    0.1234  322.0564   94.8343     6888.6974     6885.3860     6892.0088 -72.404459  65.196242  -0.000480   0.000033
