# SPACE DATA - HISTORICAL TLEs
# ----------------------------
# NORAD_ID    : 66721
# OBJECT_NAME : FLOCK 4H 18
# --------------------------------------------------------------------+-----------------------------------------------------------------------+----------------------------------------------------------------------------------------------------------------------------------------
#                  LINE 1                                             |                 LINE 2                                                |      DERIVED PARAMETERS
# --------------------------------------------------------------------+-----------------------------------------------------------------------+----------------------------------------------------------------------------------------------------------------------------------------
# NORAD  COSPAR     TLE_EPOCH      MEANMOT1 MEANMOT2   BSTAR  #  REV  |   NORAD    INC     RAAN     ECC    ARGPER  MEANANOM   MEANMOT     REV |  CAL_DATE              LONG     ARGLAT     PERIOD        SMA         PERIGEE        APOGEE      INC_X      INC_Y      ECC_X      ECC_Y
# ------ ------   -------------- ----------  -------  ------- -- ----     -----  ------- -------- ------- -------- -------- -----------  ----   ------------------- ---------  --------  --------  ------------  ------------   ----------- ---------- ----------  ---------  ---------   
1 66730U 25276BS  25352.73098838  .00004426  00000-0  22077-3 0  9994 | 2 66730  97.4387  64.4018 0000987 128.5514 231.5809 15.18034774  3039 | 2025/12/18-17:32:37  286.2043    0.1234  231.5720   94.8595     6889.9176     6889.2376     6890.5976  42.099113  87.874712  -0.000096  -0.000022
1 66730U 25276BS  25353.75001156 -.00023203  00000-0 -11403-2 0  9990 | 2 66730  97.4388  65.4038 0001248 131.1924  34.2829 15.18068548  1303 | 2025/12/19-18:00:00  127.7121  165.4834   34.2910   94.8574     6889.8154     6888.9556     6890.6753  40.556025  88.597565  -0.000120  -0.000036
1 66730U 25276BS  25354.77439259  .00005887  00000-0  29233-3 0  9999 | 2 66730  97.4382  66.4103 0001119 126.2787 233.8550 15.18055042  3349 | 2025/12/20-18:35:07  301.8340    0.1233  233.8446   94.8582     6889.8563     6889.0853     6890.6272  38.993237  89.295746  -0.000109  -0.000025
1 66730U 25276BS  25356.15862133  .00009071  00000-0  44829-3 0  9991 | 2 66730  97.4377  67.7706 0001130 131.4071 228.7260 15.18069778  3558 | 2025/12/22-03:48:24   80.1610    0.1234  228.7163   94.8573     6889.8117     6889.0331     6890.5902  36.862224  90.195797  -0.000107  -0.000037
1 66730U 25276BS  25357.74057462  .00006896  00000-0  34149-3 0  9994 | 2 66730  97.4373  69.3254 0001281 128.1222 232.0127 15.18090981  3794 | 2025/12/23-17:46:25  289.6668    0.1233  232.0011   94.8560     6889.7475     6888.8650     6890.6301  34.401224  91.162400  -0.000122  -0.000038
1 66730U 25276BS  25358.79519727  .00007132  00000-0  35292-3 0  9991 | 2 66730  97.4370  70.3617 0001367 126.6690 233.4670 15.18105829  3957 | 2025/12/24-19:05:05  309.3331    0.1234  233.4544   94.8550     6889.7026     6888.7608     6890.6444  32.746746  91.769383  -0.000131  -0.000040
1 66730U 25276BS  25359.91572271  .00009354  00000-0  46145-3 0  9996 | 2 66730  97.4367  71.4630 0001400 125.1888 234.9477 15.18124420  4120 | 2025/12/25-21:58:38  352.7249    0.1234  234.9346   94.8539     6889.6464     6888.6818     6890.6109  30.976782  92.381543  -0.000134  -0.000040
1 66730U 25276BS  25361.16807407 -.00015388  00000-0 -75379-3 0  9995 | 2 66730  97.4364  72.6938 0000715  81.6314 278.5001 15.18092370  4315 | 2025/12/27-04:02:01   83.5800    0.1234  278.4920   94.8559     6889.7433     6889.2507     6890.2359  28.985204  93.025319  -0.000064   0.000031
1 66730U 25276BS  25362.22265208  .00014626  00000-0  71839-3 0  9999 | 2 66730  97.4367  73.7305 0001452 127.4477 232.6889 15.18161971  4472 | 2025/12/28-05:20:37  103.2257    0.1234  232.6757   94.8515     6889.5328     6888.5324     6890.5331  27.297451  93.534805  -0.000135  -0.000052
1 66730U 25276BS  25363.47496015  .00010408  00000-0  51220-3 0  9995 | 2 66730  97.4371  74.9617 0001537 125.5544 234.5833 15.18179728  4664 | 2025/12/29-11:23:56  194.0586    0.1233  234.5689   94.8504     6889.4790     6888.4201     6890.5379  25.281485  94.100133  -0.000144  -0.000054
1 66730U 25276BS  25364.52951940  .00018501  00000-0  90627-3 0  9991 | 2 66730  97.4372  75.9986 0001594 124.4755 235.6629 15.18205849  4827 | 2025/12/30-12:42:30  213.7018    0.1233  235.6478   94.8488     6889.4000     6888.3018     6890.4982  23.574502  94.542323  -0.000149  -0.000056
1 66730U 25276BS  25365.58409201 -.00242953  00000-0 -12369-1 0  9993 | 2 66730  97.4369  77.0350 0006820 189.5870 170.5235 15.17935752  4987 | 2025/12/31-14:01:05  233.3788    0.1234  170.5364   94.8657     6890.2172     6885.5181     6894.9164  21.860534  94.952970  -0.000040  -0.000681
1 66730U 25276BS  26001.63859554  .00021473  00000-0  10495-2 0  9996 | 2 66730  97.4369  78.0719 0001617 121.2705 238.8687 15.18252811  5143 | 2026/01/01-15:19:34  252.9739    0.1233  238.8528   94.8459     6889.2579     6888.1439     6890.3719  20.138654  95.333017  -0.000153  -0.000054
1 66730U 25276BS  26002.75902050  .00017495  00000-0  85573-3 0  9999 | 2 66730  97.4369  79.1731 0001533 121.3936 238.7448 15.18269073  5314 | 2026/01/02-18:12:59  296.3308    0.1234  238.7298   94.8448     6889.2087     6888.1526     6890.2649  18.302788  95.702442  -0.000144  -0.000054
1 66730U 25276BS  26003.94533389  .00010273  00000-0  50406-3 0  9990 | 2 66730  97.4364  80.3396 0001726 119.7233 240.4174 15.18285312  5494 | 2026/01/03-22:41:16    3.4041    0.1235  240.4002   94.8438     6889.1596     6887.9706     6890.3487  16.350614  96.054721  -0.000162  -0.000059
1 66730U 25276BS  26005.13163178  .00006445  00000-0  31749-3 0  9993 | 2 66730  97.4359  81.5055 0001759 118.9461 241.1949 15.18300736  5679 | 2026/01/05-03:09:32   70.4744    0.1233  241.1772   94.8429     6889.1130     6887.9012     6890.3248  14.392692  96.367033  -0.000165  -0.000061
1 66730U 25276BS  26006.51562927  .00005637  00000-0  27798-3 0  9992 | 2 66730  97.4352  82.8658 0001764 118.0265 242.1147 15.18319244  5882 | 2026/01/06-12:22:30  208.7172    0.1233  242.0968   94.8417     6889.0570     6887.8418     6890.2722  12.100846  96.680855  -0.000165  -0.000063
1 66730U 25276BS  26007.70190130  .00005334  00000-0  26309-3 0  9998 | 2 66730  97.4348  84.0317 0001801 117.0932 243.0486 15.18332740  6068 | 2026/01/07-16:50:44  275.7778    0.1234  243.0302   94.8409     6889.0162     6887.7754     6890.2569  10.131096  96.906662  -0.000168  -0.000065
1 66730U 25276BS  26008.95406434  .00005695  00000-0  28053-3 0  9991 | 2 66730  97.4349  85.2627 0001735 116.6108 243.5304 15.18348556  6259 | 2026/01/08-22:53:51    6.5603    0.1234  243.5126   94.8399     6888.9683     6887.7731     6890.1636   8.046886  97.102046  -0.000161  -0.000065
1 66730U 25276BS  26010.93113916  .00005468  00000-0  26930-3 0  9992 | 2 66730  97.4348  87.2063 0001902 114.6692 245.4740 15.18372539  6552 | 2026/01/10-22:20:50  358.3104    0.1234  245.4542   94.8384     6888.8958     6887.5855     6890.2060   4.748967  97.318999  -0.000177  -0.000071
1 66730U 25276BS  26012.18327078  .00005416  00000-0  26666-3 0  9996 | 2 66730  97.4346  88.4370 0001960 112.4108 247.7334 15.18387197  6747 | 2026/01/12-04:23:54   89.0802    0.1234  247.7126   94.8375     6888.8514     6887.5012     6890.2017   2.657637  97.398348  -0.000183  -0.000070
1 66730U 25276BS  26013.69899643  .00003804  00000-0  18824-3 0  9991 | 2 66730  97.4347  89.9271 0001982 111.6027 248.5418 15.18398838  6970 | 2026/01/13-16:46:33  274.7450    0.1234  248.5207   94.8367     6888.8162     6887.4509     6890.1816   0.123971  97.434621  -0.000184  -0.000073
1 66730U 25276BS  26014.75340756  .00003408  00000-0  16898-3 0  9994 | 2 66730  97.4347  90.9637 0002000 110.5564 249.5885 15.18406115  7130 | 2026/01/14-18:04:54  294.3353    0.1234  249.5670   94.8363     6888.7942     6887.4165     6890.1720  -1.638749  97.420918  -0.000186  -0.000073
1 66730U 25276BS  26015.93961410  .00003618  00000-0  17911-3 0  9991 | 2 66730  97.4346  92.1299 0002023 109.4424 250.7029 15.18414984  7311 | 2026/01/15-22:33:02    1.3722    0.1234  250.6810   94.8357     6888.7674     6887.3738     6890.1610  -3.621177  97.367286  -0.000188  -0.000074
1 66730U 25276BS  26017.19171159  .00005274  00000-0  25944-3 0  9999 | 2 66730  97.4344  93.3606 0002058 106.4772 253.6688 15.18429550  7504 | 2026/01/17-04:36:03   92.1301    0.1234  253.6462   94.8348     6888.7233     6887.3056     6890.1410  -5.711596  97.266849  -0.000194  -0.000070
1 66730U 25276BS  26018.44379871  .00005520  00000-0  27131-3 0  9993 | 2 66730  97.4341  94.5915 0002093 106.2628 253.8837 15.18442158  7691 | 2026/01/18-10:39:04  182.8841    0.1235  253.8607   94.8340     6888.6852     6887.2434     6890.1270  -7.799702  97.121411  -0.000196  -0.000075
1 66730U 25276BS  26019.76177270  .00005866  00000-0  28797-3 0  9990 | 2 66730  97.4336  95.8870 0002057 105.2139 254.9322 15.18456744  7894 | 2026/01/19-18:16:57  297.3587    0.1233  254.9094   94.8331     6888.6411     6887.2241     6890.0581  -9.993457  96.919746  -0.000192  -0.000074
1 66730U 25276BS  26021.47509145  .00012748  00000-0  62044-3 0  9991 | 2 66730  97.4328  97.5709 0002136 102.6762 257.4711 15.18514009  8155 | 2026/01/21-11:24:07  194.1571    0.1234  257.4472   94.8295     6888.4679     6886.9965     6889.9393 -12.837058  96.583438  -0.000200  -0.000074
1 66730U 25276BS  26023.64962543  .00008189  00000-0  39952-3 0  9993 | 2 66730  97.4312  99.7087 0002160 100.4908 259.6570 15.18551681  8486 | 2026/01/23-15:35:27  256.9944    0.1235  259.6327   94.8272     6888.3540     6886.8661     6889.8419 -16.430705  96.035778  -0.000203  -0.000075
1 66730U 25276BS  26025.09928797  .00009464  00000-0  46080-3 0  9994 | 2 66730  97.4314 101.1330 0002169  98.4302 261.7178 15.18576674  8702 | 2026/01/25-02:22:58   58.8772    0.1234  261.6932   94.8256     6888.2784     6886.7843     6889.7725 -18.812748  95.597899  -0.000204  -0.000073
1 66730U 25276BS  26026.15357133  .00010049  00000-0  48877-3 0  9999 | 2 66730  97.4317 102.1702 0002113  98.7599 261.3874 15.18597486  8869 | 2026/01/26-03:41:08   78.4219    0.1234  261.3635   94.8243     6888.2155     6886.7600     6889.6709 -20.540201  95.241988  -0.000197  -0.000075
1 66730U 25276BS  26028.65743806  .00008644  00000-0  42040-3 0  9996 | 2 66730  97.4320 104.6317 0002072  93.3058 266.8414 15.18643450  9243 | 2026/01/28-15:46:42  259.8204    0.1235  266.8177   94.8215     6888.0765     6886.6493     6889.5037 -24.611783  94.272237  -0.000197  -0.000064
1 66730U 25276BS  26030.17289961  .00008669  00000-0  42128-3 0  9997 | 2 66730  97.4318 106.1216 0002035  91.7827 268.3640 15.18670969  9478 | 2026/01/30-04:08:58   85.3909    0.1234  268.3407   94.8197     6887.9933     6886.5916     6889.3950 -27.054554  93.600250  -0.000194  -0.000063
1 66730U 25276BS  26031.75422505  .00006589  00000-0  32084-3 0  9994 | 2 66730  97.4316 107.6761 0002049  90.5573 269.5896 15.18693211  9715 | 2026/01/31-18:06:05  294.6720    0.1234  269.5661   94.8184     6887.9260     6886.5147     6889.3374 -29.583707  92.831681  -0.000195  -0.000064
1 66730U 25276BS  26033.20375042  .00007181  00000-0  34912-3 0  9990 | 2 66730  97.4313 109.1011 0002072  87.6169 272.5303 15.18717406  9935 | 2026/02/02-04:53:24   96.5046    0.1235  272.5066   94.8168     6887.8529     6886.4257     6889.2800 -31.883033  92.066989  -0.000198  -0.000060
1 66730U 25276BS  26034.45559371  .00007685  00000-0  37312-3 0  9993 | 2 66730  97.4308 110.3316 0002077  85.9555 274.1916 15.18739947 10121 | 2026/02/03-10:56:03  187.1716    0.1234  274.1679   94.8154     6887.7847     6886.3541     6889.2153 -33.852611  91.360613  -0.000199  -0.000058
1 66730U 25276BS  26035.70741912  .00008101  00000-0  39287-3 0  9993 | 2 66730  97.4302 111.5621 0001977  84.9680 275.1780 15.18762198 10318 | 2026/02/04-16:58:41  277.8332    0.1234  275.1554   94.8141     6887.7174     6886.3557     6889.0791 -35.806519  90.612014  -0.000190  -0.000056
1 66730U 25276BS  26036.76157438  .00010738  00000-0  51920-3 0  9991 | 2 66730  97.4298 112.5984 0001970  84.4358 275.7101 15.18783926 10477 | 2026/02/05-18:16:40  297.3319    0.1234  275.6876   94.8127     6887.6517     6886.2949     6889.0086 -37.439305  89.949232  -0.000188  -0.000058
1 66730U 25276BS  26038.14513497  .00008298  00000-0  40185-3 0  9995 | 2 66730  97.4294 113.9587 0001947  82.4516 277.6939 15.18803699 10688 | 2026/02/07-03:28:59   75.4176    0.1234  277.6718   94.8115     6887.5920     6886.2509     6888.9330 -39.563939  89.034727  -0.000187  -0.000055
1 66730U 25276BS  26039.72632450  .00005857  00000-0  28453-3 0  9993 | 2 66730  97.4295 115.5130 0001913  80.2858 279.8592 15.18822997 10927 | 2026/02/08-17:25:54  284.6505    0.1234  279.8376   94.8103     6887.5336     6886.2160     6888.8512 -41.964432  87.928914  -0.000184  -0.000052
1 66730U 25276BS  26040.78043965  .00005726  00000-0  27813-3 0  9992 | 2 66730  97.4292 116.5492 0001949  78.7229 281.4224 15.18835834 11082 | 2026/02/09-18:43:49  304.1344    0.1234  281.4005   94.8095     6887.4948     6886.1524     6888.8372 -43.547553  87.155377  -0.000188  -0.000051
1 66730U 25276BS  26042.75688046  .00006653  00000-0  32239-3 0  9994 | 2 66730  97.4292 118.4920 0001823  76.7755 283.3683 15.18861899 11385 | 2026/02/11-18:09:54  295.6599    0.1235  283.3480   94.8078     6887.4160     6886.1604     6888.6716 -46.477241  85.628939  -0.000176  -0.000048
1 66730U 25276BS  26044.14036829  .00006155  00000-0  29833-3 0  9998 | 2 66730  97.4293 119.8522 0001829  77.1578 282.9860 15.18880075 11595 | 2026/02/13-03:22:07   73.7189    0.1234  282.9656   94.8067     6887.3611     6886.1014     6888.6208 -48.496831  84.501632  -0.000175  -0.000054
1 66730U 25276BS  26045.19444353  .00005645  00000-0  27382-3 0  9999 | 2 66730  97.4293 120.8886 0001776  78.0645 282.0788 15.18892647 11752 | 2026/02/14-04:39:59   93.1891    0.1234  282.0589   94.8059     6887.3231     6886.0999     6888.5463 -50.017330  83.610617  -0.000168  -0.000058
1 66730U 25276BS  26046.38026873  .00006995  00000-0  33830-3 0  9998 | 2 66730  97.4289 122.0546 0001742  75.5483 284.5945 15.18908478 11931 | 2026/02/15-09:07:35  160.0895    0.1235  284.5752   94.8049     6887.2752     6886.0754     6888.4750 -51.708164  82.575155  -0.000166  -0.000053
1 66730U 25276BS  26047.43432490  .00007487  00000-0  36173-3 0  9991 | 2 66730  97.4287 123.0907 0001687  74.6917 285.4504 15.18922876 12098 | 2026/02/16-10:25:25  179.5532    0.1235  285.4318   94.8040     6887.2317     6886.0698     6888.3936 -53.192756  81.626481  -0.000161  -0.000052
1 66730U 25276BS  26048.68600175  .00006922  00000-0  33451-3 0  9995 | 2 66730  97.4283 124.3210 0001634  73.4265 286.7149 15.18941243 12289 | 2026/02/17-16:27:50  270.1610    0.1235  286.6970   94.8029     6887.1762     6886.0508     6888.3015 -54.932881  80.465224  -0.000156  -0.000050
1 66730U 25276BS  26049.74003335  .00006626  00000-0  32022-3 0  9992 | 2 66730  97.4280 125.3572 0001614  73.2410 286.9001 15.18956745 12446 | 2026/02/18-17:45:38  289.6154    0.1234  286.8824   94.8019     6887.1293     6886.0177     6888.2409 -56.378866  79.458408  -0.000153  -0.000051
1 66730U 25276BS  26050.79405557  .00006111  00000-0  29548-3 0  9999 | 2 66730  97.4275 126.3932 0001578  74.0865 286.0543 15.18969843 12606 | 2026/02/19-19:03:26  309.0666    0.1234  286.0369   94.8011     6887.0897     6886.0029     6888.1765 -57.806011  78.425652  -0.000148  -0.000055
1 66730U 25276BS  26052.17744766  .00005651  00000-0  27337-3 0  9993 | 2 66730  97.4270 127.7530 0001513  72.7539 287.3861 15.18984804 12816 | 2026/02/21-04:15:31   87.0922    0.1235  287.3696   94.8002     6887.0445     6886.0025     6888.0865 -59.650526  77.031390  -0.000142  -0.000053
1 66730U 25276BS  26053.62669897  .00007683  00000-0  37019-3 0  9990 | 2 66730  97.4266 129.1778 0001458  73.2446 286.8949 15.19005821 13032 | 2026/02/22-15:02:26  248.8269    0.1235  286.8789   94.7988     6886.9810     6885.9768     6887.9851 -61.547208  75.524060  -0.000135  -0.000056
1 66730U 25276BS  26054.68068701  .00007438  00000-0  35834-3 0  9995 | 2 66730  97.4265 130.2141 0001394  73.8569 286.2819 15.19021104 13198 | 2026/02/23-16:20:11  268.2658    0.1235  286.2666   94.7979     6886.9348     6885.9747     6887.8948 -62.902994  74.398496  -0.000127  -0.000057
1 66730U 25276BS  26056.19577793  .00005046  00000-0  24412-3 0  9992 | 2 66730  97.4264 131.7036 0001356  74.4516 285.6868 15.19037372 13420 | 2026/02/25-04:41:55   93.7028    0.1234  285.6718   94.7969     6886.8856     6885.9517     6887.8195 -64.815569  72.738198  -0.000122  -0.000060
1 66730U 25276BS  26057.57910384  .00006579  00000-0  31703-3 0  9995 | 2 66730  97.4264 133.0636 0001284  74.3105 285.8271 15.19058385 13634 | 2026/02/26-13:53:54  231.7044    0.1234  285.8129   94.7956     6886.8221     6885.9378     6887.7064 -66.523697  71.179359  -0.000114  -0.000059
1 66730U 25276BS  26058.63305542  .00006702  00000-0  32276-3 0  9991 | 2 66730  97.4265 134.0998 0001250  74.0873 286.0500 15.19072919 13793 | 2026/02/27-15:11:35  251.1299    0.1235  286.0362   94.7947     6886.7782     6885.9173     6887.6390 -67.800104  69.964768  -0.000110  -0.000059
1 66730U 25276BS  26059.75286621  .00007597  00000-0  36519-3 0  9998 | 2 66730  97.4264 135.2006 0001197  73.8956 286.2411 15.19091226 13968 | 2026/02/28-18:04:07  294.2653    0.1235  286.2279   94.7935     6886.7228     6885.8985     6887.5472 -69.131641  68.649250  -0.000105  -0.000058
1 66730U 25276BS  26060.93853220  .00008475  00000-0  40674-3 0  9998 | 2 66730  97.4262 136.3660 0001167  75.5057 284.6307 15.19113024 14140 | 2026/03/01-22:31:29    1.1086    0.1235  284.6178   94.7922     6886.6570     6885.8533     6887.4606 -70.513431  67.228867  -0.000099  -0.000062
1 66730U 25276BS  26062.19005128  .00008060  00000-0  38678-3 0  9995 | 2 66730  97.4257 137.5959 0001144  76.3244 283.8118 15.19134411 14335 | 2026/03/03-04:33:40   91.6593    0.1235  283.7991   94.7908     6886.5923     6885.8045     6887.3801 -71.939827  65.699530  -0.000095  -0.000064
