# SPACE DATA - HISTORICAL TLEs
# ----------------------------
# NORAD_ID    : 67149
# OBJECT_NAME : KUIPER-00241
# --------------------------------------------------------------------+-----------------------------------------------------------------------+----------------------------------------------------------------------------------------------------------------------------------------
#                  LINE 1                                             |                 LINE 2                                                |      DERIVED PARAMETERS
# --------------------------------------------------------------------+-----------------------------------------------------------------------+----------------------------------------------------------------------------------------------------------------------------------------
# NORAD  COSPAR     TLE_EPOCH      MEANMOT1 MEANMOT2   BSTAR  #  REV  |   NORAD    INC     RAAN     ECC    ARGPER  MEANANOM   MEANMOT     REV |  CAL_DATE              LONG     ARGLAT     PERIOD        SMA         PERIGEE        APOGEE      INC_X      INC_Y      ECC_X      ECC_Y
# ------ ------   -------------- ----------  -------  ------- -- ----     -----  ------- -------- ------- -------- -------- -----------  ----   ------------------- ---------  --------  --------  ------------  ------------   ----------- ---------- ----------  ---------  ---------   
1 67149U 25301S   25357.75003471  .00032195  00000-0  90769-3 0  9991 | 2 67149  51.8730  71.9845 0002662  89.9722 179.5729 15.36127038  2389 | 2025/12/23-18:00:02   21.0125  269.5453  179.5731   93.7422     6835.7119     6833.8923     6837.5316  16.042984  49.329816  -0.000253   0.000082
1 67149U 25301S   25358.91670139  .00000718  00000-0  30842-4 0  9994 | 2 67149  51.8739  66.3518 0002828  94.8815 150.6825 15.36190221  2566 | 2025/12/24-22:00:03  111.7762  245.5799  150.6984   93.7384     6835.5245     6833.5914     6837.4576  20.807647  47.517821  -0.000268   0.000091
1 67149U 25301S   25360.10835391  .00044592  00000-0  12458-2 0  9990 | 2 67149  51.8753  60.6008 0002826 104.4348 255.6952 15.36256690  2751 | 2025/12/26-02:36:01   73.1307    0.0986  255.6638   93.7343     6835.3273     6833.3957     6837.2590  25.465148  45.194833  -0.000273   0.000073
1 67149U 25301S   25361.14917087  .00019312  00000-0  54681-3 0  9995 | 2 67149  51.8745  55.5744 0002900 100.5552 259.5761 15.36293146  2915 | 2025/12/27-03:34:48   93.8758    0.0986  259.5434   93.7321     6835.2192     6833.2370     6837.2014  29.326502  42.789251  -0.000265   0.000117
1 67149U 25301S   25362.25501166  .00038148  00000-0  10653-2 0  9993 | 2 67149  51.8745  50.2365 0002935 102.7613 257.3701 15.36342495  3087 | 2025/12/28-06:07:13  138.4062    0.0986  257.3373   93.7291     6835.0728     6833.0667     6837.0789  33.179975  39.875469  -0.000262   0.000133
1 67149U 25301S   25363.42586914  .00038382  00000-0  10700-2 0  9990 | 2 67149  51.8746  44.5834 0002925 103.0714 257.0598 15.36392336  3260 | 2025/12/29-10:13:15  206.7223    0.0985  257.0271   93.7261     6834.9250     6832.9258     6836.9242  36.946618  36.413206  -0.000247   0.000156
1 67149U 25301S   25364.53164518  .00056982  00000-0  15773-2 0  9996 | 2 67149  51.8736  39.2447 0002954 107.7264 252.4045 15.36435232  3431 | 2025/12/30-12:45:34  251.2305    0.0986  252.3722   93.7234     6834.7978     6832.7788     6836.8168  40.173570  32.816987  -0.000248   0.000161
1 67149U 25301S   25365.57237901  .00057516  00000-0  15928-2 0  9994 | 2 67149  51.8742  34.2198 0002859 109.4074 250.7222 15.36417739  3595 | 2025/12/31-13:44:13  271.9467    0.0987  250.6913   93.7245     6834.8497     6832.8956     6836.8037  42.894064  29.172450  -0.000230   0.000170
1 67149U 25301S   26001.61308917  .00068509  00000-0  18894-2 0  9992 | 2 67149  51.8746  29.1950 0002965 105.6128 254.5185 15.36467198  3756 | 2026/01/01-14:42:50  292.6513    0.0986  254.4858   93.7215     6834.7030     6832.6765     6836.7295  45.284692  25.303573  -0.000209   0.000210
1 67149U 25301S   26002.78384476  .00061731  00000-0  17021-2 0  9996 | 2 67149  51.8746  23.5416 0002518 115.6235 244.5012 15.36521766  3935 | 2026/01/02-18:48:44    0.9372    0.0987  244.4752   93.7182     6834.5412     6832.8202     6836.2621  47.557094  20.719483  -0.000191   0.000165
1 67149U 25301S   26003.88952165  .00047326  00000-0  13073-2 0  9991 | 2 67149  51.8746  18.2006 0002800 115.8393 244.2883 15.36583461  4105 | 2026/01/03-21:20:54   45.4088    0.0987  244.2594   93.7144     6834.3582     6832.4446     6836.2718  49.279251  16.202765  -0.000195   0.000201
1 67149U 25301S   26004.93013056  .00042476  00000-0  11742-2 0  9997 | 2 67149  51.8744  13.1756 0003281 128.5285 231.5996 15.36606401  4265 | 2026/01/04-22:19:23   66.0782    0.0986  231.5701   93.7130     6834.2902     6832.0479     6836.5325  50.508861  11.824056  -0.000257   0.000203
1 67149U 25301S   26006.16582269  .00034819  00000-0  96399-3 0  9995 | 2 67149  51.8741   7.2069 0002815 119.1264 241.0004 15.36654818  4450 | 2026/01/06-03:58:47  158.1153    0.0986  240.9722   93.7101     6834.1466     6832.2228     6836.0705  51.464274   6.507746  -0.000167   0.000227
1 67149U 25301S   26007.27141377  .00031450  00000-0  87132-3 0  9992 | 2 67149  51.8739   1.8674 0002861 122.7302 237.3961 15.36683596  4627 | 2026/01/07-06:30:50  202.5578    0.0987  237.3685   93.7083     6834.0613     6832.1061     6836.0165  51.846351   1.690389  -0.000162   0.000236
1 67149U 25301S   26008.44201206  .00032739  00000-0  90508-3 0  9992 | 2 67149  51.8742 356.2120 0002944 126.2048 233.9211 15.36731064  4806 | 2026/01/08-10:36:29  270.7828    0.0986  233.8938   93.7054     6833.9206     6831.9087     6835.9325  51.760872  -3.427065  -0.000158   0.000249
1 67149U 25301S   26010.65306255  .00029673  00000-0  82014-3 0  9994 | 2 67149  51.8744 345.5300 0002971 133.1643 226.9592 15.36787896  5143 | 2026/01/10-15:40:24  359.6247    0.0986  226.9343   93.7019     6833.7521     6831.7218     6835.7824  50.228872 -12.962014  -0.000143   0.000261
1 67149U 25301S   26011.95363465  .00034403  00000-0  94705-3 0  9991 | 2 67149  51.8762 339.2470 0002862 122.9064 237.2198 15.36838515  5347 | 2026/01/11-22:53:14  115.3929    0.0986  237.1922   93.6988     6833.6020     6831.6463     6835.5578  48.510299 -18.381813  -0.000060   0.000280
1 67149U 25301S   26013.12412008  .00021363  00000-0  59271-3 0  9990 | 2 67149  51.8759 333.5938 0002884 138.5458 221.5747 15.36859817  5527 | 2026/01/13-02:58:43  183.5802    0.0986  221.5528   93.6976     6833.5389     6831.5681     6835.5097  46.463357 -23.070878  -0.000109   0.000267
1 67149U 25301S   26014.87982067  .00022678  00000-0  62777-3 0  9995 | 2 67149  51.8744 325.1101 0002742 140.3567 219.7620 15.36892959  5797 | 2026/01/14-21:06:56  105.8484    0.0986  219.7419   93.6955     6833.4407     6831.5669     6835.3144  42.550118 -29.672224  -0.000073   0.000264
1 67149U 25301S   26016.24534007  .00031163  00000-0  85693-3 0  9996 | 2 67149  51.8751 318.5149 0001769 140.5363 219.5753 15.36923355  6002 | 2026/01/16-05:53:17  245.3836    0.0987  219.5624   93.6937     6833.3506     6832.1417     6834.5594  38.861091 -34.363376  -0.000028   0.000175
1 67149U 25301S   26017.54585894  .00036067  00000-0  99044-3 0  9993 | 2 67149  51.8743 312.2252 0002822 151.2467 208.8675 15.36891764  6208 | 2026/01/17-13:06:02    1.1394    0.0986  208.8519   93.6956     6833.4442     6831.5158     6835.3726  34.861934 -38.413391  -0.000066   0.000274
1 67149U 25301S   26018.97639019  .00040177  00000-0  10997-2 0  9996 | 2 67149  51.8764 305.3148 0002577 159.1282 200.9811 15.36941808  6421 | 2026/01/18-23:26:00  164.4559    0.0987  200.9705   93.6926     6833.2959     6831.5349     6835.0568  29.988109 -42.330535  -0.000064   0.000250
1 67149U 25301S   26020.08177436  .00026501  00000-0  72959-3 0  9993 | 2 67149  51.8748 299.9751 0002471 153.6211 206.4902 15.36972428  6597 | 2026/01/20-01:57:45  208.8214    0.0987  206.4776   93.6907     6833.2051     6831.5166     6834.8936  25.917874 -44.936162  -0.000015   0.000247
1 67149U 25301S   26021.44716907  .00072251  00000-0  19509-2 0  9990 | 2 67149  51.8733 293.3772 0002512 157.3705 202.7393 15.37100006  6800 | 2026/01/21-10:43:55  348.3087    0.0987  202.7282   93.6829     6832.8270     6831.1106     6834.5434  20.582426 -47.615155  -0.000003   0.000251
1 67149U 25301S   26022.74748561  .00055720  00000-0  15077-2 0  9993 | 2 67149  51.8734 287.0900 0002581 168.8478 191.2566 15.37152231  7008 | 2026/01/22-17:56:22  103.9969    0.0986  191.2508   93.6797     6832.6722     6830.9087     6834.4358  15.244218 -49.582895  -0.000027   0.000257
1 67149U 25301S   26023.98321960  .00100339  00000-0  27549-2 0  9994 | 2 67149  51.8733 281.1239 0004008 168.4998 191.6081 15.36417134  7197 | 2026/01/23-23:35:50  196.0418    0.0987  191.5989   93.7245     6834.8515     6832.1120     6837.5909  10.007982 -50.898719   0.000003   0.000401
1 67149U 25301S   26025.16667824 -.00393359  00000-0 -11518-1 0  9994 | 2 67149  51.8736 275.4135 0002291 198.8209 230.2898 15.36282318  4866 | 2026/01/25-04:00:00  199.9610   69.0905  230.2696   93.7328     6835.2513     6833.6854     6836.8173   4.893905 -51.642231  -0.000094   0.000209
1 67149U 25301S   26026.25002315 -.00741446  00000-0 -22939-1 0  9996 | 2 67149  51.8740 270.1866 0002492 197.3736 105.7485 15.35547462  5026 | 2026/01/26-06:00:02    2.2484  303.1496  105.7760   93.7776     6837.4319     6835.7280     6839.1358   0.168942 -51.873725  -0.000075   0.000238
1 67149U 25301S   26027.50002314 -.00647734  00000-0 -20296-1 0  9993 | 2 67149  51.8741 264.1665 0002397 202.1509 171.8493 15.34823979  5228 | 2026/01/27-12:00:01   28.6225   14.0041  171.8532   93.8218     6839.5804     6837.9409     6841.2198  -5.272378 -51.605468  -0.000067   0.000230
1 67149U 25301S   26028.91668981 -.00939746  00000-0 -32421-1 0  9997 | 2 67149  51.8740 257.3607 0002275 225.5015  55.2654 15.32340126  5436 | 2026/01/28-22:00:01  280.0579  280.7883   55.2868   93.9739     6846.9695     6845.4118     6848.5272 -11.350684 -50.616932  -0.000123   0.000191
1 67149U 25301S   26030.16668981 -.00186763  00000-0 -64108-2 0  9998 | 2 67149  51.8739 251.3749 0002125 231.1032 104.9504 15.30376847  5636 | 2026/01/30-04:00:01  321.9891  336.0771  104.9739   94.0945     6852.8241     6851.3679     6854.2803 -16.567200 -49.157191  -0.000114   0.000179
1 67149U 25301S   26031.25003472 -.02120847  00000-0 -78222-1 0  9991 | 2 67149  51.8740 246.1943 0002453 240.5299 307.3573 15.30740472  5790 | 2026/01/31-06:00:02  146.4080  187.8649  307.3350   94.0721     6851.7388     6850.0581     6853.4195 -20.938230 -47.460535  -0.000147   0.000197
1 67149U 25301S   26032.50002314  .00048745  00000-0  17217-2 0  9994 | 2 67149  51.8747 240.2263 0002832 235.8351 357.1937 15.28727721  5891 | 2026/02/01-12:00:01  198.4623  233.0272  357.1921   94.1960     6857.7516     6855.8094     6859.6937 -25.759710 -45.026902  -0.000124   0.000254
1 67149U 25301S   26033.58335648 -.01109582  00000-0 -43325-1 0  9990 | 2 67149  51.8758 235.0577 0002452 241.5885 197.2745 15.28382861  5923 | 2026/02/02-14:00:01   28.8645   78.8547  197.2662   94.2172     6858.7831     6857.1013     6860.4649 -29.711927 -42.524111  -0.000110   0.000219
1 67149U 25301S   26035.16668981 -.00002296  00000-0 -76863-4 0  9994 | 2 67149  51.8780 227.5293 0002418 259.5179 247.4487 15.25161383  5715 | 2026/02/04-04:00:01  179.8499  146.9410  247.4231   94.4162     6868.4379     6866.7771     6870.0987 -35.028705 -38.266392  -0.000146   0.000193
1 67149U 25301S   26036.25003472 -.01303820  00000-0 -58506-1 0  9992 | 2 67149  51.8797 222.3945 0001990 284.0952  53.0339 15.23808703  5883 | 2026/02/05-06:00:02   25.8942  337.1473   53.0521   94.5001     6872.5020     6871.1344     6873.8696 -38.314199 -34.978928  -0.000166   0.000110
1 67149U 25301S   26037.50002314 -.01736994  00000-0 -85699-1 0  9990 | 2 67149  51.8824 216.4932 0002151 281.8777  69.1532 15.21042947  5706 | 2026/02/06-12:00:01  109.1215  351.0539   69.1762   94.6719     6880.8305     6879.3504     6882.3105 -41.709686 -30.855884  -0.000161   0.000143
1 67149U 25301S   26038.58335648 -.00001450  00000-0 -54375-4 0  9999 | 2 67149  51.8839 211.4021 0002107 286.4688 233.8543 15.18373454  5875 | 2026/02/07-14:00:01  335.9882  160.3036  233.8348   94.8383     6888.8930     6887.4415     6890.3445 -44.284553 -27.033635  -0.000156   0.000141
1 67149U 25301S   26039.83335647 -.01060716  00000-0 -57270-1 0  9992 | 2 67149  51.8876 205.5389 0002175 297.4328 218.2916 15.16914190  5636 | 2026/02/08-20:00:01   77.6822  155.7090  218.2762   94.9296     6893.3104     6891.8111     6894.8096 -46.817807 -22.369979  -0.000174   0.000131
1 67149U 25301S   26040.91670139 -.01654853  00000-0 -97505-1 0  9997 | 2 67149  51.8868 200.4774 0001936 295.6133  14.7649 15.14748170  5809 | 2026/02/09-22:00:03  319.1619  310.3839   14.7706   95.0653     6899.8802     6898.5444     6901.2160 -48.608086 -18.151969  -0.000139   0.000134
1 67149U 25301S   26042.25001157 -.01796896  00000-0 -11467+0 0  9999 | 2 67149  51.8872 194.2725 0002092 307.1992  69.2875 15.11636445  5732 | 2026/02/11-06:00:00   20.5641   16.5091   69.3099   95.2610     6909.3460     6907.9005     6910.7914 -50.285659 -12.791953  -0.000164   0.000130
1 67149U 25301S   26043.25003472 -.01129036  00000-0 -76179-1 0  9991 | 2 67149  51.8949 189.6391 0001780 335.5771  80.9274 15.09185092  5891 | 2026/02/12-06:00:02  346.1737   56.5246   80.9475   95.4157     6916.8258     6915.5946     6918.0570 -51.162248  -8.689364  -0.000172   0.000045
1 67149U 25301S   26044.50003471 -.00071230  00000-0 -48785-2 0  9993 | 2 67149  51.8984 183.8710 0001739 339.8142  25.1327 15.05860081  5809 | 2026/02/13-12:00:02  134.7315    4.9554   25.1412   95.6264     6927.0038     6925.7992     6928.2084 -51.779998  -3.503677  -0.000167   0.000049
1 67149U 25301S   26045.66668981 -.01135123  00000-0 -86566-1 0  9995 | 2 67149  51.9025 178.5044 0001577 347.1548 225.2221 15.04714741  5850 | 2026/02/14-16:00:01  353.8138  212.3641  225.2093   95.6992     6930.5185     6929.4255     6931.6114 -51.884818   1.354665  -0.000153   0.000039
1 67149U 25301S   26046.83334490 -.02059481  00000-0 -16965+0 0  9997 | 2 67149  51.8914 173.1565 0001769 346.9189  62.9451 15.02199631  5861 | 2026/02/15-20:00:00  222.8203   49.8821   62.9632   95.8594     6938.2521     6937.0247     6939.4794 -51.521691   6.183266  -0.000166   0.000060
1 67149U 25301S   26047.83337963  .00035190  00000-0  28378-2 0  9997 | 2 67149  51.8930 168.5917 0002236   5.0745  50.4452 14.99561829  5869 | 2026/02/16-20:00:04  222.7276   55.5395   50.4650   96.0281     6946.3862     6944.8330     6947.9394 -50.867726  10.264401  -0.000222   0.000025
1 67149U 25301S   26048.91668981 -.01207944  00000-0 -10843+0 0  9990 | 2 67149  51.9185 163.6565 0002504   3.5881 142.4115 14.98256856  5474 | 2026/02/17-22:00:01  168.2424  146.0171  142.4290   96.1117     6950.4191     6948.6787     6952.1595 -49.820574  14.609623  -0.000244   0.000055
1 67149U 25301S   26049.91671296 -.00432395  00000-0 -39578-1 0  9991 | 2 67149  51.9244 159.1162 0002899  17.0199 121.7178 14.96572351  5627 | 2026/02/18-22:00:03  181.0386  138.7660  121.7461   96.2199     6955.6336     6953.6172     6957.6500 -48.513242  18.509691  -0.000289   0.000020
1 67149U 25301S   26051.16670139 -.00024166  00000-0 -22841-2 0  9995 | 2 67149  51.8959 153.4542 0003706  51.1415 341.8022 14.93012951  5823 | 2026/02/20-04:00:03   23.7224   32.9304  341.7889   96.4493     6966.6842     6964.1024     6969.2661 -46.424899  23.192955  -0.000337  -0.000154
1 67149U 25301S   26052.25002315 -.01718266  00000-0 -18736+0 0  9998 | 2 67149  51.8964 148.5719 0002920  58.3570  38.8740 14.91310198  5886 | 2026/02/21-06:00:02  355.3811   97.2520   38.8950   96.5594     6971.9862     6969.9503     6974.0220 -44.282948  27.060246  -0.000260  -0.000132
1 67149U 25301S   26053.83336806 -.00086735  00000-0 -98545-2 0  9995 | 2 67149  51.8978 141.4749 0005199  40.8277 270.5329 14.86286379  5871 | 2026/02/22-20:00:03  359.9132  311.3010  270.4733   96.8858     6987.6881     6984.0552     6991.3210 -40.601485  32.324930  -0.000519  -0.000021
1 67149U 25301S   26054.91667824 -.00051385  00000-0 -60749-2 0  9990 | 2 67149  51.8996 136.6472 0002637  54.9650 294.0957 14.84382322  5876 | 2026/02/23-22:00:00  358.1003  349.0331  294.0681   97.0100     6993.6623     6991.8181     6995.5065 -37.738298  35.628490  -0.000258  -0.000053
1 67149U 25301S   26055.91668981 -.00052029  00000-0 -62368-2 0  9991 | 2 67149  51.9007 132.1956 0000774  26.8371 268.4896 14.83822764  5747 | 2026/02/24-22:00:01   57.2757  295.3178  268.4807   97.0466     6995.4204     6994.8790     6995.9619 -34.859816  38.450954  -0.000072   0.000028
1 67149U 25301S   26057.16668981 -.00005241  00000-0 -60897-3 0  9990 | 2 67149  51.9013 126.6363 0001538 122.5235  12.9886 14.83173404  5848 | 2026/02/26-04:00:01  313.8816  135.5161   12.9926   97.0891     6997.4621     6996.3859     6998.5383 -30.971238  41.647657  -0.000055  -0.000144
1 67149U 25301S   26058.25002315 -.00039689  00000-0 -48780-2 0  9993 | 2 67149  51.9020 121.8237 0001875  51.7372 111.0954 14.82656839  5813 | 2026/02/27-06:00:02  322.4415  162.8526  111.1154   97.1229     6999.0873     6997.7750     7000.3996 -27.368304  44.099814  -0.000186   0.000021
1 67149U 25301S   26059.50001156 -.00016275  00000-0 -20149-2 0  9999 | 2 67149  51.9020 116.2762 0001579 109.7731 247.7104 14.81870255  5721 | 2026/02/28-12:00:00  224.5660  357.4668  247.6937   97.1745     7001.5639     7000.4583     7002.6694 -22.976951  46.538987  -0.000110  -0.000114
1 67149U 25301S   26060.50003471 -.00003816  00000-0 -45656-3 0  9991 | 2 67149  51.9016 111.8428 0001650 142.2018 152.7839 14.81274187  5874 | 2026/03/01-12:00:02  292.4912  294.9943  152.7925   97.2136     7003.4420     7002.2865     7004.5976 -19.310577  48.175488  -0.000045  -0.000159
1 67149U 25301S   26061.58335648  .00020326  00000-0  26383-2 0  9992 | 2 67149  51.9020 107.0439 0000077  63.2313 251.4211 14.80705770  5271 | 2026/03/02-14:00:01  308.6870  314.6516  251.4203   97.2509     7005.2342     7005.1803     7005.2882 -15.212701  49.622488  -0.000008   0.000001
