# SPACE DATA - HISTORICAL TLEs
# ----------------------------
# NORAD_ID    : 67149
# OBJECT_NAME : KUIPER-00241
# --------------------------------------------------------------------+-----------------------------------------------------------------------+----------------------------------------------------------------------------------------------------------------------------------------
#                  LINE 1                                             |                 LINE 2                                                |      DERIVED PARAMETERS
# --------------------------------------------------------------------+-----------------------------------------------------------------------+----------------------------------------------------------------------------------------------------------------------------------------
# NORAD  COSPAR     TLE_EPOCH      MEANMOT1 MEANMOT2   BSTAR  #  REV  |   NORAD    INC     RAAN     ECC    ARGPER  MEANANOM   MEANMOT     REV |  CAL_DATE              LONG     ARGLAT     PERIOD        SMA         PERIGEE        APOGEE      INC_X      INC_Y      ECC_X      ECC_Y
# ------ ------   -------------- ----------  -------  ------- -- ----     -----  ------- -------- ------- -------- -------- -----------  ----   ------------------- ---------  --------  --------  ------------  ------------   ----------- ---------- ----------  ---------  ---------   
1 67141U 25301J   25357.75003471  .00031203  00000-0  89135-3 0  9997 | 2 67141  51.8700  72.0167 0004278 108.3333 149.2295 15.35728127  1843 | 2025/12/23-18:00:02   32.9626  257.5879  149.2546   93.7666     6836.8956     6833.9708     6839.8204  16.014332  49.335971  -0.000428  -0.000003
1 67141U 25301J   25358.91670139  .00001941  00000-0  65810-4 0  9998 | 2 67141  51.8708  66.3870 0004373 112.5131 119.3699 15.35781821  2024 | 2025/12/24-22:00:03  125.4220  231.9267  119.4136   93.7633     6836.7363     6833.7466     6839.7260  20.777209  47.527755  -0.000437   0.000008
1 67141U 25301J   25360.17622483  .00017360  00000-0  49997-3 0  9997 | 2 67141  51.8713  60.3104 0004329 116.5502 243.5929 15.35833393  2434 | 2025/12/26-04:13:45   97.9084    0.0987  243.5485   93.7602     6836.5832     6833.6237     6839.5428  25.691906  45.061710  -0.000432   0.000024
1 67141U 25301J   25361.28239105  .00022414  00000-0  64092-3 0  9994 | 2 67141  51.8718  54.9735 0004399 119.2586 240.8840 15.35882015  2603 | 2025/12/27-06:46:38  142.5559    0.0986  240.8400   93.7572     6836.4389     6833.4316     6839.4463  29.772092  42.477126  -0.000438   0.000044
1 67141U 25301J   25362.45359027  .00035895  00000-0  10162-2 0  9995 | 2 67141  51.8721  49.3233 0004412 120.3866 239.7557 15.35941119  2780 | 2025/12/28-10:53:10  210.9926    0.0986  239.7120   93.7536     6836.2635     6833.2474     6839.2797  33.809718  39.339772  -0.000434   0.000079
1 67141U 25301J   25363.49462142  .00043757  00000-0  12329-2 0  9996 | 2 67141  51.8716  44.2998 0004465 122.3066 237.8353 15.35995396  2945 | 2025/12/29-11:52:15  231.8138    0.0986  237.7920   93.7503     6836.1025     6833.0502     6839.1548  37.124254  36.227789  -0.000434   0.000103
1 67141U 25301J   25364.53561332  .00044715  00000-0  12571-2 0  9997 | 2 67141  51.8712  39.2769 0004557 126.7556 233.3849 15.36054328  3107 | 2025/12/30-12:51:16  252.6212    0.0986  233.3430   93.7467     6835.9276     6832.8125     6839.0428  40.153263  32.838040  -0.000442   0.000110
1 67141U 25301J   25365.57655864  .00049942  00000-0  13987-2 0  9995 | 2 67141  51.8712  34.2522 0004723 130.0030 230.1371 15.36123486  3263 | 2025/12/31-13:50:14  273.4126    0.0986  230.0956   93.7425     6835.7225     6832.4940     6838.9510  42.875081  29.195013  -0.000455   0.000128
1 67141U 25301J   26001.61749202  .00041344  00000-0  11625-2 0  9993 | 2 67141  51.8715  29.2281 0004451 127.1690 232.9703 15.36086799  3421 | 2026/01/01-14:49:11  294.1995    0.0986  232.9296   93.7447     6835.8313     6832.7887     6838.8739  45.267361  25.328216  -0.000408   0.000178
1 67141U 25301J   26002.91866918  .00048997  00000-0  13727-2 0  9997 | 2 67141  51.8719  22.9485 0005302 142.0034 218.1327 15.36120281  3620 | 2026/01/02-22:02:53   50.1886    0.0986  218.0952   93.7427     6835.7320     6832.1077     6839.3563  47.766534  20.225040  -0.000512   0.000138
1 67141U 25301J   26004.15474677  .00035933  00000-0  10098-2 0  9996 | 2 67141  51.8718  16.9814 0004967 142.6745 217.4587 15.36168172  3811 | 2026/01/04-03:42:50  142.3649    0.0986  217.4241   93.7397     6835.5899     6832.1947     6838.9851  49.610170  15.149742  -0.000466   0.000173
1 67141U 25301J   26005.26067871  .00019045  00000-0  54086-3 0  9995 | 2 67141  51.8718  11.6426 0004917 145.6627 214.4678 15.36202741  3986 | 2026/01/05-06:15:22  186.9319    0.0986  214.4359   93.7376     6835.4874     6832.1263     6838.8484  50.804562  10.468050  -0.000454   0.000190
1 67141U 25301J   26006.30152896  .00033055  00000-0  92743-3 0  9992 | 2 67141  51.8717   6.6183 0004957 149.0712 211.0567 15.36258011  4146 | 2026/01/06-07:14:12  207.6908    0.0986  211.0274   93.7343     6835.3234     6831.9351     6838.7117  51.526027   5.978443  -0.000452   0.000204
1 67141U 25301J   26007.47246218  .00025013  00000-0  70468-3 0  9998 | 2 67141  51.8710   0.9658 0004935 151.9570 208.1683 15.36279928  4329 | 2026/01/07-11:20:20  276.0360    0.0986  208.1416   93.7329     6835.2584     6831.8852     6838.6316  51.863631   0.874316  -0.000439   0.000225
1 67141U 25301J   26008.51332266 -.00049947  00000-0 -13996-2 0  9999 | 2 67141  51.8714 355.9415 0004376 152.3516 207.7704 15.36034743  4481 | 2026/01/08-12:19:11  296.7993    0.0986  207.7470   93.7479     6835.9857     6832.9943     6838.9772  51.741322  -3.671197  -0.000372   0.000230
1 67141U 25301J   26012.29040696 -.00059699  00000-0 -18462-2 0  9990 | 2 67141  51.8739 337.7398 0005742 171.7637 188.3443 15.33016716  5069 | 2026/01/12-06:58:11  238.4882    0.0985  188.3348   93.9324     6844.9547     6841.0244     6848.8851  48.007898 -19.650527  -0.000495   0.000291
1 67141U 25301J   26013.50002314 -.00933562  00000-0 -31329-1 0  9996 | 2 67141  51.8735 331.9280 0005593 178.1608  21.2927 15.33162835  5037 | 2026/01/13-12:00:01  121.6086  199.4768   21.3160   93.9235     6844.5198     6840.6917     6848.3480  45.770943 -24.410670  -0.000485   0.000279
1 67141U 25301J   26014.58335648 -.01804150  00000-0 -64813-1 0  9999 | 2 67141  51.8743 326.7262 0006298 185.1774 233.1853 15.31538928  5202 | 2026/01/14-14:00:01  298.9690   58.3049  233.1275   94.0231     6849.3572     6845.0435     6853.6709  43.369941 -28.460345  -0.000556   0.000297
1 67141U 25301J   26015.83337963 -.00913585  00000-0 -33244-1 0  9996 | 2 67141  51.8743 320.7396 0005688 197.7303 271.4759 15.30530880  5391 | 2026/01/15-20:00:04  345.3525  109.1410  271.4107   94.0850     6852.3643     6848.4667     6856.2619  40.165118 -32.828437  -0.000529   0.000209
1 67141U 25301J   26016.91668981 -.00000221  00000-0  48265-5 0  9999 | 2 67141  51.8747 315.5603 0005980 195.4164 123.5840 15.29418236  5568 | 2026/01/16-22:00:01  171.7970  319.0575  123.6411   94.1534     6855.6873     6851.5876     6859.7870  37.037898 -36.320498  -0.000523   0.000290
1 67141U 25301J   26017.91670139 -.00784360  00000-0 -28950-1 0  9997 | 2 67141  51.8745 310.7811 0005905 203.8964 224.7373 15.29671359  5712 | 2026/01/17-22:00:03   67.9328   68.5861  224.6897   94.1379     6854.9310     6850.8831     6858.9788  33.882912 -39.279919  -0.000534   0.000253
1 67141U 25301J   26019.25002315 -.01668292  00000-0 -67646-1 0  9992 | 2 67141  51.8749 304.4138 0005938 209.8540 359.7668 15.27382365  5912 | 2026/01/19-06:00:02   54.6230  209.6205  359.7665   94.2789     6861.7780     6857.7034     6865.8525  29.317915 -42.795620  -0.000535   0.000258
1 67141U 25301J   26020.91668981 -.01531111  00000-0 -69184-1 0  9992 | 2 67141  51.8766 296.4876 0006688 224.5340 141.5152 15.23525763  5704 | 2026/01/20-22:00:01  147.7635    6.0969  141.5629   94.5176     6873.3529     6868.7560     6877.9498  23.137177 -46.431160  -0.000632   0.000218
1 67141U 25301J   26022.25003472 -.00935484  00000-0 -42901-1 0  9997 | 2 67141  51.8778 290.1755 0006962 232.1699 248.0957 15.22548526  5911 | 2026/01/22-06:00:02  161.1776  120.1916  248.0217   94.5783     6876.2936     6871.5063     6881.0809  17.892490 -48.694609  -0.000663   0.000211
1 67141U 25301J   26023.58335648 -.00986414  00000-0 -49662-1 0  9997 | 2 67141  51.8797 283.8742 0007688 235.7608 349.9697 15.19520186  5293 | 2026/01/23-14:00:01  183.3240  225.7151  349.9543   94.7668     6885.4267     6880.1332     6890.7202  12.440280 -50.366087  -0.000721   0.000268
1 67141U 25301J   26024.91668981 -.01185005  00000-0 -63400-1 0  9998 | 2 67141  51.8801 277.6051 0007855 239.3207  78.4544 15.17487464  5502 | 2026/01/24-22:00:01  218.8627  317.8633   78.5426   94.8937     6891.5741     6886.1608     6896.9875   6.866052 -51.423750  -0.000723   0.000308
1 67141U 25301J   26026.25002315 -.01654864  00000-0 -95093-1 0  9997 | 2 67141  51.8810 271.3536 0007792 247.4493 152.4738 15.15564193  5701 | 2026/01/26-06:00:02  264.2804   39.9643  152.5150   95.0141     6897.4032     6892.0288     6902.7777   1.225563 -51.866523  -0.000726   0.000282
1 67141U 25301J   26027.50002314 -.00709949  00000-0 -40893-1 0  9997 | 2 67141  51.8846 265.5109 0008346 254.3680 124.4706 15.14398658  5896 | 2026/01/27-12:00:01   22.4397   18.9174  124.5494   95.0872     6900.9418     6895.1823     6906.7013  -4.060979 -51.725431  -0.000784   0.000287
1 67141U 25301J   26028.91668981 -.00996269  00000-0 -63145-1 0  9999 | 2 67141  51.8870 258.9040 0008162 260.7024 279.3219 15.11491309  5200 | 2026/01/28-22:00:01   19.2572  179.9320  279.2296   95.2701     6909.7882     6904.1485     6915.4280  -9.985833 -50.917030  -0.000765   0.000284
1 67141U 25301J   26030.16668981  .00012106  00000-0  77810-3 0  9992 | 2 67141  51.8828 253.0964 0008489 267.0824 233.0497 15.08759851  5394 | 2026/01/30-04:00:01  156.1891  140.0544  232.9720   95.4426     6918.1254     6912.2526     6923.9982 -15.085563 -49.641220  -0.000799   0.000288
1 67141U 25301J   26031.25003472 -.00057633  00000-0 -37900-2 0  9992 | 2 67141  51.8844 248.0820 0009637 283.7672 342.6631 15.07210184  5565 | 2026/01/31-06:00:02   65.9772  266.3974  342.6302   95.5408     6922.8666     6916.1950     6929.5381 -19.367370 -48.134145  -0.000954   0.000137
1 67141U 25301J   26032.50002314 -.00616849  00000-0 -44582-1 0  9998 | 2 67141  51.8971 242.3034 0008558 273.6512 297.6195 15.05876614  5751 | 2026/02/01-12:00:01  218.1433  211.1838  297.5326   95.6254     6926.9531     6921.0250     6932.8812 -24.121227 -45.950793  -0.000782   0.000349
1 67141U 25301J   26033.58335648  .00007175  00000-0  51848-3 0  9995 | 2 67141  51.9008 237.3139 0008946 277.9570  47.3799 15.04998867  5928 | 2026/02/02-14:00:01  140.1344  325.4124   47.4554   95.6811     6929.6462     6923.4469     6935.8454 -28.028308 -43.681884  -0.000813   0.000374
1 67141U 25301J   26035.16668981 -.01263244  00000-0 -10098+0 0  9992 | 2 67141  51.8868 230.0311 0009322 290.0483 334.9973 15.02719737  5824 | 2026/02/04-04:00:01   59.2691  265.0004  334.9521   95.8263     6936.6510     6930.1847     6943.1174 -33.330612 -39.765692  -0.000876   0.000318
1 67141U 25301J   26036.25003472 -.00012899  00000-0 -99734-3 0  9996 | 2 67141  51.8884 225.0635 0009681 290.7267  74.1599 15.00302354  5840 | 2026/02/05-06:00:02  355.4677    4.9934   74.2667   95.9807     6944.1002     6937.3776     6950.8228 -36.649953 -36.731281  -0.000883   0.000397
1 67141U 25301J   26037.50002314 -.00014466  00000-0 -11425-2 0  9991 | 2 67141  51.8899 219.3519 0009466 291.7913 348.2724 14.99594739  5867 | 2026/02/06-12:00:01  177.2300  280.0416  348.2503   96.0259     6946.2845     6939.7092     6952.8599 -40.124704 -32.902430  -0.000829   0.000457
1 67141U 25301J   26038.58335648 -.01502318  00000-0 -13571+0 0  9999 | 2 67141  51.8910 214.4069 0008946 295.2479  74.9655 14.98125294  5327 | 2026/02/07-14:00:01  123.0931   10.3124   75.0645   96.1201     6950.8260     6944.6078     6957.0442 -42.812434 -29.321859  -0.000772   0.000452
1 67141U 25301J   26039.83335647 -.00296256  00000-0 -26590-1 0  9994 | 2 67141  51.9201 208.7232 0009849 299.9252 331.0423 14.96882312  5512 | 2026/02/08-20:00:01  319.2548  270.9128  330.9876   96.1999     6954.6734     6947.8237     6961.5230 -45.531417 -24.951690  -0.000841   0.000512
1 67141U 25301J   26040.91670139 -.01597618  00000-0 -15748+0 0  9991 | 2 67141  51.8929 203.8011 0009587 308.4938  41.0484 14.94946126  5680 | 2026/02/09-22:00:03  276.6742  349.6144   41.1206   96.3245     6960.6770     6954.0038     6967.3502 -47.479508 -20.942047  -0.000849   0.000446
1 67141U 25301J   26042.25001157 -.01641587  00000-0 -17604+0 0  9996 | 2 67141  51.8945 197.7638 0010276 310.8788  10.5824 14.91727633  5889 | 2026/02/11-06:00:00   72.0983  321.4829   10.6041   96.5324     6970.6854     6963.5224     6977.8485 -49.420292 -15.832684  -0.000878   0.000535
1 67141U 25301J   26043.25003472 -.01590558  00000-0 -18073+0 0  9991 | 2 67141  51.8955 193.2570 0010581 312.1817 338.2727 14.89313856  5666 | 2026/02/12-06:00:02  108.6059  290.4095  338.2278   96.6888     6978.2151     6970.8315     6985.5988 -50.512550 -11.900640  -0.000871   0.000600
1 67141U 25301J   26044.50003471 -.00089597  00000-0 -10420-1 0  9994 | 2 67141  51.8985 187.6479 0010396 311.5160 198.0958 14.85319868  5856 | 2026/02/13-12:00:02  346.2897  149.5748  198.0588   96.9488     6990.7190     6983.4515     6997.9866 -51.436843  -6.906913  -0.000787   0.000680
1 67141U 25301J   26045.66668981 -.00028194  00000-0 -33712-2 0  9991 | 2 67141  51.8999 182.4410 0010070 322.3370 306.8206 14.83584089  5640 | 2026/02/14-16:00:01  293.0965  269.0652  306.7282   97.0622     6996.1707     6989.1255     7003.2158 -51.852806  -2.210448  -0.000823   0.000581
1 67141U 25301J   26046.83334490  .00020617  00000-0  25505-2 0  9997 | 2 67141  51.9012 177.2525 0006440 332.3955  50.5184 14.82698519  5823 | 2026/02/15-20:00:00  245.6744   22.9709   50.5754   97.1202     6998.9561     6994.4488     7003.4635 -51.841538   2.487860  -0.000556   0.000325
1 67141U 25301J   26047.83337963  .00010086  00000-0  12860-2 0  9995 | 2 67141  51.9018 172.8121 0004276 328.7594 354.7395 14.81979742  5816 | 2026/02/16-20:00:04  310.5280  323.4944  354.7350   97.1673     7001.2190     6998.2253     7004.2127 -51.493911   6.494146  -0.000335   0.000266
1 67141U 25301J   26048.91668981 -.00047746  00000-0 -60839-2 0  9996 | 2 67141  51.9024 168.0080 0000439 202.3971 143.3909 14.81249762  4899 | 2026/02/17-22:00:01  324.1025  345.7910  143.3939   97.2152     7003.5190     7003.2116     7003.8265 -50.769714  10.784027   0.000043   0.000008
1 67141U 25301J   26049.91671296 -.00054689  00000-0 -71033-2 0  9992 | 2 67141  51.9021 163.5784 0000715  81.7603 199.0097 14.80518143  5040 | 2026/02/18-22:00:03   34.5441  280.7673  199.0070   97.2632     7005.8261     7005.3252     7006.3270 -49.784882  14.672884  -0.000030  -0.000065
1 67141U 25301J   26051.16670139 -.00512125  00000-0 -71154-1 0  9994 | 2 67141  51.9317 158.0478 0001025 104.2511   1.4348 14.79787555  5230 | 2026/02/20-04:00:03  306.3866  105.6862    1.4351   97.3113     7008.1318     7007.4135     7008.8501 -48.166447  19.413780  -0.000014  -0.000102
1 67141U 25301J   26052.25002315  .00021865  00000-0  30188-2 0  9997 | 2 67141  51.9020 153.2675 0001617 117.8596 358.7671 14.78052851  5394 | 2026/02/21-06:00:02  331.2898  116.6263  358.7667   97.4255     7013.6141     7012.4800     7014.7482 -46.354526  23.346852   0.000003  -0.000162
1 67141U 25301J   26053.83336806 -.00012375  00000-0 -16700-2 0  9999 | 2 67141  51.9009 146.2865 0001522 132.2596 134.4350 14.78065904  5633 | 2026/02/22-20:00:03   39.7676  266.7071  134.4475   97.4246     7013.5728     7012.5053     7014.6403 -43.172381  28.807098   0.000023  -0.000151
1 67141U 25301J   26054.91667824  .00013018  00000-0  17954-2 0  9991 | 2 67141  51.9009 141.5089 0001405  56.2225 218.7505 14.78439709  5808 | 2026/02/23-22:00:00   67.3263  274.9629  218.7404   97.4000     7012.3905     7011.4053     7013.3758 -40.623086  32.302760  -0.000134  -0.000043
1 67141U 25301J   26058.17566243  .00086936  00000-0  11358-1 0  9996 | 2 67141  51.9021 127.1153 0000583  60.5346 299.5674 14.79665226 11966 | 2026/02/27-04:12:57   93.0374    0.0962  299.5616   97.3193     7008.5181     7008.1095     7008.9266 -31.318814  41.387919  -0.000058  -0.000008
1 67141U 25301J   26059.25002315 -.00014142  00000-0 -18327-2 0  9997 | 2 67141  51.9025 122.3649 0000494  89.7935 237.5512 14.79872129  4850 | 2026/02/28-06:00:02  158.3739  327.3399  237.5464   97.3057     7007.8648     7007.5186     7008.2110 -27.783899  43.839759  -0.000042  -0.000026
1 67141U 25301J   26060.50003471  .00010913  00000-0  14577-2 0  9994 | 2 67141  51.9021 116.8393 0000771  80.3268  70.7092 14.79944474  5049 | 2026/03/01-12:00:02   71.4444  151.0443   70.7175   97.3009     7007.6364     7007.0961     7008.1767 -23.433262  46.311016  -0.000074  -0.000023
1 67141U 25301J   26061.58335648  .00046144  00000-0  60393-2 0  9999 | 2 67141  51.9019 112.0489 0000727  74.0049  92.3036 14.79940447  5200 | 2026/03/02-14:00:01   92.0259  166.3168   92.3119   97.3012     7007.6491     7007.1397     7008.1586 -19.483858  48.105992  -0.000072  -0.000008
