# SPACE DATA - HISTORICAL TLEs
# ----------------------------
# NORAD_ID    : 67149
# OBJECT_NAME : KUIPER-00241
# --------------------------------------------------------------------+-----------------------------------------------------------------------+----------------------------------------------------------------------------------------------------------------------------------------
#                  LINE 1                                             |                 LINE 2                                                |      DERIVED PARAMETERS
# --------------------------------------------------------------------+-----------------------------------------------------------------------+----------------------------------------------------------------------------------------------------------------------------------------
# NORAD  COSPAR     TLE_EPOCH      MEANMOT1 MEANMOT2   BSTAR  #  REV  |   NORAD    INC     RAAN     ECC    ARGPER  MEANANOM   MEANMOT     REV |  CAL_DATE              LONG     ARGLAT     PERIOD        SMA         PERIGEE        APOGEE      INC_X      INC_Y      ECC_X      ECC_Y
# ------ ------   -------------- ----------  -------  ------- -- ----     -----  ------- -------- ------- -------- -------- -----------  ----   ------------------- ---------  --------  --------  ------------  ------------   ----------- ---------- ----------  ---------  ---------   
1 67148U 25301R   25357.75003471  .00034186  00000-0  94819-3 0  9992 | 2 67148  51.8731  71.9592 0001468  41.3710 241.0242 15.36609311  1934 | 2025/12/23-18:00:02    8.1877  282.3805  241.0095   93.7128     6834.2816     6833.2783     6835.2848  16.064796  49.322823  -0.000058   0.000135
1 67148U 25301R   25358.91670139  .00001607  00000-0  54834-4 0  9998 | 2 67148  51.8740  66.3224 0001576  49.5015 210.9294 15.36664693  2119 | 2025/12/24-22:00:03   96.9387  260.4216  210.9201   93.7094     6834.1174     6833.0403     6835.1944  20.832067  47.507229  -0.000069   0.000142
1 67148U 25301R   25360.10530888  .00035452  00000-0  97932-3 0  9998 | 2 67148  51.8753  60.5814 0001263  71.2242 288.8881 15.36718132  2429 | 2025/12/26-02:31:38   72.0686    0.0986  288.8744   93.7062     6833.9589     6833.0958     6834.8221  25.480450  45.186208  -0.000084   0.000094
1 67148U 25301R   25361.14582013  .00036330  00000-0  10019-2 0  9996 | 2 67148  51.8748  55.5548 0001618  56.6085 303.5056 15.36758642  2583 | 2025/12/27-03:29:58   92.7030    0.0986  303.4901   93.7037     6833.8388     6832.7331     6834.9445  29.341308  42.779464  -0.000061   0.000150
1 67148U 25301R   25362.18630810  .00032977  00000-0  90990-3 0  9990 | 2 67148  51.8744  50.5277 0001710  37.0789 323.0316 15.36788999  2742 | 2025/12/28-04:28:17  113.3349    0.0987  323.0198   93.7019     6833.7488     6832.5803     6834.9174  32.976821  40.043510   0.000007   0.000171
1 67148U 25301R   25363.22676822  .00051755  00000-0  14164-2 0  9992 | 2 67148  51.8736  45.5022 0001850  60.2232 299.8939 15.36834182  2906 | 2025/12/29-05:26:32  133.9450    0.0987  299.8755   93.6991     6833.6149     6832.3507     6834.8791  36.357266  37.000265  -0.000050   0.000178
1 67148U 25301R   25364.26721533  .00026550  00000-0  73482-3 0  9991 | 2 67148  51.8740  40.4752 0002109  62.5367 297.5834 15.36807031  3067 | 2025/12/30-06:24:47  154.5555    0.0987  297.5620   93.7008     6833.6954     6832.2541     6835.1366  39.459878  33.672391  -0.000047   0.000205
1 67148U 25301R   25365.30765832  .00024080  00000-0  66675-3 0  9999 | 2 67148  51.8741  35.4484 0002110  66.2799 293.8409 15.36850177  3220 | 2025/12/31-07:23:01  175.1666    0.0987  293.8188   93.6981     6833.5675     6832.1256     6835.0094  42.258622  30.085398  -0.000043   0.000207
1 67148U 25301R   26001.60816724  .00059195  00000-0  16123-2 0  9994 | 2 67148  51.8746  29.1639 0002547  67.4615 292.6641 15.36920810  3420 | 2026/01/01-14:35:45  290.9113    0.0987  292.6372   93.6938     6833.3581     6831.6176     6835.0986  45.298420  25.278989  -0.000029   0.000253
1 67148U 25301R   26002.77857787  .00055386  00000-0  15068-2 0  9992 | 2 67148  51.8747  23.5086 0002351  67.2145 292.9090 15.36988198  3608 | 2026/01/02-18:41:09  359.0701    0.0987  292.8842   93.6897     6833.1584     6831.5519     6834.7648  47.569111  20.692129  -0.000003   0.000235
1 67148U 25301R   26003.94894746  .00058282  00000-0  15825-2 0  9997 | 2 67148  51.8742  17.8521 0002308  73.7995 286.3245 15.37025795  3784 | 2026/01/03-22:46:29   67.2128    0.0986  286.2991   93.6874     6833.0469     6831.4699     6834.6240  49.376510  15.902605  -0.000007   0.000231
1 67148U 25301R   26005.11932837  .00032259  00000-0  88432-3 0  9993 | 2 67148  51.8737  12.1962 0002387  70.2931 289.8313 15.37001735  3966 | 2026/01/05-02:51:49  135.3590    0.0987  289.8056   93.6889     6833.1182     6831.4872     6834.7493  50.702906  10.958836   0.000031   0.000237
1 67148U 25301R   26006.15964385  .00039189  00000-0  10695-2 0  9995 | 2 67148  51.8736   7.1681 0002320  77.5959 282.5287 15.37045626  4120 | 2026/01/06-03:49:53  155.9258    0.0986  282.5027   93.6862     6832.9882     6831.4029     6834.5734  51.468173   6.472832   0.000021   0.000231
1 67148U 25301R   26007.26495331  .00016392  00000-0  45457-3 0  9994 | 2 67148  51.8738   1.8260 0002285  79.8510 280.2734 15.37066027  4292 | 2026/01/07-06:21:31  200.2690    0.0986  280.2476   93.6850     6832.9277     6831.3664     6834.4890  51.847459   1.652923   0.000033   0.000226
1 67148U 25301R   26008.43525328  .00034479  00000-0  94063-3 0  9997 | 2 67148  51.8743 356.1692 0002350  85.0215 275.1040 15.37117971  4475 | 2026/01/08-10:26:45  268.3862    0.0987  275.0772   93.6818     6832.7738     6831.1681     6834.3795  51.758397  -3.465736   0.000036   0.000232
1 67148U 25301R   26009.67053684  .00043295  00000-0  11752-2 0  9994 | 2 67148  51.8749 350.1986 0002544  87.2457 272.8821 15.37166644  4661 | 2026/01/09-16:05:34    0.2741    0.0987  272.8530   93.6788     6832.6295     6830.8913     6834.3677  51.117720  -8.830850   0.000055   0.000248
1 67148U 25301R   26010.90578794  .00027326  00000-0  74656-3 0  9996 | 2 67148  51.8742 344.2280 0002622  87.4501 272.6786 15.37193873  4857 | 2026/01/10-21:44:20   92.1517    0.0987  272.6486   93.6772     6832.5488     6830.7573     6834.3403  49.921185 -14.099926   0.000082   0.000249
1 67148U 25301R   26012.27103825  .00008781  00000-0  24756-3 0  9997 | 2 67148  51.8749 337.6281 0002734  90.9514 269.1786 15.37205892  5068 | 2026/01/12-06:30:17  231.5861    0.0987  269.1473   93.6765     6832.5132     6830.6452     6834.3812  47.970422 -19.744464   0.000100   0.000255
1 67148U 25301R   26013.44127000  .00020028  00000-0  55053-3 0  9990 | 2 67148  51.8741 331.9704 0002657  91.9101 268.2190 15.37191615  5240 | 2026/01/13-10:35:25  299.6816    0.0987  268.1886   93.6773     6832.5555     6830.7401     6834.3709  45.789524 -24.377074   0.000117   0.000239
1 67148U 25301R   26015.06657674  .00018582  00000-0  51159-3 0  9990 | 2 67148  51.8740 324.1136 0002600 115.0314 245.0943 15.37195210  5495 | 2026/01/15-01:35:52  174.2542    0.0987  245.0673   93.6771     6832.5449     6830.7684     6834.3213  42.027319 -30.407505   0.000049   0.000255
1 67148U 25301R   26016.23689878  .00027760  00000-0  76132-3 0  9997 | 2 67148  51.8778 318.4596 0002541  99.6488 260.4786 15.37065624  5676 | 2026/01/16-05:41:08  242.3759    0.0987  260.4499   93.6850     6832.9289     6831.1926     6834.6651  38.829927 -34.402658   0.000134   0.000216
1 67148U 25301R   26017.53725138  .00036671  00000-0  10000-2 0  9993 | 2 67148  51.8761 312.1733 0002872 106.5059 253.6243 15.37099793  5879 | 2026/01/17-12:53:38  358.0681    0.0986  253.5927   93.6829     6832.8276     6830.8652     6834.7900  34.828332 -38.446288   0.000149   0.000245
1 67148U 25301R   26018.77270520 -.00291912  00000-0 -83344-2 0  9994 | 2 67148  51.8774 306.2027 0010370 104.8032 255.4104 15.36570951  6064 | 2026/01/18-18:32:41   89.9364    0.0986  255.2954   93.7152     6834.3953     6827.3080     6841.4826  30.641059 -41.861559   0.000653   0.000806
1 67148U 25301R   26019.91668981  .00008504  00000-0  24058-3 0  9992 | 2 67148  51.8735 300.6736 0003127 114.0763 101.3803 15.37140476  5792 | 2026/01/19-22:00:01  293.1845  215.4917  101.4154   93.6804     6832.7071     6830.5705     6834.8437  26.463093 -44.615745   0.000180   0.000255
1 67148U 25301R   26022.25003472  .00065522  00000-0  17615-2 0  9994 | 2 67148  51.8724 289.3942 0002904 119.8529  56.8099 15.37280171  4547 | 2026/01/22-06:00:02  105.5617  176.6907   56.8378   93.6719     6832.2931     6830.3090     6834.2772  17.225042 -48.928967   0.000190   0.000220
1 67148U 25301R   26023.45327536  .00072413  00000-0  19384-2 0  9999 | 2 67148  51.8730 283.5701 0003449 139.0168 221.1078 15.37366376  6785 | 2026/01/23-10:52:42    2.2766    0.0986  221.0818   93.6667     6832.0377     6829.6814     6834.3941  12.171214 -50.424891   0.000159   0.000306
1 67148U 25301R   26024.68835364  .00046058  00000-0  12386-2 0  9999 | 2 67148  51.8721 277.6021 0003411 122.7262 237.4054 15.37427100  6975 | 2026/01/24-16:31:13   94.0831    0.0987  237.3725   93.6630     6831.8578     6829.5275     6834.1882   6.862301 -51.416180   0.000260   0.000221
1 67148U 25301R   26026.31338604  .00047790  00000-0  12822-2 0  9995 | 2 67148  51.8701 269.7420 0003644 143.5512 216.5724 15.37480250  7221 | 2026/01/26-07:31:16  328.5646    0.0987  216.5475   93.6597     6831.7004     6829.2109     6834.1898  -0.233568 -51.869574   0.000218   0.000292
1 67148U 25301R   26027.35336987  .00049748  00000-0  13312-2 0  9992 | 2 67148  51.8718 264.7132 0002671 158.5827 201.5272 15.37546698  7386 | 2026/01/27-08:28:51  349.0263    0.0987  201.5160   93.6557     6831.5035     6829.6789     6833.3282  -4.779529 -51.651135   0.000120   0.000239
1 67148U 25301R   26028.91329826  .00054266  00000-0  14478-2 0  9994 | 2 67148  51.8747 257.1667 0002994 156.3536 203.7589 15.37599431  7623 | 2026/01/28-21:55:08  199.6820    0.0987  203.7451   93.6525     6831.3474     6829.3020     6833.3927 -11.522160 -50.578892   0.000178   0.000241
1 67148U 25301R   26030.01820676  .00061757  00000-0  16424-2 0  9993 | 2 67148  51.8708 251.8233 0002865 149.4510 210.6644 15.37642108  7799 | 2026/01/30-00:26:13  243.8786    0.0987  210.6477   93.6499     6831.2209     6829.2638     6833.1781 -16.181022 -49.282395   0.000215   0.000189
1 67148U 25301R   26031.83798398  .00032204  00000-0  86293-3 0  9996 | 2 67148  51.8720 243.0183 0002734 156.6711 203.4401 15.37707545  8078 | 2026/01/31-20:06:41  189.6013    0.0987  203.4276   93.6459     6831.0271     6829.1595     6832.8947 -23.534632 -46.225810   0.000210   0.000175
1 67148U 25301R   26032.94281909  .00030458  00000-0  81641-3 0  9995 | 2 67148  51.8708 237.6756 0002439 154.0780 206.0330 15.37726245  8246 | 2026/02/01-22:37:39  233.7738    0.0987  206.0207   93.6448     6830.9718     6829.3057     6832.6378 -27.735953 -43.832600   0.000207   0.000128
1 67148U 25301R   26034.24258427  .00036106  00000-0  96296-3 0  9997 | 2 67148  51.8711 231.3834 0002650 193.6298 166.4618 15.37796257  8446 | 2026/02/03-05:49:19  349.2820    0.0987  166.4689   93.6405     6830.7644     6828.9543     6832.5746 -32.373065 -40.528949   0.000112   0.000240
1 67148U 25301R   26035.73727898  .00063298  00000-0  16709-2 0  9997 | 2 67148  51.8704 224.1519 0002413 175.6998 184.4010 15.37861171  8671 | 2026/02/04-17:41:40  176.0676    0.0987  184.3989   93.6365     6830.5722     6828.9240     6832.2204 -37.216785 -36.131002   0.000185   0.000155
1 67148U 25301R   26037.49183674  .00064540  00000-0  16986-2 0  9998 | 2 67148  51.8719 215.6611 0002121 234.5009 125.5780 15.37944627  8947 | 2026/02/06-11:48:14   97.9505    0.0987  125.5978   93.6315     6830.3251     6828.8764     6831.7738 -42.144857 -30.240785  -0.000001   0.000212
1 67148U 25301R   26038.72647194  .00071342  00000-0  18735-2 0  9999 | 2 67148  51.8729 209.6882 0001844 184.3463 175.7508 15.37967719  9132 | 2026/02/07-17:26:07  189.5908    0.0987  175.7524   93.6301     6830.2567     6828.9972     6831.5162 -45.063728 -25.691598   0.000153   0.000103
1 67148U 25301R   26039.76613155  .00017958  00000-0  48217-3 0  9996 | 2 67148  51.8712 204.6540 0002035 185.4394 174.6571 15.37999156  9293 | 2026/02/08-18:23:13  209.9278    0.0987  174.6593   93.6281     6830.1637     6828.7737     6831.5536 -47.142796 -21.637425   0.000176   0.000102
1 67148U 25301R   26041.45551836  .00038111  00000-0  10062-2 0  9992 | 2 67148  51.8715 196.4785 0002315 187.2841 172.8113 15.38082622  9556 | 2026/02/10-10:55:56  107.9488    0.0987  172.8146   93.6231     6829.9166     6828.3354     6831.4977 -49.740943 -14.713638   0.000212   0.000093
1 67148U 25301R   26042.62505007  .00043821  00000-0  11531-2 0  9997 | 2 67148  51.8715 190.8168 0001800 208.2825 151.8064 15.38123048  9733 | 2026/02/11-15:00:04  175.8011    0.0986  151.8161   93.6206     6829.7969     6828.5675     6831.0262 -50.949861  -9.734690   0.000140   0.000114
1 67148U 25301R   26043.72956828  .00056313  00000-0  14733-2 0  9997 | 2 67148  51.8716 185.4685 0001850 209.0308 151.0577 15.38188203  9902 | 2026/02/12-17:30:34  219.8650    0.0988  151.0680   93.6166     6829.6040     6828.3405     6830.8675 -51.635519  -4.943285   0.000152   0.000105
1 67148U 25301R   26044.76911141  .00018708  00000-0  49942-3 0  9998 | 2 67148  51.8708 180.4337 0001769 209.2150 150.8738 15.38148082 10064 | 2026/02/13-18:27:31  240.1597    0.0987  150.8837   93.6191     6829.7228     6828.5146     6830.9310 -51.869314  -0.392632   0.000154   0.000088
1 67148U 25301R   26046.32840504  .00043779  00000-0  11481-2 0  9998 | 2 67148  51.8697 172.8878 0000663 191.4761 168.6211 15.38227454 10309 | 2026/02/15-07:52:54   90.5798    0.0987  168.6226   93.6142     6829.4878     6829.0350     6829.9406 -51.470594   6.422131   0.000066   0.000005
1 67148U 25301R   26047.49782955  .00037402  00000-0  98182-3 0  9992 | 2 67148  51.8711 167.2203 0001831 195.4490 164.6441 15.38270074 10483 | 2026/02/16-11:56:52  158.3969    0.0987  164.6497   93.6117     6829.3617     6828.1112     6830.6121 -50.586138  11.474042   0.000183   0.000009
1 67148U 25301R   26048.53729098  .00038933  00000-0  10204-2 0  9995 | 2 67148  51.8715 162.1928 0001181 234.8493 125.2384 15.38300487 10643 | 2026/02/17-12:53:41  178.6604    0.0988  125.2495   93.6098     6829.2717     6828.4651     6830.0782 -49.386387  15.863080   0.000094   0.000071
1 67148U 25301R   26049.83335647 -.01256564  00000-0 -38440-1 0  9998 | 2 67148  51.8718 155.9180 0001420 209.1583 128.6365 15.36491494  5262 | 2026/02/18-20:00:01  315.0892  337.8075  128.6492   93.7200     6834.6309     6833.6604     6835.6014 -47.357004  21.165959   0.000141   0.000013
1 67148U 25301R   26050.91670139 -.01011250  00000-0 -32279-1 0  9992 | 2 67148  51.8747 150.6864 0001341 196.4324  12.9261 15.34546172  5439 | 2026/02/19-22:00:03  119.8290  209.3619   12.9295   93.8388     6840.4058     6839.4885     6841.3231 -45.232305  25.397305   0.000131  -0.000030
1 67148U 25301R   26052.16668981 -.00793462  00000-0 -27149-1 0  9994 | 2 67148  51.8764 144.6677 0001041 156.0720 117.3417 15.32160468  5624 | 2026/02/21-04:00:01  153.0204  273.4243  117.3523   93.9849     6847.5047     6846.7919     6848.2175 -42.321374  30.001036   0.000053  -0.000089
1 67148U 25301R   26053.25002314  .00008012  00000-0  27705-3 0  9995 | 2 67148  51.8775 139.4719 0001398 155.6992 333.5713 15.30796037  5790 | 2026/02/22-06:00:01  333.4272  129.2634  333.5642   94.0687     6851.5730     6850.6151     6852.5308 -39.431432  33.711084   0.000059  -0.000127
1 67148U 25301R   26054.25002315  .00029523  00000-0  98589-3 0  9995 | 2 67148  51.8774 134.6834 0001126 167.0739  76.7173 15.30792666  5643 | 2026/02/23-06:00:02  224.6806  243.8038   76.7299   94.0689     6851.5830     6850.8116     6852.3545 -36.479603  36.884999   0.000059  -0.000096
1 67148U 25301R   26055.50002314 -.01037693  00000-0 -37979-1 0  9997 | 2 67148  51.8772 128.6984 0001358 131.1068 165.5278 15.30285427  5841 | 2026/02/24-12:00:01  269.0543  296.6385  165.5317   94.1001     6853.0970     6852.1664     6854.0277 -32.434708  40.487450  -0.000024  -0.000134
1 67148U 25301R   26056.58336806 -.00781227  00000-0 -30090-1 0  9997 | 2 67148  51.8778 123.5187 0001193 126.8484  17.5224 15.28320789  4097 | 2026/02/25-14:00:03   97.5698  144.3749   17.5265   94.2211     6858.9688     6858.1505     6859.7871 -28.647394  43.250814  -0.000040  -0.000112
1 67148U 25301R   26057.75003471 -.01857878  00000-0 -75728-1 0  9990 | 2 67148  51.8778 117.9533 0001273 103.7294 340.9891 15.27638583  4277 | 2026/02/26-18:00:02  223.9374   84.7137  340.9843   94.2631     6861.0107     6860.1373     6861.8841 -24.317809  45.825215  -0.000095  -0.000085
1 67148U 25301R   26058.83335647 -.01057019  00000-0 -46144-1 0  9992 | 2 67148  51.8795 112.7958 0002112 126.6893 152.7865 15.24579870  4441 | 2026/02/27-20:00:01   65.4012  279.4869  152.7976   94.4523     6870.1843     6868.7333     6871.6353 -20.100609  47.827273  -0.000107  -0.000182
1 67148U 25301R   26059.91668981 -.01076396  00000-0 -50966-1 0  9998 | 2 67148  51.8807 107.6578 0002536 122.5793 341.2738 15.21913111  4610 | 2026/02/28-22:00:01  277.2297  103.8438  341.2645   94.6178     6878.2074     6876.4631     6879.9517 -15.737041  49.436349  -0.000162  -0.000195
1 67148U 25301R   26061.16668981 -.01821867  00000-0 -91752-1 0  9997 | 2 67148  51.8809 101.7575 0002439 128.4922 341.3525 15.19944546  4804 | 2026/03/02-04:00:01    8.3704  109.8358  341.3436   94.7403     6884.1451     6882.4660     6885.8241 -10.571766  50.792377  -0.000156  -0.000188
