# SPACE DATA - HISTORICAL TLEs
# ----------------------------
# NORAD_ID    : 67149
# OBJECT_NAME : KUIPER-00241
# --------------------------------------------------------------------+-----------------------------------------------------------------------+----------------------------------------------------------------------------------------------------------------------------------------
#                  LINE 1                                             |                 LINE 2                                                |      DERIVED PARAMETERS
# --------------------------------------------------------------------+-----------------------------------------------------------------------+----------------------------------------------------------------------------------------------------------------------------------------
# NORAD  COSPAR     TLE_EPOCH      MEANMOT1 MEANMOT2   BSTAR  #  REV  |   NORAD    INC     RAAN     ECC    ARGPER  MEANANOM   MEANMOT     REV |  CAL_DATE              LONG     ARGLAT     PERIOD        SMA         PERIGEE        APOGEE      INC_X      INC_Y      ECC_X      ECC_Y
# ------ ------   -------------- ----------  -------  ------- -- ----     -----  ------- -------- ------- -------- -------- -----------  ----   ------------------- ---------  --------  --------  ------------  ------------   ----------- ---------- ----------  ---------  ---------   
1 67146U 25301P   25357.75003471  .00030262  00000-0  91081-3 0  9999 | 2 67146  51.8594  72.1117 0010452 141.8924  70.4838 15.34058172  2220 | 2025/12/23-18:00:02   78.0542  212.4891   70.5967   93.8687     6841.8564     6834.7053     6849.0075  15.929252  49.352369  -0.000866  -0.000585
1 67146U 25301P   25358.91670139 -.00001802  00000-0 -42284-4 0  9991 | 2 67146  51.8596  66.4952 0010570 146.9583  32.7113 15.34110797  2402 | 2025/12/24-22:00:03  177.5272  179.7351   32.7768   93.8654     6841.6999     6834.4683     6848.9316  20.682951  47.556636  -0.000882  -0.000583
1 67146U 25301P   25360.18703979  .00031191  00000-0  93457-3 0  9991 | 2 67146  51.8599  60.3812 0010632 149.4699 210.6907 15.34182837  2602 | 2025/12/26-04:29:20  101.7242    0.0985  210.6286   93.8610     6841.4858     6834.2119     6848.7596  25.630570  45.083513  -0.000922  -0.000529
1 67146U 25301P   25361.22926124  .00035483  00000-0  10593-2 0  9993 | 2 67146  51.8607  55.3628 0010572 153.5483 206.6044 15.34235315  2765 | 2025/12/27-05:30:08  122.9774    0.0985  206.5502   93.8578     6841.3298     6834.0971     6848.5624  29.476484  42.669299  -0.000925  -0.000511
1 67146U 25301P   25362.27144926  .00026110  00000-0  78233-3 0  9994 | 2 67146  51.8613  50.3456 0010506 156.2712 203.8759 15.34279023  2922 | 2025/12/28-06:30:53  144.2152    0.0984  203.8272   93.8552     6841.1998     6834.0125     6848.3872  33.095562  39.928414  -0.000939  -0.000471
1 67146U 25301P   25363.50899642  .00041559  00000-0  12329-2 0  9990 | 2 67146  51.8619  44.3887 0010364 159.2116 200.9292 15.34359739  3117 | 2025/12/29-12:12:57  236.9151    0.0984  200.8868   93.8502     6840.9599     6833.8699     6848.0499  37.061066  36.278562  -0.000950  -0.000415
1 67146U 25301P   25364.55109596  .00042273  00000-0  12514-2 0  9998 | 2 67146  51.8616  39.3700 0010435 162.0363 198.0993 15.34419848  3277 | 2025/12/30-13:13:34  258.1220    0.0985  198.0622   93.8465     6840.7812     6833.6429     6847.9196  40.092430  32.897152  -0.000972  -0.000381
1 67146U 25301P   25365.59315693  .00025567  00000-0  76191-3 0  9999 | 2 67146  51.8609  34.3529 0010507 165.5662 194.5625 15.34462787  3434 | 2025/12/31-14:14:08  279.3151    0.0985  194.5323   93.8439     6840.6536     6833.4662     6847.8411  42.815200  29.264511  -0.000988  -0.000358
1 67146U 25301P   26001.63518612  .00038072  00000-0  11252-2 0  9999 | 2 67146  51.8606  29.3348 0010530 169.1905 190.9308 15.34517822  3596 | 2026/01/01-15:14:40  300.4981    0.0984  190.9079   93.8406     6840.4901     6833.2870     6847.6931  45.210612  25.407132  -0.000998  -0.000335
1 67146U 25301P   26002.93767889  .00079745  00000-0  23270-2 0  9990 | 2 67146  51.8602  23.0624 0010451 173.6563 186.4557 15.34583229  3794 | 2026/01/02-22:30:15   56.9610    0.0986  186.4423   93.8366     6840.2957     6833.1469     6847.4445  47.715469  20.315373  -0.001001  -0.000301
1 67146U 25301P   26004.10987747  .00024344  00000-0  72252-3 0  9998 | 2 67146  51.8604  17.4156 0010429 177.6872 182.4163 15.34621225  3973 | 2026/01/04-02:38:13  125.7632    0.0985  182.4113   93.8342     6840.1828     6833.0492     6847.3164  49.483061  15.521848  -0.001007  -0.000272
1 67146U 25301P   26005.15180210  .00017791  00000-0  53092-3 0  9993 | 2 67146  51.8611  12.3963 0010357 181.1610 178.9353 15.34656328  4133 | 2026/01/05-03:38:35  146.9095    0.0985  178.9375   93.8321     6840.0785     6832.9942     6847.1628  50.652018  11.133139  -0.001007  -0.000243
1 67146U 25301P   26006.58443370  .00020801  00000-0  61868-3 0  9996 | 2 67146  51.8619   5.4946 0010504 186.4967 173.5883 15.34650880  4352 | 2026/01/06-14:01:35  310.9820    0.0984  173.6017   93.8324     6840.0947     6832.9098     6847.2795  51.623606   4.965877  -0.001027  -0.000218
1 67146U 25301P   26007.82168624  .00018377  00000-0  54718-3 0  9991 | 2 67146  51.8619 359.5351 0010467 190.2734 169.8039 15.34701902  4542 | 2026/01/07-19:43:13   43.5796    0.0985  169.8251   93.8293     6839.9431     6832.7837     6847.1024  51.860193  -0.420805  -0.001031  -0.000178
1 67146U 25301P   26008.92866592  .00016997  00000-0  50627-3 0  9993 | 2 67146  51.8615 354.2027 0010494 193.8276 166.2423 15.34748996  4711 | 2026/01/08-22:17:16   88.5232    0.0985  166.2709   93.8264     6839.8031     6832.6255     6846.9808  51.596253  -5.238500  -0.001039  -0.000147
1 67146U 25301P   26010.62163005  .00026583  00000-0  78270-3 0  9998 | 2 67146  51.8608 346.0466 0010537 200.0165 160.0409 15.34820465  4971 | 2026/01/10-14:55:08  347.8275    0.0986  160.0821   93.8220     6839.5908     6832.3839     6846.7977  50.330500 -12.505332  -0.001048  -0.000111
1 67146U 25301P   26011.92387263  .00014080  00000-0  42010-3 0  9998 | 2 67146  51.8611 339.7720 0011228 194.3333 165.7336 15.34845751  5176 | 2026/01/11-22:10:22  104.1835    0.0986  165.7653   93.8205     6839.5157     6831.8363     6847.1951  48.662523 -17.931328  -0.001117   0.000115
1 67146U 25301P   26013.16100310  .00019946  00000-0  58998-3 0  9990 | 2 67146  51.8611 333.8111 0010688 209.1956 150.8433 15.34852007  5366 | 2026/01/13-03:51:50  196.7587    0.0985  150.9029   93.8201     6839.4971     6832.1871     6846.8072  46.537241 -22.887964  -0.001067  -0.000056
1 67146U 25301P   26014.46321345  .00017969  00000-0  53212-3 0  9994 | 2 67146  51.8623 327.5366 0010679 216.2948 143.7314 15.34888745  5560 | 2026/01/14-11:07:01  313.1252    0.0985  143.8037   93.8179     6839.3880     6832.0842     6846.6918  43.758012 -27.837647  -0.001066  -0.000071
1 67146U 25301P   26016.22115263  .00020516  00000-0  60488-3 0  9995 | 2 67146  51.8632 319.0660 0010361 222.1448 137.8741 15.34938243  5839 | 2026/01/16-05:18:27  236.1939    0.0985  137.9537   93.8148     6839.2409     6832.1548     6846.3271  39.180822 -33.980210  -0.001036  -0.000022
1 67146U 25301P   26017.52328181  .00035951  00000-0  10469-2 0  9996 | 2 67146  51.8624 312.7914 0011639 228.5946 131.4040 15.34999753  6032 | 2026/01/17-12:33:31  352.5387    0.0985  131.5039   93.8111     6839.0582     6831.0982     6847.0182  35.231745 -38.058280  -0.001164  -0.000028
1 67146U 25301P   26018.95558336  .00025279  00000-0  73963-3 0  9992 | 2 67146  51.8611 305.8894 0010773 229.5366 130.4681 15.35044708  6259 | 2026/01/18-22:56:02  156.4749    0.0985  130.5619   93.8083     6838.9247     6831.5571     6846.2923  30.402143 -42.015276  -0.001074   0.000086
1 67146U 25301P   26019.99721721  .00028822  00000-0  84004-3 0  9992 | 2 67146  51.8606 300.8687 0010745 233.8109 126.1883 15.35093643  6416 | 2026/01/19-23:55:59  177.5160    0.0985  126.2876   93.8054     6838.7794     6831.4311     6846.1276  26.608244 -44.514303  -0.001070   0.000100
1 67146U 25301P   26022.01518106  .00049944  00000-0  14331-2 0  9993 | 2 67146  51.8606 291.1395 0011125 242.2063 117.7795 15.35317271  6728 | 2026/01/22-00:21:51  195.7146    0.0985  117.8922   93.7917     6838.1153     6830.5079     6845.7227  18.703002 -48.370648  -0.001105   0.000129
1 67146U 25301P   26023.12172969  .00059061  00000-0  16878-2 0  9998 | 2 67146  51.8615 285.8031 0011436 245.5205 114.4588 15.35367700  6898 | 2026/01/23-02:55:17  240.5057    0.0985  114.5780   93.7886     6837.9655     6830.1456     6845.7854  14.123562 -49.901304  -0.001131   0.000173
1 67146U 25301P   26024.68384286  .00048654  00000-0  13892-2 0  9996 | 2 67146  51.8599 278.2675 0012689 257.6708 102.2858 15.35466514  7138 | 2026/01/24-16:24:44   91.9644    0.0986  102.4278   93.7826     6837.6722     6828.9958     6846.3485   7.457188 -51.320947  -0.001266   0.000090
1 67146U 25301P   26026.18080297  .00045920  00000-0  13101-2 0  9994 | 2 67146  51.8601 271.0495 0011211 257.4030 102.5702 15.35532413  7367 | 2026/01/26-04:20:21  279.5469    0.0986  102.6956   93.7785     6837.4765     6829.8110     6845.1420   0.949880 -51.851400  -0.001098   0.000224
1 67146U 25301P   26027.67771912  .00059731  00000-0  16958-2 0  9998 | 2 67146  51.8551 263.8304 0010806 261.6070  98.3690 15.35574068  7594 | 2026/01/27-16:15:54  107.1285    0.0985   98.4915   93.7760     6837.3529     6829.9644     6844.7413  -5.572964 -51.554762  -0.001046   0.000272
1 67146U 25301P   26028.91424128  .00063815  00000-0  18060-2 0  9994 | 2 67146  51.8588 257.8660 0011757 268.0853  91.8786 15.35632518  7788 | 2026/01/28-21:56:30  199.4717    0.0985   92.0132   93.7724     6837.1794     6829.1409     6845.2179 -10.900655 -50.700206  -0.001141   0.000285
1 67146U 25301P   26030.02055396  .00056414  00000-0  15964-2 0  9993 | 2 67146  51.8588 252.5294 0011487 271.6961  88.2709 15.35694666  7959 | 2026/01/30-00:29:35  244.1682    0.0986   88.4025   93.7686     6836.9949     6829.1413     6844.8486 -15.568861 -49.466612  -0.001105   0.000312
1 67146U 25301P   26031.84262774  .00018178  00000-0  52325-3 0  9992 | 2 67146  51.8583 243.7357 0011460 278.4937  81.4750 15.35764880  8234 | 2026/01/31-20:13:23  190.7027    0.0986   81.6049   93.7644     6836.7865     6828.9516     6844.6215 -22.947947 -46.504570  -0.001091   0.000350
1 67146U 25301P   26032.94897850 -.00281319  00000-0 -83613-2 0  9997 | 2 67146  51.8580 238.3995 0011116 282.8700  77.1044 15.35270577  8406 | 2026/02/01-22:46:31  235.4100    0.0986   77.2286   93.7945     6838.2539     6830.6525     6845.8553 -27.173247 -44.168618  -0.001053   0.000357
1 67146U 25301P   26034.16668981 -.00239972  00000-0 -72910-2 0  9990 | 2 67146  51.8588 232.5367 0011521 284.7161 327.4689 15.34404332  5405 | 2026/02/03-04:00:01   68.6385  252.1139  327.3978   93.8475     6840.8274     6832.9460     6848.7087 -31.543278 -41.162565  -0.001062   0.000445
1 67146U 25301P   26035.25004630  .00001681  00000-0  62406-4 0  9999 | 2 67146  51.8594 227.3253 0011404 288.2321 190.1523 15.33597018  5578 | 2026/02/04-06:00:04  238.7266  118.3614  190.1293   93.8969     6843.2279     6835.4239     6851.0319 -35.152121 -38.127756  -0.001038   0.000472
1 67146U 25301P   26036.50002314 -.01067076  00000-0 -35505-1 0  9995 | 2 67146  51.8601 221.3149 0011325 293.6165 250.2966 15.33270374  5766 | 2026/02/05-12:00:01  270.4320  183.7910  250.1745   93.9169     6844.1998     6836.4487     6851.9508 -38.951731 -34.237883  -0.001026   0.000480
1 67146U 25301P   26037.58335648 -.00996204  00000-0 -34251-1 0  9993 | 2 67146  51.8620 216.1195 0011254 301.0769 102.6645 15.32056875  5890 | 2026/02/06-14:00:01   86.8669   43.8672  102.7903   93.9913     6847.8134     6840.1068     6855.5199 -41.893569 -30.571161  -0.001037   0.000436
1 67146U 25301P   26038.83336806 -.00881433  00000-0 -32741-1 0  9998 | 2 67146  51.8640 210.1421 0011317 303.5786 152.8887 15.29693225  4788 | 2026/02/07-20:00:03  131.3546   96.5263  152.9477   94.1365     6854.8656     6847.1080     6862.6233 -44.851089 -26.043316  -0.001015   0.000501
1 67146U 25301P   26039.91670139 -.02029689  00000-0 -79942-1 0  9991 | 2 67146  51.8664 204.9773 0010780 310.6982 351.3839 15.28368890  4942 | 2026/02/08-22:00:03  321.9724  302.0636  351.3654   94.2181     6858.8249     6851.4311     6866.2187 -47.015603 -21.901062  -0.000982   0.000444
1 67146U 25301P   26041.16668981 -.01028864  00000-0 -42612-1 0  9990 | 2 67146  51.8683 199.0323 0011262 317.1177  19.3569 15.26134458  5145 | 2026/02/10-04:00:01   24.7528  336.5174   19.3997   94.3560     6865.5180     6857.7860     6873.2499 -49.032914 -16.914311  -0.001030   0.000455
1 67146U 25301P   26042.25001157 -.00974358  00000-0 -43374-1 0  9990 | 2 67146  51.8702 193.8972 0011630 322.1642 204.9391 15.23589627  5303 | 2026/02/11-06:00:00  230.3228  167.0472  204.8830   94.5136     6873.1608     6865.1673     6881.1543 -50.351867 -12.458216  -0.001063   0.000472
1 67146U 25301P   26043.25003472 -.01826775  00000-0 -86784-1 0  9995 | 2 67146  51.8717 189.1732 0011075 326.2060 285.8447 15.22391241  5462 | 2026/02/12-06:00:02  151.0934  251.9286  285.7226   94.5880     6876.7672     6869.1512     6884.3832 -51.208310  -8.269357  -0.001007   0.000461
1 67146U 25301P   26044.50003471 -.01139608  00000-0 -56808-1 0  9999 | 2 67146  51.8750 183.2878 0012022 334.4932 284.8585 15.19748049  5658 | 2026/02/13-12:00:02  240.9099  259.2185  284.7253   94.7525     6884.7384     6876.4616     6893.0153 -51.789616  -2.975106  -0.001113   0.000455
1 67146U 25301P   26045.66668981 -.01589706  00000-0 -83012-1 0  9995 | 2 67146  51.8762 177.8094 0012699 338.7995 183.5528 15.18662641  5830 | 2026/02/14-16:00:01   44.5334  162.3433  183.5438   94.8203     6888.0184     6879.2714     6896.7655 -51.838289   1.982909  -0.001166   0.000504
1 67146U 25301P   26046.83334490 -.00664526  00000-0 -36312-1 0  9994 | 2 67146  51.8800 172.3437 0012528 344.1735  74.5324 15.16033025  5860 | 2026/02/15-20:00:00  214.7912   58.8443   74.6708   94.9847     6895.9812     6887.3419     6904.6205 -51.417495   6.911989  -0.001149   0.000499
1 67146U 25301P   26047.83337963 -.00674871  00000-0 -38924-1 0  9998 | 2 67146  51.8825 167.6746 0012259 350.2553 126.6710 15.14177997  5553 | 2026/02/16-20:00:04  162.2381  117.0389  126.7836   95.1011     6901.6122     6893.1515     6910.0729 -50.686662  11.075020  -0.001136   0.000461
1 67146U 25301P   26048.91668981 -.01786974  00000-0 -11004+0 0  9992 | 2 67146  51.8817 162.6307 0011631 356.6702 265.4726 15.12777769  5720 | 2026/02/17-22:00:01   53.1250  262.0099  265.3397   95.1891     6905.8703     6897.8381     6913.9025 -49.515916  15.488215  -0.001088   0.000411
1 67146U 25301P   26049.91671296 -.00901332  00000-0 -58646-1 0  9997 | 2 67146  51.8829 157.9900 0011597   3.0859 303.4509 15.10214415  5876 | 2026/02/18-22:00:03   14.3657  306.4258  303.3399   95.3507     6913.6825     6905.6647     6921.7003 -48.101594  19.444072  -0.001097   0.000376
1 67146U 25301P   26051.16670139  .00037447  00000-0  23890-2 0  9991 | 2 67146  51.8831 152.2053 0011119   9.7067 252.7256 15.08296093  5919 | 2026/02/20-04:00:03  155.4827  262.3107  252.6040   95.4720     6919.5434     6911.8496     6927.2372 -45.897041  24.193339  -0.001057   0.000345
1 67146U 25301P   26052.25002315 -.02138636  00000-0 -15197+0 0  9991 | 2 67146  51.8833 147.2017 0010116  14.0456  13.5235 15.07711638  5930 | 2026/02/21-06:00:02   66.4132   27.5962   13.5506   95.5090     6921.3315     6914.3299     6928.3331 -43.612203  28.104316  -0.000958   0.000325
1 67146U 25301P   26053.83336806 -.01833229  00000-0 -14232+0 0  9999 | 2 67146  51.8849 139.9212 0011159  21.0583 312.3830 15.04474313  5720 | 2026/02/22-20:00:03  339.3862  333.3468  312.2885   95.7145     6931.2568     6923.5222     6938.9914 -39.700234  33.405603  -0.001055   0.000364
1 67146U 25301P   26054.91667824 -.01809156  00000-0 -15101+0 0  9994 | 2 67146  51.8877 134.9600 0011603  27.0863  51.1909 15.01713903  5899 | 2026/02/23-22:00:00  270.5710   78.3809   51.2946   95.8904     6939.7481     6931.6959     6947.8003 -36.664521  36.715750  -0.001104   0.000358
1 67146U 25301P   26055.91668981 -.00032576  00000-0 -26412-2 0  9993 | 2 67146  51.8892 130.3968 0010848  29.8692  52.9070 14.99075495  5636 | 2026/02/24-22:00:01  271.6250   82.8754   53.0062   96.0592     6947.8885     6940.3514     6955.4255 -33.628216  39.517492  -0.001021   0.000366
1 67146U 25301P   26057.16668981 -.01384829  00000-0 -12667+0 0  9998 | 2 67146  51.8898 124.7077 0010391  34.9114 316.9622 14.97888302  5834 | 2026/02/26-04:00:01   99.4487  351.7923  316.8809   96.1353     6951.5591     6944.3358     6958.7825 -29.545534  42.656920  -0.000974   0.000362
1 67146U 25301P   26058.25002315 -.00062003  00000-0 -56649-2 0  9999 | 2 67146  51.8920 119.7939 0010989  45.2661  27.2142 14.94762564  5620 | 2026/02/27-06:00:02   54.8236   72.5380   27.2719   96.3364     6961.2468     6953.5971     6968.8965 -25.784179  45.032830  -0.001062   0.000283
1 67146U 25301P   26059.50001156 -.00003077  00000-0 -27310-3 0  9990 | 2 67146  51.8946 114.1474 0011603  41.7754 278.6905 14.92371995  5822 | 2026/02/28-12:00:00  263.7124  320.3344  278.5590   96.4907     6968.6788     6960.5930     6976.7646 -21.229328  47.353618  -0.001059   0.000473
1 67146U 25301P   26060.50003471 -.00030582  00000-0 -30852-2 0  9999 | 2 67146  51.8957 109.6446 0011654  41.9898 253.5783 14.90498817  5826 | 2026/03/01-12:00:02  294.1070  295.4401  253.4503   96.6120     6974.5161     6966.3880     6982.6443 -17.446545  48.875165  -0.001025   0.000554
1 67146U 25301P   26061.58335648  .00023924  00000-0  25733-2 0  9994 | 2 67146  51.8965 104.7776 0012261  41.6345 309.2552 14.88330541  5702 | 2026/03/02-14:00:01  274.7160  350.7808  309.1463   96.7527     6981.2884     6972.7286     6989.8482 -13.237124  50.179929  -0.001021   0.000678
