# SPACE DATA - HISTORICAL TLEs
# ----------------------------
# NORAD_ID    : 67149
# OBJECT_NAME : KUIPER-00241
# --------------------------------------------------------------------+-----------------------------------------------------------------------+----------------------------------------------------------------------------------------------------------------------------------------
#                  LINE 1                                             |                 LINE 2                                                |      DERIVED PARAMETERS
# --------------------------------------------------------------------+-----------------------------------------------------------------------+----------------------------------------------------------------------------------------------------------------------------------------
# NORAD  COSPAR     TLE_EPOCH      MEANMOT1 MEANMOT2   BSTAR  #  REV  |   NORAD    INC     RAAN     ECC    ARGPER  MEANANOM   MEANMOT     REV |  CAL_DATE              LONG     ARGLAT     PERIOD        SMA         PERIGEE        APOGEE      INC_X      INC_Y      ECC_X      ECC_Y
# ------ ------   -------------- ----------  -------  ------- -- ----     -----  ------- -------- ------- -------- -------- -----------  ----   ------------------- ---------  --------  --------  ------------  ------------   ----------- ---------- ----------  ---------  ---------   
1 67143U 25301L   25357.75003471  .00029769  00000-0  86967-3 0  9993 | 2 67143  51.8663  72.0555 0006535 124.9392 114.8634 15.35037947  2086 | 2025/12/23-18:00:02   50.6840  239.8705  114.9313   93.8088     6838.9448     6834.4755     6843.4140  15.979779  49.343285  -0.000625  -0.000191
1 67143U 25301L   25358.91670139 -.00001024  00000-0 -18476-4 0  9990 | 2 67143  51.8669  66.4312 0006640 130.3630  80.8558 15.35091462  2262 | 2025/12/24-22:00:03  146.0420  211.2939   80.9309   93.8055     6838.7858     6834.2449     6843.3268  20.738979  47.540194  -0.000636  -0.000192
1 67143U 25301L   25360.05032225  .00032385  00000-0  94101-3 0  9996 | 2 67143  51.8667  60.9674 0006769 131.5062 228.6505 15.35162370  2445 | 2025/12/26-01:12:27   51.7888    0.0985  228.5923   93.8012     6838.5753     6833.9462     6843.2043  25.171282  45.349323  -0.000661  -0.000146
1 67143U 25301L   25361.15697556  .00036912  00000-0  10684-2 0  9995 | 2 67143  51.8684  55.6330 0006753 136.1783 223.9739 15.35219516  2619 | 2025/12/27-03:46:02   96.6137    0.0985  223.9202   93.7977     6838.4055     6833.7876     6843.0235  29.279280  42.814188  -0.000661  -0.000138
1 67143U 25301L   25362.26358841  .00035814  00000-0  10353-2 0  9992 | 2 67143  51.8680  50.2981 0006643 136.3794 223.7718 15.35276221  2789 | 2025/12/28-06:19:34  141.4209    0.0986  223.7192   93.7942     6838.2372     6833.6945     6842.7798  33.132933  39.906117  -0.000660  -0.000077
1 67143U 25301L   25363.30509035  .00032024  00000-0  92726-3 0  9996 | 2 67143  51.8685  45.2785 0006574 139.1898 220.9581 15.35279659  2942 | 2025/12/29-07:19:19  162.4111    0.0985  220.9087   93.7940     6838.2270     6833.7315     6842.7224  36.497860  36.854409  -0.000655  -0.000051
1 67143U 25301L   25364.54184308  .00038405  00000-0  11066-2 0  9991 | 2 67143  51.8679  39.3158 0006562 141.6394 218.5059 15.35345768  3139 | 2025/12/30-13:00:15  254.8263    0.0985  218.4591   93.7899     6838.0307     6833.5435     6842.5178  40.128406  32.863203  -0.000656  -0.000011
1 67143U 25301L   25365.58327740  .00023727  00000-0  68827-3 0  9994 | 2 67143  51.8674  34.2951 0006704 145.6670 214.4750 15.35386697  3294 | 2025/12/31-13:59:55  275.7932    0.0985  214.4315   93.7874     6837.9091     6833.3250     6842.4933  42.850070  29.224967  -0.000670   0.000000
1 67143U 25301L   26001.62467884  .00066714  00000-0  19007-2 0  9999 | 2 67143  51.8673  29.2732 0006778 147.1779 212.9629 15.35449035  3454 | 2026/01/01-14:59:32  296.7473    0.0986  212.9207   93.7836     6837.7241     6833.0895     6842.3587  45.243746  25.361787  -0.000677   0.000042
1 67143U 25301L   26002.92637956  .00082812  00000-0  23463-2 0  9990 | 2 67143  51.8679  22.9969 0006738 153.5105 206.6227 15.35520366  3655 | 2026/01/02-22:13:59   52.9264    0.0986  206.5881   93.7793     6837.5123     6832.9052     6842.1194  47.745750  20.263820  -0.000673   0.000041
1 67143U 25301L   26004.16294462  .00028823  00000-0  82851-3 0  9998 | 2 67143  51.8683  17.0326 0006516 156.7674 203.3608 15.35563902  3843 | 2026/01/04-03:54:38  145.2780    0.0986  203.3312   93.7766     6837.3831     6832.9278     6841.8383  49.593266  15.193043  -0.000648   0.000070
1 67143U 25301L   26005.26930937  .00030500  00000-0  87478-3 0  9999 | 2 67143  51.8687  11.6957 0006615 159.9512 200.1735 15.35602970  4018 | 2026/01/05-06:27:48  190.0002    0.0986  200.1474   93.7742     6837.2671     6832.7442     6841.7899  50.791803  10.514502  -0.000654   0.000096
1 67143U 25301L   26006.50579608  .00019542  00000-0  56431-3 0  9999 | 2 67143  51.8685   5.7315 0006506 163.3970 196.7230 15.35655418  4200 | 2026/01/06-12:08:20  282.3230    0.0986  196.7016   93.7710     6837.1114     6832.6632     6841.5596  51.609200   5.179941  -0.000639   0.000123
1 67143U 25301L   26007.80731354  .00024684  00000-0  70806-3 0  9996 | 2 67143  51.8681 359.4538 0006624 167.7185 192.3964 15.35714944  4407 | 2026/01/07-19:22:31   38.4350    0.0986  192.3801   93.7674     6836.9347     6832.4060     6841.4635  51.865743  -0.494451  -0.000646   0.000147
1 67143U 25301L   26008.91356527  .00020554  00000-0  59084-3 0  9991 | 2 67143  51.8678 354.1173 0006637 171.4809 188.6291 15.35762620  4572 | 2026/01/08-21:55:32   83.1173    0.0986  188.6177   93.7645     6836.7932     6832.2557     6841.3308  51.594654  -5.316044  -0.000643   0.000165
1 67143U 25301L   26011.12596074  .00030541  00000-0  86857-3 0  9996 | 2 67143  51.8688 343.4439 0006659 178.3792 181.7216 15.35866371  4917 | 2026/01/11-03:01:23  172.4430    0.0985  181.7193   93.7582     6836.4853     6831.9329     6841.0378  49.718381 -14.780223  -0.000633   0.000208
1 67143U 25301L   26012.29716884  .00031074  00000-0  88182-3 0  9993 | 2 67143  51.8705 337.7944 0006531 183.7350 176.3589 15.35926035  5090 | 2026/01/12-07:07:55  240.8887    0.0986  176.3636   93.7545     6836.3083     6831.8435     6840.7731  48.023454 -19.603484  -0.000619   0.000207
1 67143U 25301L   26013.46834258  .00027564  00000-0  78287-3 0  9993 | 2 67143  51.8695 332.1393 0006522 186.1538 173.9369 15.35964124  5270 | 2026/01/13-11:14:24  309.3239    0.0986  173.9448   93.7522     6836.1953     6831.7367     6840.6538  45.857119 -24.239837  -0.000606   0.000241
1 67143U 25301L   26014.50936288  .00012830  00000-0  37069-3 0  9998 | 2 67143  51.8685 327.1168 0006659 190.8224 169.2619 15.35983253  5436 | 2026/01/14-12:13:28  330.1462    0.0985  169.2761   93.7510     6836.1385     6831.5863     6840.6907  43.558082 -28.160873  -0.000617   0.000250
1 67143U 25301L   26015.94073858  .00019386  00000-0  55337-3 0  9993 | 2 67143  51.8690 320.2094 0006654 196.0472 164.0304 15.36022393  5650 | 2026/01/15-22:34:39  133.7664    0.0986  164.0514   93.7486     6836.0224     6831.4737     6840.5711  39.855545 -33.195312  -0.000609   0.000268
1 67143U 25301L   26016.98171559  .00027648  00000-0  78281-3 0  9998 | 2 67143  51.8680 315.1851 0006767 198.2039 161.8706 15.36058042  5810 | 2026/01/16-23:33:40  154.5715    0.0986  161.8947   93.7465     6835.9166     6831.2908     6840.5425  36.794509 -36.557537  -0.000605   0.000303
1 67143U 25301L   26018.08772224  .00031080  00000-0  87681-3 0  9996 | 2 67143  51.8673 309.8474 0006758 203.9858 156.0815 15.36109343  5982 | 2026/01/18-02:06:19  199.1689    0.0987  156.1129   93.7433     6835.7644     6831.1448     6840.3840  33.233717 -39.821312  -0.000607   0.000298
1 67143U 25301L   26019.19369100  .00036565  00000-0  10270-2 0  9996 | 2 67143  51.8685 304.5086 0006918 209.8176 150.2417 15.36164910  6157 | 2026/01/19-04:38:54  243.7546    0.0986  150.2810   93.7399     6835.5996     6830.8707     6840.3284  29.385058 -42.741779  -0.000624   0.000300
1 67143U 25301L   26020.95011079  .00048675  00000-0  13538-2 0  9996 | 2 67143  51.8695 296.0301 0007140 216.5764 143.4735 15.36338486  6427 | 2026/01/20-22:48:09  166.2848    0.0986  143.5222   93.7293     6835.0847     6830.2045     6839.9650  22.762581 -46.608046  -0.000634   0.000329
1 67143U 25301L   26021.99085071  .00030213  00000-0  84427-3 0  9999 | 2 67143  51.8678 291.0043 0006932 218.6021 141.4471 15.36419273  6589 | 2026/01/21-23:46:49  187.0035    0.0987  141.4966   93.7244     6834.8451     6830.1072     6839.5830  18.591391 -48.421368  -0.000598   0.000351
1 67143U 25301L   26023.16163673  .00031627  00000-0  88150-3 0  9992 | 2 67143  51.8665 285.3499 0007062 222.5801 137.4638 15.36476021  6765 | 2026/01/23-03:52:45  255.3001    0.0986  137.5185   93.7210     6834.6768     6829.8502     6839.5035  13.729737 -50.016279  -0.000598   0.000375
1 67143U 25301L   26024.39742932  .00050012  00000-0  13827-2 0  9996 | 2 67143  51.8662 279.3809 0007490 235.1057 124.9226 15.36509327  6959 | 2026/01/24-09:32:17  347.3881    0.0986  124.9929   93.7189     6834.5780     6829.4590     6839.6971   8.454039 -51.172570  -0.000676   0.000323
1 67143U 25301L   26025.95838610  .00027349  00000-0  76142-3 0  9995 | 2 67143  51.8675 271.8444 0007447 237.0052 123.0219 15.36585129  7196 | 2026/01/25-23:00:04  198.4088    0.0986  123.0934   93.7143     6834.3533     6829.2637     6839.4428   1.669371 -51.840628  -0.000637   0.000385
1 67143U 25301L   26027.38916904  .00042518  00000-0  11715-2 0  9996 | 2 67143  51.8675 264.9295 0007370 240.4166 119.6087 15.36688430  7410 | 2026/01/27-09:20:24    1.8176    0.0987  119.6821   93.7080     6834.0470     6829.0103     6839.0837  -4.584125 -51.664527  -0.000606   0.000419
1 67143U 25301L   26028.88514477  .00043678  00000-0  12360-2 0  9996 | 2 67143  51.8670 257.7046 0006859 254.1734 105.8496 15.35849935  7647 | 2026/01/28-21:14:36  189.0706    0.0986  105.9252   93.7592     6836.5341     6831.8449     6841.2233 -11.045178 -50.677310  -0.000605   0.000323
1 67143U 25301L   26030.12167993 -.00075068  00000-0 -21644-2 0  9998 | 2 67143  51.8670 251.7342 0007574 254.0939 105.9212 15.35307915  7836 | 2026/01/30-02:55:13  281.4203    0.0985  106.0046   93.7923     6838.1431     6832.9638     6843.3223 -16.256450 -49.253564  -0.000627   0.000425
1 67143U 25301L   26031.16668981 -.00734260  00000-0 -22633-1 0  9990 | 2 67143  51.8655 246.6950 0006876 256.5134 122.9287 15.35593862  5764 | 2026/01/31-04:00:01  284.2661   19.5082  122.9948   93.7748     6837.2941     6832.5928     6841.9955 -20.519322 -47.633890  -0.000551   0.000412
1 67143U 25301L   26032.25002315 -.01515110  00000-0 -48375-1 0  9997 | 2 67143  51.8655 241.4730 0007031 268.0203 341.5227 15.35188380  5715 | 2026/02/01-06:00:02   90.4550  249.5174  341.4971   93.7996     6838.4980     6833.6899     6843.3062 -24.769554 -45.568622  -0.000606   0.000357
1 67143U 25301L   26033.50002314  .00071911  00000-0  21910-2 0  9995 | 2 67143  51.8663 235.4512 0007760 272.4690  45.0459 15.33290438  5903 | 2026/02/02-12:00:01  119.7370  317.5779   45.1089   93.9157     6844.1401     6838.8290     6849.4511 -29.413791 -42.719339  -0.000658   0.000412
1 67143U 25301L   26034.58335648 -.00800424  00000-0 -27094-1 0  9992 | 2 67143  51.8678 230.2405 0007871 275.9782 264.9612 15.32460211  4983 | 2026/02/03-14:00:01  292.5909  180.8496  264.8714   93.9666     6846.6118     6841.2228     6852.0008 -33.172906 -39.872635  -0.000654   0.000438
1 67143U 25301L   26035.83334490 -.00032588  00000-0 -10347-2 0  9997 | 2 67143  51.8692 224.2420 0007610 280.2911 318.6536 15.31887187  5171 | 2026/02/04-20:00:00  331.8120  238.8871  318.5960   94.0017     6848.3191     6843.1075     6853.5306 -37.159062 -36.188645  -0.000620   0.000442
1 67143U 25301L   26036.91670139 -.01636763  00000-0 -58572-1 0  9997 | 2 67143  51.8709 219.0468 0007949 287.9253 167.2722 15.31319791  5347 | 2026/02/05-22:00:03  151.8306   95.2175  167.2922   94.0365     6850.0106     6844.5655     6855.4557 -40.284583 -32.676331  -0.000666   0.000433
1 67143U 25301L   26037.91671296  .00078770  00000-0  26733-2 0  9993 | 2 67143  51.8720 214.2592 0007892 290.6410 276.5851 15.29784287  5494 | 2026/02/06-22:00:03   45.5794  207.1363  276.4953   94.1309     6854.5936     6849.1839     6860.0032 -42.872175 -29.200702  -0.000646   0.000454
1 67143U 25301L   26039.16668981 -.01578403  00000-0 -60793-1 0  9993 | 2 67143  51.8723 208.2806 0007614 294.6901 319.6041 15.28854649  5689 | 2026/02/08-04:00:01   95.7136  254.2376  319.5475   94.1882     6857.3720     6852.1508     6862.5932 -45.680710 -24.576580  -0.000608   0.000459
1 67143U 25301L   26040.25002315 -.01254376  00000-0 -52072-1 0  9999 | 2 67143  51.8739 203.1089 0008532 302.0545 152.4564 15.26199970  5850 | 2026/02/09-06:00:02  291.7364   94.5561  152.5016   94.3520     6865.3215     6859.4640     6871.1790 -47.711566 -20.359468  -0.000700   0.000487
1 67143U 25301L   26041.50002314 -.01292481  00000-0 -58987-1 0  9997 | 2 67143  51.8745 197.1692 0008540 302.5289 177.1420 15.23147571  5467 | 2026/02/10-12:00:01    3.7481  119.6758  177.1469   94.5411     6874.4906     6868.6197     6880.3614 -49.562826 -15.313066  -0.000651   0.000552
1 67143U 25301L   26042.58335648 -.01037485  00000-0 -50039-1 0  9996 | 2 67143  51.8761 192.0426 0008546 308.4205 350.9867 15.21115774  5636 | 2026/02/11-14:00:01  220.2062  299.3918  350.9713   94.6674     6880.6108     6874.7307     6886.4910 -50.734449 -10.823372  -0.000659   0.000544
1 67143U 25301L   26043.83335647 -.01597447  00000-0 -84277-1 0  9994 | 2 67143  51.8771 186.1508 0008342 315.3990 346.5045 15.18393693  5828 | 2026/02/12-20:00:01  314.8338  301.8812  346.4822   94.8371     6888.8318     6883.0851     6894.5785 -51.578461  -5.558405  -0.000653   0.000519
1 67143U 25301L   26044.91668981 -.01094142  00000-0 -61582-1 0  9992 | 2 67143  51.8786 181.0606 0008868 321.3645 139.6753 15.15485051  1936 | 2026/02/13-22:00:01  191.8555  101.1055  139.7410   95.0191     6897.6434     6891.5265     6903.7602 -51.869712  -0.960268  -0.000703   0.000541
1 67143U 25301L   26046.16668981 -.00822357  00000-0 -48970-1 0  9993 | 2 67143  51.8813 175.2172 0008861 323.2031 114.8838 15.13178197  2122 | 2026/02/15-04:00:01  311.8838   78.1790  114.9759   95.1639     6904.6519     6898.5337     6910.7702 -51.700646   4.325795  -0.000663   0.000588
1 67143U 25301L   26047.25002315 -.01517506  00000-0 -97108-1 0  9992 | 2 67143  51.8829 170.1689 0008974 328.4458 251.4257 15.11445100  2291 | 2026/02/16-06:00:02  206.2153  219.7741  251.3283   95.2731     6909.9291     6903.7281     6916.1301 -51.121019   8.858712  -0.000673   0.000593
1 67143U 25301L   26048.50002314 -.01385139  00000-0 -93656-1 0  9999 | 2 67143  51.8856 164.3632 0009439 336.9158 202.0165 15.09162909  2483 | 2026/02/17-12:00:01  344.1923  178.8918  201.9760   95.4171     6916.8936     6910.3647     6923.4224 -49.965296  13.985161  -0.000736   0.000590
1 67143U 25301L   26049.58336806 -.01034818  00000-0 -73483-1 0  9995 | 2 67143  51.8871 159.3518 0009738 339.6166 323.8936 15.06996072  2647 | 2026/02/18-14:00:03  255.6977  303.4444  323.8278   95.5543     6923.5223     6916.7802     6930.2644 -48.554040  18.296895  -0.000735   0.000639
1 67143U 25301L   26050.83334490 -.00162120  00000-0 -11651-1 0  9998 | 2 67143  51.8893 153.5847 0009935 348.4214 255.8135 15.04577850  2836 | 2026/02/19-20:00:00   51.9638  244.1246  255.7032   95.7079     6930.9388     6924.0529     6937.8247 -46.471694  23.084219  -0.000783   0.000612
1 67143U 25301L   26051.83335647 -.01015595  00000-0 -78556-1 0  9995 | 2 67143  51.8903 148.9834 0010039 353.6637 269.5359 15.03780762  2990 | 2026/02/20-20:00:01   38.5903  263.0846  269.4209   95.7586     6933.3878     6926.4274     6940.3482 -44.470923  26.738366  -0.000798   0.000609
1 67143U 25301L   26052.91668981 -.01397493  00000-0 -11496+0 0  9993 | 2 67143  51.8899 144.0101 0010332   3.3339   3.3815 15.01947858  3151 | 2026/02/21-22:00:01  331.1155    6.7224    3.3885   95.8755     6939.0274     6931.8580     6946.1968 -41.985187  30.492717  -0.000870   0.000558
1 67143U 25301L   26054.16668981 -.00009475  00000-0 -76414-3 0  9996 | 2 67143  51.8920 138.2880 0010975   4.7012 278.8940 14.98378647  3349 | 2026/02/23-04:00:01  151.1899  283.4709  278.7697   96.1039     6950.0425     6942.4148     6957.6701 -38.737318  34.528247  -0.000876   0.000661
1 67143U 25301L   26055.25002315 -.00008723  00000-0 -73523-3 0  9993 | 2 67143  51.8936 133.3500 0009981   8.1769   1.2792 14.96603763  3513 | 2026/02/24-06:00:02  101.3348    9.4587    1.2818   96.2179     6955.5363     6948.5939     6962.4786 -35.622527  37.735676  -0.000781   0.000621
1 67143U 25301L   26056.50002314 -.00146835  00000-0 -13509-1 0  9994 | 2 67143  51.9018 127.6726 0009922  14.7968 252.0665 14.95065935  3708 | 2026/02/25-12:00:01  300.8370  266.7552  251.9584   96.3168     6960.3051     6953.3991     6967.2111 -31.719712  41.081099  -0.000787   0.000604
1 67143U 25301L   26057.58335648 -.01061610  00000-0 -10740+0 0  9992 | 2 67143  51.9057 122.7624 0009173  17.0967 322.1639 14.93664731  3861 | 2026/02/26-14:00:01  264.4177  339.1961  322.0994   96.4072     6964.6574     6958.2687     6971.0461 -28.089106  43.648641  -0.000701   0.000591
1 67143U 25301L   26058.66671296  .00007372  00000-0  75990-3 0  9998 | 2 67143  51.8966 117.8682 0009565  29.1286  15.1566 14.91080707  4032 | 2026/02/27-16:00:03  235.3635   44.3139   15.1853   96.5742     6972.7015     6966.0321     6979.3709 -24.258507  45.877902  -0.000802   0.000521
1 67143U 25301L   26059.83335647 -.00091841  00000-0 -97886-2 0  9998 | 2 67143  51.8978 112.6100 0008101  22.5550 166.4715 14.88894171  4219 | 2026/02/28-20:00:01  157.0219  189.0482  166.4932   96.7161     6979.5264     6973.8723     6985.1805 -19.952444  47.909098  -0.000574   0.000571
1 67143U 25301L   26060.91668981 -.00002693  00000-0 -27088-3 0  9994 | 2 67143  51.8989 107.7451 0009005  27.8200 210.0995 14.87066562  4376 | 2026/03/01-22:00:01  144.0616  237.8678  210.0478   96.8349     6985.2438     6978.9536     6991.5340 -15.817895  49.429647  -0.000643   0.000630
