# SPACE DATA - HISTORICAL TLEs
# ----------------------------
# NORAD_ID    : 67149
# OBJECT_NAME : KUIPER-00241
# --------------------------------------------------------------------+-----------------------------------------------------------------------+----------------------------------------------------------------------------------------------------------------------------------------
#                  LINE 1                                             |                 LINE 2                                                |      DERIVED PARAMETERS
# --------------------------------------------------------------------+-----------------------------------------------------------------------+----------------------------------------------------------------------------------------------------------------------------------------
# NORAD  COSPAR     TLE_EPOCH      MEANMOT1 MEANMOT2   BSTAR  #  REV  |   NORAD    INC     RAAN     ECC    ARGPER  MEANANOM   MEANMOT     REV |  CAL_DATE              LONG     ARGLAT     PERIOD        SMA         PERIGEE        APOGEE      INC_X      INC_Y      ECC_X      ECC_Y
# ------ ------   -------------- ----------  -------  ------- -- ----     -----  ------- -------- ------- -------- -------- -----------  ----   ------------------- ---------  --------  --------  ------------  ------------   ----------- ---------- ----------  ---------  ---------   
1 67154U 25301X   25357.75003471  .00031436  00000-0  92608-3 0  9998 | 2 67154  51.8642  72.0730 0007709 130.5377 100.8985 15.34738721  1901 | 2025/12/23-18:00:02   59.0329  231.5229  100.9852   93.8270     6839.8337     6834.5608     6845.1065  15.964061  49.346165  -0.000712  -0.000296
1 67154U 25301X   25358.91670139 -.00002009  00000-0 -47388-4 0  9990 | 2 67154  51.8647  66.4512 0007840 135.4035  66.2030 15.34799009  2084 | 2025/12/24-22:00:03  155.6343  201.6887   66.2852   93.8234     6839.6546     6834.2923     6845.0168  20.721504  47.545414  -0.000728  -0.000292
1 67154U 25301X   25360.11741840  .00035066  00000-0  10291-2 0  9991 | 2 67154  51.8649  60.6669 0008200 138.1455 222.0159 15.34800361  2428 | 2025/12/26-02:49:04   76.3053    0.0986  221.9531   93.8233     6839.6505     6834.0420     6845.2591  25.407897  45.215115  -0.000776  -0.000264
1 67154U 25301X   25361.15921866  .00034324  00000-0  10059-2 0  9992 | 2 67154  51.8659  55.6469 0008223 142.2810 217.8753 15.34855086  2580 | 2025/12/27-03:49:16   97.4054    0.0985  217.8175   93.8199     6839.4880     6833.8639     6845.1121  29.267482  42.819226  -0.000782  -0.000253
1 67154U 25301X   25362.26609251  .00027154  00000-0  79757-3 0  9990 | 2 67154  51.8663  50.3136 0008123 144.6393 215.5132 15.34906996  2751 | 2025/12/28-06:23:10  142.3081    0.0985  215.4592   93.8168     6839.3338     6833.7782     6844.8893  33.121050  39.913771  -0.000785  -0.000210
1 67154U 25301X   25363.50313240  .00031037  00000-0  90742-3 0  9990 | 2 67154  51.8663  44.3531 0008109 147.4204 212.7284 15.34981503  2944 | 2025/12/29-12:04:30  234.8259    0.0986  212.6782   93.8122     6839.1124     6833.5666     6844.6583  37.086747  36.258603  -0.000794  -0.000165
1 67154U 25301X   25364.54480259  .00042304  00000-0  12281-2 0  9990 | 2 67154  51.8661  39.3336 0008161 149.4281 210.7181 15.35054460  3101 | 2025/12/30-13:04:30  255.8760    0.0985  210.6704   93.8077     6838.8957     6833.3145     6844.4770  40.116802  32.874527  -0.000807  -0.000124
1 67154U 25301X   25365.58642894  .00030528  00000-0  88906-3 0  9993 | 2 67154  51.8654  34.3140 0008282 153.4246 206.7166 15.35111341  3268 | 2025/12/31-14:04:27  276.9127    0.0986  206.6740   93.8043     6838.7268     6833.0630     6844.3906  42.838776  29.237972  -0.000821  -0.000112
1 67154U 25301X   26001.62801054  .00048582  00000-0  14017-2 0  9991 | 2 67154  51.8652  29.2935 0008430 157.6028 202.5328 15.35181996  3425 | 2026/01/01-15:04:20  297.9349    0.0986  202.4958   93.8000     6838.5170     6832.7521     6844.2818  45.232926  25.376787  -0.000837  -0.000101
1 67154U 25301X   26002.92992389  .00032818  00000-0  95010-3 0  9995 | 2 67154  51.8654  23.0172 0008319 161.1727 198.9568 15.35260754  3620 | 2026/01/02-22:19:05   54.1893    0.0986  198.9259   93.7951     6838.2831     6832.5943     6843.9719  47.736267  20.279757  -0.000830  -0.000061
1 67154U 25301X   26004.10158322  .00029941  00000-0  86598-3 0  9992 | 2 67154  51.8660  17.3680 0008361 164.6632 195.4608 15.35336651  3804 | 2026/01/04-02:26:16  122.7962    0.0985  195.4353   93.7905     6838.0577     6832.3404     6843.7750  49.501284  15.482405  -0.000836  -0.000030
1 67154U 25301X   26005.14301571  .00024932  00000-0  72224-3 0  9999 | 2 67154  51.8666  12.3466 0008381 167.5966 192.5228 15.35389143  3968 | 2026/01/05-03:25:56  143.7644    0.0986  192.5020   93.7873     6837.9019     6832.1710     6843.6327  50.667029  11.090374  -0.000838   0.000001
1 67154U 25301X   26006.24949526  .00023035  00000-0  66698-3 0  9990 | 2 67154  51.8667   7.0110 0008350 170.7514 189.3627 15.35449589  4135 | 2026/01/06-05:59:16  188.5285    0.0985  189.3471   93.7836     6837.7224     6832.0129     6843.4319  51.478879   6.330844  -0.000834   0.000033
1 67154U 25301X   26007.48610259  .00019089  00000-0  55392-3 0  9998 | 2 67154  51.8664   1.0478 0008397 174.6545 185.4532 15.35505125  4323 | 2026/01/07-11:39:59  280.8956    0.0986  185.4441   93.7802     6837.5575     6831.8160     6843.2990  51.857727   0.948457  -0.000837   0.000063
1 67154U 25301X   26008.91790851  .00019240  00000-0  55705-3 0  9991 | 2 67154  51.8660 354.1425 0008526 179.6225 180.4769 15.35569510  4546 | 2026/01/08-22:01:47   84.6706    0.0986  180.4761   93.7763     6837.3664     6831.5369     6843.1960  51.595197  -5.293168  -0.000848   0.000093
1 67154U 25301X   26011.13059500  .00029710  00000-0  85079-3 0  9998 | 2 67154  51.8666 343.4704 0008262 189.8645 170.2180 15.35653859  4880 | 2026/01/11-03:08:03  174.1077    0.0986  170.2341   93.7711     6837.1160     6831.4672     6842.7649  49.723103 -14.756600  -0.000821   0.000096
1 67154U 25301X   26012.17182146  .00054424  00000-0  15411-2 0  9998 | 2 67154  51.8678 338.4470 0007691 192.9231 167.1559 15.35725094  5043 | 2026/01/12-04:07:25  195.0024    0.0986  167.1755   93.7668     6836.9046     6831.6464     6842.1629  48.241107 -19.054245  -0.000760   0.000115
1 67154U 25301X   26013.60346641  .00018864  00000-0  54361-3 0  9995 | 2 67154  51.8683 331.5420 0008288 198.1405 161.9286 15.35732732  5262 | 2026/01/13-14:28:59  358.7205    0.0985  161.9580   93.7663     6836.8819     6831.2155     6842.5484  45.600880 -24.715993  -0.000815   0.000148
1 67154U 25301X   26014.83986655  .00017151  00000-0  49499-3 0  9990 | 2 67154  51.8678 325.5772 0008215 199.1967 160.8710 15.35756645  5453 | 2026/01/14-20:09:24   91.0095    0.0985  160.9018   93.7649     6836.8110     6831.1945     6842.4274  42.785158 -29.320624  -0.000793   0.000216
1 67154U 25301X   26016.20638912  .00018244  00000-0  52527-3 0  9993 | 2 67154  51.8671 318.9845 0008241 205.3370 154.7213 15.35786079  5667 | 2026/01/16-04:57:12  230.9066    0.0986  154.7616   93.7631     6836.7236     6831.0895     6842.3578  39.135390 -34.038468  -0.000793   0.000223
1 67154U 25301X   26017.50781068  .00034108  00000-0  96878-3 0  9992 | 2 67154  51.8668 312.7045 0008284 208.9663 151.0864 15.35839871  5861 | 2026/01/17-12:11:14  346.9867    0.0986  151.1323   93.7598     6836.5640     6830.9006     6842.2274  35.176966 -38.114906  -0.000786   0.000261
1 67154U 25301X   26018.80919514  .00034261  00000-0  97185-3 0  9997 | 2 67154  51.8664 306.4250 0008244 210.9741 149.0760 15.35878715  6066 | 2026/01/18-19:25:14  103.0499    0.0986  149.1245   93.7574     6836.4487     6830.8127     6842.0847  30.796714 -41.733510  -0.000761   0.000317
1 67154U 25301X   26019.98040318  .00039997  00000-0  11300-2 0  9999 | 2 67154  51.8686 300.7748 0008541 220.7482 139.2866 15.35928340  6248 | 2026/01/19-23:31:46  171.5047    0.0986  139.3504   93.7544     6836.3015     6830.4626     6842.1403  26.539349 -44.564724  -0.000810   0.000271
1 67154U 25301X   26021.47683956  .00044007  00000-0  12359-2 0  9990 | 2 67154  51.8663 293.5522 0008251 223.0915 136.9426 15.36072139  6475 | 2026/01/21-11:26:38  358.9201    0.0986  137.0071   93.7456     6835.8748     6830.2345     6841.5151  20.724964 -47.545651  -0.000757   0.000327
1 67154U 25301X   26022.50002314  .00032915  00000-0  92741-3 0  9997 | 2 67154  51.8656 288.6131 0008454 227.8202  33.9953 15.36106625  4673 | 2026/01/22-12:00:01  111.4323  261.8697   34.0495   93.7435     6835.7725     6829.9935     6841.5514  16.554255 -49.152794  -0.000775   0.000338
1 67154U 25301X   26024.01404740  .00057938  00000-0  16124-2 0  9996 | 2 67154  51.8683 281.3110 0008147 237.9450 122.0745 15.36234973  6866 | 2026/01/24-00:20:13  207.0715    0.0986  122.1536   93.7357     6835.3917     6829.8229     6840.9605  10.173158 -50.860863  -0.000762   0.000289
1 67154U 25301X   26025.70537633  .00050173  00000-0  13944-2 0  9992 | 2 67154  51.8674 273.1382 0008252 235.1903 124.8308 15.36339827  7125 | 2026/01/25-16:55:44  105.7881    0.0987  124.9084   93.7293     6835.0807     6829.4404     6840.7210   2.839457 -51.789619  -0.000702   0.000433
1 67154U 25301X   26026.83335647  .00003525  00000-0  10849-3 0  9999 | 2 67154  51.8642 267.6910 0008841 244.4557 238.2705 15.36389338  5342 | 2026/01/26-20:00:01   35.7149  122.6401  238.1844   93.7262     6834.9339     6828.8911     6840.9767  -2.089544 -51.822090  -0.000782   0.000413
1 67154U 25301X   26027.91693606  .00037732  00000-0  10485-2 0  9993 | 2 67154  51.8631 262.4546 0009180 248.6686 111.3321 15.36467121  7461 | 2026/01/27-22:00:23  194.8335    0.0986  111.4300   93.7215     6834.7032     6828.4290     6840.9775  -6.810235 -51.414024  -0.000804   0.000443
1 67154U 25301X   26029.93318575  .00054198  00000-0  14918-2 0  9996 | 2 67154  51.8650 252.7202 0009092 258.6564 101.3401 15.36599633  7777 | 2026/01/29-22:23:47  212.4093    0.0986  101.4422   93.7134     6834.3103     6828.0965     6840.5240 -15.405889 -49.524103  -0.000798   0.000436
1 67154U 25301X   26031.88425837  .00030649  00000-0  84853-3 0  9994 | 2 67154  51.8635 243.2945 0008785 270.3383  89.6597 15.36688090  8071 | 2026/01/31-21:13:19  206.1427    0.0987   89.7604   93.7080     6834.0480     6828.0443     6840.0517 -23.307703 -46.331130  -0.000787   0.000390
1 67154U 25301X   26033.57511690  .00032844  00000-0  90719-3 0  9992 | 2 67154  51.8616 235.1258 0009363 270.6851  89.3063 15.36720056  8336 | 2026/02/02-13:48:10  104.6936    0.0987   89.4136   93.7061     6833.9532     6827.5546     6840.3519 -29.653244 -42.547746  -0.000774   0.000526
1 67154U 25301X   26034.87575931  .00053340  00000-0  14603-2 0  9995 | 2 67154  51.8639 228.8379 0008262 275.4754  84.5290 15.36780096  8537 | 2026/02/03-21:01:05  220.4818    0.0987   84.6233   93.7024     6833.7752     6828.1292     6839.4213 -34.136384 -39.045761  -0.000671   0.000482
1 67154U 25301X   26036.76157593  .00082779  00000-0  22414-2 0  9992 | 2 67154  51.8649 219.7223 0009764 280.8692  79.1195 15.36910169  8826 | 2026/02/05-18:16:40  190.3658    0.0986   79.2294   93.6945     6833.3896     6826.7175     6840.0618 -39.891934 -33.145158  -0.000754   0.000620
1 67154U 25301X   26037.80197039  .00040398  00000-0  11046-2 0  9997 | 2 67154  51.8650 214.6964 0009141 286.7754  73.2229 15.36935869  8981 | 2026/02/06-19:14:50  210.9496    0.0986   73.3232   93.6929     6833.3135     6827.0671     6839.5598 -42.642356 -29.523003  -0.000715   0.000569
1 67154U 25301X   26039.49253626  .00041887  00000-0  11415-2 0  9993 | 2 67154  51.8642 206.5264 0009152 296.5823  63.4226 15.37023706  9240 | 2026/02/08-11:49:15  109.3830    0.0987   63.5164   93.6876     6833.0531     6826.7995     6839.3067 -46.404387 -23.163077  -0.000732   0.000549
1 67154U 25301X   26040.79290406  .00031924  00000-0  87191-3 0  9991 | 2 67154  51.8638 200.2383 0009560 301.3011  58.7039 15.37082331  9445 | 2026/02/09-19:01:46  225.0851    0.0987   58.7976   93.6840     6832.8794     6826.3472     6839.4116 -48.661832 -17.941009  -0.000749   0.000595
1 67154U 25301X   26042.74335008  .00055053  00000-0  14846-2 0  9991 | 2 67154  51.8656 190.8142 0010307 315.5423  44.4735 15.37216986  9740 | 2026/02/11-17:50:25  218.5814    0.0986   44.5563   93.6758     6832.4804     6825.4381     6839.5226 -50.944507  -9.731271  -0.000858   0.000571
1 67154U 25301X   26043.78352762  .00035677  00000-0  96762-3 0  9990 | 2 67154  51.8636 185.7815 0009545 315.1105  44.9109 15.37244554  9903 | 2026/02/12-18:48:16  239.0977    0.0987   44.9882   93.6741     6832.3987     6825.8771     6838.9202 -51.599785  -5.224483  -0.000741   0.000602
1 67154U 25301X   26045.27872773  .00036744  00000-0  99357-3 0  9994 | 2 67154  51.8636 178.5514 0010137 326.0489  33.9848 15.37317949 10138 | 2026/02/14-06:41:22   66.0613    0.0987   34.0498   93.6696     6832.1812     6825.2554     6839.1070 -51.847025   1.311119  -0.000826   0.000587
1 67154U 25301X   26046.51384616  .00042372  00000-0  11415-2 0  9998 | 2 67154  51.8657 172.5759 0009689 325.1222  34.9129 15.37370559 10321 | 2026/02/15-12:19:56  157.8954    0.0987   34.9765   93.6664     6832.0253     6825.4058     6838.6449 -51.430905   6.701707  -0.000717   0.000652
1 67154U 25301X   26047.81392476  .00056395  00000-0  15099-2 0  9997 | 2 67154  51.8656 166.2899 0008806 314.7640  45.2629 15.37442002 10528 | 2026/02/16-19:32:03  273.4993    0.0986   45.3346   93.6621     6831.8137     6825.7976     6837.8298 -50.387812  12.292635  -0.000454   0.000754
1 67154U 25301X   26048.85400407  .00010032  00000-0  27921-3 0  9992 | 2 67154  51.8643 161.2606 0009456 331.6363  28.4108 15.37406931 10680 | 2026/02/17-20:29:45  293.9621    0.0987   28.4624   93.6642     6831.9176     6825.4573     6838.3778 -49.114952  16.662147  -0.000644   0.000693
1 67154U 25301X   26050.47908006  .00052290  00000-0  13995-2 0  9998 | 2 67154  51.8662 153.3964 0010274 338.7432  21.3126 15.37472347 10939 | 2026/02/19-11:29:52  168.4467    0.0986   21.3554   93.6602     6831.7238     6824.7049     6838.7427 -46.374923  23.226476  -0.000689   0.000762
1 67154U 25301X   26051.51909642  .00015549  00000-0  42554-3 0  9991 | 2 67154  51.8660 148.3684 0010625 344.1582  15.9071 15.37473481 11093 | 2026/02/20-12:27:29  188.8962    0.0987   15.9405   93.6602     6831.7204     6824.4617     6838.9791 -44.160674  27.201413  -0.000718   0.000783
1 67154U 25301X   26052.62412495  .00043579  00000-0  11706-2 0  9997 | 2 67154  51.8649 143.0248 0009939 346.8062  13.2663 15.37445163 11269 | 2026/02/21-14:58:44  233.1320    0.0987   13.2925   93.6619     6831.8043     6825.0142     6838.5944 -41.434657  31.195144  -0.000637   0.000763
1 67154U 25301X   26053.92413633  .00036621  00000-0  98453-3 0  9991 | 2 67154  51.8639 136.7370 0010031 352.2136   7.8694 15.37499223 11462 | 2026/02/22-22:10:45  348.6948    0.0988    7.8852   93.6586     6831.6442     6824.7914     6838.4970 -37.768095  35.544832  -0.000631   0.000780
1 67154U 25301X   26055.41909388  .00040686  00000-0  10901-2 0  9991 | 2 67154  51.8637 129.5059 0009968 355.3737   4.7156 15.37555890 11699 | 2026/02/24-10:03:29  175.5778    0.0987    4.7250   93.6551     6831.4763     6824.6667     6838.2859 -32.993491  40.015909  -0.000570   0.000818
1 67154U 25301X   26056.58902492  .00040677  00000-0  10876-2 0  9990 | 2 67154  51.8662 123.8483 0010704 358.9197   1.1765 15.37611675 11875 | 2026/02/25-14:08:11  243.5568    0.0987    1.1790   93.6517     6831.3111     6823.9988     6838.6233 -28.889262  43.075669  -0.000579   0.000900
1 67154U 25301X   26058.40884590  .00036634  00000-0  97974-3 0  9994 | 2 67154  51.8656 115.0375 0007949   7.6511 352.4595 15.37679400 12151 | 2026/02/27-09:48:44  189.2825    0.0986  352.4475   93.6476     6831.1105     6825.6804     6836.5405 -21.950111  46.991841  -0.000429   0.000669
1 67154U 25301X   26059.51370691  .00033050  00000-0  88377-3 0  9995 | 2 67154  51.8653 109.6961 0010508  11.7504 348.3726 15.37710986 12325 | 2026/02/28-12:19:44  233.4504    0.0987  348.3483   93.6457     6831.0170     6823.8389     6838.1950 -17.480223  48.830842  -0.000548   0.000896
1 67154U 25301X   26060.81349868  .00038977  00000-0  10378-2 0  9990 | 2 67154  51.8643 103.4045 0010397  16.7400 343.3928 15.37765532 12523 | 2026/03/01-19:31:26  348.9384    0.0987  343.3587   93.6424     6830.8554     6823.7534     6837.9575 -12.023405  50.451396  -0.000522   0.000899
