# SPACE DATA - HISTORICAL TLEs
# ----------------------------
# NORAD_ID    : 67218
# OBJECT_NAME : STARLINK-36211
# --------------------------------------------------------------------+-----------------------------------------------------------------------+----------------------------------------------------------------------------------------------------------------------------------------
#                  LINE 1                                             |                 LINE 2                                                |      DERIVED PARAMETERS
# --------------------------------------------------------------------+-----------------------------------------------------------------------+----------------------------------------------------------------------------------------------------------------------------------------
# NORAD  COSPAR     TLE_EPOCH      MEANMOT1 MEANMOT2   BSTAR  #  REV  |   NORAD    INC     RAAN     ECC    ARGPER  MEANANOM   MEANMOT     REV |  CAL_DATE              LONG     ARGLAT     PERIOD        SMA         PERIGEE        APOGEE      INC_X      INC_Y      ECC_X      ECC_Y
# ------ ------   -------------- ----------  -------  ------- -- ----     -----  ------- -------- ------- -------- -------- -----------  ----   ------------------- ---------  --------  --------  ------------  ------------   ----------- ---------- ----------  ---------  ---------   
1 67204U 25304N   25365.90245200 -.00807241  00000-0 -71524-2 0  9991 | 2 67204  69.9986 353.2792 0004171 254.2648 105.8088 15.70674196  3530 | 2025/12/31-21:39:31  252.4877    0.1196  105.8548   91.6804     6735.1060     6732.2968     6737.9152  69.517586  -8.192026  -0.000159  -0.000385
1 67204U 25304N   26001.92287536  .00372313  00000-0  31981-2 0  9997 | 2 67204  69.9990 350.4159 0002881 265.9266  94.1599 15.68055195  3695 | 2026/01/01-22:08:56  263.7182    0.1194   94.1928   91.8335     6742.6033     6740.6608     6744.5459  69.021973 -11.654492  -0.000068  -0.000280
1 67204U 25304N   26002.94684136 -.00784106  00000-0 -99368-2 0  9999 | 2 67204  69.9989 347.5664 0005486 322.5497  37.5312 15.61732089  3850 | 2026/01/02-22:43:27  276.2354    0.1192   37.5695   92.2053     6760.7906     6757.0816     6764.4996  68.357159 -15.071326   0.000353  -0.000420
1 67204U 25304N   26004.16668980 -.02107625  00000-0 -34046-1 0  9992 | 2 67204  69.9995 344.1959 0003472 270.5315  91.8535 15.55882018  4077 | 2026/01/04-04:00:01  357.8625    2.4248   91.8933   92.5520     6777.7269     6775.3737     6780.0801  67.353414 -19.064301  -0.000091  -0.000335
1 67204U 25304N   26005.16670139 -.00041848  00000-0 -68103-3 0  9997 | 2 67204  70.0001 341.4513 0003119 268.4056 285.8955 15.52521313  4234 | 2026/01/05-04:00:03  169.6850  194.2667  285.8611   92.7523     6787.5045     6785.3874     6789.6215  66.363848 -22.267773  -0.000107  -0.000293
1 67204U 25304N   26006.25002315 -.00014753  00000-0 -23753-3 0  9990 | 2 67204  70.0001 338.4825 0003211 268.5563 218.7168 15.52517685  4400 | 2026/01/06-06:00:02  270.8275  127.2501  218.6938   92.7526     6787.5150     6785.3356     6789.6945  65.121484 -25.675014  -0.000125  -0.000296
1 67204U 25304N   26007.50002314  .00027582  00000-0  45000-3 0  9999 | 2 67204  69.9999 335.0576 0003128 272.2241 359.3425 15.52488399  4600 | 2026/01/07-12:00:01  220.4476  271.5662  359.3421   92.7543     6787.6004     6785.4772     6789.7235  63.471163 -29.519443  -0.000121  -0.000289
1 67204U 25304N   26008.61117890  .00129392  00000-0  20662-2 0  9996 | 2 67204  70.0000 332.0148 0002993 264.7385  95.3460 15.52596034  4738 | 2026/01/08-14:40:05  176.1939    0.1186   95.3801   92.7479     6787.2867     6785.2552     6789.3181  61.814818 -32.847043  -0.000164  -0.000250
1 67204U 25304N   26009.64207110  .00091263  00000-0  14674-2 0  9996 | 2 67204  69.9999 329.1911 0003023 272.4430  87.6411 15.52554254  4894 | 2026/01/09-15:24:34  191.1854    0.1187   87.6757   92.7504     6787.4084     6785.3566     6789.4603  60.121539 -35.852289  -0.000144  -0.000266
1 67204U 25304N   26011.25224248  .03705166  00000-0  42889-1 0  9992 | 2 67204  69.9996 324.7768 0004797 241.1885 118.8823 15.57720859  5142 | 2026/01/11-06:03:13   57.4639    0.1189  118.9304   92.4428     6772.3919     6769.1432     6775.6407  57.183473 -40.373189  -0.000431  -0.000210
1 67204U 25304N   26012.83337963  .00067237  00000-0  15272-2 0  9990 | 2 67204  69.9998 320.5002 0002841 266.9247 239.7653 15.42677280  5466 | 2026/01/12-20:00:04  125.4795  146.6619  239.7372   93.3442     6816.3485     6814.4120     6818.2850  54.013722 -44.525160  -0.000192  -0.000209
1 67204U 25304N   26013.91668981 -.00011896  00000-0 -26853-3 0  9997 | 2 67204  70.0005 317.5757 0003095 263.5396 137.7952 15.42728042  5632 | 2026/01/13-22:00:01  264.8965   41.3586  137.8190   93.3411     6816.1990     6814.0893     6818.3086  51.672220 -47.223423  -0.000233  -0.000204
1 67204U 25304N   26015.16670139  .00049459  00000-0  11261-2 0  9994 | 2 67204  70.0005 314.2010 0003200 270.2790 231.3249 15.42698702  5830 | 2026/01/15-04:00:03  259.4890  141.5753  231.2963   93.3429     6816.2854     6814.1042     6818.4666  48.802782 -50.183249  -0.000228  -0.000224
1 67204U 25304N   26016.24348702  .00031291  00000-0  71433-3 0  9995 | 2 67204  70.0006 311.2951 0003057 269.0671  91.0161 15.42741816  5914 | 2026/01/16-05:50:37   72.6942    0.1182   91.0511   93.3403     6816.1584     6814.0747     6818.2421  46.196015 -52.592891  -0.000233  -0.000198
1 67204U 25304N   26017.54028763  .00035968  00000-0  82020-3 0  9990 | 2 67204  70.0008 307.7950 0001898 284.9603  75.1369 15.42740820  6117 | 2026/01/17-12:58:00  183.6112    0.1182   75.1579   93.3404     6816.1613     6814.8676     6817.4550  42.899157 -55.315227  -0.000115  -0.000151
1 67204U 25304N   26018.90191224  .00064145  00000-0  14526-2 0  9998 | 2 67204  70.0007 304.1197 0004083 275.1816  84.8900 15.42778149  6323 | 2026/01/18-21:38:45  319.1982    0.1182   84.9366   93.3381     6816.0514     6813.2684     6818.8344  39.265050 -57.951306  -0.000316  -0.000259
1 67204U 25304N   26019.93936121  .00045154  00000-0  10281-2 0  9998 | 2 67204  69.9998 301.3199 0002883 256.1237 103.9624 15.42723063  6480 | 2026/01/19-22:32:40  336.5221    0.1182  103.9945   93.3414     6816.2136     6814.2485     6818.1787  36.387006 -59.799313  -0.000275  -0.000086
1 67204U 25304N   26021.49552808  .00125113  00000-0  28097-2 0  9996 | 2 67204  70.0006 297.1196 0001296 262.1618  97.9417 15.42764089  6721 | 2026/01/21-11:53:33  183.0078    0.1182   97.9564   93.3390     6816.0928     6815.2094     6816.9762  31.909732 -62.304518  -0.000122  -0.000043
1 67204U 25304N   26023.18136336  .00074436  00000-0  16849-2 0  9991 | 2 67204  69.9995 292.5693 0003034 313.1290  46.9638 15.42746407  6982 | 2026/01/23-04:21:09   75.8208    0.1182   46.9892   93.3400     6816.1449     6814.0769     6818.2129  26.865850 -64.638658  -0.000125  -0.000277
1 67204U 25304N   26025.12655880  .00058055  00000-0  13185-2 0  9996 | 2 67204  69.9993 287.3166 0003361 275.3957  84.6841 15.42725139  7287 | 2026/01/25-03:02:14   63.2206    0.1182   84.7225   93.3413     6816.2075     6813.9166     6818.4984  20.835395 -66.826554  -0.000310  -0.000130
1 67204U 25304N   26026.42337214  .00081053  00000-0  18358-2 0  9999 | 2 67204  70.0010 283.8163 0003251 267.8827  92.1982 15.42696700  7481 | 2026/01/26-10:09:39  175.1447    0.1181   92.2354   93.3430     6816.2913     6814.0753     6818.5073  16.716920 -67.975618  -0.000318  -0.000066
1 67204U 25304N   26027.65531198  .00108402  00000-0  24379-2 0  9990 | 2 67204  70.0021 280.4909 0003092 273.3564  86.7264 15.42789481  7679 | 2026/01/27-15:43:38  262.4213    0.1182   86.7618   93.3374     6816.0180     6813.9105     6818.1255  12.745937 -68.831934  -0.000300  -0.000074
1 67204U 25304N   26028.82243156  .00042123  00000-0  95871-3 0  9997 | 2 67204  70.0003 277.3400 0003786 274.7975  85.2775 15.42751146  7859 | 2026/01/28-19:44:18  327.0618    0.1182   85.3207   93.3397     6816.1309     6813.5503     6818.7115   8.943032 -69.426682  -0.000370  -0.000080
1 67204U 25304N   26030.05439676  .00035970  00000-0  82138-3 0  9993 | 2 67204  70.0018 274.0146 0002694 263.0845  97.0031 15.42697146  8047 | 2026/01/30-01:18:19   55.3216    0.1182   97.0337   93.3430     6816.2900     6814.4537     6818.1263   4.900873 -69.830033  -0.000269   0.000014
1 67204U 25304N   26031.09183471  .00041550  00000-0  94684-3 0  9997 | 2 67204  70.0000 271.2149 0003239 272.0173  88.0638 15.42719765  8203 | 2026/01/31-02:12:14   72.6665    0.1182   88.1009   93.3416     6816.2233     6814.0156     6818.4311   1.484169 -69.984264  -0.000323  -0.000018
1 67204U 25304N   26032.97218554  .00036989  00000-0  84304-3 0  9994 | 2 67204  70.0007 266.1410 0003714 269.7900  90.2856 15.42744163  8491 | 2026/02/01-23:19:56   36.4063    0.1182   90.3282   93.3402     6816.1515     6813.6200     6818.6830  -4.711141 -69.841987  -0.000370   0.000026
1 67204U 25304N   26034.07445862  .00042904  00000-0  97607-3 0  9995 | 2 67204  70.0001 263.1645 0005200 277.3167  82.7424 15.42753146  8661 | 2026/02/03-01:47:13   77.4074    0.1182   82.8015   93.3396     6816.1250     6812.5806     6819.6694  -8.331354 -69.502536  -0.000520  -0.000004
1 67204U 25304N   26035.37127105  .00044161  00000-0  10052-2 0  9991 | 2 67204  70.0028 259.6633 0003469 263.4586  96.6201 15.42735346  8864 | 2026/02/04-08:54:37  189.3097    0.1182   96.6596   93.3407     6816.1774     6813.8129     6818.5420 -12.560770 -68.866676  -0.000332   0.000101
1 67204U 25304N   26036.73289691  .00028120  00000-0  64271-3 0  9991 | 2 67204  69.9989 255.9880 0003129 263.6809  96.4016 15.42733702  9073 | 2026/02/05-17:35:22  323.8816    0.1181   96.4372   93.3408     6816.1823     6814.0495     6818.3151 -16.948491 -67.916085  -0.000293   0.000109
1 67204U 25304N   26037.83335647 -.02076491  00000-0 -58563-1 0  9999 | 2 67204  70.0006 253.0218 0003653 267.7081  79.1582 15.39951900  5956 | 2026/02/06-20:00:01   17.4102  346.9074   79.1993   93.5094     6824.3884     6821.8955     6826.8814 -20.440723 -66.949689  -0.000345   0.000121
1 67204U 25304N   26038.83336806 -.01971872  00000-0 -64167-1 0  9991 | 2 67204  70.0003 250.3406 0003847 275.3099 205.5813 15.35374004  5829 | 2026/02/07-20:00:03  247.0605  120.8722  205.5623   93.7882     6837.9468     6835.3163     6840.5774 -23.550064 -65.919925  -0.000373   0.000095
1 67204U 25304N   26039.91670139 -.02337354  00000-0 -88472-1 0  9998 | 2 67204  69.9999 247.4616 0003725 280.4070  57.1580 15.30635428  5929 | 2026/02/08-22:00:03   64.4156  337.6009   57.1939   94.0786     6852.0523     6849.4999     6854.6047 -26.831139 -64.653507  -0.000364   0.000078
1 67204U 25304N   26041.16668981 -.02185792  00000-0 -97976-1 0  9996 | 2 67204  70.0041 244.1674 0003502 274.2054  95.7281 15.24864143  5910 | 2026/02/10-04:00:01  126.8114    9.9734   95.7680   94.4346     6869.3304     6866.9248     6871.7361 -30.503817 -63.008660  -0.000326   0.000129
1 67204U 25304N   26042.25001157 -.02494810  00000-0 -12814+0 0  9993 | 2 67204  69.9981 241.3239 0003811 261.2501 284.0462 15.20161740  5904 | 2026/02/11-06:00:00  345.4378  185.2539  284.0038   94.7268     6883.4893     6880.8660     6886.1126 -33.589118 -61.412581  -0.000303   0.000232
1 67204U 25304N   26043.25003472 -.02493725  00000-0 -14602+0 0  9997 | 2 67204  70.0003 238.7257 0004332 268.5164 338.8223 15.15626233  5906 | 2026/02/12-06:00:02  286.9877  247.3208  338.8044   95.0102     6897.2150     6894.2272     6900.2029 -36.339661 -59.828681  -0.000364   0.000234
1 67204U 25304N   26044.50003471 -.03313520  00000-0 -22881+0 0  9998 | 2 67204  70.0011 235.5008 0001461 261.1016 310.6250 15.10338807  5831 | 2026/02/13-12:00:02   56.3175  211.7139  310.6123   95.3428     6913.3029     6912.2929     6914.3130 -39.648254 -57.690293  -0.000106   0.000100
1 67204U 25304N   26045.66668981 -.02188287  00000-0 -17221+0 0  9990 | 2 67204  70.0024 232.5314 0003301 267.5372 152.0722 15.04461925  5891 | 2026/02/14-16:00:01  272.7141   59.6271  152.0899   95.7153     6931.2949     6929.0068     6933.5829 -42.584319 -55.559984  -0.000253   0.000212
1 67204U 25304N   26046.83334490  .00032178  00000-0  26381-2 0  9998 | 2 67204  70.0002 229.5729 0003045 282.4355 322.7681 14.99113606  5731 | 2026/02/15-20:00:00  151.3884  245.1825  322.7470   96.0568     6947.7707     6945.6551     6949.8863 -45.393731 -53.286369  -0.000269   0.000143
1 67204U 25304N   26047.83337963  .00033173  00000-0  27185-2 0  9996 | 2 67204  70.0001 227.0495 0003140 282.2116 318.5223 14.99122039  5894 | 2026/02/16-20:00:04  159.3839  240.7101  318.4985   96.0562     6947.7447     6945.5631     6949.9262 -47.695706 -51.236057  -0.000270   0.000160
1 67204U 25304N   26048.91668981  .00037394  00000-0  30613-2 0  9992 | 2 67204  70.0003 224.3146 0003114 283.2280  42.3553 14.99126767  5893 | 2026/02/17-22:00:01  108.4068  325.6073   42.3793   96.0559     6947.7300     6945.5665     6949.8936 -50.086247 -48.902044  -0.000263   0.000167
1 67204U 25304N   26049.91671296  .00033767  00000-0  27664-2 0  9998 | 2 67204  70.0006 221.7898 0003134 282.3629  38.7095 14.99127455  5851 | 2026/02/18-22:00:03  116.4365  321.0949   38.7320   96.0559     6947.7279     6945.5505     6949.9053 -52.192073 -46.648382  -0.000254   0.000184
1 67204U 25304N   26051.72549111  .00002996  00000-0  25344-3 0  9994 | 2 67204  70.0015 217.2240 0003224 279.0995  80.9799 14.99144212 11342 | 2026/02/20-17:24:42   14.7522    0.1159   81.0164   96.0548     6947.6761     6945.4362     6949.9161 -55.740556 -42.346197  -0.000233   0.000223
1 67204U 25304N   26052.72635066  .00003547  00000-0  29856-3 0  9995 | 2 67204  70.0019 214.6971 0003235 279.0895  80.9898 14.99145166 11494 | 2026/02/21-17:25:56   18.5748    0.1159   81.0264   96.0547     6947.6732     6945.4256     6949.9208 -57.553662 -39.847735  -0.000224   0.000234
1 67204U 25304N   26053.72720866  .00003705  00000-0  31156-3 0  9991 | 2 67204  70.0023 212.1708 0003087 275.8722  84.2086 14.99147684 11648 | 2026/02/22-17:27:10   22.3953    0.1160   84.2438   96.0546     6947.6654     6945.5207     6949.8102 -59.254471 -37.272372  -0.000190   0.000243
1 67204U 25304N   26054.86151629  .00003148  00000-0  26590-3 0  9999 | 2 67204  70.0019 209.3075 0003181 276.5453  83.5344 14.99143581 11812 | 2026/02/23-20:40:35   74.8643    0.1159   83.5706   96.0548     6947.6781     6945.4680     6949.8882 -61.042021 -34.265692  -0.000186   0.000258
1 67204U 25304N   26056.46289255  .00003022  00000-0  25558-3 0  9998 | 2 67204  70.0009 205.2649 0003237 273.4272  86.6517 14.99142611 12056 | 2026/02/25-11:06:33  297.5705    0.1159   86.6887   96.0549     6947.6811     6945.4321     6949.9301 -63.304907 -29.876659  -0.000155   0.000284
1 67204U 25304N   26057.53047585  .00005423  00000-0  45231-3 0  9992 | 2 67204  70.0009 202.5700 0003326 268.9680  91.1099 14.99146441 12214 | 2026/02/26-12:43:53  324.7329    0.1160   91.1480   96.0547     6947.6693     6945.3585     6949.9801 -64.639623 -26.867177  -0.000122   0.000309
1 67204U 25304N   26058.66477969  .00011094  00000-0  91612-3 0  9995 | 2 67204  69.9994 199.7065 0004016 274.6946  85.3755 14.99162193 12385 | 2026/02/27-15:57:16   17.2005    0.1160   85.4214   96.0536     6947.6206     6944.8304     6950.4108 -65.899696 -23.603942  -0.000166   0.000366
1 67204U 25304N   26059.79908600 -.00003557  00000-0 -28444-3 0  9991 | 2 67204  70.0013 196.8431 0002958 271.0583  89.0238 14.99135669 12550 | 2026/02/28-19:10:41   69.6564    0.1160   89.0577   96.0553     6947.7025     6945.6474     6949.7577 -66.998371 -20.283006  -0.000091   0.000281
1 67204U 25304N   26060.79995314  .00008952  00000-0  74146-3 0  9993 | 2 67204  70.0017 194.3167 0002839 272.6339  87.4495 14.99140241 12703 | 2026/03/01-19:11:55   73.4772    0.1159   87.4820   96.0551     6947.6884     6945.7160     6949.6609 -67.827706 -17.310121  -0.000083   0.000272
1 67204U 25304N   26062.46804967  .00003649  00000-0  30695-3 0  9991 | 2 67204  70.0025 190.1060 0002730 270.7240  89.3607 14.99147118 12951 | 2026/03/03-11:13:59  320.5060    0.1160   89.3920   96.0546     6947.6672     6945.7705     6949.5639 -68.916398 -12.283326  -0.000051   0.000268
1 67204U 25304N   26063.46890861  .00012833  00000-0  10586-2 0  9991 | 2 67204  70.0026 187.5794 0003292 277.9622  82.1164 14.99150675 13102 | 2026/03/04-11:15:13  324.3343    0.1160   82.1538   96.0544     6947.6562     6945.3690     6949.9433 -69.390989  -9.233343  -0.000088   0.000317
1 67204U 25304N   26064.60321944  .00006675  00000-0  55496-3 0  9996 | 2 67204  70.0031 184.7162 0003026 268.7707  91.3106 14.99143410 13278 | 2026/03/05-14:28:38   15.8138    0.1160   91.3453   96.0549     6947.6786     6945.5763     6949.7810 -69.766082  -5.755676  -0.000018   0.000302
1 67204U 25304N   26065.60407820  .00007118  00000-0  59102-3 0  9996 | 2 67204  70.0025 182.1895 0002997 267.2133  92.8683 14.99153111 13421 | 2026/03/06-14:29:52   19.6358    0.1159   92.9026   96.0542     6947.6487     6945.5664     6949.7309 -69.951394  -2.674423   0.000003   0.000300
1 67204U 25304N   26066.60493573  .00006601  00000-0  54874-3 0  9994 | 2 67204  70.0025 179.6623 0003159 272.3339  87.7459 14.99152390 13575 | 2026/03/07-14:31:06   23.4605    0.1160   87.7821   96.0543     6947.6509     6945.4561     6949.8456 -70.001284   0.412591  -0.000011   0.000316
1 67204U 25304N   26067.60579561  .00005016  00000-0  41896-3 0  9996 | 2 67204  70.0035 177.1396 0003045 261.4267  98.6547 14.99145497 13725 | 2026/03/08-14:32:20   27.2773    0.1159   98.6892   96.0547     6947.6722     6945.5566     6949.7877 -69.916282   3.493361   0.000060   0.000298
1 67204U 25304N   26068.60665742  .00003838  00000-0  32246-3 0  9993 | 2 67204  70.0025 174.6113 0003073 267.9042  92.1766 14.99142375 13876 | 2026/03/09-14:33:35   31.1060    0.1160   92.2118   96.0549     6947.6818     6945.5468     6949.8168 -69.693124   6.574072   0.000040   0.000305
1 67204U 25304N   26069.67423947  .00005345  00000-0  44590-3 0  9990 | 2 67204  70.0022 171.9160 0003166 268.8354  91.2443 14.99147241 14032 | 2026/03/10-16:10:54   59.2505    0.1160   91.2806   96.0546     6947.6668     6945.4672     6949.8664 -69.306586   9.844043   0.000051   0.000312
1 67204U 25304N   26071.00872048  .00005666  00000-0  47223-3 0  9992 | 2 67204  70.0025 168.5467 0003169 270.9302  89.1494 14.99145585 14230 | 2026/03/12-00:12:33  184.6774    0.1159   89.1857   96.0547     6947.6719     6945.4702     6949.8736 -68.608532  13.900338   0.000058   0.000312
1 67204U 25304N   26072.34320013  .00008402  00000-0  69628-3 0  9994 | 2 67204  70.0024 165.1791 0003420 274.6537  85.4232 14.99146942 14432 | 2026/03/13-08:14:12  310.1052    0.1160   85.4623   96.0546     6947.6677     6945.2916     6950.0438 -67.673430  17.906503   0.000060   0.000337
1 67204U 25304N   26073.61111295 -.00256125  00000-0 -22097-1 0  9991 | 2 67204  70.0038 161.9786 0002532 284.5754  75.5124 14.98601037 14620 | 2026/03/14-14:40:00   50.2729    0.1159   75.5405   96.0896     6949.3549     6947.5953     6951.1144 -66.569486  21.657229   0.000015   0.000253
1 67204U 25304N   26074.91668981 -.00030318  00000-0 -25430-2 0  9993 | 2 67204  70.0011 158.6868 0003248 294.3855 266.0166 14.98344999  5636 | 2026/03/15-22:00:01  324.8426  200.3650  265.9795   96.1060     6950.1465     6947.8891     6952.4039 -65.213551  25.443011  -0.000017   0.000324
1 67204U 25304N   26076.16668981  .00044832  00000-0  37406-2 0  9992 | 2 67204  70.0013 155.5351 0003306 289.8569 171.1636 14.98335238  5664 | 2026/03/17-04:00:01  158.8544  101.0263  171.1694   96.1067     6950.1767     6947.8790     6952.4744 -63.716243  28.990038   0.000027   0.000330
1 67204U 25304N   26077.28287833  .00002201  00000-0  19210-3 0  9997 | 2 67204  70.0012 152.7211 0003384 292.9225  67.1576 14.98349728 15170 | 2026/03/18-06:47:20  305.6526    0.1158   67.1933   96.1057     6950.1319     6947.7800     6952.4838 -62.216092  32.083109   0.000026   0.000337
1 67204U 25304N   26078.28427276  .00000511  00000-0  50638-4 0  9997 | 2 67204  70.0009 150.1958 0003313 292.8675  67.2134 14.98344989 15328 | 2026/03/19-06:49:21  309.6697    0.1159   67.2484   96.1060     6950.1465     6947.8440     6952.4491 -60.741812  34.793077   0.000040   0.000329
1 67204U 25304N   26079.28565621  .00001206  00000-0  10878-3 0  9998 | 2 67204  69.9989 147.6685 0003462 281.0339  79.0431 14.98346986 15478 | 2026/03/20-06:51:20  313.6851    0.1160   79.0821   96.1059     6950.1404     6947.7342     6952.5465 -59.146826  37.436600   0.000126   0.000323
1 67204U 25304N   26080.55410498  .00007589  00000-0  64309-3 0  9999 | 2 67204  70.0005 144.4717 0003573 277.4679  82.6074 14.98329122 15667 | 2026/03/21-13:17:54   54.0545    0.1159   82.6480   96.1071     6950.1956     6947.7123     6952.6789 -56.968408  40.677641   0.000168   0.000315
1 67204U 25304N   26081.88930328 -.00002093  00000-0 -16768-3 0  9998 | 2 67204  70.0007 141.1060 0003376 276.8072  83.2703 14.98325750 15866 | 2026/03/22-21:20:35  179.7352    0.1159   83.3087   96.1073     6950.2060     6947.8596     6952.5524 -54.482168  43.952148   0.000179   0.000286
