# SPACE DATA - HISTORICAL TLEs
# ----------------------------
# NORAD_ID    : 67218
# OBJECT_NAME : STARLINK-36211
# --------------------------------------------------------------------+-----------------------------------------------------------------------+----------------------------------------------------------------------------------------------------------------------------------------
#                  LINE 1                                             |                 LINE 2                                                |      DERIVED PARAMETERS
# --------------------------------------------------------------------+-----------------------------------------------------------------------+----------------------------------------------------------------------------------------------------------------------------------------
# NORAD  COSPAR     TLE_EPOCH      MEANMOT1 MEANMOT2   BSTAR  #  REV  |   NORAD    INC     RAAN     ECC    ARGPER  MEANANOM   MEANMOT     REV |  CAL_DATE              LONG     ARGLAT     PERIOD        SMA         PERIGEE        APOGEE      INC_X      INC_Y      ECC_X      ECC_Y
# ------ ------   -------------- ----------  -------  ------- -- ----     -----  ------- -------- ------- -------- -------- -----------  ----   ------------------- ---------  --------  --------  ------------  ------------   ----------- ---------- ----------  ---------  ---------   
1 67205U 25304P   25365.83335648 -.01893157  00000-0 -17714-1 0  9992 | 2 67205  69.9992 353.4715 0003625 266.0943  65.3525 15.70446295  3507 | 2025/12/31-20:00:01  255.9110  331.4846   65.3903   91.6937     6735.7576     6733.3159     6738.1993  69.545285  -7.958729  -0.000066  -0.000357
1 67205U 25304P   26002.04998970  .00242126  00000-0  20856-2 0  9990 | 2 67205  70.0027 350.0580 0015254 285.0155  74.9352 15.68251630  3686 | 2026/01/02-01:11:59  310.2250    0.1196   75.1041   91.8220     6742.0403     6731.7560     6752.3246  68.951472 -12.086049   0.000135  -0.001519
1 67205U 25304P   26004.16668980 -.02101892  00000-0 -33943-1 0  9998 | 2 67205  69.9995 344.1936 0003625 271.4607  92.8403 15.55879255  4048 | 2026/01/04-04:00:01  355.9488    4.3425   92.8818   92.5522     6777.7349     6775.2780     6780.1919  67.352649 -19.067005  -0.000090  -0.000351
1 67205U 25304P   26005.16670139 -.00046189  00000-0 -75221-3 0  9990 | 2 67205  70.0001 341.4490 0003164 269.6567 286.5571 15.52526901  4206 | 2026/01/05-04:00:03  167.7746  196.1790  286.5223   92.7520     6787.4882     6785.3406     6789.6357  66.362954 -22.270437  -0.000102  -0.000299
1 67205U 25304P   26006.25002315 -.00006383  00000-0 -10113-3 0  9997 | 2 67205  70.0001 338.4804 0003136 269.7313 219.4580 15.52513497  4379 | 2026/01/06-06:00:02  268.9134  129.1665  219.4352   92.7528     6787.5272     6785.3987     6789.6558  65.120543 -25.677401  -0.000116  -0.000291
1 67205U 25304P   26007.50002314  .00023499  00000-0  38397-3 0  9994 | 2 67205  69.9997 335.0556 0003184 273.3675   0.1165 15.52489268  4576 | 2026/01/07-12:00:01  218.5322  273.4841    0.1166   92.7543     6787.5979     6785.4367     6789.7590  63.469951 -29.521574  -0.000117  -0.000296
1 67205U 25304P   26008.61084029  .00085537  00000-0  13763-2 0  9990 | 2 67205  70.0000 332.0140 0003349 264.3155  95.7651 15.52556683  4707 | 2026/01/08-14:39:36  176.0771    0.1188   95.8033   92.7502     6787.4014     6785.1283     6789.6745  61.814360 -32.847906  -0.000186  -0.000279
1 67205U 25304P   26009.64172560  .00068532  00000-0  11047-2 0  9991 | 2 67205  70.0000 329.1902 0003172 265.9561  94.1264 15.52581374  4867 | 2026/01/09-15:24:05  191.0664    0.1188   94.1627   92.7488     6787.3294     6785.1765     6789.4823  60.121061 -35.853284  -0.000181  -0.000260
1 67205U 25304P   26010.99476897  .00116434  00000-0  18645-2 0  9997 | 2 67205  69.9999 325.4832 0003156 271.6113  88.4712 15.52566906  5073 | 2026/01/10-23:52:28  323.5508    0.1187   88.5074   92.7496     6787.3716     6785.2295     6789.5137  57.677123 -39.665293  -0.000171  -0.000265
1 67205U 25304P   26012.28386870 -.00017692  00000-0 -30421-3 0  9997 | 2 67205  69.9997 321.9542 0005916 295.3997  64.6576 15.50728450  5277 | 2026/01/12-06:48:46   72.7356    0.1186   64.7189   92.8596     6792.7350     6788.7164     6796.7536  55.126049 -43.140198  -0.000130  -0.000577
1 67205U 25304P   26013.50002314 -.02210587  00000-0 -53904-1 0  9990 | 2 67205  69.9994 318.6485 0003620 261.2604  30.5759 15.44511777  5540 | 2026/01/13-12:00:01  222.5008  291.8574   30.5970   93.2333     6810.9500     6808.4844     6813.4156  52.546491 -46.246971  -0.000278  -0.000232
1 67205U 25304P   26014.58335648  .00042810  00000-0  97595-3 0  9992 | 2 67205  70.0002 315.7249 0003864 259.9584 287.7599 15.42697130  5713 | 2026/01/14-14:00:01    0.6924  187.6761  287.7177   93.3430     6816.2900     6813.6562     6818.9238  50.119876 -48.867433  -0.000314  -0.000225
1 67205U 25304P   26015.83337963  .00026720  00000-0  61150-3 0  9993 | 2 67205  70.0006 312.3507 0003774 262.7398  25.3674 15.42706702  5910 | 2026/01/15-20:00:04  355.1687  288.1257   25.3859   93.3424     6816.2618     6813.6894     6818.8343  47.157076 -51.732912  -0.000309  -0.000217
1 67205U 25304P   26016.91668981  .00016094  00000-0  37009-3 0  9999 | 2 67205  70.0011 309.4264 0003465 272.5815 270.1046 15.42713810  6094 | 2026/01/16-22:00:01  134.6515  182.6464  270.0649   93.3420     6816.2409     6813.8791     6818.6027  44.456753 -54.071722  -0.000257  -0.000232
1 67205U 25304P   26017.92120840  .00076005  00000-0  17150-2 0  9990 | 2 67205  70.0005 306.7153 0003493 272.5597  87.5185 15.42833067  6149 | 2026/01/17-22:06:32  322.5942    0.1182   87.5585   93.3348     6815.8896     6813.5088     6818.2704  41.849045 -56.113523  -0.000270  -0.000221
1 67205U 25304P   26018.95865796  .00062791  00000-0  14243-2 0  9997 | 2 67205  70.0006 303.9158 0003392 265.1580  94.9215 15.42738393  6302 | 2026/01/18-23:00:28  339.9352    0.1182   94.9602   93.3405     6816.1685     6813.8564     6818.4805  39.058513 -58.090589  -0.000296  -0.000165
1 67205U 25304P   26020.19060823  .00111391  00000-0  25070-2 0  9995 | 2 67205  70.0036 300.5917 0002354 260.5188  99.5728 15.42756428  6490 | 2026/01/20-04:34:28   68.1901    0.1182   99.5994   93.3394     6816.1154     6814.5108     6817.7199  35.626003 -60.260202  -0.000220  -0.000085
1 67205U 25304P   26021.48741956  .00088185  00000-0  19918-2 0  9999 | 2 67205  70.0016 297.0895 0001140 305.3728  54.7347 15.42751704  6697 | 2026/01/21-11:41:53  180.1013    0.1182   54.7454   93.3397     6816.1293     6815.3522     6816.9063  31.877452 -62.322164  -0.000053  -0.000101
1 67205U 25304P   26023.17325875  .00074886  00000-0  16931-2 0  9990 | 2 67205  69.9988 292.5395 0003277 271.9331  88.1476 15.42779565  6956 | 2026/01/23-04:09:29   72.9301    0.1182   88.1851   93.3380     6816.0472     6813.8136     6818.2808  26.831959 -64.651976  -0.000298  -0.000136
1 67205U 25304P   26024.47005350  .00105877  00000-0  23856-2 0  9996 | 2 67205  70.0016 289.0386 0003328 280.6470  79.4337 15.42743440  7155 | 2026/01/24-11:16:52  184.8475    0.1182   79.4712   93.3402     6816.1536     6813.8852     6818.4220  22.834877 -66.172444  -0.000289  -0.000165
1 67205U 25304P   26026.09104883  .00075622  00000-0  17082-2 0  9995 | 2 67205  69.9999 284.6625 0003261 276.4259  83.6552 15.42802003  7408 | 2026/01/26-02:11:06   54.0057    0.1182   83.6923   93.3367     6815.9811     6813.7584     6818.2038  17.718712 -67.720257  -0.000304  -0.000117
1 67205U 25304P   26027.12848013  .00056678  00000-0  12854-2 0  9992 | 2 67205  70.0007 281.8591 0003755 264.8443  95.2310 15.42774834  7564 | 2026/01/27-03:05:00   71.3494    0.1181   95.2738   93.3383     6816.0611     6813.5017     6818.6206  14.385538 -68.506600  -0.000373  -0.000044
1 67205U 25304P   26028.81432375  .00071171  00000-0  16110-2 0  9993 | 2 67205  70.0009 277.3109 0003404 263.3762  96.7032 15.42760540  7825 | 2026/01/28-19:32:37  324.1496    0.1181   96.7419   93.3392     6816.1032     6813.7830     6818.4234   8.907846 -69.431810  -0.000340  -0.000004
1 67205U 25304P   26030.11112910  .00070420  00000-0  15959-2 0  9995 | 2 67205  70.0004 273.8104 0003649 273.8006  86.2758 15.42727291  8022 | 2026/01/30-02:40:01   76.0739    0.1181   86.3175   93.3412     6816.2012     6813.7139     6818.6884   4.651878 -69.845659  -0.000362  -0.000048
1 67205U 25304P   26031.79696479  .00035336  00000-0  80560-3 0  9995 | 2 67205  70.0005 269.2610 0003317 273.0036  87.0766 15.42748159  8283 | 2026/01/31-19:07:37  328.8715    0.1182   87.1146   93.3399     6816.1397     6813.8788     6818.4006  -0.902840 -69.994678  -0.000331  -0.000013
1 67205U 25304P   26032.96407840  .00045849  00000-0  10428-2 0  9992 | 2 67205  70.0001 266.1103 0004342 267.4942  92.5743 15.42747555  8469 | 2026/02/01-23:08:16   33.5114    0.1182   92.6240   93.3400     6816.1415     6813.1819     6819.1011  -4.748522 -69.838854  -0.000431   0.000048
1 67205U 25304P   26034.06635717  .00058846  00000-0  13352-2 0  9991 | 2 67205  69.9999 263.1353 0004211 276.9525  83.1178 15.42748031  8630 | 2026/02/03-01:35:33   74.4927    0.1182   83.1657   93.3399     6816.1401     6813.2698     6819.0104  -8.366750 -69.498083  -0.000421  -0.000001
1 67205U 25304P   26035.16864073  .00048922  00000-0  11129-2 0  9996 | 2 67205  70.0009 260.1594 0002865 279.0263  81.0595 15.42727097  8803 | 2026/02/04-04:02:50  115.4613    0.1182   81.0919   93.3412     6816.2017     6814.2489     6818.1546 -11.963694 -68.970980  -0.000286   0.000004
1 67205U 25304P   26036.33573964  .00084172  00000-0  19012-2 0  9998 | 2 67205  69.9978 257.0094 0003203 270.2146  89.8669 15.42765645  8983 | 2026/02/05-08:03:27  180.0848    0.1182   89.9036   93.3389     6816.0882     6813.9050     6818.2714 -15.734889 -68.206343  -0.000312   0.000071
1 67205U 25304P   26037.63256251  .00077728  00000-0  17599-2 0  9996 | 2 67205  70.0016 253.5095 0003143 274.9162  85.1661 15.42722148  9188 | 2026/02/06-15:10:53  291.0273    0.1182   85.2020   93.3415     6816.2163     6814.0740     6818.3587 -19.870400 -67.122211  -0.000308   0.000063
1 67205U 25304P   26038.83336806 -.02129395  00000-0 -64368-1 0  9991 | 2 67205  70.0068 250.2827 0002967 274.8821 260.8190 15.37359170  5928 | 2026/02/07-20:00:03  192.3085  175.6675  260.7854   93.6671     6832.0591     6830.0320     6834.0861 -23.618860 -65.902212  -0.000287   0.000076
1 67205U 25304P   26039.91670139 -.02336589  00000-0 -83197-1 0  9997 | 2 67205  70.0004 247.3909 0003083 277.8984 122.0710 15.32587249  5921 | 2026/02/08-22:00:03    2.0819   39.9993  122.1009   93.9588     6846.2334     6844.1227     6848.3441 -26.911090 -64.620811  -0.000298   0.000078
1 67205U 25304P   26041.16668981 -.02479587  00000-0 -10381+0 0  9998 | 2 67205  70.0002 244.0791 0002555 276.6939 164.3717 15.26991324  5801 | 2026/02/10-04:00:01   55.7676   81.0735  164.3796   94.3031     6862.9494     6861.1959     6864.7029 -30.599180 -62.958067  -0.000241   0.000084
1 67205U 25304P   26042.25001157 -.02459913  00000-0 -11925+0 0  9991 | 2 67205  69.9979 241.2359 0003949 271.3047 352.7792 15.22068069  5926 | 2026/02/11-06:00:00  266.7382  264.0782  352.7735   94.6081     6877.7406     6875.0246     6880.4566 -33.683305 -61.360744  -0.000350   0.000182
1 67205U 25304P   26043.25003472 -.02518250  00000-0 -13964+0 0  9999 | 2 67205  69.9992 238.6279 0003835 279.9958  53.1328 15.17567061  5827 | 2026/02/12-06:00:02  201.2956  333.1638   53.1680   94.8887     6891.3332     6888.6903     6893.9760 -36.441159 -59.765625  -0.000357   0.000140
1 67205U 25304P   26044.50003471 -.03191992  00000-0 -20794+0 0  9997 | 2 67205  69.9991 235.3930 0004017 256.6195  49.6679 15.12223108  5883 | 2026/02/13-12:00:02  321.8645  306.3225   49.7030   95.2240     6907.5589     6904.7841     6910.3336 -39.755590 -57.613948  -0.000269   0.000298
1 67205U 25304P   26045.66668981 -.04055729  00000-0 -30633+0 0  9999 | 2 67205  69.9968 232.3966 0002425 289.9574 232.2798 15.07280013  5899 | 2026/02/14-16:00:01  170.2211  162.2152  232.2578   95.5363     6922.6528     6920.9740     6924.3315 -42.711500 -55.455205  -0.000231   0.000074
1 67205U 25304P   26046.83334490 -.02621916  00000-0 -22622+0 0  9998 | 2 67205  70.0021 229.4391 0001862 289.4890  66.8421 15.01091773  5926 | 2026/02/15-20:00:00   40.3947  356.3507   66.8617   95.9302     6941.6654     6940.3729     6942.9580 -45.519280 -53.181662  -0.000174   0.000067
1 67205U 25304P   26047.83337963  .00022251  00000-0  18293-2 0  9992 | 2 67205  70.0048 226.9224 0003423 271.0280  82.0816 14.99112203  5833 | 2026/02/16-20:00:04   47.1353  353.1485   82.1205   96.0569     6947.7750     6945.3968     6950.1533 -47.812457 -51.133561  -0.000254   0.000229
1 67205U 25304P   26048.91668981  .00043972  00000-0  35962-2 0  9994 | 2 67205  70.0005 224.1877 0003493 270.4287 167.4816 14.99113748  5852 | 2026/02/17-22:00:01  356.2067   77.9190  167.4903   96.0568     6947.7703     6945.3434     6950.1971 -50.194576 -48.791131  -0.000245   0.000249
1 67205U 25304P   26049.91671296  .00041016  00000-0  33556-2 0  9992 | 2 67205  70.0008 221.6632 0003470 270.9110 162.4663 14.99122160  5786 | 2026/02/18-22:00:03    4.2582   73.3893  162.4783   96.0562     6947.7443     6945.3334     6950.1551 -52.295168 -46.533078  -0.000235   0.000256
1 67205U 25304P   26051.00001156 -.00013045  00000-0 -10644-2 0  9993 | 2 67205  70.0010 218.9285 0003419 271.2447 246.9167 14.99156394  5954 | 2026/02/20-00:00:00  313.3462  158.1254  246.8807   96.0540     6947.6385     6945.2631     6950.0139 -54.455926 -43.985135  -0.000221   0.000261
1 67205U 25304P   26052.43862788  .00006110  00000-0  50847-3 0  9990 | 2 67205  70.0021 215.2976 0003351 263.8047  96.2730 14.99158523 11428 | 2026/02/21-10:31:37  274.8152    0.1159   96.3112   96.0539     6947.6319     6945.3038     6949.9601 -57.133040 -40.448854  -0.000163   0.000293
1 67205U 25304P   26053.70637679  .00002411  00000-0  20543-3 0  9990 | 2 67205  70.0019 212.0967 0003496 266.5761  93.4999 14.99150737 11619 | 2026/02/22-16:57:10   14.9331    0.1160   93.5399   96.0544     6947.6560     6945.2271     6950.0849 -59.302286 -37.195495  -0.000168   0.000307
1 67205U 25304P   26054.70723712  .00003145  00000-0  26564-3 0  9999 | 2 67205  70.0020 209.5698 0003373 268.0622  92.0151 14.99144063 11766 | 2026/02/23-16:58:25   18.7586    0.1159   92.0537   96.0548     6947.6766     6945.3332     6950.0201 -60.884601 -34.544832  -0.000156   0.000299
1 67205U 25304P   26055.70809773  .00004555  00000-0  38124-3 0  9993 | 2 67205  70.0018 207.0438 0003572 268.6379  91.4372 14.99143922 11912 | 2026/02/24-16:59:39   22.5824    0.1160   91.4781   96.0548     6947.6770     6945.1953     6950.1588 -62.347748 -31.827823  -0.000155   0.000322
1 67205U 25304P   26056.84240362  .00003875  00000-0  32544-3 0  9996 | 2 67205  70.0009 204.1804 0003665 269.4140  90.6600 14.99147575 12087 | 2026/02/25-20:13:03   75.0474    0.1160   90.7020   96.0546     6947.6658     6945.1194     6950.2121 -63.859041 -28.673138  -0.000147   0.000336
1 67205U 25304P   26058.04348929 -.00027408  00000-0 -22561-2 0  9995 | 2 67205  70.0012 201.1486 0004821 277.7589  82.3023 14.99036893 12265 | 2026/02/27-01:02:37  151.8657    0.1160   82.3571   96.0617     6948.0077     6944.6581     6951.3574 -65.286468 -25.255596  -0.000233   0.000422
1 67205U 25304P   26059.11161370 -.00079751  00000-0 -67357-2 0  9997 | 2 67205  70.0007 198.4556 0003662 275.6465  84.4276 14.98422957 12427 | 2026/02/28-02:40:43  180.1907    0.1159   84.4694   96.1010     6949.9054     6947.3604     6952.4505 -66.400512 -22.160099  -0.000150   0.000334
1 67205U 25304P   26060.16667824  .00047804  00000-0  39889-2 0  9990 | 2 67205  70.0011 195.7952 0003659 270.1793  19.1379 14.98308411  5881 | 2026/03/01-04:00:00  274.5230  289.3310   19.1517   96.1084     6950.2597     6947.7166     6952.8028 -67.357915 -19.054274  -0.000101   0.000352
1 67205U 25304P   26061.16668981  .00051095  00000-0  42615-2 0  9994 | 2 67205  70.0017 193.2742 0003715 269.2730  12.5721 14.98304083  5889 | 2026/03/02-04:00:01  285.5060  281.8544   12.5814   96.1087     6950.2730     6947.6910     6952.8551 -68.131420 -16.073195  -0.000081   0.000363
1 67205U 25304P   26062.51639618  .00004028  00000-0  34510-3 0  9999 | 2 67205  70.0027 189.8724 0003510 270.8331  89.2426 14.98340817 12931 | 2026/03/03-12:23:36  337.2624    0.1159   89.2828   96.1063     6950.1594     6947.7199     6952.5989 -68.966102 -12.002281  -0.000065   0.000345
1 67205U 25304P   26063.51779260  .00006423  00000-0  54539-3 0  9992 | 2 67205  70.0030 187.3471 0003339 263.2142  96.8637 14.98343736 13080 | 2026/03/04-12:25:37  341.2781    0.1159   96.9017   96.1061     6950.1504     6947.8298     6952.4711 -69.428251  -8.951980  -0.000003   0.000334
1 67205U 25304P   26064.58595664  .00002851  00000-0  24663-3 0  9990 | 2 67205  70.0030 184.6547 0003510 267.3794  92.6964 14.98333931 13244 | 2026/03/05-14:03:46    9.6301    0.1160   92.7366   96.1067     6950.1807     6947.7412     6952.6202 -69.772120  -5.680779  -0.000012   0.000351
1 67205U 25304P   26066.05467918  .00007474  00000-0  63336-3 0  9990 | 2 67205  70.0027 180.9514 0003717 270.5399  89.5334 14.98337146 13461 | 2026/03/07-01:18:44  183.9872    0.1159   89.5760   96.1065     6950.1708     6947.5874     6952.7542 -69.993049  -1.162346  -0.000010   0.000372
1 67205U 25304P   26067.52339170  .00001400  00000-0  12507-3 0  9998 | 2 67205  70.0032 177.2489 0003594 262.2683  97.8068 14.98335918 13689 | 2026/03/08-12:33:41  357.3494    0.1159   97.8476   96.1066     6950.1746     6947.6767     6952.6725 -69.922519   3.359965   0.000065   0.000353
1 67205U 25304P   26068.52479661  .00006257  00000-0  53168-3 0  9992 | 2 67205  70.0024 174.7244 0003677 268.7599  91.3138 14.98333478 13833 | 2026/03/09-12:35:42    1.3678    0.1158   91.3559   96.1068     6950.1821     6947.6266     6952.7377 -69.705866   6.436478   0.000042   0.000365
1 67205U 25304P   26069.52619516  .00006230  00000-0  52924-3 0  9998 | 2 67205  70.0027 172.2001 0003553 264.0965  95.9789 14.98342473 13982 | 2026/03/10-12:37:43    5.3830    0.1159   96.0194   96.1062     6950.1543     6947.6849     6952.6237 -69.355040   9.500335   0.000084   0.000345
1 67205U 25304P   26070.59435228  .00004533  00000-0  38729-3 0  9994 | 2 67205  70.0017 169.5066 0004017 268.7068  91.3631 14.98341294 14147 | 2026/03/11-14:15:52   33.7395    0.1159   91.4091   96.1063     6950.1580     6947.3661     6952.9498 -68.830984  12.748868   0.000082   0.000393
1 67205U 25304P   26071.66251344  .00006115  00000-0  51966-3 0  9994 | 2 67205  70.0024 166.8145 0003696 264.5325  95.5412 14.98338565 14303 | 2026/03/12-15:54:01   62.0853    0.1159   95.5834   96.1064     6950.1664     6947.5976     6952.7352 -68.156903  15.967861   0.000118   0.000350
1 67205U 25304P   26073.26474005  .00013778  00000-0  11591-2 0  9995 | 2 67205  70.0023 162.7749 0003785 270.5582  89.5143 14.98366148 14546 | 2026/03/14-06:21:13  285.0989    0.1159   89.5577   96.1047     6950.0811     6947.4505     6952.7117 -66.862608  20.729537   0.000109   0.000363
1 67205U 25304P   26074.26614805 -.00000476  00000-0 -32131-4 0  9998 | 2 67205  70.0030 160.2487 0003173 268.8753  91.2043 14.98326811 14695 | 2026/03/15-06:23:15  289.1148    0.1160   91.2407   96.1072     6950.2028     6947.9975     6952.4081 -65.884608  23.656679   0.000113   0.000296
1 67205U 25304P   26075.66811819  .00005593  00000-0  47613-3 0  9990 | 2 67205  70.0027 156.7157 0003347 268.8273  91.2503 14.98328890 14909 | 2026/03/16-16:02:05   78.1505    0.1159   91.2886   96.1071     6950.1963     6947.8701     6952.5226 -64.301311  27.671635   0.000139   0.000305
1 67205U 25304P   26077.27035355  .00003616  00000-0  31060-3 0  9995 | 2 67205  70.0024 152.6761 0003346 267.7158  92.3618 14.98339351 15141 | 2026/03/18-06:29:18  301.1671    0.1159   92.4001   96.1064     6950.1640     6947.8384     6952.4895 -62.191941  32.132515   0.000165   0.000291
1 67205U 25304P   26078.27175153  .00003473  00000-0  29866-3 0  9999 | 2 67205  70.0015 150.1499 0003417 268.6527  91.4241 14.98339547 15296 | 2026/03/19-06:31:19  305.1867    0.1159   91.4632   96.1064     6950.1634     6947.7885     6952.5382 -60.714440  34.842025   0.000177   0.000292
1 67205U 25304P   26079.27314996  .00003547  00000-0  30486-3 0  9992 | 2 67205  70.0010 147.6254 0003558 270.5632  89.5120 14.98339062 15449 | 2026/03/20-06:33:20  309.2054    0.1160   89.5528   96.1064     6950.1649     6947.6920     6952.6377 -59.120421  37.482206   0.000188   0.000302
1 67205U 25304P   26080.27455048 -.00004957  00000-0 -40802-3 0  9999 | 2 67205  69.9999 145.0990 0003903 274.0954  85.9759 14.98319130 15599 | 2026/03/21-06:35:21  313.2282    0.1159   86.0205   96.1077     6950.2265     6947.5138     6952.9392 -57.409850  40.051156   0.000200   0.000335
1 67205U 25304P   26081.94356849  .00019747  00000-0  16574-2 0  9992 | 2 67205  70.0005 140.8934 0004058 261.1279  98.9421 14.98343663 15846 | 2026/03/22-22:38:44  199.5998    0.1159   98.9880   96.1061     6950.1506     6947.3303     6952.9710 -54.318551  44.153879   0.000301   0.000272
