# SPACE DATA - HISTORICAL TLEs
# ----------------------------
# NORAD_ID    : 67218
# OBJECT_NAME : STARLINK-36211
# --------------------------------------------------------------------+-----------------------------------------------------------------------+----------------------------------------------------------------------------------------------------------------------------------------
#                  LINE 1                                             |                 LINE 2                                                |      DERIVED PARAMETERS
# --------------------------------------------------------------------+-----------------------------------------------------------------------+----------------------------------------------------------------------------------------------------------------------------------------
# NORAD  COSPAR     TLE_EPOCH      MEANMOT1 MEANMOT2   BSTAR  #  REV  |   NORAD    INC     RAAN     ECC    ARGPER  MEANANOM   MEANMOT     REV |  CAL_DATE              LONG     ARGLAT     PERIOD        SMA         PERIGEE        APOGEE      INC_X      INC_Y      ECC_X      ECC_Y
# ------ ------   -------------- ----------  -------  ------- -- ----     -----  ------- -------- ------- -------- -------- -----------  ----   ------------------- ---------  --------  --------  ------------  ------------   ----------- ---------- ----------  ---------  ---------   
1 67218U 25304AC  25365.83335648 -.01880946  00000-0 -17588-1 0  9997 | 2 67218  69.9995 353.4414 0003693 269.6392  86.7256 15.70436840  3505 | 2025/12/31-20:00:01  231.0231  356.4071   86.7679   91.6942     6735.7846     6733.2971     6738.2721  69.541392  -7.995297  -0.000044  -0.000367
1 67218U 25304AC  26002.11014995  .00244698  00000-0  23755-2 0  9995 | 2 67218  70.0004 349.8631 0005990 289.3888  70.6658 15.65387655  3691 | 2026/01/02-02:38:36  332.0887    0.1194   70.7306   91.9900     6750.2611     6746.2177     6754.3045  68.907696 -12.320122   0.000096  -0.000591
1 67218U 25304AC  26004.16668980 -.02107173  00000-0 -34037-1 0  9995 | 2 67218  69.9995 344.1639 0003590 271.8560 117.3608 15.55880921  4047 | 2026/01/04-04:00:01  331.0627   29.2533  117.3973   92.5521     6777.7301     6775.2969     6780.1633  67.342756 -19.101915  -0.000087  -0.000348
1 67218U 25304AC  26005.16670139 -.00055292  00000-0 -90194-3 0  9995 | 2 67218  70.0001 341.4197 0002917 271.9873 309.1418 15.52530769  4204 | 2026/01/05-04:00:03  142.8886  221.1032  309.1159   92.7518     6787.4769     6785.4970     6789.4568  66.351556 -22.304371  -0.000083  -0.000280
1 67218U 25304AC  26006.25002315 -.00006917  00000-0 -10985-3 0  9991 | 2 67218  70.0000 338.4504 0003056 278.1710 235.9355 15.52511871  4372 | 2026/01/06-06:00:02  244.0262  154.0775  235.9065   92.7529     6787.5320     6785.4577     6789.6062  65.106996 -25.711458  -0.000071  -0.000297
1 67218U 25304AC  26007.50002314  .00019621  00000-0  32118-3 0  9995 | 2 67218  70.0000 335.0262 0003041 275.4985  22.8938 15.52493307  4579 | 2026/01/07-12:00:01  193.6533  298.4059   22.9074   92.7540     6787.5861     6785.5220     6789.6502  63.455066 -29.554265  -0.000101  -0.000287
1 67218U 25304AC  26008.60638326  .00097291  00000-0  15630-2 0  9993 | 2 67218  70.0003 331.9963 0002768 270.7464  89.3406 15.52554756  4709 | 2026/01/08-14:33:11  174.4754    0.1187   89.3723   92.7504     6787.4070     6785.5282     6789.2857  61.804474 -32.867141  -0.000127  -0.000246
1 67218U 25304AC  26009.63727121  .00109160  00000-0  17494-2 0  9998 | 2 67218  70.0000 329.1723 0003251 262.3641  97.7177 15.52572963  4866 | 2026/01/09-15:17:40  189.4720    0.1187   97.7546   92.7493     6787.3539     6785.1473     6789.5605  60.109857 -35.872065  -0.000202  -0.000255
1 67218U 25304AC  26010.92587906  .00070782  00000-0  11415-2 0  9991 | 2 67218  69.9999 325.6423 0003195 270.0239  90.0582 15.52556057  5069 | 2026/01/10-22:13:15  298.4521    0.1187   90.0948   92.7503     6787.4032     6785.2346     6789.5718  57.787044 -39.504982  -0.000180  -0.000264
1 67218U 25304AC  26011.95676437  .00039869  00000-0  64767-3 0  9993 | 2 67218  69.9998 322.8178 0003546 267.6176  92.4605 15.52511934  5221 | 2026/01/11-22:57:44  313.4480    0.1187   92.5011   92.7529     6787.5318     6785.1249     6789.9386  55.770080 -42.304493  -0.000226  -0.000273
1 67218U 25304AC  26013.18094772  .00040502  00000-0  65749-3 0  9993 | 2 67218  70.0003 319.4638 0003608 264.1677  95.9098 15.52527205  5414 | 2026/01/13-04:20:33   38.9343    0.1186   95.9509   92.7520     6787.4873     6785.0384     6789.9362  53.199912 -45.495179  -0.000261  -0.000249
1 67218U 25304AC  26014.59842493 -.00001751  00000-0 -25808-4 0  9998 | 2 67218  70.0004 315.5801 0003867 254.7648 105.3111 15.52453223  5638 | 2026/01/14-14:21:43  193.9343    0.1186  105.3538   92.7564     6787.7029     6785.0781     6790.3277  49.996360 -48.994081  -0.000334  -0.000195
1 67218U 25304AC  26015.83337963 -.01957801  00000-0 -43847-1 0  9994 | 2 67218  70.0005 312.2095 0003842 262.4868 143.7594 15.46535726  5915 | 2026/01/15-20:00:04  237.1709   46.2722  143.7854   93.1113     6805.0064     6802.3919     6807.6209  47.029375 -51.848895  -0.000316  -0.000219
1 67218U 25304AC  26016.91668981 -.00004895  00000-0 -10846-3 0  9991 | 2 67218  70.0009 309.2847 0003040 257.9710  48.8044 15.42713689  6092 | 2026/01/16-22:00:01   10.7039  306.8016   48.8306   93.3420     6816.2412     6814.1691     6818.3134  44.322764 -54.181349  -0.000270  -0.000139
1 67218U 25304AC  26017.91670139  .00004084  00000-0  96668-4 0  9995 | 2 67218  70.0009 306.5846 0003088 269.5285 189.4650 15.42690857  6118 | 2026/01/17-22:00:03  222.1799   98.9877  189.4592   93.3434     6816.3085     6814.2036     6818.4134  41.721171 -56.209162  -0.000249  -0.000182
1 67218U 25304AC  26019.25002315  .00107227  00000-0  24202-2 0  9995 | 2 67218  70.0004 302.9858 0003481 274.1943  27.5964 15.42685501  6082 | 2026/01/19-06:00:02  144.6200  301.8092   27.6149   93.3437     6816.3243     6813.9515     6818.6970  38.110399 -58.716722  -0.000277  -0.000210
1 67218U 25304AC  26020.88152462  .00090382  00000-0  20406-2 0  9990 | 2 67218  69.9983 298.5823 0004094 281.3180  78.7542 15.42747980  6609 | 2026/01/20-21:09:23  319.3244    0.1182   78.8002   93.3399     6816.1402     6813.3497     6818.9308  33.488629 -61.467664  -0.000314  -0.000263
1 67218U 25304AC  26022.17833229  .00082142  00000-0  18573-2 0  9998 | 2 67218  69.9996 295.0826 0002949 277.0684  83.0162 15.42744337  6808 | 2026/01/22-04:16:47   71.2324    0.1181   83.0497   93.3402     6816.1510     6814.1409     6818.1610  29.674538 -63.398468  -0.000250  -0.000157
1 67218U 25304AC  26023.99383393  .00079869  00000-0  18081-2 0  9997 | 2 67218  70.0000 290.1823 0003204 262.4479  97.6339 15.42718016  7088 | 2026/01/23-23:51:07   11.3265    0.1182   97.6703   93.3418     6816.2285     6814.0446     6818.4124  24.150578 -65.701975  -0.000313  -0.000070
1 67218U 25304AC  26025.09612291  .00061886  00000-0  14027-2 0  9998 | 2 67218  70.0030 287.2071 0002588 260.6649  99.4240 15.42769356  7259 | 2026/01/25-02:18:25   52.3069    0.1182   99.4533   93.3386     6816.0773     6814.3133     6817.8413  20.708737 -66.869786  -0.000256  -0.000035
1 67218U 25304AC  26026.13355680  .00056365  00000-0  12802-2 0  9995 | 2 67218  69.9982 284.4029 0003864 269.9334  90.1405 15.42730987  7412 | 2026/01/26-03:12:19   69.6605    0.1182   90.1848   93.3410     6816.1903     6813.5565     6818.8241  17.411276 -67.798197  -0.000374  -0.000096
1 67218U 25304AC  26027.43035732  .00106588  00000-0  24004-2 0  9992 | 2 67218  70.0014 280.9037 0003229 265.2327  94.8486 15.42755818  7619 | 2026/01/27-10:19:42  181.5689    0.1182   94.8855   93.3395     6816.1171     6813.9162     6818.3181  13.241385 -68.737630  -0.000321  -0.000035
1 67218U 25304AC  26028.98651087  .00059956  00000-0  13592-2 0  9996 | 2 67218  70.0018 276.7031 0003209 272.9438  87.1376 15.42771066  7858 | 2026/01/28-23:40:34   27.0824    0.1181   87.1743   93.3385     6816.0722     6813.8850     6818.2595   8.170923 -69.523291  -0.000316  -0.000054
1 67218U 25304AC  26030.08880921  .00049926  00000-0  11381-2 0  9991 | 2 67218  70.0019 273.7271 0003184 264.9076  95.1742 15.42658492  8026 | 2026/01/30-02:07:53   68.0745    0.1181   95.2105   93.3454     6816.4038     6814.2335     6818.5742   4.550424 -69.853845  -0.000318   0.000008
1 67218U 25304AC  26031.77463276  .00037701  00000-0  85913-3 0  9999 | 2 67218  70.0002 269.1777 0003867 272.3375  87.7364 15.42743074  8287 | 2026/01/31-18:35:28  320.8795    0.1182   87.7807   93.3402     6816.1547     6813.5189     6818.7905  -1.004597 -69.992991  -0.000387  -0.000010
1 67218U 25304AC  26032.94174296  .00032128  00000-0  73319-3 0  9995 | 2 67218  69.9988 266.0279 0004225 265.6948  94.3751 15.42741004  8465 | 2026/02/01-22:36:06   25.5067    0.1182   94.4234   93.3404     6816.1608     6813.2810     6819.0406  -4.848866 -69.830656  -0.000418   0.000061
1 67218U 25304AC  26034.04402537  .00077389  00000-0  17480-2 0  9994 | 2 67218  70.0011 263.0533 0003256 276.4066  83.6745 15.42795756  8635 | 2026/02/03-01:03:23   66.4782    0.1182   83.7116   93.3370     6815.9995     6813.7802     6818.2188  -8.466351 -69.487228  -0.000326   0.000003
1 67218U 25304AC  26035.72986108  .00028387  00000-0  64831-3 0  9998 | 2 67218  69.9982 258.5043 0003211 258.3126 101.7696 15.42753921  8894 | 2026/02/04-17:30:59  319.2781    0.1182  101.8056   93.3396     6816.1227     6813.9341     6818.3114 -13.950249 -68.594013  -0.000295   0.000126
1 67218U 25304AC  26038.06984145 -.00471838  00000-0 -15140-1 0  9999 | 2 67218  70.0011 252.2241 0002805 272.9165  87.1691 15.34144913  9253 | 2026/02/07-01:40:34   90.5923    0.1177   87.2012   93.8634     6841.5985     6839.6794     6843.5176 -21.370971 -66.659100  -0.000271   0.000072
1 67218U 25304AC  26039.16668981 -.02392916  00000-0 -95556-1 0  9998 | 2 67218  70.0002 249.3106 0003802 276.3106   8.7620 15.29006928  5929 | 2026/02/08-04:00:01  204.5578  285.0792    8.7686   94.1788     6856.9167     6854.3097     6859.5237 -24.731195 -65.485846  -0.000368   0.000094
1 67218U 25304AC  26040.25002315 -.02468052  00000-0 -11260+0 0  9996 | 2 67218  69.9985 246.4555 0002584 262.1258 214.0008 15.24130454  5883 | 2026/02/09-06:00:02   47.5130  116.1100  213.9842   94.4801     6871.5348     6869.7591     6873.3104 -27.961685 -64.171132  -0.000221   0.000135
1 67218U 25304AC  26041.50002314 -.02671068  00000-0 -14503+0 0  9990 | 2 67218  70.0003 243.1928 0003252 271.7849 207.1573 15.18540588  5910 | 2026/02/10-12:00:01  138.4488  118.9252  207.1403   94.8279     6888.3875     6886.1474     6890.6276 -31.569414 -62.477308  -0.000295   0.000138
1 67218U 25304AC  26042.58335648 -.02840014  00000-0 -17509+0 0  9996 | 2 67218  70.0021 240.3863 0003024 250.9833  17.7711 15.13696333  5910 | 2026/02/11-14:00:01   22.5930  268.7650   17.7817   95.1314     6903.0762     6900.9887     6905.1637 -34.591521 -60.858202  -0.000200   0.000227
1 67218U 25304AC  26043.83335647 -.03359604  00000-0 -24113+0 0  9994 | 2 67218  69.9984 237.1680 0001563 260.1200 323.8466 15.08271763  5944 | 2026/02/12-20:00:01  162.0776  223.9560  323.8360   95.4735     6919.6178     6918.5363     6920.6993 -37.951564 -58.817130  -0.000115   0.000106
1 67218U 25304AC  26044.91668981 -.02108861  00000-0 -17313+0 0  9994 | 2 67218  70.0107 234.4188 0003258 276.2614  56.4206 15.02744818  5869 | 2026/02/13-22:00:01   87.2613  332.7131   56.4517   95.8247     6936.5739     6934.3139     6938.8338 -40.736156 -56.939123  -0.000284   0.000160
1 67218U 25304AC  26046.16668981 -.00044206  00000-0 -36417-2 0  9992 | 2 67218  70.0002 231.2575 0002812 279.2919 322.7468 14.99154683  5830 | 2026/02/15-04:00:01  272.5444  242.0192  322.7273   96.0541     6947.6438     6945.6901     6949.5975 -43.807622 -54.597805  -0.000245   0.000138
1 67218U 25304AC  26047.25002315  .00011802  00000-0  97487-3 0  9995 | 2 67218  70.0001 228.5232 0002857 272.7666  54.2488 14.99131472  5698 | 2026/02/16-06:00:02  221.4561  327.0420   54.2754   96.0556     6947.7155     6945.7305     6949.7005 -46.362237 -52.445752  -0.000223   0.000179
1 67218U 25304AC  26048.50002314  .00004792  00000-0  40064-3 0  9992 | 2 67218  70.0004 225.3677 0002830 269.4746 321.7287 14.99141871  5886 | 2026/02/17-12:00:01   50.9123  231.1832  321.7086   96.0550     6947.6834     6945.7172     6949.6496 -49.179085 -49.814392  -0.000200   0.000201
1 67218U 25304AC  26049.59149264  .00002628  00000-0  22330-3 0  9990 | 2 67218  70.0010 222.6129 0002810 270.6861  89.3977 14.99142963 10999 | 2026/02/18-14:11:44  318.8817    0.1160   89.4299   96.0549     6947.6800     6945.7277     6949.6323 -51.516863 -47.393595  -0.000193   0.000205
1 67218U 25304AC  26050.79252535  .00003509  00000-0  29550-3 0  9990 | 2 67218  70.0014 219.5805 0002867 269.6902  90.3929 14.99143887 11171 | 2026/02/19-19:01:14   35.6718    0.1160   90.4258   96.0548     6947.6772     6945.6853     6949.6691 -53.952189 -44.602212  -0.000181   0.000222
1 67218U 25304AC  26051.79338505  .00002875  00000-0  24348-3 0  9998 | 2 67218  70.0016 217.0536 0002941 270.4458  89.6364 14.99143916 11320 | 2026/02/20-19:02:28   39.4953    0.1159   89.6701   96.0548     6947.6771     6945.6337     6949.7204 -55.866328 -42.180296  -0.000179   0.000233
1 67218U 25304AC  26052.86096614  .00003557  00000-0  29938-3 0  9997 | 2 67218  70.0017 214.3580 0003002 271.4439  88.6376 14.99147864 11484 | 2026/02/21-20:39:47   67.6396    0.1159   88.6720   96.0546     6947.6649     6945.5792     6949.7506 -57.788323 -39.506300  -0.000176   0.000243
1 67218U 25304AC  26053.86182521  .00003467  00000-0  29202-3 0  9995 | 2 67218  70.0017 211.8319 0003099 271.3085  88.7720 14.99147170 11639 | 2026/02/22-20:41:01   71.4624    0.1160   88.8075   96.0546     6947.6670     6945.5139     6949.8201 -59.473386 -36.920920  -0.000169   0.000259
1 67218U 25304AC  26054.86268388  .00004298  00000-0  36014-3 0  9994 | 2 67218  70.0017 209.3055 0003086 272.0875  87.9931 14.99146498 11782 | 2026/02/23-20:42:15   75.2843    0.1159   88.0284   96.0547     6947.6691     6945.5250     6949.8131 -61.043043 -34.263463  -0.000161   0.000263
1 67218U 25304AC  26056.46406154  .00003625  00000-0  30504-3 0  9998 | 2 67218  70.0005 205.2623 0003120 266.3684  93.7118 14.99142488 12023 | 2026/02/25-11:08:14  297.9949    0.1159   93.7475   96.0549     6947.6815     6945.5138     6949.8492 -63.305901 -29.873616  -0.000115   0.000290
1 67218U 25304AC  26057.53164461  .00005038  00000-0  42075-3 0  9995 | 2 67218  70.0009 202.5671 0002957 263.9582  96.1240 14.99146635 12185 | 2026/02/26-12:45:34  325.1547    0.1159   96.1577   96.0546     6947.6687     6945.6142     6949.7231 -64.640982 -26.863905  -0.000084   0.000283
1 67218U 25304AC  26058.66594982  .00005904  00000-0  49162-3 0  9991 | 2 67218  70.0011 199.7045 0003348 270.7488  89.3287 14.99150998 12357 | 2026/02/27-15:58:58   17.6224    0.1159   89.3671   96.0544     6947.6552     6945.3291     6949.9813 -65.902120 -23.602215  -0.000117   0.000314
1 67218U 25304AC  26059.80031681 -.00139151  00000-0 -11716-1 0  9996 | 2 67218  70.0014 196.8414 0003029 287.5358  72.5470 14.98888863 12521 | 2026/02/28-19:12:27   70.1015    0.1159   72.5801   96.0712     6948.4652     6946.3605     6950.5699 -66.999068 -20.281047  -0.000171   0.000250
1 67218U 25304AC  26060.80168110 -.00051627  00000-0 -43461-2 0  9990 | 2 67218  70.0015 194.3168 0002994 285.3118  74.7710 14.98372657 12677 | 2026/03/01-19:14:25   74.1061    0.1159   74.8041   96.1043     6950.0610     6947.9801     6952.1418 -67.827482 -17.310190  -0.000148   0.000260
1 67218U 25304AC  26061.83335647  .00033845  00000-0  28305-2 0  9995 | 2 67218  70.0015 191.7155 0003363 297.7484 225.5226 14.98330217  5887 | 2026/03/02-20:00:01  285.9673  163.2435  225.4951   96.1070     6950.1922     6947.8549     6952.5296 -68.543223 -14.213958  -0.000214   0.000260
1 67218U 25304AC  26063.47207181  .00010548  00000-0  88970-3 0  9998 | 2 67218  70.0025 187.5839 0003340 290.3462  69.7338 14.98363693 13076 | 2026/03/04-11:19:47  325.4763    0.1159   69.7697   96.1048     6950.0887     6947.7674     6952.4100 -69.390165  -9.238780  -0.000156   0.000295
1 67218U 25304AC  26064.60699118  .00001726  00000-0  15245-3 0  9992 | 2 67218  70.0029 184.7229 0003369 281.5424  78.5357 14.98327272 13244 | 2026/03/05-14:34:04   17.1760    0.1159   78.5735   96.1072     6950.2013     6947.8598     6952.5428 -69.765209  -5.763817  -0.000094   0.000323
1 67218U 25304AC  26066.27599748  .00013199  00000-0  11114-2 0  9992 | 2 67218  70.0024 180.5154 0003505 285.7752  74.3020 14.98347391 13494 | 2026/03/07-06:37:26  264.5306    0.1159   74.3407   96.1059     6950.1391     6947.7031     6952.5751 -69.999568  -0.629693  -0.000098   0.000336
1 67218U 25304AC  26067.54442943  .00003169  00000-0  27323-3 0  9993 | 2 67218  70.0015 177.3173 0003732 284.9067  75.1679 14.98339259 13685 | 2026/03/08-13:03:58    4.8937    0.1159   75.2092   96.1064     6950.1643     6947.5705     6952.7581 -69.924782   3.276409  -0.000079   0.000365
1 67218U 25304AC  26068.54583269  .00004429  00000-0  37871-3 0  9990 | 2 67218  70.0018 174.7927 0003421 276.8640  83.2130 14.98331866 13833 | 2026/03/09-13:05:59    8.9085    0.1159   83.2519   96.1069     6950.1871     6947.8095     6952.5648 -69.712892   6.353326  -0.000010   0.000342
1 67218U 25304AC  26069.68075249  .00005046  00000-0  43030-3 0  9990 | 2 67218  70.0019 171.9320 0003459 278.0790  81.9977 14.98337432 14000 | 2026/03/10-16:20:17   61.5962    0.1160   82.0370   96.1065     6950.1699     6947.7658     6952.5740 -69.309035   9.824646  -0.000000   0.000346
1 67218U 25304AC  26070.68215147  .00004361  00000-0  37300-3 0  9997 | 2 67218  70.0023 169.4071 0003563 276.9658  83.1096 14.98337778 14151 | 2026/03/11-16:22:17   65.6107    0.1159   83.1501   96.1065     6950.1688     6947.6925     6952.6452 -68.809330  12.868491   0.000023   0.000356
1 67218U 25304AC  26071.68355190  .00006239  00000-0  53004-3 0  9996 | 2 67218  70.0022 166.8832 0003390 273.6823  86.3948 14.98342466 14300 | 2026/03/12-16:24:18   69.6255    0.1159   86.4336   96.1062     6950.1543     6947.7982     6952.5104 -68.175805  15.886081   0.000056   0.000334
1 67218U 25304AC  26072.95198950  .00005826  00000-0  49549-3 0  9996 | 2 67218  70.0013 163.6835 0002799 279.5154  80.5689 14.98342119 14495 | 2026/03/13-22:50:51  170.9703    0.1159   80.6005   96.1062     6950.1554     6948.2101     6952.1008 -67.181957  19.666382   0.000033   0.000278
1 67218U 25304AC  26073.95338537  .00004532  00000-0  38734-3 0  9991 | 2 67218  70.0024 161.1592 0003736 274.0877  85.9855 14.98335402 14642 | 2026/03/14-22:52:52  174.9983    0.1159   86.0282   96.1067     6950.1762     6947.5796     6952.7728 -66.251639  22.606555   0.000095   0.000361
1 67218U 25304AC  26074.95476404 -.00015121  00000-0 -12627-2 0  9998 | 2 67218  70.0023 158.6351 0003458 285.7690  74.3088 14.98312405 14792 | 2026/03/15-22:54:51  179.0020    0.1160   74.3470   96.1081     6950.2473     6947.8439     6952.6507 -65.191684  25.502282   0.000034   0.000344
1 67218U 25304AC  26076.22305687  .00100856  00000-0  82652-2 0  9997 | 2 67218  70.0031 155.4360 0004713 281.2580  78.8050 14.98671589 14980 | 2026/03/17-05:21:12  280.3179    0.1160   78.8580   96.0851     6949.1368     6945.8616     6952.4119 -63.667643  29.100948   0.000108   0.000459
1 67218U 25304AC  26077.29137786  .00004033  00000-0  34553-3 0  9996 | 2 67218  70.0014 152.7426 0002428 273.4896  86.5985 14.98341339 15147 | 2026/03/18-06:59:35  308.7024    0.1159   86.6263   96.1063     6950.1578     6948.4703     6951.8453 -62.228304  32.059852   0.000098   0.000222
1 67218U 25304AC  26078.29323110 -.00566433  00000-0 -52409-1 0  9992 | 2 67218  69.9969 150.2165 0006489  47.3366 312.8338 14.96711677 15294 | 2026/03/19-07:02:15  312.8022    0.1158  312.7792   96.2109     6955.2019     6950.6887     6959.7152 -60.750907  34.769143  -0.000619  -0.000196
1 67218U 25304AC  26079.42771417  .00007925  00000-0  67106-3 0  9991 | 2 67218  70.0043 147.3574 0001499 287.8427  72.2569 14.98340240 15464 | 2026/03/20-10:15:54    5.3953    0.1160   72.2733   96.1063     6950.1612     6949.1194     6951.2031 -58.947232  37.760110   0.000038   0.000145
1 67218U 25304AC  26080.91667824  .00002476  00000-0  21524-3 0  9993 | 2 67218  70.0003 143.6033 0003791 268.6993 200.6029 14.98322971  5728 | 2026/03/21-22:00:00   76.9357  109.2869  200.5876   96.1074     6950.2146     6947.5798     6952.8495 -56.345200  41.536255   0.000232   0.000300
1 67218U 25304AC  26082.16486447  .00004796  00000-0  40941-3 0  9993 | 2 67218  70.0002 140.4563 0003805 268.0070  92.0654 14.98334713 15877 | 2026/03/23-03:57:24  280.1374    0.1160   92.1090   96.1067     6950.1783     6947.5338     6952.8229 -53.979899  44.566787   0.000252   0.000285
