# SPACE DATA - HISTORICAL TLEs
# ----------------------------
# NORAD_ID    : 43791
# OBJECT_NAME : CAPELLA-1
# --------------------------------------------------------------------+-----------------------------------------------------------------------+----------------------------------------------------------------------------------------------------------------------------------------
#                  LINE 1                                             |                 LINE 2                                                |      DERIVED PARAMETERS
# --------------------------------------------------------------------+-----------------------------------------------------------------------+----------------------------------------------------------------------------------------------------------------------------------------
# NORAD  COSPAR     TLE_EPOCH      MEANMOT1 MEANMOT2   BSTAR  #  REV  |   NORAD    INC     RAAN     ECC    ARGPER  MEANANOM   MEANMOT     REV |  CAL_DATE              LONG     ARGLAT     PERIOD        SMA         PERIGEE        APOGEE      INC_X      INC_Y      ECC_X      ECC_Y
# ------ ------   -------------- ----------  -------  ------- -- ----     -----  ------- -------- ------- -------- -------- -----------  ----   ------------------- ---------  --------  --------  ------------  ------------   ----------- ---------- ----------  ---------  ---------   
1 67385U 26004Y   26022.23771718  .00006845  00000-0  74801-3 0  9995 | 2 67385  97.7982  23.2332 0002555 227.4658 132.6344 14.88180275  1580 | 2026/01/22-05:42:18  183.8389    0.1217  132.6559   96.7625     6981.7583     6979.9745     6983.5422  89.867442  38.578890  -0.000084  -0.000241
1 67385U 26004Y   26023.51522233  .00009278  00000-0  10108-2 0  9995 | 2 67385  97.7985  24.4899 0002694 221.4759 138.6253 14.88201945  1778 | 2026/01/23-12:21:55  283.7422    0.1216  138.6457   96.7611     6981.6906     6979.8097     6983.5714  88.999995  40.540689  -0.000110  -0.000246
1 67385U 26004Y   26024.92718080  .00009933  00000-0  10810-2 0  9996 | 2 67385  97.7987  25.8789 0002819 214.2834 145.8201 14.88226251  1989 | 2026/01/24-22:15:08   72.0476    0.1216  145.8382   96.7595     6981.6145     6979.6464     6983.5827  87.991307  42.686246  -0.000140  -0.000245
1 67385U 26004Y   26025.93570686  .00009922  00000-0  10793-2 0  9994 | 2 67385  97.7988  26.8711 0002897 208.4140 151.6919 14.88245238  2132 | 2026/01/25-22:27:25   75.1164    0.1216  151.7076   96.7582     6981.5552     6979.5326     6983.5777  87.239036  44.203574  -0.000165  -0.000238
1 67385U 26004Y   26027.28038794  .00009697  00000-0  10544-2 0  9996 | 2 67385  97.7989  28.1941 0002977 201.7649 158.3442 14.88270611  2332 | 2026/01/27-06:43:45  199.2008    0.1217  158.3568   96.7566     6981.4758     6979.3974     6983.5542  86.195267  46.206069  -0.000192  -0.000228
1 67385U 26004Y   26028.89397370  .00009837  00000-0  10686-2 0  9995 | 2 67385  97.7986  29.7814 0003109 195.3088 164.8035 14.88302428  2576 | 2026/01/28-21:27:19   60.0916    0.1216  164.8128   96.7545     6981.3763     6979.2058     6983.5468  84.882020  48.575805  -0.000219  -0.000220
1 67385U 26004Y   26030.10414080  .00008152  00000-0  88636-3 0  9990 | 2 67385  97.7982  30.9717 0003247 191.6780 168.4362 14.88323941  2755 | 2026/01/30-02:29:57  135.7524    0.1217  168.4437   96.7531     6981.3090     6979.0422     6983.5759  83.854288  50.328385  -0.000239  -0.000220
1 67385U 26004Y   26031.11260186  .00005619  00000-0  61282-3 0  9991 | 2 67385  97.7979  31.9637 0003366 188.5429 171.5731 14.88335815  2905 | 2026/01/31-02:42:08  138.7985    0.1217  171.5788   96.7524     6981.2719     6978.9220     6983.6218  82.970140  51.772435  -0.000256  -0.000219
1 67385U 26004Y   26032.45720397  .00005273  00000-0  57518-3 0  9997 | 2 67385  97.7978  33.2865 0003536 183.5880 176.5312 14.88352138  3107 | 2026/02/01-10:58:22  262.8546    0.1217  176.5337   96.7513     6981.2209     6978.7523     6983.6894  81.752770  53.673963  -0.000283  -0.000212
1 67385U 26004Y   26033.46564595  .00006331  00000-0  68910-3 0  9999 | 2 67385  97.7981  34.2786 0003655 179.4355 180.6867 14.88366093  3259 | 2026/02/02-11:10:31  265.8926    0.1217  180.6862   96.7504     6981.1772     6978.6256     6983.7288  80.811422  55.081598  -0.000304  -0.000203
1 67385U 26004Y   26034.47407778  .00007274  00000-0  79047-3 0  9990 | 2 67385  97.7986  35.2707 0003751 175.1536 184.9718 14.88382090  3403 | 2026/02/03-11:22:40  268.9267    0.1217  184.9681   96.7494     6981.1272     6978.5086     6983.7458  79.846003  56.472842  -0.000323  -0.000190
1 67385U 26004Y   26035.48249858  .00007494  00000-0  81377-3 0  9998 | 2 67385  97.7991  36.2630 0003842 171.3331 188.7952 14.88398386  3550 | 2026/02/04-11:34:47  271.9569    0.1216  188.7885   96.7483     6981.0762     6978.3941     6983.7584  78.856433  57.847445  -0.000340  -0.000178
1 67385U 26004Y   26036.69258725  .00009662  00000-0  10466-2 0  9994 | 2 67385  97.7996  37.4540 0003947 167.5880 192.5435 14.88422505  3730 | 2026/02/05-16:37:19  347.5874    0.1217  192.5337   96.7467     6981.0008     6978.2454     6983.7562  77.637413  59.474312  -0.000358  -0.000167
1 67385U 26004Y   26037.76820748  .00007222  00000-0  78378-3 0  9990 | 2 67385  97.7999  38.5127 0004033 165.1822 194.9514 14.88437388  3899 | 2026/02/06-18:26:13   14.8100    0.1217  194.9395   96.7458     6980.9543     6978.1389     6983.7697  76.525503  60.898833  -0.000369  -0.000162
1 67385U 26004Y   26038.77659291  .00006775  00000-0  73549-3 0  9992 | 2 67385  97.7999  39.5053 0004112 163.0845 197.0510 14.88449614  4041 | 2026/02/07-18:38:17   17.8282    0.1217  197.0372   96.7450     6980.9161     6978.0455     6983.7866  75.459052  62.215367  -0.000380  -0.000158
1 67385U 26004Y   26039.78497007  .00005587  00000-0  60750-3 0  9999 | 2 67385  97.7999  40.4978 0004246 160.7029 199.4349 14.88459908  4193 | 2026/02/08-18:50:21   20.8431    0.1216  199.4187   96.7443     6980.8839     6977.9198     6983.8480  74.370066  63.513099  -0.000396  -0.000154
1 67385U 26004Y   26040.86056215  .00006640  00000-0  72048-3 0  9996 | 2 67385  97.8000  41.5563 0004375 157.0444 203.0970 14.88475942  4358 | 2026/02/09-20:39:12   48.0543    0.1217  203.0773   96.7432     6980.8337     6977.7796     6983.8879  73.184156  64.876184  -0.000415  -0.000140
1 67385U 26004Y   26041.93614586  .00006567  00000-0  71231-3 0  9997 | 2 67385  97.7999  42.6149 0004537 153.1969 206.9483 14.88488970  4519 | 2026/02/10-22:28:03   75.2622    0.1217  206.9248   96.7424     6980.7930     6977.6258     6983.9602  71.973004  66.217121  -0.000437  -0.000124
1 67385U 26004Y   26042.94449546  .00007547  00000-0  81735-3 0  9990 | 2 67385  97.7999  43.6071 0004693 149.8865 210.2623 14.88503727  4662 | 2026/02/11-22:40:04   78.2661    0.1217  210.2352   96.7414     6980.7469     6977.4708     6984.0229  70.815577  67.453498  -0.000456  -0.000110
1 67385U 26004Y   26043.95283521  .00006695  00000-0  72560-3 0  9990 | 2 67385  97.8000  44.5992 0004726 146.5916 213.5599 14.88517110  4812 | 2026/02/12-22:52:04   81.2675    0.1216  213.5300   96.7406     6980.7050     6977.4059     6984.0041  69.637106  68.669596  -0.000464  -0.000092
1 67385U 26004Y   26045.43171869  .00006171  00000-0  66904-3 0  9990 | 2 67385  97.7998  46.0550 0004795 143.5228 216.6316 14.88534516  5038 | 2026/02/14-10:21:40  253.6645    0.1216  216.5988   96.7394     6980.6506     6977.3034     6983.9978  67.869886  70.416471  -0.000473  -0.000080
1 67385U 26004Y   26046.50726085  .00007050  00000-0  76319-3 0  9993 | 2 67385  97.7995  47.1137 0004790 139.9463 220.2108 14.88547950  5196 | 2026/02/15-12:10:27  280.8584    0.1217  220.1754   96.7386     6980.6086     6977.2649     6983.9523  66.557028  71.658246  -0.000475  -0.000059
1 67385U 26004Y   26047.51557422  .00005581  00000-0  60534-3 0  9991 | 2 67385  97.7990  48.1066 0004862 137.0813 223.0784 14.88555727  5340 | 2026/02/16-12:22:25  283.8495    0.1217  223.0404   96.7381     6980.5843     6977.1903     6983.9783  65.304971  72.800448  -0.000484  -0.000044
1 67385U 26004Y   26048.52387942  .00005366  00000-0  58215-3 0  9995 | 2 67385  97.7991  49.0992 0004957 135.2493 224.9125 14.88566392  5493 | 2026/02/17-12:34:23  286.8385    0.1217  224.8724   96.7374     6980.5510     6977.0907     6984.0112  64.034094  73.920895  -0.000494  -0.000038
1 67385U 26004Y   26049.59939684  .00005834  00000-0  63214-3 0  9994 | 2 67385  97.7994  50.1577 0005099 133.2391 226.9252 14.88579002  5654 | 2026/02/18-14:23:07  314.0239    0.1216  226.8825   96.7366     6980.5115     6976.9522     6984.0709  62.657800  75.091429  -0.000509  -0.000030
1 67385U 26004Y   26050.87656307  .00005585  00000-0  60524-3 0  9999 | 2 67385  97.8000  51.4151 0005209 129.1822 230.9858 14.88592525  5844 | 2026/02/19-21:02:15   53.8015    0.1216  230.9394   96.7357     6980.4693     6976.8331     6984.1054  60.995279  76.448780  -0.000521  -0.000005
1 67385U 26004Y   26051.88484351  .00005595  00000-0  60607-3 0  9992 | 2 67385  97.8005  52.4079 0005357 126.9892 233.1816 14.88603684  5999 | 2026/02/20-21:14:10   56.7806    0.1217  233.1325   96.7349     6980.4344     6976.6950     6984.1738  59.661818  77.494550  -0.000536   0.000006
1 67385U 26004Y   26052.96033318  .00005063  00000-0  54890-3 0  9992 | 2 67385  97.8008  53.4668 0005420 124.8626 235.3101 14.88615455  6159 | 2026/02/21-23:02:52   83.9562    0.1217  235.2591   96.7342     6980.3976     6976.6142     6984.1809  58.219690  78.584122  -0.000542   0.000016
1 67385U 26004Y   26053.96859582  .00006277  00000-0  67880-3 0  9993 | 2 67385  97.8011  54.4597 0005430 122.5116 237.6626 14.88630339  6307 | 2026/02/22-23:14:46   86.9301    0.1216  237.6100   96.7332     6980.3510     6976.5607     6984.1414  56.849377  79.581427  -0.000542   0.000029
1 67385U 26004Y   26054.97684927  .00005670  00000-0  61356-3 0  9992 | 2 67385  97.8011  55.4525 0005469 120.3767 239.7992 14.88642420  6458 | 2026/02/23-23:26:39   89.9006    0.1218  239.7451   96.7324     6980.3133     6976.4957     6984.1308  55.461954  80.554496  -0.000545   0.000040
1 67385U 26004Y   26055.98509537  .00004983  00000-0  53981-3 0  9998 | 2 67385  97.8011  56.4459 0005454 117.3751 242.8021 14.88653158  6603 | 2026/02/24-23:38:32   92.8683    0.1216  242.7465   96.7317     6980.2797     6976.4727     6984.0868  54.057026  81.503945  -0.000542   0.000059
1 67385U 26004Y   26056.99333379  .00005479  00000-0  59279-3 0  9996 | 2 67385  97.8009  57.4387 0005515 115.1969 244.9821 14.88665308  6753 | 2026/02/25-23:50:24   95.8333    0.1217  244.9248   96.7309     6980.2417     6976.3921     6984.0913  52.636604  82.428174  -0.000547   0.000071
1 67385U 26004Y   26058.27042251  .00006893  00000-0  74368-3 0  9992 | 2 67385  97.8003  58.6961 0005634 112.2244 247.9571 14.88684179  6947 | 2026/02/27-06:29:24  195.5841    0.1217  247.8973   96.7297     6980.1827     6976.2501     6984.1154  50.814813  83.562871  -0.000556   0.000089
1 67385U 26004Y   26059.27863990  .00006802  00000-0  73379-3 0  9995 | 2 67385  97.8002  59.6888 0005711 109.6524 250.5310 14.88697805  7090 | 2026/02/28-06:41:14  198.5415    0.1217  250.4693   96.7288     6980.1401     6976.1538     6984.1265  49.359408  84.430611  -0.000561   0.000106
1 67385U 26004Y   26060.48848681  .00007623  00000-0  82117-3 0  9992 | 2 67385  97.8002  60.8800 0005787 106.7891 253.3961 14.88717320  7274 | 2026/03/01-11:43:25  274.0859    0.1217  253.3326   96.7276     6980.0791     6976.0398     6984.1185  47.593524  85.438490  -0.000565   0.000124
1 67385U 26004Y   26061.49668069  .00007329  00000-0  78941-3 0  9997 | 2 67385  97.8002  61.8728 0005781 104.5237 255.6621 14.88732633  7427 | 2026/03/02-11:55:13  277.0360    0.1216  255.5979   96.7266     6980.0313     6975.9961     6984.0664  46.106007  86.250306  -0.000562   0.000136
1 67385U 26004Y   26062.50486471  .00006936  00000-0  74716-3 0  9994 | 2 67385  97.8002  62.8657 0005732 102.4524 257.7335 14.88746768  7576 | 2026/03/03-12:07:00  279.9830    0.1217  257.6693   96.7257     6979.9871     6975.9862     6983.9880  44.604495  87.036304  -0.000554   0.000145
1 67385U 26004Y   26063.51303731  .00008477  00000-0  91125-3 0  9998 | 2 67385  97.8004  63.8585 0005724 100.8276 259.3585 14.88765131  7723 | 2026/03/04-12:18:46  282.9258    0.1216  259.2940   96.7245     6979.9297     6975.9344     6983.9250  43.089830  87.796269  -0.000552   0.000151
1 67385U 26004Y   26064.52119910  .00008200  00000-0  88134-3 0  9994 | 2 67385  97.8005  64.8520 0005705  97.6134 262.5731 14.88781243  7876 | 2026/03/05-12:30:31  285.8638    0.1217  262.5083   96.7234     6979.8793     6975.8973     6983.8614  41.561097  88.530294  -0.000544   0.000172
1 67385U 26004Y   26065.99997700  .00007296  00000-0  78794-3 0  9992 | 2 67385  97.8000  66.3091 0005847  93.0220 267.1666 14.88626367  8092 | 2026/03/06-23:59:58   98.2222    0.1217  267.0997   96.7335     6980.3635     6976.2820     6984.4449  39.296269  89.558044  -0.000547   0.000206
1 67385U 26004Y   26067.00823495  .00010006  00000-0  10776-2 0  9993 | 2 67385  97.8010  67.3012 0005749  91.5440 268.6436 14.88641984  8245 | 2026/03/08-00:11:51  101.1978    0.1217  268.5777   96.7325     6980.3146     6976.3017     6984.3276  37.740107  90.225938  -0.000536   0.000207
1 67385U 26004Y   26068.48698898  .00007484  00000-0  80723-3 0  9999 | 2 67385  97.8018  68.7579 0005775  87.8651 272.3227 14.88666263  8468 | 2026/03/09-11:41:15  273.5499    0.1217  272.2566   96.7309     6980.2387     6976.2077     6984.2698  35.434524  91.156934  -0.000530   0.000229
1 67385U 26004Y   26069.49521565  .00006952  00000-0  75011-3 0  9990 | 2 67385  97.8019  69.7509 0005734  85.4973 274.6899 14.88682716  8617 | 2026/03/10-11:53:06  276.5128    0.1217  274.6244   96.7298     6980.1873     6976.1849     6984.1898  33.849464  91.757427  -0.000521   0.000240
1 67385U 26004Y   26070.50343248  .00006521  00000-0  70373-3 0  9992 | 2 67385  97.8017  70.7440 0005653  83.0301 277.1559 14.88697170  8767 | 2026/03/11-12:04:56  279.4727    0.1217  277.0916   96.7289     6980.1421     6976.1963     6984.0880  32.253975  92.330134  -0.000507   0.000250
1 67385U 26004Y   26071.57885495  .00006079  00000-0  65621-3 0  9993 | 2 67385  97.8014  71.8031 0005597  80.7619 279.4231 14.88709883  8920 | 2026/03/12-13:53:33  306.6267    0.1217  279.3598   96.7280     6980.1024     6976.1956     6984.0092  30.541765  92.910249  -0.000497   0.000258
1 67385U 26004Y   26072.92311950  .00006873  00000-0  74085-3 0  9999 | 2 67385  97.8010  73.1268 0005576  78.4894 281.6949 14.88727587  9124 | 2026/03/13-22:09:17   70.5639    0.1217  281.6323   96.7269     6980.0471     6976.1550     6983.9391  28.387191  93.590614  -0.000491   0.000265
1 67385U 26004Y   26073.93130628  .00007798  00000-0  83927-3 0  9994 | 2 67385  97.8008  74.1198 0005604  76.3488 283.8353 14.88743649  9278 | 2026/03/14-22:21:04   73.5121    0.1217  283.7729   96.7259     6979.9969     6976.0853     6983.9084  26.760925  94.068323  -0.000488   0.000276
1 67385U 26004Y   26074.93948351  .00005734  00000-0  61873-3 0  9999 | 2 67385  97.8009  75.1127 0005628  74.2864 285.8973 14.88755144  9423 | 2026/03/15-22:32:51   76.4571    0.1217  285.8353   96.7251     6979.9609     6976.0326     6983.8892  25.126869  94.518022  -0.000484   0.000286
1 67385U 26004Y   26076.14928607  .00004819  00000-0  52081-3 0  9990 | 2 67385  97.8010  76.3044 0005603  71.3948 288.7877 14.88767403  9606 | 2026/03/17-03:34:58  151.9879    0.1217  288.7269   96.7243     6979.9226     6976.0118     6983.8335  23.155711  95.020254  -0.000474   0.000299
1 67385U 26004Y   26078.77087557  .00004219  00000-0  46024-3 0  9995 | 2 67385  97.7956  78.8876 0002117  78.2890 281.8564 14.88463048  9990 | 2026/03/19-18:30:03   15.7980    0.1217  281.8327   96.7441     6980.8741     6979.3962     6982.3519  18.848570  95.962028  -0.000195   0.000082
